,BANK NAME,IFSC,OFFICE,ADDRESS,DISTRICT,CITY,STATE,PHONE
0,THE NAINITAL BANK LIMITED,NTBL0AGR072,AGRA,"KENDRIYA HINDI SANSTHAN ROAD, KHANDARI CROSSING, AGRA (UP)",AGRA,AGRA,UTTAR PRADESH,2530642
1,THE NAINITAL BANK LIMITED,NTBL0ALM002,ALMORA,"L.R.SAH ROAD, ALMORA (UTTARAKHAND)",ALMORA,ALMORA,UTTARAKHAND,230030
2,THE NAINITAL BANK LIMITED,NTBL0ALM082,LOWAR MALL,"LOWER MALL ROAD ,ALMORA, 263601, UTTARAKHAND",ALMORA,ALMORA,UTTARAKHAND,231701
3,THE NAINITAL BANK LIMITED,NTBL0AMB115,AMBALA,"02 OPPOSITE NEW GRAIN MARKET,HISSAR ROAD AMBALA",AMBALA,AMBALA,HARYANA,2202300
4,THE NAINITAL BANK LIMITED,NTBL0BAG012,BAGESHWAR,"VIKRANT SHOPING COMPLEX,CHOWK BAZAR, BAGESHWAR (UTTARAKHAND)",BAGESHWAR,BAGESHWAR,UTTARAKHAND,220023
5,THE NAINITAL BANK LIMITED,NTBL0BAH018,BAHERI,"NAINITAL ROAD, BAHERI 243201, BAREILLY (U.P)",BAREILLY,BAHERI,UTTAR PRADESH,222054
6,THE NAINITAL BANK LIMITED,NTBL0BAI019,BAILPARAO,"BAILPARAO , NAINITAL (UTTARAKHAND)",NAINITAL,BAILPARAO,UTTARAKHAND,286023
7,THE NAINITAL BANK LIMITED,NTBL0BAL132,BALLABHGARH,"FCA-54 NEAR IDBI BANK, SHYAM COLONY, BALLABHGARH-FARIDABAD, HARYANA-121004",FARIDABAD,FARIDABAD,HARYANA,2216181
8,THE NAINITAL BANK LIMITED,NTBL0BAN035,BANLEKH,"VIA-DOFAR, BANLEKH BAGESHWAR (UTTARAKHAND)",BAGESHWAR,AKSORA,UTTARAKHAND,212240
9,THE NAINITAL BANK LIMITED,NTBL0BAN127,BANBASA,"THE NAINITAL BANK LTD, PETROL PUMP COMPOUND, KHATIMA ROAD, BANBASA, DISTT CHAMPAWAT, UTTARAKHAND - 262309",CHAMPAWAT,BANBASA,UTTARAKHAND,263020
10,THE NAINITAL BANK LIMITED,NTBL0BAR022,BAREILLY,"46, CIVIL LINES, BAREILLY 243001 (U.P.)",BAREILLY,BAREILLY,UTTAR PRADESH,2578520
11,THE NAINITAL BANK LIMITED,NTBL0BAR029,BARA,"KICHHA-SITARGANJ ROAD, VILL & PO-BARA",UDHAM SINGH NAGAR,BARA,UTTARAKHAND,236622
12,THE NAINITAL BANK LIMITED,NTBL0BAR075,"PRABHAT NAGAR , BAREILLY","PRABHAT PUBLIC HIGHER SECONDARY SCHOOL, PRABHAT NAGAR, BAREILLY (U.P.)",BAREILLY,BAREILLY,UTTAR PRADESH,2320137
13,THE NAINITAL BANK LIMITED,NTBL0BAZ009,BAZPUR,"RAMRAJ ROAD, BAZPUR, U.S.NAGAR (UTTARAKHAND)",UDHAM SINGH NAGAR,BAZPUR,UTTARAKHAND,281050
14,THE NAINITAL BANK LIMITED,NTBL0BAZ104,"MAHESHPURA, DORAHA","MAHESHPUR, DORAHA, BAZPUR ROAD ,BAZPUR -262401",UDHAM SINGH NAGAR,BAZPUR,UTTARAKHAND,282050
15,THE NAINITAL BANK LIMITED,NTBL0BAZ117,BARHANI BAZPUR,"ANAND FARM,VILLAGE BAHHANI BAZPUR",UDAM SINGH NAGAR,BAZPUR,UTTARAKHAND,8881803830
16,THE NAINITAL BANK LIMITED,NTBL0BAZ136,VIKRAMPUR,"THE NAINITAL BANK LTD, VILL VIKRAMPUR, KESHOWALA MOD, BAZPUR,DIST UDHAM SING NAGAR,UTTARAKHAND 262401",UDHAM SINGH NAGAR,BAZPUR,UTTARAKHAND,281250
17,THE NAINITAL BANK LIMITED,NTBL0BHI010,BHIMTAL,"MALLITAL, BHIMTAL (NAINITAL)",NAINITAL,BHIMTAL,UTTARAKHAND,247037
18,THE NAINITAL BANK LIMITED,NTBL0BHI043,BHINGARARA,"BHINGRARA , CHAMPAWAT (UTTARAKHAND)",CHAMPAWAT,BHINGARARA,UTTARAKHAND,8650943835
19,THE NAINITAL BANK LIMITED,NTBL0BHO084,BHOOR MAHOLIA,"BHOOR MAHOLIA,SITARGANJ ROAD ,KHATIMA 262308 (U S NAGAR) UTTRANCHAL",UDHAM SINGH NAGAR,KHATIMA,UTTARAKHAND,250755
20,THE NAINITAL BANK LIMITED,NTBL0BHO090,BHOWALI,"RAMGHAR ROAD ,BHOWALI-263132 (NAINITAL) UTTARAKHAND",NAINITAL,BHOWALI,UTTARAKHAND,220086
21,THE NAINITAL BANK LIMITED,NTBL0BIJ119,BIJNOR,"THE NAINITAL BANK LTD ANKUR HEIGHTS, CIVIL LINES, KIRATPUR ROAD, BIJNOR",BIJNOR,BIJNOR,UTTAR PRADESH,263636
22,THE NAINITAL BANK LIMITED,NTBL0BIL081,BILASPUR,"PATEL NAGAR,OPP SHIV BAGH MANDI, BILASPUR -244921(RAMPUR) UP",RAMPUR,BILASPUR,UTTAR PRADESH,241200
23,THE NAINITAL BANK LIMITED,NTBL0BUL048,BULANDSHAHR,"171, CIVIL LINES, BULANDSHAHAR (U.P.) 203001",BULANDSHAHR,BULANDSHAHR,UTTAR PRADESH,287319
24,THE NAINITAL BANK LIMITED,NTBL0CHA015,CHAMPAWAT,CHAMPAWAT (UTTARAKHAND),CHAMPAWAT,CHAMPAWAT,UTTARAKHAND,230027
25,THE NAINITAL BANK LIMITED,NTBL0CHA042,CHAUMEL,"CHAUMEL BAZAR, CHAUMEL, CHAMPAWAT (UTTARAKHAND)",CHAMPAWAT,CHAUMEL,UTTARAKHAND,251003
26,THE NAINITAL BANK LIMITED,NTBL0DEH057,DEHRADUN,"58, RAJURA ROAD, NEAR MADHUBAN HOTEL, DEHRADUN",DEHRA DUN,DEHRADUN,UTTARAKHAND,2741852
27,THE NAINITAL BANK LIMITED,NTBL0DEH100,HARIDWAR ROAD DEHRADUN,"6/1 HARIDWAR ROAD, NEAR CITY BANQUET - 248001",DEHRA DUN,DEHRADUN,UTTARAKHAND,2520872
28,THE NAINITAL BANK LIMITED,NTBL0DEH101,SAHARANPUR ROAD DEHRADUN,"2 PRITY ENCLAVE SAHARANPUR ROAD, DEHRADUN-248171",DEHRA DUN,DEHRADUN,UTTARAKHAND,2640780
29,THE NAINITAL BANK LIMITED,NTBL0DEH113,VASANT VIHAR DEHRADUN,"1ST FLOOR COMMERCIAL COMPLEX,49 INDIRA NAGAR,VASANT VIHAR,DEHRADUN",DEHRADUN,DEHRADUN,UTTARAKHAND,2760787
30,THE NAINITAL BANK LIMITED,NTBL0DEH118,CHAKRATA ROAD DEHRADUN,CHAGAN LAL BUILDING CHAKRATA ROAD DEHRADUN,DEHRADUN,DEHRADUN,UTTARAKHAND,2770960
31,THE NAINITAL BANK LIMITED,NTBL0DEL032,PANCHKUIAN ROAD,"33, P.K.ROAD, ABOVE LAHORE FURNITURE MART, NEW DELHI 01",DELHI,DELHI,DELHI,23583606
32,THE NAINITAL BANK LIMITED,NTBL0DEL038,"LAJPATNAGAR, DELHI","40-41, PUSHPA MARKET, CENTRAL MARKET, LAJPATNAGAR, NEW DELHI",DELHI,DELHI,DELHI,29834225
33,THE NAINITAL BANK LIMITED,NTBL0DEL039,"SHALIMARBAGH, DELHI","BH-8, BHAGWATI BHAWAN, SHALIMARBAGH, DELHI 110052",DELHI,DELHI,DELHI,27495914
34,THE NAINITAL BANK LIMITED,NTBL0DEL040,"TILAKNAGAR,  DELHI","8/33, TILAKNAGAR, NEW DELHI 110018",DELHI,DELHI,DELHI,25987475
35,THE NAINITAL BANK LIMITED,NTBL0DEL047,PATPARGANJ,"P-37, PANDAV  NAGAR, PATPARGANJ, DELHI",DELHI,DELHI,DELHI,22792984
36,THE NAINITAL BANK LIMITED,NTBL0DEL049,"PITAMPURA , DELHI","SATABDI HOUSE, PLOTNO. 3, COMMERCIAL COMPLEX, ROHIT KUNJ, WEST PITAMPURA 110034, DELHI",DELHI,DELHI,DELHI,27351524
37,THE NAINITAL BANK LIMITED,NTBL0DEL053,"I.P. EXTENSION, DELHI","VIVEKANAND INTERNATIONAL SCHOOL, I.P. EXTENSION, DELHI 92",DELHI,DELHI,DELHI,22232950
38,THE NAINITAL BANK LIMITED,NTBL0DEL059,PAPPANKALAN(DWARKA),"29/2, VIJAY ENCLAVE, PALAM DABRI ROAD, DWARKA, DELHI",DELHI,KAPAS  HERA,DELHI,25055006
39,THE NAINITAL BANK LIMITED,NTBL0DEL065,"VIKAS MARG, DELHI","4, JAGRITI ENCLAVE, VIKAS MARG, NEW DELHI",DELHI,DELHI,DELHI,22161187
40,THE NAINITAL BANK LIMITED,NTBL0DEL066,"NEW ASHOK NAGAR , DELHI","OPPOSITE EAST APPARTMENTS, MAYUR VIHAR, PHASE -A, DELHI",DELHI,DELHI,DELHI,22622800
41,THE NAINITAL BANK LIMITED,NTBL0DEL073,"ROHINI, SECTOR-16","E-4, SECTOR 16, JAIN BHARTI MODEL, PUBLIC SCHOOL, ROHINI, DELHI 110085",DELHI,DELHI,DELHI,27899070
42,THE NAINITAL BANK LIMITED,NTBL0DEL076,"ROHTAK ROAD, DELHI","M - 123GURU HARIKISHAN NAGAR (ROHTAK ROAD), PASCHIM VIHAR NEW DELHI - 87",DELHI,DELHI,DELHI,25289112
43,THE NAINITAL BANK LIMITED,NTBL0DEL080,RTGS-HO,"SERVICE BRANCH, 33 - PANCHKUIAN ROADNEW DELHI",DELHI,DELHI,DELHI,23583068
44,THE NAINITAL BANK LIMITED,NTBL0DEL105,SURHERA NAJAFGARH,"VILLAGE & POST: SURHERA (NAZAFGARH), NEW DELHI-110043",DELHI,NEW DELHI,DELHI,28013040
45,THE NAINITAL BANK LIMITED,NTBL0DEL110,DWARKA NEW DELHI,DELHI DWARKA,DELHI,NEW DELHI,DELHI,2280300
46,THE NAINITAL BANK LIMITED,NTBL0DEL114,DILSHAD GARDEN,"C 16,DILSHAD COLONY,DILSHAD GARDEN",DELHI,DELHI,DELHI,22354601
47,THE NAINITAL BANK LIMITED,NTBL0DEV030,DEVIDHURA,"JAGDAMBA MARKET, DEVIDHURA (UTTARAKHAND)",CHAMPAWAT,DEVIDHURA,UTTARAKHAND,238023
48,THE NAINITAL BANK LIMITED,NTBL0DHA085,DHARCHULA,"TEHSIL ROAD ,DHARCHULA, (PITHORAGHAR) UTTARAKHAND",PITHORAGARH,DHARCHULA,UTTARAKHAND,222995
49,THE NAINITAL BANK LIMITED,NTBL0DHA123,DHAMPUR BIJNOR,THE NAINITAL BANK LTD OM HOUSE NEAR PIR TEACHERS COLONY NH 74 DHAMPUR DIST BIJNOR UP,BIJNOR,DHAMPUR,UTTAR PRADESH,221200
50,THE NAINITAL BANK LIMITED,NTBL0DIN139,DINESHPUR,"MAIN BAZAR, GULARBHOJ ROAD, DINESHPUR RUDRAPUR US NAGAR",UDHAM SINGH NAGAR,RUDRAPUR,UTTARAKHAND,7456001347
51,THE NAINITAL BANK LIMITED,NTBL0DOI092,DOIWALA,"RISHIKESH HARDWAR ROAD,MAIN MARKET,DOIWALA,DEHRADOON",DEHRA DUN,DOIWALA,UTTARAKHAND,2691258
52,THE NAINITAL BANK LIMITED,NTBL0DWA096,DWARAHAT,"RANIKHET BADRINATH MARG, DWARAHAT- 263563",ALMORA,ALMORA,UTTARAKHAND,244335
53,THE NAINITAL BANK LIMITED,NTBL0FAR064,FARIDABAD,"DSS-10, HUDA MARKET, SHOPPING CENTRE, SECTOR-29, FARIDABAD (HARYANA)",FARIDABAD,FARIDABAD,HARYANA,2504526
54,THE NAINITAL BANK LIMITED,NTBL0FAR106,FARIDPUR,"MAIN MARKET, BAREILLY-LUCKNOW ROAD, FARIDPUR, DISTT - BAREILLY, (U.P.) - 243503",BAREILLY,BAREILLY,UTTAR PRADESH,231050
55,THE NAINITAL BANK LIMITED,NTBL0GAD052,GADARPUR,"GROVER MARKET, NEAR GURU NANAK MARKET, GADARPUR",UDHAM SINGH NAGAR,GADARPUR,UTTARAKHAND,271994
56,THE NAINITAL BANK LIMITED,NTBL0GHA026,GHAZIABAD,"35, ADDL. SIGANI GATE SCHEME, NEAR NAVYUG MARKET, GHAZIABAD, (U.P.)",GHAZIABAD,GHAZIABAD,UTTAR PRADESH,2790880
57,THE NAINITAL BANK LIMITED,NTBL0GHA054,VAISHALI,"SECTOR 4, PLOTNO. 3, COMMERCIAL CENTRE, MAIN ROAD, VAISHALI (GHAZIABAD) U.P.",GHAZIABAD,GHAZIABAD,UTTAR PRADESH,2779118
58,THE NAINITAL BANK LIMITED,NTBL0GHA126,SANJAY NAGAR GHAZIABAD,"D-10, SANJAY NAGAR, GHAZIABAD, UP",GHAZIABAD,GHAZIABAD,UTTAR PRADESH,2783042
59,THE NAINITAL BANK LIMITED,NTBL0GUR051,GURGAON,"32, MILE STONE, CHANDER NAGAR 1, DELHI-JAIPUR BY PASS, GURGAON, HARYANA 122 001",GURGAON,GURGAON,HARYANA,2302184
60,THE NAINITAL BANK LIMITED,NTBL0GUR133,SOHNA ROAD,"THE NAINITAL BANK LTD, SHOP NO 5, WELDONE TECH PARK, SOHNA ROAD GURUGRAM, HARYANA - 122018",GURUGRAM,GURUGRAM,HARYANA,0
61,THE NAINITAL BANK LIMITED,NTBL0HAL003,HALDWANI,"RAILWAY BAZAR , HALDWANI (UTTARAKHAND)",NAINITAL,HALDWANI,UTTARAKHAND,250201
62,THE NAINITAL BANK LIMITED,NTBL0HAL050,KALADHUNGI ROAD,"PILIKOTHI, NEAR KAPIL DHARAMSHALA, KALADHUNGI ROAD, HALDWANI",NAINITAL,HALDWANI,UTTARAKHAND,263008
63,THE NAINITAL BANK LIMITED,NTBL0HAL056,MBPG COLLEGE,"MBPG COLLEGE, NAINITAL ROAD, HALDWANI",NAINITAL,HALDWANI,UTTARAKHAND,225769
64,THE NAINITAL BANK LIMITED,NTBL0HAL071,RAMPUR RAOD,"P.O.-MANPUR WEST, DEWAL CHAUR, HALDWANI",NAINITAL,HALDWANI,UTTARAKHAND,234440
65,THE NAINITAL BANK LIMITED,NTBL0HAL103,ARJUNPUR,"ARJUNPUR GORPARAO CHAURAHA,GORAPARAO, HALDWANI, NAINITAL  263139",NAINITAL,HALDWANI,UTTARAKHAND,232111
66,THE NAINITAL BANK LIMITED,NTBL0HAL108,LOHARIASAAL MALLA (HALDWANI)┬á,"LAHORIASAAL MALLA, KATGHARIA, HALDWANI - 263139",NAINITAL,HALDWANI,UTTARAKHAND,260341
67,THE NAINITAL BANK LIMITED,NTBL0HAL111,KAMALUWAGANJA,"VILLAGE NARSINGH TALLA P.O.KAMALUWAGANJA,KAMALUWAGANJA ROAD,HALDWANI 263139",NAINITAL,HALDWANI,UTTARAKHAND,238600
68,THE NAINITAL BANK LIMITED,NTBL0HAL121,JAGATPUR GAULAPAR HDW,"VILLAGE- JAGATPUR, PO- KUNWARPUR, GAULAPAR",NAINITAL,HALDWANI,UTTARAKHAND,240004
69,THE NAINITAL BANK LIMITED,NTBL0HAL124,DAMUADHUNGA BANDOBASTI,THE NAINITAL BANK LTD KRISHNA KUNJ OPP INSPIRATION SCHOOL DAMUADHUNGA BANDOBASTI KATHGODAM,NAINITAL,HALDWANI,UTTARAKHAND,228833
70,THE NAINITAL BANK LIMITED,NTBL0HAR067,HARDWAR,"SRI CHETAN JYOTI ASHRAM, BHUPATWALA, HARIDWAR",HARIDWAR,HARDWAR,UTTARAKHAND,262319
71,THE NAINITAL BANK LIMITED,NTBL0HAR097,JAWALAPUR HARIDWAR,"45, VIVEK VIHAR, RANIPUR MORE 249407",HARIDWAR,HARDWAR,UTTARAKHAND,220765
72,THE NAINITAL BANK LIMITED,NTBL0JAI069,JAIPUR,"A-78/79, SUBHASH NAGAR, SHOPPING CENTRE, BANI PARK, JAIPUR (RAJ.)",JAIPUR,JAIPUR,RAJASTHAN,2281557
73,THE NAINITAL BANK LIMITED,NTBL0JAI125,RAJA PARK JAIPUR,"D-67 GOVIND MARG RAJA PARK, ICE FACTORY, ADARSH NAGAR, JAIPUR RAJASTHAN",JAIPUR,JAIPUR,RAJASTHAN,2617978
74,THE NAINITAL BANK LIMITED,NTBL0JAS046,JASPUR,"MAIN ROAD, OPP.POLICE STATION, JASPUR 246412",UDHAM SINGH NAGAR,JASPUR,UTTARAKHAND,222102
75,THE NAINITAL BANK LIMITED,NTBL0JOS086,JOSHIMATH,"SHAILAIJA GUEST HOUSE,NEAR GMVN REST HOUSE,JOSHI MATH (CHAMOLI) UTTARKHAND",CHAMOLI,JOSHIMATH,UTTARAKHAND,221130
76,THE NAINITAL BANK LIMITED,NTBL0KAN023,KANPUR,"KANPUR BRANCH, 24/43, BIRHANA ROAD, KANPUR 208001 (UTTAR PRADESH)",KANPUR,KANPUR CITY,UTTAR PRADESH,2312491
77,THE NAINITAL BANK LIMITED,NTBL0KAN109,BARRA KANPUR,HIG-7 NEAR KABIR HOSPITAL KANPUR,KANPUR,KANPUR,UTTAR PRADESH,232111
78,THE NAINITAL BANK LIMITED,NTBL0KAN130,KANKAR KHERA MEERUT,"489 OM NAGAR NORTH SARDHANA ROAD OPP CANARA BANK, KANKHERA MEERUT, UP ( 250001 )",MEERUT,MEERUT,UTTAR PRADESH,2630777
79,THE NAINITAL BANK LIMITED,NTBL0KAP089,KAPKOTE,"NEW THSIL ROAD ,KAPKOAT,263632, UTTARAKHAND",BAGESHWAR,KAPKOTE,UTTARAKHAND,253472
80,THE NAINITAL BANK LIMITED,NTBL0KAR087,KARAN PRAYAG,"GEETA BHAWAN, KARNPRAYAG,UTTARAKHAND",CHAMOLI,KARAN PRAYAG,UTTARAKHAND,244811
81,THE NAINITAL BANK LIMITED,NTBL0KAR116,KARNAL,"S.C.O.31,32,33 MUGHAL CANAL MARKET",KARNAL,KARNAL,HARYANA,2535060
82,THE NAINITAL BANK LIMITED,NTBL0KAS006,KASHIPUR,"RAMNAGAR ROAD, KASHIPUR, NAINITAL (UTTARAKHAND)",UDHAM SINGH NAGAR,KASHIPUR,UTTARAKHAND,274060
83,THE NAINITAL BANK LIMITED,NTBL0KAS129,MORADABAD ROAD,"THE NAINITAL BANK LIMITED, ASHOKA COMPLEX, MORADABAD ROAD, NEAR BANK OF BARODA, KASHIPUR, DISTT-UDHAM SINGH NAGAR, UTTARAKHNAD-244713",UDHAM SINGH NAGAR,KASHIPUR,UTTARAKHAND,274878
84,THE NAINITAL BANK LIMITED,NTBL0KIC008,KICHHA,"RUDRAPUR ROAD, KICHHA, U.S.NAGAR (UTTARAKHAND)",UDHAM SINGH NAGAR,KICHHA,UTTARAKHAND,264371
85,THE NAINITAL BANK LIMITED,NTBL0KIL014,KILAKHERA,"KILAKHERA, U.S.NAGAR (UTTARAKHAND)",UDHAM SINGH NAGAR,KILAKHERA,UTTARAKHAND,241130
86,THE NAINITAL BANK LIMITED,NTBL0KOT055,KOTDWAR,"BADRINATH ROAD, KOTDWAR",GARHWAL,KOTDWARA,UTTARAKHAND,227443
87,THE NAINITAL BANK LIMITED,NTBL0KOT107,KOTPUTLI,"MAIN CHAURAHA, KAUSHIK TOWER, NH-8, KOTPUTLI, DISTT.- JAIPUR, RAJASTHAN",JAIPUR,JAIPUR,RAJASTHAN,222251
88,THE NAINITAL BANK LIMITED,NTBL0LAL016,LALKUAN,"NAINITAL ROAD,LALKUAN, NAINITAL (UTTARAKHAND)",NAINITAL,LALKUAN,UTTARAKHAND,268024
89,THE NAINITAL BANK LIMITED,NTBL0LOH013,LOHAGHAT,"BAJRANG BALLI WARD, HANUMAN MANDIR ROAD, LOHAGHAT 262523, CHAMPAWAT",CHAMPAWAT,LOHAGHAT,UTTARAKHAND,234539
90,THE NAINITAL BANK LIMITED,NTBL0LUC017,LUCKNOW,"T.N.ROAD , LUCKNOW 226001 (U.P)",LUCKNOW,LUCKNOW,UTTAR PRADESH,2281981
91,THE NAINITAL BANK LIMITED,NTBL0LUC041,"MAHANAGAR, LUCKNOW","M-6, GOLE MARKET, MAHANAGAR, LUCKNOW",LUCKNOW,LUCKNOW,UTTAR PRADESH,2387281
92,THE NAINITAL BANK LIMITED,NTBL0LUC058,"ASHIANA, LUCKNOW","SECTOR-H, LDA COLONY, ASHIANA, LUCKNOW 226012 (U.P.)",LUCKNOW,LUCKNOW,UTTAR PRADESH,2421167
93,THE NAINITAL BANK LIMITED,NTBL0LUC068,"NADAN MAHAL ROAD, LUCKNOW","NEAR M.D.SHUKLA COLLEGE, NADAN MAHAL ROAD, LUCKNOW",LUCKNOW,LUCKNOW,UTTAR PRADESH,2262468
94,THE NAINITAL BANK LIMITED,NTBL0LUC079,GOMTI NAGAR  LUCKNOW,"BHATIA PLAZA, 1/8 VIRAM KHANDPTARAKAR PURAM CROSSING GOMTI NAGAR  LUCKNOW (U.P)",LUCKNOW,LUCKNOW,UTTAR PRADESH,2397040
95,THE NAINITAL BANK LIMITED,NTBL0LUC112,I I M ROAD-LUCKNOW,I I M ROAD LUCKNOW,LUCKNOW,LUCKNOW,UTTAR PRADESH,4002008
96,THE NAINITAL BANK LIMITED,NTBL0MEE027,MEERUT,"1ST FLOOR, CITY PLAZA COMM. COMPLEX, BEGUM BRIDGE ROAD, MEERUT",MEERUT,MEERUT,UTTAR PRADESH,2420817
97,THE NAINITAL BANK LIMITED,NTBL0MOR031,MORADABAD,"C-36, GANDHI NAGAR, MORADABAD 244001 (U.P.)",MORADABAD,MORADABAD,UTTAR PRADESH,2491906
98,THE NAINITAL BANK LIMITED,NTBL0MOR131,KANTH ROAD,"THE NAINITAL BANK LIMITED, A-6, DEENDAYAL NAGAR, PHASE-1, SAI MANDIR ROAD, KANTH ROAD- MORADABAD, DISTT -MORADABAD, UTTAR PRADESH-244001",MORADABAD,MORADABAD,UTTAR PRADESH,2454155
99,THE NAINITAL BANK LIMITED,NTBL0MUS102,MUSSORIE,"SHOP NO 8 LANDOUR BAZAR, CLOCK TOWER - 248179",DEHRA DUN,MUSSOORIE,UTTARAKHAND,2630120
100,THE NAINITAL BANK LIMITED,NTBL0MUZ033,MUZAFFARNAGAR,"COURT ROAD, MUZAFFARNAGAR 251001 (U.P.)",MUZAFFARNAGAR,MUZAFFARNAGAR,UTTAR PRADESH,2408143
101,THE NAINITAL BANK LIMITED,NTBL0NAG024,NAGLA,"NAGLA, U.S.NAGAR (UTTARAKHAND)",UDHAM SINGH NAGAR,NAGLA,UTTARAKHAND,233390
102,THE NAINITAL BANK LIMITED,NTBL0NAG135,NAGINA,"THE NAINITAL BANK LIMITED, NEAR BANK OF INDIA, STATION ROAD, NAGINA, DISTT BIJNORE, UTTAR PRADESH 246762",BIJNORE,NAGINA,UTTAR PRADESH,0
103,THE NAINITAL BANK LIMITED,NTBL0NAI001,NAINITAL,"G.B.PANT ROAD, NAINITAL 263 002 (UTTARAKHAND)",NAINITAL,NAINITAL,UTTARAKHAND,235754
104,THE NAINITAL BANK LIMITED,NTBL0NAI037,TALLITAL,"HOTEL EMPIRE ANNEXE, TALLITAL, NAINITAL 263001",NAINITAL,NAINITAL,UTTARAKHAND,235414
105,THE NAINITAL BANK LIMITED,NTBL0NAI999,HEAD OFFICE,7 OAKS BUILDING MALLITAL NAINITAL,NAINITAL,NAINITAL,UTTARAKHAND,231951
106,THE NAINITAL BANK LIMITED,NTBL0NAJ061,NAJIBABAD,"OPPOSITE GURUDWARA, NAJIBABAD 246763, DISTT. BIJNOR",BIJNOR,NAJIBABAD,UTTAR PRADESH,225336
107,THE NAINITAL BANK LIMITED,NTBL0NAN140,NANAKMATTA,"SHRI GYAN GANGA BHAWAN, NEAR POLICE STATION, PO NANAKMATTA, TEHSIL SITARGANJ, PIN 262311",UDHAM SINGH NAGAR,SITARGANJ,UTTARAKHAND,7456001348
108,THE NAINITAL BANK LIMITED,NTBL0NEW088,NEW TEHRI,"F&G 3 , OPEN MARKET,COLLEGE ROAD ,BHOURARI,NEW TEHRI (UTTARAKHAND)",TEHRI GARHWAL,TEHRI,UTTARAKHAND,232193
109,THE NAINITAL BANK LIMITED,NTBL0NOI063,NOIDA (SECTOR50),"B-1/31, SECTOR -50,NOIDA, DISTT. GOTAM BUDH NAGAR",GAUTAM BUDDHA NAGAR,NOIDA,UTTAR PRADESH,2500544
110,THE NAINITAL BANK LIMITED,NTBL0NOI070,NOIDA SECTOR-2,"C-29,SECTOR-2,NOIDA",GAUTAM BUDDHA NAGAR,NOIDA,UTTAR PRADESH,2512379
111,THE NAINITAL BANK LIMITED,NTBL0NOI120,GREATER NOIDA,"THE NAINITAL BANK LTD, GREATER NOIDA, SRI JAI BALAJI EDUCATIONAL TRUST, NS-48, SEC-P4, BUILDERS AREA, NEAR JALVAYU VIHAR",GAUTAM BUDDHA NAGAR,NOIDA,UTTAR PRADESH,2390013
112,THE NAINITAL BANK LIMITED,NTBL0PAH028,PAHARPANI,"H.N. 22, MORANAULA ROAD, PAHARPANI (NAINITAL)",NAINITAL,PAHARPANI,UTTARAKHAND,282232
113,THE NAINITAL BANK LIMITED,NTBL0PAN062,PANIPAT,"OPPOSITE MAHARAJA HOTEL, GT ROAD, NATIONAL HIGHWAYNO.1, PANIPAT (HARYANA)",PANIPAT,PANIPAT,HARYANA,2672436
114,THE NAINITAL BANK LIMITED,NTBL0PAN091,PANTNAGAR,"DISTRICT COURT COMPOND, P O SIDCUL,PANTNAGAR,US NAGAR",UDHAM SINGH NAGAR,PANTNAGAR,UTTARAKHAND,244022
115,THE NAINITAL BANK LIMITED,NTBL0PAU098,PAURI,"UPPAR BAZAR , PAURI-246001",GARHWAL,PAURI,UTTARAKHAND,221500
116,THE NAINITAL BANK LIMITED,NTBL0PIL021,PILIBHIT,"STATION ROAD, PILIBHIT 262001 (U.P.)",PILIBHIT,PILIBHIT,UTTAR PRADESH,255414
117,THE NAINITAL BANK LIMITED,NTBL0PIT007,PITHORAGARH,"SILTHAM, PITHORAGARH (UTTARAKHAND)",PITHORAGARH,PITHORAGARH,UTTARAKHAND,225562
118,THE NAINITAL BANK LIMITED,NTBL0PUR128,PUROLA,"HOTEL SHUBHAM PALACE , MAIN MARKET, KUMOLA ROAD, PUROLA, DIST UTTARKASHI, UTTRAKHAND-249185",UTTARKASHI,UTTARKASHI,UTTARAKHAND,7055101787
119,THE NAINITAL BANK LIMITED,NTBL0RAM005,RAMNAGAR,"BAJAJA LINE RAMNAGAR, NAINITAL (UTTARAKHAND)",NAINITAL,RAMNAGAR,UTTARAKHAND,251333
120,THE NAINITAL BANK LIMITED,NTBL0RAM011,RAMGARH,"MALLA RAMGARH - 263 132, NAINITAL",NAINITAL,RAMGARH,UTTARAKHAND,281145
121,THE NAINITAL BANK LIMITED,NTBL0RAM036,RAMPUR,"HITHIKHANA CHAUHARA,NEAR LIC, RAMPUR (UP)",RAMPUR,RAMPUR,UTTAR PRADESH,2352434
122,THE NAINITAL BANK LIMITED,NTBL0RAN004,RANIKHET,"RANIKHET, ALMORA (UTTARAKHAND) 266 139",ALMORA,RANIKHET,UTTARAKHAND,220637
123,THE NAINITAL BANK LIMITED,NTBL0RAN034,RANIBAGH,"NAINITAL ROAD, RANIBAGH, NAINITAL (UTTARAKHAND)",NAINITAL,RANIBAGH,UTTARAKHAND,267589
124,THE NAINITAL BANK LIMITED,NTBL0RIS099,RISHIKESH,46/1 TILAK ROAD RISHIKESH- 249201,DEHRA DUN,RISHIKESH,UTTARAKHAND,2435867
125,THE NAINITAL BANK LIMITED,NTBL0ROO077,ROORKEE,"00/1, NEHRU NAGAR  OPPOSITE SUB JAIL ROORKEE UTTARAKHAND",HARIDWAR,ROORKEE,UTTARAKHAND,269966
126,THE NAINITAL BANK LIMITED,NTBL0RUD045,RUDRAPUR,"D1/D2/VII B, CIVIL LINES, NEAR JANTA INTER COLLEGE, RUDRAPUR",UDHAM SINGH NAGAR,RUDRAPUR,UTTARAKHAND,243370
127,THE NAINITAL BANK LIMITED,NTBL0RUD093,RUDRAPRAYAG,"NEAR NEW BUS STAND, RUDRAPRAYAG, DISTT. RUDRAPRAYA",RUDRAPRAYAG,RUDRAPRAYAG,UTTARAKHAND,233125
128,THE NAINITAL BANK LIMITED,NTBL0RUD134,BHURARANI,"THE NAINITAL BANK LIMITED, BHURA RANI ROAD, NEAR HP GAS AGENCY, BHURA RANI, RUDARPUR, UDHAM SINGH NAGAR, UTTARAKHAND, 263153",UDHAM SINGH NAGAR,RUDARPUR,UTTARAKHAND,0
129,THE NAINITAL BANK LIMITED,NTBL0SAH060,SAHARANPUR,"MANJULIKAY GARDEN, BAJORIA ROAD, SAHARANPUR",SAHARANPUR,SAHARANPUR,UTTAR PRADESH,2716661
130,THE NAINITAL BANK LIMITED,NTBL0SAT138,SATWAN BUJURG,VILLAGE SATWAN BUJURG PO SHAHBAZNAGAR TEHSIL SADAR DISTT SHAHJAHANPUR UTTAR PRADESH 242001,SHAHJAHANPUR,SHAHBAZNAGAR,UTTAR PRADESH,7456001338
131,THE NAINITAL BANK LIMITED,NTBL0SHA020,SHAHJAHANPUR,"235, SADAR BAZAR, SHAHJAHANPUR (U.P)",SHAHJAHANPUR,SHAHJAHANPUR,UTTAR PRADESH,223457
132,THE NAINITAL BANK LIMITED,NTBL0SHI137,SHIMLA PISTORE,VILLAGE KOTHA SHIMLA PISTORE POST OFFICE LALPUR RUDRAPUR DISTT UDHAM SINGH NAGAR UTTARAKHAND 263148,RUDRAPUR,RUDRAPUR,UTTARAKHAND,8218660441
133,THE NAINITAL BANK LIMITED,NTBL0SIT025,SITAPUR,"14, JAIL ROAD, NEAR HUSSAIN ALI CHAURAHA, SITAPUR (U.P.) 261001",SITAPUR,SITAPUR,UTTAR PRADESH,270919
134,THE NAINITAL BANK LIMITED,NTBL0SIT094,SITARGANJ,"NEAR SBI, KICHHA ROAD,SITARGANJ,UDHAMSINGH NAGAR  244901 (UTTARAKHAND)",UDHAM SINGH NAGAR,SITARGANJ,UTTARAKHAND,253372
135,THE NAINITAL BANK LIMITED,NTBL0SRI044,SRIPUR BICHWA,"SRIPURBICHWA , U.S.NAGAR (UTTARAKHAND)",UDHAM SINGH NAGAR,SRIPUR BICHWA,UTTARAKHAND,236058
136,THE NAINITAL BANK LIMITED,NTBL0SRI083,SRINAGAR,"NEAR DALMIA DHARAMSHALA, BADRINATH ROAD,SRINAGAR,246174 UTTARAKHAND",GARHWAL,SRINAGAR,UTTARAKHAND,250843
137,THE NAINITAL BANK LIMITED,NTBL0TAN095,TANAKPUR,"501/2 G.B. PANT MARG, TANAKPUR-263309, (UTTRANCHAL)",UDHAM SINGH NAGAR,TANAKPUR,UTTARAKHAND,265478
138,THE NAINITAL BANK LIMITED,NTBL0TAP122,TAPOVAN- RISHIKESH,VILLAGE TAPOVAN BADRINATH ROAD OPP GANGA HOTEL PO SARAI RISHIKESH,RISHIKESH,RISHIKESH,UTTARAKHAND,2437600
139,THE NAINITAL BANK LIMITED,NTBL0VIK078,VIKAS NAGAR,"MAIN ROAD, NEAR SBI  VIKAS NAGAR - 248 198  DEHRADOON UTTARAKHAND",DEHRA DUN,VIKAS NAGAR,UTTARAKHAND,253070
