,BANK NAME,IFSC,OFFICE,ADDRESS,DISTRICT,CITY,STATE,PHONE
0,THE THANE DISTRICT CENTRAL COOPERATIVE BANK LIMITED,TDCB0000001,RTGS-HO,"SHIVAJI PATH, POST BOX 19,THANE (W), PIN 400601,",THANE,THANE,MAHARASHTRA,25333014
1,THE THANE DISTRICT CENTRAL COOPERATIVE BANK LIMITED,TDCB0000002,ARNALA,"NEAR ARNALA MACHHIMAR SOCIETY LTD, KILL ROAD,AT & POST-ARNALA, TALUKA- VASAI,  PIN-401304.",THANE,ARNALA,MAHARASHTRA,2587504
2,THE THANE DISTRICT CENTRAL COOPERATIVE BANK LIMITED,TDCB0000003,VASAI ROAD,"KUBER APARTMENT, GR. FLOOR, AMBADI ROAD,VASAI ROAD (W),POST-VASAI ROAD,TAL-VASAI,  PIN- 401202.",THANE,VASAI,MAHARASHTRA,2342401
3,THE THANE DISTRICT CENTRAL COOPERATIVE BANK LIMITED,TDCB0000004,CHANDIP,"AT & POST CHANDIP, SHIRSAD-VAJRESHWARI ROAD, TALUKA-VASAI, PIN -401303",THANE,VASAI,MAHARASHTRA,2571222
4,THE THANE DISTRICT CENTRAL COOPERATIVE BANK LIMITED,TDCB0000005,NAIGAON,"OM GURUPRASAD,1ST FLOOR, NAIGAON-W, TALUKA-VASAI,  PIN-401207",THANE,VASAI,MAHARASHTRA,2300765
5,THE THANE DISTRICT CENTRAL COOPERATIVE BANK LIMITED,TDCB0000006,VIRAR,"SURYA DARSHAN,1ST FLOOR, VEER SAVARKAR MARG, VIRAR (E.) TALUKA-VASAI, PIN-401303",THANE,VIRAR,MAHARASHTRA,2527348
6,THE THANE DISTRICT CENTRAL COOPERATIVE BANK LIMITED,TDCB0000007,VATAR,"AT & POST-VATAR, TALUKA-VASAI,  PIN-401301",THANE,VASAI,MAHARASHTRA,2587707
7,THE THANE DISTRICT CENTRAL COOPERATIVE BANK LIMITED,TDCB0000008,NALASOPARA,"OM LAXMI CHEMBER, 1ST FLOOR,TULINJ, NALASOPARA-E , TALUKA-VASAI, PIN-401304",THANE,NALLASOPARA,MAHARASHTRA,2432673
8,THE THANE DISTRICT CENTRAL COOPERATIVE BANK LIMITED,TDCB0000009,NIRMAL,"GAJANAN PRASAD BUILDING, AT & POST NIRMAL, TAL-VASAI,  PIN-401304",THANE,NIRMAL,MAHARASHTRA,2470243
9,THE THANE DISTRICT CENTRAL COOPERATIVE BANK LIMITED,TDCB0000010,BHIWANDI,"CITY CENTER BUILDING, PRABHU ALI, MANDAI, TALUKA & POST BHIWANDI, PIN-421302",THANE,BHIWANDI,MAHARASHTRA,250885
10,THE THANE DISTRICT CENTRAL COOPERATIVE BANK LIMITED,TDCB0000011,DUGADPHATA,"AT-DUGAD FATA,POST-DUGAD, TALUKA-BHIWANDI, PIN-421302",THANE,BHIWANDI,MAHARASHTRA,288550
11,THE THANE DISTRICT CENTRAL COOPERATIVE BANK LIMITED,TDCB0000012,PADGHA,"WED APARTMENT,FIRST FLOOR,OPP LAXMI-NARAYAN BLDG,PADGHA-BHIWANDI RD AT & POST :PADGHA TAL:BHIWANDI DIST:THANE 421101",THANE,PADGHA,MAHARASHTRA,268278
12,THE THANE DISTRICT CENTRAL COOPERATIVE BANK LIMITED,TDCB0000013,PURNA,"KONDU PATIL BUILDING, PURNESHWAR MANDIR ROAD, POST-KALHER, TALUKA -BHIWANDI, PIN-401302",THANE,BHIWANDI,MAHARASHTRA,271800
13,THE THANE DISTRICT CENTRAL COOPERATIVE BANK LIMITED,TDCB0000014,VAJRESHWARI,"CLASSIC ENTERPRIZES ,FIRST FLOOR,VASAI-AMBADI ROAD,AT& POST:VAJRESHWARI ,TAL:BHIWANDI.DIST THANE PIN:401204",THANE,GANESHPURI,MAHARASHTRA,261235
14,THE THANE DISTRICT CENTRAL COOPERATIVE BANK LIMITED,TDCB0000015,KON,"AT & POST-KON, TALUKA-BHIWANDI, PIN-421311",THANE,BHIWANDI,MAHARASHTRA,280575
15,THE THANE DISTRICT CENTRAL COOPERATIVE BANK LIMITED,TDCB0000016,KHARBAV,"AT & POST-KHARBAV, TALUKA-BHIWANDI, PIN-421302",THANE,BHIWANDI,MAHARASHTRA,264310
16,THE THANE DISTRICT CENTRAL COOPERATIVE BANK LIMITED,TDCB0000017,DAHANU,"AASTHA ABOD CO-OP.HOUSING SOC. LTD., GR.FLOOR,TALUKA-DAHANU, PIN-401601",THANE,DAHANU,MAHARASHTRA,222308
17,THE THANE DISTRICT CENTRAL COOPERATIVE BANK LIMITED,TDCB0000018,DAHANU ROAD,"OM DATTA NARAYAN BAG CO-OP. HOUSING SOC.LTD., GALA NO 8 & 11, NEAR POST OFFICE, DAHANU RD, TALUKA- DAHANU, PIN-401602",THANE,DAHANU ROAD,MAHARASHTRA,222452
18,THE THANE DISTRICT CENTRAL COOPERATIVE BANK LIMITED,TDCB0000019,BORDI,"BORDI BAZAR, POST-BORDI, TALUKA-DAHANU, PIN-401701",THANE,BORDI,MAHARASHTRA,254042
19,THE THANE DISTRICT CENTRAL COOPERATIVE BANK LIMITED,TDCB0000020,CHINCHANI,"GRAMPANCHAYAT BUILDING, 1ST FLOOR, AT & POST-CHINCHANI, TALUKA- DAHANU, PIN-401503",THANE,DAHANU,MAHARASHTRA,242156
20,THE THANE DISTRICT CENTRAL COOPERATIVE BANK LIMITED,TDCB0000021,KASA,"AT & POST-KASA, NEAR R.H.HOSPITAL, POST-KASA, TALUKA-DAHANU, PIN-401607",THANE,DAHANU,MAHARASHTRA,264032
21,THE THANE DISTRICT CENTRAL COOPERATIVE BANK LIMITED,TDCB0000022,VANGAON,"MOHAN APARTMENT, 1SR FLOOR, STATION RD. POST-VANGAON,TALUKA-DAHANU, PIN-401103",THANE,VANGAON,MAHARASHTRA,244022
22,THE THANE DISTRICT CENTRAL COOPERATIVE BANK LIMITED,TDCB0000023,JAWHAR,"CHHATRAPATI SHIVAJI PATH, AT & POST-JAWHAR, PIN-401603",THANE,JAWHAR,MAHARASHTRA,222424
23,THE THANE DISTRICT CENTRAL COOPERATIVE BANK LIMITED,TDCB0000024,VIKRAMGAD,"AT & POST-VIKRAMGAD, TALUKA-VIKRAMGAD, PIN-401605",THANE,VIKRAMGAD,MAHARASHTRA,240024
24,THE THANE DISTRICT CENTRAL COOPERATIVE BANK LIMITED,TDCB0000025,KALYAN,"SAI VIHAR BUILDING, NEW SHIVAJI PATH, TAL.KALYAN PIN CODE-421 301.",THANE,KALYAN,MAHARASHTRA,2315062
25,THE THANE DISTRICT CENTRAL COOPERATIVE BANK LIMITED,TDCB0000026,MANDA-TITWALA,"GANPATI MANDIR ROAD, SIDHRAJ APPT. MANDA-TITWALA(E),TAL.KALYAN  PIN CODE-421 605.",THANE,KALYAN,MAHARASHTRA,2381203
26,THE THANE DISTRICT CENTRAL COOPERATIVE BANK LIMITED,TDCB0000027,DOMBIVALI (W),"M.G.ROAD,OM TRIMURTI BLDG, VISHNUNAGAR, TAL.KALYAN  PIN CODE-421 202.",THANE,DOMBIVLI,MAHARASHTRA,2485979
27,THE THANE DISTRICT CENTRAL COOPERATIVE BANK LIMITED,TDCB0000028,DOMBIVALI ( E ),"SHIVAJI UDYOG NAGAR, MANPADA ROAD,DOMBIVALI,  TAL.KALYAN, PIN CODE-421 201.",THANE,DOMBIVLI,MAHARASHTRA,2448561
28,THE THANE DISTRICT CENTRAL COOPERATIVE BANK LIMITED,TDCB0000029,MURBAD,"MURBAD TAL. SHETKARI  SANGH LTD. MURBAD BUILDING, 1ST  FLOOR,  OPP. MARATHI SCHOOL , MAIN ROAD, TALUKA MURBAD, PIN-421402",THANE,MURBAD,MAHARASHTRA,222238
29,THE THANE DISTRICT CENTRAL COOPERATIVE BANK LIMITED,TDCB0000030,DHASAI,"AT.PO.DHASAI, TAL.MURBAD,  PIN CODE-421 402.",THANE,MURBAD,MAHARASHTRA,244044
30,THE THANE DISTRICT CENTRAL COOPERATIVE BANK LIMITED,TDCB0000031,SARALGAON,"SHREE KRUPA BUILDING,  KALYAN NAGAR ROAD, PO.SARALGAON, TAL.MURBAD,  PIN CODE-421 401.",THANE,SARALGAON,MAHARASHTRA,240175
31,THE THANE DISTRICT CENTRAL COOPERATIVE BANK LIMITED,TDCB0000032,RAM MARUTI ROAD,"SHRUSTI PRIDE CHS LTD, FLAT NO. 102,RAM MARUTI ROAD, THANE (WEST) PIN CODE-400 602.",THANE,THANE,MAHARASHTRA,25402272
32,THE THANE DISTRICT CENTRAL COOPERATIVE BANK LIMITED,TDCB0000033,THANE TOWN,"CHHATRAPATI SHIVAJI PATH, P.O.NO.19, THANE (W) PIN CODE-400 601.",THANE,THANE,MAHARASHTRA,25363042
33,THE THANE DISTRICT CENTRAL COOPERATIVE BANK LIMITED,TDCB0000034,BHAYANDER,"SAHKAR JYOT, CROSS CORNER, 1ST FLOOR, NEAR MIRA ┬û BHAYANDAR MAHANAGAR PALIKA, BHAYANDAR (W)",THANE,MIRA-BHAYANDAR,MAHARASHTRA,8192529
34,THE THANE DISTRICT CENTRAL COOPERATIVE BANK LIMITED,TDCB0000035,GHANSOLI,"OPP.NAVI MUMBAI MAHANAGAR PALIKA SCHOOL NO.31, PRABHAKAR PATIL CHAWL, THANE BELAPUR ROAD, GHANSOLI, PIN-400701",THANE,THANE,MAHARASHTRA,27692324
35,THE THANE DISTRICT CENTRAL COOPERATIVE BANK LIMITED,TDCB0000036,MUMBRA,"OPP.MUMBRA POLICE STATION, AT & POST MUMBRA.  PIN CODE-400 612",THANE,THANE,MAHARASHTRA,25462026
36,THE THANE DISTRICT CENTRAL COOPERATIVE BANK LIMITED,TDCB0000037,TURBHE,"APMC FRUIT MARKET, CENTRAL FACILITIES BUILDING., GROUND FLOOR, SECTOR ┬û 19, TURBHE,NAVI MUMBAI, PIN-400705",THANE,THANE,MAHARASHTRA,27832511
37,THE THANE DISTRICT CENTRAL COOPERATIVE BANK LIMITED,TDCB0000038,WAGLE ESTATE,"DHYAN HOUSE BUILDING, SHIVAJI NAGAR ROAD NO.3,WAGLE ESTATE, PIN CODE-400 604.",THANE,THANE,MAHARASHTRA,400604
38,THE THANE DISTRICT CENTRAL COOPERATIVE BANK LIMITED,TDCB0000039,KALWA,"BHARTI CHEMBER, OLD BELAPUR ROAD, KALWA  PIN CODE-400 605.",THANE,THANE,MAHARASHTRA,25347314
39,THE THANE DISTRICT CENTRAL COOPERATIVE BANK LIMITED,TDCB0000040,KOPRI COLONY,"SAI TIRTH BUILDING, OFFICE NO. 1/12,  1ST FLOOR, B,WING, SIDDHARTH NAGAR,  KOPARI, THANE-E, PIN-400603",THANE,THANE,MAHARASHTRA,25320527
40,THE THANE DISTRICT CENTRAL COOPERATIVE BANK LIMITED,TDCB0000041,UTTAN,"SAGAR DARSHAN, UTTAN PALI ROAD, AT. POST.,UTTAN, PIN -401 106.",THANE,MIRA-BHAYANDAR,MAHARASHTRA,28450116
41,THE THANE DISTRICT CENTRAL COOPERATIVE BANK LIMITED,TDCB0000042,ULHASNAGAR - 4,"O T SECTION OPP.MALERIYA OFFICE ULHASNAGAR-4,DIST-THANE. PIN -421 004.",THANE,ULHASNAGAR,MAHARASHTRA,2581232
42,THE THANE DISTRICT CENTRAL COOPERATIVE BANK LIMITED,TDCB0000043,KULGAON,"SHIV TIRTH, NEAR RAILWAY STAION, TAL-AMBARNATH, PIN -421 503.",THANE,ULHASNAGAR,MAHARASHTRA,2690045
43,THE THANE DISTRICT CENTRAL COOPERATIVE BANK LIMITED,TDCB0000044,AMBERNATH,"SAI DATTA BUILDING  SURYODAY CHS.PLOT NO. ┬û 10,  NEAR STATE BANK, AMBARNATH ( EAST )  PIN-421 501.",THANE,ULHASNAGAR,MAHARASHTRA,2602050
44,THE THANE DISTRICT CENTRAL COOPERATIVE BANK LIMITED,TDCB0000045,ULHASNAGAR-3,"SHRI RAM NIWAS KALYAN AMBERNATH ROAD, ULHASNAGAR-3, PIN CODE-421 003.",THANE,ULHASNAGAR,MAHARASHTRA,2734229
45,THE THANE DISTRICT CENTRAL COOPERATIVE BANK LIMITED,TDCB0000046,VANGANI,"KALPANA KUNJ,VANGANI,TAL AMBARNATH,DIST THANE PIN CODE 421 503",THANE,AMBARNATH,MAHARASHTRA,2660404
46,THE THANE DISTRICT CENTRAL COOPERATIVE BANK LIMITED,TDCB0000047,PALGHAR,"PALGHAR BRANCH KACHERI ROAD, CONGRESS BHAVAN, LST FLOOR, TAL.PALGHAR, PIN CODE-401 404.",THANE,PALGHAR,MAHARASHTRA,252029
47,THE THANE DISTRICT CENTRAL COOPERATIVE BANK LIMITED,TDCB0000048,BOISAR,"PARAS PLAZA BUILDING, NEAR BOISAR RAILY STATION",THANE,BOISAR,MAHARASHTRA,0
48,THE THANE DISTRICT CENTRAL COOPERATIVE BANK LIMITED,TDCB0000049,TARAPUR MIDC,"AT TARAPUR MIDC,GOGATE NAKA",THANE,TARAPUR MIDC,MAHARASHTRA,0
49,THE THANE DISTRICT CENTRAL COOPERATIVE BANK LIMITED,TDCB0000050,KELWA,"KELWA MARKET, PALGHAR (W), TALUKA-PALGHAR, PIN-401 401.",THANE,KELWA,MAHARASHTRA,222045
50,THE THANE DISTRICT CENTRAL COOPERATIVE BANK LIMITED,TDCB0000051,MANOR,"FAIMA BLDG., BEHIND S.T.STAND AT & POST-MANOR, TAL.PALGHAR  PIN-401 403.",THANE,MANOR,MAHARASHTRA,237032
51,THE THANE DISTRICT CENTRAL COOPERATIVE BANK LIMITED,TDCB0000052,SAFALA,"GRAMPANCHAYAT BUILDING, AT- SAFALA-EAST, TALUKA-PALGHAR,PIN-401 102.",THANE,PALGHAR,MAHARASHTRA,230160
52,THE THANE DISTRICT CENTRAL COOPERATIVE BANK LIMITED,TDCB0000053,SATPATI,"NEAR RAM MANDIR STOP, AT & POST-SATPATI, TALUKA-PALGHAR, PIN-401 405.",THANE,PALGHAR,MAHARASHTRA,224040
53,THE THANE DISTRICT CENTRAL COOPERATIVE BANK LIMITED,TDCB0000054,TARAPUR,"1ST FLOOR, SAI DATTA POOJA BUILDING, TARAPUR VILLAGE, TAL-PALGHAR, DIST-THANE",THANE,PALGHAR,MAHARASHTRA,280016
54,THE THANE DISTRICT CENTRAL COOPERATIVE BANK LIMITED,TDCB0000055,SHAHAPUR,"SAI PLAZA BLDG, PANDIT NAKA, GOTHEGHAR  TALUKA.SHAHAPUR, PIN -421 601.",THANE,SHAHAPUR,MAHARASHTRA,272021
55,THE THANE DISTRICT CENTRAL COOPERATIVE BANK LIMITED,TDCB0000056,BHATSANAGAR,"BANK COLONY 3 B, BHATSANAGAR BAJAR PETH ROAD, AT..BHATSANAGAR, TAL.SHAHAPUR , PIN CODE-421 301.",THANE,SHAHAPUR,MAHARASHTRA,249585
56,THE THANE DISTRICT CENTRAL COOPERATIVE BANK LIMITED,TDCB0000057,DOLKHAMB,"AT & POST.DOLKHAMB,  TALUKA-SHAHAPUR,PIN 421 601",THANE,SHAHAPUR,MAHARASHTRA,234054
57,THE THANE DISTRICT CENTRAL COOPERATIVE BANK LIMITED,TDCB0000058,KASARA,"MALTI NIWAS, BAZAR PETH, MUMBAI NASIK ROAD, AT & PO.KASARA,  TALUKA-SHAHAPUR,  PIN -421 601.",THANE,KASARA,MAHARASHTRA,246069
58,THE THANE DISTRICT CENTRAL COOPERATIVE BANK LIMITED,TDCB0000059,KHARDI,"NEAR RAILWAY STATION, AT & POST-KHARDI, TALUKA-SHAHAPUR, PIN-421 304.",THANE,KHARDI,MAHARASHTRA,244036
59,THE THANE DISTRICT CENTRAL COOPERATIVE BANK LIMITED,TDCB0000060,KINHAVALI,"KINHAVALI VIBHAG SHETKARI BHAT GIRNI SOCIETY.BUILDING,SHAHAPUR SARALGAON ROAD,AT-KINHAVALI,POST-KINHAVALI, TALUKA-SHAHAPUR, PIN-421401",THANE,KINHAVALI,MAHARASHTRA,232030
60,THE THANE DISTRICT CENTRAL COOPERATIVE BANK LIMITED,TDCB0000061,WASHIND,"OPP.KHATIVALI VASIND SEVA STY AT & POST-VASIND,TALUKA-SHAHAPUR DIST.THANE. PIN-421604",THANE,WASHIND,MAHARASHTRA,220046
61,THE THANE DISTRICT CENTRAL COOPERATIVE BANK LIMITED,TDCB0000062,SHENVA,"SHENAVA NAKA, KINHAVALI SHAHAPUR ROAD, AT & POST-SHENVA, TALUKA-SHAHAPUR,  PIN-421 601",THANE,SHAHAPUR,MAHARASHTRA,230088
62,THE THANE DISTRICT CENTRAL COOPERATIVE BANK LIMITED,TDCB0000063,WADA,"DAHE SOCIETY BUILDING, LST FLOOR, MAIN ROAD, OPP.KAILASH TALKIES  AT & POST.TALUKA-WADA, PIN-421303",THANE,WADA,MAHARASHTRA,271416
63,THE THANE DISTRICT CENTRAL COOPERATIVE BANK LIMITED,TDCB0000064,KUDUS,"AT & POST-KUDUS, TALUKA-WADA,  PIN CODE- 421 312",THANE,KUDUS,MAHARASHTRA,220233
64,THE THANE DISTRICT CENTRAL COOPERATIVE BANK LIMITED,TDCB0000065,KANCHAD,"AT & POST-KANCHAD, TAL.WADA,  DIST.THANE. PIN - 421 303.",THANE,KANCHAD,MAHARASHTRA,235633
65,THE THANE DISTRICT CENTRAL COOPERATIVE BANK LIMITED,TDCB0000066,TALASARI,"RAJPUT MALL, NATIONAL HIGHWAY NO. 8. AT.POST-TALUKA-TALASARI, DIST.THANE.PIN - 401 606.",THANE,TALASARI,MAHARASHTRA,220034
66,THE THANE DISTRICT CENTRAL COOPERATIVE BANK LIMITED,TDCB0000067,MOKHADA,"AT & POST-MOKHADA TALUKA-MOKHADA,PIN-401 604.",THANE,MOKHADA,MAHARASHTRA,256630
67,THE THANE DISTRICT CENTRAL COOPERATIVE BANK LIMITED,TDCB0000068,KHODALA,"AT &POST-KHODALA, TALUKA-MOKHADA,PIN-401 603.",THANE,KHODALA,MAHARASHTRA,250073
68,THE THANE DISTRICT CENTRAL COOPERATIVE BANK LIMITED,TDCB0000069,BADLAPUR,"HARSHAL  APARTMENT, 1 ST FLOOR,  NEAR TALATHI OFFI",THANE,BADLAPUR,MAHARASHTRA,0
69,THE THANE DISTRICT CENTRAL COOPERATIVE BANK LIMITED,TDCB0000070,DANDI,"KOPRAN MACHIMAR DANDI SANSTHA AT & POST-DANDI,TALU",THANE,DANDI,MAHARASHTRA,0
70,THE THANE DISTRICT CENTRAL COOPERATIVE BANK LIMITED,TDCB0000071,NAVAPUR,"NEAR GRAMPANCHAYAT OFFICE, AT & POST-NAVAPUR, TAL.PALGHAR, DIST.THANE. PIN-401 401.",THANE,PALGHAR,MAHARASHTRA,288321
71,THE THANE DISTRICT CENTRAL COOPERATIVE BANK LIMITED,TDCB0000072,VASAI,"OPP.S.T.STAND, BALKRISHNA APARTMENT, 1ST FLOOR, POST & TALUKA -VASAI,  PIN-401201",THANE,VASAI,MAHARASHTRA,2322045
72,THE THANE DISTRICT CENTRAL COOPERATIVE BANK LIMITED,TDCB0000073,KHANIVALI,"AT & POST-KHANIVALI, TAL.WADA, DIST.THANE. PIN-401 204.",THANE,KHANIVALI,MAHARASHTRA,237664
73,THE THANE DISTRICT CENTRAL COOPERATIVE BANK LIMITED,TDCB0000074,DHAMANKARNAKA,"31, DHAMANKAR PALACE BLDG. 1ST FLOOR, DHAMANKAR NAKA,TALUKA-BHIWANDI, PIN-421 302",THANE,BHIWANDI,MAHARASHTRA,255387
74,THE THANE DISTRICT CENTRAL COOPERATIVE BANK LIMITED,TDCB0000075,KOLSEWADI (KALYAN),"OM SHRADHA TOWER, TISGAON NAKA, KALYAN (EAST),DIST-THANE. PIN CODE-421 302.",THANE,KALYAN,MAHARASHTRA,2357694
75,THE THANE DISTRICT CENTRAL COOPERATIVE BANK LIMITED,TDCB0000076,ATGAON,"AT & POST-ATGAON, TALUKA-SHAHAPUR, DIST.THANE.  PIN-421 301.",THANE,ATGAON,MAHARASHTRA,240293
76,THE THANE DISTRICT CENTRAL COOPERATIVE BANK LIMITED,TDCB0000077,TOKAWADE,"AT & POST-TOKAWADE,TALUKA-MURBAD, DIST.THANE. PIN-421 402.",THANE,MURBAD,MAHARASHTRA,2420580
77,THE THANE DISTRICT CENTRAL COOPERATIVE BANK LIMITED,TDCB0000078,SHIVALE EXT. COUNTER,"AT-GANDHI CAMP SHIVALE,TAL-MURBAD,PH-247097",THANE,SHIVALE EXT. COUNTER,MAHARASHTRA,0
78,THE THANE DISTRICT CENTRAL COOPERATIVE BANK LIMITED,TDCB0000079,RAMBAUG (KALYAN),"SHREYA PALACE, RAMBAUG LANE  4, KALYAN (W.) TALUKA-KALYAN,  PIN- 421301",THANE,KALYAN,MAHARASHTRA,2210185
79,THE THANE DISTRICT CENTRAL COOPERATIVE BANK LIMITED,TDCB0000080,MIRA ROAD,"ABID PATEL HOUSE, NEAR AMAR PALACE HOTEL,  NEAR A.P. INTERNATIONAL SCHOOL , MIRAGAON  NATIONAL HIGHWAY,  PIN-401 104.",THANE,MIRA-BHAYANDAR,MAHARASHTRA,28457707
80,THE THANE DISTRICT CENTRAL COOPERATIVE BANK LIMITED,TDCB0000081,Z.P.EXT. THANE,"ZILLA PARIZAD COMPOUND, 1ST FLOOR, THANE (W) , TALUKA-THANE. PIN  400 601",THANE,THANE,MAHARASHTRA,25337630
81,THE THANE DISTRICT CENTRAL COOPERATIVE BANK LIMITED,TDCB0000082,BADLAPUR BELAVALI EXT COUNTER,"JIJA MATA VIKRIKAR BHAVAN,DATTA CHOWK,BELAVALI BADLAPUR W PIN 421503",THANE,BELVALI,MAHARASHTRA,2673699
82,THE THANE DISTRICT CENTRAL COOPERATIVE BANK LIMITED,TDCB0000083,NARIVALI EXT. COUNT.,"AT & POST ┬û NARIVALI,  TALUKA- MURBAD,",THANE,MURBAD,MAHARASHTRA,248020
83,THE THANE DISTRICT CENTRAL COOPERATIVE BANK LIMITED,TDCB0000084,ANGAON,"AT &POST┬ûANGAON, TALUKA- BHIWANDI, DIST. THANE, PIN- 421 302",THANE,ANGAON,MAHARASHTRA,260044
84,THE THANE DISTRICT CENTRAL COOPERATIVE BANK LIMITED,TDCB0000085,LODHA HEAVEN (SHILPHATA),"MUKTA RESIDENSY, B-2, 1ST FLOOR, NEAR KHIDKALESHWAR MANDIR,KALYAN ┬û SHILFATA,TALUKA-THANE",THANE,THANE,MAHARASHTRA,9224182032
85,THE THANE DISTRICT CENTRAL COOPERATIVE BANK LIMITED,TDCB0000086,DIVA STATION,"DHANRAJ RESIDENCY,DHANRAJ NAGAR,DIVA,THANE 400 612",THANE,DIVA,MAHARASHTRA,25318380
86,THE THANE DISTRICT CENTRAL COOPERATIVE BANK LIMITED,TDCB0000087,KUNDE-MAMNOLI,"ROOM NO. 281, GR FLOOR, AT. MAMNOLI,",THANE,KUNDE-MAMNOLI,MAHARASHTRA,0
87,THE THANE DISTRICT CENTRAL COOPERATIVE BANK LIMITED,TDCB0000088,MHARAL,"SHREE SWAMI-SAMARTH KRUPA BLDG.,NEAR GAONDEVI MANDIR,MHARAL GAON,POST:VARAP TAL:KALYAN DIST:THANE PIN 421301",THANE,KALYAN,MAHARASHTRA,232021
88,THE THANE DISTRICT CENTRAL COOPERATIVE BANK LIMITED,TDCB0000089,UDHAVA,"AT & POST-UDHAVA , TALUKA- TALASARI, DIST┬ûTHANE PIN- 401 606",THANE,UDHAWA,MAHARASHTRA,0
89,THE THANE DISTRICT CENTRAL COOPERATIVE BANK LIMITED,TDCB0000090,MANKOLI,"SHRI GANESH COMPLEX, A-1, 1ST FLOOR, ANJUR ROAD, AT. MANKOLI, POST. ANJUR, TALUKA-BHIWANDI, DIST-THANE",THANE,BHIWANDI,MAHARASHTRA,9226745828
90,THE THANE DISTRICT CENTRAL COOPERATIVE BANK LIMITED,TDCB0000091,DHAKTI DAHANU,"AT DHAKTI DAHANU,MITAN ALI, POST-DAHANU,TAL. DAHANU, DIST-THANE, PIN- 421 601",THANE,DAHANU,MAHARASHTRA,247474
91,THE THANE DISTRICT CENTRAL COOPERATIVE BANK LIMITED,TDCB0000092,MAHIM,"MAHIM VIVIDHA KARYAKARI,SAH.SOCIETY,MAHIM,AT AND POST MAHIM,TAL PALGHAR,DIST THANE",THANE,MAHIM,MAHARASHTRA,220866
92,THE THANE DISTRICT CENTRAL COOPERATIVE BANK LIMITED,TDCB0000093,AGHAI,"AGHAI AT & POST-AGHAI, TALUKA-SHAHAPUR, DIST-THANE",THANE,AGHAI,MAHARASHTRA,0
93,THE THANE DISTRICT CENTRAL COOPERATIVE BANK LIMITED,TDCB0000094,AALONDE,"AT & POST AALONDE, TAL- VIKRAMGAD, DIST THANE",THANE,VIKRAMGAD,MAHARASHTRA,9764236712
94,THE THANE DISTRICT CENTRAL COOPERATIVE BANK LIMITED,TDCB0000095,ASANGAON,"PITASHRI,SHREE SWAMI SAMARTH,CHOWK,STATION ROAD,ASANGAON W,TAL SHAHAPUR,DIST THANE",THANE,ASANGAON,MAHARASHTRA,9270862260
95,THE THANE DISTRICT CENTRAL COOPERATIVE BANK LIMITED,TDCB0000096,SANPADA,"SAI SANGAT BLDG,FIRST FLOOR,PLOT NO.4,SECTOR 3,SANPADA,NAVI MUMBAI 400705,022 27757911",THANE,SANPADA,MAHARASHTRA,27757911
96,THE THANE DISTRICT CENTRAL COOPERATIVE BANK LIMITED,TDCB0000097,JAMSAR,"HOUSE NO.75, GROUND FLOOR, VILLAGE JAMASAR, TAL-JAWHAR, DIST-THANE.",THANE,JAWHAR,MAHARASHTRA,9403698313
97,THE THANE DISTRICT CENTRAL COOPERATIVE BANK LIMITED,TDCB0000098,NEWALI,"POST MANGRUL,TAL-AMERNATH",THANE,NEWALI NAKA,MAHARASHTRA,0
98,THE THANE DISTRICT CENTRAL COOPERATIVE BANK LIMITED,TDCB0000099,KHADAVALI,"MANGALMURTI APARTMENT, B-WING, FLAT NO.13 & 14, GROUND FLOOR, NEAR KHADAWALI STATION, KHADAWALI , (E),  TAL-KALYAN, DIST-THANE. PIN-431301",THANE,KALYAN,MAHARASHTRA,2370999
99,THE THANE DISTRICT CENTRAL COOPERATIVE BANK LIMITED,TDCB0000100,KOPARKHAIRANE,"MAYUR APARTMENT,SHOP NO 7,GROUND FLOOR,FLAT NO 18,KOPARKHAIRANE,NAVI MUMBAI,TAL BY DIST THANE",THANE,KOPARKHAIRANE,MAHARASHTRA,27542426
100,THE THANE DISTRICT CENTRAL COOPERATIVE BANK LIMITED,TDCB0000101,GOVELI,"HOUSE NO.439, GROUND FLOOR, KALYAN-MURBAD ROAD, GOVELI, TAL-KALYAN, DIST-THANE. PIN 421301",THANE,KALYAN,MAHARASHTRA,2390949
101,THE THANE DISTRICT CENTRAL COOPERATIVE BANK LIMITED,TDCB0000102,VARTAK NAGAR,"GITANJALI NIWAS-1', GROUND FLOOR,SHOP NO. 1 & 2, YASHODHAN NAGAR, MTNL, WARD NO.4, LOKMANYANAGAR, PADA NO.2, THANE (W).",THANE,THANE,MAHARASHTRA,25882369
102,THE THANE DISTRICT CENTRAL COOPERATIVE BANK LIMITED,TDCB0000103,SHENDRUN,"HOUSE NO 744, GROUND FLOOR, AT SHENDRUN, POST-LENAD (KHU.),TAL-SHAHAPUR, DIST-THANE, PIN-421601",THANE,SHAHAPUR,MAHARASHTRA,9260276292
103,THE THANE DISTRICT CENTRAL COOPERATIVE BANK LIMITED,TDCB0000104,DAHISAR,"HOUSE NO 349, 1ST FLOOR, AT PIMPARI DAHISAR,MUMBRA-PANVEL ROAD, TAL-DIST-THANE, PIN 400612",THANE,THANE,MAHARASHTRA,7718967730
104,THE THANE DISTRICT CENTRAL COOPERATIVE BANK LIMITED,TDCB0000105,AMBADI,"HOUSE NO 127(B), GROUND FLOOR, AMBADI NAKA, AMBADI, POST-DIGHASHI, TAL-BHIWANDI, DIST-THANE, PIN 421302",THANE,BHIWANDI,MAHARASHTRA,9112434955
105,THE THANE DISTRICT CENTRAL COOPERATIVE BANK LIMITED,TDCB0000106,MHASA,"HOUSE NO 333(11)B 333(155), ZUNJARRAO COMPLEX,1ST FLOOR,AT & POST-MHASA, TAL- MURBAD, DIST-THANE, PIN-421401",THANE,MURBAD,MAHARASHTRA,7038276677
106,THE THANE DISTRICT CENTRAL COOPERATIVE BANK LIMITED,TDCB0000107,EDVAN,"HOUSE NO 700, GROUND FLOOR, SHRI RAM MADIR SABHAGRUH, EDVAN, TAL & DIST-PALGHAR, PIN 401404",PALGHAR,PALGHAR,MAHARASHTRA,9730165440
107,THE THANE DISTRICT CENTRAL COOPERATIVE BANK LIMITED,TDCB0000108,AMGAON,"HOUSE NO 623, GR. FLOOR, AMAGAON, TAL-TALASARI, DIST-THANE PIN 401606",PALGHAR,TALASARI,MAHARASHTRA,25397846
108,THE THANE DISTRICT CENTRAL COOPERATIVE BANK LIMITED,TDCB0000109,SAIWAN,"HOUSE NO 1087, GR. FLOOR, AT SAIWAN , TAL DAHANU DIST-PALGHAR PIN 401602",PALGHAR,DAHANU,MAHARASHTRA,25397846
109,THE THANE DISTRICT CENTRAL COOPERATIVE BANK LIMITED,TDCB0000110,PACHMARG,"HOUSE NO 660/B, MADHUBAN APARTMENT, IST FLOOR,AT KUDAN, TAL & DIST- PALGHAR 401501",PALGHAR,PALGHAR,MAHARASHTRA,25397846
110,THE THANE DISTRICT CENTRAL COOPERATIVE BANK LIMITED,TDCB0000111,VIRAR W,"BLDG NO 2, 1ST FLOOR, SARVE NO 265,GAVTHAN AREA VIRAR (W) TAL VASAI, PALGHAR 401303",PALGHAR,VASAI,MAHARASHTRA,25397846
111,THE THANE DISTRICT CENTRAL COOPERATIVE BANK LIMITED,TDCB0000112,KAMAN,"HOUSE NO 1878, 1ST FLOOR, AT POST KAMAN, TAL-VASAI, DIST-PALGHAR 401208",PALGHAR,VASAI,MAHARASHTRA,25397846
112,THE THANE DISTRICT CENTRAL COOPERATIVE BANK LIMITED,TDCB0000113,SHIRISHPADA,"HOUSE NO 756 SHIRISHPADA, POST KONE, TAL WADA DIST-PALGHAR PIN 421303",PALGHAR,SHIRISHPADA,MAHARASHTRA,25397846
113,THE THANE DISTRICT CENTRAL COOPERATIVE BANK LIMITED,TDCB0000114,KALHER,"SHOP-16,17,18,19,1ST FLOOR,HIRA ARCADE,KALHER,TAL-BHIWANDI,THAN-421302",THANE,BHIWANDI,MAHARASHTRA,21582015
114,THE THANE DISTRICT CENTRAL COOPERATIVE BANK LIMITED,TDCB0000115,YASHWANT NAGAR MORCHA,"HOUSE NO,GR FLOOR,NEAR TAHASILDAR OFFICE,YASHWANT NAGAR-MORCHA,JAWHAR,PALGHAR,401603",PALGHAR,JAWHAR,MAHARASHTRA,21582016
