,BANK NAME,IFSC,OFFICE,ADDRESS,DISTRICT,CITY,STATE,PHONE
0,TELANGANA STATE COOP APEX BANK,TSAB0000101,VIDYANAGAR,"H NO 1-9-652/1 TO 10, AMBATI NARASAMMA TOWERS , VIDYANAGAR,STREET NO. 6 HYDERABAD 500044",RANGA REDDY,HYDERABAD,TELANGANA,23443835
1,TELANGANA STATE COOP APEX BANK,TSAB0000102,MALAKPET,"D.NO. 16-2-661/B, JUDGES COLONY, MALAKPET, HYDERABAD 36",RANGA REDDY,HYDERABAD,TELANGANA,23443882
2,TELANGANA STATE COOP APEX BANK,TSAB0000103,NARAYANAGUDA,"3-4-447 / 448,BARKATPURA,OPP.YMCA,HYDERABAD",RANGA REDDY,HYDERABAD,TELANGANA,23443883
3,TELANGANA STATE COOP APEX BANK,TSAB0000104,SECUNDERABAD,"8-3-261,IST FLOOR,MARKET STREET,NEAR RAJESHWARI THEATRE,SECUNDERABAD 25",RANGA REDDY,SECUNDERABAD,TELANGANA,23443834
4,TELANGANA STATE COOP APEX BANK,TSAB0000105,VIDYUTH SOUDHA,"AP TRANSCO COMPOUND KHAIRATABAD, HYDERABAD 82",RANGA REDDY,SECUNDERABAD,TELANGANA,23441232
5,TELANGANA STATE COOP APEX BANK,TSAB0000107,SAIDABAD,"16-1-24/B/A/3GREENLANDCOLOY SAIDABAD,HYDERABAD59",RANGA REDDY,HYDERABAD,TELANGANA,23443839
6,TELANGANA STATE COOP APEX BANK,TSAB0000108,BOUDHANAGAR,"12-10-117,NOMULA ESTATE,SEETHAPHALMANDI,HYDERABAD 69",RANGA REDDY,HYDERABAD,TELANGANA,23443834
7,TELANGANA STATE COOP APEX BANK,TSAB0000109,HIMAYATHNAGAR,"3-6-148/A/1, IST FLOOR, HIMAYATHNAGAR, HYDERABAD 29",RANGA REDDY,HYDERABAD,TELANGANA,23441212
8,TELANGANA STATE COOP APEX BANK,TSAB0000110,TARNAKA,"12-13-188,STREETO2,TARNAKA,HYERABAD17",RANGA REDDY,HYDERABAD,TELANGANA,23443885
9,TELANGANA STATE COOP APEX BANK,TSAB0000111,MASAB TANK,10-1-181/1 MASAB TANK HYDERABAD 4,RANGA REDDY,HYDERABAD,TELANGANA,23441242
10,TELANGANA STATE COOP APEX BANK,TSAB0000112,DILSUKHNAGAR,"9-24, SRIHARI VASAM, DILSUKHNAGAR,HYDERABAD 60",RANGA REDDY,HYDERABAD,TELANGANA,23443836
11,TELANGANA STATE COOP APEX BANK,TSAB0000113,CHARMINAR,"22-5-519 AND 545/1,ILAHI PETROL STATION,PANJESHA,HYDERABAD 2",RANGA REDDY,HYDERABAD,TELANGANA,23443832
12,TELANGANA STATE COOP APEX BANK,TSAB0000114,BAGHLINGAMPALLY,"1-8-115/2, CHIKKADAPALLY, HYDERABAD-20",RANGA REDDY,HYDERABAD,TELANGANA,4023443886
13,TELANGANA STATE COOP APEX BANK,TSAB0000115,LOTHUKUNTA,"HPN.59-1/2,NEARKARKHANAPLICETATIN,ECUNDERABAD-9",RANGA REDDY,SECUNDERABAD,TELANGANA,27745527
14,TELANGANA STATE COOP APEX BANK,TSAB0000116,LALAPET,"12-1-1570AD157,SATIAGAR,LALAPET,YDERABAD-17",RANGA REDDY,HYDERABAD,TELANGANA,23443881
15,TELANGANA STATE COOP APEX BANK,TSAB0000117,VENGALRAO NAGAR,"D.NO. 110, MADHURA NAGAR WELFARE BUILDING, HYDERABAD-38",RANGA REDDY,HYDERABAD,TELANGANA,23441252
16,TELANGANA STATE COOP APEX BANK,TSAB0000118,AMEERPET,"6-3-788/A/22, KUMAR CHAMBERS, OPP LANE TO CHANDANA BROTHERS, HYDERABAD-16",RANGA REDDY,HYDERABAD,TELANGANA,23441262
17,TELANGANA STATE COOP APEX BANK,TSAB0000119,ALWAL,"1-12-160/3,GROUND FLOOR,JAYA RESIDENCY,JJ NAGAR COLONY,BEHIND RELIANCE FRESH,ALWAL,SECUNDERABAD-10",RANGA REDDY,SECUNDERABAD,TELANGANA,23443887
18,TELANGANA STATE COOP APEX BANK,TSAB0000120,MOULALI,"H.NO 1-7-177/A OPP GHMC OFFICE,KAMALANAGAR ECIL HYD-62",RANGA REDDY,HYDERABAD,TELANGANA,23443843
19,TELANGANA STATE COOP APEX BANK,TSAB0000121,KAMALANAGAR,"LTN.47,KAMALANAGAR,BHULAKSHMINAGAR,VANASTHALIURAM,HYDERABAD-70",RANGA REDDY,HYDERABAD,TELANGANA,23443837
20,TELANGANA STATE COOP APEX BANK,TSAB0000122,CHAMPAPET,"H.NO. 17-1-388/C/A,VIJAY NAGAR COLONY,CAMPAPET,HYDERABAD-59",RANGA REDDY,HYDERABAD,TELANGANA,23443831
21,TELANGANA STATE COOP APEX BANK,TSAB0000123,JUBILEE HILLS,"O8-2-293/82/A/69/1,ROADO1,JUBILEEILLS,YDERABAD-33",RANGA REDDY,HYDERABAD,TELANGANA,23441272
22,TELANGANA STATE COOP APEX BANK,TSAB0000124,MARUTHI NAGAR,"PLOT NO 1,SY NO.174, MARUTHI NAGAR,NEAR JAIN MANDIR, KOTHAPET, HYDERABAD-60",RANGA REDDY,HYDERABAD,TELANGANA,23443803
23,TELANGANA STATE COOP APEX BANK,TSAB0000125,HEAD OFFICE BRANCH,"4-1-511/3 TROOP BAZAR,KOTI,HYDERABAD",RANGA REDDY,HYDERABAD,TELANGANA,23443814
24,TELANGANA STATE COOP APEX BANK,TSAB0000127,SERILINGAMPALLY,"PLOT NO.9,SITARA APARTMENTS,HUDA TRADE CENTRE,NALLAGANDLA ROAD,LINGAMPALLY,HYDERABAD-19",RANGA REDDY,HYDERABAD,TELANGANA,23443852
25,TELANGANA STATE COOP APEX BANK,TSAB0000128,KUKATPALLY,"SUJATHA NILAYAM, MIG-205, MRO OFFICE ROAD, PHASE I AND II, KPHB COLONY, HYDERABAD-72",RANGA REDDY,HYDERABAD,TELANGANA,23443853
26,TELANGANA STATE COOP APEX BANK,TSAB0000129,MALKAJGIRI,"BHARATHRAJ BHAVAN, 1-128/2/1 OLD, 1-131/2 NEW MALKAJGIRI",RANGA REDDY,HYDERABAD,TELANGANA,23443854
27,TELANGANA STATE COOP APEX BANK,TSAB0000130,GACHIBOWLI,"SAI TEJA ENCLAVE, 2-52/88,NEAR GPRAQUARER,NDRANAGAR,GACHBOWL,HYDERABAD-32",RANGA REDDY,HYDERABAD,TELANGANA,23443851
28,TELANGANA STATE COOP APEX BANK,TSAB0000131,TOLICHOWKI,"5-83/1, PLOT NO. 347, SECRETARIAT COLONY, MANIKONDA, HYDERABAD-89",RANGA REDDY,HYDERABAD,TELANGANA,9618917575
29,TELANGANA STATE COOP APEX BANK,TSAB0000132,AMBERPET,"SARVAJI RESIDENCY,H.NO.10-51/4,10-51/5,MAIN ROAD,RAMANTHAPUR,HYDERABAD-13",RANGA REDDY,HYDERABAD,TELANGANA,23443862
30,TELANGANA STATE COOP APEX BANK,TSAB0000133,ATTAPUR,"H NO 2-5-19/1/39 ATTAPUR ROAD,UPPARAPALLY VILLAGE,HUDA COLONY,HYDERABAD 48",RANGA REDDY,HYDERABAD,TELANGANA,20023864
31,TELANGANA STATE COOP APEX BANK,TSAB0000134,UPPAL,"PLOT NOS.78 AND 79,VENKATESWARA TEMPLE ROAD,SWAROOP NAGAR,UPPAL,HYDERABAD-39",RANGA REDDY,HYDERABAD,TELANGANA,23443864
32,TELANGANA STATE COOP APEX BANK,TSAB0000135,CHANDA NAGAR,"PLOT NO.392PART AND 393,ROAD NO.6,MADHAVAPURI HILLS,CHANDA NAGAR,HYDERABAD-50",RANGA REDDY,HYDERABAD,TELANGANA,23443861
33,TELANGANA STATE COOP APEX BANK,TSAB0000136,BANDLAGUDA,"SURVEY NO.42 P,OPP RAJIVGRUHAKALAPA,GSI POST,BANDLAGUDA.",RANGA REDDY,HYDERABAD,TELANGANA,9010900033
34,TELANGANA STATE COOP APEX BANK,TSAB0000137,BHARATNAGAR COLONY,"PLOT NO.143,OPP MEE SEVA,MOTINAGAR,HYDERABAD-500018",RANGA REDDY,HYDERABAD,TELANGANA,9010297772
35,TELANGANA STATE COOP APEX BANK,TSAB0000138,SUCHITRA,"SDS COMPLEX,1-5-903/2412/1/NR,SRI SAI NAGAR,OLD ALWAL MAIN ROAD,HYDERABAD-500010",RANGA REDDY,HYDERABAD,TELANGANA,9494462476
36,TELANGANA STATE COOP APEX BANK,TSAB0000139,NEREDMET,"35-64/2,GK COLONY,NEREDMET HYDERABAD 500094",RANGA REDDY,HYDERABAD,TELANGANA,9963932878
37,TELANGANA STATE COOP APEX BANK,TSAB0000140,YOUSUFGUDA,"OM SAI KRUPA SWARNA,8-3-225/149/2,YOUSUF GUDA CHECK POST,HYDERABAD 500045",RANGA REDDY,HYDERABAD,TELANGANA,8499994050
38,TELANGANA STATE COOP APEX BANK,TSAB0000141,SAROOR NAGAR,"3-6-317,SBH COLONY VENTURE 1,LB NAGAR 500075",RANGA REDDY,HYDERABAD,TELANGANA,24685579
39,TELANGANA STATE COOP APEX BANK,TSAB0000142,MEERPET,"17-265 ( 9610 ) SIRLA HILLS MEERPET VILLAGE,SAROOR NAGAR MANDAL,R R DIST-500097",RANGA REDDY,HYDERABAD,TELANGANA,24685579
40,TELANGANA STATE COOP APEX BANK,TSAB0000143,BADANGPET,"19-69 SHIRDI ENCLAVE LENIN NAGAR TO BADANGPET ROAD BADANGPET VILLAGE,SAROORNAGAR MANDAL,RR DIST-500058",RANGA REDDY,HYDERABAD,TELANGANA,24685579
41,TELANGANA STATE COOP APEX BANK,TSAB0000144,MANSURABAD,PLOT NO 1 2 SURVEY NO 41 42 WARD NO 3 BLOCK NO 9 MANSUARABAD SAROORNAGAR MANDAL HYDERABAD RANGAREDDY DIST 5000069,RANGAREDDY,HYDERABAD,TELANGANA,0
42,TELANGANA STATE COOP APEX BANK,TSAB0014001,"THE MAHABOOBNAGAR DISTRICT CO OPERATIVE CENTRAL BANK LTD, MAHBUBNAGAR","OPP NAVODAYA HOSPITAL,STATION ROADMAHABUBNAGAR509001",MAHBUBNAGAR,MAHBUBNAGAR,TELANGANA,0
43,TELANGANA STATE COOP APEX BANK,TSAB0014002,"THE MAHABOOBNAGAR DISTRICT CO OPERATIVE CENTRAL BANK LTD, ACHAMPET","BANK LTD,OPP MASJID,SRISAILAM ROAD,ACHAMPET509 375",MAHBUBNAGAR,ACHAMPET,TELANGANA,0
44,TELANGANA STATE COOP APEX BANK,TSAB0014003,"THE MAHABOOBNAGAR DISTRICT CO OPERATIVE CENTRAL BANK LTD, ALAMPUR","BANK LTD,NEW PLOTS,NEAR R AND B GUEST HOUSEALAMPUR",MAHBUBNAGAR,ALAMPUR,TELANGANA,0
45,TELANGANA STATE COOP APEX BANK,TSAB0014004,"THE MAHABOOBNAGAR DISTRICT CO OPERATIVE CENTRAL BANK LTD, AMANGAL","BANK LTD,KALWAKURTHY ROADAMANGAL509 321",MAHBUBNAGAR,AMANGAL,TELANGANA,0
46,TELANGANA STATE COOP APEX BANK,TSAB0014005,"THE MAHABOOBNAGAR DISTRICT CO OPERATIVE CENTRAL BANK LTD, ATMAKUR","BANK LTD,PANCHAYAT ROAD,ATHMAKUR509 131",MAHBUBNAGAR,ATMAKUR,TELANGANA,0
47,TELANGANA STATE COOP APEX BANK,TSAB0014006,"THE MAHABOOBNAGAR DISTRICT CO OPERATIVE CENTRAL BANK LTD, BADEPALLE","BANK LTD,OPP LIC BUILDINGBADEPALLY509 302",MAHBUBNAGAR,BADEPALLE,TELANGANA,0
48,TELANGANA STATE COOP APEX BANK,TSAB0014007,"THE MAHABOOBNAGAR DISTRICT CO OPERATIVE CENTRAL BANK LTD, BIJNEPALLE","DCCBANK LTD,NEAR BUS STATION,BIJNEPALLY509 203",MAHBUBNAGAR,BIJNEPALLE,TELANGANA,0
49,TELANGANA STATE COOP APEX BANK,TSAB0014008,"THE MAHABOOBNAGAR DISTRICT CO OPERATIVE CENTRAL BANK LTD, DEVERKADRA","DCCBANK LTD,BRANCH NEAR BUS STATION,DEVERKADRA509 204",MAHBUBNAGAR,DEVERKADRA,TELANGANA,0
50,TELANGANA STATE COOP APEX BANK,TSAB0014009,"THE MAHABOOBNAGAR DISTRICT CO OPERATIVE CENTRAL BANK LTD, GADWAL","DCCBANK LTD,BRANCH GADWAL OLD SBH,RAICHUR ROAD GADWAL509 125",MAHBUBNAGAR,GADWAL,TELANGANA,0
51,TELANGANA STATE COOP APEX BANK,TSAB0014010,"THE MAHABOOBNAGAR DISTRICT CO OPERATIVE CENTRAL BANK LTD, KALWAKURTI","DCCBANK LTD,BRANCH OPP BUS DEPOT KALWAKURTHY509 324509324",MAHBUBNAGAR,KALWAKURTI,TELANGANA,0
52,TELANGANA STATE COOP APEX BANK,TSAB0014011,"THE MAHABOOBNAGAR DISTRICT CO OPERATIVE CENTRAL BANK LTD, KODANGAL","DCCBANK LTD,BRANCH KODANGALOPP M.R.O OFFICE KPDANGAL509 338",MAHBUBNAGAR,KODANGAL,TELANGANA,0
53,TELANGANA STATE COOP APEX BANK,TSAB0014012,"THE MAHABOOBNAGAR DISTRICT CO OPERATIVE CENTRAL BANK LTD, KOLLAPUR","DCCBANK LTD,BRANCH OPP SBI,KURNOOL ROAD,KOLLAPUR509 102",MAHBUBNAGAR,KOLLAPUR,TELANGANA,0
54,TELANGANA STATE COOP APEX BANK,TSAB0014013,"THE MAHABOOBNAGAR DISTRICT CO OPERATIVE CENTRAL BANK LTD, KOTHAKOTA","DCCBANK LTD,BRANCH OPP PETROL BUNK,WANAPARTHY ROAD,KOTHAKOTA509 381",MAHBUBNAGAR,KOTHAKOTA,TELANGANA,0
55,TELANGANA STATE COOP APEX BANK,TSAB0014014,"THE MAHABOOBNAGAR DISTRICT CO OPERATIVE CENTRAL BANK LTD, MAKTHAL","DCCBANK LTD,BRANCH OPP GOVT.CIVIL HOSPITALMAKTHAL509 208",MAHBUBNAGAR,MAKTHAL,TELANGANA,0
56,TELANGANA STATE COOP APEX BANK,TSAB0014015,"THE MAHABOOBNAGAR DISTRICT CO OPERATIVE CENTRAL BANK LTD, NAGARKURNOOL","DCCBANK LTD,BRANCH OPP POLICE STATION,NAGARKURNOOL509 209",MAHBUBNAGAR,NAGARKURNOOL,TELANGANA,0
57,TELANGANA STATE COOP APEX BANK,TSAB0014016,"THE MAHABOOBNAGAR DISTRICT CO OPERATIVE CENTRAL BANK LTD, NARAYANPET","DCCBANK LTD,BRANCH NARAYANPETSHATHAVAHANA COLONY NARAYANPET509 210",MAHBUBNAGAR,NARAYANPET,TELANGANA,0
58,TELANGANA STATE COOP APEX BANK,TSAB0014017,"THE MAHABOOBNAGAR DISTRICT CO OPERATIVE CENTRAL BANK LTD, SHADNAGAR","DCCBANK LTD,BRANCH SHADNAGARN.H.7,TOWARDS MAHABUBNAGAR,SHADNAGAR509 216",MAHBUBNAGAR,SHADNAGAR,TELANGANA,0
59,TELANGANA STATE COOP APEX BANK,TSAB0014018,"THE MAHABOOBNAGAR DISTRICT CO OPERATIVE CENTRAL BANK LTD, SHANTHINAGAR","DCCBANK LTD,BRANCH KURNOOL ROAD,SHANTHINAGAR509 144",MAHBUBNAGAR,SHANTHINAGAR,TELANGANA,0
60,TELANGANA STATE COOP APEX BANK,TSAB0014019,"THE MAHABOOBNAGAR DISTRICT CO OPERATIVE CENTRAL BANK LTD, TOWN BRANCH","BHAGIRATHA COLONY,OPP ANNAPURNA FUNCTION HALL,BHOOTHPUR ROAD,MAHABUBNAGAR509 001",MAHBUBNAGAR,MAHBUBNAGAR,TELANGANA,0
61,TELANGANA STATE COOP APEX BANK,TSAB0014020,"THE MAHABOOBNAGAR DISTRICT CO OPERATIVE CENTRAL BANK LTD, WANAPARTHI","DCCBANK LTD,BRANCH BESIDE BUS STAND,KURNOOL ROAD,WANAPARTHY509 103",MAHBUBNAGAR,WANAPARTHI,TELANGANA,0
62,TELANGANA STATE COOP APEX BANK,TSAB0014021,"THE DISTRICT COOPERATIVE CENTRAL BANK LTD,MAHABUBNAGAR,MARIKAL","H.NO - 7-79,NEAR MAIN ROAD CIRCLE,MARIKAL",MAHABUBNAGAR,MARIKAL,TELANGANA,0
63,TELANGANA STATE COOP APEX BANK,TSAB0014022,"THE DISTRICT COOPERATIVE CENTRAL BANK LTD,MAHABUBNAGAR,YERRAVALLI X ROAD",H.NO 5-96&5-97 NEAR MAIN ROAD CIRCLE YERRAVALLI X-ROAD,JOGULAMBA GADWAL,YERRAVALLI X ROAD,TELANGANA,0
64,TELANGANA STATE COOP APEX BANK,TSAB0015001,"THE HYDERABAD DISTRICT CO OPERATIVE CENTRAL BANK LTD,NAMPALLY",NAMPALLY STATION ROAD FATEH SULTAN LANE 500001,HYDERABAD,HYDERABAD,TELANGANA,0
65,TELANGANA STATE COOP APEX BANK,TSAB0015002,"THE HYDERABAD DISTRICT CO OPERATIVE CENTRAL BANK LTD,BAHADURPURA","D.NO.466915 AND 7,VASUDEVA REDDY COMPLEX ATHAPUR X ROAD INNER RING ROAD",RANGA REDDY,HYDERABAD,TELANGANA,0
66,TELANGANA STATE COOP APEX BANK,TSAB0015003,"THE HYDERABAD DISTRICT CO OPERATIVE CENTRAL BANK LTD,CHEVELLA","MANDAL ROAD,OPP.GVT.GUEST HOUSE,CHEVELLA,RANGA REDDY DISTRICT 501 503",RANGA REDDY,CHEVELLA,TELANGANA,0
67,TELANGANA STATE COOP APEX BANK,TSAB0015004,"THE HYDERABAD DISTRICT CO OPERATIVE CENTRAL BANK LTD,GANDIMYSAMMA X ROAD","D.NO.3962,PLOT NO.7,8,9,GANDI MAISAMMA X ROAD DOOLA POCHAMPALLY QUTHBULLAPUR MANDAL 500043",HYDERABAD,HYDERABAD,TELANGANA,0
68,TELANGANA STATE COOP APEX BANK,TSAB0015005,"THE HYDERABAD DISTRICT CO OPERATIVE CENTRAL BANK LTD,HAYATNAGAR","D.NO.9136,BAGH AREAD,HAYATHNAGAR,RANGA REDDY DISTRICT 501 505",RANGA REDDY,HAYATNAGAR,TELANGANA,0
69,TELANGANA STATE COOP APEX BANK,TSAB0015006,"THE HYDERABAD DISTRICT CO OPERATIVE CENTRAL BANK LTD,IBRAHIMPATAM","NEAR GOVT JR COLLEGE,IBRAHIMPATNAM VILLAGE MANDAL,RANGA REDDY DISTRICT 501 506",RANGA REDDY,IBRAHIMPATAM,TELANGANA,0
70,TELANGANA STATE COOP APEX BANK,TSAB0015007,"THE HYDERABAD DISTRICT CO OPERATIVE CENTRAL BANK LTD,KARWAN",H.NO.91364B16 SANGAM ROAD LUNGER HOUSE HYD008,RAJENDRANAGAR,RAJENDRANAGAR,TELANGANA,0
71,TELANGANA STATE COOP APEX BANK,TSAB0015008,"THE HYDERABAD DISTRICT CO OPERATIVE CENTRAL BANK LTD,KUKATPALLY","PLOT NO.144,BHAGYANAGAR COLONY,OPP KUKATPALLY,HYDERABAD 500 072",KUKATPALLY,KUKATPALLY,TELANGANA,0
72,TELANGANA STATE COOP APEX BANK,TSAB0015009,"THE HYDERABAD DISTRICT CO OPERATIVE CENTRAL BANK LTD,MADANNAPET","D.NO.962,SGR COLONY,SAGAR ROAD NEAR ROSE GARDEN CHAMPAPET500079",HYDERABAD,HYDERABAD,TELANGANA,0
73,TELANGANA STATE COOP APEX BANK,TSAB0015010,"THE HYDERABAD DISTRICT CO OPERATIVE CENTRAL BANK LTD,MAHESHWARAM","D.NO.781,MDO OFFICE ROAD,MAHESHWARAM,RANGA REDDY DISTRICT 501 359",RANGA REDDY,MAHESHWARAM,TELANGANA,0
74,TELANGANA STATE COOP APEX BANK,TSAB0015011,"THE HYDERABAD DISTRICT CO OPERATIVE CENTRAL BANK LTD,MEDCHAL","BESIDE LAXMAMMA HIGH SCHOOL,MEDCHAL VILLAGE MANDAL,RANGA REDDY DISTRICT 501 401",RANGA REDDY,MEDCHAL,TELANGANA,0
75,TELANGANA STATE COOP APEX BANK,TSAB0015012,"THE HYDERABAD DISTRICT CO OPERATIVE CENTRAL BANK LTD,MOHAMMADABAD","D.NO.794,TANDUR ROAD,MOHAMMADABAD,MANDAL GANDEED,RR DIST 509 337",RANGA REDDY,MOHAMMADABAD,TELANGANA,0
76,TELANGANA STATE COOP APEX BANK,TSAB0015013,"THE HYDERABAD DISTRICT CO OPERATIVE CENTRAL BANK LTD,MOMINPET","D.NO.8123A,MAIN ROAD,MOMINPET VILLAGE MANDAL,RANGA REDDY DISTRICT 501 202",RANGA REDDY,MOMINPET,TELANGANA,0
77,TELANGANA STATE COOP APEX BANK,TSAB0015014,"THE HYDERABAD DISTRICT CO OPERATIVE CENTRAL BANK LTD,PARGI","D.NO.2754,OPP MUNSIF COURT,PARGI VILLAGE MANDAL,RR DIST 501 501",RANGA REDDY,PARGI,TELANGANA,0
78,TELANGANA STATE COOP APEX BANK,TSAB0015015,"THE HYDERABAD DISTRICT CO OPERATIVE CENTRAL BANK LTD,RAMANTHAPUR","D.NO.39903,SHARADANAGAR,RAMANTHAPUR,HYDERABAD 500 013",RANGA REDDY,UPPAL,TELANGANA,0
79,TELANGANA STATE COOP APEX BANK,TSAB0015016,"THE HYDERABAD DISTRICT CO OPERATIVE CENTRAL BANK LTD,SANATH NAGAR","D.NO.7217501,OPP VOLTAS SANATH NAGAR",HYDERABAD,HYDERABAD,TELANGANA,0
80,TELANGANA STATE COOP APEX BANK,TSAB0015017,"THE HYDERABAD DISTRICT CO OPERATIVE CENTRAL BANK LTD,SHANKARPALLY","D.NO.8811,SHANKARPALLY VILLAGE MANDAL,RR DISTRICT 501 203",RANGA REDDY,SHANKARAPALLI,TELANGANA,0
81,TELANGANA STATE COOP APEX BANK,TSAB0015018,"THE HYDERABAD DISTRICT CO OPERATIVE CENTRAL BANK LTD,TANDUR","D.NO.1390,CHINCHOLI ROAD,TANDUR,RANGA REDDY DISTRICT 501 141",RANGA REDDY,TANDUR,TELANGANA,0
82,TELANGANA STATE COOP APEX BANK,TSAB0015019,"THE HYDERABAD DISTRICT CO OPERATIVE CENTRAL BANK LTD,VANASTALIPURAM","D.NO.65175C 290,SELF FINANCE COLONY OPP VYSYA BANK VANASTHALIPURAM",HYDERABAD,HYDERABAD,TELANGANA,0
83,TELANGANA STATE COOP APEX BANK,TSAB0015020,"THE HYDERABAD DISTRICT CO OPERATIVE CENTRAL BANK LTD,VASANTH NAGAR","D.NO.7829,SHOPPING COMPLEX,VASANTH NAGAR COLONY KUKATPALLY HYDERABAD500085",HYDERABAD,HYDERABAD,TELANGANA,23441232
84,TELANGANA STATE COOP APEX BANK,TSAB0015021,"THE HYDERABAD DISTRICT CO OPERATIVE CENTRAL BANK LTD,VIKARABAD","H.NO.41184A NEAR GUNJ,ALAMPALLY ROAD,VIKARABAD VILLAGE MANDAL,RANGA REDDY DISTRICT 501 101",RANGA REDDY,VIKARABAD,TELANGANA,0
85,TELANGANA STATE COOP APEX BANK,TSAB0015022,"THE HYDERABAD DISTRICT CO OPERATIVE CENTRAL BANK LTD,WEST MAREDPALLY","PLOT NO.1,SARVA SUKI COLONY,BESIDE PADMASHALI BHAVAN,WEST MAREDPALLY,SECUNDERABAD 500 026",HYDERABAD,SECUNDERABAD,TELANGANA,0
86,TELANGANA STATE COOP APEX BANK,TSAB0015023,"THE HYDERABAD DISTRICT CO OPERATIVE CENTRAL BANK LTD,MOINABAD","DOOR NO.61522,GROUND FLOOR,SHIVANAGAR COLONY,MINABAD R.R DIST.501 503",RANGA REDDY,MOINABAD,TELANGANA,0
87,TELANGANA STATE COOP APEX BANK,TSAB0015024,"THE HYDERABAD DISTRICT CO OPERATIVE CENTRAL BANK LTD,TARA NAGAR","D.NO.158A JAGADESH COMPLEX,TARANAGARR.R DIST502032",RANGA REDDY,SERILINGAMPALLY,TELANGANA,0
88,TELANGANA STATE COOP APEX BANK,TSAB0015025,"THE HYDERABAD DISTRICT CO OPERATIVE CENTRAL BANK LTD,BALAPUR X ROAD","D.NO.3962,PLOT NO.7,8,9,GANDIMAISAMMA X ROAD,DOOLA POCHAMPALLY,QUTHBULLAPUR MANDAL,RANGA REDDY DISTRICT 500 043",RANGA REDDY,HYDERABAD,TELANGANA,0
89,TELANGANA STATE COOP APEX BANK,TSAB0015027,"THE HYDERABAD DISTRICT CO OPERATIVE CENTRAL BANK LTD,SHAMSHABAD","O208,PLOT O236,RAALAGUDA ROAD,SAMSABAD",SHAMSHABAD,SHAMSHABAD,TELANGANA,0
90,TELANGANA STATE COOP APEX BANK,TSAB0015028,"THE HYDERABAD DISTRCIT COOPERATIVE CENTRAL BANK LTD, YACHARAM","YACHARAM,NEAR GRAM PANCHAYAT,R.R.DIST.-501509",RANGA REDDY,YACHARAM,TELANGANA,9705187869
91,TELANGANA STATE COOP APEX BANK,TSAB0015029,"THE HYDERABAD DISTRCIT COOPERATIVE CENTRAL BANK LTD, KANDUKUR","PLOT NO 52,SURVEY NO.540,OPP.POLICE STATION,KANDUKUR X ROAD,KANDUKUR MANDAL,RANGA REDDY DISTRICT -501359",RANGA REDDY,HYDERABAD,TELANGANA,9100073217
92,TELANGANA STATE COOP APEX BANK,TSAB0015030,"THE HYDERABAD DISTRCIT COOPERATIVE CENTRAL BANK LTD, DHAROOR","H NO 6-123,OPP.POST OFFICE,KUKKINDA ROAD,DHAROOR MANDAL,VIKARABAD DISTRICT -501121",VIKARABAD,HYDERABAD,TELANGANA,9100073216
93,TELANGANA STATE COOP APEX BANK,TSAB0017001,"THE MEDAK DISTRICT CO OPERATIVE CENTRAL BANK LTD, SANGAREDDY",NEAR ZILLA PARISHAT HEAD OFFICE SANGAREDDY502001,SANGAREDDY,SANGAREDDY,TELANGANA,0
94,TELANGANA STATE COOP APEX BANK,TSAB0017002,"THE MEDAK DISTRICT CO OPERATIVE CENTRAL BANK LTD, CHEGUNTA","MAHANKALI STREET,MEDAK ROAD,CHEGUNTA502255",SANGAREDDY,CHEGUNTA,TELANGANA,0
95,TELANGANA STATE COOP APEX BANK,TSAB0017003,"THE MEDAK DISTRICT CO OPERATIVE CENTRAL BANK LTD, DOULTHABAD","OPP OLD CINIMA THEATRE,DOULTABAD MANDAL HATHNOORA 502296",SANGAREDDY,DOULTHABAD,TELANGANA,0
96,TELANGANA STATE COOP APEX BANK,TSAB0017004,"THE MEDAK DISTRICT CO OPERATIVE CENTRAL BANK LTD, DUBBAK",H.NO.1371 NEAR BSNL OFFICE DUBBAK 502108,SANGAREDDY,DUBBAK,TELANGANA,0
97,TELANGANA STATE COOP APEX BANK,TSAB0017005,"THE MEDAK DISTRICT CO OPERATIVE CENTRAL BANK LTD, GAJWEL","MUTRAJPALLY ROAD,NEAR POLICE STATION GAJWEL,5022278",SANGAREDDY,GAJWEL,TELANGANA,0
98,TELANGANA STATE COOP APEX BANK,TSAB0017006,"THE MEDAK DISTRICT CO OPERATIVE CENTRAL BANK LTD, JOGIPET","H.NO.966 NEAR BUS STAND,MAIN ROAD JOGIPET 502270",SANGAREDDY,JOGIPET,TELANGANA,0
99,TELANGANA STATE COOP APEX BANK,TSAB0017007,"THE MEDAK DISTRICT CO OPERATIVE CENTRAL BANK LTD, MAMBOJIPALLY","NEAR NDSL SUGAR FACTORY,POST MACHAVARAM MAMBOJIPALLY 502109",SANGAREDDY,MEDAK,TELANGANA,0
100,TELANGANA STATE COOP APEX BANK,TSAB0017008,"THE MEDAK DISTRICT CO OPERATIVE CENTRAL BANK LTD, HEAD OFFICE","H.NO.192231 1ST FLOOR GKR COMPLEX,MAIN ROAD MEDAK PIN502110",SANGAREDDY,MEDAK,TELANGANA,0
101,TELANGANA STATE COOP APEX BANK,TSAB0017009,"THE MEDAK DISTRICT CO OPERATIVE CENTRAL BANK LTD, NARAYANKHED","OPP BUS STAND,MAIN ROAD NARAYANKHED502286",SANGAREDDY,NARAYANKHED,TELANGANA,0
102,TELANGANA STATE COOP APEX BANK,TSAB0017010,"THE MEDAK DISTRICT CO OPERATIVE CENTRAL BANK LTD, NARSAPUR",NEAR MANDAL OFFICE HYDERABAD ROAD NARSAPUR PIN 502313,SANGAREDDY,NARSAPUR,TELANGANA,0
103,TELANGANA STATE COOP APEX BANK,TSAB0017011,"THE MEDAK DISTRICT CO OPERATIVE CENTRAL BANK LTD, PAPANNAPET","H.NO.10 93 1 OPP M.R.O OFFICE,MAIN ROAD PAPANNAPET PIN 502303",SANGAREDDY,PAPANNAPET,TELANGANA,0
104,TELANGANA STATE COOP APEX BANK,TSAB0017012,"THE MEDAK DISTRICT CO OPERATIVE CENTRAL BANK LTD, PATANCHERU","NEAR BUS STAND,OPP BJP OFFICE,MAIN ROAD PATANCHERU",SANGAREDDY,PATANCHERU,TELANGANA,0
105,TELANGANA STATE COOP APEX BANK,TSAB0017013,"THE MEDAK DISTRICT CO OPERATIVE CENTRAL BANK LTD, RAMAYANPET","H.NO.15 73 1 10,RAJENDRANAGAR RAMAYAMPET PIN 502101",SANGAREDDY,RAMAYANPET,TELANGANA,0
106,TELANGANA STATE COOP APEX BANK,TSAB0017014,"THE MEDAK DISTRICT CO OPERATIVE CENTRAL BANK LTD, SADASHIVPET","NEAR BOMBAY TALKIES N.H.9,MAIN ROAD SADASIVPET502291",SANGAREDDY,SADASHIVPET,TELANGANA,0
107,TELANGANA STATE COOP APEX BANK,TSAB0017015,"THE MEDAK DISTRICT CO OPERATIVE CENTRAL BANK LTD, SANGAREDDY",FRIDAY MARKET ROAD SANGAREDDY502001,SANGAREDDY,SANGAREDDY,TELANGANA,0
108,TELANGANA STATE COOP APEX BANK,TSAB0017016,"THE MEDAK DISTRICT CO OPERATIVE CENTRAL BANK LTD, SHANKARAMPET",NEAR POST OFFICE REGODE ROAD SHANKARAMPET PIN 502271,SANGAREDDY,SHANKARAMPET,TELANGANA,0
109,TELANGANA STATE COOP APEX BANK,TSAB0017017,"THE MEDAK DISTRICT CO OPERATIVE CENTRAL BANK LTD, SIDDIPET","H.NO.7 1 56 4 SUBASH ROAD,SHIVA COMPLEX,SIDDIPET PIN 502103",SANGAREDDY,SIDDIPET,TELANGANA,0
110,TELANGANA STATE COOP APEX BANK,TSAB0017018,"THE MEDAK DISTRICT CO OPERATIVE CENTRAL BANK LTD, TOOPRAN","NEAR POLICE STATION,MAIN ROAD TOOPRAN PIN 502334",SANGAREDDY,TOOPRAN,TELANGANA,0
111,TELANGANA STATE COOP APEX BANK,TSAB0017019,"THE MEDAK DISTRICT CO OPERATIVE CENTRAL BANK LTD, YELDURTHY","NEAR AMBEDKAR STATUE,MEDAK CIRCLE YELDURTHY 502255",SANGAREDDY,YELDURTHY,TELANGANA,0
112,TELANGANA STATE COOP APEX BANK,TSAB0017020,"THE MEDAK DISTRICT CO OPERATIVE CENTRAL BANK LTD, ZAHEERABAD",H.NO.3 3 97 1 SUBASH GUNJ.MAIN ROAD ZAHEERABAD502220,SANGAREDDY,ZAHEERABAD,TELANGANA,0
113,TELANGANA STATE COOP APEX BANK,TSAB0017021,"THE MEDAK DISTRICT CO OPERATIVE CENTRAL BANK LTD, SANGAREDDY",NEAR ZILLA PARISHAT HEAD OFFICE SANGAREDDY502001,SANGAREDDY,SANGAREDDY,TELANGANA,0
114,TELANGANA STATE COOP APEX BANK,TSAB0017022,"THE MEDAK DISTRICT CO OPERATIVE CENTRAL BANK LTD, SANGAREDDY EXT COUNTER",NEAR TRINETRA COMPLEX SANGAREDDY502001,SANGAREDDY,SANGAREDDY,TELANGANA,0
115,TELANGANA STATE COOP APEX BANK,TSAB0017023,"THE MEDAK DISTRICT CO OPERATIVE CENTRAL BANK LTD, JARASANGAM",OPP.ZPHS JHARASANGAM 502246,SANGAREDDY,JARASANGAM,TELANGANA,0
116,TELANGANA STATE COOP APEX BANK,TSAB0017024,"THE MEDAK DISTRICT CO OPERATIVE CENTRAL BANK LTD, SHANKARAMPET",NEAR JR.COLLEGE MAIN ROAD SHANKARAMPET PIN502248,SANGAREDDY,SHANKARAMPET,TELANGANA,0
117,TELANGANA STATE COOP APEX BANK,TSAB0017025,"THE MEDAK DISTRICT CO OPERATIVE CENTRAL BANK LTD, GUMMADIDALA","H NO 1 100 18 1 SURVEY NO 448,GUMMADIDALA,OPP HANUMAN TEMPLE,GUMMADIDALA M,MEDAK D 502313",MEDAK,MEDAK,TELANGANA,8466995822
118,TELANGANA STATE COOP APEX BANK,TSAB0017026,"THE MEDAK DISTRICT CO OPERATIVE CENTRAL BANK LTD, DOULTHABAD","H NO 549,GAJWEL ROAD,DOULTHABAD II,DOULTHABAD M,MEDAK D 502247",MEDAK,MEDAK,TELANGANA,8466995822
119,TELANGANA STATE COOP APEX BANK,TSAB0017027,"THE MEDAK DISTRICT CO OPERATIVE CENTRAL BANK LTD, ISNAPUR","H NO 698,ISNAPUR X ROAD,PASHAMMYLARAM INDUSTRIAL ROAD,PATANCHERU M,SANGAREDDY D 502307",SANGAREDDY,SANGAREDDY,TELANGANA,8466995822
120,TELANGANA STATE COOP APEX BANK,TSAB0017028,"THE MEDAK DISTRICT CO OPERATIVE CENTRAL BANK LTD, KALLAKAL","H NO 434B,KALLAKAL V,TOOPRAN M,MEDAK D 502334",MEDAK,MEDAK,TELANGANA,8466995822
121,TELANGANA STATE COOP APEX BANK,TSAB0017029,"THE MEDAK DISTRICT CO OPERATIVE CENTRAL BANK LTD, KOWDIPALLE","SURVEY NO 157,KOWDIPALLY V,BESIDE PETROL BUNK,KOWDIPALLY V M,MEDAK D 502316",MEDAK,MEDAK,TELANGANA,8466995822
122,TELANGANA STATE COOP APEX BANK,TSAB0017030,"THE MEDAK DISTRICT CO OPERATIVE CENTRAL BANK LTD, AMEENPUR","PLOT NO 4,H NO 16107114,ICRISAT COLONY,NEAR WATER TANK,BEERAMGUDA,AMEENPUR M,SANGAREDDY D 502032",SANGAREDDY,SANGAREDDY,TELANGANA,8466995822
123,TELANGANA STATE COOP APEX BANK,TSAB0017031,"THE MEDAK DISTRICT CO OPERATIVE CENTRAL BANK LTD, CHINNAKODUR","PLOT NO 909,BESIDE TELANGANA TALLI VIGRAHAM,CHINNAKODURU M,SIDDIPET D 502276",SIDDIPET,SIDDIPET,TELANGANA,8466995822
124,TELANGANA STATE COOP APEX BANK,TSAB0017032,"THE MEDAK DISTRICT CO OPERATIVE CENTRAL BANK LTD, JAGDEVPUR","JAGDEVPUR V,JAGDEVPUR M,SIDDIPET D",SIDDIPET,SIDDIPET,TELANGANA,8466995822
125,TELANGANA STATE COOP APEX BANK,TSAB0017033,"THE MEDAK DISTRICT CO OPERATIVE CENTRAL BANK LTD, KOHIR","SS COMPLEX,KOHIR V M,SANGAREDDY D 502210",SANGAREDDY,SANGAREDDY,TELANGANA,8466995822
126,TELANGANA STATE COOP APEX BANK,TSAB0017034,"THE MEDAK DISTRICT CO OPERATIVE CENTRAL BANK LTD, KONDAPAK","H NO 3 82,KONDAPAK V,KONDAPAK M,SIDDIPET D 502372",SIDDIPET,SIDDIPET,TELANGANA,8466995822
127,TELANGANA STATE COOP APEX BANK,TSAB0017035,"THE MEDAK DISTRICT CO OPERATIVE CENTRAL BANK LTD, MULUGU","H NO 4 74 1,VONTIMAMIDI V,MULUGU M,SIDDIPET D 502279",SIDDIPET,SIDDIPET,TELANGANA,8466995822
128,TELANGANA STATE COOP APEX BANK,TSAB0017036,"THE MEDAK DISTRICT CO OPERATIVE CENTRAL BANK LTD, POTHIREDDYPALLY X ROADS","H NO 96 MIG PHASE 2,SITE 1,POTHIREDDYPALLY,SANGAREDDY 502295",SANGAREDDY,SANGAREDDY,TELANGANA,8466995822
129,TELANGANA STATE COOP APEX BANK,TSAB0017037,"THE MEDAK DISTRICT CO OPERATIVE CENTRAL BANK LTD, PULKAL","H NO 1 6,PULKAL V M,SANGAREDDY D 502293",SANGAREDDY,SANGAREDDY,TELANGANA,8466995822
130,TELANGANA STATE COOP APEX BANK,TSAB0017038,"THE MEDAK DISTRICT CO OPERATIVE CENTRAL BANK LTD, RAMACHANDRAPURAM","H NO 4 46 NEAR BHEL BUS DEPOT,X ROAD,RACHANDRAPURAM,HYDERABAD 500032",SANGAREDDY,SANGAREDDY,TELANGANA,8466995822
131,TELANGANA STATE COOP APEX BANK,TSAB0017039,"THE MEDAK DISTRICT CO OPERATIVE CENTRAL BANK LTD, SIDDIPET","H NO 4 3 11,SIDDIPET,SIDDIPET D 502103",SIDDIPET,SIDDIPET,TELANGANA,8466995822
132,TELANGANA STATE COOP APEX BANK,TSAB0018001,"THE NIZAMABAD DISTRICT CO OPERATIVE CENTRAL BANK LTD, NIZAMABAD","BESIDE RDO OFFICE,YELLAMMAGUTTA,NIZAMABAD",NIZAMABAD,NIZAMABAD,TELANGANA,0
133,TELANGANA STATE COOP APEX BANK,TSAB0018002,"THE NIZAMABAD DISTRICT CO OPERATIVE CENTRAL BANK LTD, ARMOOR","OPP.R B GUEST HOUSE,GANDHI ROAD,ARMOOR",NIZAMABAD,ARMOOR,TELANGANA,0
134,TELANGANA STATE COOP APEX BANK,TSAB0018003,"THE NIZAMABAD DISTRICT CO OPERATIVE CENTRAL BANK LTD, BANSWADA","2467,OPP FOREST OFFICE,YELLAREDDY ROAD,BANSWADA",NIZAMABAD,BANSWADA,TELANGANA,0
135,TELANGANA STATE COOP APEX BANK,TSAB0018004,"THE NIZAMABAD DISTRICT CO OPERATIVE CENTRAL BANK LTD, BHEEMGAL","NEAR BUSSTAND,BHEEMGAL,MANDAL BHEEMGAL",NIZAMABAD,BHEEMGAL,TELANGANA,0
136,TELANGANA STATE COOP APEX BANK,TSAB0018005,"THE NIZAMABAD DISTRICT CO OPERATIVE CENTRAL BANK LTD, BHIKNUR","OPP.BUSSTAND,BHIKNOOR,MANDAL DOMAKONDA",NIZAMABAD,BHIKNUR,TELANGANA,0
137,TELANGANA STATE COOP APEX BANK,TSAB0018006,"THE NIZAMABAD DISTRICT CO OPERATIVE CENTRAL BANK LTD, BICHKUNDA","BICHKUNDA,MANDAL BICHKUNDA",NIZAMABAD,BICHKUNDA,TELANGANA,0
138,TELANGANA STATE COOP APEX BANK,TSAB0018007,"THE NIZAMABAD DISTRICT CO OPERATIVE CENTRAL BANK LTD, BHIRKUR","PACS BUILDING,BIRKUR,MANDAL BIRKUR",NIZAMABAD,BHIRKUR,TELANGANA,0
139,TELANGANA STATE COOP APEX BANK,TSAB0018008,"THE NIZAMABAD DISTRICT CO OPERATIVE CENTRAL BANK LTD, BODHAN","BESIDE POLICE STATION,NARSI ROAD,BODHAN",NIZAMABAD,BODHAN,TELANGANA,0
140,TELANGANA STATE COOP APEX BANK,TSAB0018009,"THE NIZAMABAD DISTRICT CO OPERATIVE CENTRAL BANK LTD, DARPALLY","DHARPALLY,MANDAL DHARPALLY",NIZAMABAD,DARPALLY,TELANGANA,0
141,TELANGANA STATE COOP APEX BANK,TSAB0018010,"THE NIZAMABAD DISTRICT CO OPERATIVE CENTRAL BANK LTD, DICHPALLY","MAIN ROAD,DICHPALLY,MANDAL DICHPALLY",NIZAMABAD,DICHPALLY,TELANGANA,0
142,TELANGANA STATE COOP APEX BANK,TSAB0018011,"THE NIZAMABAD DISTRICT CO OPERATIVE CENTRAL BANK LTD, DOMAKONDA","OPP.GOVT HOSPITAL,DOMAKONDA,MANDAL DOMAKONDA",NIZAMABAD,DOMAKONDA,TELANGANA,0
143,TELANGANA STATE COOP APEX BANK,TSAB0018012,"THE NIZAMABAD DISTRICT CO OPERATIVE CENTRAL BANK LTD, GANDHARI","MAIN ROAD,GANDHARI,MANDAL GANDHARI",NIZAMABAD,GANDHARI,TELANGANA,0
144,TELANGANA STATE COOP APEX BANK,TSAB0018013,"THE NIZAMABAD DISTRICT CO OPERATIVE CENTRAL BANK LTD, KAMAREDDY","NH 7 ROAD,OPP.ABHAYA HOSPITAL,KAMAREDDY",NIZAMABAD,KAMAREDDY,TELANGANA,0
145,TELANGANA STATE COOP APEX BANK,TSAB0018014,"THE NIZAMABAD DISTRICT CO OPERATIVE CENTRAL BANK LTD, KOTGIRI","OPP.MPDO OFFICE,KOTGIR,MANDAL KOTGIR",NIZAMABAD,KOTGIRI,TELANGANA,0
146,TELANGANA STATE COOP APEX BANK,TSAB0018015,"THE NIZAMABAD DISTRICT CO OPERATIVE CENTRAL BANK LTD, MADNOOR","MAIN ROAD,OPP.HANUMAN TEMPLE,MADNOOR,MANDAL MADNOOR",NIZAMABAD,MADNOOR,TELANGANA,0
147,TELANGANA STATE COOP APEX BANK,TSAB0018016,"THE NIZAMABAD DISTRICT CO OPERATIVE CENTRAL BANK LTD, MORTAD","RATHAM ROAD,MARKET ROAD,MORTHAD",NIZAMABAD,MORTAD,TELANGANA,0
148,TELANGANA STATE COOP APEX BANK,TSAB0018017,"THE NIZAMABAD DISTRICT CO OPERATIVE CENTRAL BANK LTD, NAGIREDDIPET","NAGIREDDYPET,MANDAL YELLAREDDY",NIZAMABAD,NAGIREDDIPET,TELANGANA,0
149,TELANGANA STATE COOP APEX BANK,TSAB0018018,"THE NIZAMABAD DISTRICT CO OPERATIVE CENTRAL BANK LTD, NANDIPET","MAIN ROAD,NANDIPET,MANDAL NANDIPET",NIZAMABAD,NANDIPET,TELANGANA,0
150,TELANGANA STATE COOP APEX BANK,TSAB0018019,"THE NIZAMABAD DISTRICT CO OPERATIVE CENTRAL BANK LTD, VARNI","MAIN ROAD,NASRULLABAD,BIRKKUR MANDAL",NIZAMABAD,VARNI,TELANGANA,0
151,TELANGANA STATE COOP APEX BANK,TSAB0018020,"THE NIZAMABAD DISTRICT CO OPERATIVE CENTRAL BANK LTD, NAVIPET","NEAR BUSSTAND,NAVIPET,MANDAL NAVIPET",NIZAMABAD,NAVIPET,TELANGANA,0
152,TELANGANA STATE COOP APEX BANK,TSAB0018021,"THE NIZAMABAD DISTRICT CO OPERATIVE CENTRAL BANK LTD, NIZAMABAD","SIRNAPALLYGADI,GOLE HANUMAN,NIZAMABAD",NIZAMABAD,NIZAMABAD,TELANGANA,0
153,TELANGANA STATE COOP APEX BANK,TSAB0018022,"THE NIZAMABAD DISTRICT CO OPERATIVE CENTRAL BANK LTD, NIZAMSAGAR","OPP SBH,NIZAMSAGAR,MANDAL NIZAMSAGAR",NIZAMABAD,NIZAMSAGAR,TELANGANA,0
154,TELANGANA STATE COOP APEX BANK,TSAB0018023,"THE NIZAMABAD DISTRICT CO OPERATIVE CENTRAL BANK LTD, PITLAM","NEAR BUSSTAND,PITLAM,MANDAL PITLAM",NIZAMABAD,PITLAM,TELANGANA,0
155,TELANGANA STATE COOP APEX BANK,TSAB0018024,"THE NIZAMABAD DISTRICT CO OPERATIVE CENTRAL BANK LTD, ARMOOR","BESIDE VIJAY PUBLIC SCHOOL,MJ HOSPITAL ROAD,ARMOOR",NIZAMABAD,ARMOOR,TELANGANA,0
156,TELANGANA STATE COOP APEX BANK,TSAB0018025,"THE NIZAMABAD DISTRICT CO OPERATIVE CENTRAL BANK LTD, RANJERLA","OPP.SRGB,RENJARLA,MANDAL BALKONDA",NIZAMABAD,RANJERLA,TELANGANA,0
157,TELANGANA STATE COOP APEX BANK,TSAB0018026,"THE NIZAMABAD DISTRICT CO OPERATIVE CENTRAL BANK LTD, NIZAMABAD","BESIDE SRI KRISHNA TEMPLE,KANTESWAR,NIZAMABAD",NIZAMABAD,NIZAMABAD,TELANGANA,0
158,TELANGANA STATE COOP APEX BANK,TSAB0018027,"THE NIZAMABAD DISTRICT CO OPERATIVE CENTRAL BANK LTD, SADASIVNAGAR","NEAR POLICE STATION,SADASHIVNAGAR,MANDAL SADASHIVNAGAR",NIZAMABAD,SADASIVNAGAR,TELANGANA,0
159,TELANGANA STATE COOP APEX BANK,TSAB0018028,"THE NIZAMABAD DISTRICT CO OPERATIVE CENTRAL BANK LTD, SIRIKONDA","OPP.POLICE STATION,SIRIKONDA,MANDAL SIRIKONDA",NIZAMABAD,SIRIKONDA,TELANGANA,0
160,TELANGANA STATE COOP APEX BANK,TSAB0018029,"THE NIZAMABAD DISTRICT CO OPERATIVE CENTRAL BANK LTD, VARNI","NEAR BUSSTAND,SN PURAM,VARNI,MANDAL VARNI",NIZAMABAD,VARNI,TELANGANA,0
161,TELANGANA STATE COOP APEX BANK,TSAB0018030,"THE NIZAMABAD DISTRICT CO OPERATIVE CENTRAL BANK LTD, VELPUR","VELPOOR,MANDAL VELPOOR",NIZAMABAD,VELPUR,TELANGANA,0
162,TELANGANA STATE COOP APEX BANK,TSAB0018031,"THE NIZAMABAD DISTRICT CO OPERATIVE CENTRAL BANK LTD, YELLAREDDY","MAIN ROAD,YELLAREDDY,MANDAL YELLAREDDY",NIZAMABAD,YELLAREDDY,TELANGANA,0
163,TELANGANA STATE COOP APEX BANK,TSAB0018032,"THE NIZAMABAD DISTRICT CO OPERATIVE CENTRAL BANK LTD, YERGATLA","YERGATLA,VIA KAMMARPALLY,MANDAL MORTHAD",NIZAMABAD,YERGATLA,TELANGANA,0
164,TELANGANA STATE COOP APEX BANK,TSAB0018033,"THE NIZAMABAD DISTRICT CO OPERATIVE CENTRAL BANK LTD, LINGAMPET","CO BALAGOUD QUARTERS,MAIN ROAD,LINGAMPET,MDL LINGAMPET",NIZAMABAD,LINGAMPET,TELANGANA,0
165,TELANGANA STATE COOP APEX BANK,TSAB0018034,"THE NIZAMABAD DISTRICT CO OPERATIVE CENTRAL BANK LTD, TADWAI","NEAR GRAM PANCHAYAT,MAIN ROAD,TADWAI",NIZAMABAD,TADWAI,TELANGANA,0
166,TELANGANA STATE COOP APEX BANK,TSAB0018035,"THE NIZAMABAD DISTRICT CO OPERATIVE CENTRAL BANK LTD, BALKONDA","VENNAL X ROAD,PLANE BUILDING,BALKONDA",NIZAMABAD,BALKONDA,TELANGANA,0
167,TELANGANA STATE COOP APEX BANK,TSAB0018036,"THE NIZAMABAD DISTRICT CO OPERATIVE CENTRAL BANK LTD, JAKKARAMPALLY","OPP ZP HIGH SCHOOL,MAIN ROAD JAKRANPALLY",NIZAMABAD,JAKKARAMPALLY,TELANGANA,0
168,TELANGANA STATE COOP APEX BANK,TSAB0018037,"THE NIZAMABAD DISTRICT CO OPERATIVE CENTRAL BANK LTD, BIBIPET","OPP BUSTAND,PACS BUILDING,BIBIPET,MDL DOMAKONDA",NIZAMABAD,BIBIPET,TELANGANA,0
169,TELANGANA STATE COOP APEX BANK,TSAB0018038,"THE NIZAMABAD DISTRICT CO OPERATIVE CENTRAL BANK LTD, MACHAREDDY","SIDDIPET ROAD,MACHAREDDY COURASTHA,MDL.MACHAREDDY",NIZAMABAD,MACHAREDDY,TELANGANA,0
170,TELANGANA STATE COOP APEX BANK,TSAB0018039,"THE NIZAMABAD DISTRICT CO OPERATIVE CENTRAL BANK LTD, MAKLOOR","OPP THASILDAR OFFICE,MAHAPUR,MDL MAKLOOR",NIZAMABAD,MAKLOOR,TELANGANA,0
171,TELANGANA STATE COOP APEX BANK,TSAB0018040,"THE NIZAMABAD DISTRICT CO OPERATIVE CENTRAL BANK LTD, KAMMARPALLY",JAGITYAK ROAD KAMMARPALLY,NIZAMABAD,KAMMARPALLY,TELANGANA,8499990826
172,TELANGANA STATE COOP APEX BANK,TSAB0018041,"THE NIZAMABAD DISTRICT CO OPERATIVE CENTRAL BANK LTD, JUKKAL",PACS BUILDING JUKKAL MANDAL JUKKAL,NIZAMABAD,JUKKAL,TELANGANA,8499990826
173,TELANGANA STATE COOP APEX BANK,TSAB0018042,NIZAMABAD DIST COOP CENTRAL BANK LTD HANMAJIPET,"H.NO 352,HANMAJIPET,BANSWADA MANDAL",KAMAREDDY,BANSWADA,TELANGANA,9666408841
174,TELANGANA STATE COOP APEX BANK,TSAB0018043,NIZAMABAD DIST COOP CENTRAL BANK LTD MARAMPALLY,"H.NO 43518,MARAMPALLY,NANDIPET MANDAL",NIZAMABAD,NANDIPET,TELANGANA,9666408827
175,TELANGANA STATE COOP APEX BANK,TSAB0018044,NIZAMABAD DIST COOP CENTRAL BANK LTD VANNEL K,"H.NO 466,VANNEL K,NANDIPET MANDAL",NIZAMABAD,NANDIPET,TELANGANA,8499990827
176,TELANGANA STATE COOP APEX BANK,TSAB0018045,NIZAMABAD DIST COOP CENTRAL BANK LTD DEVUNIPALLY,"H.NO 4372,TADWAI ROAD,KAMAREDDY",KAMAREDDY,KAMAREDDY,TELANGANA,8096437666
177,TELANGANA STATE COOP APEX BANK,TSAB0018046,NIZAMABAD DIST COOP CENTRAL BANK LTD MENDORA,"H.NO 5686,MENDORA VILLAGE MANDAL",NIZAMABAD,MENDORA,TELANGANA,9666408828
178,TELANGANA STATE COOP APEX BANK,TSAB0018047,NIZAMABAD DIST COOP CENTRAL BANK LTD KAMAREDDY GUNJ,"H.NO 16130,GUNJ KAMAREDDY",KAMAREDDY,KAMAREDDY,TELANGANA,9666408846
179,TELANGANA STATE COOP APEX BANK,TSAB0018048,NIZAMABAD DIST COOP CENTRAL BANK LTD RAMAREDDY,"H.NO 75524P1,RAMAREDDY VILLAGE MANDAL",KAMAREDDY,RAMAREDDY,TELANGANA,9666408849
180,TELANGANA STATE COOP APEX BANK,TSAB0018049,NIZAMABAD DIST COOP CENTRAL BANK LTD BASWAPUR,"H.NO 129,BASWAPUR,BHIKNOOR MANDAL",KAMAREDDY,BHIKNOOR,TELANGANA,9666408848
181,TELANGANA STATE COOP APEX BANK,TSAB0018050,NIZAMABAD DIST COOP CENTRAL BANK LTD BODHAN,"H.NO 1412631,GOUSHALA COMPLEX,BODHAN",NIZAMABAD,BODHAN,TELANGANA,9666408836
182,TELANGANA STATE COOP APEX BANK,TSAB0018051,NIZAMABAD DIST COOP CENTRAL BANK LTD DONGLI,"H.NO 2493,BASWESHWARA CHOWK,DONGLI",KAMAREDDY,MADNOOR,TELANGANA,9666408845
183,TELANGANA STATE COOP APEX BANK,TSAB0018052,"THE NIZAMABAD DIST. COOPERATIVE APEX CENTRAL BANK LTD, NIZAMABAD NAGARAM","H NO 1094551,SAI NAGAR,VARNI ROAD,NIZAMABAD",NIZAMABAD,NIZAMABAD,TELANGANA,0
184,TELANGANA STATE COOP APEX BANK,TSAB0018053,"THE NIZAMABAD DIST. COOPERATIVE APEX CENTRAL BANK LTD, NIZAMABAD INDALWAI","H NO 3537 35372,VILLAGE MANDAL INDALWAI",NIZAMABAD,INDALWAI,TELANGANA,0
185,TELANGANA STATE COOP APEX BANK,TSAB0018054,"NIZAMABAD DISTRICT COOP CENTRAL BANK LTD,RAJAMPET","6 2 B,RAJAMPET MANDAL",KAMAREDDY,RAJAMPET,TELANGANA,9010094117
186,TELANGANA STATE COOP APEX BANK,TSAB0018055,"NIZAMABAD DISTRICT COOP CENTRAL BANK LTD,PEDDA MALLAREDDY","10 7 C3 2,PEDDA MALLA REDDY",KAMAREDDY,PEDDA MALLAREDDY,TELANGANA,9848937156
187,TELANGANA STATE COOP APEX BANK,TSAB0018056,"NIZAMABAD DISTRICT COOP CENTRAL BANK LTD,ARMOOR","H.NO.4 59 2,MAMIDIPALLY,ARMOOR",NIZAMABAD,ARMOOR,TELANGANA,9949760060
188,TELANGANA STATE COOP APEX BANK,TSAB0018057,"NIZAMABAD DISTRICT COOP CENTRAL BANK LTD,KANTESHWAR","11 18 57 10K 1,NIZAMABAD",NIZAMABAD,NIZAMABAD,TELANGANA,8897152577
189,TELANGANA STATE COOP APEX BANK,TSAB0018058,"NIZAMABAD DISTRICT COOP CENTRAL BANK LTD,VINAYAK NAGAR","23 133,NIZAMABAD",NIZAMABAD,NIZAMABAD,TELANGANA,8500607994
190,TELANGANA STATE COOP APEX BANK,TSAB0018059,"NIZAMABAD DISTRICT COOP CENTRAL BANK LTD,MALAPALLY","9 13 116 BARKATHPURA BODHANROAD,NIZAMABAD",NIZAMABAD,NIZAMABAD,TELANGANA,9948229323
191,TELANGANA STATE COOP APEX BANK,TSAB0018060,"NIZAMABAD DISTRICT COOP CENTRAL BANK LTD,SALOORA","1 37 B,SALOORA BODHAN M",NIZAMABAD,BODHAN,TELANGANA,9912149964
192,TELANGANA STATE COOP APEX BANK,TSAB0018061,"THE DISTRCIT COOPERATIVE CENTRAL BANK LTD NIZAMABAD, MIRZAPUR","NDCC BANK LTD,BR.MIRZAPUR,PACS BUILDING OPP GRAM PANCHAYATM,MIRZAPUR,MANDAL NASRULLABAD,DIST KAMAREDDY",KAMAREDDY,MIRZAPUR,TELANGANA,255044
193,TELANGANA STATE COOP APEX BANK,TSAB0018062,"THE NIZAMABAD DISTRICT COOPERATIVE CENTRAL BANK LTD,CHANDOOR","H.NO 5-80,NEAR PACS BUILDING,VI CHANDOOR,MDL VARNI,DIST NIZAMABAD,PIN 503206",NIZAMABAD,VARNI,TELANGANA,9550355101
194,TELANGANA STATE COOP APEX BANK,TSAB0018063,WAJID NAGAR,"INDIRAMMA COLONY,PACS BUILDING,VILL WAJID NAGAR,MDL BICHKUNDA,DIST KAMAREDDY",KAMAREDDY,WAJID NAGAR,TELANGANA,9908555903
195,TELANGANA STATE COOP APEX BANK,TSAB0019001,"THE ADILABAD DISTRICT CO OPERATIVE CENTRAL BANK LTD, ADILABAD","ADILABAD DISTRICT COOPERATIVE APEX CENTRAL BANK LTD,ADILABAD,CINEMA ROAD,ADILABAD 504001",ADILABAD,ADILABAD,TELANGANA,0
196,TELANGANA STATE COOP APEX BANK,TSAB0019002,"THE ADILABAD DISTRICT CO OPERATIVE CENTRAL BANK LTD, ADILABAD","ADILABAD DISTRICT COOPERATIVE APEX CENTRAL BANK LTD,ADILABAD,CINEMA ROAD,ADILABAD 504001",ADILABAD,ADILABAD,TELANGANA,0
197,TELANGANA STATE COOP APEX BANK,TSAB0019003,"THE ADILABAD DISTRICT CO OPERATIVE CENTRAL BANK LTD, ASIFABAD","ADILABAD DISTRICT COOPERATIVE APEX CENTRAL BANK LTD,BR.ASIFABAD,GANDHI CHOWK,ASIFABAD 504293",ADILABAD,ASIFABAD,TELANGANA,0
198,TELANGANA STATE COOP APEX BANK,TSAB0019004,"THE ADILABAD DISTRICT CO OPERATIVE CENTRAL BANK LTD, BELLAMPALLI","ADILABAD DISTRICT COOPERATIVE APEX CENTRAL BANK LTD,BR.BELLAMPALLY,BESIDE TELEPHONE EXCHANGE,COLL TAX,BELLAMPALLY504251",ADILABAD,BELLAMPALLI,TELANGANA,0
199,TELANGANA STATE COOP APEX BANK,TSAB0019005,"THE ADILABAD DISTRICT CO OPERATIVE CENTRAL BANK LTD, BOATH","ADILABAD DISTRICT COOPERATIVE APEX CENTRAL BANK LTD,BR.BOATH,AGRICULTURE GODOWN ROAD,BOATH 504304",ADILABAD,BOATH,TELANGANA,0
200,TELANGANA STATE COOP APEX BANK,TSAB0019006,"THE ADILABAD DISTRICT CO OPERATIVE CENTRAL BANK LTD, BHAINSA","ADILABAD DISTRICT COOPERATIVE APEX CENTRAL BANK LTD,BR.BHAINSA,NARSIMLU NAGAR,GANDHI ASHRAM,BHAINSA 504103",ADILABAD,BHAINSA,TELANGANA,0
201,TELANGANA STATE COOP APEX BANK,TSAB0019007,"THE ADILABAD DISTRICT CO OPERATIVE CENTRAL BANK LTD, CHINNOR","ADILABAD DISTRICT COOPERATIVE APEX CENTRAL BANK LTD,BR.CHENNUR,GANDHI CHOWK,CHENNUR504201",ADILABAD,CHINNOR,TELANGANA,0
202,TELANGANA STATE COOP APEX BANK,TSAB0019008,"THE ADILABAD DISTRICT CO OPERATIVE CENTRAL BANK LTD, ICHODA","ADILABAD DISTRICT COOPERATIVE APEX CENTRAL BANK LTD,BR.ICHODA,N.H.7 ROAD,ICHODA 504307",ADILABAD,ICHODA,TELANGANA,0
203,TELANGANA STATE COOP APEX BANK,TSAB0019009,"THE ADILABAD DISTRICT CO OPERATIVE CENTRAL BANK LTD, JAINAD","ADILABAD DISTRICT COOPERATIVE APEX CENTRAL BANK LTD,BR.JAINAD,NEAR BUSSTAND,JAINAD504309",ADILABAD,JAINAD,TELANGANA,0
204,TELANGANA STATE COOP APEX BANK,TSAB0019010,"THE ADILABAD DISTRICT CO OPERATIVE CENTRAL BANK LTD, KALLUR","ADILABAD DISTRICT COOPERATIVE APEX CENTRAL BANK LTD,BR.KALLUR,MAIN ROAD,KALLUR 504109",ADILABAD,KALLUR,TELANGANA,0
205,TELANGANA STATE COOP APEX BANK,TSAB0019011,"THE ADILABAD DISTRICT CO OPERATIVE CENTRAL BANK LTD, KHANAPUR","ADILABAD DISTRICT COOPERATIVE APEX CENTRAL BANK LTD,BR.KHANAPUR,BUS STAND ROAD,KHANAPUR504203",ADILABAD,KHANAPUR,TELANGANA,0
206,TELANGANA STATE COOP APEX BANK,TSAB0019012,"THE ADILABAD DISTRICT CO OPERATIVE CENTRAL BANK LTD, LAKSHATHIPET","ADILABAD DISTRICT COOPERATIVE APEX CENTRAL BANK LTD,BR.LUXETTIPET,MRO OFFICE ROAD,LUXETTIPET 504125",ADILABAD,LAKSHATHIPET,TELANGANA,0
207,TELANGANA STATE COOP APEX BANK,TSAB0019013,"THE ADILABAD DISTRICT CO OPERATIVE CENTRAL BANK LTD, MANCHERIYAL","ADILABAD DISTRICT COOPERATIVE APEX CENTRAL BANK LTD,BR.MANCHERIAL,CHENNUR ROAD,RBHV,NEAR DURGA MATA MANDIR,MANCHERIAL504209",ADILABAD,MANCHERIYAL,TELANGANA,0
208,TELANGANA STATE COOP APEX BANK,TSAB0019014,"THE ADILABAD DISTRICT CO OPERATIVE CENTRAL BANK LTD, MUDHOL","ADILABAD DISTRICT COOPERATIVE APEX CENTRAL BANK LTD,BR.MUDHOLE,GANDHI CHOWK,MUDHOLE 504102",ADILABAD,MUDHOL,TELANGANA,0
209,TELANGANA STATE COOP APEX BANK,TSAB0019015,"THE ADILABAD DISTRICT CO OPERATIVE CENTRAL BANK LTD, NIRMAL","ADILABAD DISTRICT COOPERATIVE APEX CENTRAL BANK LTD,BR.NIRMAL,N.H.7 ROAD,NIRMAL 504106",ADILABAD,NIRMAL,TELANGANA,0
210,TELANGANA STATE COOP APEX BANK,TSAB0019016,"THE ADILABAD DISTRICT CO OPERATIVE CENTRAL BANK LTD, SIRPUR KAGAZNAGAR","ADILABAD DISTRICT COOPERATIVE APEX CENTRAL BANK LTD,BR.S.K.NAGAR,AMBEDKAR CHOWK ROAD,S.K.NAGAR 504296",ADILABAD,SIRPUR KAGAZNAGAR,TELANGANA,0
211,TELANGANA STATE COOP APEX BANK,TSAB0019017,"THE ADILABAD DISTRICT CO OPERATIVE CENTRAL BANK LTD, SARANGPUR","ADILABAD DISTRICT COOPERATIVE APEX CENTRAL BANK LTD,BR.SARANGAPUR,NEAR BUS STAND,SARANGAPUR 504110",ADILABAD,SARANGPUR,TELANGANA,0
212,TELANGANA STATE COOP APEX BANK,TSAB0019018,"THE ADILABAD DISTRICT CO OPERATIVE CENTRAL BANK LTD, UTNOOR","ADILABAD DISTRICT COOPERATIVE APEX CENTRAL BANK LTD,BR.UTNOOR,NEAR I.B.UTNOOR 504311",ADILABAD,UTNOOR,TELANGANA,0
213,TELANGANA STATE COOP APEX BANK,TSAB0019019,"THE ADILABAD DISTRICT CO OPERATIVE CENTRAL BANK LTD, THAMSI","ADILABAD DISTRICT COOPERATIVE APEX CENTRAL BANK LTD,BR.TAMSI,NEAR BUSSTAND,TAMSI 504312",ADILABAD,THAMSI,TELANGANA,0
214,TELANGANA STATE COOP APEX BANK,TSAB0019020,"THE ADILABAD DISTRICT CO OPERATIVE CENTRAL BANK LTD, JANNARAM","DOOR NO.3187,NEAR AMBEDKAR STATUE,POSTPONKAL JANNARAM,PINCODE504205",ADILABAD,JANNARAM,TELANGANA,8498089812
215,TELANGANA STATE COOP APEX BANK,TSAB0019021,"THE ADILABAD DISTRICT CO OPERATIVE CENTRAL BANK LTD, MANDAMARRI","DOOR NO 15778,VIDYANAGAR,MARKET ROAD,MANDAMARI,PIN 504231",ADILABAD,MANDAMARRI,TELANGANA,8498089881
216,TELANGANA STATE COOP APEX BANK,TSAB0019022,"THE ADILABAD DISTRICT CO OPERATIVE CENTRAL BANK LTD, BELA","DOOR NO 5354,5355,5356,MARKET YARD,BELA PIN 504309",ADILABAD,BELA,TELANGANA,8143312768
217,TELANGANA STATE COOP APEX BANK,TSAB0019023,"THE ADILABAD DISTRICT CO OPERATIVE CENTRAL BANK LTD, DEHAGAON","DOOR NO 32552,BESIDE POLICE STATION.DHEGAON,MDL DHEGAON,ADILABAD",ADILABAD,DEHAGAON,TELANGANA,8498089877
218,TELANGANA STATE COOP APEX BANK,TSAB0019024,"THE ADILABAD DISTRICT CO OPERATIVE CENTRAL BANK LTD, GUDIHATNOOR","DOORNO3251,BESIDEDGBGUDIHATHNOORPIN504308",ADILABAD,GUDIHATNOOR,TELANGANA,8498089831
219,TELANGANA STATE COOP APEX BANK,TSAB0019025,"THE ADILABAD DISTRICT CO OPERATIVE CENTRAL BANK LTD, JAINOOR","DOOR NO.1691,MAIN ROAD NEAR MARKET OFFICE,JAINOOR",ADILABAD,JAINOOR,TELANGANA,8498053865
220,TELANGANA STATE COOP APEX BANK,TSAB0019026,"THE ADILABAD DISTRICT CO OPERATIVE CENTRAL BANK LTD, KOWTHALA","ARYASAMKSHEMASANGAM,BUILDING,OPPPACSGURDPET,KOWTHALA",ADILABAD,KOWTHALA,TELANGANA,8498089877
221,TELANGANA STATE COOP APEX BANK,TSAB0019027,"THE ADILABAD DISTRICT CO OPERATIVE CENTRAL BANK LTD, LAXMANCHANDA","DOOR NO 394,D.LINGA REDDY SO.MUTHANNA.LAXMANCHANDA PIN 504231",ADILABAD,LAXMANCHANDA,TELANGANA,8498089817
222,TELANGANA STATE COOP APEX BANK,TSAB0019028,"THE ADILABAD DISTRICT CO OPERATIVE CENTRAL BANK LTD, SIRPUR","R7,ASSIRUR,BESIEMFFIEI504279",ADILABAD,SIRPUR,TELANGANA,8498089905
223,TELANGANA STATE COOP APEX BANK,TSAB0019029,"THE ADILABAD DISTRICT CO OPERATIVE CENTRAL BANK LTD, TANDOOR","DOORNO238,TANDOOR,RAJIVECOLONY,OPP,HONDASHOWROOM",ADILABAD,TANDOOR,TELANGANA,8498089894
224,TELANGANA STATE COOP APEX BANK,TSAB0019030,THE ADILABAD DCCB LTD. BHAINSA ROAD-NIRMAL,"HNO.1-2/3,EDGAON CHOWRASTHA,BHAINSA ROAD,NIRMAL - 504106",NIRMAL,NIRMAL,TELANGANA,0
225,TELANGANA STATE COOP APEX BANK,TSAB0019031,THE ADILABAD DCCB LTD. BHEEMPUR,"HNO.3-81/1,VDC BUILDING,BHEEMPUR,MANDAL BHEEMPUR -504312",ADILABAD,ADILABAD,TELANGANA,0
226,TELANGANA STATE COOP APEX BANK,TSAB0019032,THE ADILABAD DCCB LTD. HAZIPUR,"HNO.1-8/1,NEAR BUS STAND,HAZIPUR,MANDAL HAZIPUR - 504207",MANCHERIAL,MANCHERIAL,TELANGANA,0
227,TELANGANA STATE COOP APEX BANK,TSAB0019033,THE ADILABAD DCCB LTD. INDRAVELLY,"HNO.1-78,OPP POLICE STATION,INDRAVELLY,PIN -504346",ADILABAD,ADILABAD,TELANGANA,0
228,TELANGANA STATE COOP APEX BANK,TSAB0019034,"THE ADILABAD DCCB LTD. ADILABAD, SONALA","HNO.7/8 OPP BUS STAND,SONALA,MANDAL BOATH - 504304",ADILABAD,ADILABAD,TELANGANA,0
229,TELANGANA STATE COOP APEX BANK,TSAB0019035,THE ADILABAD DCCB LTD. SRIRAMPUR-MANCHERIAL,"HNO.10-162/1A,VILL RAMNAGAR CCC,MANDAL NASPUR -504302",MANCHERIAL,MANCHERIAL,TELANGANA,0
230,TELANGANA STATE COOP APEX BANK,TSAB0019036,THE ADILABAD DCCB LTD. TANOOR,"HNO.5-80/6,OPP MEO OFFICE,VILL TANOOR,MDL TANOOR - 504102",NIRMAL,NIRMAL,TELANGANA,0
231,TELANGANA STATE COOP APEX BANK,TSAB0020001,"THE KARIMNAGAR DISTRICT CO OPERATIVE CENTRAL BANK LTD, KARIMNAGAR","SIKHWADI,KARIMNAGAR",KARIMNAGAR,KARIMNAGAR,TELANGANA,0
232,TELANGANA STATE COOP APEX BANK,TSAB0020002,"THE KARIMNAGAR DISTRICT CO OPERATIVE CENTRAL BANK LTD, BEJJANKI","MAIN ROAD,BEJJANKI",KARIMNAGAR,BEJJANKI,TELANGANA,0
233,TELANGANA STATE COOP APEX BANK,TSAB0020003,"THE KARIMNAGAR DISTRICT CO OPERATIVE CENTRAL BANK LTD, CHOPPADANDI","MAIN ROAD,CHOPPADANDI",KARIMNAGAR,CHOPPADANDI,TELANGANA,0
234,TELANGANA STATE COOP APEX BANK,TSAB0020004,"THE KARIMNAGAR DISTRICT CO OPERATIVE CENTRAL BANK LTD, DHARMAPURI","MAIN ROAD,DHARMAPURI",KARIMNAGAR,DHARMAPURI,TELANGANA,0
235,TELANGANA STATE COOP APEX BANK,TSAB0020005,"THE KARIMNAGAR DISTRICT CO OPERATIVE CENTRAL BANK LTD, ELLANTHAKUNTA","MAIN ROAD,ELLANTAKUNTA",KARIMNAGAR,ELLANTHAKUNTA,TELANGANA,0
236,TELANGANA STATE COOP APEX BANK,TSAB0020006,"THE KARIMNAGAR DISTRICT CO OPERATIVE CENTRAL BANK LTD, GAMBHIRAOPET","NEAR GRAM PANCHAYAT,GAMBHIRAOPET",KARIMNAGAR,GAMBHIRAOPET,TELANGANA,0
237,TELANGANA STATE COOP APEX BANK,TSAB0020007,"THE KARIMNAGAR DISTRICT CO OPERATIVE CENTRAL BANK LTD, GANGADHARA","MAIN ROAD,GANGADHARA",KARIMNAGAR,GANGADHARA,TELANGANA,0
238,TELANGANA STATE COOP APEX BANK,TSAB0020008,"THE KARIMNAGAR DISTRICT CO OPERATIVE CENTRAL BANK LTD, GODAVARIKHANI","LAXMI NAGAR,GODAVARIKHANI",KARIMNAGAR,GODAVARIKHANI,TELANGANA,0
239,TELANGANA STATE COOP APEX BANK,TSAB0020009,"THE KARIMNAGAR DISTRICT CO OPERATIVE CENTRAL BANK LTD, HUSNABAD","MAIN ROAD,HUSNABAD",KARIMNAGAR,HUSNABAD,TELANGANA,0
240,TELANGANA STATE COOP APEX BANK,TSAB0020010,"THE KARIMNAGAR DISTRICT CO OPERATIVE CENTRAL BANK LTD, HUZURABAD","MAIN ROAD,HUZURABAD",KARIMNAGAR,HUZURABAD,TELANGANA,0
241,TELANGANA STATE COOP APEX BANK,TSAB0020011,"THE KARIMNAGAR DISTRICT CO OPERATIVE CENTRAL BANK LTD, JAGITYAL","BESIDE POLICE STATION,JAGITYAL",KARIMNAGAR,JAGITYAL,TELANGANA,0
242,TELANGANA STATE COOP APEX BANK,TSAB0020012,"THE KARIMNAGAR DISTRICT CO OPERATIVE CENTRAL BANK LTD, JAMMIKUNTA","MAIN ROAD,JAMMIKUNTA",KARIMNAGAR,JAMMIKUNTA,TELANGANA,0
243,TELANGANA STATE COOP APEX BANK,TSAB0020013,"THE KARIMNAGAR DISTRICT CO OPERATIVE CENTRAL BANK LTD, KAMALAPUR","MARKET ROAD,KAMLAPUR",KARIMNAGAR,KAMALAPUR,TELANGANA,0
244,TELANGANA STATE COOP APEX BANK,TSAB0020014,"THE KARIMNAGAR DISTRICT CO OPERATIVE CENTRAL BANK LTD, KATARAM","MAIN ROAD,KATARAM",KARIMNAGAR,KATARAM,TELANGANA,0
245,TELANGANA STATE COOP APEX BANK,TSAB0020015,"THE KARIMNAGAR DISTRICT CO OPERATIVE CENTRAL BANK LTD, KORUTLA","NIZAMBAD ROAD,KORUTLA",KARIMNAGAR,KORUTLA,TELANGANA,0
246,TELANGANA STATE COOP APEX BANK,TSAB0020016,"THE KARIMNAGAR DISTRICT CO OPERATIVE CENTRAL BANK LTD, MALLIAL","KOTHAPETA,MALLIAL",KARIMNAGAR,MALLIAL,TELANGANA,0
247,TELANGANA STATE COOP APEX BANK,TSAB0020017,"THE KARIMNAGAR DISTRICT CO OPERATIVE CENTRAL BANK LTD, MANKAMMATHOTA","MANKAMMATHOTA,KARIMNAGAR",KARIMNAGAR,KARIMNAGAR,TELANGANA,0
248,TELANGANA STATE COOP APEX BANK,TSAB0020018,"THE KARIMNAGAR DISTRICT CO OPERATIVE CENTRAL BANK LTD, MANTHANI","MAIN ROAD,MANTHANI",KARIMNAGAR,MANTHANI,TELANGANA,0
249,TELANGANA STATE COOP APEX BANK,TSAB0020019,"THE KARIMNAGAR DISTRICT CO OPERATIVE CENTRAL BANK LTD, METPALLY","MAIN ROAD,METPALLY",KARIMNAGAR,METPALLY,TELANGANA,0
250,TELANGANA STATE COOP APEX BANK,TSAB0020020,"THE KARIMNAGAR DISTRICT CO OPERATIVE CENTRAL BANK LTD, MUSTABAD","MAIN ROAD,MUSTABAD",KARIMNAGAR,MUSTABAD,TELANGANA,0
251,TELANGANA STATE COOP APEX BANK,TSAB0020021,"THE KARIMNAGAR DISTRICT CO OPERATIVE CENTRAL BANK LTD, PEDDAPALLY","MAIN ROAD,PEDDAPALLY",KARIMNAGAR,PEDDAPALLY,TELANGANA,0
252,TELANGANA STATE COOP APEX BANK,TSAB0020022,"THE KARIMNAGAR DISTRICT CO OPERATIVE CENTRAL BANK LTD, POTHKAPALLY","MANDAL HEAD QUARTER,POTHKAPALLY",KARIMNAGAR,POTHKAPALLY,TELANGANA,0
253,TELANGANA STATE COOP APEX BANK,TSAB0020023,"THE KARIMNAGAR DISTRICT CO OPERATIVE CENTRAL BANK LTD, RAIKAL","MAIN ROAD,RAIKAL",KARIMNAGAR,RAIKAL,TELANGANA,0
254,TELANGANA STATE COOP APEX BANK,TSAB0020024,"THE KARIMNAGAR DISTRICT CO OPERATIVE CENTRAL BANK LTD, SIRCILLA","NEAR POLICE STATION,SIRCILLA",KARIMNAGAR,SIRCILLA,TELANGANA,0
255,TELANGANA STATE COOP APEX BANK,TSAB0020025,"THE KARIMNAGAR DISTRICT CO OPERATIVE CENTRAL BANK LTD, SULTANABAD","MAIN ROAD,SULTANABAD",KARIMNAGAR,SULTANABAD,TELANGANA,0
256,TELANGANA STATE COOP APEX BANK,TSAB0020026,"THE KARIMNAGAR DISTRICT CO OPERATIVE CENTRAL BANK LTD, TOWN BRANCH, KARIMNAGAR","NEAR PADMANAYAKA GARDENS,KARIMNAGAR TOWN",KARIMNAGAR,"TOWN BRANCH, KARIMNAGAR",TELANGANA,0
257,TELANGANA STATE COOP APEX BANK,TSAB0020027,"THE KARIMNAGAR DISTRICT CO OPERATIVE CENTRAL BANK LTD, V.SAIDAPUR","MAIN RAOD,SAIDAPUR",KARIMNAGAR,V.SAIDAPUR,TELANGANA,0
258,TELANGANA STATE COOP APEX BANK,TSAB0020028,"THE KARIMNAGAR DISTRICT CO OPERATIVE CENTRAL BANK LTD, VEMULAWADA","TEMPLE RAOD,VEMULAWADA",KARIMNAGAR,VEMULAWADA,TELANGANA,0
259,TELANGANA STATE COOP APEX BANK,TSAB0020029,"THE KARIMNAGAR DISTRICT CO OPERATIVE CENTRAL BANK LTD, YELLAREDDIPET","MAIN ROAD,YELLAREDDIPET",KARIMNAGAR,YELLAREDDIPET,TELANGANA,0
260,TELANGANA STATE COOP APEX BANK,TSAB0020030,"THE KARIMNAGAR DISTRICT CO OPERATIVE CENTRAL BANK LTD, KONARAOPET","VILLAGE,KONARAOPET",KARIMNAGAR,KONARAOPET,TELANGANA,0
261,TELANGANA STATE COOP APEX BANK,TSAB0020031,"THE KARIMNAGAR DISTRICT CO OPERATIVE CENTRAL BANK LTD, KODIMIAL","MARKET ROAD,KODIMIAL",KARIMNAGAR,KODIMIAL,TELANGANA,0
262,TELANGANA STATE COOP APEX BANK,TSAB0020032,"THE KARIMNAGAR DISTRICT CO OPERATIVE CENTRAL BANK LTD, KAMANPUR","MAIN ROAD,KAMANPUR",KARIMNAGAR,KAMANPUR,TELANGANA,0
263,TELANGANA STATE COOP APEX BANK,TSAB0020033,"THE KARIMNAGAR DISTRICT CO OPERATIVE CENTRAL BANK LTD, SIRCILLA TOWN","BUS STAND ROAD,SIRCILLA",KARIMNAGAR,SIRCILLA,TELANGANA,0
264,TELANGANA STATE COOP APEX BANK,TSAB0020034,"THE KARIMNAGAR DISTRICT CO OPERATIVE CENTRAL BANK LTD, DHARMARAM MYDARAM","MAIN ROAD,DHARMARAM",KARIMNAGAR,DHARMARAMMYDARAM,TELANGANA,0
265,TELANGANA STATE COOP APEX BANK,TSAB0020035,"THE KARIMNAGAR DISTRICT CO OPERATIVE CENTRAL BANK LTD, MAIDIPALLY","MAIN ROAD,MAIDIPALLY",KARIMNAGAR,MAIDIPALLY,TELANGANA,0
266,TELANGANA STATE COOP APEX BANK,TSAB0020036,"THE KARIMNAGAR DISTRICT CO OPERATIVE CENTRAL BANK LTD, MALLAPUR",H NO 5 94 OPP Z P H SCHOOL NEAR BUS STAND MALLAPUR DIST KARIMNAGAR 505331,KARIMNAGAR,MALLAPUR,TELANGANA,2262192
267,TELANGANA STATE COOP APEX BANK,TSAB0020037,"THE KARIMNAGAR DISTRICT CO OPERATIVE CENTRAL BANK LTD, MANAKONDUR",O1225VILLMDLMAAKODUR,KARIMNAGAR,MANAKONDUR,TELANGANA,7702700516
268,TELANGANA STATE COOP APEX BANK,TSAB0020038,"THE KARIMNAGAR DISTRICT CO OPERATIVE CENTRAL BANK LTD, SHANKARAPATNAM",H N O 7 118 2 VILL MDL SHANKARAPATNAM,KARIMNAGAR,KARIMNAGAR,TELANGANA,7702700523
269,TELANGANA STATE COOP APEX BANK,TSAB0020039,"THE KARIMNAGAR DISTRICT CO OPERATIVE CENTRAL BANK LTD, ELKATHURTHI",H NO 5 98 2C MAIN ROAD ELKATURTHI,KARIMNAGAR,KARIMNAGAR,TELANGANA,7702700523
270,TELANGANA STATE COOP APEX BANK,TSAB0020040,"THE KARIMNAGAR DISTRICT CO OPERATIVE CENTRAL BANK LTD, VIDYANAGAR",H NO 1031021 NEAR ST JOHNS SCHOOL MALKAPUR,KARIMNAGAR,KARIMNAGAR,TELANGANA,7702700515
271,TELANGANA STATE COOP APEX BANK,TSAB0020041,"THE KARIMNAGAR DISTRICT CO OPERATIVE CENTRAL BANK LTD, KATHLAPUR",H NO 3 35 1 MAIN RAOD NEAR ANDHRA BANK KATHALAPUR,KARIMNAGAR,KATHLAPUR,TELANGANA,7702700539
272,TELANGANA STATE COOP APEX BANK,TSAB0020042,"THE KARIMNAGAR DISTRICT CO OPERATIVE CENTRAL BANK LTD, RUDRANGI",H NO 8 68 1 LIBRARY BUILDING CHENDURTHI,KARIMNAGAR,RUDRANGI,TELANGANA,7702700527
273,TELANGANA STATE COOP APEX BANK,TSAB0020043,"THE KARIMNAGAR DISTRICT CO OPERATIVE CENTRAL BANK LTD, KALVA SRIRAMPUR",H NO 4 72 4 NEAR GRAMOR CENTRE KALVA SRIRAMPUR,KARIMNAGAR,KALVA SRIRAMPUR,TELANGANA,7702700540
274,TELANGANA STATE COOP APEX BANK,TSAB0020044,"THE KARIMNAGAR DISTRICT CO OPERATIVE CENTRAL BANK LTD, IBRAHIMPATNAM",H NO 12 47 MAIN ROAD IBRAHIMPATNAM,KARIMNAGAR,IBRAHIMPATNAM,TELANGANA,7702700538
275,TELANGANA STATE COOP APEX BANK,TSAB0020045,"THE KARIMNAGAR DISTRICT CO OPERATIVE CENTRAL BANK LTD, PEGADAPALLI",PEGADAPALLI MAIN ROAD NEAR PACS PEGADAPALLI,KARIMNAGAR,PEGADAPALLI,TELANGANA,7702700535
276,TELANGANA STATE COOP APEX BANK,TSAB0020046,"THE KARIMNAGAR DISTRICT CO OPERATIVE CENTRAL BANK LTD, GOLLAPALLI",JAGTIAL TO DHARMARAM MAIN ROAD GOLLAPALLI,KARIMNAGAR,GOLLAPALLI,TELANGANA,7702700534
277,TELANGANA STATE COOP APEX BANK,TSAB0020047,"THE KARIMNAGAR DISTRICT CO OPERATIVE CENTRAL BANK LTD, VELGATOOR",H NO 2 140 1 VELGATOOR MAIN ROAD VELGATOOR,KARIMNAGAR,VELGATOOR,TELANGANA,7702700534
278,TELANGANA STATE COOP APEX BANK,TSAB0020048,"THE KARIMNAGAR DISTRICT CO OPERATIVE CENTRAL BANK LTD, MEDIPALLI NTPC",MAIN ROAD MEDIPALLI NTPC RAMAGUNDAM,KARIMNAGAR,RAMAGUNDAM,TELANGANA,7702700543
279,TELANGANA STATE COOP APEX BANK,TSAB0020049,"THE KARIMNAGAR DISTRICT CO OPERATIVE CENTRAL BANK LTD, CHIGURUMAMIDI","H NO.1215,CHIGURUMAMIDI VILLAGE AND MANDAL KARIMNAGAR DIST PINCODE 505467",KARIMNAGAR,CHIGURUMAMIDI,TELANGANA,255437
280,TELANGANA STATE COOP APEX BANK,TSAB0020050,"THE KARIMNAGAR DISTRICT CO OPERATIVE CENTRAL BANK LTD, GUNDI GOPALRAOPET","H NO.1871,GUNDI GOPALRAOPET VILLAGE KARIMNAGAR DIST PINCODE 505531",KARIMNAGAR,GUNDI GOPALRAOPET,TELANGANA,2288232
281,TELANGANA STATE COOP APEX BANK,TSAB0020051,KARIMNAGR DCCB CENTENARY COLONY,"OPPOSITE GOPI KRISHNA IRON HARDWARE,BEGUMPET X ROAD,RATHNAGAR VILLAGE,RAMAGIRI MANDAL PEDDAPALLY",KARIMNAGAR,KARIMNAGAR,TELANGANA,0
282,TELANGANA STATE COOP APEX BANK,TSAB0020052,KARIMNAGR DCCB RAMAKRISHNA COLONY,"H.NO.1/46B,MAIN ROAD HYDERABAD,ROAD SUBHASH NAGAR,RAMAKRISHNA COLONY,THIMMAPUR MDL,DIST -KARIMNAGAR,TELANGANA",KARIMNAGAR,KARIMNAGAR,TELANGANA,0
283,TELANGANA STATE COOP APEX BANK,TSAB0020053,KARIMNAGAR DCCB RAMPUR,"HNO,87451 KOTHIRAMPUR,KARIMNAGAR 505001",KARIMNAGAR,KARIMNAGAR,TELANGANA,0
284,TELANGANA STATE COOP APEX BANK,TSAB0020054,KARIMNAGAR DCCB SEETHARAMPUR,"HNO,1035081OPP SRR COLLEGE,SEETHARAMPUR,KARIMNAGAR 505001",KARIMNAGAR,KARIMNAGAR,TELANGANA,0
285,TELANGANA STATE COOP APEX BANK,TSAB0020055,KARIMNAGAR DCCB NAKA CHOWRASTA,"HNO,63472 473PEDDAPALLI,CHOWRASTA,KARIMNAGAR 505001",KARIMNAGAR,KARIMNAGAR,TELANGANA,0
286,TELANGANA STATE COOP APEX BANK,TSAB0020056,KARIMNAGAR DCCB DHAROOR,"HNO,15216 A,MAIN ROAD DHAROOR CAMP MDL,DIST JAGTIAL 505327",JAGTIAL,JAGTIAL,TELANGANA,0
287,TELANGANA STATE COOP APEX BANK,TSAB0020057,KARIMNAGAR DCCB TADICHERLA,"HNO 646 A,VILLTADICHERLA MDL MALHAR RAO,DIST JAYASHANKAR,BHUPALPALLY 505184",JAYASHANKAR BHUPALPALLY,MANTHANI,TELANGANA,0
288,TELANGANA STATE COOP APEX BANK,TSAB0020058,"THE KARIMNAGAR DISTRCIT COOPERATIVE CENTRAL BANK LTD,PADMANAGAR DAIRY",46PLLLAADAAA,KARIMNAGAR,KARIMNAGAR,TELANGANA,0
289,TELANGANA STATE COOP APEX BANK,TSAB0020059,"THE KARIMNAGAR DISTRCIT COOPERATIVE CENTRAL BANK LTD,VEENAVANKA",H.NO 2-30/1 MAIN ROAD OPP ZP HIGH SCHOOL VEENAVANKA KARIMNAGAR,KARIMNAGAR,JAMMIKUNTA,TELANGANA,0
290,TELANGANA STATE COOP APEX BANK,TSAB0020060,"THE KARIMNAGAR DISTRCIT COOPERATIVE CENTRAL BANK LTD,CHRISTIAN COLONY","INFRONT OF VIDYADHARI HIGH SCHOOL,CVRN ROAD,CHRISTIAN COLONY KARIMNAGAR",KARIMNAGAR,KARIMNAGAR,TELANGANA,0
291,TELANGANA STATE COOP APEX BANK,TSAB0020061,"THE KARIMNAGAR DISTRCIT COOPERATIVE CENTRAL BANK LTD, KODURUPAKA","GRAMA PANCHAYATH COMPLEX,R&R COLONY,MAIN ROAD,KODURUPAKA",RAJANNA-SIRICILLA,SIRICILLA,TELANGANA,0
292,TELANGANA STATE COOP APEX BANK,TSAB0020062,"THE KARIMNAGAR DISTRCIT COOPERATIVE CENTRAL BANK LTD, AVUNUR","H.NO 6-69,GANDHINAGAR COLONY,NEAR RELIANCE TOWER,AVUNUR",RAJANNA-SIRICILLA,SIRICILLA,TELANGANA,0
293,TELANGANA STATE COOP APEX BANK,TSAB0021001,"THE WARANGAL DISTRICT CO OPERATIVE CENTRAL BANK LTD, H.O BRANCH","SUBEDARI,HANMKONDA",GL,WARANGAL,TELANGANA,0
294,TELANGANA STATE COOP APEX BANK,TSAB0021002,"THE WARANGAL DISTRICT CO OPERATIVE CENTRAL BANK LTD, ATMAKUR","POSTATHMAKUR,MDLATHMAKUR",GL,ATMAKUR,TELANGANA,0
295,TELANGANA STATE COOP APEX BANK,TSAB0021003,"THE WARANGAL DISTRICT CO OPERATIVE CENTRAL BANK LTD, BHUPALPALLY","POSTBHOOPALPALLY,MDLBHOOPALPALLY",GL,BHUPALPALLY,TELANGANA,0
296,TELANGANA STATE COOP APEX BANK,TSAB0021004,"THE WARANGAL DISTRICT CO OPERATIVE CENTRAL BANK LTD, CHERIYAL","POSTCHERIAL,MDLCHERIAL",GL,CHERIYAL,TELANGANA,0
297,TELANGANA STATE COOP APEX BANK,TSAB0021005,"THE WARANGAL DISTRICT CO OPERATIVE CENTRAL BANK LTD, DORNAKAL",POSTDORNAKAL.MDLDORNAKAL,GL,DORNAKAL,TELANGANA,0
298,TELANGANA STATE COOP APEX BANK,TSAB0021006,"THE WARANGAL DISTRICT CO OPERATIVE CENTRAL BANK LTD, GHANAPUR","POSTGHANAPUR,MDLGHANAPUR",GL,GHANAPUR,TELANGANA,0
299,TELANGANA STATE COOP APEX BANK,TSAB0021007,"THE WARANGAL DISTRICT CO OPERATIVE CENTRAL BANK LTD, GUDUR","POSTGUDUR,MDLGUDUR",GL,GUDUR,TELANGANA,0
300,TELANGANA STATE COOP APEX BANK,TSAB0021008,"THE WARANGAL DISTRICT CO OPERATIVE CENTRAL BANK LTD, HANAMKONDA",POSTHANAMKONDAMDL.HANAMKONDA,GL,WARANGAL,TELANGANA,0
301,TELANGANA STATE COOP APEX BANK,TSAB0021009,"THE WARANGAL DISTRICT CO OPERATIVE CENTRAL BANK LTD, JANGAON","POSTJANGAON,MDLJANGAON",GL,JANGAON,TELANGANA,0
302,TELANGANA STATE COOP APEX BANK,TSAB0021010,"THE WARANGAL DISTRICT CO OPERATIVE CENTRAL BANK LTD, MAHBUBABAD","POSTMAHABOOBABAD,MDLMAHABOOBABAD",GL,MAHBUBABAD,TELANGANA,0
303,TELANGANA STATE COOP APEX BANK,TSAB0021011,"THE WARANGAL DISTRICT CO OPERATIVE CENTRAL BANK LTD, MARIPEDA","POSTMARIPEDA,MDLMARIPEDA",GL,MARIPEDA,TELANGANA,0
304,TELANGANA STATE COOP APEX BANK,TSAB0021012,"THE WARANGAL DISTRICT CO OPERATIVE CENTRAL BANK LTD, MULUG","POSTMULUG,MDLMULUG",GL,MULUG,TELANGANA,0
305,TELANGANA STATE COOP APEX BANK,TSAB0021013,"THE WARANGAL DISTRICT CO OPERATIVE CENTRAL BANK LTD, NARMETTA",POSTNARMETTA.MDLNARMETTA,GL,NARMETTA,TELANGANA,0
306,TELANGANA STATE COOP APEX BANK,TSAB0021014,"THE WARANGAL DISTRICT CO OPERATIVE CENTRAL BANK LTD, NARASAMPET","POSTNARSAMPET,MDLNARSAMPET",GL,NARASAMPET,TELANGANA,0
307,TELANGANA STATE COOP APEX BANK,TSAB0021015,"THE WARANGAL DISTRICT CO OPERATIVE CENTRAL BANK LTD, NEKKONDA","POSTNEKKONDA,MDLNEKKONDA",GL,NEKKONDA,TELANGANA,0
308,TELANGANA STATE COOP APEX BANK,TSAB0021016,"THE WARANGAL DISTRICT CO OPERATIVE CENTRAL BANK LTD, PARKAL","POSTPARKAL,MDLPARKAL",GL,PARKAL,TELANGANA,0
309,TELANGANA STATE COOP APEX BANK,TSAB0021017,"THE WARANGAL DISTRICT CO OPERATIVE CENTRAL BANK LTD, THORRUR","POSTTHORROR,MDLTHORROR",GL,THORRUR,TELANGANA,0
310,TELANGANA STATE COOP APEX BANK,TSAB0021018,"THE WARANGAL DISTRICT CO OPERATIVE CENTRAL BANK LTD, WARANGAL",POSTWARANGALMDL.WARANGAL,GL,WARANGAL,TELANGANA,0
311,TELANGANA STATE COOP APEX BANK,TSAB0021019,"THE WARANGAL DISTRICT CO OPERATIVE CENTRAL BANK LTD, WARDHANNAPET","POSTWARDHANNAPET,MDLWARDHANNAPET",GL,WARDHANNAPET,TELANGANA,0
312,TELANGANA STATE COOP APEX BANK,TSAB0022001,"THE KHAMMAM DISTRICT CO OPERATIVE CENTRAL BANK LTD, HO","2191,MG ROAD,GANDHI CHOWK KHAMMAM.PINCODE507003",KHAMMAM,KHAMMAM,TELANGANA,0
313,TELANGANA STATE COOP APEX BANK,TSAB0022002,"THE KHAMMAM DISTRICT CO OPERATIVE CENTRAL BANK LTD, KHAMMAM","OPP OLD CPI COMPLEX,NEHRU NAGAR KHAMMAM.PINCODE507002",KHAMMAM,KHAMMAM,TELANGANA,0
314,TELANGANA STATE COOP APEX BANK,TSAB0022003,"THE KHAMMAM DISTRICT CO OPERATIVE CENTRAL BANK LTD,KALLOOR","170,MAIN ROAD,KALOOR.PINCODE507209",KHAMMAM,KALLOOR,TELANGANA,0
315,TELANGANA STATE COOP APEX BANK,TSAB0022004,"THE KHAMMAM DISTRICT CO OPERATIVE CENTRAL BANK LTD, MANUGUR","8179,MAIN ROAD,TDPCENTER,MANUGUR.PINCODE507117",KHAMMAM,MANUGUR,TELANGANA,0
316,TELANGANA STATE COOP APEX BANK,TSAB0022005,"THE KHAMMAM DISTRICT CO OPERATIVE CENTRAL BANK LTD, KOTHAGUDEM","5.148,BAJANAMANDIR ROAD,KOTHAGUDEM.PINCODE507101",KHAMMAM,KOTHAGUDEM,TELANGANA,0
317,TELANGANA STATE COOP APEX BANK,TSAB0022006,"THE KHAMMAM DISTRICT CO OPERATIVE CENTRAL BANK LTD, MADHIRA","1239,LADAKH BAZAR,MADIRA.PINCODE507203",KHAMMAM,MADHIRA,TELANGANA,0
318,TELANGANA STATE COOP APEX BANK,TSAB0022007,"THE KHAMMAM DISTRICT CO OPERATIVE CENTRAL BANK LTD, YELLANDU","1229,OPP POLICE STATION,MAIN ROAD,YELLANDU.PINCODE507123",KHAMMAM,YELLANDU,TELANGANA,0
319,TELANGANA STATE COOP APEX BANK,TSAB0022008,"THE KHAMMAM DISTRICT CO OPERATIVE CENTRAL BANK LTD, SATHUPALLY",11 180 1 VEMSOORI ROAD SATHUPALLY.PINCODE507303,KHAMMAM,SATHUPALLY,TELANGANA,0
320,TELANGANA STATE COOP APEX BANK,TSAB0022009,"THE KHAMMAM DISTRICT CO OPERATIVE CENTRAL BANK LTD, KUNAVARAM","157,MAIN ROAD,KUNAVARAM.PINCODE507121",KHAMMAM,KUNAVARAM,TELANGANA,0
321,TELANGANA STATE COOP APEX BANK,TSAB0022010,"THE KHAMMAM DISTRICT CO OPERATIVE CENTRAL BANK LTD, KUKKUNUR","383,MAINROAD,KUKUNUR.PINCODE507114",KHAMMAM,KUKKUNUR,TELANGANA,0
322,TELANGANA STATE COOP APEX BANK,TSAB0022011,"THE KHAMMAM DISTRICT CO OPERATIVE CENTRAL BANK LTD, NELAKONDAPALLY","3331,KHAMMAM ROAD,NELAKONDAPALLY.PINCODE507160",KHAMMAM,NELAKONDAPALLY,TELANGANA,0
323,TELANGANA STATE COOP APEX BANK,TSAB0022012,"THE KHAMMAM DISTRICT CO OPERATIVE CENTRAL BANK LTD, GARLA","10118,NEHRUCENTER,GARLA.PINCODE5072010",KHAMMAM,GARLA,TELANGANA,0
324,TELANGANA STATE COOP APEX BANK,TSAB0022013,"THE KHAMMAM DISTRICT CO OPERATIVE CENTRAL BANK LTD, TIRUMALAYAPALEM","810,MAIN ROAD,TIRUMALAYAPALEM.PINCODE507163",KHAMMAM,TIRUMALAYAPALEM,TELANGANA,0
325,TELANGANA STATE COOP APEX BANK,TSAB0022014,"THE KHAMMAM DISTRICT CO OPERATIVE CENTRAL BANK LTD, MUDIGONDA","4781,VALLABI ROAD,MUDIGONDA,PINCODE507158",KHAMMAM,MUDIGONDA,TELANGANA,0
326,TELANGANA STATE COOP APEX BANK,TSAB0022015,"THE KHAMMAM DISTRICT CO OPERATIVE CENTRAL BANK LTD, ASWARAOPETA",5 72 1 OPP SAI SUMAN THEATRE ASWARAOPET.PINCODE507301,KHAMMAM,ASWARAOPETA,TELANGANA,0
327,TELANGANA STATE COOP APEX BANK,TSAB0022016,"THE KHAMMAM DISTRICT CO OPERATIVE CENTRAL BANK LTD, PALVONCHA","191116,SHASTRY CENTER,PALVONCHA.PINCODE507115",KHAMMAM,PALVONCHA,TELANGANA,0
328,TELANGANA STATE COOP APEX BANK,TSAB0022017,"THE KHAMMAM DISTRICT CO OPERATIVE CENTRAL BANK LTD, BONAKAL",OPP BUS STAND BONAKAL.PINCODE507204,KHAMMAM,BONAKAL,TELANGANA,0
329,TELANGANA STATE COOP APEX BANK,TSAB0022018,"THE KHAMMAM DISTRICT CO OPERATIVE CENTRAL BANK LTD, WYRA","5258A,MAIN ROAD,WYRA.PINCODE507165",KHAMMAM,WYRA,TELANGANA,0
330,TELANGANA STATE COOP APEX BANK,TSAB0022019,"THE KHAMMAM DISTRICT CO OPERATIVE CENTRAL BANK LTD, BURGAMPAHAD","742,OPPGOVTHOSPITAL BURGAMPADU,PINCODE507114",KHAMMAM,BURGAMPAHAD,TELANGANA,0
331,TELANGANA STATE COOP APEX BANK,TSAB0022020,"THE KHAMMAM DISTRICT CO OPERATIVE CENTRAL BANK LTD, BHADRACHALAM","61.9,RAJAVEEDHI,BHADRACHALAM.PINCODE507111",KHAMMAM,BHADRACHALAM,TELANGANA,0
332,TELANGANA STATE COOP APEX BANK,TSAB0022021,"THE KHAMMAM DISTRICT CO OPERATIVE CENTRAL BANK LTD, CHERLA","41500,MAIN ROAD,CHERLA.PINCODE507133",KHAMMAM,CHERLA,TELANGANA,0
333,TELANGANA STATE COOP APEX BANK,TSAB0022022,"THE KHAMMAM DISTRICT CO OPERATIVE CENTRAL BANK LTD, VENKATAPURAM",3 173 A POLICE STN ROAD VENKATAPURAM.PINCODE507136,KHAMMAM,VENKATAPURAM,TELANGANA,0
334,TELANGANA STATE COOP APEX BANK,TSAB0022023,"THE KHAMMAM DISTRICT CO OPERATIVE CENTRAL BANK LTD, KUSUMANCHI","3226,MAINROAD,KUSUMANCHI.PINCODE507159",KHAMMAM,KUSUMANCHI,TELANGANA,0
335,TELANGANA STATE COOP APEX BANK,TSAB0022024,"THE KHAMMAM DISTRICT CO OPERATIVE CENTRAL BANK LTD, ENKOOR","363,NEAR BUSSTAND,ENKOOR.PINCODE507168",KHAMMAM,ENKOOR,TELANGANA,0
336,TELANGANA STATE COOP APEX BANK,TSAB0022025,"THE KHAMMAM DISTRICT CO OPERATIVE CENTRAL BANK LTD, YERRUPALEM","2131,GANDHI BOMMACENTER,YERRUPLEM.PINCODE507201",KHAMMAM,YERRUPALEM,TELANGANA,0
337,TELANGANA STATE COOP APEX BANK,TSAB0022026,"THE KHAMMAM DISTRICT CO OPERATIVE CENTRAL BANK LTD, KHAMMAM RURAL","4 3 68 2,BOSE BOMMA CENTER GUTTALA BAZAR KHAMMAM.PINCODE507003",KHAMMAM,KHAMMAM RURAL,TELANGANA,0
338,TELANGANA STATE COOP APEX BANK,TSAB0022027,"THE KHAMMAM DISTRICT CO OPERATIVE CENTRAL BANK LTD, MARLAPADU","35811,MAIN ROAD,VIYA VEMSOOR,MARLAPADU.PINCODE507164",KHAMMAM,MARLAPADU,TELANGANA,0
339,TELANGANA STATE COOP APEX BANK,TSAB0022028,"THE KHAMMAM DISTRICT CO OPERATIVE CENTRAL BANK LTD, MULKALAPALLY","2269,MAIN ROAD,MULKALAPALLY.PINCODE507115",KHAMMAM,MULKALAPALLY,TELANGANA,0
340,TELANGANA STATE COOP APEX BANK,TSAB0022029,"THE KHAMMAM DISTRICT CO OPERATIVE CENTRAL BANK LTD, PENUBALLY","5126,SATHUPALLY ROAD,PENUBALLY.PINCODE507302",KHAMMAM,PENUBALLY,TELANGANA,0
341,TELANGANA STATE COOP APEX BANK,TSAB0022030,"THE KHAMMAM DISTRICT CO OPERATIVE CENTRAL BANK LTD, NST BRANCH",OPP CPI OFFICE BY PASS ROAD KHAMMAM.PINCODE507001,KHAMMAM,KHAMMAM,TELANGANA,0
342,TELANGANA STATE COOP APEX BANK,TSAB0022031,"THE KHAMMAM DISTRICT CO OPERATIVE CENTRAL BANK LTD, GUNDALA","NEAR MDO OFFICE,GUNDALA.PINCODE507123",KHAMMAM,GUNDALA,TELANGANA,0
343,TELANGANA STATE COOP APEX BANK,TSAB0022032,"THE KHAMMAM DISTRICT CO OPERATIVE CENTRAL BANK LTD, CHINTOOR","NEAR MRO OFFICE,CHINTOOR.PINCODE 507113",KHAMMAM,CHINTOOR,TELANGANA,0
344,TELANGANA STATE COOP APEX BANK,TSAB0022033,"THE KHAMMAM DISTRICT CO OPERATIVE CENTRAL BANK LTD, LAXMINAGARAM","MULKALAPADU ROAD,LAXMI NAGARAM.PINCODE507137",KHAMMAM,LAXMINAGARAM,TELANGANA,0
345,TELANGANA STATE COOP APEX BANK,TSAB0022034,"THE KHAMMAM DISTRICT CO OPERATIVE CENTRAL BANK LTD, ROTARY NAGAR - KHAMMAM","3248,INDIRA NAGAR,NEAR PARNASHALA,KHAMMAM.507002",KHAMMAM,KHAMMAM,TELANGANA,9948967755
346,TELANGANA STATE COOP APEX BANK,TSAB0022035,"THE KHAMMAM DISTRICT CO OPERATIVE CENTRAL BANK LTD, CHANDRUGONDA","H NO.1161,OPP.SBH CHANDRUGONDA PIN 507166",KHAMMAM,KHAMMAM,TELANGANA,9100039183
347,TELANGANA STATE COOP APEX BANK,TSAB0022036,DCC BANK KHAMMAM DAMMAPETA,"MAIN ROAD,BESIDE HNO5 34 DAMMAPETA VILLAGE AND MANDAL KHAMMAM 507306",KHAMMAM,DAMMAPETA,TELANGANA,9948212485
348,TELANGANA STATE COOP APEX BANK,TSAB0022037,DCC BANK KHAMMAM TEKULAPALLY,HNO 1 65 MAIN ROAD NEAR MAIN ROAD TEKULAPALLI VILLAGE AND MANDAL KHAMMAM 507123,KHAMMAM,TEKULAPALLY,TELANGANA,9100039182
349,TELANGANA STATE COOP APEX BANK,TSAB0022038,DCC BANK KHAMMAM JULURUPADU,HNO 4 99 OPP TO JULURUPADU POLICE STN BESIDE MEE SEVA MAIN ROAD VENGANNA PALEM VILLAGE JULURUPADU MANDAL 507166,KHAMMAM,JULURUPADU,TELANGANA,9100039186
350,TELANGANA STATE COOP APEX BANK,TSAB0022039,DCC BANK KHAMMAM TALLADA,"MAIN ROAD,OPP POLICE STATION TALLADA VILLAGE AND MANDAL KHAMMAM",KHAMMAM,TALLADA,TELANGANA,9866573764
351,TELANGANA STATE COOP APEX BANK,TSAB0022040,DCC BANK KHAMMAM MEENAVOLU,"MAIN ROAD,MEENAVOLU VILLAGE YERRUPALEM MANDAL KHAMMAM",KHAMMAM,MEENAVOLU,TELANGANA,9848175239
352,TELANGANA STATE COOP APEX BANK,TSAB0022041,"THE DISTRICT COOPERATIVE CENTRAL BANK LTD , KHAMMAM ,KAREPALLY","DNO 5 68 2,MAIN ROAD KAREPALLY,VILLAGE -507122",KHAMMAM,KHAMMAM,TELANGANA,9100953065
353,TELANGANA STATE COOP APEX BANK,TSAB0022042,"THE DISTRICT COOPERATIVE CENTRAL BANK LTD , KHAMMAM ,KAMEPALLY","MAIN ROAD,THALLAGUDEM KAMEPALLY -507123",KHAMMAM,KHAMMAM,TELANGANA,9948085719
354,TELANGANA STATE COOP APEX BANK,TSAB0022043,"THE DISTRICT COOPERATIVE CENTRAL BANK LTD , KHAMMAM ,BAYYRAM",DNO 3 52 6 MAIN CENTRE BAYYARAM -507211,KHAMMAM,KHAMMAM,TELANGANA,9948085069
355,TELANGANA STATE COOP APEX BANK,TSAB0022044,"THE DISTRICT COOPERATIVE CENTRAL BANK LTD , KHAMMAM ,KONIJERLA","DNO 3 12 BASWAPURAM ROAD,KONIJERLA,V AND M",KHAMMAM,KHAMMAM,TELANGANA,9848175239
356,TELANGANA STATE COOP APEX BANK,TSAB0022045,"THE DISTRICT COOPERATIVE CENTRAL BANK LTD , KHAMMAM ,CHINTHAKANI","BONAKAL ROAD,NAGULAVANCHA,VIL -CHINTHAKANI M",KHAMMAM,KHAMMAM,TELANGANA,7780480718
357,TELANGANA STATE COOP APEX BANK,TSAB0022046,"THE DISTRICT COOPERATIVE CENTRAL BANK LTD,KHAMMAM ,ASWAPURAM","OPP POLICE STATION MAIN ROAD,ASWAPURAM V AND M",KHAMMAM,KHAMMAM,TELANGANA,9603366747
358,TELANGANA STATE COOP APEX BANK,TSAB0022047,"THE DISTRICT COOPERATIVE CENTRAL BANK LTD,KHAMMAM ,EDULLA BAYYARAM","DNO 6 76 33,OPP PETROL BUNK MAIN ROAD,EDULLA BAYYARAM X ROAD",KHAMMAM,KHAMMAM,TELANGANA,7382671341
359,TELANGANA STATE COOP APEX BANK,TSAB0022048,"THE DISTRICT COOPERATIVE CENTRAL BANK LTD,KHAMMAM , PERURU","RAMALAYAM STREET,NEAR POLICE STATION,PERURU V AND M",KHAMMAM,KHAMMAM,TELANGANA,9948089219
360,TELANGANA STATE COOP APEX BANK,TSAB0023001,"THE NALGONDA DISTRICT CO OPERATIVE CENTRAL BANK LTD, NALGONDA","624,NEARCLOCKTOWER,NALGONDA",NALGONDA,NALGONDA,TELANGANA,0
361,TELANGANA STATE COOP APEX BANK,TSAB0023002,"THE NALGONDA DISTRICT CO OPERATIVE CENTRAL BANK LTD, ALER","OPPRAILWAY STATION,MAIN ROAD,ALAIR",NALGONDA,ALER,TELANGANA,0
362,TELANGANA STATE COOP APEX BANK,TSAB0023003,"THE NALGONDA DISTRICT CO OPERATIVE CENTRAL BANK LTD, BIBINAGAR","POCHAMPALLY ROAD,M BIBINAGAR",NALGONDA,BIBINAGAR,TELANGANA,0
363,TELANGANA STATE COOP APEX BANK,TSAB0023004,"THE NALGONDA DISTRICT CO OPERATIVE CENTRAL BANK LTD, BHONGIR","HYDBAD ROAD,BHONGIRI",NALGONDA,BHONGIR,TELANGANA,0
364,TELANGANA STATE COOP APEX BANK,TSAB0023005,"THE NALGONDA DISTRICT CO OPERATIVE CENTRAL BANK LTD, CHOUTUPPAL","GM COMPLEX,OPPBUSSTAND,CHOUTUPPAL",NALGONDA,CHOUTUPPAL,TELANGANA,0
365,TELANGANA STATE COOP APEX BANK,TSAB0023006,"THE NALGONDA DISTRICT CO OPERATIVE CENTRAL BANK LTD, DEVARAKONDA","OPPCPI OFFICE,DEVERAKONDA,508248",NALGONDA,DEVARAKONDA,TELANGANA,0
366,TELANGANA STATE COOP APEX BANK,TSAB0023007,"THE NALGONDA DISTRICT CO OPERATIVE CENTRAL BANK LTD, GURRAMPODE","NAMPALLY ROAD,GURRAMPODE",NALGONDA,GURRAMPODE,TELANGANA,0
367,TELANGANA STATE COOP APEX BANK,TSAB0023008,"THE NALGONDA DISTRICT CO OPERATIVE CENTRAL BANK LTD, HUZURNAGAR","H.NO.1393,HUZURNAGAR",NALGONDA,HUZURNAGAR,TELANGANA,0
368,TELANGANA STATE COOP APEX BANK,TSAB0023009,"THE NALGONDA DISTRICT CO OPERATIVE CENTRAL BANK LTD, KODAD","ABINAV STREET,NAYANAGAR,KODAD",NALGONDA,KODAD,TELANGANA,0
369,TELANGANA STATE COOP APEX BANK,TSAB0023010,"THE NALGONDA DISTRICT CO OPERATIVE CENTRAL BANK LTD, MIRYALGUDA","1977,REDDYCOLONY,SAGARROAD,MIRIYALAGUDA",NALGONDA,MIRYALGUDA,TELANGANA,0
370,TELANGANA STATE COOP APEX BANK,TSAB0023011,"THE NALGONDA DISTRICT CO OPERATIVE CENTRAL BANK LTD, MOTHKUR","OPP AGRI.MARKET OFFICE,BHONGIRI ROAD,MOTHKUR",NALGONDA,MOTHKUR,TELANGANA,0
371,TELANGANA STATE COOP APEX BANK,TSAB0023012,"THE NALGONDA DISTRICT CO OPERATIVE CENTRAL BANK LTD, MUNAGALA","12451,NHNO9,MUNAGALA",NALGONDA,MUNAGALA,TELANGANA,0
372,TELANGANA STATE COOP APEX BANK,TSAB0023013,"THE NALGONDA DISTRICT CO OPERATIVE CENTRAL BANK LTD, MUNGOD","CHITYAL ROAD,POST MON MUNUGODE",NALGONDA,MUNGOD,TELANGANA,0
373,TELANGANA STATE COOP APEX BANK,TSAB0023014,"THE NALGONDA DISTRICT CO OPERATIVE CENTRAL BANK LTD, NAKREKAL","OPP SBH ATM,NH NO9 NAKREKAL",NALGONDA,NAKREKAL,TELANGANA,0
374,TELANGANA STATE COOP APEX BANK,TSAB0023015,"THE NALGONDA DISTRICT CO OPERATIVE CENTRAL BANK LTD, HEAD OFFICE","OPP II TOWN P.S.RAMGIRI,NALGONDA",NALGONDA,NALGONDA,TELANGANA,0
375,TELANGANA STATE COOP APEX BANK,TSAB0023016,"THE NALGONDA DISTRICT CO OPERATIVE CENTRAL BANK LTD, NEREDCHERLA","RAMAPURAM ROAD,NEREDUCHARLA",NALGONDA,NEREDCHERLA,TELANGANA,0
376,TELANGANA STATE COOP APEX BANK,TSAB0023017,"THE NALGONDA DISTRICT CO OPERATIVE CENTRAL BANK LTD, NIDAMANURA","BESIDE AGRI.MARKET OFFICE,SAGAR ROAD,NIDMANUR",NALGONDA,NIDAMANURA,TELANGANA,0
377,TELANGANA STATE COOP APEX BANK,TSAB0023018,"THE NALGONDA DISTRICT CO OPERATIVE CENTRAL BANK LTD, NUTANAKALU",NOOTHANKAL,NALGONDA,NUTANAKALU,TELANGANA,0
378,TELANGANA STATE COOP APEX BANK,TSAB0023019,"THE NALGONDA DISTRICT CO OPERATIVE CENTRAL BANK LTD, RAMANNAPET","6131,GANDHINAGAR,RAMMANNAPET",NALGONDA,RAMANNAPET,TELANGANA,0
379,TELANGANA STATE COOP APEX BANK,TSAB0023020,"THE NALGONDA DISTRICT CO OPERATIVE CENTRAL BANK LTD, SURYAPET","NEAR OLD BUSSTAND,SURYAPET,508213",NALGONDA,SURYAPET,TELANGANA,0
380,TELANGANA STATE COOP APEX BANK,TSAB0023021,"THE NALGONDA DISTRICT CO OPERATIVE CENTRAL BANK LTD, TRIPURARAM","MAIN ROAD,TRIPURARAM",NALGONDA,TRIPURARAM,TELANGANA,0
381,TELANGANA STATE COOP APEX BANK,TSAB0023022,"THE NALGONDA DISTRICT CO OPERATIVE CENTRAL BANK LTD, THUNGATHURTHI",THUNGATHURTHY,NALGONDA,THUNGATHURTHI,TELANGANA,0
382,TELANGANA STATE COOP APEX BANK,TSAB0023023,"THE NALGONDA DISTRICT CO OPERATIVE CENTRAL BANK LTD, VALIGONDA","MAIN ROAD,VOLIGONDA",NALGONDA,VALIGONDA,TELANGANA,0
383,TELANGANA STATE COOP APEX BANK,TSAB0023024,"THE NALGONDA DISTRICT CO OPERATIVE CENTRAL BANK LTD, YADAGIRIGUTTA","YADAGIRIGUTTA,M YADAGIRIPALLY",NALGONDA,YADAGIRIGUTTA,TELANGANA,0
384,TELANGANA STATE COOP APEX BANK,TSAB0023026,"THE NALGONDA DISTRICT CO OPERATIVE CENTRAL BANK LTD, ANUMALA","DEVERAKONDA ROAD,HALIYA",NALGONDA,ANUMALA,TELANGANA,0
385,TELANGANA STATE COOP APEX BANK,TSAB0023027,"THE NALGONDA DISTRICT CO OPERATIVE CENTRAL BANK LTD, THIRUMALAGIRI","THIRUMALAGIRI,M THIRUMALAGIRI",NALGONDA,THIRUMALAGIRI,TELANGANA,0
386,TELANGANA STATE COOP APEX BANK,TSAB0023028,"THE NALGONDA DISTRICT CO OPERATIVE CENTRAL BANK LTD, KATTANGUR","KALIMERA ROAD,KATTANGOOR",NALGONDA,KATTANGUR,TELANGANA,0
387,TELANGANA STATE COOP APEX BANK,TSAB0023029,"THE NALGONDA DISTRICT CO OPERATIVE CENTRAL BANK LTD, DINDI",OPP.SAIBABA TEMPLE DINDI,NALGONDA,DINDI,TELANGANA,0
388,TELANGANA STATE COOP APEX BANK,TSAB0023030,"THE NALGONDA DISTRICT CO OPERATIVE CENTRAL BANK LTD, METTAMPALLI",MATTAMPALLY,NALGONDA,METTAMPALLI,TELANGANA,0
389,TELANGANA STATE COOP APEX BANK,TSAB0023031,"THE NALGONDA DISTRICT CO OPERATIVE CENTRAL BANK LTD, KONDA MALLEPALLI","DEVERAKONDA ROAD,KONDAMALLEPALLY",NALGONDA,KONDA MALLEPALLI,TELANGANA,0
