,BANK NAME,IFSC,OFFICE,ADDRESS,DISTRICT,CITY,STATE,PHONE
0,ANDHRA PRADESH GRAMEENA VIKAS BANK,APGV00000SC,SERVICE CENTER,"3RD FLOOR, SHEKAR ARACADE, OPP BEERAMGUDA KAMAN, RAMACHANDRAREDDY NAGAR, RAMACHANDRAPURAM, HYDERABAD 502032",HYDERABAD,HYDERABAD,TELANGANA,0
1,ANDHRA PRADESH GRAMEENA VIKAS BANK,APGV0001101,SRIKAKULAM,SRIKAKULAM DIST. PIN 532 001,SRIKAKULAM,SRIKAKULAM,ANDHRA PRADESH,9440903916
2,ANDHRA PRADESH GRAMEENA VIKAS BANK,APGV0001102,SARAVAKOTA,"SARAVAKOTA ,SRIKAKULAM DIST.PIN 532 426",SRIKAKULAM,SARAVAKOTA,ANDHRA PRADESH,9490157001
3,ANDHRA PRADESH GRAMEENA VIKAS BANK,APGV0001103,CALINGAPATNAM,CALINGAPATNAM 1103 SRIKAKULAM DIST. PIN 532 406,SRIKAKULAM,CALINGAPATNAM,ANDHRA PRADESH,9490157002
4,ANDHRA PRADESH GRAMEENA VIKAS BANK,APGV0001104,JARJANGI,JARJANGI 1104 SRIKAKULAM DIST. PIN 532 197,SRIKAKULAM,JARJANGI,ANDHRA PRADESH,9490157003
5,ANDHRA PRADESH GRAMEENA VIKAS BANK,APGV0001105,KOTTURU,KOTTURU 1105 SRIKAKULAM DIST. PIN 532 455,SRIKAKULAM,KORADA,ANDHRA PRADESH,9490157004
6,ANDHRA PRADESH GRAMEENA VIKAS BANK,APGV0001106,SEETHAMPETA,SEETHAMPETA 1106 SRIKAKULAM DIST. PIN 532 443,SRIKAKULAM,PALAKONDA,ANDHRA PRADESH,9490157005
7,ANDHRA PRADESH GRAMEENA VIKAS BANK,APGV0001107,MELIAPUTTI,MELIAPUTTI 1107 SRIKAKULAM DIST. PIN 532 215,SRIKAKULAM,PATHAPATNAM,ANDHRA PRADESH,9490157006
8,ANDHRA PRADESH GRAMEENA VIKAS BANK,APGV0001108,BARUVA,BARUA 1108 SRIKAKULAM DIST. PIN 532 263,SRIKAKULAM,SOMPETA,ANDHRA PRADESH,9490157007
9,ANDHRA PRADESH GRAMEENA VIKAS BANK,APGV0001109,POLAKI,POLAKI 1109 SRIKAKULAM DIST. PIN 532 429,SRIKAKULAM,NARASANNAPETA,ANDHRA PRADESH,9490157008
10,ANDHRA PRADESH GRAMEENA VIKAS BANK,APGV0001110,BORIVANKA,BORIVANKA 1110 SRIKAKULAM DIST. PIN 532 294,SRIKAKULAM,SOMPETA,ANDHRA PRADESH,9490157009
11,ANDHRA PRADESH GRAMEENA VIKAS BANK,APGV0001111,MANDASA,MANDASA 1111 SRIKAKULAM DIST. PIN 532 242,SRIKAKULAM,MANDASA,ANDHRA PRADESH,9490157010
12,ANDHRA PRADESH GRAMEENA VIKAS BANK,APGV0001112,RAJAM,RAJAM 1112 SRIKAKULAM DIST. PIN 532 127,SRIKAKULAM,RAJAM,ANDHRA PRADESH,9490157011
13,ANDHRA PRADESH GRAMEENA VIKAS BANK,APGV0001113,BURJA,BURJA 1113 SRIKAKULAM DIST. PIN 532 415,SRIKAKULAM,PALAKONDA,ANDHRA PRADESH,9490157012
14,ANDHRA PRADESH GRAMEENA VIKAS BANK,APGV0001114,VEERAGHATTAM,VEERAGHATTAM 1114 SRIKAKULAM DIST PIN 532 460,SRIKAKULAM,PALAKONDA,ANDHRA PRADESH,9490157013
15,ANDHRA PRADESH GRAMEENA VIKAS BANK,APGV0001115,KASIBUGGA,KASIBUGGA 1115 SRIKAKULAM DIST. PIN 532 222,SRIKAKULAM,KASIBUGGA,ANDHRA PRADESH,9440903919
16,ANDHRA PRADESH GRAMEENA VIKAS BANK,APGV0001116,SANTHAKAVITI,"SANTHAKAVATI 1116, SRIKAKULAM DIST, PIN 532 132",SRIKAKULAM,RAJAM,ANDHRA PRADESH,9490157014
17,ANDHRA PRADESH GRAMEENA VIKAS BANK,APGV0001117,L.N.PETA,L.N.PETA 1117 SRIKAKULAM DIST. PIN 532 458,SRIKAKULAM,KRISHNAPURAM,ANDHRA PRADESH,9490157015
18,ANDHRA PRADESH GRAMEENA VIKAS BANK,APGV0001118,SRIMUKHALINGAM,SRIMUKHALINGAM 1118 SRIKAKULAM DIST. PIN 532 428,SRIKAKULAM,NARASANNAPETA,ANDHRA PRADESH,9490157016
19,ANDHRA PRADESH GRAMEENA VIKAS BANK,APGV0001119,THOLAPI,THOLAPI 1119 SRIKAKULAM DIST. PIN 532 413,SRIKAKULAM,SRIKAKULAM,ANDHRA PRADESH,9490157017
20,ANDHRA PRADESH GRAMEENA VIKAS BANK,APGV0001120,PUNDI,"PUNDI 1120, VIA AMDVLSA, SRIKAKULAM DIST. PIN 532 218",SRIKAKULAM,KASIBUGGA,ANDHRA PRADESH,9490157018
21,ANDHRA PRADESH GRAMEENA VIKAS BANK,APGV0001121,NANDIGAM,"NANDIGAM 1121,SRIKAKULAM DIST. 532 206",SRIKAKULAM,TEKKALI,ANDHRA PRADESH,9490157019
22,ANDHRA PRADESH GRAMEENA VIKAS BANK,APGV0001122,URLAM,"URLAM 1122,SRIKAKULAM DIST. 532 425",SRIKAKULAM,NARASANNAPETA,ANDHRA PRADESH,9490157020
23,ANDHRA PRADESH GRAMEENA VIKAS BANK,APGV0001123,TILARU,"TILARU 1123,SRIKAKULAM DIST.PIN 532 474",SRIKAKULAM,NARASANNAPETA,ANDHRA PRADESH,9490157021
24,ANDHRA PRADESH GRAMEENA VIKAS BANK,APGV0001124,SANTABOMMALI,"SANTABOMMALI 1124,SRIKAKULAM DIST.PIN 532 195",SRIKAKULAM,JARJANGI,ANDHRA PRADESH,9490157022
25,ANDHRA PRADESH GRAMEENA VIKAS BANK,APGV0001125,UNUKURU,"UNUKURU PANCHAYAT & BRANCH,PALAKONDA TALUK",SRIKAKULAM,RAJAM,ANDHRA PRADESH,9490157023
26,ANDHRA PRADESH GRAMEENA VIKAS BANK,APGV0001126,KALIVARAM,"KALIVARAM 1126,SRIKAKULAM DIST.PIN 532 484",SRIKAKULAM,SRIKAKULAM,ANDHRA PRADESH,9490157024
27,ANDHRA PRADESH GRAMEENA VIKAS BANK,APGV0001127,BUDITHI,"BUDITHI 1127,SRIKAKULAM DIST.PIN 532 427",SRIKAKULAM,NARASANNAPETA,ANDHRA PRADESH,9490157025
28,ANDHRA PRADESH GRAMEENA VIKAS BANK,APGV0001128,SARUBUJJILI,"SARUBUJJILI 1128,VIAAMAUDALAVALASA,SRIKAKULAM DIST. PIN 532",SRIKAKULAM,KRISHNAPURAM,ANDHRA PRADESH,9490157026
29,ANDHRA PRADESH GRAMEENA VIKAS BANK,APGV0001129,PRIYAAGRAHARAM,"PRIYA AGRAHARAM 1129,SRIKAKULAM DIST.PIN 532 430",SRIKAKULAM,NARASANNAPETA,ANDHRA PRADESH,9490157027
30,ANDHRA PRADESH GRAMEENA VIKAS BANK,APGV0001130,KANCHILI,"KANCHILI 1130,SRIKAKULAM DIST.PIN 532 290",SRIKAKULAM,KANCHILI,ANDHRA PRADESH,9490157028
31,ANDHRA PRADESH GRAMEENA VIKAS BANK,APGV0001131,BATHILI,"BATHILI 1131,SRIKAKULAM DIST.PIN 532 456",SRIKAKULAM,KORADA,ANDHRA PRADESH,9490157029
32,ANDHRA PRADESH GRAMEENA VIKAS BANK,APGV0001132,MURAPAKA KUPPILI,"VILLAGE AND POSTMURAPAKA,TEHSILPONDURU",SRIKAKULAM,SRIKAKULAM,ANDHRA PRADESH,9490157030
33,ANDHRA PRADESH GRAMEENA VIKAS BANK,APGV0001133,PURUSHOTTAPURAM,AT & POSTPURUSHOTHAPURAM TEHSRIKAKULAM,SRIKAKULAM,KRISHNAPURAM,ANDHRA PRADESH,9490157031
34,ANDHRA PRADESH GRAMEENA VIKAS BANK,APGV0001136,HARIPURAM,"HARIPURAM 1136,SRIKAKULAM DIST.PIN 532 243",SRIKAKULAM,SOMPETA,ANDHRA PRADESH,9490157032
35,ANDHRA PRADESH GRAMEENA VIKAS BANK,APGV0001137,KRISHNAPURAM,"AT KRISHNAPURAM,POSTAMADALAVALASA,TEHAMADALAVALASA.",SRIKAKULAM,KRISHNAPURAM,ANDHRA PRADESH,9490153754
36,ANDHRA PRADESH GRAMEENA VIKAS BANK,APGV0001138,KORASAVADA,"KORASAVADA 1138,SRIKAKULAM DIST.PIN 532 214",SRIKAKULAM,PATHAPATNAM,ANDHRA PRADESH,9490157033
37,ANDHRA PRADESH GRAMEENA VIKAS BANK,APGV0001139,NARASANNAPETA,"NARSANNAPETA 1139,SRIKAKULAM DIST.PIN 532 121",SRIKAKULAM,NARASANNAPETA,ANDHRA PRADESH,9490157034
38,ANDHRA PRADESH GRAMEENA VIKAS BANK,APGV0001140,RANASTHALAM,"RANASTHALAM 1140,SRIKAKULAM DIST.PIN 532 407",SRIKAKULAM,RANASTHALAM,ANDHRA PRADESH,9490157035
39,ANDHRA PRADESH GRAMEENA VIKAS BANK,APGV0001141,VANDRANGI,"VANDRANGI 1141,SRIKAKULAM DIST.PIN 532 168",SRIKAKULAM,RAJAM,ANDHRA PRADESH,9490157036
40,ANDHRA PRADESH GRAMEENA VIKAS BANK,APGV0001142,TEKKALI,"TEKKALI 1142,SRIKAKULAM DIST.PIN 532 701",SRIKAKULAM,TEKKALI,ANDHRA PRADESH,9490157037
41,ANDHRA PRADESH GRAMEENA VIKAS BANK,APGV0001143,GUJARATHIPETA,"GUJARATHIPETA 1143,SRIKAKULAM DIST.PIN 532 005",SRIKAKULAM,SRIKAKULAM,ANDHRA PRADESH,9490153753
42,ANDHRA PRADESH GRAMEENA VIKAS BANK,APGV0001144,VAJRAPUKOTTURU,"VAJRAPUKOTTURU 1144,SRIKAKULAM DIST.PIN 532 217",SRIKAKULAM,KASIBUGGA,ANDHRA PRADESH,9490157038
43,ANDHRA PRADESH GRAMEENA VIKAS BANK,APGV0001145,KORADA,"KORADA 1145,SRIKAKULAM DIST.PIN 532 459",SRIKAKULAM,KORADA,ANDHRA PRADESH,9490157039
44,ANDHRA PRADESH GRAMEENA VIKAS BANK,APGV0001146,PALAKONDA,"PALAKONDA 1146,SRIKAKULAM DIST.PIN 532 440",SRIKAKULAM,PALAKONDA,ANDHRA PRADESH,9440908394
45,ANDHRA PRADESH GRAMEENA VIKAS BANK,APGV0001147,LAVERU,"LAVERU 1147,SRIKAKULAM DIST.PIN 532 407",SRIKAKULAM,CHEEPURUPALLI,ANDHRA PRADESH,9490157040
46,ANDHRA PRADESH GRAMEENA VIKAS BANK,APGV0001148,MATTAMSARIAPALLI,"MATTAMSARIAPALLI 1148,SRIKAKULAM DIST,PIN 532 291",SRIKAKULAM,SOMPETA,ANDHRA PRADESH,9490157041
47,ANDHRA PRADESH GRAMEENA VIKAS BANK,APGV0001149,GUTTAVALLI,"GUTTAVALLI 1149,SRIKAKULAM DIST.PIN 532 445",SRIKAKULAM,PALAKONDA,ANDHRA PRADESH,9490157042
48,ANDHRA PRADESH GRAMEENA VIKAS BANK,APGV0001150,RAGOLU,"RAGOLU 1150,SRIKAKULAM DIST.PIN 532 484",SRIKAKULAM,SRIKAKULAM,ANDHRA PRADESH,9490157043
49,ANDHRA PRADESH GRAMEENA VIKAS BANK,APGV0001151,KARAJADA,"KARJADA,BHAIRI POST, SRIKAKULAM DIST.PIN 532 405",SRIKAKULAM,SRIKAKULAM,ANDHRA PRADESH,9490157044
50,ANDHRA PRADESH GRAMEENA VIKAS BANK,APGV0001152,DHARMAVARAM,"DHARMAVARAM 1152,VIA BONTHALA KONDURU,SRIKAKULAM DIST. PIN 532 148",SRIKAKULAM,SRIKAKULAM,ANDHRA PRADESH,9490157045
51,ANDHRA PRADESH GRAMEENA VIKAS BANK,APGV0001153,PYDIBHEEMAVARAM,"PYDIBHEEMAVARAM 1153,SRIKAKULAM DIST,PIN 532 409",SRIKAKULAM,PYDIBHEEMAVARAM,ANDHRA PRADESH,9490157046
52,ANDHRA PRADESH GRAMEENA VIKAS BANK,APGV0001155,KURIGAM,"KURIGAM 1155,VIA NIVAGAM, SRIKAKULAM DIST,PIN 532 457",SRIKAKULAM,PATHAPATNAM,ANDHRA PRADESH,9490157047
53,ANDHRA PRADESH GRAMEENA VIKAS BANK,APGV0001156,PINNINTIPETA,"PINNINTIPETA 1156,KODUR POST, SRIKAKULAM DIST,PIN 532 430",SRIKAKULAM,NARASANNAPETA,ANDHRA PRADESH,9490157048
54,ANDHRA PRADESH GRAMEENA VIKAS BANK,APGV0001157,ICHAPURAM,"ICHAPURAM 1157,SRIKAKULAM DIST,PIN 532 312",SRIKAKULAM,ICHAPURAM,ANDHRA PRADESH,9490157049
55,ANDHRA PRADESH GRAMEENA VIKAS BANK,APGV0001158,AKKULAPETA,"AKKULAPETA 1158,POST AMDALAVALASA,SRIKAKULAM DIST. PIN 532 185",SRIKAKULAM,SRIKAKULAM,ANDHRA PRADESH,9490157050
56,ANDHRA PRADESH GRAMEENA VIKAS BANK,APGV0001159,HB COLONY,"NEW HOUSE,COLLECTOR BUNGLOW ROAD,NAKKA VEEDHI,SRIKAKULAM,532001",SRIKAKULAM,SRIKAKULAM,ANDHRA PRADESH,9490157051
57,ANDHRA PRADESH GRAMEENA VIKAS BANK,APGV0001160,ARASAVILLI,"ARASAVILLI 1160,SRIKAKULAM DIST.PIN 532 401",SRIKAKULAM,SRIKAKULAM,ANDHRA PRADESH,9490157052
58,ANDHRA PRADESH GRAMEENA VIKAS BANK,APGV0001161,BALAGA,"BALAGA 1161,PALAKONDA ROAD, BALAGA,SRIKAKULAM DIST. PIN 532 001",SRIKAKULAM,SRIKAKULAM,ANDHRA PRADESH,9491035473
59,ANDHRA PRADESH GRAMEENA VIKAS BANK,APGV0001162,SOMPETA,"SOMPETA, RAJUGARIPETA STREET, SOMPETA, SOMPETA, 532284",SRIKAKULAM,SOMPETA,ANDHRA PRADESH,9491035477
60,ANDHRA PRADESH GRAMEENA VIKAS BANK,APGV0001163,BORUBHADRA,"GUDLA RAJESHS HOUSE, MAIN ROAD, BORUBHADRA, BORUBHADRA, 532195",SRIKAKULAM,NARASANNAPETA,ANDHRA PRADESH,9491035481
61,ANDHRA PRADESH GRAMEENA VIKAS BANK,APGV0001164,JALAMURU,"H.NO.140, NAGARALA STREET, JALUMURU, JALUMURU, 532432",SRIKAKULAM,NARASANNAPETA,ANDHRA PRADESH,9491035480
62,ANDHRA PRADESH GRAMEENA VIKAS BANK,APGV0001165,MABBAGAM,"MABAGAM POSTMABAGAM VILLAGE,SRIKAKULAM DIST PINCODE532421",SRIKAKULAM,NARASANNAPETA,ANDHRA PRADESH,9493126216
63,ANDHRA PRADESH GRAMEENA VIKAS BANK,APGV0001166,TADIVALASA,"THADIVALASA VILLAGE,BRANCH VIA DUSI,PONDURU(M), SKLM(D)532484",SRIKAKULAM,SRIKAKULAM,ANDHRA PRADESH,9490157467
64,ANDHRA PRADESH GRAMEENA VIKAS BANK,APGV0001167,NEW COLONY SKL,"DOOR NO070412/P, PLOT NO.A14/P, CHOWK ROAD, NEW COLONY, NEW COLONY, 532001",SRIKAKULAM,SRIKAKULAM,ANDHRA PRADESH,9490157460
65,ANDHRA PRADESH GRAMEENA VIKAS BANK,APGV0001168,CHILUKAPALEM,"PLOT NO.1, SURVEY NO.692,3, MAIN ROAD, CHILAKAPALEM, ETCHERLA, 532410",SRIKAKULAM,SRIKAKULAM,ANDHRA PRADESH,7382632698
66,ANDHRA PRADESH GRAMEENA VIKAS BANK,APGV0001169,PATHAPATNAM,"PLOT NO.1, WARD NO.10, SURVEY NO.234/6, MAIN ROAD, PATHAPATNAM, PATHAPATNAM, 532213",SRIKAKULAM,PATHAPATNAM,ANDHRA PRADESH,7382632697
67,ANDHRA PRADESH GRAMEENA VIKAS BANK,APGV0001170,SRIKURMAM,"DRNO94(1), MAIN ROAD SRIKURMAM, GARA (M), SRIKAKULAM(D) 532404",SRIKAKULAM,SRIKAKULAM,ANDHRA PRADESH,8331011463
68,ANDHRA PRADESH GRAMEENA VIKAS BANK,APGV0001171,POGIRI,"DR NO1117, NEAR POGIR CENTER,MAIN RAOD, POGIRI,RAJAM(M), SRIKAKULAM (D) 532148",SRIKAKULAM,RAJAM,ANDHRA PRADESH,8331011465
69,ANDHRA PRADESH GRAMEENA VIKAS BANK,APGV0001172,KOTHAPALLI,"KOTHAPALLI VILLAGE, KOTABOMMALI (M), SRIKAKULAM (D) 532201",SRIKAKULAM,TEKKALI,ANDHRA PRADESH,8331010437
70,ANDHRA PRADESH GRAMEENA VIKAS BANK,APGV0001173,NIMMADA,"NIMMADA, KOTABOMMALI (M), SRIKAKULAM(D) 532430",SRIKAKULAM,NARASANNAPETA,ANDHRA PRADESH,8331010440
71,ANDHRA PRADESH GRAMEENA VIKAS BANK,APGV0001174,KOLLIVALASA BURJA MANDAL,"H. NO. 1124, MAIN ROAD, KOLLIVALASA, BURJA, 532445",SRIKAKULAM,PALAKONDA,ANDHRA PRADESH,8331010438
72,ANDHRA PRADESH GRAMEENA VIKAS BANK,APGV0001175,PALASA,"D.NO.15752,MAIN RAOD,PALASA(MANDAL),SRIKAKULAM532221.",SRIKAKULAM,PALASA,ANDHRA PRADESH,8331010436
73,ANDHRA PRADESH GRAMEENA VIKAS BANK,APGV0001176,BHAMINI,"H.NO. 352, GRAM PANCHAYAT OFFICE ROAD, BHAMINI, BHAMINI, 532456",SRIKAKULAM,KORADA,ANDHRA PRADESH,8331010439
74,ANDHRA PRADESH GRAMEENA VIKAS BANK,APGV0001177,PONNADA,"H.NO.3108, BORA VEEDHI, PONNADA, PONNADA, 532408",SRIKAKULAM,SRIKAKULAM,ANDHRA PRADESH,8331010468
75,ANDHRA PRADESH GRAMEENA VIKAS BANK,APGV0001178,GULLA SEETHA RAMPURAM,"H. NO. 300, MAIN ROAD, SOPHA STREET, GULLA SEETHA RAMAPURAM, SANTHAKAVITI, 532123",SRIKAKULAM,RAJAM,ANDHRA PRADESH,8331010470
76,ANDHRA PRADESH GRAMEENA VIKAS BANK,APGV0001179,SM PURAM,"H. NO 196, BC COLONY, SM PURAM, SM PURAM, 532402",SRIKAKULAM,SRIKAKULAM,ANDHRA PRADESH,8331010469
77,ANDHRA PRADESH GRAMEENA VIKAS BANK,APGV0001180,SEEDHI,"H. NO 197, MARKET STREET ROAD, PEDDASEEDHI, SEEDHI, 532214",SRIKAKULAM,PATHAPATNAM,ANDHRA PRADESH,8331010467
78,ANDHRA PRADESH GRAMEENA VIKAS BANK,APGV0001181,R.AMADALAVALASA,"PLOT NO.94, POLICE STATION, REGIDI AMUDALAVALASA, VUNGARADA, 532123",SRIKAKULAM,RAJAM,ANDHRA PRADESH,8332988658
79,ANDHRA PRADESH GRAMEENA VIKAS BANK,APGV0001182,PEDDAPADU,"PEDDAPADU,SRIKAKULAM RURAL(MANDAL),SRIKAKULAM DIST 532401",SRIKAKULAM,SRIKAKULAM,ANDHRA PRADESH,8332988659
80,ANDHRA PRADESH GRAMEENA VIKAS BANK,APGV0001183,NIVAGAM,"BRANCHNIVAGAM, KOTTURU MANDAL, SRIKAKULAM DIST. A.P. PIN532457",SRIKAKULAM,KORADA,ANDHRA PRADESH,8333989035
81,ANDHRA PRADESH GRAMEENA VIKAS BANK,APGV0001184,PALLISARADHI,"BRANCH PALLISARADHI, VAJRAPUKOTTURU MANDAL, SRIKAKULAM DIST. A.P. PIN532222",SRIKAKULAM,KASIBUGGA,ANDHRA PRADESH,8333989036
82,ANDHRA PRADESH GRAMEENA VIKAS BANK,APGV0001185,KAVITI,"BRANCH KAVITI, KAVITI MANDAL, SRIKAKULAM DIST. A.P. PIN532322",SRIKAKULAM,ICHAPURAM,ANDHRA PRADESH,8333989037
83,ANDHRA PRADESH GRAMEENA VIKAS BANK,APGV0001186,TEKKALIPATNAM,"BRANCH TEKKALIPATNAM, PALASA MANDAL, SRIKAKULAM DIST.A.P. PIN532220",SRIKAKULAM,KASIBUGGA,ANDHRA PRADESH,8333989038
84,ANDHRA PRADESH GRAMEENA VIKAS BANK,APGV0001187,M.SINGAPURAM,"BRANCH M.SINGAPURAM, PALAKONDA MANDAL, SRIKAKULAM DIST. A.P. PIN532462",SRIKAKULAM,PALAKONDA,ANDHRA PRADESH,8333989039
85,ANDHRA PRADESH GRAMEENA VIKAS BANK,APGV0001188,ALIKAM,"BRANCH ALIKAM, SRIKAKULAM MANDAL, SRIKAKULAM DIST.A.P. PIN532185",SRIKAKULAM,SRIKAKULAM,ANDHRA PRADESH,8333989040
86,ANDHRA PRADESH GRAMEENA VIKAS BANK,APGV0001189,KORLAM,"BRANCH KORLAM, SOMPETA MANDAL, SRIKAKULAM DIST.A.P. PIN532264",SRIKAKULAM,SOMPETA,ANDHRA PRADESH,8333989041
87,ANDHRA PRADESH GRAMEENA VIKAS BANK,APGV0001190,HONJARAM,"BRANCH HONJARAM, SANTHAKAVITI MANDAL, SRIKAKULAM DIST. A.P. PIN532123",SRIKAKULAM,RAJAM,ANDHRA PRADESH,8333989042
88,ANDHRA PRADESH GRAMEENA VIKAS BANK,APGV0001191,TEMBURU,"BRANCH TEMBURU, PATHAPATNAM MANDAL, SRIKAKULAM DIST. A.P. PIN532203",SRIKAKULAM,PATHAPATNAM,ANDHRA PRADESH,8333989043
89,ANDHRA PRADESH GRAMEENA VIKAS BANK,APGV0001192,OLD BUS STAND,"BRANCH OLD BUS STAND AREA, SRIKAKULAM TOWN.DIST SRIKAKULAM. A.P. PIN532001",SRIKAKULAM,SRIKAKULAM,ANDHRA PRADESH,8333989044
90,ANDHRA PRADESH GRAMEENA VIKAS BANK,APGV0001193,MAMIDIPALLY,"H.NO 1521, ROAD POINT, MAMIDIPALLY, , MAMIDIPALLY, MAMIDIPALLY, 532264",SRIKAKULAM,SOMPETA,ANDHRA PRADESH,8331043831
91,ANDHRA PRADESH GRAMEENA VIKAS BANK,APGV0001194,NAUPADA,"ASSESMENT NO 913/201314, OPP POLICE STATION, , SANTHABOMMALI, SANTHABOMMALI, 532211",SRIKAKULAM,TEKKALI,ANDHRA PRADESH,8331043833
92,ANDHRA PRADESH GRAMEENA VIKAS BANK,APGV0001195,KALLEPALLI,"H.NO 22/1/A, BORAPETA, KALLEPALLI, , KALLEPALLI, KALLEPALLI, 532401",SRIKAKULAM,SRIKAKULAM,ANDHRA PRADESH,8331043830
93,ANDHRA PRADESH GRAMEENA VIKAS BANK,APGV0001196,ARASADA,"NEAR PANCHAYAT OFFICE , ARASADA VILLAGE, , ARASADA, ARASADA, 532122",SRIKAKULAM,RAJAM,ANDHRA PRADESH,8331043829
94,ANDHRA PRADESH GRAMEENA VIKAS BANK,APGV0001197,MUDDADA,"H.NO 1131, RAMA MANDIRAM VEEDHI, MUDDADA (V), , MUDDADA, MUDDADA, 532005",SRIKAKULAM,SRIKAKULAM,ANDHRA PRADESH,8331043832
95,ANDHRA PRADESH GRAMEENA VIKAS BANK,APGV0002201,BADANGI,"BADANGI 2201,VIZIANAGARAM DIST,PIN 535 578",VIZIANAGARAM,BADANGI,ANDHRA PRADESH,9490157053
96,ANDHRA PRADESH GRAMEENA VIKAS BANK,APGV0002202,DENKADA,"DENKADA 2202,VIZIANAGARAM DIST.PIN 531 202",VIZIANAGARAM,DENKADA,ANDHRA PRADESH,9490157054
97,ANDHRA PRADESH GRAMEENA VIKAS BANK,APGV0002203,ALAMANDA,"ALAMANDA 2203,VIZIANAGARAM DIST.PIN 531 240",VIZIANAGARAM,ALAMANDA,ANDHRA PRADESH,9490157055
98,ANDHRA PRADESH GRAMEENA VIKAS BANK,APGV0002204,BHADRAGIRI,"BHADRAGIRI 2204, VIZIANAGARAM DIST.PIN 532 523",VIZIANAGARAM,BHADRAGIRI,ANDHRA PRADESH,9490157056
99,ANDHRA PRADESH GRAMEENA VIKAS BANK,APGV0002205,MAKKUVA,"MAKKUVA 2205,VIZIANAGARAM DIST.PIN 532 547",VIZIANAGARAM,MAKKUVA,ANDHRA PRADESH,9490157057
100,ANDHRA PRADESH GRAMEENA VIKAS BANK,APGV0002206,GANTYADA,"GANTYADA 2206,VIZIANAGARAM DIST.PIN 531 215",VIZIANAGARAM,GANTYADA,ANDHRA PRADESH,9490157058
101,ANDHRA PRADESH GRAMEENA VIKAS BANK,APGV0002207,KOTTAVALASA,"KOTHAVALASA 2207,VIZIANAGARAM DIST.PIN 531 183",VIZIANAGARAM,KOTTAVALASA,ANDHRA PRADESH,9490157059
102,ANDHRA PRADESH GRAMEENA VIKAS BANK,APGV0002208,BONANGI,"BONANGI 2208,VIZIANAGARAM DIST,PIN 531 160",VIZIANAGARAM,SRUNGAVARAPUKOTA,ANDHRA PRADESH,9490157060
103,ANDHRA PRADESH GRAMEENA VIKAS BANK,APGV0002209,R.B.PURAM,"R.B. PURAM 2209,VIZIANAGARAM DIST.PIN 532 579",VIZIANAGARAM,R.B.PURAM,ANDHRA PRADESH,9490157061
104,ANDHRA PRADESH GRAMEENA VIKAS BANK,APGV0002210,PEDAMANAPURAM,"PEDAMANAPURAM 2210,VIZIANAGARAM DIST.PIN 532 580",VIZIANAGARAM,PEDAMANAPURAM,ANDHRA PRADESH,9490157062
105,ANDHRA PRADESH GRAMEENA VIKAS BANK,APGV0002211,GURLA,"GURLA 2211,VIZIANAGARAM DIST.PIN 531 217",VIZIANAGARAM,GURLA,ANDHRA PRADESH,9490157063
106,ANDHRA PRADESH GRAMEENA VIKAS BANK,APGV0002212,CHINTHADA,"CHINTHADA 2212,VIZIANAGARAM DIST,PIN 532 564",VIZIANAGARAM,CHINTHADA,ANDHRA PRADESH,9490157064
107,ANDHRA PRADESH GRAMEENA VIKAS BANK,APGV0002213,CHEEPURUPALLI,"CHEEPURUPALLI 2213,VIZIANAGARAM DIST.PIN 532 128",VIZIANAGARAM,CHEEPURUPALLI,ANDHRA PRADESH,9490157065
108,ANDHRA PRADESH GRAMEENA VIKAS BANK,APGV0002214,PACHIPENTA,"PACHIPENTA 2214,VIZIANAGARAM DIST.PIN 535 592",VIZIANAGARAM,PACHIPENTA,ANDHRA PRADESH,9490157066
109,ANDHRA PRADESH GRAMEENA VIKAS BANK,APGV0002215,GARUGUBELLI,"GARUGUBELLI 2215,VIZIANAGARAM DIST.PIN 535 468",VIZIANAGARAM,GARUGUBELLI,ANDHRA PRADESH,9490157067
110,ANDHRA PRADESH GRAMEENA VIKAS BANK,APGV0002216,CHINAMERANGI,"CHINAMERANGI 2216,VIZIANAGARAM DIST.PIN 532 526",VIZIANAGARAM,CHINAMERANGI,ANDHRA PRADESH,9490157068
111,ANDHRA PRADESH GRAMEENA VIKAS BANK,APGV0002217,GOVINDAPURAM,"GOVINDAPURAM 2217,VIZIANAGARAM DIST.PIN 531 239",VIZIANAGARAM,GOVINDAPURAM,ANDHRA PRADESH,9490157069
112,ANDHRA PRADESH GRAMEENA VIKAS BANK,APGV0002218,SATHIWADA,"SATHIWADA 2218,VIZIANAGARAM DIST.PIN 531 218",VIZIANAGARAM,SATHIWADA,ANDHRA PRADESH,9490157070
113,ANDHRA PRADESH GRAMEENA VIKAS BANK,APGV0002219,JAMI,"JAMI 2219,(VIA GANTYADA), VIZIANAGARAM DIST.PIN 531 250",VIZIANAGARAM,JAMI,ANDHRA PRADESH,9490157071
114,ANDHRA PRADESH GRAMEENA VIKAS BANK,APGV0002220,PARVATIPURAM,"PARVATIPURAM 2220,VIZIANAGARAM DIST.PIN 535 501",VIZIANAGARAM,PARVATIPURAM,ANDHRA PRADESH,9490157072
115,ANDHRA PRADESH GRAMEENA VIKAS BANK,APGV0002222,BOBBILI,"BOBBILI,VIZIANAGARAM DIST. 535 558",VIZIANAGARAM,BOBBILI,ANDHRA PRADESH,9490157073
116,ANDHRA PRADESH GRAMEENA VIKAS BANK,APGV0002223,VIZIANAGARAM,"VIZIANAGARAM 2223,MAIN BRANCH, M.G. ROAD,VIZIANAGARAM DIST. PIN 535 002",VIZIANAGARAM,VIZIANAGARAM,ANDHRA PRADESH,9440903924
117,ANDHRA PRADESH GRAMEENA VIKAS BANK,APGV0002224,GARBHAM,"GARBHAM 2224,VIZIANAGARAM DIST.PIN 535 102",VIZIANAGARAM,GARBHAM,ANDHRA PRADESH,9490157074
118,ANDHRA PRADESH GRAMEENA VIKAS BANK,APGV0002225,VEPADA,"VEPADA,VIZIANAGARAM DIST.PIN 535 281",VIZIANAGARAM,VEPADA,ANDHRA PRADESH,9490157075
119,ANDHRA PRADESH GRAMEENA VIKAS BANK,APGV0002226,THOTAPALLI,"THOTAPALLI 2226,VIZIANAGARAM DIST.PIN 532 525",VIZIANAGARAM,THOTAPALLI,ANDHRA PRADESH,9490157076
120,ANDHRA PRADESH GRAMEENA VIKAS BANK,APGV0002227,KOMARADA,"KOMARADA 2227,VIZIANAGARAM DIST.PIN 535 521",VIZIANAGARAM,KOMARADA,ANDHRA PRADESH,9490157077
121,ANDHRA PRADESH GRAMEENA VIKAS BANK,APGV0002229,BODDAM,"BODDAM 2229,VIA SRUNGAVARAPUKOTA, MDL. VEPADA,VIZIANAGARAM DIST. PIN 531 145",VIZIANAGARAM,SRUNGAVARAPUKOTA,ANDHRA PRADESH,9490157078
122,ANDHRA PRADESH GRAMEENA VIKAS BANK,APGV0002230,BUDATHANAPALLI,"BUDATHANAPALLI 2230, VIA GAJAPATHINAGARAM ,VIZIANAGARAM DIST. PIN 531",VIZIANAGARAM,BUDATHANAPALLI,ANDHRA PRADESH,9490157079
123,ANDHRA PRADESH GRAMEENA VIKAS BANK,APGV0002231,MENTADA,"MENTADA 2231,VIZIANAGARAM DIST.PIN 535 273",VIZIANAGARAM,GAJAPATHINAGARAM,ANDHRA PRADESH,9490157080
124,ANDHRA PRADESH GRAMEENA VIKAS BANK,APGV0002232,M.MAMIDIPALLI,"M. MAMIDIPALLI 2232,VIZIANAGARAM DIST.PIN 535 593",VIZIANAGARAM,M.MAMIDIPALLI,ANDHRA PRADESH,9490157081
125,ANDHRA PRADESH GRAMEENA VIKAS BANK,APGV0002233,BONDAPALLI,"BONDAPALLI 2233,POST & MDL BONDAPALLY,VIZIANAGARAM DIST. PIN 531 220",VIZIANAGARAM,BONDAPALLI,ANDHRA PRADESH,9490157082
126,ANDHRA PRADESH GRAMEENA VIKAS BANK,APGV0002234,PIRIDI,"PIRIDI,VIZIANAGARAM DIST.PIN 535 568",VIZIANAGARAM,PIRIDI,ANDHRA PRADESH,9490157083
127,ANDHRA PRADESH GRAMEENA VIKAS BANK,APGV0002235,KONADA,"KONADA 2235,VIZIANAGARAM DIST.PIN 531 213",VIZIANAGARAM,KONADA,ANDHRA PRADESH,9490157084
128,ANDHRA PRADESH GRAMEENA VIKAS BANK,APGV0002236,KUMILI,"KUMILI 2236,VIZIANAGARAM DIST.PIN 531 234",VIZIANAGARAM,KUMILI,ANDHRA PRADESH,9490157085
129,ANDHRA PRADESH GRAMEENA VIKAS BANK,APGV0002237,PINAPENKI,"PINAPENKI 2237,POST BADANGI, VIZIANAGARAM DIST,PIN 535 568",VIZIANAGARAM,PINAPENKI,ANDHRA PRADESH,9490157086
130,ANDHRA PRADESH GRAMEENA VIKAS BANK,APGV0002238,NELLIMARLA,"MOIDA 2238,VIZIANAGARAM DIST.PIN 535 280",VIZIANAGARAM,VIZIANAGARAM,ANDHRA PRADESH,9490157087
131,ANDHRA PRADESH GRAMEENA VIKAS BANK,APGV0002239,GARIVIDI,"GARIVIDI 2239,VIZIANAGARAM DIST.PIN 535 101",VIZIANAGARAM,GARIVIDI,ANDHRA PRADESH,9490157088
132,ANDHRA PRADESH GRAMEENA VIKAS BANK,APGV0002240,MERAKAMUDIDAM,"MERAKAMUDIDAM 2240,VIZIANAGARAM DIST.PIN 535 102",VIZIANAGARAM,MERAKAMUDIDAM,ANDHRA PRADESH,9490157089
133,ANDHRA PRADESH GRAMEENA VIKAS BANK,APGV0002241,PEDAMAJJIPALEM,"PEDAMAJJIPALEM 2241,VIZIANAGARAM DIST.PIN 531 221",VIZIANAGARAM,GANTYADA,ANDHRA PRADESH,9490157090
134,ANDHRA PRADESH GRAMEENA VIKAS BANK,APGV0002244,VEDULLAVALASA,"VEDULAVALASA 2244,VIA CHEEPURUPALLI,VIZIANAGARAM DIST. PIN 535 128",VIZIANAGARAM,VEDULLAVALASA,ANDHRA PRADESH,9490157091
135,ANDHRA PRADESH GRAMEENA VIKAS BANK,APGV0002245,LAKKAVARAPUKOTA,"LAKKAVARAPUKOTA 2245,VIZIANAGARAM DIST.PIN 531 161",VIZIANAGARAM,LAKKAVARAPUKOTA,ANDHRA PRADESH,9490157092
136,ANDHRA PRADESH GRAMEENA VIKAS BANK,APGV0002247,JIYYAMMAVALASA,"JIYYAMMAVALASA 2247,POST & MDL JIYYAMMAVALASA,VIZIANAGARAM DIST. PIN 535 526",VIZIANAGARAM,JIYYAMMAVALASA,ANDHRA PRADESH,9490157093
137,ANDHRA PRADESH GRAMEENA VIKAS BANK,APGV0002248,SRUNGAVARAPUKOTA,"SRUNGAVARAPUKOTA 2248,VIZIANAGARAM DIST.PIN 531 145S",VIZIANAGARAM,SRUNGAVARAPUKOTA,ANDHRA PRADESH,9490157094
138,ANDHRA PRADESH GRAMEENA VIKAS BANK,APGV0002249,PEDABONDAPALLI,"PEDABONDAPALLI 2249,VIZIANAGARAM DIST,PIN 532 527PEDABONDAPALLI 2249",VIZIANAGARAM,PEDABONDAPALLI,ANDHRA PRADESH,9490157095
139,ANDHRA PRADESH GRAMEENA VIKAS BANK,APGV0002252,CHINTALAVALASA,"CHINTALAVALASA 2252,APSP 5TH BATTALIAN POST, DENKADA MDL,VIZIANAGARAM DIST. PIN 535 005",VIZIANAGARAM,VIZIANAGARAM,ANDHRA PRADESH,9490157096
140,ANDHRA PRADESH GRAMEENA VIKAS BANK,APGV0002253,METTAPALLI,"METTAPALLI 2253,VIZIANAGARAM DIST.PIN 535 125",VIZIANAGARAM,METTAPALLI,ANDHRA PRADESH,9490157097
141,ANDHRA PRADESH GRAMEENA VIKAS BANK,APGV0002254,GAJAPATHINAGARAM,"GAJAPATHINAGARAM 2254,VIZIANAGARAM DIST.PIN 531 270",VIZIANAGARAM,GAJAPATHINAGARAM,ANDHRA PRADESH,9490157098
142,ANDHRA PRADESH GRAMEENA VIKAS BANK,APGV0002255,UTTARAVALLI,"UTTARAVALLI 2255,VIZIANAGARAM DIST.PIN 535 124",VIZIANAGARAM,UTTARAVALLI,ANDHRA PRADESH,9490157099
143,ANDHRA PRADESH GRAMEENA VIKAS BANK,APGV0002256,GUTCHIMI,"GUTCHIMI 2256,VIZIANAGARAM DIST.PIN 532 546",VIZIANAGARAM,GUTCHIMI,ANDHRA PRADESH,9490157100
144,ANDHRA PRADESH GRAMEENA VIKAS BANK,APGV0002257,KURUPAM,"KURUPAM 2257,VIZIANAGARAM DIST.PIN 535 524",VIZIANAGARAM,KURUPAM,ANDHRA PRADESH,9490157101
145,ANDHRA PRADESH GRAMEENA VIKAS BANK,APGV0002258,GALAVALLI,"GALAVILLI 2258, VIA UNUKURU ,VIZIANAGARAM DIST. PIN 532 122",VIZIANAGARAM,GALAVALLI,ANDHRA PRADESH,9490157102
146,ANDHRA PRADESH GRAMEENA VIKAS BANK,APGV0002259,SALUR,"SALURU 2259,VIZIANAGARAM DIST.PIN 532 591",VIZIANAGARAM,SALUR,ANDHRA PRADESH,9490157103
147,ANDHRA PRADESH GRAMEENA VIKAS BANK,APGV0002260,PORAM,"PORAM 2260, VIA GAJAPATHINAGARAM ,VIZIANAGARAM DIST. PIN 531 270",VIZIANAGARAM,PORAM,ANDHRA PRADESH,9490157104
148,ANDHRA PRADESH GRAMEENA VIKAS BANK,APGV0002261,BHOGAPURAM,"BHOGAPURAM 2261,VIZIANAGARAM DIST.PIN 535 216",VIZIANAGARAM,BHOGAPURAM,ANDHRA PRADESH,9490157105
149,ANDHRA PRADESH GRAMEENA VIKAS BANK,APGV0002262,VZM DASANNAPETA,"DASANNAPETA 2262,NEAR RYTHU BAZAR,VIZIANAGARAM DIST. PIN 535 502",VIZIANAGARAM,VIZIANAGARAM,ANDHRA PRADESH,9490157106
150,ANDHRA PRADESH GRAMEENA VIKAS BANK,APGV0002263,VZM CONTONMENT,"CONTONMENT 2263,VIZIANAGARAM DIST.PIN 535 003",VIZIANAGARAM,VIZIANAGARAM,ANDHRA PRADESH,9490153761
151,ANDHRA PRADESH GRAMEENA VIKAS BANK,APGV0002264,KOTHAPETA,"DRNO2141,PLOT NO57, VIJAYALAXMINAGAR, KOTHAPETA,VIZIANAGARAM DIST.PIN 535 002",VIZAINAGARAM,VIZIANAGARAM,ANDHRA PRADESH,9491306859
152,ANDHRA PRADESH GRAMEENA VIKAS BANK,APGV0002265,PUSAPATIREGA,"HNO4111, RAJULAVARI VEEDHI, PUSAPATIREGA,VIZIANAGARAM DIST. 535204",VIZAINAGARAM,PUSAPATIREGA,ANDHRA PRADESH,9491035475
153,ANDHRA PRADESH GRAMEENA VIKAS BANK,APGV0002266,BALAJINAGAR VZM,"HNO82412, BALIJINAGAR, OPP SATYA DEGREE COLLEGE, THOTAPALEM JN, ,VIZIANAGARAM DIST.PIN 535 003",VIZIANAGARAM,VIZIANAGARAM,ANDHRA PRADESH,9491035476
154,ANDHRA PRADESH GRAMEENA VIKAS BANK,APGV0002267,DEVUPALLE,"DEVUPALLE,DEVUPALLE VILLAGE ,BONDAPALLI (M), VIZIANAGARAM DIST.PIN 535 003",VIZIANAGARAM,GAJAPATHINAGARAM,ANDHRA PRADESH,9440903934
155,ANDHRA PRADESH GRAMEENA VIKAS BANK,APGV0002268,BALIJIPETA,"HNO2164,BALIJIPETA BRANCH,NEAR BENGAPURAM, BALIJIPETA (M),VIZIANAGARAM DIST.PIN 535557",VIZIANAGARAM,BALIJIPETA,ANDHRA PRADESH,7382632702
156,ANDHRA PRADESH GRAMEENA VIKAS BANK,APGV0002269,ARIKATHOTA,"RAMA MANDIRAM STREET,MAIN ROAD,RAMBHADRAPURAM (M), ,VIZIANAGARAM DIST.PIN 535579",VIZIANAGARAM,ARIKATHOTA,ANDHRA PRADESH,7382632703
157,ANDHRA PRADESH GRAMEENA VIKAS BANK,APGV0002270,PALAKONDA ROAD,"H. NO. 17174, PALAKONDA ROAD, NEAR OLD BUSSTAND, PARVATHIPURAM, PARVATIPURAM, 535501",VIZIANAGARAM,PALAKONDA ROAD,ANDHRA PRADESH,8331011456
158,ANDHRA PRADESH GRAMEENA VIKAS BANK,APGV0002271,TERLAM,"DOOR NO. 389, TANA JUNCTION, TERLAM, THERLAM, 535126",VIZIANAGARAM,TERLAM,ANDHRA PRADESH,8331011458
159,ANDHRA PRADESH GRAMEENA VIKAS BANK,APGV0002272,PANCHALI,"H.NO 484, MAIN ROAD, PANCHALI, PANCHALI, 535591",VIZIANAGARAM,PANCHALI,ANDHRA PRADESH,8331010451
160,ANDHRA PRADESH GRAMEENA VIKAS BANK,APGV0002273,FORT BOBBILI,"DOOR NO 13200, HEAD POST OFFICE ROAD, RAMA TALKIES CENTRE, BOBBILI, BOBBILI, 535558",VIZIANAGARAM,FORT BOBBILI,ANDHRA PRADESH,8331010450
161,ANDHRA PRADESH GRAMEENA VIKAS BANK,APGV0002274,CHINABHOGILA,"H.NO312/A,MAIN ROAD, SEETANAGARAM MANDAL, VZM DISTT ",535546,VIZIANAGARAM,CHINABHOGILA,0
162,ANDHRA PRADESH GRAMEENA VIKAS BANK,APGV0002275,JARAJAPUPETA,"ASSESSMENT NO 859, C/O.M.SANYASI RAO (TEACHER), NEAR RICE MILL, NELLIMARLA MANDAL, VZM DISTT ",535217,VIZIANAGARAM,JARAJAPUPETA,0
163,ANDHRA PRADESH GRAMEENA VIKAS BANK,APGV0002276,MAIN ROAD SALUR,"DOOR NO 34 15 A, KANYAKAPARAMESHWARI TEMPLE, MAIN ROAD, MAIN ROAD, SALUR, SALUR, 535591",VIZIANAGARAM,MAIN ROAD SALUR,ANDHRA PRADESH,8331010449
164,ANDHRA PRADESH GRAMEENA VIKAS BANK,APGV0002277,KUMARAM,"H. NO. 180, MAIN ROAD, KUMARAM, SS KORUKONDA, 535214",VIZIANAGARAM,KUMARAM,ANDHRA PRADESH,8331010477
165,ANDHRA PRADESH GRAMEENA VIKAS BANK,APGV0002278,DHARMAPURI R,"H. NO 202336, 2ND LANE, PADMAVATHINAGAR, DHARMAPURI, VIZIANAGARAM, 535002",VIZIANAGARAM,VIZIANAGARAM,ANDHRA PRADESH,8331011393
166,ANDHRA PRADESH GRAMEENA VIKAS BANK,APGV0002279,JAGANNADHAPURAM JONNAVALASA,"JAGANNADAPURAM - JONNAVALASA,VIZAINAGARAM MANDAL ,VIZIANAGARAM DIST 535004",VIZIANAGARAM,VIZIANAGARAM,ANDHRA PRADESH,8332988663
167,ANDHRA PRADESH GRAMEENA VIKAS BANK,APGV0002280,DHARMAVARAM,"H. NO. 121021/3, CHINNA VEEDHI, DHARMAVARAM, DHARMAVARAM, 535148",VIZIANAGARAM,SRUNGAVARAPUKOTA,ANDHRA PRADESH,8332988664
168,ANDHRA PRADESH GRAMEENA VIKAS BANK,APGV0002281,PEDAVEMALI,"BRANCH PEDAVEMALI, MANDAL GANTYADA, ,DISTRICT VIZIANAGARAM. A.P. PIN535215",VIZIANAGARAM,PEDAVEMALI,ANDHRA PRADESH,8333989032
169,ANDHRA PRADESH GRAMEENA VIKAS BANK,APGV0002282,SAMBARA,"BRANCH SAMBARA, MANDAL MAKKUVA, ,DISTRICT VIZIANAGARAM. A.P. PIN535593",VIZIANAGARAM,SAMBARA,ANDHRA PRADESH,8333989033
170,ANDHRA PRADESH GRAMEENA VIKAS BANK,APGV0002283,KOTHA AGRAHARAM,"BRANCH KOTHA AGRAHARAM,TOWN VIZIANAGARAM1, ,DISTRICT VIZIANAGARAM. A.P. PIN535001",VIZIANAGARAM,VIZIANAGARAM,ANDHRA PRADESH,8333989034
171,ANDHRA PRADESH GRAMEENA VIKAS BANK,APGV0002284,RAMATHEERTHAM,"D.NO.320, BRAHMIN STREET, RAMATHIRTHAM(VI), NELLIMARLA(MANDAL), VIZIANAGARAM DIST. ANDHRAPRADESH PIN535218",VIZIANAGARAM,RAMATHEERTHAM,ANDHRA PRADESH,8332040928
172,ANDHRA PRADESH GRAMEENA VIKAS BANK,APGV0002285,VIZIANAGARAM  K L PURAM,"D.NO.1117/4, MAIN ROAD, K.L.PURAM, VIZIANAGARAM ANDHRAPRADESH PIN535001",VIZIANAGARAM,VIZIANAGARAM,ANDHRA PRADESH,8332040913
173,ANDHRA PRADESH GRAMEENA VIKAS BANK,APGV0002286,VIZIANAGARAM  V T AGRAHARAM,"D.NO.818884, GANESH NAGAR, V.T.AGRAHARAM, VIZIANAGARAM 535004",VIZIANAGARAM,VIZIANAGARAM,ANDHRA PRADESH,8332040704
174,ANDHRA PRADESH GRAMEENA VIKAS BANK,APGV0002287,PAKKI,"MILK PRODUCERS CO-OPERATIVE SOCIETY BUILDING,PAKKI(VILLAGE & POST), BOBBILLI MANDAL",VIZIANAGARAM,PAKKI,ANDHRA PRADESH,9490001392
175,ANDHRA PRADESH GRAMEENA VIKAS BANK,APGV0002288,PAUL NAGAR,"PLOT NO. 1, VSN COLONY, OLD ANDHRA BANK (DUPPADA) PREMISES, PAUL NAGAR, VIZIANAGARAM - 535003",VIZIANAGARAM,PAUL NAGAR,ANDHRA PRADESH,8332969752
176,ANDHRA PRADESH GRAMEENA VIKAS BANK,APGV0002289,KONDAKARAKAM,"PLOT NO. 2890, C/O THOTA RAMESH, YSR NAGAR, KONDAKARAKAM, VIZIANAGARAM DISTRICT, PIN-535005",VIZIANAGARAM,KONDAKARAKAM,ANDHRA PRADESH,8332969752
177,ANDHRA PRADESH GRAMEENA VIKAS BANK,APGV0003301,KANCHARAPALEM,"KANCHARAPALEM 3301,VISAKAPATNAM DIST.PIN 530 008",VISAKHAPATNAM,VISAKHAPATNAM,ANDHRA PRADESH,9440903923
178,ANDHRA PRADESH GRAMEENA VIKAS BANK,APGV0003302,PADERU,"PADERU 3302,VISAKAPATNAM DIST. 531 024",VISAKHAPATNAM,PADERU,ANDHRA PRADESH,9490157107
179,ANDHRA PRADESH GRAMEENA VIKAS BANK,APGV0003304,ARAKUVALEY,"ARAKU VALLEY 3304,VISAKAPATNAM DIST. 531 045",VISAKHAPATNAM,ARAKUVALEY,ANDHRA PRADESH,9490157108
180,ANDHRA PRADESH GRAMEENA VIKAS BANK,APGV0003305,PARAWADA,"PARAWADA,VSP DIST.531 021",VISAKHAPATNAM,ANAKAPALLE,ANDHRA PRADESH,9440908386
181,ANDHRA PRADESH GRAMEENA VIKAS BANK,APGV0003306,CHITTIVALASA,"CHITTIVALASA ,VSP DIST.531 162",VISAKHAPATNAM,VISAKHAPATNAM,ANDHRA PRADESH,9490157109
182,ANDHRA PRADESH GRAMEENA VIKAS BANK,APGV0003307,TALLAPALEM,THALLAPALEM VISAKAPATNAM DIST.PIN 531 037,VISAKHAPATNAM,ANAKAPALLE,ANDHRA PRADESH,9490157110
183,ANDHRA PRADESH GRAMEENA VIKAS BANK,APGV0003308,K.KOTAPADU,"K. KOTAPADU,VSP DIST. 531 034",VISAKHAPATNAM,CHODAVARAM,ANDHRA PRADESH,9490157111
184,ANDHRA PRADESH GRAMEENA VIKAS BANK,APGV0003309,GADICHERLA,"GODICHERLA,VSP DIST. 531 126",VISAKHAPATNAM,PAYAKARAOPET,ANDHRA PRADESH,9490157112
185,ANDHRA PRADESH GRAMEENA VIKAS BANK,APGV0003310,MADUGULA,"DNO57182,NEAR GIRIJAN CORPORATION,JAYALAXMI SHOPPING COMPLEX,MADUGULA,VSP DIST.PIN 531 027",VISAKHAPATNAM,CHODAVARAM,ANDHRA PRADESH,9490157113
186,ANDHRA PRADESH GRAMEENA VIKAS BANK,APGV0003311,RAVIKAMATAM,"A.P. GRAMEENA VIKASBANK DRNO3143/6,RAVIKAMATAM,VISAKAPATNAM DIST. 531 025",VISAKHAPATNAM,NARSIPATNAM,ANDHRA PRADESH,9490157114
187,ANDHRA PRADESH GRAMEENA VIKAS BANK,APGV0003312,SONTYAM,"SONTYAM 3312,VISAKAPATNAM DIST.PIN 531 173",VISAKHAPATNAM,VISAKHAPATNAM,ANDHRA PRADESH,9490157115
188,ANDHRA PRADESH GRAMEENA VIKAS BANK,APGV0003314,PEDAGUMMULURU,"DRNO34,DEVI PLAZA,PEDAGUMMULURU, VISAKAPATNAM DIST.PIN 531 083",VISAKHAPATNAM,PAYAKARAOPET,ANDHRA PRADESH,9490157116
189,ANDHRA PRADESH GRAMEENA VIKAS BANK,APGV0003315,KOYYURU,"P.O.&VILLAGE KOYYURU,NARSIPATNAM TALUK",VISAKHAPATNAM,NARSIPATNAM,ANDHRA PRADESH,9490157117
190,ANDHRA PRADESH GRAMEENA VIKAS BANK,APGV0003316,THUMMAPALA,"THUMMAPALA 3316,VISAKAPATNAM DIST.PIN 531 032",VISAKHAPATNAM,ANAKAPALLE,ANDHRA PRADESH,9490157118
191,ANDHRA PRADESH GRAMEENA VIKAS BANK,APGV0003317,SIRASAPALLI,"SIRASAPALLI PANCHAYAT & BRANCH,ANAKAPALLE TALUK",VISAKHAPATNAM,ANAKAPALLE,ANDHRA PRADESH,9490157119
192,ANDHRA PRADESH GRAMEENA VIKAS BANK,APGV0003318,NATHAVARAM,"DRNO276,MAIN RAOD,NATHAVARAM 3318,POST & MDL NATHAVARAM,VISAKAPATNAM DIST. PIN 531 115",VISAKHAPATNAM,NARSIPATNAM,ANDHRA PRADESH,9490157120
193,ANDHRA PRADESH GRAMEENA VIKAS BANK,APGV0003319,G.MADUGULA,"DR NO11,BEHIND SAIBABA TEMPLE,NEAR POLICE STATION,G. MADUGULA 3319,VISAKAPATNAM DIST.PIN 531 029",VISAKHAPATNAM,PADERU,ANDHRA PRADESH,9490157121
194,ANDHRA PRADESH GRAMEENA VIKAS BANK,APGV0003320,HARIPALEM,"HARIPALEM 3320,VISAKAPATNAM DIST.PIN 531 033",VISAKHAPATNAM,ANAKAPALLE,ANDHRA PRADESH,9490157122
195,ANDHRA PRADESH GRAMEENA VIKAS BANK,APGV0003321,K.J.PURAM,"K.J. PURAM 3321,VISAKAPATNAM DIST.PIN 531 028",VISAKHAPATNAM,CHODAVARAM,ANDHRA PRADESH,9490157123
196,ANDHRA PRADESH GRAMEENA VIKAS BANK,APGV0003322,MADHURAWADA,"MADHURAWADA 3322,VISAKAPATNAM DIST.PIN 530 041",VISAKHAPATNAM,VISAKHAPATNAM,ANDHRA PRADESH,9490153757
197,ANDHRA PRADESH GRAMEENA VIKAS BANK,APGV0003323,VEMULAPUDI,"VEMULAPUDI 3323,VISAKAPATNAM DIST.PIN 531 117",VISAKHAPATNAM,NARSIPATNAM,ANDHRA PRADESH,9490157124
198,ANDHRA PRADESH GRAMEENA VIKAS BANK,APGV0003324,K.AGRAHARAM,"K. AGRAHARAM 3324,VISAKAPATNAM DIST.PIN 531 120",VISAKHAPATNAM,NARSIPATNAM,ANDHRA PRADESH,9490157125
199,ANDHRA PRADESH GRAMEENA VIKAS BANK,APGV0003325,V.R.R.PETA,"K. AGRAHARAM 3324,VISAKAPATNAM DIST.PIN 531 120",VISAKHAPATNAM,CHODAVARAM,ANDHRA PRADESH,9490157126
200,ANDHRA PRADESH GRAMEENA VIKAS BANK,APGV0003326,BHOGAPURAM,"BHOGAPURAM 3326,POST DHARAPALEM,VISAKAPATNAM DIST. PIN 531 216",VISAKHAPATNAM,YELLAMANCHILI,ANDHRA PRADESH,9490157127
201,ANDHRA PRADESH GRAMEENA VIKAS BANK,APGV0003327,DABAGARDENS,"DABA GARDENS 3327,DR NO30725/2,SARASWATHI PARK JUNCTION,INCOMETAX OFFICE ROAD,VISAKAPATNAM DIST. PIN 530 020",VISAKHAPATNAM,VISAKHAPATNAM,ANDHRA PRADESH,9440908385
202,ANDHRA PRADESH GRAMEENA VIKAS BANK,APGV0003328,CHINAGANTYADA,"CHINAGANTYADA, GAJUWAKA, TEH.VISAKHAPATNAM, , , P.O.PENDURTI,",VISAKHAPATNAM,VISAKHAPATNAM,ANDHRA PRADESH,9490157128
203,ANDHRA PRADESH GRAMEENA VIKAS BANK,APGV0003329,GAVARAVARAM,"GAVARAVARAM ,VISAKAPATNAM DIST.PIN 531 075",VISAKHAPATNAM,CHODAVARAM,ANDHRA PRADESH,9490157129
204,ANDHRA PRADESH GRAMEENA VIKAS BANK,APGV0003330,ROLUGUNTA,"DNO53,WARDNO8,ROLUGUNTA 3330,POST & MDL. ROLUGUNTA,VISAKAPATNAM DIST. PIN 531 114",VISAKHAPATNAM,NARSIPATNAM,ANDHRA PRADESH,9490157130
205,ANDHRA PRADESH GRAMEENA VIKAS BANK,APGV0003331,LANKELAPALEM,"LANKELAPALEM 3331,VISAKAPATNAM DIST.PIN 531 021",VISAKHAPATNAM,VISAKHAPATNAM,ANDHRA PRADESH,9490157131
206,ANDHRA PRADESH GRAMEENA VIKAS BANK,APGV0003332,K.D.PETA,"K.D. PETA 3332,VISAKAPATNAM DIST.PIN 531 084",VISAKHAPATNAM,NARSIPATNAM,ANDHRA PRADESH,9490157132
207,ANDHRA PRADESH GRAMEENA VIKAS BANK,APGV0003333,CHOWDUWADA,"CHOWDUWADA 3333,VISAKAPATNAM DIST,PIN 531 034",VISAKHAPATNAM,CHODAVARAM,ANDHRA PRADESH,9490157133
208,ANDHRA PRADESH GRAMEENA VIKAS BANK,APGV0003334,BHEEMUNIPATNAM,"BHEEMUNIPATNAM 3334,VISAKAPATNAM DIST.PIN 531 163",VISAKHAPATNAM,VISAKHAPATNAM,ANDHRA PRADESH,9490157134
209,ANDHRA PRADESH GRAMEENA VIKAS BANK,APGV0003335,CHINAMUSHIDIVADA,"CHINAMUSHIDIWADA 3335,VISAKAPATNAM DIST.PIN 531 173",VISAKHAPATNAM,VISAKHAPATNAM,ANDHRA PRADESH,9490157135
210,ANDHRA PRADESH GRAMEENA VIKAS BANK,APGV0003336,SABBAVARAM,"SABBAVARAM 3336,VISAKAPATNAM DIST.PIN 531 035",VISAKHAPATNAM,ANAKAPALLE,ANDHRA PRADESH,9490157136
211,ANDHRA PRADESH GRAMEENA VIKAS BANK,APGV0003337,NARSIPATNAM,"NARSIPATNAM 3337,VISAKAPATNAM DIST.PIN 531 116",VISAKHAPATNAM,NARSIPATNAM,ANDHRA PRADESH,9440903925
212,ANDHRA PRADESH GRAMEENA VIKAS BANK,APGV0003338,YELLAMANCHILI,"DRNO3482, MAINROAD,YELAMANCHILI 3338,VISAKAPATNAM DIST.PIN 531 055",VISAKHAPATNAM,YELLAMANCHILI,ANDHRA PRADESH,9490157137
213,ANDHRA PRADESH GRAMEENA VIKAS BANK,APGV0003339,CHINTHAPALLI,"CHINTHAPALLI 3339,VISAKAPATNAM DIST.PIN 531 111",VISAKHAPATNAM,NARSIPATNAM,ANDHRA PRADESH,9490157138
214,ANDHRA PRADESH GRAMEENA VIKAS BANK,APGV0003340,KURMANNAPALEM,"KURMANNAPALEM 3340,VISAKAPATNAM DIST.PIN 530 046",VISAKHAPATNAM,VISAKHAPATNAM,ANDHRA PRADESH,9490157139
215,ANDHRA PRADESH GRAMEENA VIKAS BANK,APGV0003341,VEMULAVALASA,"OPP BAJAJ SHOWROOM,BYPASS ROAD,VEMULAVALASA VILLAGE,ANANDAPURAM M ,VISAKAPATNAM DIST.PIN 531 163",VISAKHAPATNAM,VISAKHAPATNAM,ANDHRA PRADESH,9490157140
216,ANDHRA PRADESH GRAMEENA VIKAS BANK,APGV0003342,PAYAKARAOPETA,"PAYAKARAOPETA 3342,VISAKAPATNAM DIST.PIN 531 126",VISAKHAPATNAM,PAYAKARAOPETA,ANDHRA PRADESH,9490157141
217,ANDHRA PRADESH GRAMEENA VIKAS BANK,APGV0003343,ANAKAPALLE,"ANAKAPALLE 3343,VISAKAPATNAM DIST.PIN 531 001",VISAKHAPATNAM,ANAKAPALLE,ANDHRA PRADESH,9490157142
218,ANDHRA PRADESH GRAMEENA VIKAS BANK,APGV0003344,PEDABAYALU,"PEDABAYALU 3344,VISAKAPATNAM DIST.PIN 531 040",VISAKHAPATNAM,PADERU,ANDHRA PRADESH,9490157143
219,ANDHRA PRADESH GRAMEENA VIKAS BANK,APGV0003346,GUNUPUDI,"DEVARAPALLI 3346,VISAKAPATNAM DIST. PIN 531 030",VISAKHAPATNAM,PAYAKARAOPET,ANDHRA PRADESH,9491035493
220,ANDHRA PRADESH GRAMEENA VIKAS BANK,APGV0003347,DEVARAPALLI,"DEVARAPALLI 3347,VISAKAPATNAM DIST.PIN 531 035",VISAKHAPATNAM,CHODAVARAM,ANDHRA PRADESH,9490157145
221,ANDHRA PRADESH GRAMEENA VIKAS BANK,APGV0003348,SATYAVARAM,"SATYAVARAM 3348,VISAKAPATNAM DIST.PIN 531 035",VISAKHAPATNAM,PAYAKARAOPET,ANDHRA PRADESH,9490157146
222,ANDHRA PRADESH GRAMEENA VIKAS BANK,APGV0003349,CHODAVARAM,"HNO 1919,P.S.PETA ROAD,CHODAVARAM,VISAKAPATNAM DIST.PIN 531 036",VISAKHAPATNAM,CHODAVARAM,ANDHRA PRADESH,9490157147
223,ANDHRA PRADESH GRAMEENA VIKAS BANK,APGV0003350,SEETAMMADARA,"HNO50512/1, NORTH EXTENSION, SEETHAMMADHARA, P&T COLONY (VM), 530013",VISAKHAPATNAM,VISAKHAPATNAM,ANDHRA PRADESH,9490157148
224,ANDHRA PRADESH GRAMEENA VIKAS BANK,APGV0003351,ALLIPURAM,"313295,DABAGARDENS,VISAKHAPATNAM P.O.ALLIPURAM,",VISAKHAPATNAM,VISAKHAPATNAM,ANDHRA PRADESH,9490157149
225,ANDHRA PRADESH GRAMEENA VIKAS BANK,APGV0003354,BAJI JUN,"OPP TO POSTOFFICE,GOPALAPATNAM,BAJI JUNCTION 3354,VISAKAPATNAM DIST.PIN 530 027",VISAKHAPATNAM,VISAKHAPATNAM,ANDHRA PRADESH,9490157150
226,ANDHRA PRADESH GRAMEENA VIKAS BANK,APGV0003355,SRIHARIPURAM,"SRIHARIPURAM 3355,POST MALKAPURAM,VISAKAPATNAM DIST. PIN 530 011",VISAKHAPATNAM,VISAKHAPATNAM,ANDHRA PRADESH,9490157151
227,ANDHRA PRADESH GRAMEENA VIKAS BANK,APGV0003357,BUCHAIAHPETA,"DRNO 19,VIA VADDADI,BUTCHAIAH PETA(M),BUTCHAIAHPETA,VSP DIST. PIN 531026",VISAKHAPATNAM,CHODAVARAM,ANDHRA PRADESH,8333982569
228,ANDHRA PRADESH GRAMEENA VIKAS BANK,APGV0003358,KOTAVURUTLA,"KOTAURATLA 3358,SAINAGAR, KOTAURATLA(MDL),DIST. VISAKHAPATNAM. PIN 531085",VISAKHAPATNAM,NARSIPATNAM,ANDHRA PRADESH,9490157154
229,ANDHRA PRADESH GRAMEENA VIKAS BANK,APGV0003359,PADMANABHAM,"PADMANABHAM 3359,PADMANABHAM (MANDAL),DIST. VISAKHAPATNAM. PIN 531219",VISAKHAPATNAM,VISAKHAPATNAM,ANDHRA PRADESH,9490157158
230,ANDHRA PRADESH GRAMEENA VIKAS BANK,APGV0003360,ARILOVA,"ARILOVA 3360, 131504/1, 1ST FLOOR, SECII, ARILOVA,DIST VISAKHAPATNAM PIN 530 040",VISAKHAPATNAM,VISAKHAPATNAM,ANDHRA PRADESH,9490157156
231,ANDHRA PRADESH GRAMEENA VIKAS BANK,APGV0003361,CHEEDIKADA,"CHEEDIKADA 3361,OPP. OLD HIGH SCHOOL, CHEEDIKADA,VISAKHAPATNAM DIST. PIN 531 028",VISAKHAPATNAM,CHODAVARAM,ANDHRA PRADESH,9490157152
232,ANDHRA PRADESH GRAMEENA VIKAS BANK,APGV0003362,MURALI NAGAR,"D.NO.39151, MADHAVADHARA, VISAKHAPATNAM, MURALINAGAR, 530007",VISAKHAPATNAM,VISAKHAPATNAM,ANDHRA PRADESH,9490157157
233,ANDHRA PRADESH GRAMEENA VIKAS BANK,APGV0003363,ADIVIVARAM,"ADIVIVARAM 3363, 777, ADIVIVARAM,VSP DIST. PIN 530 028",VISAKHAPATNAM,VISAKHAPATNAM,ANDHRA PRADESH,9490157155
234,ANDHRA PRADESH GRAMEENA VIKAS BANK,APGV0003364,KASIMKOTA,"KASIMKOTA,H.NO. 3139, KASIMKOTA,VISAKHAPATNAM DIST. PIN 531 031",VISAKHAPATNAM,ANAKAPALLE,ANDHRA PRADESH,9491035486
235,ANDHRA PRADESH GRAMEENA VIKAS BANK,APGV0003365,S.RAYAVARAM,"HOUSE OF D. RAMAKRISHNA RAJU, MAIN ROAD, S.RAYAVARAM, S.RAYAVARAM, 531060",VISAKHAPATNAM,YELLAMANCHILI,ANDHRA PRADESH,9490157153
236,ANDHRA PRADESH GRAMEENA VIKAS BANK,APGV0003366,M.JAGANNATHAPURAM,"HNO362, BHIMINIVARI VEEDHI, MELUPAKA JAGANNADHAPURAM, JAGANNADHAPURAM, 531055",VISAKHAPATNAM,ANAKAPALLE,ANDHRA PRADESH,9493174768
237,ANDHRA PRADESH GRAMEENA VIKAS BANK,APGV0003367,VEMPADU,"OPP ELIMENTARY SCHOOL,NAKKAPALLI MANDAL.VISHAKAPATNAM.531081",VISAKHAPATNAM,PAYAKARAOPET,ANDHRA PRADESH,7382632700
238,ANDHRA PRADESH GRAMEENA VIKAS BANK,APGV0003368,PEDDABODDEPALLI,"HNO11275, MAIN ROAD, PEDABODDEPALLI, NARSIPATNAM, 531116",VISAKHAPATNAM,NARSIPATNAM,ANDHRA PRADESH,7382632701
239,ANDHRA PRADESH GRAMEENA VIKAS BANK,APGV0003369,KOTHAKOTA,"DOOR NO. 956, SIVALAYAM STREET, KOTHAKOTA, KOTHAKOTA, 531114",VISAKHAPATNAM,NARSIPATNAM,ANDHRA PRADESH,8331010441
240,ANDHRA PRADESH GRAMEENA VIKAS BANK,APGV0003370,PADARACHAPALLI,"SURVEY NO. 34, MAIN ROAD, PEDA RACHAPALLI JUNCTION, RACHAPALLI, 531113",VISAKHAPATNAM,NARSIPATNAM,ANDHRA PRADESH,8331010442
241,ANDHRA PRADESH GRAMEENA VIKAS BANK,APGV0003371,ATCHUTAPURAM,"DOOR NO. 3255/G SSV SHOPPING COMPLEX, ELAMANCHILI ROAD, ATCHUTAPURAM, ATCHUTAPURAM, 531011",VISAKHAPATNAM,ANAKAPALLE,ANDHRA PRADESH,8331010445
242,ANDHRA PRADESH GRAMEENA VIKAS BANK,APGV0003372,GOVADA,"ABOVE MILK CENTER, NEAR HANUMAN TEMPLE, AMBHERPURAM, GOVADA POST, CHODAVARAM MANDAL, VSP DISTT ",531203,VISAKHAPATNAM,CHODAVARAM,0
243,ANDHRA PRADESH GRAMEENA VIKAS BANK,APGV0003373,KOTHUR JUNCTION,"763/1, A.M.A.L. COLLEGE JUNCTION, BYPASS ROAD, KOTTUR, ANAKAPALLE 532001",VISAKHAPATNAM,ANAKAPALLE,ANDHRA PRADESH,8331010446
244,ANDHRA PRADESH GRAMEENA VIKAS BANK,APGV0003374,NARSINGIBILLI,"OPP. TO ZILLA PARISHAD HIGH SCHOOL, JATTAPUREDDY TUNI, NARSINGIBILLI BRANCH OFFICE, YELLAMANCHILI SUB OFFICE, VSP DIST 531055",VISAKHAPATNAM,YELLAMANCHILI,ANDHRA PRADESH,8331010447
245,ANDHRA PRADESH GRAMEENA VIKAS BANK,APGV0003375,MUNCHINI PUTTU,"QUARTER NO.1, ITDA QUARTERS, MAIN ROAD, MUNCHINGPUTTU, MUNCHINGPUTTU, 531040",VISAKHAPATNAM,PADERU,ANDHRA PRADESH,8331010475
246,ANDHRA PRADESH GRAMEENA VIKAS BANK,APGV0003376,SARE PALLI,"SARE PALLI,PENDURTHI(MANDAL),VISAKHAPATNAM DIST 531173",VISAKHAPATNAM,VISAKHAPATNAM,ANDHRA PRADESH,9490157144
247,ANDHRA PRADESH GRAMEENA VIKAS BANK,APGV0003377,ANANDAPURAM,"ANANDA PURAM,K. KOTAPADU MANDAL(MANDAL),VISAKHAPATNAM DIST 531034",VISAKHAPATNAM,CHODAVARAM,ANDHRA PRADESH,8331010471
248,ANDHRA PRADESH GRAMEENA VIKAS BANK,APGV0003378,NAKKAPALLE,"NAKKAPALLE,NAKKAPALLE(MANDAL),VISAKHAPATNAM DIST 531081",VISAKHAPATNAM,PAYAKARAOPET,ANDHRA PRADESH,8331010476
249,ANDHRA PRADESH GRAMEENA VIKAS BANK,APGV0003379,TALLAVALASA,"H. NO. 891, RAJULA VEEDHI, BESIDE HIGH WAY, TALLAVALASA, TALLAVALASA, 531162",VISAKHAPATNAM,VISAKHAPATNAM,ANDHRA PRADESH,8331010474
250,ANDHRA PRADESH GRAMEENA VIKAS BANK,APGV0003380,NEHRU CHOWK ANAKAPALLI,"ANAKAPALLI 2ND BRANCH,ANAKAPALLI(MANDAL),VISAKHAPATNAM DIST 531001",VISAKHAPATNAM,ANAKAPALLE,ANDHRA PRADESH,8331010472
251,ANDHRA PRADESH GRAMEENA VIKAS BANK,APGV0003381,RAJUGARI BEEDU PAYAKARAOPET,"RAJUGARI BEEDU, PAYAKARAOPETA,PAYAKARAOPETA(MANDAL),VISAKHAPATNAM DIST 531126",VISAKHAPATNAM,PAYAKARAOPET,ANDHRA PRADESH,8331010473
252,ANDHRA PRADESH GRAMEENA VIKAS BANK,APGV0003382,AKKAYYAPALEM,"AKKAYYAPALEM, VISAKHAPATNAM (MANDAL),VISAKHAPATNAM DIST 530013",VISAKHAPATNAM,VISAKHAPATNAM,ANDHRA PRADESH,8332988660
253,ANDHRA PRADESH GRAMEENA VIKAS BANK,APGV0003383,MVP COLONY,"MVP COLONY, VISAKHAPATNAM (MANDAL),VISAKHAPATNAM DIST 530013",VISAKHAPATNAM,VISAKHAPATNAM,ANDHRA PRADESH,8332988661
254,ANDHRA PRADESH GRAMEENA VIKAS BANK,APGV0003384,RAMNAGAR,"D.NO.10366/1, DHANUSH GUEST HOUSE ROAD, VISHAKHAPATNAM, VISHAKHAPATNAM, 530003",VISAKHAPATNAM,VISAKHAPATNAM,ANDHRA PRADESH,8332988662
255,ANDHRA PRADESH GRAMEENA VIKAS BANK,APGV0003385,NATHAYYAPALEM,"BRANCH NATHAYYAPALEM, NEAR VISAKHA DIARY PLANT, GVMC LIMITS, CITY VISAKHAPATNAM,DISTRICT VISAKHAPATNAM.A.P. PIN530016",VISAKHAPATNAM,VISAKHAPATNAM,ANDHRA PRADESH,8333989021
256,ANDHRA PRADESH GRAMEENA VIKAS BANK,APGV0003386,NARAVA,"BRANCH NARAVA, NEAR BAJI JUNCTION, ,GVMC LIMITS, ,CITY VISAKHAPATNAM,DISTRICT VISAKHAPATNAM.A.P. PIN530027",VISAKHAPATNAM,VISAKHAPATNAM,ANDHRA PRADESH,8333989022
257,ANDHRA PRADESH GRAMEENA VIKAS BANK,APGV0003387,SEETHAMPETA V,"BRANCH SEETHAMPETA, NEAR DWARAKANAGAR, ,GVMC LIMITS, ,CITY VISAKHAPATNAM,DISTRICT VISAKHAPATNAM. A.P. PIN530016",VISAKHAPATNAM,VISAKHAPATNAM,ANDHRA PRADESH,8333989023
258,ANDHRA PRADESH GRAMEENA VIKAS BANK,APGV0003388,CHINNA WALTAIR,"BRANCH CHINNA WALTAIR, NEAR LAWSONS BAY COLONY, ,GVMC LIMITS, ,CITY VISAKHAPATNAM,DISTRICT VISAKHAPATNAM. A.P. PIN530017",VISAKHAPATNAM,VISAKHAPATNAM,ANDHRA PRADESH,8333989024
259,ANDHRA PRADESH GRAMEENA VIKAS BANK,APGV0003389,H.B.COLONY VSP,"BRANCH H.B.COLONY, NEAR VENKOJIPALEM, ,GVMC LIMITS, ,CITY VISAKHAPATNAM,DISTRICT VISAKHAPATNAM. A.P. PIN530022",VISAKHAPATNAM,VISAKHAPATNAM,ANDHRA PRADESH,8333989025
260,ANDHRA PRADESH GRAMEENA VIKAS BANK,APGV0003390,P.M.PALEM,"BRANCH P.M.PALEM, NEAR MADHURAWADA, ,GVMC LIMITS, ,CITY VISAKHAPATNAM,DISTRICT VISAKHAPATNAM.A.P. PIN530041",VISAKHAPATNAM,VISAKHAPATNAM,ANDHRA PRADESH,8333989026
261,ANDHRA PRADESH GRAMEENA VIKAS BANK,APGV0003391,VISHALAKSHI NAGAR,"BRANCH VISHALAKSHI NAGAR, NEAR HANUMANTHAWAKA, ,GVMC LIMITS, ,CITY VISAKHAPATNAM,DISTRICT VISAKHAPATNAM. A.P. PIN530007",VISAKHAPATNAM,VISAKHAPATNAM,ANDHRA PRADESH,8333989027
262,ANDHRA PRADESH GRAMEENA VIKAS BANK,APGV0003392,TOWN KOTHA ROAD,"BRANCH TOWN KOTHA ROAD, NEAR POORNA MARKET, ,GVMC LIMITS, ,CITY VISAKHAPATNAM, ,DISTRICT VISAKHAPATNAM. AP. PIN530001",VISAKHAPATNAM,VISAKHAPATNAM,ANDHRA PRADESH,8333989028
263,ANDHRA PRADESH GRAMEENA VIKAS BANK,APGV0003393,PEDAGANTYADA,"BRANCH PEDAGANTYADA, NEAR PARAWADA, ,GVMC LIMITS, ,CITY VISAKHAPATNAM,DISTRICT VISAKHAPATNAM. AP. PIN 530044",VISAKHAPATNAM,VISAKHAPATNAM,ANDHRA PRADESH,8333989029
264,ANDHRA PRADESH GRAMEENA VIKAS BANK,APGV0003394,PAMULAVAKA,"BRANCH PAMULAVAKA, NEAR VEMULAPUDI, MANDAL KOTAVARUTLA,DISTRICT VISAKHAPATNAM. A.P. PIN531117",VISAKHAPATNAM,NARSIPATNAM,ANDHRA PRADESH,8333989030
265,ANDHRA PRADESH GRAMEENA VIKAS BANK,APGV0003395,KAILASAPURAM,"KAILASAPURAM, BRANCH NEAR SALAGRAMAPURAM, ,GVMC LIMITS, ,CITY VISAKHAPATNAM,DISTRICT VISAKHAPATNAM. A.P. PIN 530024",VISAKHAPATNAM,VISAKHAPATNAM,ANDHRA PRADESH,8333989031
266,ANDHRA PRADESH GRAMEENA VIKAS BANK,APGV0003396,KOMMADI,"ANDHRA UNIVERSITY TEACHERS LAYOUT, MIG18, NE, , KOMMADI, KOMMADI, 530048",VISAKHAPATNAM,VISAKHAPATNAM,ANDHRA PRADESH,8331043837
267,ANDHRA PRADESH GRAMEENA VIKAS BANK,APGV0003397,SAGARNAGAR,"H.NOHIGLI35, SAGAR NAGAR, VUDA COLONY, , SAGAR NAGAR, VUDA COLONY SAGAR NAGAR, 530045",VISAKHAPATNAM,VISAKHAPATNAM,ANDHRA PRADESH,8331043843
268,ANDHRA PRADESH GRAMEENA VIKAS BANK,APGV0003398,YENDADA,"H.NO.14/1/3, PLOT NO.62, VARAHAGIRI NAGAR NEAR NH5 ROAD, YENDADA, YENDADA, 530045",VISAKHAPATNAM,VISAKHAPATNAM,ANDHRA PRADESH,8331043845
269,ANDHRA PRADESH GRAMEENA VIKAS BANK,APGV0003399,SUJATHANAGAR,"NEW BUILDING, SUJATHA NAGAR, BESIDE STATE BAN, , PENDURTHY, PENDURTHY, 531173",VISAKHAPATNAM,VISAKHAPATNAM,ANDHRA PRADESH,8331043844
270,ANDHRA PRADESH GRAMEENA VIKAS BANK,APGV0003400,MADDILAPALEM,"H.NO.5327, P&T COLONY, MADDILAPALEM, , MADDILAPALEM, MADDILAPALEM, 530013",VISAKHAPATNAM,VISAKHAPATNAM,ANDHRA PRADESH,8331043839
271,ANDHRA PRADESH GRAMEENA VIKAS BANK,APGV0003401,MAHARANIPETA,"H.NO.143733,KRISHNA NAGAR, NEAR VIJAYA MEDI, , MAHARANIPETA, KRISHNA NAGAR, 530002",VISAKHAPATNAM,VISAKHAPATNAM,ANDHRA PRADESH,8331043840
272,ANDHRA PRADESH GRAMEENA VIKAS BANK,APGV0003402,RAILWAY NEW COLONY,"H.NO.442734, R.K TOWERS, BESIDE SHIVALAYAM , RAILWAY NEW COLONY, RAILWAY NEW COLONY, 530016",VISAKHAPATNAM,VISAKHAPATNAM,ANDHRA PRADESH,8331043842
273,ANDHRA PRADESH GRAMEENA VIKAS BANK,APGV0003403,R.K.BEACH,"H.NO .22/39/25, KANCHARA STREET, BEACH ROAD, , R.K.BEACH, VISHAKHAPATNAM, 530001",VISAKHAPATNAM,VISAKHAPATNAM,ANDHRA PRADESH,8331043841
274,ANDHRA PRADESH GRAMEENA VIKAS BANK,APGV0004101,KHAMMAM,"KHAMMAM 4101,MANDAL KHAMMAM,DIST KHAMMAM. PIN 507 001",KHAMMAM,KHAMMAM,TELANGANA,9440903935
275,ANDHRA PRADESH GRAMEENA VIKAS BANK,APGV0004102,BONAKAL,"BONAKAL 4102,MANDAL BONAKAL,DIST KHAMMAM. PIN 507 204",KHAMMAM,MADHIRA,TELANGANA,9490157159
276,ANDHRA PRADESH GRAMEENA VIKAS BANK,APGV0004103,PENUBALLI,"PENUBALLI,MANDAL PENUBALLI,DIST KHAMMAM. 507 302",KHAMMAM,SATHUPALLY,TELANGANA,9490157160
277,ANDHRA PRADESH GRAMEENA VIKAS BANK,APGV0004104,NAGULAVANCHA,"NAGULAVANCHA 4104,MANDAL CHINTAKANI,DIST KMM. 507 208",KHAMMAM,KHAMMAM,TELANGANA,9490157161
278,ANDHRA PRADESH GRAMEENA VIKAS BANK,APGV0004105,YERRUPALEM,"YERRUPALEM 4105,MANDALYERRUPALEM,DIST KHAMMAM. PIN 507 201",KHAMMAM,MADHIRA,TELANGANA,9490157162
279,ANDHRA PRADESH GRAMEENA VIKAS BANK,APGV0004106,KUSUMANCHI,"KUSUMANCHI 4106,MANDAL KUSUMANCHI,DIST KHAMMAM. PIN 507 159",KHAMMAM,KUSUMANCHI,TELANGANA,9490157163
280,ANDHRA PRADESH GRAMEENA VIKAS BANK,APGV0004107,SATHUPALLY SU,"HOUSE NO 171/122,MAIN RD,SATTUPALLI,KRISTARAM,507303",KHAMMAM,SATHUPALLY,TELANGANA,9490157164
281,ANDHRA PRADESH GRAMEENA VIKAS BANK,APGV0004108,PATWARI GUDEM,"PATWARIGUDEM,MANDAL DAMMAPETA,DIST KMM 507 306",BHADRADRI KOTHAGUDEM,DAMMAPETA,TELANGANA,9490157165
282,ANDHRA PRADESH GRAMEENA VIKAS BANK,APGV0004109,KAMPELLY,"KAMEPALLI,MANDAL KAMEPALLI,DISTKHAMMAM.507122",KHAMMAM,KHAMMAM,TELANGANA,9490157166
283,ANDHRA PRADESH GRAMEENA VIKAS BANK,APGV0004110,ASWAPURAM,"ASWAPURAM ,MANDAL ASWAPURM,DIST KMM 507 116",BHADRADRI KOTHAGUDEM,BHADRACHALAM,TELANGANA,9490157167
284,ANDHRA PRADESH GRAMEENA VIKAS BANK,APGV0004111,CHINTOOR,"CHINTOOR,MANDAL CHINTUR,DIST KHAMMAM. 507 126",EAST GODAVARI,CHINTOOR,ANDHRA PRADESH,9490157168
285,ANDHRA PRADESH GRAMEENA VIKAS BANK,APGV0004112,DUMMUGUDEM,"DUMMUGUDEM,MANDAL DUMMUGUDEMDIST KHAMMAM. 507 137",BHADRADRI KOTHAGUDEM,BHADRACHALAM,TELANGANA,9490157169
286,ANDHRA PRADESH GRAMEENA VIKAS BANK,APGV0004113,A R PALLY,"ANNAPUREDDIPALLI,MANDAL CHANDRUGONDA,DIST KHAMMAM. 507 316",BHADRADRI KOTHAGUDEM,KOTHAGUDEM,TELANGANA,9490157170
287,ANDHRA PRADESH GRAMEENA VIKAS BANK,APGV0004114,VEMSOOR,"VEMSOOR ,MANDAL VEMSOOR,DIST KHAMMAM. 507 164",KHAMMAM,SATHUPALLY,TELANGANA,9490157171
288,ANDHRA PRADESH GRAMEENA VIKAS BANK,APGV0004115,PALVANCHA,"PALONCHA 4115,MANDAL PALVANCHA,DIST KHAMMAM. 507 115",BHADRADRI KOTHAGUDEM,PALVANCHA,TELANGANA,9490153738
289,ANDHRA PRADESH GRAMEENA VIKAS BANK,APGV0004117,BHADRACHALAM DTRO,"BHADRACHALAM ,MANDAL BHADRACHALAM,DIST KHAMMAM. 507 111",BHADRADRI KOTHAGUDEM,BHADRACHALAM,TELANGANA,9440908389
290,ANDHRA PRADESH GRAMEENA VIKAS BANK,APGV0004118,SEETHAPURAM,"SEETHAPURAM,MANDAL BHADRACHALAM,DIST KHAMMAM. 507 134",EAST GODAVARI,BHADRACHALAM,ANDHRA PRADESH,9490157172
291,ANDHRA PRADESH GRAMEENA VIKAS BANK,APGV0004119,BURGAMPAHAD SU,"BURGAMPAHAD,MANDAL BURGAMPAHAD,DIST KHAMMAM 507 114",BHADRADRI KOTHAGUDEM,BHADRACHALAM,TELANGANA,9490157173
292,ANDHRA PRADESH GRAMEENA VIKAS BANK,APGV0004120,ENKOOR,"ENUKOOR,MANDAL ENUKUR,DIST KHAMMAM. 507 168",KHAMMAM,ENKOOR,TELANGANA,9490157174
293,ANDHRA PRADESH GRAMEENA VIKAS BANK,APGV0004121,MADHIRA,"MADHIRA 4121,MANDAL MADHIRA,DIST KHAMMAM. PIN 507 203",KHAMMAM,MADHIRA,TELANGANA,9440908391
294,ANDHRA PRADESH GRAMEENA VIKAS BANK,APGV0004122,BAYYARAM,"BAYYARAM ,MANDAL BAYYARAM,DIST KHAMMAM. 507 211",MAHABUBABAD,MAHABUBABAD,TELANGANA,9490157175
295,ANDHRA PRADESH GRAMEENA VIKAS BANK,APGV0004123,R KOTHAGUDEM,"R. KOTHAGUDEM 4123,MANDAL CHERLA,DIST KHAMMAM. 507 140",BHADRADRI KOTHAGUDEM,BHADRACHALAM,TELANGANA,9490157176
296,ANDHRA PRADESH GRAMEENA VIKAS BANK,APGV0004124,CHANDRUGONDA,"CHANDRUGONDA 4124,MANDAL CHANDRUGONDA,DIST KHAMMAM. 507 166",BHADRADRI KOTHAGUDEM,KOTHAGUDEM,TELANGANA,9490157177
297,ANDHRA PRADESH GRAMEENA VIKAS BANK,APGV0004125,THIRUMALAYAPALEM,"TIRUMALAYAPALEM 4125,MANDAL TIRUMALAYAPALEM,DIST KHAMMAM. PIN 507 164",KHAMMAM,KHAMMAM,TELANGANA,9490157178
298,ANDHRA PRADESH GRAMEENA VIKAS BANK,APGV0004126,REBBAVRAM,"REBBAVARAM 4126,MANDAL WYRA,DIST KHAMMAM. 507 165",KHAMMAM,WYRA,TELANGANA,9490157179
299,ANDHRA PRADESH GRAMEENA VIKAS BANK,APGV0004127,VENKATAPURAM,"VENKATAPURAM 4127,MANDAL VENKATAPURAM,DISTKHAMMAM507136",BHUPALAPALLI(JAISHANKER),ETURU NAGARAM,TELANGANA,9490157180
300,ANDHRA PRADESH GRAMEENA VIKAS BANK,APGV0004128,VR PURAM,"V.R.PURAM 4128,MANDAL V.R.PURAM,DIST KHAMMAM. 507 135",EAST GODAVARI,BHADRACHALAM,ANDHRA PRADESH,9490157181
301,ANDHRA PRADESH GRAMEENA VIKAS BANK,APGV0004129,ASWARAOPET SU,"ASWARAOPETA 4129,MANDAL ASWARAOPETA,DIST KHAMMAM. 507 301",BHADRADRI KOTHAGUDEM,ASWARAOPET,TELANGANA,9440908388
302,ANDHRA PRADESH GRAMEENA VIKAS BANK,APGV0004130,TEKULAPALLY,"TEKULAPALLY 4130,MANDAL TEKULAPALLI,DIST KHAMMAM. 507 123",BHADRADRI KOTHAGUDEM,KOTHAGUDEM,TELANGANA,9490157182
303,ANDHRA PRADESH GRAMEENA VIKAS BANK,APGV0004131,SUBLAID,"SUBLAIDU 4131,MANDAL THIRUMALAYAPALEM,DIST KHAMMAM. PIN 507 164",KHAMMAM,KHAMMAM,TELANGANA,9490157183
304,ANDHRA PRADESH GRAMEENA VIKAS BANK,APGV0004132,KONIJERLA,"KONIJERLA 4132,MANDAL KONIJERLA,DIST KHAMMAM. 507 305",KHAMMAM,KHAMMAM,TELANGANA,9490157184
305,ANDHRA PRADESH GRAMEENA VIKAS BANK,APGV0004133,CH MADARAM,"CH. MADHARAM 4133,MANDAL NELAKONDAPALLY,DIST KHAMMAM. PIN 507 160",KHAMMAM,NELAKONDAPALLI,TELANGANA,9490157185
306,ANDHRA PRADESH GRAMEENA VIKAS BANK,APGV0004134,CHENNOOR,"CHENNOOR 4134,MANDAL KALLUR,DIST KHAMMAM. 507 209",KHAMMAM,KHANKHANPETA,TELANGANA,9490157186
307,ANDHRA PRADESH GRAMEENA VIKAS BANK,APGV0004135,TALLADA,"TALLADA 4135,MANDAL TALLADA,DIST KHAMMAM. 507 167",KHAMMAM,TALLADA,TELANGANA,9490157187
308,ANDHRA PRADESH GRAMEENA VIKAS BANK,APGV0004136,PANDITHAPURAM,"PANDITHAPURAM 4136,MANDAL KAMEPALLI,DIST KHAMMAM. 507 122",KHAMMAM,KHAMMAM,TELANGANA,9490157188
309,ANDHRA PRADESH GRAMEENA VIKAS BANK,APGV0004137,VELERUPADU,"VELAIRPAD 4137,MANDAL VELAIRPAD,DIST KHAMMAM. 507 121",WEST GODAVARI,ASWARAOPET,ANDHRA PRADESH,9490157189
310,ANDHRA PRADESH GRAMEENA VIKAS BANK,APGV0004139,PINAPAKA,"APAKAMANDAL APAKA,DIST KMM, 507 117",BHADRADRI KOTHAGUDEM,MANUGURU,TELANGANA,9490157190
311,ANDHRA PRADESH GRAMEENA VIKAS BANK,APGV0004140,KUNAVARAM,"KUNAVARAM ,MANDAL KUNAVARAM,DIST KHAMMAM. 507 121",EAST GODAVARI,BHADRACHALAM,ANDHRA PRADESH,9490157191
312,ANDHRA PRADESH GRAMEENA VIKAS BANK,APGV0004141,KUKUNOOR,"KUKUNUR,MANDAL KUKUNUR,DIST KHAMMAM. 507 114",WEST GODAVARI,BHADRACHALAM,ANDHRA PRADESH,9490157192
313,ANDHRA PRADESH GRAMEENA VIKAS BANK,APGV0004142,MULAKAPALLY,"MULKALAPALLI 4142,MANDAL MULKALAPALLY,DIST KHAMMAM. 507 115",BHADRADRI KOTHAGUDEM,PALVANCHA,TELANGANA,9490157193
314,ANDHRA PRADESH GRAMEENA VIKAS BANK,APGV0004143,WAZEED,"WAZEED NAGARAM,MANDAL WAZEED NAGARAM,DIST KHAMMAM. 507 136",BHUPALAPALLI(JAISHANKER),ETURU NAGARAM,TELANGANA,9490157194
315,ANDHRA PRADESH GRAMEENA VIKAS BANK,APGV0004144,BANDARU GUDEM,"BANDARUGUDEM,MANDAL MANUGURU,DIST KHAMMAM. 507 117",BHADRADRI KOTHAGUDEM,MANUGURU,TELANGANA,9490157195
316,ANDHRA PRADESH GRAMEENA VIKAS BANK,APGV0004145,B GANGARAM,"B. GANGARAM,MANDAL SATTUPALLY,DIST KHAMMAM. 507 303",KHAMMAM,SATHUPALLY,TELANGANA,9490157196
317,ANDHRA PRADESH GRAMEENA VIKAS BANK,APGV0004146,NELAKONDAPALLI,"NELAKONDAPALLI 4146,MANDAL NELAKONDAPALLI,DIST KHAMMAM. PIN 507 160",KHAMMAM,NELAKONDAPALLI,TELANGANA,9490157197
318,ANDHRA PRADESH GRAMEENA VIKAS BANK,APGV0004147,YELLANDU X ROAD,"YELLANDU X ROAD 4147,MANDAL KHAMMAM,DIST KHAMMAM. PIN 507 002",KHAMMAM,KHAMMAM,TELANGANA,9440903936
319,ANDHRA PRADESH GRAMEENA VIKAS BANK,APGV0004148,WARANGAL X ROAD,"WARANGAL X ROADS 4148,POST GANDHI CHOWK, KHAMMAM,DIST KHAMMAM. PIN 507 003",KHAMMAM,KHAMMAM,TELANGANA,9490157198
320,ANDHRA PRADESH GRAMEENA VIKAS BANK,APGV0004149,CHINTHAKANI,"CHINTAKANI 4149,MANDAL CHINTAKANI,DIST KHAMMAM. PIN 507 208",KHAMMAM,KHAMMAM,TELANGANA,9490157199
321,ANDHRA PRADESH GRAMEENA VIKAS BANK,APGV0004150,BURHANPURAM,"BURHANPURAM 4150,MANDAL KHAMMAM,DIST KHAMMAM. PIN 507 001",KHAMMAM,BURHANPURAM,TELANGANA,9440908390
322,ANDHRA PRADESH GRAMEENA VIKAS BANK,APGV0004151,PSR ROAD,"P.S.R. ROAD, KMM 4151,MANDAL KHAMMAM,DIST KHAMMAM. PIN 507 003",KHAMMAM,KHAMMAM,TELANGANA,9490153736
323,ANDHRA PRADESH GRAMEENA VIKAS BANK,APGV0004152,MUDIGONDA,"MUDIGONDA 4152,MANDAL MUDIGONDA,DIST KHAMMAM. PIN 507 158",KHAMMAM,NELAKONDAPALLI,TELANGANA,9490157200
324,ANDHRA PRADESH GRAMEENA VIKAS BANK,APGV0004153,PEDHAGOPATHY,"PEDAGOPATHY 4153,MANDAL KONIJERLA,DIST KHAMMAM. PIN 507 305",KHAMMAM,KHAMMAM,TELANGANA,9490157201
325,ANDHRA PRADESH GRAMEENA VIKAS BANK,APGV0004154,KHANKHANPETA SU,"MAIN ROAD,AT & POSTKHANKHANPET,TEHSATHUPALLY.",KHAMMAM,KHANKHANPETA,TELANGANA,9490157202
326,ANDHRA PRADESH GRAMEENA VIKAS BANK,APGV0004155,CHURCH ROAD,"CHURCH ROAD, KMM 4155,MANDAL KHAMMAM,DIST KHAMMAM. PIN 507 001",KHAMMAM,KHAMMAM,TELANGANA,9490157203
327,ANDHRA PRADESH GRAMEENA VIKAS BANK,APGV0004156,NELLIPAKA,"NELLIPAKA ,MANDAL BHADRACHALAM,DIST KHAMMAM. 507 129",EAST GODAVARI,BHADRACHALAM,ANDHRA PRADESH,9490157204
328,ANDHRA PRADESH GRAMEENA VIKAS BANK,APGV0004157,JULURPAD,"JULURPAD ,MANDAL JULURPAD,DIST KHAMMAM. 507 166",BHADRADRI KOTHAGUDEM,KOTHAGUDEM,TELANGANA,9490153737
329,ANDHRA PRADESH GRAMEENA VIKAS BANK,APGV0004158,SUJATHA NAGAR,"SUJATHANAGAR,MANDAL KOTHAGUDEM,DIST KHAMMAM. 507 120",BHADRADRI KOTHAGUDEM,KOTHAGUDEM,TELANGANA,9490157205
330,ANDHRA PRADESH GRAMEENA VIKAS BANK,APGV0004159,DAMMAPETA,"DAMMAPETA ,MANDAL DAMMAPETA,DIST KHAMMAM. 507 306",BHADRADRI KOTHAGUDEM,DAMMAPETA,TELANGANA,9490157206
331,ANDHRA PRADESH GRAMEENA VIKAS BANK,APGV0004160,YELLANDU,"H NO 51125,NEAR NEW BUS STATION,YELLANDU,507123",BHADRADRI KOTHAGUDEM,YELLANDU,TELANGANA,9490157207
332,ANDHRA PRADESH GRAMEENA VIKAS BANK,APGV0004161,PATHARLAPADU,"PATHARLAPADU 4161,MANDAL THIRUMALAYAPALEM,DIST KHAMMAM. PIN 507 164",KHAMMAM,KHAMMAM,TELANGANA,9490157208
333,ANDHRA PRADESH GRAMEENA VIKAS BANK,APGV0004162,MAMUNURU,"MAMNUR 4162,MANDALYERRUPALEM, DIST KHAMMAM. PIN 507 201",KHAMMAM,MADHIRA,TELANGANA,9490157209
334,ANDHRA PRADESH GRAMEENA VIKAS BANK,APGV0004163,B.P.AGRAHARAM WYRA  SU,"BR. AGRAHARAM 4163,MANDAL WYRA,DIST KHAMMAM. 507 165",KHAMMAM,WYRA,TELANGANA,9490157210
335,ANDHRA PRADESH GRAMEENA VIKAS BANK,APGV0004164,RAMAVARAM,"RAMAVARAM 4164,MANDAL KOTHAGUDEM,DIST KHAMMAM. 507 118",BHADRADRI KOTHAGUDEM,KOTHAGUDEM,TELANGANA,9490157211
336,ANDHRA PRADESH GRAMEENA VIKAS BANK,APGV0004165,THIMMARAOPETA,"THIMMARAOPETA 4165,MANDAL ENKUR,DIST KHAMMAM. 507 168",KHAMMAM,ENKOOR,TELANGANA,9490157212
337,ANDHRA PRADESH GRAMEENA VIKAS BANK,APGV0004166,UPPERU,"UPPERU 4166,MANDAL KUKKUNURU,DIST KHAMMAM. 507 114UPPERU 4166",WEST GODAVARI,BHADRACHALAM,ANDHRA PRADESH,9490157213
338,ANDHRA PRADESH GRAMEENA VIKAS BANK,APGV0004167,NARSAPURAM,"NARSAPURAM 4167,MANDAL DUMMUGUDEM,DIST KHAMMAM. 507 111NARSAPURAM 4167",BHADRADRI KOTHAGUDEM,BHADRACHALAM,TELANGANA,9490157214
339,ANDHRA PRADESH GRAMEENA VIKAS BANK,APGV0004168,KOTHAGUDEM,"KOTHAGUDEM 4168,MANDAL KOTHAGUDEM,DIST KHAMMAM. 507 101KOTHAGUDEM 4168",BHADRADRI KOTHAGUDEM,KOTHAGUDEM,TELANGANA,9490157215
340,ANDHRA PRADESH GRAMEENA VIKAS BANK,APGV0004169,PALAIR,"PALAIR 4169,MANDAL KUSUMANCHI,DIST KHAMMAM. PIN 507 157",KHAMMAM,KHAMMAM,TELANGANA,9490157216
341,ANDHRA PRADESH GRAMEENA VIKAS BANK,APGV0004170,KALAKOTA,"KALAKOTA 4170,MANDAL BONAKAL,DIST KHAMMAM. PIN 507 304",KHAMMAM,MADHIRA,TELANGANA,9490157217
342,ANDHRA PRADESH GRAMEENA VIKAS BANK,APGV0004171,BEERAPALLY,"BEERAPALLY 4171,MANDAL VEMSOOR,DIST KHAMMAM. 507 164BEERAPALLY 4171",KHAMMAM,SATHUPALLY,TELANGANA,9490157218
343,ANDHRA PRADESH GRAMEENA VIKAS BANK,APGV0004172,GM ROAD,"GRAIN MARKET ROAD 4172,MANDAL KHAMMAM,DIST KHAMMAM. PIN 507 003",KHAMMAM,KHAMMAM,TELANGANA,9490157219
344,ANDHRA PRADESH GRAMEENA VIKAS BANK,APGV0004173,GARLA,"GARLA 4173,GARLA (MANDAL),KHAMMAM DIST. 507210GARLA 4173",MAHABUBABAD,MAHABUBABAD,TELANGANA,9490157220
345,ANDHRA PRADESH GRAMEENA VIKAS BANK,APGV0004174,DAMMAPETA X ROAD,"DAMMAPETA X ROAD, PALVONCHA 4174,NAIK COMPLEX, PALVONCHA,DIST KHAMMAM507115",BHADRADRI KOTHAGUDEM,PALVANCHA,TELANGANA,9490157221
346,ANDHRA PRADESH GRAMEENA VIKAS BANK,APGV0004175,SARAPAKA SU,"SARAPAKA 4175,SARAPAKA, MDL BURGUMPAHAD,DIST KHAMMAM. 507128SARAPAKA 4175",BHADRADRI KOTHAGUDEM,BHADRACHALAM,TELANGANA,9490157222
347,ANDHRA PRADESH GRAMEENA VIKAS BANK,APGV0004176,RAPARTHYNAGAR,"RAPARTHINAGAR KHAMMAM 4176,RAPARTHINAGAR,DIST. KHAMMAM, 507001",KHAMMAM,KHAMMAM,TELANGANA,9490157224
348,ANDHRA PRADESH GRAMEENA VIKAS BANK,APGV0004177,SRINAGAR COLONY,"SRINAGAR COLONY KHAMMAM 4177, SRINAGAR COLONY, WYRA ROAD,DIST. KHAMMAM. PIN 507002",KHAMMAM,KHAMMAM,TELANGANA,9490157223
349,ANDHRA PRADESH GRAMEENA VIKAS BANK,APGV0004178,PRAKASH NAGAR,"4248, SRINIVAS NAGAR, KHAMMAM. MANDAL KHAMMAM DIST KHAMMAM 507 003",KHAMMAM,KHAMMAM,TELANGANA,9490157452
350,ANDHRA PRADESH GRAMEENA VIKAS BANK,APGV0004179,BANJARA COLONY,"NEAR PETROL BUNK,WYRA ROAD,MADHIRA,KHAMMAM507203",KHAMMAM,MADHIRA,TELANGANA,9490145995
351,ANDHRA PRADESH GRAMEENA VIKAS BANK,APGV0004180,VINAYAKAPURAM,"H.NO. 23, BHADRACHALAM ROAD, VINAYAKAPURAM, VINAYAKAPURAM, 507301",BHADRADRI KOTHAGUDEM,ASWARAOPET,TELANGANA,7382620363
352,ANDHRA PRADESH GRAMEENA VIKAS BANK,APGV0004181,BUGGAPADU,"THE BRANCH MANAGER NAGUPALLY POST,SATHUPALLI(M) KHM( D) 507303",KHAMMAM,SATHUPALLY,TELANGANA,7382620364
353,ANDHRA PRADESH GRAMEENA VIKAS BANK,APGV0004182,PRODDUTUR,"HNO662, GRAMA PANCHAYAT OFFICE ROAD, PRODDUTURU, PRODDUTURU, 507208",KHAMMAM,KHAMMAM,TELANGANA,7382632688
354,ANDHRA PRADESH GRAMEENA VIKAS BANK,APGV0004183,MADUPALLI,"1114, MAIN ROAD, MADUPALLI, MADUPALLI, 507203",KHAMMAM,MADHIRA,TELANGANA,7382632689
355,ANDHRA PRADESH GRAMEENA VIKAS BANK,APGV0004184,VENKATESWARA COLONY BCM,"VENKATESWARA COLONY BRANCH, 9159, GOLLAGATTA ROAD, VENKATESWARA COLONY, 507111",BHADRADRI KOTHAGUDEM,BHADRACHALAM,TELANGANA,7382632686
356,ANDHRA PRADESH GRAMEENA VIKAS BANK,APGV0004185,PANDURANGAPURAM,"HNO 528/A, REHANA MEMORIAL ITC ROAD, PANDURANGAPURAM, BALLEPALLY, 507002",KHAMMAM,KHAMMAM,TELANGANA,7382632687
357,ANDHRA PRADESH GRAMEENA VIKAS BANK,APGV0004186,JAGANNADHAPURAM,"JAGANNADHAPURAM,JAGANNADHAPURAM (P.O),MULAKALAPALLI (MANDAL),KHAMMAM DISTRICT,PIN 507115",BHADRADRI KOTHAGUDEM,PALVANCHA,TELANGANA,8331011467
358,ANDHRA PRADESH GRAMEENA VIKAS BANK,APGV0004187,CHUNCHUPALLI,"CHUNCHUPALLY BRANCH,BESIDE PATTABHIRAMARAO HOSPITAL CHUNCHUPALLY, KOTHAGUDEM (MANDAL), KHAMMAM DISTRICT, PIN507101",BHADRADRI KOTHAGUDEM,KOTHAGUDEM,TELANGANA,8331011468
359,ANDHRA PRADESH GRAMEENA VIKAS BANK,APGV0004188,MORAMPALLY BANJAR,"MORAMPALLY BANJAR, H NO 137, MORAMPALLY BANJAR, BURGAMPAD(MANDAL), KHAMMAM DISTRICT, PIN507114",BHADRADRI KOTHAGUDEM,PALVANCHA,TELANGANA,8331011462
360,ANDHRA PRADESH GRAMEENA VIKAS BANK,APGV0004189,JAGADAMBA CENTRE YELLANDU,"H. NO. 419, GOVERNMENT HOSPITAL ROAD, JAGADAMBA CENTRE, YELLANDU, 507123",BHADRADRI KOTHAGUDEM,YELLANDU,TELANGANA,8331010407
361,ANDHRA PRADESH GRAMEENA VIKAS BANK,APGV0004190,LAXMIDEVIPALLYKTDM,"H. NO. 535/6, MAHESWARI THEATER ROAD, LAXMIDEVIPALLI, LAXMIDEVIPALLI, 507101",BHADRADRI KOTHAGUDEM,KOTHAGUDEM,TELANGANA,8331010406
362,ANDHRA PRADESH GRAMEENA VIKAS BANK,APGV0004191,THANIKELLA,"H.NO. 945/23, MAIN ROAD, TANIKELLA, TANIKELLA, 507305",KHAMMAM,KHAMMAM,TELANGANA,8331010409
363,ANDHRA PRADESH GRAMEENA VIKAS BANK,APGV0004192,KORRAJULAGUTTA DTRO,"H.NO. 161142, MAIN ROAD, KORRAJULAGUTTA, KORRAJULAGUTTA, BHADRACHALAM, 507111",BHADRADRI KOTHAGUDEM,BHADRACHALAM,TELANGANA,8331010453
364,ANDHRA PRADESH GRAMEENA VIKAS BANK,APGV0004193,KARAKAGUDEM PINAPAKA,"H.NO. 133/D4, MAIN ROAD, KARAKAGUDEM, KARAKAGUDEM, 507117",BHADRADRI KOTHAGUDEM,MANUGURU,TELANGANA,8331010454
365,ANDHRA PRADESH GRAMEENA VIKAS BANK,APGV0004194,KAREPALLY,"H.NO.118, MAIN ROAD, KAREPALLY, KAREPALLY, 507122",KHAMMAM,YELLANDU,TELANGANA,8331010456
366,ANDHRA PRADESH GRAMEENA VIKAS BANK,APGV0004195,CHARLA,"H. NO. 1149/1, BUSTAND ROAD, CHARLA, CHARLA, 507133",BHADRADRI KOTHAGUDEM,BHADRACHALAM,TELANGANA,8331010455
367,ANDHRA PRADESH GRAMEENA VIKAS BANK,APGV0004196,DENDUKUR,"H. NO. 294, MAIN ROAD, DENDUKURU, DENDUKURU, 507203",KHAMMAM,MADHIRA,TELANGANA,8331010457
368,ANDHRA PRADESH GRAMEENA VIKAS BANK,APGV0004197,SHANTHINAGAR WYRA SU,"H. NO. 7141, HP PETROL BUNK ROAD, SHNATHINAGAR, WYRA, 507165",KHAMMAM,WYRA,TELANGANA,8332988641
369,ANDHRA PRADESH GRAMEENA VIKAS BANK,APGV0004198,PV COLONY SAMITHISINGARAM,"H.NO.71325/3, MAIN ROAD, PV COLONY, SAMATHSINGARAM, MANUGURU, 507117",BHADRADRI KOTHAGUDEM,MANUGURU,TELANGANA,8332988642
370,ANDHRA PRADESH GRAMEENA VIKAS BANK,APGV0004199,NAVBHARAT NAGAR PALVANCHA,"H. NO. 54140, MAIN ROAD, NAVABHARATH NAGAR, PALONCHA, PALONCHA, 507115",BHADRADRI KOTHAGUDEM,PALVANCHA,TELANGANA,8332988643
371,ANDHRA PRADESH GRAMEENA VIKAS BANK,APGV0004200,MATURU,"H. NO. 283, MAIN ROAD, MATURU, MATURU, 507203",KHAMMAM,MADHIRA,TELANGANA,8332988644
372,ANDHRA PRADESH GRAMEENA VIKAS BANK,APGV0004201,AB CENTRE,"H.NO743, AMBEDKAR CENTER, RAYAPATNAM ROAD, MADHIRA DIST KHAMMAM , PINCODE 507203",KHAMMAM,MADHIRA,TELANGANA,8332988645
373,ANDHRA PRADESH GRAMEENA VIKAS BANK,APGV0004202,SIRIPURAM,"H.NO.193, MAIN ROAD, SIRIPURAM (VILLAGE), MADHIRA MANDAL, KHAMMAM DISTRICT 507304",KHAMMAM,MADHIRA,TELANGANA,8332041054
374,ANDHRA PRADESH GRAMEENA VIKAS BANK,APGV0004203,BODU,"H.NO.1144, BODU, TEKULAPALLY MANDAL, BHADRADRI KOTHAGUDEM DISTRICT TELANGANA 507124",BHADRADRI KOTHAGUDEM,KOTHAGUDEM,TELANGANA,8332041171
375,ANDHRA PRADESH GRAMEENA VIKAS BANK,APGV0004204,EDULLA BAYYARAM,"H.NO.676/11/C, MAIN ROAD EDULLA BAYYARAM ( VILLAGE) PINAPAKA MANDAL, BHADRADRI KOTHAGUDEM TELANGANA DT PIN 507117",BHADRADRI KOTHAGUDEM,MANUGURU,TELANGANA,8332041158
376,ANDHRA PRADESH GRAMEENA VIKAS BANK,APGV0004205,PEDDYREDDY GUDEM,"H.NO. 457/1 MAIN ROAD, ERRAGUNTA, CHANDRAGUNTA MANDAL, KHAMMAM DISTRICT TELANGANA 507316",KHAMMAM,KOTHAGUDEM,TELANGANA,8332041150
377,ANDHRA PRADESH GRAMEENA VIKAS BANK,APGV0004206,GOLLAPALLI,"APGVB, GOLLAPALLI POST, BOMMANAPALLI VILLAGE, TEKULAPALLY MANDAL, BHADRADEI KOTHAGUDEM DISTRICT - 507101",BHADRADRI KOTHAGUDEM,TEKULAPALLY,TELANGANA,8332969754
378,ANDHRA PRADESH GRAMEENA VIKAS BANK,APGV0004207,NAGINENIPROLU,"H.NO - 2-42/5, NEAR HANUMAN TEMPLE, NAGINENIPROLU, BURGAMPAHAD MANDAL, BHADRADRI KOTAHGUDEM - 507114",BHADRADRI KOTHAGUDEM,BURGAMPAHAD,TELANGANA,8332969754
379,ANDHRA PRADESH GRAMEENA VIKAS BANK,APGV0004208,PAPAKOLLU,"DOOR NO. 1-5, PAPAKOLLU VILLAGE, JULURPADU MANDAL, BHADRADI KOTHAGUDEM DISTRICT, TELANGANA - 507166",BHADRADRI KOTHAGUDEM,JULURPADU,TELANGANA,8332969754
380,ANDHRA PRADESH GRAMEENA VIKAS BANK,APGV0005101,AKNEPALLY,"AKENEPALLY 5101,MANDAL MOGULLAPALLY,DIST WARANGAL. PIN 506 366",BHUPALAPALLI JAISHANKER,JAMMIKUNTA,TELANGANA,9490157412
381,ANDHRA PRADESH GRAMEENA VIKAS BANK,APGV0005102,AKULAVARIGHANPUR,"AKULAVARI GHANAPUR 5102,MANDAL ETURNAGARAM,DIST WARANGAL. PIN 506 165",BHUPALAPALLI JAISHANKER,ETURU NAGARAM,TELANGANA,9490157413
382,ANDHRA PRADESH GRAMEENA VIKAS BANK,APGV0005103,AZAMNAGER,"THE BRANCH MANAGER,AZAMNAGAR 5103,MANDAL BHUPALPALLY, DIST WARANGAL. PIN 506 168",BHUPALAPALLI JAISHANKER,BHUPALPALLY,TELANGANA,9490157414
383,ANDHRA PRADESH GRAMEENA VIKAS BANK,APGV0005104,BACHANNAPET,"BACHANNAPET 5104,MANDAL BACHANNAPET, DIST WARANGAL. PIN 506 221",JANGAON,JANGAON,TELANGANA,9490157415
384,ANDHRA PRADESH GRAMEENA VIKAS BANK,APGV0005105,BALAPALA,"BALAPALA 5105,MANDAL KORIVI,DIST WARANGAL. 506 381",MAHABUBABAD,MAHABUBABAD,TELANGANA,9490157416
385,ANDHRA PRADESH GRAMEENA VIKAS BANK,APGV0005106,BHUPALPALLY,"1 ST FLOOR, NEAR ANAND THEATRE,BHUPALPALLY 5106,MANDALBHUPALPALLY,DISTWARANGAL. 506169",BHUPALAPALLI JAISHANKER,BHUPALPALLY,TELANGANA,9440908395
386,ANDHRA PRADESH GRAMEENA VIKAS BANK,APGV0005107,BUDHARAOPET,"BUDHARAOPET5107 O/O AT NARSAMPET,MANDAL NARASAMPET,DIST WGL. 506 132",WARANGAL RURAL,NARASAMPET,TELANGANA,9490157417
387,ANDHRA PRADESH GRAMEENA VIKAS BANK,APGV0005108,CHALLAGARIGE,"CHALLAGARIGE 5108,MANDAL CHITYAL,DIST WARANGAL, 506 356",BHUPALAPALLI(JAISHANKER),PARKAL,TELANGANA,9490157418
388,ANDHRA PRADESH GRAMEENA VIKAS BANK,APGV0005109,DAMERA,"DAMERA 5109,GOPALASWAMY TEMPLE,WARANGAL. 506 002",WARANGAL URBAN,HANAMKONDA,TELANGANA,9490157419
389,ANDHRA PRADESH GRAMEENA VIKAS BANK,APGV0005110,ELLANDA,"ELLANDA 5110,MANDAL WARDHANNPET,DIST WARANGAL. PIN 506 132",WARANGAL RURAL,HANAMKONDA,TELANGANA,9490157420
390,ANDHRA PRADESH GRAMEENA VIKAS BANK,APGV0005111,FORTWARANGAL,"FORT WARANGAL 5111,OPP. SUNIL THEATRE, WARANGAL. 506 002",WARANGAL URBAN,HANAMKONDA,TELANGANA,9440908392
391,ANDHRA PRADESH GRAMEENA VIKAS BANK,APGV0005112,GHANPUR STATION,"GHANPURSTATION5112,MANDAL GHANPURSTN ,DIST WGL 506 144",JANGAON,GHANPUR STATION,TELANGANA,9490157421
392,ANDHRA PRADESH GRAMEENA VIKAS BANK,APGV0005113,HANAMKONDA,"HANAMKONDA 5113,SUBEDARI, HANAMKONDA,DIST WARANGAL. PIN 506 010",WARANGAL URBAN,HANAMKONDA,TELANGANA,9440903955
393,ANDHRA PRADESH GRAMEENA VIKAS BANK,APGV0005114,JANGAON,"JANAGAON 5114,OPP.TO DSP OFFICE, JANAGAON,DIST. WARANGAL. PIN 506 167",JANGAON,JANGAON,TELANGANA,9490153768
394,ANDHRA PRADESH GRAMEENA VIKAS BANK,APGV0005115,KASHIBUGGA,"KASHIBUGGA 5115,MANDI BAZAR, WARANGAL,DIST WARANGAL. PIN 506 002",WARANGAL URBAN,HANAMKONDA,TELANGANA,9440908387
395,ANDHRA PRADESH GRAMEENA VIKAS BANK,APGV0005116,KHAZIPET,"KAZIPET 5116,NEAR POLICE STATION, KAZIPET,DIST. WARANGAL. PIN 506 003",WARANGAL URBAN,HANAMKONDA,TELANGANA,9490157422
396,ANDHRA PRADESH GRAMEENA VIKAS BANK,APGV0005117,KESAMUDRAM,"KESAMUDRAM 5117,MANDAL KESAMUDRAM,DIST WARANGAL. PIN 506 112",MAHABUBABAD,MAHABUBABAD,TELANGANA,9490157423
397,ANDHRA PRADESH GRAMEENA VIKAS BANK,APGV0005118,KOMURAVELLY,"KOMURAVELLY 5118,VIA. MARRIMUCHAL, MDL CHERIAL,DIST WARANGAL. PIN 506 355",SIDDIPET,KOMURAVELLY,TELANGANA,7382620371
398,ANDHRA PRADESH GRAMEENA VIKAS BANK,APGV0005119,KORIVI,"KORIVI 5119,VIA MAHABUBABAD,DISTWARANGAL. 506 105",MAHABUBABAD,MAHABUBABAD,TELANGANA,9490157425
399,ANDHRA PRADESH GRAMEENA VIKAS BANK,APGV0005120,KOTHAPALLY GORI,"KOTHAPALLY GORI 5120,VIA REGONDAPARKAL,MDL REGONDA,DIST WARANGAL. PIN 506 348",BHUPALAPALLI JAISHANKER,PARKAL,TELANGANA,9490157426
400,ANDHRA PRADESH GRAMEENA VIKAS BANK,APGV0005121,LINGALAGHANPUR,"LINGALA GHANAPUR 5121,VIA PEMBERTHI, MDL JANGAON,DIST WARANGAL. PIN 506 201",JANGAON,JANGAON,TELANGANA,9490157427
401,ANDHRA PRADESH GRAMEENA VIKAS BANK,APGV0005122,MAHABUBABAD,"MAHABUBABAD 5122,MANDAL MAHABUBABAD,DIST WARANGAL. PIN 506 101",MAHABUBABAD,MAHABUBABAD,TELANGANA,9440908396
402,ANDHRA PRADESH GRAMEENA VIKAS BANK,APGV0005123,MALLAMPALLY,"MALLAMPALLY 5123,MANDAL MALLAMPALY,DIST WARANGAL. PIN 506 349",BHUPALAPALLI(JAISHANKER),MULUGU,TELANGANA,9490157428
403,ANDHRA PRADESH GRAMEENA VIKAS BANK,APGV0005124,MALLUR,"MALLUR 5124,MDLKAMALAPURETURNAGARAM ,DIST WARANGAL. PIN 506 172",BHUPALAPALLI JAISHANKER,ETURU NAGARAM,TELANGANA,9490157429
404,ANDHRA PRADESH GRAMEENA VIKAS BANK,APGV0005125,MANDAPALLY,"MANDAPALLY 5125,VIA. TOGARRAI, MDL NARASAMPET,DIST WARANGAL. PIN 506 331",WARANGAL RURAL,NARSAMPET,TELANGANA,9490157430
405,ANDHRA PRADESH GRAMEENA VIKAS BANK,APGV0005126,MARIPEDA,"MARIPEDA 5126,MANDAL MARIPEDA,DIST WARANGAL. 506 315",MAHABUBABAD,MARIPEDA,TELANGANA,9490153769
406,ANDHRA PRADESH GRAMEENA VIKAS BANK,APGV0005127,MUCHERLA,"MUCHERLA 5127,MANDAL HASANPARTHY,DIST WARANGAL. PIN 506 015",WARANGAL URBAN,HANAMKONDA,TELANGANA,9490157431
407,ANDHRA PRADESH GRAMEENA VIKAS BANK,APGV0005128,MULUGU,"MULUGU 5128,MANDAL MULUGU,DIST WARANGAL. 506 343",BHUPALAPALLI(JAISHANKER),MULUGU,TELANGANA,9440908393
408,ANDHRA PRADESH GRAMEENA VIKAS BANK,APGV0005129,NALLABELLY,"NALLABALLY 5129,VIA. MALAMPALLY, MDL NALLABALLY,DIST WARANGAL. PIN 506 349",WARANGAL RURAL,MULUGU,TELANGANA,9490157432
409,ANDHRA PRADESH GRAMEENA VIKAS BANK,APGV0005130,NANCHARIMADUR,"NANCHARIMADUR 5130,VIA. PEDAVANGARA, MDL KODAKANDLA,DIST WARANGAL. PIN 506 317",MAHABUBABAD,THORRUR,TELANGANA,9490157433
410,ANDHRA PRADESH GRAMEENA VIKAS BANK,APGV0005131,NEKKONDA,"NEKKONDA 5131,MANDAL NEKKONDA,DIST WARANGAL. PIN 506 122",WARANGAL RURAL,NEKKONDA,TELANGANA,9490157434
411,ANDHRA PRADESH GRAMEENA VIKAS BANK,APGV0005132,OORUGONDA,"OORUGONDA 5132,MANDAL ATMAKUR,DIST WARANGAL, 506 342",WARANGAL RURAL,HANAMKONDA,TELANGANA,9490157435
412,ANDHRA PRADESH GRAMEENA VIKAS BANK,APGV0005133,PALAKURTHY,"PALAKURTHY 5133,VIA. IPPAGUDA, MDL PALAKURTHY,DIST WARANGAL. PIN 506 252",JANGAON,PALAKURTHY,TELANGANA,9490157436
413,ANDHRA PRADESH GRAMEENA VIKAS BANK,APGV0005134,PARKAL,"PARKAL 5134,MANDAL PARKAL,DIST WARANGAL. 506 164",WARANGAL RURAL,PARKAL,TELANGANA,9490153765
414,ANDHRA PRADESH GRAMEENA VIKAS BANK,APGV0005135,PASARA,"PASARA 5135,MANDAL MULUGU,DIST WARANGAL. 506 347",BHUPALAPALLI(JAISHANKER),MULUGU,TELANGANA,9490157437
415,ANDHRA PRADESH GRAMEENA VIKAS BANK,APGV0005136,REGONDA,"REGONDA 5136,MANDAL REGONDA,DIST WARANGAL, 506164",BHUPALAPALLI JAISHANKER,PARKAL,TELANGANA,9490153766
416,ANDHRA PRADESH GRAMEENA VIKAS BANK,APGV0005137,THARIGOPPULA,"TARIGOPULLA 5137,VIA. MUSTIAL, MANDAL CHERIAL,DIST WARANGAL. PIN 506 224",JANGAON,JANGAON,TELANGANA,9490157438
417,ANDHRA PRADESH GRAMEENA VIKAS BANK,APGV0005138,TEKUMATLA,"TEKUMATLA 5138,MANDAL CHITYAL,DIST WARANGAL. 506 356",BHUPALAPALLI(JAISHANKER),PARKAL,TELANGANA,9490157439
418,ANDHRA PRADESH GRAMEENA VIKAS BANK,APGV0005139,THORRUR,"THORRUR 5139,MANDAL THORRUR,DIST WARANGAL. 506 163",MAHABUBABAD,THORRUR,TELANGANA,9490153764
419,ANDHRA PRADESH GRAMEENA VIKAS BANK,APGV0005140,VENKATAPUR,"VENKATAPUR 5140,VIA JANGALAPALLI, MDL VENKATAPUR,DIST WARANGAL. PIN 506 352",BHUPALAPALLI JAISHANKER,MULUGU,TELANGANA,9490157440
420,ANDHRA PRADESH GRAMEENA VIKAS BANK,APGV0005141,SANGEM,"SANGEM 5141,SANGEM (MANDAL),WARANGAL DIST. PIN 506330",WARANGAL RURAL,HANAMKONDA,TELANGANA,9490157441
421,ANDHRA PRADESH GRAMEENA VIKAS BANK,APGV0005142,ENUGALLU,"H.NO.497/1 GRAMPANCHAYAT BUILDING, MAIN ROAD, ENUGALLU, ENUGALLU, 506369",WARANGAL RURAL,HANAMKONDA,TELANGANA,9490157442
422,ANDHRA PRADESH GRAMEENA VIKAS BANK,APGV0005143,ZAFFERGHAD,"ZAFFERGHAD 5143,ZAFFARGHAD (MDL),DIST. WARANGAL PIN 506316",JANGAON,GHANPUR STATION,TELANGANA,9490157443
423,ANDHRA PRADESH GRAMEENA VIKAS BANK,APGV0005144,GHANPUR MULUGU,"GHANPUR (MULUGU) 5144,GHANPUR (MULUGU) (MDL),DIST. WARANGAL PIN 506345",BHUPALAPALLI(JAISHANKER),BHUPALPALLY,TELANGANA,9490157444
424,ANDHRA PRADESH GRAMEENA VIKAS BANK,APGV0005146,RAGHUNATHPALLY,"RAGHUNADHAPALLY 5146,MAIN ROAD, RAGHUNADHAPALLY,DIST. WARANGAL. PIN 506244",JANGAON,JANGAON,TELANGANA,9490157445
425,ANDHRA PRADESH GRAMEENA VIKAS BANK,APGV0005147,HASANPARTHY,"HASANPARTHY 5147,MAIN ROAD, HASANPARTHY,DIST. WARANGAL. PIN 506371",WARANGAL URBAN,HANAMKONDA,TELANGANA,7382620372
426,ANDHRA PRADESH GRAMEENA VIKAS BANK,APGV0005148,KHANAPUR,"THE BRANCH MANAGER,KHANAPUR 5148,KHANAPUR,MANDAL ,DIST.WARANGAL. 506132",WARANGAL RURAL,NARASAMPET,TELANGANA,9490157447
427,ANDHRA PRADESH GRAMEENA VIKAS BANK,APGV0005149,CHELPUR,"CHELPUR 5149,CHELPUR, GHANPURMULUGU MDL ,DIST. WARANGAL. PIN 506168",BHUPALAPALLI JAISHANKER,BHUPALPALLY,TELANGANA,9490157448
428,ANDHRA PRADESH GRAMEENA VIKAS BANK,APGV0005150,MAMNOOR,"MAMNOOR APSP IV BATALLIAN CAMP,QR. NO. B481&482, MAMNOOR,DIST. WARANGAL. PIN 506 166",WARANGAL URBAN,HANAMKONDA,TELANGANA,9491035471
429,ANDHRA PRADESH GRAMEENA VIKAS BANK,APGV0005151,D.P.O.,"DIST. POLICE OFFICERS ASSN. BUILDING, PUBLIC GARDENS, DISTRICT POLICE OFFICE CAMPUS, HANMAKONDA, 506001",WARANGAL URBAN,HANAMKONDA,TELANGANA,9491035470
430,ANDHRA PRADESH GRAMEENA VIKAS BANK,APGV0005152,DHARMASAGAR,"DHARMASAGAR 5152,MAIN ROAD, DHARMASAGAR (MDL),WARANGAL DIST. PIN 506 142",WARANGAL URBAN,HANAMKONDA,TELANGANA,9490157449
431,ANDHRA PRADESH GRAMEENA VIKAS BANK,APGV0005153,NGOS COLONY,"HNO39999,FIRST FLOOR,WADDEPALLY PETA,100 FEET ROAD,HANUMAKONDA,WARANGAL DIST506010",WARANGAL URBAN,HANAMKONDA,TELANGANA,9491306855
432,ANDHRA PRADESH GRAMEENA VIKAS BANK,APGV0005154,RANGASAIPET,"HNO196269,MAIN ROAD SHAMBUNIPETA,RANGASAIPETA,WGL506002",WARANGAL URBAN,HANAMKONDA,TELANGANA,9491306856
433,ANDHRA PRADESH GRAMEENA VIKAS BANK,APGV0005155,JANGAON II   COURT ROAD  BR,"HNO12263/1, SIDDIPET ROAD, COURT ROAD, JANGAON, JANGAON, 506167",JANGAON,JANGAON,TELANGANA,7382620374
434,ANDHRA PRADESH GRAMEENA VIKAS BANK,APGV0005156,GUDUR,"HNO2066D, NEKKONDA ROAD,GUDUR MANDAL,WGL(D) 506134",MAHABUBABAD,NARASAMPET,TELANGANA,7382620375
435,ANDHRA PRADESH GRAMEENA VIKAS BANK,APGV0005157,MAHABUBABAD II  NSPT ROAD BR,"HNO3511&2, NARSAMPET ROAD, MAHABUBABAD, MAHABUBABAD, 506101",MAHABUBABAD,MAHABUBABAD,TELANGANA,7382620376
436,ANDHRA PRADESH GRAMEENA VIKAS BANK,APGV0005158,GAVICHERLA,"MENS COOPERATIVE SPCIETY BUILDING, MAIN ROAD, GAVICHERLA, GAVICHERLA, 506310",WARANGAL RURAL,HANAMKONDA,TELANGANA,7382620378
437,ANDHRA PRADESH GRAMEENA VIKAS BANK,APGV0005159,DORNAKAL,"OPP POST OFFICE,NEAR FISH MARKET,DORNAKALM ,DIST. WARANGAL. PIN 506381",MAHABUBABAD,MAHABUBABAD,TELANGANA,7382620390
438,ANDHRA PRADESH GRAMEENA VIKAS BANK,APGV0005160,YADAVANAGER,"OPP POST OFFICE,NEAR FISH MARKET,DORNAKAL (M), DIST. WARANGAL. PIN 506382",WARANGAL URBAN,HANAMKONDA,TELANGANA,8331011469
439,ANDHRA PRADESH GRAMEENA VIKAS BANK,APGV0005161,MADIKONDA,"HNO2256/4,MAIN ROAD,MADIKONDA,NEHRUNAGAR STREET,HANAMKONDA,WARANGAL(D) 506331",WARANGAL URBAN,HANAMKONDA,TELANGANA,8331010405
440,ANDHRA PRADESH GRAMEENA VIKAS BANK,APGV0005163,GOPALPUR,"ANDHRAPRADESHGRAMEENA VIKASBANK ,D NO 261/1, DEVRAJ COLONY, GOPALPUR VILLAGE, HANAMKONDA MANDAL,WARANGAL(D) 506015",WARANGAL URBAN,HANAMKONDA,TELANGANA,8331010402
441,ANDHRA PRADESH GRAMEENA VIKAS BANK,APGV0005164,BHEEMARAM,"H. NO. 1138, MAIN ROAD, BHEEMARAM, BHEEMARAM, 506015",WARANGAL URBAN,HANAMKONDA,TELANGANA,8331010400
442,ANDHRA PRADESH GRAMEENA VIKAS BANK,APGV0005165,CHERIAL,"H. NO. 2440/A, NETHAJI NAGAR, CHERIYAL, CHIRYAL, 506223",SIDDIPET,CHERIAL,TELANGANA,8331010403
443,ANDHRA PRADESH GRAMEENA VIKAS BANK,APGV0005166,KUMARPALLY,"H.NO. 3428/1, AMRUTHA THEATER ROAD, KUMARPALLY, HANAMKONDA, 506001",WARANGAL URBAN,HANAMKONDA,TELANGANA,8331010401
444,ANDHRA PRADESH GRAMEENA VIKAS BANK,APGV0005167,NIDIGONDA,"NIDIGONDA,RAGHUNATH PALLY(MANDAL),WARANGAL DIST 506244",JANGAON,JANGAON,TELANGANA,8332988665
445,ANDHRA PRADESH GRAMEENA VIKAS BANK,APGV0005168,MADDUR,"H.NO 981/2, MAIN ROAD, MADDUR, MADDUR, 506367",SIDDIPET,MADDUR,TELANGANA,8332988667
446,ANDHRA PRADESH GRAMEENA VIKAS BANK,APGV0005169,NEWSHAYAMPET,"H. NO. 23674, HUNTER ROAD, HUNTER ROAD, NEW SAYAMPET, HANAMKONDA, 506001",WARANGAL URBAN,HANAMKONDA,TELANGANA,8332988668
447,ANDHRA PRADESH GRAMEENA VIKAS BANK,APGV0005170,RAYAPARTHY,"H. NO. 7239/2/1, MAIN ROAD, RAIPARTHY, RAIPARTHY, 506314",WARANGAL RURAL,THORRUR,TELANGANA,8332988669
448,ANDHRA PRADESH GRAMEENA VIKAS BANK,APGV0005171,MACHAPUR,"MACHAPUR,H.NO 349,PO &VILLAGE MACHAPUR, MANDAL GEESUKONDA, DIST WARANGAL,PINCODE 506330.",WARANGAL RURAL,HANAMKONDA,TELANGANA,8332988670
449,ANDHRA PRADESH GRAMEENA VIKAS BANK,APGV0005172,DANTHALAPALLY,"H.NO.182/10/2 & 2A, MAIN ROAD, DANTHALAPALLY, DANTHALAPALLY, 506324",MAHABUBABAD,THORRUR,TELANGANA,8332988671
450,ANDHRA PRADESH GRAMEENA VIKAS BANK,APGV0005173,RAMNAGAR,"H NO 24646,IST FLOOR,ABK MALL,RAMNAGAR,HANA, , RAMNAGAR, HANAMKONDA, 506001",WARANGAL URBAN,HANAMKONDA,TELANGANA,8333923832
451,ANDHRA PRADESH GRAMEENA VIKAS BANK,APGV0005174,WARANGAL  JULYWADA,"H.NO 19547, BASITH NAGAR, JULYWADA, HANAMKONDA, WARANGAL URBANTELANGANA506001",WARANGAL URBAN,HANAMKONDA,TELANGANA,8332040677
452,ANDHRA PRADESH GRAMEENA VIKAS BANK,APGV0005175,SINGARAJPALLE,"H.NO. 622, SINGARAJUPALLY, MDEVARUPPULA, DIST JANGAON PIN 506303",JANAGAON,JANGAON,TELANGANA,8332040778
453,ANDHRA PRADESH GRAMEENA VIKAS BANK,APGV0006201,THUNGATHURTHY,"THUNGATHURTHY 6201,MANDAL THUNGATHURTHY,DIST NALGONDA. PIN 508 280",SURYAPET,SURYAPET,TELANGANA,9490157225
454,ANDHRA PRADESH GRAMEENA VIKAS BANK,APGV0006202,NALGONDA MAIN,"NALGONDA 6202,NALGONDA(M),DIST NALGONDA, 508 001",NALGONDA,NALGONDA,TELANGANA,9440903937
455,ANDHRA PRADESH GRAMEENA VIKAS BANK,APGV0006203,MOTHKUR,"MOTHUKUR,MANDAL MOTHUKUR,DIST NALGONDA. 508 277",YADADRI BHUVANAGIRI,MOTHUKURU,TELANGANA,9490157226
456,ANDHRA PRADESH GRAMEENA VIKAS BANK,APGV0006204,AD PALLY,"A.D. PALLY,MANDAL DAMERACHARLA,DIST NALGONDA. 508 207",NALGONDA,MIRYALAGUDA,TELANGANA,9490157227
457,ANDHRA PRADESH GRAMEENA VIKAS BANK,APGV0006205,PEDDAVOORA,"PEDAVOORA ,MANDAL PEDAVOORA,DIST NALGONDA. 508 243",NALGONDA,PEDAVOORA,TELANGANA,9490157228
458,ANDHRA PRADESH GRAMEENA VIKAS BANK,APGV0006206,P A PALLY,"P.A. PALLY,MANDAL P.A. PALLY,DIST NALGONDA. 508 266",NALGONDA,P.A.PALLY,TELANGANA,9490157229
459,ANDHRA PRADESH GRAMEENA VIKAS BANK,APGV0006207,GUNDLAPALLY DINDI,"GUNDLAPALLYDINDI ,MANDAL GUNDLAPALLY,DIST NALGONDA. 508 258",NALGONDA,GUNDLAPALLY,TELANGANA,9490157230
460,ANDHRA PRADESH GRAMEENA VIKAS BANK,APGV0006208,CHINTHAPALLY,"CHINTHAPALLY 6208,MANDALCHINTHAPALLY,DISTNLG.508 250",NALGONDA,CHINTAPALLY,TELANGANA,9490157231
461,ANDHRA PRADESH GRAMEENA VIKAS BANK,APGV0006209,NAMPALLY,"NAMPALLY ,POST NAMPALLY,DIST NALGONDA. 508 273",NALGONDA,NAMPALLY,TELANGANA,9490157232
462,ANDHRA PRADESH GRAMEENA VIKAS BANK,APGV0006210,MUNAGALA,"MUNAGALA 6210,MANDAL MUNAGALA,DIST NALGONDA. PIN 508 233",SURYAPET,KODAD,TELANGANA,9490157233
463,ANDHRA PRADESH GRAMEENA VIKAS BANK,APGV0006211,POCHAMPALLY,"POCHAMPALLY ,MANDAL POCHAMPALLY,DIST NALGONDA. 508 284",YADADRI BHUVANAGIRI,POCHAMPALLY,TELANGANA,9490157234
464,ANDHRA PRADESH GRAMEENA VIKAS BANK,APGV0006212,THIRUMALAGIRI,"TIRUMALAGIRI 6212,MANDAL TIRUMALAGIRI,DIST NALGONDA. PIN 508 223",SURYAPET,SURYAPET,TELANGANA,9490157235
465,ANDHRA PRADESH GRAMEENA VIKAS BANK,APGV0006213,S NARAYANPUR,"NARAYANAPURN ,MANDAL NARAYANAPUR,DIST NALGONDA. 508 253",YADADRI BHUVANAGIRI,NARAYANAPUR,TELANGANA,9490157236
466,ANDHRA PRADESH GRAMEENA VIKAS BANK,APGV0006214,DAMARACHERLA,"DAMERACHARLA ,MANDAL DAMERACHARLA,DIST NALGONDA. 508 207",NALGONDA,DAMERACHERLA,TELANGANA,9490157237
467,ANDHRA PRADESH GRAMEENA VIKAS BANK,APGV0006215,SHALIGOURARAM,"SHALIGOWRARAM 6215,MANDAL SHALIGOWRARAM,DIST NALGONDA. PIN 508 210",NALGONDA,NAKREKAL,TELANGANA,9490157238
468,ANDHRA PRADESH GRAMEENA VIKAS BANK,APGV0006216,YADAGIRIGUTTA,"YADAGIRIGUTTA ,MANDAL YADAGIRIGUTTA,DIST NALGONDA. 508 115",YADADRI BHUVANAGIRI,YADAGIRIGUTTA,TELANGANA,9490157239
469,ANDHRA PRADESH GRAMEENA VIKAS BANK,APGV0006217,VALIGONDA,"VALIGONDA ,MANDAL VAIIGONDA,DIST NALGONDA. 508 112",YADADRI BHUVANAGIRI,VALIGONDA,TELANGANA,9490157240
470,ANDHRA PRADESH GRAMEENA VIKAS BANK,APGV0006218,NARKATPALLY,"NARKETPALLY ,MANDAL NARKETPALLY,DIST NALGONDA. 508 254",NALGONDA,NARKETPALLY,TELANGANA,9490157241
471,ANDHRA PRADESH GRAMEENA VIKAS BANK,APGV0006219,MELLACHERUVU,"MELLA CHERUVU 6219,MANDAL MELLA CHERUVU,DIST NALGONDA. PIN 508 212",SURYAPET,MELLACHERUVU,TELANGANA,9490157242
472,ANDHRA PRADESH GRAMEENA VIKAS BANK,APGV0006220,THIPPARTHY,"THIPPARTHY ,MANDAL,THIPPARTHY,DIST NALGONDA.508 247",NALGONDA,TIPPARTHY,TELANGANA,9490157243
473,ANDHRA PRADESH GRAMEENA VIKAS BANK,APGV0006221,GURRAMPODE,"GURRAMPODU,MANDAL GURRAMPODU,DIST NALGONDA. 508 256",NALGONDA,GURRAMPODE,TELANGANA,9490157244
474,ANDHRA PRADESH GRAMEENA VIKAS BANK,APGV0006222,NUTHANKAL,"NUTHANAKAL 6222,MANDAL NUTHANAKAL,DIST NALGONDA. PIN 508 221",SURYAPET,SURYAPET,TELANGANA,9490157245
475,ANDHRA PRADESH GRAMEENA VIKAS BANK,APGV0006223,NAKREKAL,"NAKREKAL 6223,MANDAL NAKRERKAL,DIST NALGONDA. PIN 508 211",NALGONDA,NAKREKAL,TELANGANA,9440903938
476,ANDHRA PRADESH GRAMEENA VIKAS BANK,APGV0006224,KODADA,"KODADA 6224,MANDAL KODADA,DIST NLG 508 206",SURYAPET,KODADA,TELANGANA,9490157246
477,ANDHRA PRADESH GRAMEENA VIKAS BANK,APGV0006225,ATMAKUR,"ATMAKUR,MANDAL MOTHUKUR,DIST NALGONDA. 508 111",YADADRI BHUVANAGIRI,ATMAKUR,TELANGANA,9490157247
478,ANDHRA PRADESH GRAMEENA VIKAS BANK,APGV0006226,AGAMOTHKUR,"AGAMOTHKUR,MANDAL VEMULAPALLY,DIST NALGONDA. 508 374",NALGONDA,MIRYALAGUDA,TELANGANA,9490157248
479,ANDHRA PRADESH GRAMEENA VIKAS BANK,APGV0006227,ALERU,"ALAIRMANDAL ALAIR,DIST NALGONDA. 508 101",YADADRI BHUVANAGIRI,ALAIR,TELANGANA,9490157249
480,ANDHRA PRADESH GRAMEENA VIKAS BANK,APGV0006228,BIBINAGAR,"BIBINAGAR,MANDAL BIBINAGAR,DIST NALGONDA. 508 126",YADADRI BHUVANAGIRI,BIBINAGAR,TELANGANA,9490157250
481,ANDHRA PRADESH GRAMEENA VIKAS BANK,APGV0006229,RAJAPET,"RAJAPETA 6229,POST RAJAPETA, VIA RAGHUNATHAPUR,DIST NALGONDA. 508 105",YADADRI BHUVANAGIRI,RAJAPETA,TELANGANA,9490157251
482,ANDHRA PRADESH GRAMEENA VIKAS BANK,APGV0006230,MOTHEY,"MOTHE 6230,MANDAL MOTHE,DIST NALGONDA. PIN 508 212",SURYAPET,SURYAPET,TELANGANA,9490157252
483,ANDHRA PRADESH GRAMEENA VIKAS BANK,APGV0006231,SURYAPET,"SURYAPETA 6231,MANDAL SURYAPETA,DIST NALGONDA. PIN 508 213",SURYAPET,SURYAPET,TELANGANA,9490157253
484,ANDHRA PRADESH GRAMEENA VIKAS BANK,APGV0006232,NEREDUCHERLA,"NEREDUCHERLA 6232,MANDAL NEREDUCHARLA,DIST NALGONDA. 508 218",SURYAPET,NEREDUCHARLA,TELANGANA,9490157254
485,ANDHRA PRADESH GRAMEENA VIKAS BANK,APGV0006233,EDULURU,"EDULUR 6233,MANDAL KATTANGUR,DIST NALGONDA. 508 205",NALGONDA,KATTANGOOR,TELANGANA,9490157255
486,ANDHRA PRADESH GRAMEENA VIKAS BANK,APGV0006234,MARIYALA,"MARIYALA 6234,MANDAL BOMMALA RAMARAM,DIST NALGONDA. 508 116",YADADRI BHUVANAGIRI,BOMMALARAMARAM,TELANGANA,9490157256
487,ANDHRA PRADESH GRAMEENA VIKAS BANK,APGV0006235,AMMANBOLE,"AMMANABOLU,MANDAL NARKETPALLY,DIST NALGONDA. 508 254",NALGONDA,NARKETPALLY,TELANGANA,9490157257
488,ANDHRA PRADESH GRAMEENA VIKAS BANK,APGV0006236,NIDAMANOOR,"NIDAMANOOR,MANDAL NIDAMANOOR,DIST NALGONDA. 508 274",NALGONDA,NIDAMANOOR,TELANGANA,9490157258
489,ANDHRA PRADESH GRAMEENA VIKAS BANK,APGV0006237,DEVARAKONDA,"DEVARAKONDA ,MANDAL DEVARAKONDA,DIST NALGONDA. 508 248",NALGONDA,DEVARAKONDA,TELANGANA,9490157259
490,ANDHRA PRADESH GRAMEENA VIKAS BANK,APGV0006238,GARIDEPALLI,"GARIDEPALLI 6238,MANDAL GARIDEPALLI,DIST NALGONDA. PIN 508 207",SURYAPET,HUZURNAGAR,TELANGANA,9490157260
491,ANDHRA PRADESH GRAMEENA VIKAS BANK,APGV0006239,KANEGAL,"KANAGAL,MANDAL KANAGAL,DIST NALGONDA. 508 001",NALGONDA,KANEGAL,TELANGANA,9490157261
492,ANDHRA PRADESH GRAMEENA VIKAS BANK,APGV0006240,GUNDRAMPALLY,"GUNDRAMPALLY 6240,MANDAL CHITYALA,DIST NALGONDA. 508 114",NALGONDA,CHITYALA,TELANGANA,9490157262
493,ANDHRA PRADESH GRAMEENA VIKAS BANK,APGV0006241,VIJAYAPURI NORTH,"VIJAYAPURIN ,MANDAL NAGARJUNA SAGAR,DIST NALGONDA. 508 203",NALGONDA,PEDAVOORA,TELANGANA,9490157263
494,ANDHRA PRADESH GRAMEENA VIKAS BANK,APGV0006242,ANJANAPALLY,"ANJANAPALLY 6242,MANDAL TRIPURARAM,DISTNALGONDA508207",NALGONDA,THRIPURARAM,TELANGANA,9490157264
495,ANDHRA PRADESH GRAMEENA VIKAS BANK,APGV0006243,MIRYALAGUDA,"MIRYALAGUDA,MANDALMIRYALAGUDA,DIST,NALGONDA508207",NALGONDA,MIRYALAGUDA,TELANGANA,9490153747
496,ANDHRA PRADESH GRAMEENA VIKAS BANK,APGV0006245,RAGHUNADHAPALEM,"RAGHUNADHAPALEM 6245,MANDAL MATAMPALLI,DIST NALGONDA. PIN 508 204",SURYAPET,HUZURNAGAR,TELANGANA,9490157265
497,ANDHRA PRADESH GRAMEENA VIKAS BANK,APGV0006246,HUZURNAGAR,"HUZURNAGAR 6246,MANDAL HUZURNAGAR,DIST NALGONDA. PIN 508 204",SURYAPET,HUZURNAGAR,TELANGANA,9490157266
498,ANDHRA PRADESH GRAMEENA VIKAS BANK,APGV0006247,PENPAHAD,"PENPAHAD 6247,MANDAL PENPAHAD,DIST NALGONDA. PIN 508 214",SURYAPET,SURYAPET,TELANGANA,9490157267
499,ANDHRA PRADESH GRAMEENA VIKAS BANK,APGV0006248,PEDHAVEEDU,"PEDAVEEDU 6248,MANDAL MATAMPALLI,DIST NALGONDA. PIN 508 204",SURYAPET,HUZURNAGAR,TELANGANA,9490157268
500,ANDHRA PRADESH GRAMEENA VIKAS BANK,APGV0006249,KOYYALAGUDEM,"KOYYALAGUDEM 6249,MANDAL CHOUTUPPAL,DIST NALGONDA. 508 252",YADADRI BHUVANAGIRI,CHOUTUPPAL,TELANGANA,9490153744
501,ANDHRA PRADESH GRAMEENA VIKAS BANK,APGV0006250,MOTAKONDUR,"MOTAKONDUR 6250,POST MOTAKONDUR, VIA VANGAPALLY,DIST NALGONDA. 508 276",YADADRI BHUVANAGIRI,YADAGIRI GUTTA,TELANGANA,9490157269
502,ANDHRA PRADESH GRAMEENA VIKAS BANK,APGV0006251,BOMMALARAMARAM,"BOMMALA RAMAVARAM 6251,MANDAL RAMMANNAPETA,DIST NALGONDA. 508 126",YADADRI BHUVANAGIRI,BOMMALARAMARAM,TELANGANA,9490157270
503,ANDHRA PRADESH GRAMEENA VIKAS BANK,APGV0006252,MALL GODAKONDLA,"NAGARJUNA GRAMEENA BANK,MALL 6252,MANDAL CHANTHAPALLY,DIST NALGONDA. 508 245",NALGONDA,CHINTHAPALLY,TELANGANA,9490157271
504,ANDHRA PRADESH GRAMEENA VIKAS BANK,APGV0006253,GATTUPPAL,"GATTUPPAL 6253,MANDAL GATTUPPAL,DIST NALGONDA. 508 253",NALGONDA,CHANDURU,TELANGANA,9490157272
505,ANDHRA PRADESH GRAMEENA VIKAS BANK,APGV0006254,KETHEPALLI,"KETHEPALLI 6254,MANDAL KETHEPALLI,DIST NALGONDA. PIN 508 211",NALGONDA,SURYAPET,TELANGANA,9490157273
506,ANDHRA PRADESH GRAMEENA VIKAS BANK,APGV0006255,KATTANGUR,"KATTANGUR 6255,MANDAL KATTANGUR,DIST NALGONDA. 508 205",NALGONDA,KATTANGOOR,TELANGANA,9490157274
507,ANDHRA PRADESH GRAMEENA VIKAS BANK,APGV0006257,ARAVAPALLI,"ARVAPALLI 6257,MANDAL JAGIREDDYGUDEM,DIST NALGONDA. PIN 508 222",SURYAPET,SURYAPET,TELANGANA,9491035483
508,ANDHRA PRADESH GRAMEENA VIKAS BANK,APGV0006258,CHITYALA,"CHITYALA,MANDAL CHITYALA,DIST NALGONDA. 508 114",NALGONDA,CHITYALA,TELANGANA,9490157276
509,ANDHRA PRADESH GRAMEENA VIKAS BANK,APGV0006260,CHILKURU,"CHILUKUR 6260,MANDAL CHULUKUR,DIST NALGONDA. PIN 508 206",SURYAPET,KODAD,TELANGANA,9490157277
510,ANDHRA PRADESH GRAMEENA VIKAS BANK,APGV0006261,HALYA,"HALIA 6261,MANDAL HALIA,DIST NALGONDA. 508 202",NALGONDA,HALIYA,TELANGANA,9440908401
511,ANDHRA PRADESH GRAMEENA VIKAS BANK,APGV0006262,KONDA MALLEPALLY,"K. MALLEPALLY 6262,MANDAL DEVARAKONDA,DIST NALGONDA. 508 243",NALGONDA,DEVARAKONDA,TELANGANA,9490157278
512,ANDHRA PRADESH GRAMEENA VIKAS BANK,APGV0006263,TRIPURARAM,"TRIPURARAM 6263,MANDAL TRIPURARAM,DIST NALGONDA. 508 207",NALGONDA,TRIPURARAM,TELANGANA,9490157279
513,ANDHRA PRADESH GRAMEENA VIKAS BANK,APGV0006265,PERIKIKONDARAM,"PERIKA KONDARAM 6265,MANDAL SHALIGOWRARAM,DIST NALGONDA. PIN 508 213",NALGONDA,NAKREKAL,TELANGANA,9490157280
514,ANDHRA PRADESH GRAMEENA VIKAS BANK,APGV0006266,NEMMIKAL,"NEMMIKAL 6266,MANDAL ATMAKURS ,DIST NALGONDA. PIN 508 212",SURYAPET,SURYAPET,TELANGANA,9490157281
515,ANDHRA PRADESH GRAMEENA VIKAS BANK,APGV0006268,AIPOOR,"AIPOOR 6268,MDL ATMAKUR (S), VIA NUTHANAKAL,DT NALGONDA. PIN 508 221",SURYAPET,SURYAPET,TELANGANA,9490157282
516,ANDHRA PRADESH GRAMEENA VIKAS BANK,APGV0006269,BHONGIR,"BHONGIRI 6269,MANDAL BHONGIRI,DIST NALGONDA. 508 116",YADADRI BHUVANAGIRI,BHONAGIRI,TELANGANA,9490153743
517,ANDHRA PRADESH GRAMEENA VIKAS BANK,APGV0006270,YENDLAPALLI,"YENDLAPALLY 6270,MANDAL SURYAPET,DIST NALGONDA. PIN 508 213",SURYAPET,NAKREKAL,TELANGANA,9490157283
518,ANDHRA PRADESH GRAMEENA VIKAS BANK,APGV0006271,URLUGONDA,"URLUGONDA 6271,MANDAL MOTHE,DIST NALGONDA. PIN 508 212",SURYAPET,URLUGONDA,TELANGANA,9490157284
519,ANDHRA PRADESH GRAMEENA VIKAS BANK,APGV0006272,M.G.ROAD,"M.G. ROADNLG6272,MANDAL NALGONDA,DIST NALGONDA. 508 001",NALGONDA,NALGONDA,TELANGANA,9490157285
520,ANDHRA PRADESH GRAMEENA VIKAS BANK,APGV0006273,VT NAGAR,"V.T. NAGAR.NLG6273,MANDAL NALGONDA,DIST NALGONDA. 508 001",NALGONDA,NALGONDA,TELANGANA,9490157286
521,ANDHRA PRADESH GRAMEENA VIKAS BANK,APGV0006275,CHOUTUPPAL,"CHOUTUPPAL 6275,MANDAL CHOUTUPPAL,DIST NALGONDA. 508 252",YADADRI BHUVANAGIRI,CHOUTUPPAL,TELANGANA,9490153745
522,ANDHRA PRADESH GRAMEENA VIKAS BANK,APGV0006276,BOLLEPALLY,"BOLLEPALLY 6276,MANDAL BHONGIRI,DIST NALGONDA. 508 285",YADADRI BHUVANAGIRI,BHONAGIRI,TELANGANA,9490157287
523,ANDHRA PRADESH GRAMEENA VIKAS BANK,APGV0006277,RAMANNAPET,"RAMANNAPETA 6277,MANDAL RAMANNAPETA,DIST NALGONDA. 508 113",YADADRI BHUVANAGIRI,RAMANNAPETA,TELANGANA,9490157288
524,ANDHRA PRADESH GRAMEENA VIKAS BANK,APGV0006278,CHANDUR,"CHANDUR 6278,MANDAL CHANDUR,DIST NALGONDA. 508 255",NALGONDA,CHANDURU,TELANGANA,9490157289
525,ANDHRA PRADESH GRAMEENA VIKAS BANK,APGV0006279,MUNUGODE,"MUNUGODE 6279,MANDAL MUNUGODE,DIST NALGONDA. 508 244",NALGONDA,MUNUGODU,TELANGANA,9490157290
526,ANDHRA PRADESH GRAMEENA VIKAS BANK,APGV0006280,KMM X ROAD,"KMM X ROADS, KODADA 6280,MANDAL KODADA,DIST NALGONDA. PIN 508 206",SURYAPET,KODAD,TELANGANA,9490153746
527,ANDHRA PRADESH GRAMEENA VIKAS BANK,APGV0006281,PSR CENTRE,"PSR CENTRE, SURYAPET 6281,MANDAL SURYAPET,DIST NALGONDA. PIN 508 213",SURYAPET,SURYAPET,TELANGANA,9490157291
528,ANDHRA PRADESH GRAMEENA VIKAS BANK,APGV0006282,H.B.COLONY,"H.B. COLONY.MLG6282,MANDAL MIRYALAGUDA,DIST NALGONDA. 508 207",NALGONDA,MIRYALAGUDA,TELANGANA,9490157292
529,ANDHRA PRADESH GRAMEENA VIKAS BANK,APGV0006283,JD PUR X ROAD,"JAGDEVPUR X ROAD, BHONAGIRI 6283,PAHADI NAGAR, BHONGIR (MDL),DIST NALGONDA. 508116",YADADRI BHUVANAGIRI,BHONAGIRI,TELANGANA,9490157295
530,ANDHRA PRADESH GRAMEENA VIKAS BANK,APGV0006284,KONDAMADUGU,"KONDAMADUGU 6284,MANDAL BIBINAGAR,DIST NALGONDA. 508126",YADADRI BHUVANAGIRI,BIBINAGAR,TELANGANA,9490157296
531,ANDHRA PRADESH GRAMEENA VIKAS BANK,APGV0006285,MARRIGUDA,"MARRIGUDA 6285,MARRIGUDA (POST&MANDAL),DIST NALGONDA. 508245",NALGONDA,MARRIGUDA,TELANGANA,9490157294
532,ANDHRA PRADESH GRAMEENA VIKAS BANK,APGV0006286,VEMULAPALLY,"VEMULAPALLY 6286,VEMULAPALLI (POST& MANDAL),DT NALGONDA. 508217",NALGONDA,VEMULAPALLY,TELANGANA,9490157293
533,ANDHRA PRADESH GRAMEENA VIKAS BANK,APGV0006287,CHERLAPALLY,"HNO1135, MAIN ROAD, CHERLAPALLI, CHERLAPALLI, 508001",NALGONDA,NALGONDA,TELANGANA,9493174767
534,ANDHRA PRADESH GRAMEENA VIKAS BANK,APGV0006288,THURKAPALLI,"GRAMAPANCHAYATH BUILDING, MAIN ROAD, TURKAPALLI, TURKAPALLI, 508116",YADADRI BHUVANAGIRI,THURAKAPALLI,TELANGANA,9491035485
535,ANDHRA PRADESH GRAMEENA VIKAS BANK,APGV0006289,AKKENAPALLY,"HNO54/1, MAIN ROAD, AKKENEPALLY, AKKINEPALLY, 508254",NALGONDA,NARKETPALLY,TELANGANA,7382632692
536,ANDHRA PRADESH GRAMEENA VIKAS BANK,APGV0006290,PASNUR,"HNO152, MAIN ROAD, PASNUR, PASNOOR, 508373",NALGONDA,NAMPALLY,TELANGANA,7382632693
537,ANDHRA PRADESH GRAMEENA VIKAS BANK,APGV0006291,DINDI X ROAD,"H NO203, DINDI X ROAD, DEVARAKONDA, DEVARAKONDA, 508248",NALGONDA,DEVARAKONDA,TELANGANA,7382632694
538,ANDHRA PRADESH GRAMEENA VIKAS BANK,APGV0006292,KUDA KUDA ROAD,"H. NO. 11511/A, MAIN ROAD, SRI SRI NAGAR, SURYAPET, SURYAPET, 508213",SURYAPET,SURYAPET,TELANGANA,8331011461
539,ANDHRA PRADESH GRAMEENA VIKAS BANK,APGV0006293,NALLABANDLA GUDEM,"ANDHRAPRADESH GRAMEENA VIKAS BANK,NALLABANDLAGUDEM,KODADMANDAL ,NALGONDADISTRICT ,PIN 508206",SURYAPET,KODAD,TELANGANA,8331011460
540,ANDHRA PRADESH GRAMEENA VIKAS BANK,APGV0006294,VENKIRYALA,"H. NO.48/2, MAIN ROAD, VENKIRYALA, INKRIYALA, 508126",YADADRI BHUVANAGIRI,BIBINAGAR,TELANGANA,8331010415
541,ANDHRA PRADESH GRAMEENA VIKAS BANK,APGV0006295,RAMAPURAM,"H.NO.118, BODDURAI BAZAR, RAMAPURAM, RAMAPURAM, 508246",SURYAPET,KODAD,TELANGANA,8331010410
542,ANDHRA PRADESH GRAMEENA VIKAS BANK,APGV0006296,KKG ROAD,"D.NO. 12/18A/1, SUB REGISTRAR OFFICE, KATAKOMMUGUDEM ROAD, KODAD, KODAD, 508206",SURYAPET,KODAD,TELANGANA,8331010408
543,ANDHRA PRADESH GRAMEENA VIKAS BANK,APGV0006297,ANGADIPETA,"SURVEY NO. 1238, MAIN ROAD, ANGADIPETA, PEDAADISARLAPALLY, 508243",NALGONDA,P.A PALLY,TELANGANA,8331010416
544,ANDHRA PRADESH GRAMEENA VIKAS BANK,APGV0006298,NADIGUDEM,"ANDHRAPRADESH GRAMEENAVIKAS BANK,NADIGUDEM(M),NALGONDA(D) 508234",SURYAPET,KODAD,TELANGANA,8331010412
545,ANDHRA PRADESH GRAMEENA VIKAS BANK,APGV0006299,MADUGULAPALLY,"H. NO. 148/1, MAIN ROAD, MADUGULAPALLY, THIPPARTHI, 508247",NALGONDA,THIPPARTHY,TELANGANA,8331010414
546,ANDHRA PRADESH GRAMEENA VIKAS BANK,APGV0006300,TP ROAD NAKEREKAL,"DOOR.NO. 127/2, THIPPARTHY ROAD, NAKREKAL, NAKREKAL, 508211",NALGONDA,NAKREKAL,TELANGANA,8331010411
547,ANDHRA PRADESH GRAMEENA VIKAS BANK,APGV0006301,VELIMINEDU,"H.NO. 913, MAIN ROAD, VELIMINEDU, VELIMINEDU, 508114",NALGONDA,CHITYALA,TELANGANA,8331010417
548,ANDHRA PRADESH GRAMEENA VIKAS BANK,APGV0006302,VANGAPALLY,"H.NO. 134/3, TEMPLE ROAD, VANGAPALLY, YADAGIRIGUTTA, 508115",YADADRI BHUVANAGIRI,YADAGIRI GUTTA,TELANGANA,8331010418
549,ANDHRA PRADESH GRAMEENA VIKAS BANK,APGV0006303,HANUMANPET,"H. NO. 181711, SAGAR ROAD, HANUMANPET, MIRYALAGUDA, 508207",NALGONDA,MIRYALAGUDA,TELANGANA,8331010419
550,ANDHRA PRADESH GRAMEENA VIKAS BANK,APGV0006304,GUNDALA NLG,"SY. NO. 908, MAIN ROAD, GUNDALA, GUNDALA, 508277",JANGAON,JANGAON,TELANGANA,8331010413
551,ANDHRA PRADESH GRAMEENA VIKAS BANK,APGV0006305,JULUR,"JULUR,BHUDAN POCHAM PALLI(MANDAL),NALGONDA DIST 508284",YADADRI BHUVANAGIRI,POCHAMPALLY,TELANGANA,8331010461
552,ANDHRA PRADESH GRAMEENA VIKAS BANK,APGV0006306,KOTHAPALLY,"H.NO 4122/4, ALWAL X ROAD, KOTHAPALLY, ALWAL, 508377",NALGONDA,HALIYA,TELANGANA,8331010463
553,ANDHRA PRADESH GRAMEENA VIKAS BANK,APGV0006307,CHEEKATIMAMIDI,"CHEEKATIMAMIDI,BOMMALA RAMARAM(MANDAL),NALGONDA DIST 508 126",YADADRI BHUVANAGIRI,BOMMALARAMARAM,TELANGANA,8331010462
554,ANDHRA PRADESH GRAMEENA VIKAS BANK,APGV0006308,DONDAPADU,"H. NO 5100, MAIN ROAD, DONDAPADU, DONDAPADU, 508246",SURYAPET,MELLACHERUVU,TELANGANA,8331010458
555,ANDHRA PRADESH GRAMEENA VIKAS BANK,APGV0006309,MAMILLAGUDEM,"H.NO.281/26/A, MAIN ROAD, MAMILLAGUDEM, MAMILLAGUDEM, 508212",SURYAPET,SURYAPET,TELANGANA,8332988646
556,ANDHRA PRADESH GRAMEENA VIKAS BANK,APGV0006310,SURVAIL,"H. NO. 4162, MAIN ROAD, SARVAIL, SURVAIL, 508253",YADADRI BHUVANAGIRI,NARAYANAPURAM,TELANGANA,8332988653
557,ANDHRA PRADESH GRAMEENA VIKAS BANK,APGV0006311,BHEEMARAM,"H. NO. 449, MAIN ROAD, BHEEMAVARAM, BHEEMAVARAM, 508374",NALGONDA,SURYAPET,TELANGANA,8332988647
558,ANDHRA PRADESH GRAMEENA VIKAS BANK,APGV0006312,BTS COLONY,"H.NO. 512705/2/1, MIRYALAGUDA ROAD, BTS COLONY, NALGONDA, 508001",NALGONDA,NALGONDA,TELANGANA,8332988654
559,ANDHRA PRADESH GRAMEENA VIKAS BANK,APGV0006313,SAVARKAR NAGAR,"H. NO. 798, PANAGAL ROAD, SRIRAMNAGAR COLONY, SAVARKAR NAGAR, NALGONDA, 506001",NALGONDA,NALGONDA,TELANGANA,8332988655
560,ANDHRA PRADESH GRAMEENA VIKAS BANK,APGV0006314,MUNUGODE X ROAD,"H. NO. 411572/1, DEVARAKONDA ROAD, MUNUGODE X ROADS, NALGONDA, NAGLONDA, 508001",NALGONDA,NALGONDA,TELANGANA,8332988656
561,ANDHRA PRADESH GRAMEENA VIKAS BANK,APGV0006315,GP CENTRE HUZURNAGAR,"H. NO 1142, MAIN ROAD, GANDHI PARK CENTRE, HUZURNAGAR, HUZURNAGAR, 508204",SURYAPET,HUZURNAGAR,TELANGANA,8332988648
562,ANDHRA PRADESH GRAMEENA VIKAS BANK,APGV0006316,MALKAPUR,"H. NO. 286, MAIN ROAD, MALKAPUR, MALKAPUR, 508252",YADADRI BHUVANAGIRI,CHOUTUPPAL,TELANGANA,8332988657
563,ANDHRA PRADESH GRAMEENA VIKAS BANK,APGV0006317,LENKALAPALLY,"H.NO. 241, LENKALAPALLY, , LENKALAPALLY, LENKALAPALLY, 508245",NALGONDA,MARRIGUDA,TELANGANA,8331043828
564,ANDHRA PRADESH GRAMEENA VIKAS BANK,APGV0006318,GOKARAM,"H.NO. 428/2, POCHAMPALLY ROAD, GOKARAM(V), , VALIGONDA, VALIGONDA, 508252",YADADRI BHUVANAGIRI,VALIGONDA,TELANGANA,8333923833
565,ANDHRA PRADESH GRAMEENA VIKAS BANK,APGV0006319,NARAMMAGUDEM,"H.NO. 370, NARAMMAGUDEM(V), , NIDAMANUR, NIDAMANUR, 508278",NALGONDA,NIDAMANOOR,TELANGANA,8333923834
566,ANDHRA PRADESH GRAMEENA VIKAS BANK,APGV0006320,KANNEKAL,"H.NO 1194, R/O KANNEKAL, VIA MADGULAPALLY, NIDMANUR MANDAL, NALGONDA DISTRICT 508374",NALGONDA,THIPPARTHY,TELANGANA,8332040951
567,ANDHRA PRADESH GRAMEENA VIKAS BANK,APGV0006321,ADDAGUDURU,"HNO 890,R/O ADDAGUDURU,ADDAGUDURU MANDAL, YADADRI BHONGIR DISTRICT 508277",YADADRI BHUVANAGIRI,MOTHUKURU,TELANGANA,8332040916
568,ANDHRA PRADESH GRAMEENA VIKAS BANK,APGV0006322,VELIDANDA,"H.NO.517, NEAR BUS STAND, VELIDANDA (VILLAGE), GARIDEPALLI MANDAL, SURYAPETA DISTRICT, TELANGANA PIN 508201",SURYAPET,KODAD,TELANGANA,8332041029
569,ANDHRA PRADESH GRAMEENA VIKAS BANK,APGV0006323,SURYAPETA  THALLAGADDA,"H.NO.1159, THALLAGADDA, SURYAPETA DISTRICT, TELANGANA PIN 508213",SURYAPET,SURYAPETA,TELANGANA,8332040966
570,ANDHRA PRADESH GRAMEENA VIKAS BANK,APGV0007101,MAHABUBNAGAR,"14130/18,OPP GOVERNMENT H Q HOSPITAL,MAHBUBNAGAR,509001",MAHABUBANAGAR,MAHABUBNAGAR,TELANGANA,9440903944
571,ANDHRA PRADESH GRAMEENA VIKAS BANK,APGV0007102,TELAKAPALLI,"TELKAPALLY 7102 ,NAGARKURNOOL TQ,MBNR DIST 509 385",NAGARKURNOOL,TELAKAPALLI,TELANGANA,9490157297
572,ANDHRA PRADESH GRAMEENA VIKAS BANK,APGV0007103,RAJAPUR,"RAJAPUR 7103,VIA BALANAGAR,MAHABUBNAGAR DIST. PIN 509 202",MAHABUBANAGAR,JADCHERLA,TELANGANA,9490153741
573,ANDHRA PRADESH GRAMEENA VIKAS BANK,APGV0007104,THUMMANPET,"THUMMANPET 7104,ACHAMPET TQ,MBNR DIST. 509 375",NAGARKURNOOL,THUMMANPET,TELANGANA,9490157298
574,ANDHRA PRADESH GRAMEENA VIKAS BANK,APGV0007105,GUNDUMAL,"GUNDUMAL 7105,KOSIGI TQ, MAHABUBNAGAR DIST,PIN 509 339",MAHABUBANAGAR,KOSGI,TELANGANA,9490157299
575,ANDHRA PRADESH GRAMEENA VIKAS BANK,APGV0007106,TALAKONDAPALLY,"TALAKONDAPALLY 7106,KALWAKURTHY TQ,MBNR DIST 509 328",RANGAREDDY,TALAKONDAPALLY,TELANGANA,9490157300
576,ANDHRA PRADESH GRAMEENA VIKAS BANK,APGV0007108,GANGAPUR,"GANGAPUR 7108,JADCHERLA TQ,MAHABUBNAGAR DIST. PIN 509 302",MAHABUBANAGAR,JADCHERLA,TELANGANA,9490157301
577,ANDHRA PRADESH GRAMEENA VIKAS BANK,APGV0007109,TANDUR,"TADUR 7109,NAGARKURNOOL TQ,MAHABUBNAGAR DIST. PIN 509 209",NAGARKURNOOL,NAGARKURNOOL,TELANGANA,9490157302
578,ANDHRA PRADESH GRAMEENA VIKAS BANK,APGV0007110,PADRA,"PADRA,ACHAMPET TQ,MBNR DIST 509 201",NAGARKURNOOL,PADRA,TELANGANA,9490157303
579,ANDHRA PRADESH GRAMEENA VIKAS BANK,APGV0007111,CHOWDARIGUDEM,"CHOWDERGUDEM 7111,SHADNAGAR TQ,MBNR DIST. 509 207",RANGAREDDY,CHOWDARIGUDEM,TELANGANA,9490157304
580,ANDHRA PRADESH GRAMEENA VIKAS BANK,APGV0007112,PEDAKOTHAPALLI,"PEDDA KOTHAPALLY 7112,KOLLAPUR TQ,MBNR DIST. 509 412",NAGARKURNOOL,PEDAKOTHAPALLI,TELANGANA,9490157305
581,ANDHRA PRADESH GRAMEENA VIKAS BANK,APGV0007115,KADUKUNTLA,"KADUKUNTLA 7115,KOTHAKOTA VIA,MAHABUBNAGAR DIST. PIN 509 381",WANAPARTHY,WANAPARTHY,TELANGANA,9490157306
582,ANDHRA PRADESH GRAMEENA VIKAS BANK,APGV0007116,BONKUR,"BONKUR 7116,VIA MANOPAD,MAHABUBNAGAR DIST. PIN 509 128",GADWAL JOGULAMABA,KURNOOL,TELANGANA,9490157307
583,ANDHRA PRADESH GRAMEENA VIKAS BANK,APGV0007117,AKUTHOTAPALLY,"AKUTHOTAPALLY 7117,KALWAKURTHY TQ,MBNR DIST. 509 362",RANGAREDDY,AKUTHOTAPALLY,TELANGANA,9490157308
584,ANDHRA PRADESH GRAMEENA VIKAS BANK,APGV0007118,MIDZIL,"MIDJIL 7118,MBNR DIST, 509 357",MAHABUBANAGAR,JADCHERLA,TELANGANA,9490157309
585,ANDHRA PRADESH GRAMEENA VIKAS BANK,APGV0007119,ELKUR,"ELKUR 7119,GADWAL TQ,MAHABUBNAGAR DIST. PIN 509 132",GADWAL JOGULAMABA,GADWAL,TELANGANA,9490157310
586,ANDHRA PRADESH GRAMEENA VIKAS BANK,APGV0007120,DHARUR,"DHARUR 7120,GADWAL TQ,MAHABUBNAGAR DIST. PIN 509 133",GADWAL JOGULAMABA,GADWAL,TELANGANA,9490157311
587,ANDHRA PRADESH GRAMEENA VIKAS BANK,APGV0007121,GOPALPET,"GOPALPET 7121,VIA WANAPARTHY,MAHABUBNAGAR DIST. PIN 509 206",WANAPARTHY,WANAPARTHY,TELANGANA,9490157312
588,ANDHRA PRADESH GRAMEENA VIKAS BANK,APGV0007122,AVANCHA,"AVANCHA 7122,VIA THIMMAJIPET,MAHABUBNAGAR DIST. PIN 509 406",NAGARKURNOOL,JADCHERLA,TELANGANA,9490157313
589,ANDHRA PRADESH GRAMEENA VIKAS BANK,APGV0007123,UPPUNUTHALA,"HNO8199,JAGAN MOHAN REDDY COMPLEX,UPPUNUTHALA ,ACHAMPET TQ,MBNR DIST. 509 376",NAGARKURNOOL,UPPUNUTHALA,TELANGANA,9490157314
590,ANDHRA PRADESH GRAMEENA VIKAS BANK,APGV0007124,PEDDA MANDADI,"PEDDA MANDADI 7124,KOTHAKOTA VIA,MAHABUBNAGAR DIST. PIN 509 381",WANAPARTHY,WANAPARTHY,TELANGANA,9490157315
591,ANDHRA PRADESH GRAMEENA VIKAS BANK,APGV0007125,IRVIN,"THEBRANCHMANAGER,A.P.GRAMEENAIKASBANK, HNO19177/1/2/3, 1ST FLOOR, GSR COMPLEX,V,IRVINKALWAKURTHY TQ,MBNR DIST. 509 324",RANGAREDDY,IRVIN,TELANGANA,9490157316
592,ANDHRA PRADESH GRAMEENA VIKAS BANK,APGV0007126,REMADDULA,"REMADDULA 7126,GOPALPET VIA,MAHABUBNAGAR DIST. PIN 509 206",WANAPARTHY,WANAPARTHY,TELANGANA,9490157317
593,ANDHRA PRADESH GRAMEENA VIKAS BANK,APGV0007127,KOLKULPALLY,"KOLKULPALLY,VIA MADGUL,MBNR DIST 509 327",RANGAREDDY,KOLKULPALLY,TELANGANA,9490157318
594,ANDHRA PRADESH GRAMEENA VIKAS BANK,APGV0007129,BHOOTPUR,"BHOOTHPUR 7129,MAHABUBNAGAR DIST.PIN 509 382",MAHABUBANAGAR,MAHABUBNAGAR,TELANGANA,9490157319
595,ANDHRA PRADESH GRAMEENA VIKAS BANK,APGV0007131,KOSGI,"KOSIGI 7131,KODANGAL TQ,MAHABUBNAGAR DIST. PIN 509 339",MAHABUBANAGAR,KOSGI,TELANGANA,9490157320
596,ANDHRA PRADESH GRAMEENA VIKAS BANK,APGV0007132,JADCHERLA,"763,NEAR NEW BUSSTAND,JADCHERLA,TEH.JADCHERLA,509302",MAHABUBANAGAR,JADCHERLA,TELANGANA,9493545532
597,ANDHRA PRADESH GRAMEENA VIKAS BANK,APGV0007133,ALAMPUR,"6139,MAIN BAZAR,ALAMPUR,TEH.ALAMPUR,509152",GADWAL JOGULAMABA,KURNOOL,TELANGANA,9490157322
598,ANDHRA PRADESH GRAMEENA VIKAS BANK,APGV0007134,KAUKUNTLA,"KAUKUNTLA 7134,VIA DEVARKADRA,MAHABUBNAGAR DIST. PIN 509 219",MAHABUBANAGAR,DEVARKADRA,TELANGANA,9490157323
599,ANDHRA PRADESH GRAMEENA VIKAS BANK,APGV0007135,BALAMPET,"BALAMPET 7135,KODANGAL, MAHABUBNAGAR DIST,PIN 509 336",VIKARABAD,KOSGI,TELANGANA,9490157324
600,ANDHRA PRADESH GRAMEENA VIKAS BANK,APGV0007136,KODANGAL,"KODANGAL 7136,MAHABUBNAGAR DIST.PIN 509 338",VIKARABAD,KODANGAL,TELANGANA,9440908400
601,ANDHRA PRADESH GRAMEENA VIKAS BANK,APGV0007137,SINGAVATNAM,"SINGAVATNAM 7137,KOLLAPUR TQ,MAHABUBNAGAR DIST. PIN 509 107",NAGARKURNOOL,KOLLAPUR,TELANGANA,9490157325
602,ANDHRA PRADESH GRAMEENA VIKAS BANK,APGV0007138,SHADNAGAR,"MARKET ROAD,FAROOQNAGAR,TEH.SHADNAGAR,509216",RANGAREDDY,SHADNAGAR,TELANGANA,9440903945
603,ANDHRA PRADESH GRAMEENA VIKAS BANK,APGV0007139,VEPUR,"VEPUR 7139,HANWADA VIA,MAHABUBNAGAR DIST. PIN 509 334",MAHABUBANAGAR,MAHABUBNAGAR,TELANGANA,9490157326
604,ANDHRA PRADESH GRAMEENA VIKAS BANK,APGV0007140,KOTHAKOTA,"KOTHAKOTA 7140,MAHABUBNAGAR DIST,PIN 509 381",WANAPARTHY,KOTHAKOTA,TELANGANA,9490153739
605,ANDHRA PRADESH GRAMEENA VIKAS BANK,APGV0007141,VELIJERLA,"VELJERLA,SHADNAGAR TQ,MBNR DIST509 216",RANGAREDDY,VELIJERLA,TELANGANA,9490157327
606,ANDHRA PRADESH GRAMEENA VIKAS BANK,APGV0007143,AMANGAL,"THEBRANCHMANAGER,A.P.GRAMEENAIKASBANK, HNO178,ADARSHNAGAR,HYDERABADROAD, AMANGAL, KALWAKURTHY TQ,MBNR DIST. 509 312",RANGAREDDY,AMANGAL,TELANGANA,9440908399
607,ANDHRA PRADESH GRAMEENA VIKAS BANK,APGV0007145,KONDANAGULA,"KONDANAGULA ,ACHAMPET TQ, MBNR DIST 509 401",NAGARKURNOOL,KONDANAGULA,TELANGANA,9490157328
608,ANDHRA PRADESH GRAMEENA VIKAS BANK,APGV0007146,URUKONDAPET,"OPPGRAMPANCHAYATBUILDING,URUKONDAPET, KALWAKURTHY TQ,MBNR DIST. 509 320",NAGARKURNOOL,URUKONDAPET,TELANGANA,9490157329
609,ANDHRA PRADESH GRAMEENA VIKAS BANK,APGV0007147,CHINNAPORLA,"CHINNAPORLA 7147,MAKTHAL VIA,MAHABUBNAGAR DIST. PIN 509 311",MAHABUBANAGAR,MAKTHAL,TELANGANA,9490157330
610,ANDHRA PRADESH GRAMEENA VIKAS BANK,APGV0007148,ELKICHERLA,"ELKICHERLA 7148,THIMMAJIPET VIA,MAHABUBNAGAR DIST. PIN 509 406",MAHABUBANAGAR,MAHABUBNAGAR,TELANGANA,9490157331
611,ANDHRA PRADESH GRAMEENA VIKAS BANK,APGV0007149,PEDDA ADIRYALA,"PEDDA ADIRYALA 7149,JADCHERLA TQ,MAHABUBNAGAR DIST. PIN 509 408",MAHABUBANAGAR,JADCHERLA,TELANGANA,9490157332
612,ANDHRA PRADESH GRAMEENA VIKAS BANK,APGV0007150,ACHAMPET,"THE BRANCHMANAGER, PLOTNO5,7TEACHERSCOLONY, MAINROAD,ACHAMPET,MBNR DIST. 509 375",NAGARKURNOOL,ACHAMPET,TELANGANA,9440908397
613,ANDHRA PRADESH GRAMEENA VIKAS BANK,APGV0007151,MAGANOOR,"MAGANOOR 7151,MAKTHAL TQ,MAHABUBNAGAR DIST. PIN 509 308",MAHABUBANAGAR,MAKTHAL,TELANGANA,9490157333
614,ANDHRA PRADESH GRAMEENA VIKAS BANK,APGV0007152,GUMMADAM,"GUMMADAM 7152,PEBBAIR, MAHABUBNAGAR DIST,PIN 509 104",WANAPARTHY,PEBBAIR,TELANGANA,9490157334
615,ANDHRA PRADESH GRAMEENA VIKAS BANK,APGV0007153,SINDANOOR,"SINDHANOOR 7153,GADWAL TQ,MAHABUBNAGAR DIST. PIN 509 129",GADWAL JOGULAMABA,IEEJA,TELANGANA,9490157335
616,ANDHRA PRADESH GRAMEENA VIKAS BANK,APGV0007154,POTHIREDDIPALLY,"POTHIREDDYPALLY 7154,VIA PALEM,MAHABUBNAGAR DIST. PIN 509 215",NAGARKURNOOL,JADCHERLA,TELANGANA,9490157336
617,ANDHRA PRADESH GRAMEENA VIKAS BANK,APGV0007155,KONDAPUR,"KONDAPUR 7155,VIA KOILKONDA,MAHABUBNAGAR DIST. PIN 509 371",MAHABUBANAGAR,MAHABUBNAGAR,TELANGANA,9490157337
618,ANDHRA PRADESH GRAMEENA VIKAS BANK,APGV0007157,JUPALLY,"JUPALLY,KALWAKURTHY TQ,MBNR DIST 509 324",NAGARKURNOOL,JUPALLY,TELANGANA,9490157338
619,ANDHRA PRADESH GRAMEENA VIKAS BANK,APGV0007158,MANDODDI,"MANDODDI 7158,ALAMPUR TQ,MAHABUBNAGAR DIST. PIN 509 135",GADWAL JOGULAMABA,SHANTHINAGAR,TELANGANA,9490157339
620,ANDHRA PRADESH GRAMEENA VIKAS BANK,APGV0007159,MOOSAPET,"MOOSAPET 7159,MAHABUBNAGAR DIST,PIN 509 380",MAHABUBANAGAR,MAHABUBNAGAR,TELANGANA,9490157340
621,ANDHRA PRADESH GRAMEENA VIKAS BANK,APGV0007160,RAMCHANDRAPUR,"RAMACHANDRAPUR 7160,VIA DEVARKADRA,MAHABUBNAGAR DIST. PIN 509 204",MAHABUBANAGAR,MAHABUBNAGAR,TELANGANA,9490157341
622,ANDHRA PRADESH GRAMEENA VIKAS BANK,APGV0007161,KARVANGA,"297,BUS STAND RD,KARVANGA,TEH.NAGARKURNOOL,509385",NAGARKURNOOL,KARVANGA,TELANGANA,9490157342
623,ANDHRA PRADESH GRAMEENA VIKAS BANK,APGV0007162,JINNARAM,"JINNARAM 7162,LALKOTAVIA,MAHABUBNAGAR DIST. PIN 509 409",MAHABUBANAGAR,MARIKAL,TELANGANA,9490157343
624,ANDHRA PRADESH GRAMEENA VIKAS BANK,APGV0007164,KALWAKOLE,"KALWAKOLE,KOLLAPUR TQ,MBNR DIST. 509 102",NAGARKURNOOL,KALWAKOLE,TELANGANA,9490157344
625,ANDHRA PRADESH GRAMEENA VIKAS BANK,APGV0007165,SASANOOL,"SASANOOL 7165,VIA GADWAL, KONDAIR POST , MAHABUBNAGAR DIST,PIN 509 125",GADWAL JOGULAMABA,GADWAL,TELANGANA,9490157345
626,ANDHRA PRADESH GRAMEENA VIKAS BANK,APGV0007166,KOTHUR,"H.NO.4157&158,N.H.RD,KOTHUR,509228",RANGAREDDY,KOTHUR,TELANGANA,9490153740
627,ANDHRA PRADESH GRAMEENA VIKAS BANK,APGV0007167,KALWAKURTHY,"H.NO.71000/1SURYACOMPLEX,KALWAKURTI,509324",NAGARKURNOOL,KALWAKURTHY,TELANGANA,9440903946
628,ANDHRA PRADESH GRAMEENA VIKAS BANK,APGV0007168,GADWAL,"H.NO.710117/1,RAJIV MARG,GADWAL,509125",GADWAL JOGULAMABA,GADWAL,TELANGANA,9440903948
629,ANDHRA PRADESH GRAMEENA VIKAS BANK,APGV0007169,WANAPARTHY,"H.NO.42/250/8A,PRAJAVAAIDHYASALA RD,WANAPARTHI,509103",WANAPARTHY,WANAPARTHY,TELANGANA,9440903947
630,ANDHRA PRADESH GRAMEENA VIKAS BANK,APGV0007170,NAGARKURNOOL,"NAGARKURNOOL 7170,MAHABUBNAGAR DIST.PIN 509 209",NAGARKURNOOL,NAGARKURNOOL,TELANGANA,9490153742
631,ANDHRA PRADESH GRAMEENA VIKAS BANK,APGV0007171,NARAYANPET,"DOOR NO.4873,MAIN ROAD,NARAYANPET, P.O.NARAYANPETA,509210",MAHABUBANAGAR,NARAYANPET,TELANGANA,9490157347
632,ANDHRA PRADESH GRAMEENA VIKAS BANK,APGV0007172,OLD PALAMOOR,"OLD PALAMUR 7172,NEAR 1 TOWN POLICE STATION,MAHABUBNAGAR DIST. PIN 509 001",MAHABUBANAGAR,MAHABUBNAGAR,TELANGANA,9440908398
633,ANDHRA PRADESH GRAMEENA VIKAS BANK,APGV0007173,BADEPALLY,"BADEPALLY 7173,NETAJI CHOWK,MAHABUBNAGAR DIST. PIN 509 301",MAHABUBANAGAR,JADCHERLA,TELANGANA,9490157465
634,ANDHRA PRADESH GRAMEENA VIKAS BANK,APGV0007174,MARIKAL,"MARIKAL 7174,POST MARIKAL,MAHABUBNAGAR DIST. PIN 509 351",MAHABUBANAGAR,MARIKAL,TELANGANA,9490157346
635,ANDHRA PRADESH GRAMEENA VIKAS BANK,APGV0007175,DEVARKADRA,"DEVARAKADRA 7175,MAHABUBNAGAR DIST.PIN 509 204",MAHABUBANAGAR,DEVARKADRA,TELANGANA,9490157348
636,ANDHRA PRADESH GRAMEENA VIKAS BANK,APGV0007176,PEBBAIR,", NATIONAL HIGHWAY 7, KURNOOL ROAD, PEBBAIR, 509104",WANAPARTHY,PEBBAIR,TELANGANA,9490157349
637,ANDHRA PRADESH GRAMEENA VIKAS BANK,APGV0007177,LEEJA,"IEEJA 7177,MAHABUBNAGAR DIST.PIN 509 129",GADWAL JOGULAMABA,IEEJA,TELANGANA,9490157350
638,ANDHRA PRADESH GRAMEENA VIKAS BANK,APGV0007178,PADMAVATHI COLONY,"75114/6/B, HYDERABAD ROAD, OPP. PADMAVATHI COLONY BUS STOP, PADMAVATHI COLONY, 509001",MAHABUBANAGAR,MAHABUBNAGAR,TELANGANA,9490157351
639,ANDHRA PRADESH GRAMEENA VIKAS BANK,APGV0007179,KADTHAL,", HYDERABAD SRISAILAM ROAD, , KADTHAL, 509358",RANGAREDDY,KADTHAL,TELANGANA,9490157352
640,ANDHRA PRADESH GRAMEENA VIKAS BANK,APGV0007180,KOTHAPETA,"H.NO.22/A, KASHIPURAM COLONY, , KOTHAPETA, 509408",RANGAREDDY,KOTHAPETA,TELANGANA,9490157353
641,ANDHRA PRADESH GRAMEENA VIKAS BANK,APGV0007181,ADDAKULA,"ADDAKAL 7181,ADDAKALMDL ,DIST. MAHABUBNAGAR. PIN 509382",MAHABUBANAGAR,KOTHAKOTA,TELANGANA,9490157354
642,ANDHRA PRADESH GRAMEENA VIKAS BANK,APGV0007182,NANDIGAON,"NANDIGAON 7182NANDIGAON (VILL.),KOTHUR (MDL),DIST. MBNR 509228",RANGAREDDY,NANDIGAON,TELANGANA,9490157355
643,ANDHRA PRADESH GRAMEENA VIKAS BANK,APGV0007183,CHATANPALLI,"CHATANPALLY,CHATANPALLY, FAROOQNAGAR (MDL),DIST. MBNR. 509216",RANGAREDDY,SHADNAGAR,TELANGANA,9490157356
644,ANDHRA PRADESH GRAMEENA VIKAS BANK,APGV0007184,BALANAGAR,"BALANAGAR 7184, 925, NH7, MDL BALANAGAR,DIST MAHABUBNAGAR. PIN 509 202",MAHABUBANAGAR,JADCHERLA,TELANGANA,9490157357
645,ANDHRA PRADESH GRAMEENA VIKAS BANK,APGV0007185,KILLAGHNAPUR,"H.NO.3116/A, BHARATHI NAGAR COLONY, KHILLA GHANPUR, GHANPUR, KHILLA GHANPUR, 509380",WANAPARTHY,WANAPARTHY,TELANGANA,9490157359
646,ANDHRA PRADESH GRAMEENA VIKAS BANK,APGV0007186,BIJINEPALLY,"BIJINEPALLY,NEAR NEW BUS STAND, BIJINEPALLY,MAHABUBNAGAR DIST. PIN 509 203",NAGARKURNOOL,NAGARKURNOOL,TELANGANA,9490157360
647,ANDHRA PRADESH GRAMEENA VIKAS BANK,APGV0007187,ATMAKUR,"H.NO. 1020, MAIN ROAD, ATMAKUR, ATMAKUR, 509131",WANAPARTHY,ATMAKUR,TELANGANA,9491306858
648,ANDHRA PRADESH GRAMEENA VIKAS BANK,APGV0007188,MADDUR,"RAVULAPALLI ROAD, MADDUR BRANCH,MADDUR(M), MAHABUBNAGAR (D) 509411",MAHABUBANAGAR,NARAYANPET,TELANGANA,9491306857
649,ANDHRA PRADESH GRAMEENA VIKAS BANK,APGV0007189,KODAIR,"H.NO563, SANTHA BAZAR, KODAIR, KODAIR, 509102",NAGARKURNOOL,NAGARKURNOOL,TELANGANA,9491035489
650,ANDHRA PRADESH GRAMEENA VIKAS BANK,APGV0007190,MAKTHAL,"BAPUJI NAGAR COLONY,MAKTAL.509208. MAHABUBNGAR DIST",MAHABUBANAGAR,MAKTHAL,TELANGANA,7382620367
651,ANDHRA PRADESH GRAMEENA VIKAS BANK,APGV0007191,NAWABPET,"MUDIRAJ SANGAM BUILDING,VILLNAWABPET.KONDURG ROAD,MAHABUBNGAR DIST509340",MAHABUBANAGAR,MAHABUBNAGAR,TELANGANA,7882632690
652,ANDHRA PRADESH GRAMEENA VIKAS BANK,APGV0007192,BURGULA,"HNO111/A/1, MAIN ROAD, BURGULA, BURGULA, 509202",RANGAREDDY,BURGULA,TELANGANA,7382632685
653,ANDHRA PRADESH GRAMEENA VIKAS BANK,APGV0007193,ACHAMKPET OLD BZR,"OLD BAZAR BRANCH, HNO 23, 1ST FLOOR, BLOCK NO 2, MAIN ROAD, MARKET STREET, ACHAMPETA 509375",NAGARKURNOOL,ACHAMKPET,TELANGANA,8331011459
654,ANDHRA PRADESH GRAMEENA VIKAS BANK,APGV0007194,KALWAKURTHY X RD,"PLOT NO. 4 TO 8, SURVEY NO. 11, HYDERABAD X ROAD, KALWAKURTHY, KALWAKURTHY, 509324",NAGARKURNOOL,KALWAKURTHY X RD,TELANGANA,8331010421
655,ANDHRA PRADESH GRAMEENA VIKAS BANK,APGV0007195,TUDUKURTHY,"TUDUKURTHY,NAGARKURNOOL(MANDAL),MAHABUBNAGAR (DIST) 509001",NAGARKURNOOL,NAGARKURNOOL,TELANGANA,8331010423
656,ANDHRA PRADESH GRAMEENA VIKAS BANK,APGV0007196,PENTLAVELLY,"HNO127/1, PENTLAVALLY,KOLLAPUR(MANDAL),MAHABUBNAGAR (DIST) 509105",NAGARKURNOOL,KOLLAPUR,TELANGANA,8331010424
657,ANDHRA PRADESH GRAMEENA VIKAS BANK,APGV0007197,NARWA,"H.NO3/53, MAIN ROAD, NARVA, NARVA, 509130",MAHABUBANAGAR,MARIKAL,TELANGANA,8331010422
658,ANDHRA PRADESH GRAMEENA VIKAS BANK,APGV0007198,SHANTHINAGAR,"H.NO9108,109, KOVILADINNE ROAD, SHANTHINAGAR, SHANTINAGAR, 509126",GADWAL JOGULAMABA,SHANTHINAGAR,TELANGANA,8331010427
659,ANDHRA PRADESH GRAMEENA VIKAS BANK,APGV0007199,VELTOOR,"VELTOOR, UPPUNUTHALA(M), MAHABOOBNAGAR (D) 509376",NAGARKURNOOL,VELTOOR,TELANGANA,8331010420
660,ANDHRA PRADESH GRAMEENA VIKAS BANK,APGV0007200,GC WANAPARTHY,"H.NO.20124, MAIN ROAD, GANDHI CHOWK, WANAPARTHY, WANAPARTHY, 509103",WANAPARTHY,WANAPARTHY,TELANGANA,8331010426
661,ANDHRA PRADESH GRAMEENA VIKAS BANK,APGV0007201,KR ROAD GADWAL,"H.NO.143, KRISHNA RIVER ROAD, BHEEMNAGAR, GADWAL, GADWAL, 509125",GADWAL JOGULAMABA,GADWAL,TELANGANA,8331010425
662,ANDHRA PRADESH GRAMEENA VIKAS BANK,APGV0007202,PAMAPUR,"PAMAPUR,KOTHAKOTA(MANDAL),MAHABUBNAGAR DIST 509381",WANAPARTHY,KOTHAKOTA,TELANGANA,8331010459
663,ANDHRA PRADESH GRAMEENA VIKAS BANK,APGV0007203,KOILKONDA,"H.NO. 8126/51/T, MAIN ROAD, BC COLONY, KOILKONDA, KOILKONDA, 509371",MAHABUBANAGAR,MAHABUBNAGAR,TELANGANA,8331010460
664,ANDHRA PRADESH GRAMEENA VIKAS BANK,APGV0007204,PADKAL,"PADKAL,TALAKONDA PALLY(MANDAL),MAHABUBNAGAR DIST 509328",RANGAREDDY,PADKAL,TELANGANA,8332988635
665,ANDHRA PRADESH GRAMEENA VIKAS BANK,APGV0007205,IMMUL NARVA,"H.NO 390, JP DARGA ROAD, INMULNARVA, INMULNARVA, 509228",RANGAREDDY,IMMUL NARVA,TELANGANA,8332988636
666,ANDHRA PRADESH GRAMEENA VIKAS BANK,APGV0007206,RAVULAPALLY,"PLOT NO. 1, MAHALAXMI TEMPLE, RAVALPALLY, RAVALPALLY, 509336",VIKARABAD,KODANGAL,TELANGANA,9985247632
667,ANDHRA PRADESH GRAMEENA VIKAS BANK,APGV0007207,DHANWADA,"H. NO. 10110, SRI RAM NAGAR, DHANWADA, DHANWADA, 509205",MAHABUBANAGAR,NARAYANPET,TELANGANA,9966771493
668,ANDHRA PRADESH GRAMEENA VIKAS BANK,APGV0007208,YENUGONDA,"H. NO. 416/4/1/A, HYDERABAD ROAD, YENUGONDA, YENUGONDA, 509001",MAHABUBANAGAR,MAHABUBNAGAR,TELANGANA,8332988651
669,ANDHRA PRADESH GRAMEENA VIKAS BANK,APGV0007209,KOLLAPUR,"H. NO. 1751, COLLEGE ROAD, KOLLAPUR, KOLLAPUR, 509102",NAGARKURNOOL,KOLLAPUR,TELANGANA,8332988652
670,ANDHRA PRADESH GRAMEENA VIKAS BANK,APGV0007210,BHAGEERATHA COLONY,"H.NO.2121/1, FIRST FLOOR NEAR BHAGEERATHA C, , BHAGEERATHA COLONY, BHAGEERATHA COLONY, 509001",MAHABUBANAGAR,MAHABUBNAGAR,TELANGANA,8331043825
671,ANDHRA PRADESH GRAMEENA VIKAS BANK,APGV0007211,HAKEEMPET,"GRAMAPANCHAYAT BUILDING , HAKEEMPET, , HAKEEMPET, HAKEEMPET, 509350",MAHABUBANAGAR,KOSGI,TELANGANA,8331043826
672,ANDHRA PRADESH GRAMEENA VIKAS BANK,APGV0007212,HANWADA,"H.NO.451/2, MAIN ROAD,NEAR HANWADA MASZEED, , HANWADA, HANWADA, 509334",MAHABUBANAGAR,MAHABUBNAGAR,TELANGANA,8331043827
673,ANDHRA PRADESH GRAMEENA VIKAS BANK,APGV0007213,NGKL ROAD BADEPALLY,"H.NO. 12101 TO 105 SY.NO.88,92,GROUND FLOOR , BADEPALLY, BADEPALLY, 509301",MAHABUBANAGAR,JADCHERLA,TELANGANA,8331043824
674,ANDHRA PRADESH GRAMEENA VIKAS BANK,APGV0008101,SANGAREDDY,"SANGAREDDY 8101,SANGAREDDY, MEDAK DIST. PIN 502 001SANGAREDDY 8101",SANGAREDDY,SANGAREDDY,TELANGANA,9493126205
675,ANDHRA PRADESH GRAMEENA VIKAS BANK,APGV0008102,SHIVAMPET,"SHIVAMPET 8102 SHIVAMPET, PULKAL, MEDAK DIST. PIN 502 273",SANGAREDDY,SHIVAMPET,TELANGANA,9490157361
676,ANDHRA PRADESH GRAMEENA VIKAS BANK,APGV0008103,PULKAL,"PULKAL 8103 PULKAL, MEDAK DIST.PIN 502 293",SANGAREDDY,PULKAL,TELANGANA,9490157362
677,ANDHRA PRADESH GRAMEENA VIKAS BANK,APGV0008104,TERPOLE,"TERPLOE 8104 POST TERPOLE, VIA POTHIREDDYPALLI X ROADS,MEDAK DIST. PIN 502 295",SANGAREDDY,TERPOLE,TELANGANA,9490157363
678,ANDHRA PRADESH GRAMEENA VIKAS BANK,APGV0008105,CHITKUL,"CHITKOL 8105 CHITKOL, ANDOLE, MEDAK DIST.PIN 502 270",MEDAK,CHITKUL,TELANGANA,9490157364
679,ANDHRA PRADESH GRAMEENA VIKAS BANK,APGV0008106,DUBBAKA,"DUBBAK 8106,DUBBAK, DUBBAK, MEDAK DIST. 502 108",SIDDIPET,DUBBAKA,TELANGANA,9490157365
680,ANDHRA PRADESH GRAMEENA VIKAS BANK,APGV0008108,CHEGUNTA,"CHEGUNTA 8108,CHEGUNTA, MEDAK DIST.PIN 502 255",MEDAK,CHEGUNTA,TELANGANA,9490157366
681,ANDHRA PRADESH GRAMEENA VIKAS BANK,APGV0008109,DOULTHABAD,"DOULTABAD 8109,DOULTABAD, DOULTABAD,MEDAK DIST. 502 247",SIDDIPET,DOULTHABAD,TELANGANA,9490157367
682,ANDHRA PRADESH GRAMEENA VIKAS BANK,APGV0008110,JINNARAM,"H.NO.178,JINNARAM,TEH.NARSAPUR,502319",SANGAREDDY,JINNARAM,TELANGANA,9490157368
683,ANDHRA PRADESH GRAMEENA VIKAS BANK,APGV0008111,KUKUNURPALLY,"KUKUNURPALLY 8111,KUKUNURPALLY, MEDAK DIST.PIN 502 301",SIDDIPET,KUKUNURPALLY,TELANGANA,9490157369
684,ANDHRA PRADESH GRAMEENA VIKAS BANK,APGV0008112,KAJIPUR,"KHAJIPUR 8112,KHAJIPUR, MIRDODDI,MEDAK DIST. 502 102",SIDDIPET,KAJIPUR,TELANGANA,9490157370
685,ANDHRA PRADESH GRAMEENA VIKAS BANK,APGV0008113,SINGTHAM,"SINGTHAM 8113,SINGTHAM, RAIKODE, MEDAK DIST.PIN 502 257",SANGAREDDY,SINGTHAM,TELANGANA,9490157371
686,ANDHRA PRADESH GRAMEENA VIKAS BANK,APGV0008114,RAIKODE,"RAIKODE 8114,RAIKODE, MEDAK DIST,PIN 502 257RAIKODE 8114",SANGAREDDY,RAIKODE,TELANGANA,9490157372
687,ANDHRA PRADESH GRAMEENA VIKAS BANK,APGV0008115,ASHOKNAGAR,"ASHOKNAGAR,ASHOKNAGAR, RC PURAM,MEDAK DIST. 502 032",SANGAREDDY,LINGAMPALLY,TELANGANA,9440903959
688,ANDHRA PRADESH GRAMEENA VIKAS BANK,APGV0008116,LAXMAPUR,"LAXMAPUR 8116,LAXMAPUR, AKKANNAPET,MEDAK DIST. PIN 502 115",MEDAK,LAXMAPUR,TELANGANA,9490157373
689,ANDHRA PRADESH GRAMEENA VIKAS BANK,APGV0008117,TUNKI BOLLARAM,"T. BOLLARAM, MULUGU,MEDAK DIST. 502 279",SIDDIPET,TUNKI BOLLARAM,TELANGANA,9490157374
690,ANDHRA PRADESH GRAMEENA VIKAS BANK,APGV0008119,PREGNAPUR,"PLOT BI25,26,58,SY NO178/1,HNO105/2,PRAGNAPUR, GAJWEL,MEDAK DIST. 502 311",SIDDIPET,SIDDIPET,TELANGANA,9490153752
691,ANDHRA PRADESH GRAMEENA VIKAS BANK,APGV0008120,ANANTHASAGAR,"ANANTHASAGAR 8120,ANANTHASAGAR, KONDAPUR,MEDAK DIST. PIN 502 306",SANGAREDDY,ANANTHASAGAR,TELANGANA,9490157375
692,ANDHRA PRADESH GRAMEENA VIKAS BANK,APGV0008121,TOGUTA,"TOGUTA 8121,POST TOGUTA,MEDAK DIST. PIN 502 372TOGUTA 8121",SIDDIPET,TOGUTA,TELANGANA,9490157376
693,ANDHRA PRADESH GRAMEENA VIKAS BANK,APGV0008122,KANGTI,"MAIN ROAD,KANGTI,TEH.NARAYANKHED,502287",SANGAREDDY,KANGTI,TELANGANA,9490157377
694,ANDHRA PRADESH GRAMEENA VIKAS BANK,APGV0008123,BUDHERA,"BUDHERA 8123,BUDHERA, MUNIPALLY,MEDAK DIST. PIN 502 345BUDHERA 8123",SANGAREDDY,BUDHERA,TELANGANA,9490157378
695,ANDHRA PRADESH GRAMEENA VIKAS BANK,APGV0008125,INDRAKANNU,"INDRAKANNU 8125,INDRAKANNU, MEDAK DIST.PIN 502330",SANGAREDDY,INDRAKANNU,TELANGANA,9440903966
696,ANDHRA PRADESH GRAMEENA VIKAS BANK,APGV0008126,ZAHEERABAD,"ARYA NAGAR, NEAR KUMAR HOTEL, ZAHEERABAD,MEDAK DIST 502 220",SANGAREDDY,ZAHEERABAD,TELANGANA,9440903961
697,ANDHRA PRADESH GRAMEENA VIKAS BANK,APGV0008127,NACHARAM,"SHOP NO678151617,OPP TTD KALYANA MANDAPAM,NACHARAM,TOOPRAN,MEDAK DIST502334",SIDDIPET,MEDCHAL,TELANGANA,9490157379
698,ANDHRA PRADESH GRAMEENA VIKAS BANK,APGV0008128,MANOHARABAD,"MANOHARABAD,MANOHARABAD, KALLAKAL,MEDAK DIST. 502 336",MEDAK,MEDCHAL,TELANGANA,9490157380
699,ANDHRA PRADESH GRAMEENA VIKAS BANK,APGV0008130,CHITTAPUR,"CHITTAPUR 8130,CHITTAPUR, DUBBAK,MEDAK DIST. PIN 502 108",SIDDIPET,CHITTAPUR,TELANGANA,9490157381
700,ANDHRA PRADESH GRAMEENA VIKAS BANK,APGV0008131,YELDURTHY,"YELDURTHY 8131,POST YELDURTHY,MEDAK DIST. PIN 502 255",MEDAK,YELDURTHY,TELANGANA,9490157382
701,ANDHRA PRADESH GRAMEENA VIKAS BANK,APGV0008132,PULLUR,"PULLUR, SIDDIPET, MEDAK DIST.PIN 502 107",SIDDIPET,SIDDIPET,TELANGANA,9490157383
702,ANDHRA PRADESH GRAMEENA VIKAS BANK,APGV0008133,CHALKI,"CHALKI 8133, NYALAKAL, MEDAK DIST,PIN 502 256CHALKI 8133",SANGAREDDY,NALKAL,TELANGANA,9490157384
703,ANDHRA PRADESH GRAMEENA VIKAS BANK,APGV0008134,PAPANNAPET,"MAIN RD,PAPANNAPET,TEH.ANDOLE,502303",MEDAK,PAPANNAPET,TELANGANA,9490157385
704,ANDHRA PRADESH GRAMEENA VIKAS BANK,APGV0008135,REGODE,"MAIN RD,REGODE,TEH.ANDOLE,502290",MEDAK,REGODE,TELANGANA,9490157386
705,ANDHRA PRADESH GRAMEENA VIKAS BANK,APGV0008138,CHOWTKUR,"MAIN RD,CHOWTKUR,TEH.ANDOLE,502273",SANGAREDDY,JOGIPET,TELANGANA,9490157387
706,ANDHRA PRADESH GRAMEENA VIKAS BANK,APGV0008139,MEDAK,"MUNICIPAL MKTG.COMPLEX,MEDAK,502110",MEDAK,MEDAK,TELANGANA,9440903962
707,ANDHRA PRADESH GRAMEENA VIKAS BANK,APGV0008140,SHANKARAMPET,"MAIN RD,CHEEKODE,P.O.LINGAIPALLY,TEH.ANDOLE,502303",MEDAK,SHANKARAMPET,TELANGANA,9490157388
708,ANDHRA PRADESH GRAMEENA VIKAS BANK,APGV0008141,SANJIVANRAOPET,"SANJIVANRAOPET, NARAYANKHED,MEDAK DIST. PIN 502 286",SANGAREDDY,NARAYANKHED,TELANGANA,9490157389
709,ANDHRA PRADESH GRAMEENA VIKAS BANK,APGV0008142,MANUR,"MAIN RD,MANUR,TEH.NARAYANKHED,502286",SANGAREDDY,MANUR,TELANGANA,9490157390
710,ANDHRA PRADESH GRAMEENA VIKAS BANK,APGV0008144,WATPALLY,"WATPALLY 8144,POST WATPALLY, VIA ALLADURGAM,MEDAK DIST. PIN 502 269",SANGAREDDY,WATPALLY,TELANGANA,9490157391
711,ANDHRA PRADESH GRAMEENA VIKAS BANK,APGV0008147,YOUSUFPET,"YOUSUFPET, PAPANNAPET,MEDAK DIST. PIN 502 331",MEDAK,PAPANNAPET,TELANGANA,9490157392
712,ANDHRA PRADESH GRAMEENA VIKAS BANK,APGV0008148,IBRAHIMNAGAR,"IBRAHIMNAGAR, CHINNAKODUR,MEDAK DIST. PIN 502 267",SIDDIPET,IBRAHIMNAGAR,TELANGANA,9490157393
713,ANDHRA PRADESH GRAMEENA VIKAS BANK,APGV0008149,GOURARAM,"MAIN ROAD,PAMULPARTHI,TEH.GAJWEL,502279",SIDDIPET,GOURARAM,TELANGANA,9490157394
714,ANDHRA PRADESH GRAMEENA VIKAS BANK,APGV0008150,MARVELLY,"MARVELLY, ANDOLE, MEDAK DIST,PIN 502 270",SANGAREDDY,WATPALLY,TELANGANA,9490157395
715,ANDHRA PRADESH GRAMEENA VIKAS BANK,APGV0008151,JHARASANGAM,"JHARASANGAM, MEDAK DIST.PIN 502 321",SANGAREDDY,JHARASANGAM,TELANGANA,9490157396
716,ANDHRA PRADESH GRAMEENA VIKAS BANK,APGV0008152,NIZAMPET,"MAIN ROAD,NIZAMPET,TEH.RAMAYAMPET,502371",MEDAK,RAMAYAMPET,TELANGANA,9490157397
717,ANDHRA PRADESH GRAMEENA VIKAS BANK,APGV0008153,JOGIPET,"JOGIPET, ANDOLE, MEDAK DIST.PIN 502 270",SANGAREDDY,JOGIPET,TELANGANA,9440908402
718,ANDHRA PRADESH GRAMEENA VIKAS BANK,APGV0008154,SADASHIVAPET,"SADASIVPET 8154SADASIVPET, MEDAK DIST.PIN 502 291",SANGAREDDY,SADASHIVAPET,TELANGANA,9440903960
719,ANDHRA PRADESH GRAMEENA VIKAS BANK,APGV0008155,WADDEPALLY,"WADDEPALLY,VIA ISMAIL KHANPET, NARSAPUR,MEDAK DIST. 502 298",SANGAREDDY,DOULTABAD,TELANGANA,9490157398
720,ANDHRA PRADESH GRAMEENA VIKAS BANK,APGV0008156,BILALPUR,"MAIN ROAD,BILALPUR,TEH.ZAHEERABAD,502210",SANGAREDDY,ZAHEERABAD,TELANGANA,9490157399
721,ANDHRA PRADESH GRAMEENA VIKAS BANK,APGV0008157,NARAYANKHED,"MAIN ROAD,NARAYANKHED,TEH.NARAYANKHED,502286",SANGAREDDY,NARAYANKHED,TELANGANA,9490153748
722,ANDHRA PRADESH GRAMEENA VIKAS BANK,APGV0008158,RAMAYAMPET,"RAMAYAMPET 8158,RAMAYAMPET, MEDAK DIST,PIN 502 101",MEDAK,RAMAYAMPET,TELANGANA,9490153749
723,ANDHRA PRADESH GRAMEENA VIKAS BANK,APGV0008159,SIDDIPET,"MAIN ROAD,SIDDIPET,TEH.SIDDIPET,502103",SIDDIPET,SIDDIPET,TELANGANA,9440903964
724,ANDHRA PRADESH GRAMEENA VIKAS BANK,APGV0008160,GAJWEL,"SURVERY NO248, OPP MUNSIF COURT, MAIN ROAD,GAJWEL, MEDAK DIST. 502 278",SIDDIPET,GAJWEL,TELANGANA,9440903965
725,ANDHRA PRADESH GRAMEENA VIKAS BANK,APGV0008161,NARSAPUR,"MAIN ROAD,NARSAPUR,TEH.NARSAPUR,502313",MEDAK,NARSAPUR,TELANGANA,9440908403
726,ANDHRA PRADESH GRAMEENA VIKAS BANK,APGV0008162,DHANURA,"MAIN ROAD,DHANURA,TEH.ANDOLE,502269",MEDAK,JOGIPET,TELANGANA,9490157400
727,ANDHRA PRADESH GRAMEENA VIKAS BANK,APGV0008163,PATANCHERU,"MAIN ROAD,PEDDAKANJARLA,TEH.SANGAREDDY,502319",SANGAREDDY,PATANCHERU,TELANGANA,9440903958
728,ANDHRA PRADESH GRAMEENA VIKAS BANK,APGV0008164,IDA BOLLARAM,"MAIN ROAD,BEHINDPPL,IDA BOLLARAM,JINNARAM,MEDAKDIST. 502 325",SANGAREDDY,IDA BOLLARAM,TELANGANA,9440903922
729,ANDHRA PRADESH GRAMEENA VIKAS BANK,APGV0008165,SHANTHINAGAR,"MAIN ROAD,SHANTINAGAR,SANGAREDDY, P.O.HEAD POST OFFICE,502001",SANGAREDDY,SANGAREDDY,TELANGANA,9440903963
730,ANDHRA PRADESH GRAMEENA VIKAS BANK,APGV0008166,SARASWATHI NAGAR,"MEDAK ROAD,SARASWATHINAGAR,SIDDIPET, P.O.HEAD POST OFFICE,502103",SIDDIPET,SIDDIPET,TELANGANA,9440903957
731,ANDHRA PRADESH GRAMEENA VIKAS BANK,APGV0008167,ISNAPUR,"ISNAPUR 8167 POST PASAM MYLARAM, MDL. PATANCHERU, MEDAK DIST. PIN 502 307",SANGAREDDY,ISNAPUR,TELANGANA,9490153751
732,ANDHRA PRADESH GRAMEENA VIKAS BANK,APGV0008168,TOOPRAN,"HNO13158,OPP ZP HIGHSCHOOL,MAIN ROAD,TOOPRAN, MEDAK DIST. 502 334",MEDAK,GAJWEL,TELANGANA,9490157401
733,ANDHRA PRADESH GRAMEENA VIKAS BANK,APGV0008170,MEDAK MA,"H.NO.1329/4/7, NR.SBH MAIN BRANCH, RAMAYAMPET RD, MEDAK 502110",MEDAK,MEDAK,TELANGANA,9490157402
734,ANDHRA PRADESH GRAMEENA VIKAS BANK,APGV0008171,BHEL TS,"SHOP CT.921 E,NR.MAIN P.O,BHEL TOWNSHIP,RAMCHANDRAPURAM (BHEL)502032",SANGAREDDY,LINGAMPALLY,TELANGANA,9440908404
735,ANDHRA PRADESH GRAMEENA VIKAS BANK,APGV0008172,RAMACHANDRAPURAM,"1044,R.C.PURAM VILLAGE,R.C.SUNDAY MKT,RAMACHANDRAPURAM(BHEL) 502032",SANGAREDDY,RAMACHANDRAPURAM,TELANGANA,9490157403
736,ANDHRA PRADESH GRAMEENA VIKAS BANK,APGV0008173,SIDDIPET MARKET AREA,"SIDDIPET MARKET AREA 8173 SIDDIPET MARKET AREA,MEDAK DIST. 502 103",SIDDIPET,SIDDIPET,TELANGANA,9490157404
737,ANDHRA PRADESH GRAMEENA VIKAS BANK,APGV0008174,ZAHEERABAD MR,"753, N.H.9, MAIN ROAD, ZAHEERABAD POST OFFICE,ZAHEERABAD 502220",SANGAREDDY,ZAHEERABAD,TELANGANA,9490157405
738,ANDHRA PRADESH GRAMEENA VIKAS BANK,APGV0008175,PR PALLY X ROAD,"PLOT .NO.111,ROHINI COMPLEX, POTHIREDDYPALLY X ROAD, SANGAREDDY, POTHIREDDYPALLY, 502295",SANGAREDDY,SANGAREDDY,TELANGANA,9490157406
739,ANDHRA PRADESH GRAMEENA VIKAS BANK,APGV0008176,TELLAPUR,"PLOT NO .310, S.NO.323/1, , TELLAPUR, THELLAPUR, 502032",SANGAREDDY,LINGAMPALLY,TELANGANA,9490157407
740,ANDHRA PRADESH GRAMEENA VIKAS BANK,APGV0008177,VANTIMAMIDI,"H.NO.186, ,ROHINI COMPLEX, , ONTIMAMIDI, ONTIMAMIDI, 502279",SIDDIPET,VANTIMAMIDI,TELANGANA,9490157408
741,ANDHRA PRADESH GRAMEENA VIKAS BANK,APGV0008178,ANNARAM,"H.NO .569,OPP I.A.FORCE ACADEMY GATE, MAIN ROAD, JINNARAM MANDAL, ANNARAM, 502313",SANGAREDDY,ANNARAM,TELANGANA,9490157409
742,ANDHRA PRADESH GRAMEENA VIKAS BANK,APGV0008179,KALLAKAL,"KALLAKKAL, TOOPRAN(MDL)DIST. MEDAK 502336",MEDAK,KALLAKAL,TELANGANA,9490157410
743,ANDHRA PRADESH GRAMEENA VIKAS BANK,APGV0008180,AMEENPUR,"AMEENPUR8180 H.NO. 16111, BESIDE ICRISAT COLONY,AMEENPUR, DIST MEDAK. 207",SANGAREDDY,AMEENPUR,TELANGANA,9490157411
744,ANDHRA PRADESH GRAMEENA VIKAS BANK,APGV0008181,JAGDEVPUR,"HNO1027, POLICE STATION ROAD, JAGADEVPUR, JAGADEVPUR, 502281",SIDDIPET,GAJWEL,TELANGANA,9490157424
745,ANDHRA PRADESH GRAMEENA VIKAS BANK,APGV0008182,RUDRARAM,"DNO1/74,RUDRARAM,PATANCHERUVU MANDAL.MEDAK DIST.PIN502329",SANGAREDDY,SANGAREDDY,TELANGANA,9491035492
746,ANDHRA PRADESH GRAMEENA VIKAS BANK,APGV0008183,GURRALAGONDI,"THE BRANCH MANAGER CHINNA KODURU MANDAL,MEDAKDIST502276",SIDDIPET,DOULTABAD,TELANGANA,9491062127
747,ANDHRA PRADESH GRAMEENA VIKAS BANK,APGV0008184,DOULTABAD,"DOULTABAD,VIA ISMAIL KHAN PET,HATHNOORA MANDAL,MEDAK DIST, 502296",SANGAREDDY,DOULTABAD,TELANGANA,7382632684
748,ANDHRA PRADESH GRAMEENA VIKAS BANK,APGV0008185,MAMBOJIPALLY,"H.NO 322, SHOP NO. 4&5, MAIN ROAD, MUMBOJIPALLY, MACHAVARAM, 502109",MEDAK,MEDAK,TELANGANA,7382632695
749,ANDHRA PRADESH GRAMEENA VIKAS BANK,APGV0008186,TOOPRAN ROAD,"HNO12114, TOOPRAN ROAD GAJWEL BRANCH,TOOPRAN,MEDAK(D) 502278",SIDDIPET,GAJWEL,TELANGANA,8331011457
750,ANDHRA PRADESH GRAMEENA VIKAS BANK,APGV0008187,KOTILINGALA,"H. NO. 12174/1, NGOS COLONY ROAD, KOTILINGALA, SIDDIPET, SIDDIPET, 502103",SIDDIPET,SIDDIPET,TELANGANA,8331011464
751,ANDHRA PRADESH GRAMEENA VIKAS BANK,APGV0008188,CHINNAKKODUR,"DOOR. NO. 7106, MAIN ROAD, CHINNAKOURU, KODURKURD, 502276",SIDDIPET,CHINNAKKODUR,TELANGANA,8331011466
752,ANDHRA PRADESH GRAMEENA VIKAS BANK,APGV0008189,HB COLONY,"H.NO.18/97, HYDERABAD ROAD, HOUSING BOARD COLONY, SIDDIPET, 502103",SIDDIPET,SIDDIPET,TELANGANA,8331010433
753,ANDHRA PRADESH GRAMEENA VIKAS BANK,APGV0008190,NARSINGI,"H.NO.71, MAIN ROAD, NARSINGI, NARSINGEE, 502248",MEDAK,MEDAK,TELANGANA,8331010434
754,ANDHRA PRADESH GRAMEENA VIKAS BANK,APGV0008191,PATANCHERU MA,"H.NO426/1, MARKET ROAD, PATANCHERU, PATANCHERU, 502319",SANGAREDDY,PATANCHERU,TELANGANA,8331010431
755,ANDHRA PRADESH GRAMEENA VIKAS BANK,APGV0008192,TADKAL,"H. NO. 2/51, PANDURANGA TEMPLE ROAD, TADKAL, TADKAL, 502287",SANGAREDDY,NARAYANKHED,TELANGANA,8331010432
756,ANDHRA PRADESH GRAMEENA VIKAS BANK,APGV0008193,BOLLARAM VILLAGE,"PLOT NO. 3 & 6 SURVEY. NO. 160, MAIN ROAD, BOLLARAM, AIE BOLLARAM, 502325",SANGAREDDY,BOLLARAM,TELANGANA,8331010428
757,ANDHRA PRADESH GRAMEENA VIKAS BANK,APGV0008194,VELIMELA,"GRAM PANCHAYAT BUILDING, MAIN ROAD, VELIMELA, ELMELA, 502300",SANGAREDDY,SANGAREDDY,TELANGANA,8331010429
758,ANDHRA PRADESH GRAMEENA VIKAS BANK,APGV0008195,GOMARAM,"SURVEY NO. 593, MAIN ROAD, GOMARAM, GOMARAM, 502313",MEDAK,NARSAPUR,TELANGANA,8331010430
759,ANDHRA PRADESH GRAMEENA VIKAS BANK,APGV0008196,NANGNOOR,"H.NO.799/22, NANGNOOR, NANGNOOR, NANGNOOR, 502280",SIDDIPET,NANGNOOR,TELANGANA,9493126215
760,ANDHRA PRADESH GRAMEENA VIKAS BANK,APGV0008197,BY PASS ROAD SANGAREDDY,"H.NO.799/22, BY PASS ROAD, SANGAREDDY, MANJEERANAGAR, SANGAREDDY, 502001",SANGAREDDY,SANGAREDDY,TELANGANA,9491035494
761,ANDHRA PRADESH GRAMEENA VIKAS BANK,APGV0008198,MALKAPUR X ROAD,"H.NO. 1026/1, MALKAPUR X ROAD, JYOTHINAGAR, MALKAPUR, MALKAPUR, 502295",SANGAREDDY,SANGAREDDY,TELANGANA,9491035495
762,ANDHRA PRADESH GRAMEENA VIKAS BANK,APGV0008199,BANUR,"H.NO 581, MAIN ROAD, BHANUR, BHANUR, 502305",SANGAREDDY,ISNAPUR,TELANGANA,8331010464
763,ANDHRA PRADESH GRAMEENA VIKAS BANK,APGV0008200,RAIPALLY ROAD NKD,"RAIPALLY ROAD, NARAYANKHED,NARAYANKHED(MANDAL),MEDAK DIST 502269",SANGAREDDY,NARAYANKHED,TELANGANA,8331010465
764,ANDHRA PRADESH GRAMEENA VIKAS BANK,APGV0008201,MA SADASHIVPET,"MARKET AREA SADASIVAPET,SADASIVAPET(MANDAL),MEDAK DIST 502 291",SANGAREDDY,SADASHIVPET,TELANGANA,8331010466
765,ANDHRA PRADESH GRAMEENA VIKAS BANK,APGV0008202,BANDAMKOMMU,"BANDAMKOMMU, AMEENPUR,PATANCHERU(MANDAL),MEDAK DIST 502032",SANGAREDDY,LINGAMPALLY,TELANGANA,8332988637
766,ANDHRA PRADESH GRAMEENA VIKAS BANK,APGV0008203,MADHAVAPURI HILLS,"H. NO. 19290/G2, ROAD NO. 5, MADHAVAPURI HILLS, AMEENPUR, 502032",SANGAREDDY,LINGAMPALLY,TELANGANA,8332988638
767,ANDHRA PRADESH GRAMEENA VIKAS BANK,APGV0008204,MIG COLONY,"H. NO. 3049C, MIG COLONY, PHASEII, MIG COLONY, PHASEII, TELLAPUR, 502032",SANGAREDDY,LINGAMPALLY,TELANGANA,8332988639
768,ANDHRA PRADESH GRAMEENA VIKAS BANK,APGV0008205,BONTHAPALLY,"H.NO. 4104, VEERABHADRANAGAR COLONY ROAD, BONTHAPALLY, BONTHAPALLY, 502313",SANGAREDDY,MEDCHAL,TELANGANA,8332988640
769,ANDHRA PRADESH GRAMEENA VIKAS BANK,APGV0008206,MIRDODDI,"H.NO. 321/1, MAIN ROAD, MIRDODDI V&M, , MIRDODDI, MIRDODDI, 502108",SIDDIPET,SIDDIPET,TELANGANA,8331043834
770,ANDHRA PRADESH GRAMEENA VIKAS BANK,APGV0008207,KARKAPATLA,"GP BUILDING PREMISES,KARKAPATLA, , KARKAPATLA, KARKAPATLA, 502279",SIDDIPET,KARKAPATLA,TELANGANA,8331043823
771,ANDHRA PRADESH GRAMEENA VIKAS BANK,APGV0008208,LIG COLONY,"H.NO. LIG 111, R C PURAM, , RAMCHANDRAPURAM, RAMCHANDRAPURAM, 502032",SANGAREDDY,LINGAMPALLY,TELANGANA,8331043822
772,ANDHRA PRADESH GRAMEENA VIKAS BANK,APGV0008209,SHANKARAMPET R,"H.NO.517/1, GF, SHANKARAMPET R,SHANKARAMPETR,SHANKARAMPETR,502248",MEDAK,SHANKARAMPET,TELANGANA,8331043835
773,ANDHRA PRADESH GRAMEENA VIKAS BANK,APGV0008210,WASER,"H.NO. 148/2, WASER, , WASER, WASER, 502286",SANGAREDDY,NARAYANKHED,TELANGANA,8331043836
774,ANDHRA PRADESH GRAMEENA VIKAS BANK,APGV0008211,ERRAVELLY,"GROUND FLOOR,IKP BUILDING,ERRAVELLI,JAGADEVPU, , ERRAVELLI, JAGADEVPUR, 502279",SIDDIPET,SIDDIPET,TELANGANA,8331043821
775,ANDHRA PRADESH GRAMEENA VIKAS BANK,APGV0009000,WARANGAL,"2-5-8/1, RAM NAGAR, HANMAKONDA, WARANGAL - 506001",WARANGAL URBAN,WARANGAL,TELANGANA,9440903904
776,ANDHRA PRADESH GRAMEENA VIKAS BANK,APGV0009001,SRIKAKULAM,"SRIKAKULAM REGIONAL OFFICE ,SARASWATHI COMPLEX,BAKER SAHED PETA,SRIKAKULAM-532001",SRIKAKULAM,SRIKAKULAM,ANDHRA PRADESH,9440903911
777,ANDHRA PRADESH GRAMEENA VIKAS BANK,APGV0009002,VIZAYANAGARAM,"VIZAYANAGARAM REGIONAL OFFICE ,DRNO-8-12-64/1,HIMAGIRI THEATRE,NEW SP BUNGALOW,VIZIANAGRAM-536002",VIZAYANAGARAM,VIZAYANAGARAM,ANDHRA PRADESH,9490153759
778,ANDHRA PRADESH GRAMEENA VIKAS BANK,APGV0009003,VISHAKAPATNAM,"D.NO- 50-44-13/1, TPT COLONY,NEAR EENADU,SEETHAMADARA,VISAKHAPATNAM-530013",VISHAKAPATNAM,VISHAKAPATNAM,ANDHRA PRADESH,9440903918
779,ANDHRA PRADESH GRAMEENA VIKAS BANK,APGV0009004,KHAMMAM,"KHAMMAM REGIONAL OFFICE, D.NO- 5-1-543, SAI PRASANTHI COMPLEX,WYRA ROAD,KHAMMAM-507002",KHAMMAM,KHAMMAM,TELANGANA,9440903930
780,ANDHRA PRADESH GRAMEENA VIKAS BANK,APGV0009005,WARANGAL,"ABK MALL, III-FLOOR, RAMNAGAR, OLD BUS DEPOT ROAD,HANAMKONDA,WARANGAL-506001",WARANGAL URBAN,WARANGAL,TELANGANA,9440903914
781,ANDHRA PRADESH GRAMEENA VIKAS BANK,APGV0009006,NALGONDA,"OPP RDO OFFICE ,RAMGIRI,NALGONDA-508001",NALGONDA,NALGONDA,TELANGANA,9440903968
782,ANDHRA PRADESH GRAMEENA VIKAS BANK,APGV0009007,MAHABUBNAGAR,"METTUGADDA,DR NO-8-3-3/5/F,1ST FLOOR,MAHABUNAGAR-509001",MAHABUBNAGAR,MAHABUBNAGAR,TELANGANA,9440903940
783,ANDHRA PRADESH GRAMEENA VIKAS BANK,APGV0009008,SANGAREDDY,"OPP- INSPECTION BUNGALOW, 2ND FLOOR, SHATHINAGAR,SANGAREDDY,502001",SANGAREDDY,SANGAREDDY,TELANGANA,9490153762
784,ANDHRA PRADESH GRAMEENA VIKAS BANK,APGV0009009,ASHOKNAGAR,"ASHOKNAGAR RO, D NO 25-35/3/D, 2 RD FLOOR, SEKHAR ARCADE, OPP BEERAMGUDA KAMAN,RAMACHANDRA REDDY NAGAR GHMC , RC PURAM, MEDAK DT, HYDERABAD",SANGAREDDY,ASHOKNAGAR,TELANGANA,9440903932
785,ANDHRA PRADESH GRAMEENA VIKAS BANK,APGV0009010,BHADRACHALAM,"D.NO- 3-2-199, 2ND FLOOR, VIDYA NAGAR COLONY, CHUNCHUPALLY VILLAGE, KOTHAGUDEM MANDAL, BHADRADRI KOTHAGUDEM -507101",BHADRADRI KOTHAGUDEM,BHADRACHALAM,TELANGANA,9440903943
786,ANDHRA PRADESH GRAMEENA VIKAS BANK,APGV0009011,PARVATHIPURAM,"1ST FLOOR, D.NO- 1435-27-112, OPPOSITE TO SAI RAM COLLEGE, BYPASS ROAD, BELAGAM,PARVATHIPURAM VIZIANAGARAM DISIT PIN-535501",VIZAYANAGARAM,PARVATHIPURAM,ANDHRA PRADESH,8333982561
787,ANDHRA PRADESH GRAMEENA VIKAS BANK,APGV0009909,HYDERABAD,"APGVB ITCELL, D NO 25-35/3/D, 3 RD FLOOR, SEKHAR ARCADE, OPP BEERAMGUDA KAMAN, RAMACHANDRA REDDY NAGAR GHMC , RC PURAM, MEDAK DT, HYDERABAD,RAMACHANDRAPURAM, PIN- 502032",SANGAREDDY,HYDERABAD,TELANGANA,9491065590
