,BANK NAME,IFSC,OFFICE,ADDRESS,DISTRICT,CITY,STATE,PHONE
0,AU SMALL FINANCE BANK LIMITED,AUBL0002011,JAIPUR,FIFTH SIXTH FLOOR SUNNY BIG JUNCTION STC KHASRA NO 64 TO 67 GRAM SUKHAIPURA NEW ATISH MARKET JAIPUR 302020,JAIPUR,JAIPUR,RAJASTHAN,0
1,AU SMALL FINANCE BANK LIMITED,AUBL0002016,DELHI,2E22 JHANDEWALAN EXTENSION NEAR JHANDEWALAN METRO STATION NEW DELHI 110055,NEW DELHI,NEW DELHI,DELHI,0
2,AU SMALL FINANCE BANK LIMITED,AUBL0002017,CHANDIGARH ZIRAKPUR,"SCO 23-24, G floor Ambala Zirakpur highway near corporation Bank Zirakpur Punjab",MOHALI,MOHALI,PUNJAB,0
3,AU SMALL FINANCE BANK LIMITED,AUBL0002018,BIKANER,ABOVE BANDHAN BANK RANI BAZAR BIKANER RAJASTHAN 334001,BIKANER,BIKANER,RAJASTHAN,0
4,AU SMALL FINANCE BANK LIMITED,AUBL0002019,KOTA,PLOT NO18 FIRST FLOOR ABOVE ICICI BANK JHALAWAR ROAD KOTRI CIRCLE KOTA RAJASTHAN 324007,KOTA,KOTA,RAJASTHAN,0
5,AU SMALL FINANCE BANK LIMITED,AUBL0002100,DELHI-DWARKA,BUILDING NO 24 PLOT NO 24 SECTOR 12A DWARKA NEW DELHI 110075,DELHI,DELHI,DELHI,0
6,AU SMALL FINANCE BANK LIMITED,AUBL0002101,DELHI-LAXMI NAGAR,A8 PRIYADARSHNI VIHAR PATPARGANJ ROAD LAXMI NAGAR NEW DELHI 110092,DELHI,DELHI,DELHI,0
7,AU SMALL FINANCE BANK LIMITED,AUBL0002102,DELHI-ROHINI,PLOT NO 28 POCKET E2 SECTOR 7 ROHINI NEW DELHI 110085,DELHI,DELHI,DELHI,0
8,AU SMALL FINANCE BANK LIMITED,AUBL0002103,DELHI-KAROL BAGH,"X/200, B/M Gurudwara Road, Nai Walan,Karol Bhag , Bikaner Sweet,Delhi",DELHI,DELHI,DELHI,0
9,AU SMALL FINANCE BANK LIMITED,AUBL0002104,DELHI EAST OF KAILASH,F 4 EAST OF KAILASH NEAR METRO STATION NEW DELHI 65 110048,DELHI,DELHI,DELHI,0
10,AU SMALL FINANCE BANK LIMITED,AUBL0002105,GHAZIABAD-RAJ NAGAR,C 29 RDC RAJ NAGAR GHAZIABAD 201002,GHAZIABAD,GHAZIABAD,UTTAR PRADESH,0
11,AU SMALL FINANCE BANK LIMITED,AUBL0002106,GURGAON-URBAN ESTATE-,SCO 47 COMMERICAL SECTOR OLD JUDICIAL COMPLEX URBAN ESTATE 007 GURGAON HARYANA 122001,GURGAON,GURGAON,HARYANA,0
12,AU SMALL FINANCE BANK LIMITED,AUBL0002107,NARNAUL-REWARI ROAD,OPP DISTRICT LIBRARY REWARI ROAD NEAR SBI BANK NARNAUL 123001,MAHENDRAGARH,MAHENDRAGARH,HARYANA,0
13,AU SMALL FINANCE BANK LIMITED,AUBL0002108,PATAUDI-HAILYMANDI,JLZOPPNEWANJMNDIHILYMNDITUDIODTUDI122503,GURGAON,GURGAON,HARYANA,0
14,AU SMALL FINANCE BANK LIMITED,AUBL0002109,REWARI-CIRCULAR ROAD,6393 E 1 OPP HERO SHOWROOM NEAR DHARUHEDA CHUNGI CIRCULAR ROAD REWARI 123401,REWARI,REWARI,HARYANA,0
15,AU SMALL FINANCE BANK LIMITED,AUBL0002110,AMBALA-NICHOLSON ROAD,6351 15 16 NICHOLSON ROAD AMBALA CANTT AMBALA 134003,AMBALA,AMBALA,HARYANA,0
16,AU SMALL FINANCE BANK LIMITED,AUBL0002111,HISAR-RED SQUARE MARKET,SCO 181 AREA IN SECTOR C U E I RED SQUARE MARKET HISAR 125001,HISAR,HISAR,HARYANA,0
17,AU SMALL FINANCE BANK LIMITED,AUBL0002112,KAITHAL-AMBALA ROAD,WARD NO 15 RAJ ARJUN PLAZA 943 11 OPP SNAJIVNI HOSPITAL AMBALA ROAD KAITHAL 136027,KAITHAL,KAITHAL,HARYANA,0
18,AU SMALL FINANCE BANK LIMITED,AUBL0002113,KARNAL-URBAN ESTATE,SCO NO 240 SECTOR 12 PART 1 URBAN ESTATE KARNAL HARYANA 132001,KARNAL,KARNAL,HARYANA,0
19,AU SMALL FINANCE BANK LIMITED,AUBL0002114,KURUKSHETRA-RAILWAY ROAD,OPP VISHKARMA MANDHIR RAILWAY ROAD KURUKSHETRA 136118,KURUKSHETRA,KURUKSHETRA,HARYANA,0
20,AU SMALL FINANCE BANK LIMITED,AUBL0002115,PANIPAT-G.T. ROAD,WARD NO 19 DAYAL PROPERTY G T ROAD NEAR MIS TOWN HOTEL PANIPATH HARYANA 132103,PANIPATH,PANIPATH,HARYANA,0
21,AU SMALL FINANCE BANK LIMITED,AUBL0002116,SIRSA-KAR HOUSE,PROPERTY NO B16 1106 1105 KAR HOUSE OPP BAJAJ SHOWROOM DABWALI SIRSA HARYANA 125055,SIRSA,SIRSA,HARYANA,0
22,AU SMALL FINANCE BANK LIMITED,AUBL0002117,YAMUNANAGAR-JAGADHARI,SCO 179 HUDA SECTOR 17 BARLABE BYPASS ROAD JAGADHARI DISTT YAMUNANAGAR 135003,YAMUNANAGAR,YAMUNANAGAR,HARYANA,0
23,AU SMALL FINANCE BANK LIMITED,AUBL0002118,FARIDABAD,"Ground Floor, Plot No - 15, Sector - 16,Faridabad , Haryana - 121002",FARIDABAD,FARIDABAD,HARYANA,0
24,AU SMALL FINANCE BANK LIMITED,AUBL0002119,NOIDA-SECTOR,F32 SECTOR 18 NOIDA 201301,GAUTAM BUDDHA NAGAR,GAUTAM BUDDHA NAGAR,UTTAR PRADESH,0
25,AU SMALL FINANCE BANK LIMITED,AUBL0002120,BHUJ,WARD NO SHEET NO 233 CITY SURVEY NO 687 HOUSE NO 7 47 GUJARAT HOUSING BOARD BHUJ 370001,KACHCHH,KACHCHH,GUJARAT,0
26,AU SMALL FINANCE BANK LIMITED,AUBL0002121,GANDHIDHAM-BANKING CIRCLE,SAI COMPLEX GROUND FLOOR DBZ S 137 NEAR BANKING CIRCLE GANDHIDHAM 370201,KACHCHH,KACHCHH,GUJARAT,0
27,AU SMALL FINANCE BANK LIMITED,AUBL0002122,JAMNAGAR-MADHAV SQUARE,MADHAV SQUARE GROUND FLOOR SHOP NO 4 5 NEAR LIMDA LINE 361001,JAMNAGAR,JAMNAGAR,GUJARAT,0
28,AU SMALL FINANCE BANK LIMITED,AUBL0002123,JETPUR-KANAKIYA PLOT,PLOT NO 62 CITY SURVEY NO 2031 A FIRST FLOOR ABOVE ICICI BANK OPP HDFC BANK KANAKIYA PLOT JETPUR 360370,RAJKOT,RAJKOT,GUJARAT,0
29,AU SMALL FINANCE BANK LIMITED,AUBL0002124,JUNAGARH-ZAZARAD ROAD,SHOP NO 11C UNIT C KALPAVRUSH COMMERICAL COMPLEX ZAZARAD ROAD JUNAGADH 362001,JUNAGADH,JUNAGADH,GUJARAT,0
30,AU SMALL FINANCE BANK LIMITED,AUBL0002125,MORBI-SANALA ROAD,SHOP NO 1 2 3 4 CITY SURVEY NO 2451 2452 2453 P CHALTA NO 39 40 41 MORBI 363642,MORBI,MORBI,GUJARAT,0
31,AU SMALL FINANCE BANK LIMITED,AUBL0002126,RAJKOT,NAVA MAVA REVENUE SURVEY NO 27 P TP NO 7 FP NO 31 2 J 1 BUILDING GROUND FLOOR FLOOR SADAR PATEL MARG NEAR HDFC BANK 150 FEET RING ROAD RAJKOT 360005,RAJKOT,RAJKOT,GUJARAT,0
32,AU SMALL FINANCE BANK LIMITED,AUBL0002127,VADODARA-BENNYSON COMPLEX,"Shop No 3 AND 4 Benison Complex,Opp, Rajlakshmi Complex,OP Road,Vadodara",VADODARA,VADODARA,GUJARAT,0
33,AU SMALL FINANCE BANK LIMITED,AUBL0002129,ANKALESHWAR STATION ROAD,HPN1213OMKARIICMPLEXTATINRADNEARHTELLRDSGIDCAREAANKALESHWAR393002,BHARUCH,BHARUCH,GUJARAT,0
34,AU SMALL FINANCE BANK LIMITED,AUBL0002130,BODELI,SHOP NO 1 2 3 4 NEAR HDFC BODELI 391135,CHHOTA UDAIPUR,CHHOTA UDAIPUR,GUJARAT,0
35,AU SMALL FINANCE BANK LIMITED,AUBL0002131,NAVSARI-HOUSING SOCIETY,WARD NO 9 1 SHOP NO G 1 G 2 G 3 G 4 ROCKIES APARTMENT CO OPP HOUSING SOCIETY LTD NAVSARI 396445,NAVSARI,NAVSARI,GUJARAT,0
36,AU SMALL FINANCE BANK LIMITED,AUBL0002132,SURAT-I,SHOP NO G 1 T P 8 UMARVADA CITY SURVEY NO 2032 SARKARTEXTILE MARKET NEAR SAHARA DARWAJI RING ROAD SURAT 395002,SURAT,SURAT,GUJARAT,0
37,AU SMALL FINANCE BANK LIMITED,AUBL0002133,SURAT-VESU,SHOP NO G9 GROUND FLOOR SNS PLATINA OPP RELIANCE MART VESU SURAT 395007,SURAT,SURAT,GUJARAT,0
38,AU SMALL FINANCE BANK LIMITED,AUBL0002134,VAPI,DHARATI COMPLEX NH8 GUNJAN DAMAN ROAD VAPI 396191,VALSAD,VALSAD,GUJARAT,0
39,AU SMALL FINANCE BANK LIMITED,AUBL0002135,BAYAD-MARKET YARD,SHOP NO 16 17 18 19 20 SHREEJI DADA COMPLEX NEAR MARKET YARD MODASSA KAPADWAJ ROAD BAYAD 383325,ARAVALLI,ARAVALLI,GUJARAT,0
40,AU SMALL FINANCE BANK LIMITED,AUBL0002136,DEESA-PITHAM CITY PLAZA COMPLEX,SHOP NO 7 8 9 BELOW YES BANK SECTOR 1 NEAR AU FINANCERS PITHAM CITY PLAZA COMPLEX DEESA 385535,BANASKANTHA,BANASKANTHA,GUJARAT,0
41,AU SMALL FINANCE BANK LIMITED,AUBL0002137,DEODAR-ALRAM PARK SOCIETY,SHOP NO 21 22 NEAR GOVERNMENT GUEST HOUSE AND TAXI STAND ADJACENT TO SBBJ ALRAM PARK SOCIETY POLICE STATION ROAD DEODAR 385330,BANASKANTHA,BANASKANTHA,GUJARAT,0
42,AU SMALL FINANCE BANK LIMITED,AUBL0002139,HIMATNAGAR-SAHKARI JIN ROAD,SHOP NO 1 TO 5 GROUND FLOOR ASHOK VATIKA SAHKARI JIN ROAD NEAR RBL BANK HIMMATNAGAR 383001,SABARKANTHA,SABARKANTHA,GUJARAT,0
43,AU SMALL FINANCE BANK LIMITED,AUBL0002140,IDAR-MAIN AMBAJI HIGHWAY,SATYAM COMPLEX C S NO 6615 6616 6617 6617 6618 6619 6620 MOUJE IDAR MAIN AMBAJI HGHWAY IDAR 383430,SABARKANTHA,SABARKANTHA,GUJARAT,0
44,AU SMALL FINANCE BANK LIMITED,AUBL0002141,MEHSANA,PLOT NO 3A SHEET NO 18 CHALTA NO 138 CITY SURVEY NO 5598 NEXT TO ICICI BANK AHMEDABAD HIGHWAY MEHSANA 382721,MAHESANA,MAHESANA,GUJARAT,0
45,AU SMALL FINANCE BANK LIMITED,AUBL0002142,MODASA-SHAMALAJI ROAD,SHOP NO A7 A8 CTS NO 509 PAIKI 1 SHAMALAJI ROAD MODASA 383315,ARAVALLI,ARAVALLI,GUJARAT,0
46,AU SMALL FINANCE BANK LIMITED,AUBL0002143,PALANPUR-ABU NATIONAL HIGHWAY,TRIMURTI COMPLEX OPP INCOME TAX OFFICE NEAR SBI BANK ABU NATIONAL HIGHWAY PALANPUR 385001,BANASKANTHA,BANASKANTHA,GUJARAT,0
47,AU SMALL FINANCE BANK LIMITED,AUBL0002144,PATAN-RAJMAHAL STATION ROAD,CITY SURVEY NO 1639 SHEET NO 131 SANTOKBA HALL OF GUNAGADIPARTI RAJMAHAL STATION ROAD NEAR PATAN RAILWAY STATION PATAN 384265,PATAN,PATAN,GUJARAT,0
48,AU SMALL FINANCE BANK LIMITED,AUBL0002145,THARAD WAJAGADH,AMAR COMPLEX FIRST FLOOR GROUND FLOOR HIGH WAY CHOWKDI WAJAGADH THARAD 385565,BANAS KANTHA,BANAS KANTHA,GUJARAT,0
49,AU SMALL FINANCE BANK LIMITED,AUBL0002146,GANDHINAGAR-SHUBH COMPLEX-SECTOR,PLOT NO 171 SHOP NO 1 2 3 4 5 101 102 SHUBH COMPLEX SECTOR 21 GANDHINAGAR OPP GALLOPS MOTOR 382421,GANDHINAGAR,GANDHINAGAR,GUJARAT,0
50,AU SMALL FINANCE BANK LIMITED,AUBL0002147,KALOL-BT MALL,SHOP NO 8 9 MEHUL R PATEL HUF B T MALL NAVJEEVAN MILL COMPOUND KALOL 382721,GANDHINAGAR,GANDHINAGAR,GUJARAT,0
51,AU SMALL FINANCE BANK LIMITED,AUBL0002148,KATHLAL-AHMEDABAD ROAD,SHOP NO 20 21 MADHAV COMPLEX NEAR SWAGAT HOTEL AHMEDABAD ROAD KATHLAL 387630,KHEDA,KHEDA,GUJARAT,0
52,AU SMALL FINANCE BANK LIMITED,AUBL0002149,LUNAWADA-GODHRA ROAD,BESIDE CORPORATION BANK OPP LILAVATI HOSPITAL GODHRA LUNAVADA 389230,MAHISAGAR,MAHISAGAR,GUJARAT,0
53,AU SMALL FINANCE BANK LIMITED,AUBL0002150,NADIAD-AANAND ROAD,103 GRAVITY COMPLEX OPP AMBA ASHRAM AANAND ROAD NADIAD 387001,KHEDA,KHEDA,GUJARAT,0
54,AU SMALL FINANCE BANK LIMITED,AUBL0002151,SURENDRANAGAR-CITY CENTER,SHOP NO 3 4 5 CITY SURVEY NO 4012 WARD NO 2 BEHIND BANK OF MAHARASHTRA OPP MP SHAH ARTS AND SCIENCE COLLEGE BUS STAND ROAD WADHWAN SURENDRANAGAR 363001,SURENDRANAGAR,SURENDRANAGAR,GUJARAT,0
55,AU SMALL FINANCE BANK LIMITED,AUBL0002152,AHMEDABAD-SHIVRANJANAI,GROUND FLOOR SHEETAL VASHA SHIVRANJANI CROSS ROADS SATELLITE AHMEDABAD 380015,AHMEDABAD,AHMEDABAD,GUJARAT,0
56,AU SMALL FINANCE BANK LIMITED,AUBL0002153,AHMEDABAD-ASHRAM ROAD,"City Survey 13, 14, 15 and 16 Ground Floor, Central Business Space,Opp Fortune Landmark Hotel, Usmanpura,Ashram Road,Ahmedabad",AHMEDABAD,AHMEDABAD,GUJARAT,0
57,AU SMALL FINANCE BANK LIMITED,AUBL0002154,ANAND-STATION ROAD,SURVEY NO 1641 OFFICE NO A 1 2 3 4 5 SHREE RAM ARCEDE STATION ROAD ANAND 388001,ANAND,ANAND,GUJARAT,0
58,AU SMALL FINANCE BANK LIMITED,AUBL0002155,BAVLA-SILVER PLAZA COMPLEX,SHOP NO 105 106 107 SILVER PLAZA COMPLEX SURVEY NO 1572 PAIKKI CITY SURVEY NO 264 275 PAKKI OF MOUJE BAVLA 382220,AHMEDABAD,AHMEDABAD,GUJARAT,0
59,AU SMALL FINANCE BANK LIMITED,AUBL0002156,BHAVNAGAR-WAGHAWADI ROAD,"Plot 8B, Shop No 1 AND 2,,Sappire Prime,Opp Daxinamurti School,Waghawadi Raod,Bhavnagar",BHAVNAGAR,BHAVNAGAR,GUJARAT,0
60,AU SMALL FINANCE BANK LIMITED,AUBL0002157,BORSAD-RATAN PARK SOCIETY,GROUND FLOOR NEAR RATAN PARK SOCIETY BUS STAND BORSAD 388540,ANAND,ANAND,GUJARAT,0
61,AU SMALL FINANCE BANK LIMITED,AUBL0002158,DAHOD,1ST FLOOR GLK TOWER OPP AXIS BANK NEAR BUS DEPOT STATION ROAD DAHOD 389151,DAHOD,DAHOD,GUJARAT,0
62,AU SMALL FINANCE BANK LIMITED,AUBL0002159,GODHRA-LANDMARK COMPLEX,SHOP NO F 5 F 6 GROUND FLOOR LANDMARK COMPLEX RS NO 226 227 PUKKI C S NO 419 1 8 AND 419 5 GODHRA PANCHMAHAL GUJARAT 389001,PANCH MAHALS,PANCH MAHALS,GUJARAT,0
63,AU SMALL FINANCE BANK LIMITED,AUBL0002160,AHMEDABAD-RELIEF ROAD,SHOP NO 12A 14 15 16 17 ON GROUND FLOOR SHOP NO 110B 110A 11A 11B 109 ON FIRST FLOOR RELIEF ARCADE OLD RELIEF CINEMA RELIEF ROAD AHMEDABAD 380001,AHMEDABAD,AHMEDABAD,GUJARAT,0
64,AU SMALL FINANCE BANK LIMITED,AUBL0002161,AHMEDABAD-MANI NAGAR,SHOP NO 1 B GROUND FLOOR SATVA SHAKTI PUSHPAKUNJ CIRCLE KANKARIA MANINAGAR AHMEDABAD 380008,AHMEDABAD,AHMEDABAD,GUJARAT,0
65,AU SMALL FINANCE BANK LIMITED,AUBL0002162,BANDIKUI-CHOUDHARY PLAZA,WARD 10 CHOUDHARY PLAZA ADJOINING TO HDFCBANK BANDIKUI 303313,DAUSA,DAUSA,RAJASTHAN,0
66,AU SMALL FINANCE BANK LIMITED,AUBL0002163,JAIPUR-AMBABARI,C 55 SUBH LAXMI NEAR MAHARISHI ARVIND INSTITUTE AMBABARI JAIPUR 302039,JAIPUR,JAIPUR,RAJASTHAN,0
67,AU SMALL FINANCE BANK LIMITED,AUBL0002164,CHOMU-NEW ANAJ MANDI,SHOP NO 1 2 3 13 14 15 BASANT PLAZA MORIJA ROAD NEAR KRISHIMANDI CHOMU 303702,JAIPUR,JAIPUR,RAJASTHAN,0
68,AU SMALL FINANCE BANK LIMITED,AUBL0002165,DAUSA-AGRA ROAD,SHOP NO 40 1 40 2 N H 11 AGRA ROAD KHASRA NO 1423 DAUSA 303303,DAUSA,DAUSA,RAJASTHAN,0
69,AU SMALL FINANCE BANK LIMITED,AUBL0002167,JAIPUR-JOHARI BAZAR,SHOP NO 305 306 JOHRI BAZAR GROUND FLOOR AND FIRST FLOOR HOUSE NO 3946 BARATHI BHAWAN MSB KA RASTA JAIPUR 302003,JAIPUR,JAIPUR,RAJASTHAN,0
70,AU SMALL FINANCE BANK LIMITED,AUBL0002168,JAIPUR-VKI,SHOP NO G1 ARG NORTH AVENUE SIKAR ROAD VKI JAIPUR 302013,JAIPUR,JAIPUR,RAJASTHAN,0
71,AU SMALL FINANCE BANK LIMITED,AUBL0002169,HEERAWALA-JAMWA RAMGARH ROAD,"59,60,61,62,MAINBUS STAND,JAMWA RAMGARH ROAD,HEERAWALA,Jamwa Ramgarh",JAIPUR,JAIPUR,RAJASTHAN,0
72,AU SMALL FINANCE BANK LIMITED,AUBL0002170,JOBNER-KALWAR ROAD,WARD NO 14 OPPOSITE POLICE STATION JAKHAR COMPLEX KALWAR ROAD JOBNER 303328,JAIPUR,JAIPUR,RAJASTHAN,0
73,AU SMALL FINANCE BANK LIMITED,AUBL0002171,KHEJROLI-CHOMU ROAD,LAKHASRA NO 2363 1 NEAR SANTOSH TRACTOR CHOMU ROAD KHEJROLI 303803,JAIPUR,JAIPUR,RAJASTHAN,0
74,AU SMALL FINANCE BANK LIMITED,AUBL0002172,BIDASAR-WARD NO,WARD NO8 NEAR SBBJ BANK POST BIDASAR DISTRICT CHURU 331501,CHURU,CHURU,RAJASTHAN,0
75,AU SMALL FINANCE BANK LIMITED,AUBL0002173,DANTARAMGARH-MAIN DARWAJA,WARD NO 10 NEAR HOSPITAL MAIN DARWAJA MAIN MARKET DANTARAMGARH 332702,SIKAR,SIKAR,RAJASTHAN,0
76,AU SMALL FINANCE BANK LIMITED,AUBL0002174,DIDWANA-EDGAH ROAD,NEAR AXIS BANK OLD EDGAH ROAD DIDWANA 341308,NAGAUR,NAGAUR,RAJASTHAN,0
77,AU SMALL FINANCE BANK LIMITED,AUBL0002176,REENGUS-BUS STAND ROAD,NEAR BANK OF INDIA REENGUS BUS STAND ROAD REENGUS 332404,SIKAR,SIKAR,RAJASTHAN,0
78,AU SMALL FINANCE BANK LIMITED,AUBL0002177,SIKAR-STATION ROAD,NEAR TAPARIA BAGICHEE STATION ROAD NEXT TO JANANA HOSPITAL SIKAR 332001,SIKAR,SIKAR,RAJASTHAN,0
79,AU SMALL FINANCE BANK LIMITED,AUBL0002179,SRI MADHOPUR-STATION ROAD,STATION ROAD WARD NO 7 SHRIMADHOPUR 332715,SIKAR,SIKAR,RAJASTHAN,0
80,AU SMALL FINANCE BANK LIMITED,AUBL0002180,SUJANGARH-STATION ROAD,WARD NO 29 STATION ROAD NEAR HDFC BANK SUJANGARH 331507,CHURU,CHURU,RAJASTHAN,0
81,AU SMALL FINANCE BANK LIMITED,AUBL0002181,CHIRAWA-PILANI ROAD,NAVIN TOWER OPP AXIX BANK PILANI ROAD CHIRAWA 333026,JHUNJHUNU,JHUNJHUNU,RAJASTHAN,0
82,AU SMALL FINANCE BANK LIMITED,AUBL0002182,CHURU-PURANI SADAK,WARD NO 24 NR HOTEL NATRAJ PURANI SADAK CHURU 331001,CHURU,CHURU,RAJASTHAN,0
83,AU SMALL FINANCE BANK LIMITED,AUBL0002183,FATEHPUR-JP TOWER,WARD NO 19 OLD 17 NEW PARTURAM JI CHAKKI KE PASS J P TOWER OPP HDFC BANK FATHEPUR 332301,SIKAR,SIKAR,RAJASTHAN,0
84,AU SMALL FINANCE BANK LIMITED,AUBL0002184,JHUNJHUNU-GANDHI CHOWK,SHOP NO 4 5 6 7 8 VINAYAK COMPLEX NEAR MAHARAJA HOTEL GHANDI CHOWK JHUNJHUNU 333001,JHUNJHUNU,JHUNJHUNU,RAJASTHAN,0
85,AU SMALL FINANCE BANK LIMITED,AUBL0002185,NAWALGARH-MAIN MARKET,WARD NO 6 NAHARSINGH PARK KE PASS MAIN MARKET NAWALGARH 333042,JHUNJHUNU,JHUNJHUNU,RAJASTHAN,0
86,AU SMALL FINANCE BANK LIMITED,AUBL0002186,SAHWA-OLD BUS STAND,WARD NO 16 NEAR OLD BUS STAND OPPOSITE AU OFFICE SAHWA TARANAGAR CHURU RAJASTHAN 331302,CHURU,CHURU,RAJASTHAN,0
87,AU SMALL FINANCE BANK LIMITED,AUBL0002187,TARANAGAR-SHEETLA CHOWK,WARD NO 3 SHEETLA CHOWK TARANAGAR 331304,CHURU,CHURU,RAJASTHAN,0
88,AU SMALL FINANCE BANK LIMITED,AUBL0002188,UDAIPURWATI-JHUNJHUNU ROAD,KHASRA NO 1701 NEAR GHUMCHAKKAR JHUNJHUNU ROAD UDAIPURWATI 333307,JHUNJHUNU,JHUNJHUNU,RAJASTHAN,0
89,AU SMALL FINANCE BANK LIMITED,AUBL0002189,ALWAR-RAGHU MARG,KHASRA NO 2150 2151 2152 201 RAGHU MARG LAKHANDA WALA KUA RAJ VILLA OPPOSITE GOVT CHILDREN HOSPITAL ALWAR 301001,ALWAR,ALWAR,RAJASTHAN,0
90,AU SMALL FINANCE BANK LIMITED,AUBL0002190,BANSUR-NARAYANPUR ROAD,PATTA NO 24 NEAR HDFC BAANK NARAYANPUR ROAD BANSUR 301402,ALWAR,ALWAR,RAJASTHAN,0
91,AU SMALL FINANCE BANK LIMITED,AUBL0002191,BEHROR-GOSWAMI SADAN,GOSWAMI SADAN WARD NO 7 NEAR ICICI BANK BEHROR ALWAR RAJASTHAN 301701,ALWAR,ALWAR,RAJASTHAN,0
92,AU SMALL FINANCE BANK LIMITED,AUBL0002192,BHIWADI-BHAGAT SINGH COLONY,A 2 SHAKUNTALAM TOWER BHAGAT SINGH COLONY NEAR RBL BANK BHIWADI 301019,ALWAR,ALWAR,RAJASTHAN,0
93,AU SMALL FINANCE BANK LIMITED,AUBL0002193,GATHWARI-DEEP HOUSE,DEEP HOUSE GHATWARI NEAR OLS BUS STAND 303120,JAIPUR,JAIPUR,RAJASTHAN,0
94,AU SMALL FINANCE BANK LIMITED,AUBL0002194,KHANDELA-BARSINGHPURA ROAD,KHASRANO132BARSINGHPURAROADKHANDELABYPASSKHANDELA332709,SIKAR,SIKAR,RAJASTHAN,0
95,AU SMALL FINANCE BANK LIMITED,AUBL0002195,KHETRI-WARD NO,WARD NO 16 KHETRI DIST JHUNJHUNU RAJASTHAN 333503,JHUNJHUNU,JHUNJHUNU,RAJASTHAN,0
96,AU SMALL FINANCE BANK LIMITED,AUBL0002196,KISHANGARH BAS-TIJARA ROAD,KHASRA NO 512 NEAR PNB BANK TIJARA ROAD KISHANGARH BAS ALWAR 301405,ALWAR,ALWAR,RAJASTHAN,0
97,AU SMALL FINANCE BANK LIMITED,AUBL0002197,KOTPUTLI-PUNJABI SINDHI COLONY,SHRI GANESH ENTERPRISES OPP NAGAR PALIKA PARK PUNJABI SINDHI COLONY NEAR ICICI BANK KOTHPUTLI JAIPUR 303108,JAIPUR,JAIPUR,RAJASTHAN,0
98,AU SMALL FINANCE BANK LIMITED,AUBL0002198,NEEM KA THANA-KAPIL MANDI,PLOT NO 16 ZONRE B SHIVAM PLAZA KAPIL MANDI NEAR DHARM KATA NEEM KA THANA 332713,SIKAR,SIKAR,RAJASTHAN,0
99,AU SMALL FINANCE BANK LIMITED,AUBL0002199,PAOTA-NH,NH 8 NEAR BUS STAND PAOTA KOTPUTLI 303106,JAIPUR,JAIPUR,RAJASTHAN,0
100,AU SMALL FINANCE BANK LIMITED,AUBL0002200,SHAHPURA-OLD DELHI ROAD,HANUMANT PLAZA OLD DELHI ROAD OPP NAGAR PALIKA SHAHPURA 303103,JAIPUR,JAIPUR,RAJASTHAN,0
101,AU SMALL FINANCE BANK LIMITED,AUBL0002201,THANAGAZI-ALWAR ROAD,KHASRA NO 2588 OLD NO 2347 MAIN BUS STAND ALWAR ROAD THANAGAZI 301022,ALWAR,ALWAR,RAJASTHAN,0
102,AU SMALL FINANCE BANK LIMITED,AUBL0002202,THOI-LOHAROO KA MOHALLA,ADNO10LOHAOOKAMOHALLANEABAODAGAMBANKTHOI332719,SIKAR,SIKAR,RAJASTHAN,0
103,AU SMALL FINANCE BANK LIMITED,AUBL0002203,BAGRU-BABA MARKET,KHASRA NO 703 BABA MARKET LINK ROAD BAGRU 303007,JAIPUR,JAIPUR,RAJASTHAN,0
104,AU SMALL FINANCE BANK LIMITED,AUBL0002204,BHANKROTA-NEER SAGAR MARKET,PLOT NO 36 NEAR HDFC BANK NEER SAGAR MARKET BHANKROTA 302026,JAIPUR,JAIPUR,RAJASTHAN,0
105,AU SMALL FINANCE BANK LIMITED,AUBL0002205,DUDU-MAIN CHAURAHA,SHIV AUTO AGENCY DUDU MAIN CHAURAHA JAIPUR ROAD 303008,JAIPUR,JAIPUR,RAJASTHAN,0
106,AU SMALL FINANCE BANK LIMITED,AUBL0002206,JAIPUR-VAISHALI NAGAR,10 SHIVRAJ NIKETAN OPP SBBJ BANK GAUTAM MARG VAISHALI NAGAR JAIPUR 302021,JAIPUR,JAIPUR,RAJASTHAN,0
107,AU SMALL FINANCE BANK LIMITED,AUBL0002207,JAIPUR-C-SCHEME,SHOP NO 5 6 AT GF AXIS MALL BHAGWAN DAS ROAD C SCHEME JAIPUR 302007,JAIPUR,JAIPUR,RAJASTHAN,0
108,AU SMALL FINANCE BANK LIMITED,AUBL0002208,JAIPUR MALVIYA NAGAR,PLOT NO 3 JEN ENCLAVE CALGIRI ROAD MALVIYA NAGAR JAIPUR 302017,JAIPUR,JAIPUR,RAJASTHAN,0
109,AU SMALL FINANCE BANK LIMITED,AUBL0002209,JAIPUR-SANTOKBA DURLABJI,"B22 -23 Badjatya Complex ,Janta store Central market ,Bapu Nagar Jaipur",JAIPUR,JAIPUR,RAJASTHAN,0
110,AU SMALL FINANCE BANK LIMITED,AUBL0002210,RENWAL-AGRASEN MARKET,WARD NO 13 CHOMU BAZAR ROAD AGRASEN MARKET RENWAL 303603,JAIPUR,JAIPUR,RAJASTHAN,0
111,AU SMALL FINANCE BANK LIMITED,AUBL0002211,BARNA,MAIN MARKET BARNA 305801,JAIPUR,JAIPUR,RAJASTHAN,0
112,AU SMALL FINANCE BANK LIMITED,AUBL0002212,BASSI,KHASRA NO 1070 1071 KHADI GRAM UDYOG SADAN VIKAS SAMITI BASSI JAIPUR 303301,JAIPUR,JAIPUR,RAJASTHAN,0
113,AU SMALL FINANCE BANK LIMITED,AUBL0002213,CHAKSU-KOTKHAVADA MOD,KOTKHAVADA MOD NEAR SHYAM TOWER CHAKSU 303901,JAIPUR,JAIPUR,RAJASTHAN,0
114,AU SMALL FINANCE BANK LIMITED,AUBL0002214,JAIPUR-MANSAROVAR MADHYAM MARG,SHOPING CENTRE SECTOR 9 MADHYAM MARG 302020,JAIPUR,JAIPUR,RAJASTHAN,0
115,AU SMALL FINANCE BANK LIMITED,AUBL0002215,JAIPUR GOPALPURA BYE PASS,PLOT NO 22 TO 25 91 92 GOPAL NAGAR A ASHOK VIHAR EXT GOPALPURA BYPASS JAIPUR 302018,JAIPUR,JAIPUR,RAJASTHAN,0
116,AU SMALL FINANCE BANK LIMITED,AUBL0002216,JAIPUR PRATAP NAGAR,PLOT NO A SECTOR 8 HALDIGHATI MARG MAIN TONK ROAD PRATAP NAGAR 302033,JAIPUR,JAIPUR,RAJASTHAN,0
117,AU SMALL FINANCE BANK LIMITED,AUBL0002217,JAIPUR RAJA PARK,BUSINESS AVENUE B12 GOVIND MARG RAJA PARK JAIPUR 302004,JAIPUR,JAIPUR,RAJASTHAN,0
118,AU SMALL FINANCE BANK LIMITED,AUBL0002218,PHAGI-JAIPUR ROAD,PATTA NO 93 JAIPUR ROAD NEAR UCO BANK PHAGI 303005,JAIPUR,JAIPUR,RAJASTHAN,0
119,AU SMALL FINANCE BANK LIMITED,AUBL0002219,TONK,NAZAR BAG ROAD SUNARO KA MANDIR TONK 304001,TONK,TONK,RAJASTHAN,0
120,AU SMALL FINANCE BANK LIMITED,AUBL0002220,AJMER-ANASAGAR ROAD,GURUKRIPA BUILDING ANASAGAR ROAD CHAUPATI KE SAMNE AJMER 305001,AJMER,AJMER,RAJASTHAN,0
121,AU SMALL FINANCE BANK LIMITED,AUBL0002221,BEAWAR-JODHPUR ROAD,8 243 GALI NO 6 MAHAVEER GANJ ALSO KNOWN AS AANAD GRAH NO 2 PLOT NO B HOTEL GANGAPUR JODHPUR ROAD BEAWAR 305901,AJMER,AJMER,RAJASTHAN,0
122,AU SMALL FINANCE BANK LIMITED,AUBL0002222,BIJAINAGAR-MILL ROAD,KHASRA NO 29 PLOT NO 25 NEAR RAILWAY PHATAK GULAB PURA ROAD MILL ROAD BIJAY NAGAR 305624,AJMER,AJMER,RAJASTHAN,0
123,AU SMALL FINANCE BANK LIMITED,AUBL0002223,KEKRI-SAPANDA ROAD,SAPANDA ROAD PLOT NO 242 WARD NO 27 KEKRI 305404,AJMER,AJMER,RAJASTHAN,0
124,AU SMALL FINANCE BANK LIMITED,AUBL0002224,KISHANGARH-MADANGANJ,SHOP NO 9 10 BHATT GUEST HOUSE JAIPUR ROAD MADAN GANJ KISHANGARH RAJASTHAN 305801,AJMER,AJMER,RAJASTHAN,0
125,AU SMALL FINANCE BANK LIMITED,AUBL0002225,NASIRABAD-SUBHASH GANJ,SHOP NO 1204 SUBHASH GANJ ANAJ MANDI NASIRABAD 305601,AJMER,AJMER,RAJASTHAN,0
126,AU SMALL FINANCE BANK LIMITED,AUBL0002226,NAWA-SHREE RAM SADAN,SHREE RAM SADAN JAIPUR SIKAR ROAD 341509,NAGAUR,NAGAUR,RAJASTHAN,0
127,AU SMALL FINANCE BANK LIMITED,AUBL0002227,PARBATSAR-KISHANGARH ROAD,WARD NO 13 SHYAM COLONY RAMA PEER COMPLEX KISHANGARH ROAD PARBATSAR RAJASTHAN 341512,NAGAUR,NAGAUR,RAJASTHAN,0
128,AU SMALL FINANCE BANK LIMITED,AUBL0002228,SARWAR-LINK ROAD,WARD NO 1 LINK ROAD SARWAR 305403,AJMER,AJMER,RAJASTHAN,0
129,AU SMALL FINANCE BANK LIMITED,AUBL0002229,ASIND-PANCHAYAT SAMITI ROAD,WARD NO 14 PANCHAYAT SAMITI ROAD OPP PANCHAYAT SAMITI BEEM ROAD AASHIND RAJASTHAN 311301,BHILWARA,BHILWARA,RAJASTHAN,0
130,AU SMALL FINANCE BANK LIMITED,AUBL0002230,BEGUN-TEHSIL ROAD,KHEMKA BUILDING KHASRA NO 372 180 TEHSIL ROAD BEGUN 312023,CHITTORGARH,CHITTORGARH,RAJASTHAN,0
131,AU SMALL FINANCE BANK LIMITED,AUBL0002231,BHILWARA-HIRA PANNA MARKET,PLOT NO C1 C 2 C3 C 4 HIRA PANNA MARKET PUR ROAD BHILWARA 311001,BHILWARA,BHILWARA,RAJASTHAN,0
132,AU SMALL FINANCE BANK LIMITED,AUBL0002232,BIJOLIA,PATTA NO 333 NEAR BUS STAND BIJOLIA 342301,BHILWARA,BHILWARA,RAJASTHAN,0
133,AU SMALL FINANCE BANK LIMITED,AUBL0002233,CHITTORGARH-KUMBHANAGAR,PLOT NO 14 15 C KUMBHA NAGAR CHITTORGARH 302001,CHITTORGARH,CHITTORGARH,RAJASTHAN,0
134,AU SMALL FINANCE BANK LIMITED,AUBL0002234,GANGAPUR,WARD NO 8 SHOP NO 1 2 3 4 5 BHUT BAVJI KE PASS GALI NO 3 GANGAPUR RAJASTHAN 311801,BHILWARA,BHILWARA,RAJASTHAN,0
135,AU SMALL FINANCE BANK LIMITED,AUBL0002235,PRATAPGARH-HIGH SCHOOL ROAD,B 2 OPP PUNJAB NATIONAL BANK HIGH SCHOOL ROAD ZERO MILE ROAD ABOVE AXIS BANK PRATAPGARH 312605,PRATAPGARH,PRATAPGARH,RAJASTHAN,0
136,AU SMALL FINANCE BANK LIMITED,AUBL0002236,RAJSAMAND-KANKROLI,WARD NO 18 OPPOSITE SURABHI COMPLEX JALEHAKKI NATHDWARA ROAD KANKROLI RAJSAMAND 313324,RAJSAMAND,RAJSAMAND,RAJASTHAN,0
137,AU SMALL FINANCE BANK LIMITED,AUBL0002237,BANSWARA-MOHAN COLONY,MOHAN COLONY OPP SHRI NATH ASHRAM UDAIPUR ROAD BANSWARA 327001,BANSWARA,BANSWARA,RAJASTHAN,0
138,AU SMALL FINANCE BANK LIMITED,AUBL0002238,BHINDER-STATION ROAD,WARD NO 20 CHANDRA LOK TALKIES KE PASS STATION ROAD MAIN BHINDER ROAD BHINDER 313603,UDAIPUR,UDAIPUR,RAJASTHAN,0
139,AU SMALL FINANCE BANK LIMITED,AUBL0002239,DUNGARPUR,PATTA NO 220 KHASRA NO 1030 5 51 DUNGARPUR NEAR BUS STAND DUNGARPUR 314001,DUNGARPUR,DUNGARPUR,RAJASTHAN,0
140,AU SMALL FINANCE BANK LIMITED,AUBL0002240,FATEHNAGAR-POST OFFICE ROAD,"Ward No- 12, At Post Office Road,Near Post Office, Fatehnagar,Distt- Udaipur,Fatehnagar",UDAIPUR,UDAIPUR,RAJASTHAN,0
141,AU SMALL FINANCE BANK LIMITED,AUBL0002241,SAGWARA-DUNGARPUR ROAD,NEAR SBI BANK DUNGARPUR ROAD 314025,DUNGARPUR,DUNGARPUR,RAJASTHAN,0
142,AU SMALL FINANCE BANK LIMITED,AUBL0002242,SALUMBER,NEAR HIGH SECONDARY SCHOOL WARD NO 2 MATA KI SER SALUMBER 313027,UDAIPUR,UDAIPUR,RAJASTHAN,0
143,AU SMALL FINANCE BANK LIMITED,AUBL0002243,UDAIPUR-DELHI GATE,PLOT NO 168 ASHWINI MARG NEAR DELHI GATE UDAIPUR RAJASTHAN 313001,UDAIPUR,UDAIPUR,RAJASTHAN,0
144,AU SMALL FINANCE BANK LIMITED,AUBL0002244,BARAN-CHARMURTI CIRCLE,OPPOSITE ICICI BANK CHARMURTI CIRCLE KOTA ROAD BARAN 325205,BARAN,BARAN,RAJASTHAN,0
145,AU SMALL FINANCE BANK LIMITED,AUBL0002245,BUNDI-CIVIL LINE ROAD,KHASRA NO 1738 160 1741 161 NEAR KHOJA GATE CIRCLE CIVIL LINE ROAD BUNDI 323001,BUNDI,BUNDI,RAJASTHAN,0
146,AU SMALL FINANCE BANK LIMITED,AUBL0002246,CHAMAWALI-BUNDI ROAD,MAIN LAKHERI BUNDI ROAD VILLAGE CHAMAVALI 323603,BUNDI,BUNDI,RAJASTHAN,0
147,AU SMALL FINANCE BANK LIMITED,AUBL0002247,CHHABRA-STATION ROAD,OPP KRISHI UPAJ MANDI STATION ROAD CHHABRA 325220,BARAN,BARAN,RAJASTHAN,0
148,AU SMALL FINANCE BANK LIMITED,AUBL0002248,DEOLI,WARD NO 16 PLOT NO 22 OPPOSITE SBBJ BANK MAIN ROAD DEOLI 304023,TONK,TONK,RAJASTHAN,0
149,AU SMALL FINANCE BANK LIMITED,AUBL0002249,JHALAWAR-NIRBHAY SINGH CIRCLE,NEAR NIRBHAY SINGH CIRCLE JHALAWAR 326001,JHALAWAR,JHALAWAR,RAJASTHAN,0
150,AU SMALL FINANCE BANK LIMITED,AUBL0002250,KOTA-GHODEWALA CIRCLE,PLOT NO385 SHOOPING CENTER GHODEWALA CIRCLE KOTA 324007,KOTA,KOTA,RAJASTHAN,0
151,AU SMALL FINANCE BANK LIMITED,AUBL0002251,KOTA-TALWANDI CIRCLE,2 C 7 TALWANDI CIRCLE KOTA 324005,KOTA,KOTA,RAJASTHAN,0
152,AU SMALL FINANCE BANK LIMITED,AUBL0002252,RAMGANJ MANDI-RAONSLI CIRCLE,KHASRA NO 61 RAONSLI CIRCLE BAZAR NO 1 PANCHMUKHI ROAD OPPOSITE ANAJMANDI RAMGANJMANDI 326519,KOTA,KOTA,RAJASTHAN,0
153,AU SMALL FINANCE BANK LIMITED,AUBL0002253,SANGOD-KOTA ROAD,KHASRA NO 789 WARD NO 8 NEAR SBBJ BANK KOTA ROAD SANGOD 325601,KOTA,KOTA,RAJASTHAN,0
154,AU SMALL FINANCE BANK LIMITED,AUBL0002254,SAWAI MADHOPUR-INDIRA COLONY,KHASRA NO 331 PLOT NO 20 A INDIRA COLONY SAWAI MADHOPUR 322001,SAWAIMADHOPUR,SAWAIMADHOPUR,RAJASTHAN,0
155,AU SMALL FINANCE BANK LIMITED,AUBL0002255,DEGANA-KILAK COMPLEX,KILAK COMPLEX OPPOSITE MIDDLE GIRLS SCHOOL NEAR DEPUTY OFFICE DEGANA 341503,NAGAUR,NAGAUR,RAJASTHAN,0
156,AU SMALL FINANCE BANK LIMITED,AUBL0002256,GOTAN,GOTAN STATION MERTA CITY ROAD GOTAN MERTA RAJASTHAN 342902,NAGAUR,NAGAUR,RAJASTHAN,0
157,AU SMALL FINANCE BANK LIMITED,AUBL0002257,JODHPUR-NAI SADAK,SATARA PLAZA NAI SADAK JODHPUR 342001,JODHPUR,JODHPUR,RAJASTHAN,0
158,AU SMALL FINANCE BANK LIMITED,AUBL0002258,JODHPUR-II,CENTRE POINT PWD COLONY OPP YES BANK JODHPUR 342001,JODHPUR,JODHPUR,RAJASTHAN,0
159,AU SMALL FINANCE BANK LIMITED,AUBL0002259,KUCHAMAN CITY-KUCHAMAN DEEDWANA ROAD,KHASARA NO 907 908 KUCHAMAN DEEDWANA ROAD ADJOINING BANDHAN BANK KUCHAMAN 341508,NAGAUR,NAGAUR,RAJASTHAN,0
160,AU SMALL FINANCE BANK LIMITED,AUBL0002260,MERTA CITY-KRISHIMANDI ROAD,KRISHIMANDI ROAD NAGAUR CHOKI MERTA CITY 341510,NAGAUR,NAGAUR,RAJASTHAN,0
161,AU SMALL FINANCE BANK LIMITED,AUBL0002261,OSIAN-MAIN STATION ROAD,MAIN STATION ROAD NEAR POST OFFICE GANPATI PLAZA OSIAN JODHPUR 342303,JODHPUR,JODHPUR,RAJASTHAN,0
162,AU SMALL FINANCE BANK LIMITED,AUBL0002262,PHALODI-JANGIR PLAZA,JANGIR PLAZA NAGAUR ROAD PHALODI JODHPUR 342301,JODHPUR,JODHPUR,RAJASTHAN,0
163,AU SMALL FINANCE BANK LIMITED,AUBL0002263,PIPAR-AMBEDKAR CIRCLE,PATTA NO 2281 89 AMBEDKAR CIRCLE OPPOSITE OLD BUS STAND KHEJRALA ROAD JODHPUR 342601,JODHPUR,JODHPUR,RAJASTHAN,0
164,AU SMALL FINANCE BANK LIMITED,AUBL0002264,BIKANER-RANI BAZAR,PATTA NO 172 HOTEL LAXMI RESIDENCY IN FRONT OF RAILWAY BRIDGE RANI BAZAR BIKANER 334001,BIKANER,BIKANER,RAJASTHAN,0
165,AU SMALL FINANCE BANK LIMITED,AUBL0002265,BIKANER-PAWAN PURI,B K 9 PAWAN PURI BIKANER 334003,BIKANER,BIKANER,RAJASTHAN,0
166,AU SMALL FINANCE BANK LIMITED,AUBL0002266,DUNGARGARH-STATION ROAD,WARD NO 11 STATION ROAD NEAR OLD POWER HOUSE SRI DUNGARGARH 331803,BIKANER,BIKANER,RAJASTHAN,0
167,AU SMALL FINANCE BANK LIMITED,AUBL0002267,KOLAYAT,PATTA NO 443 MISAL NO 24 OPPOSITE GOVERNMENT HOSPITAL SRI KOLAYAT 334302,BIKANER,BIKANER,RAJASTHAN,0
168,AU SMALL FINANCE BANK LIMITED,AUBL0002268,LUNKARANSAR-NEW DHAN MANDI,SHOP NO 152 NEW DHAN MANDI LUNKARANSAR 334603,BIKANER,BIKANER,RAJASTHAN,0
169,AU SMALL FINANCE BANK LIMITED,AUBL0002269,NAGAUR,OPP CENTRAL BANK AJMER ROAD NAGAUR 341001,NAGAUR,NAGAUR,RAJASTHAN,0
170,AU SMALL FINANCE BANK LIMITED,AUBL0002270,NOKHA-BIKANER ROAD,SOUTHERN PART OF HOUSE NO 728 OPPOSITE JANTA DHARMKANTA BIKANER ROAD NOKHA 334803,BIKANER,BIKANER,RAJASTHAN,0
171,AU SMALL FINANCE BANK LIMITED,AUBL0002271,RATANGARH-LINK ROAD,NEAR MONAHAR DAS JI KI SAMADI LINK ROAD RATANGARH 331022,CHURU,CHURU,RAJASTHAN,0
172,AU SMALL FINANCE BANK LIMITED,AUBL0002272,SARDARSHAHAR,OPP ROADWAYS BUS STAND SARDARSHAHAR 331403,CHURU,CHURU,RAJASTHAN,0
173,AU SMALL FINANCE BANK LIMITED,AUBL0002273,ABU ROAD-SADAR BAZAR,SHOP NO 4 5 NEAR SHANTI KUNJ BAGICHA PATTA NO 3 4 SADAR BAZAR ABU ROAD 307026,SIROHI,SIROHI,RAJASTHAN,0
174,AU SMALL FINANCE BANK LIMITED,AUBL0002274,BHINMAL-KRISHI MANDI ROAD,SHOP NO 1 2 3 4 5 AND 6 PATTA NO 300 OPP ICICI BANK SAI COMPLEX KRISHI MANDI ROAD BHINMAL 343029,JALORE,JALORE,RAJASTHAN,0
175,AU SMALL FINANCE BANK LIMITED,AUBL0002275,JAITARAN-NAMAJ ROAD,OPPOSITE SBI BANK NAMAJ ROAD JAITARAN 306302,PALI,PALI,RAJASTHAN,0
176,AU SMALL FINANCE BANK LIMITED,AUBL0002276,JALORE-BAGODA ROAD,PLOT NO 6 OPP YES BANK BAGODA ROAD KASTURBA COLONY JALORE 343001,JALORE,JALORE,RAJASTHAN,0
177,AU SMALL FINANCE BANK LIMITED,AUBL0002277,PALI-MAHAVEER MARG,24 MAHAVEER MARG TOWN HALL KE SAMNE WARD NO 25 PALI 306401,PALI,PALI,RAJASTHAN,0
178,AU SMALL FINANCE BANK LIMITED,AUBL0002278,REODAR-MEGA HIGHWAY,PATTA NO 94 NEAR SBBJ MEGA HIGHWAY REODAR DIST SIROHI 307514,SIROHI,SIROHI,RAJASTHAN,0
179,AU SMALL FINANCE BANK LIMITED,AUBL0002279,SIROHI,KP TOWER GROUND FLOOR SIROHI ROAD OPP SANJIVINI HOSPITAL SIROHI 307022,SIROHI,SIROHI,RAJASTHAN,0
180,AU SMALL FINANCE BANK LIMITED,AUBL0002280,SUMERPUR-PALI ROAD,PLOT NO 7 8 ABOVE ICICI BANK FIRST FLOOR PALI ROAD SUMERPUR 306902,PALI,PALI,RAJASTHAN,0
181,AU SMALL FINANCE BANK LIMITED,AUBL0002281,ANUPGARH-BIKANER ROAD,PLOT NO 18 NEAR GANESH IRON STORE BIKANER ROAD ANUPGRAH RAJASTHAN 335701,GANGANAGAR,GANGANAGAR,RAJASTHAN,0
182,AU SMALL FINANCE BANK LIMITED,AUBL0002282,BISRASAR,THAKURJI KE MANDIR KE PASS BISRASAR 335524,HANUMANGARH,HANUMANGARH,RAJASTHAN,0
183,AU SMALL FINANCE BANK LIMITED,AUBL0002283,HANUMANGARH-DEEP COLONY,SHOP NO 2 3 DILLON COMPLEX DEEP COLONY NEAR IDBI BANK HANUMANGARH 335512,HANUMANGARH,HANUMANGARH,RAJASTHAN,0
184,AU SMALL FINANCE BANK LIMITED,AUBL0002284,NOHAR-BIHANI ROAD,WARD NO 22 BHIHANI ROAD OPP AXIS BANK NOHAR 335523,HANUMANGARH,HANUMANGARH,RAJASTHAN,0
185,AU SMALL FINANCE BANK LIMITED,AUBL0002285,RAISINGHNAGAR-GRAIN MARKET,SHOP NO 82 83 GRAIN MARKET RAISINGHNAGAR 335051,GANGANAGAR,GANGANAGAR,RAJASTHAN,0
186,AU SMALL FINANCE BANK LIMITED,AUBL0002286,RAWATSAR-DHANMANDI,PLOT 12 EASTERN PART DHANMANDI NEAR HDFC BANK HANUMAN GARH ROAD RAWATSAR 335524,HANUMANGARH,HANUMANGARH,RAJASTHAN,0
187,AU SMALL FINANCE BANK LIMITED,AUBL0002287,SRI GANGANAGAR-RAVINDRA PATH,MELODY HOUSE 25A PUBLIC PARK RAVINDRA PATH SRI GANGANAGAR 335001,GANGANAGAR,GANGANAGAR,RAJASTHAN,0
188,AU SMALL FINANCE BANK LIMITED,AUBL0002288,SRI VIJAYNAGAR-GOL BAZAR,PLOT NO 28 GOL BAZAR NEAR PD ARORA HOSPITAL SRIVIJAYNAGAR 335704,GANGANAGAR,GANGANAGAR,RAJASTHAN,0
189,AU SMALL FINANCE BANK LIMITED,AUBL0002289,SURATGARH-BIKANER ROAD,NEAR HDFCBANK BIKANER ROAD SURATGARH 335804,GANGANAGAR,GANGANAGAR,RAJASTHAN,0
190,AU SMALL FINANCE BANK LIMITED,AUBL0002290,BALESAR-NH,KHASRA NO 843 NEAR JODHPUR HOSPITAL NH 114 BALESAR JODHPUR 342023,JODHPUR,JODHPUR,RAJASTHAN,0
191,AU SMALL FINANCE BANK LIMITED,AUBL0002291,BALOTRA-PACHPADRA ROAD,KHASRA NO 326 2 WARD NO 20 PACHPADRA ROAD BALOTRA 344022,BARMER,BARMER,RAJASTHAN,0
192,AU SMALL FINANCE BANK LIMITED,AUBL0002292,BARMER-ROY COLONY,AT GROUND FLOOR 2 FLOOR DEV TOWER OPPOSITE BANK OF MAHARASTRA NEAR CMHO OFFICE ROY COLONY ROAD BARMER RAJ 344001,BARMER,BARMER,RAJASTHAN,0
193,AU SMALL FINANCE BANK LIMITED,AUBL0002293,CHOHTAN,STATION ROAD PEPLI CHOWK NEAR BANK OF BARODA CHOTHAN 344702,BARMER,BARMER,RAJASTHAN,0
194,AU SMALL FINANCE BANK LIMITED,AUBL0002294,JAISALMER-SATYA KUNJ,SATYA KUNJ SHIV ROAD JAISALMER 345001,JAISALMER,JAISALMER,RAJASTHAN,0
195,AU SMALL FINANCE BANK LIMITED,AUBL0002295,POKARAN-JODHPUR ROAD,JODHPUR ROAD POKRAN 345021,JAISALMER,JAISALMER,RAJASTHAN,0
196,AU SMALL FINANCE BANK LIMITED,AUBL0002296,ASHTA-KANNOD ROAD,KANNOD ROAD NEAR MANN CAF ASHTA 466116,SEHORE,SEHORE,MADHYA PRADESH,0
197,AU SMALL FINANCE BANK LIMITED,AUBL0002297,BARAILY-BUS STAND MAIN ROAD,WARD NO 2 JAIN CYCLE STORE NEAR BUS STAND MAIN ROAD BARELI M P 464668,RAISEN,RAISEN,MADHYA PRADESH,0
198,AU SMALL FINANCE BANK LIMITED,AUBL0002298,BETUL-CIVIL LINES,NAZUL SHEET NO 19 28 PLOT NO 6 8 3 2 GANESH WARD BETUL ABHA SHREE HOTEL CIVIL LINES BETUL 460001,BETUL,BETUL,MADHYA PRADESH,0
199,AU SMALL FINANCE BANK LIMITED,AUBL0002299,BHOPAL-MP NAGAR,ALANKAR COMPLEX PLOT NO 10 BESIDE ICICI BANK MP NAGAR ZONE 2 BHOPAL 462011,BHOPAL,BHOPAL,MADHYA PRADESH,0
200,AU SMALL FINANCE BANK LIMITED,AUBL0002300,BHOPAL-RAISEN ROAD,8 B GOVING GARDEN OLD KANODIA MARKET RAISEN ROAD NEW JINDAL AEKED BHOPAL 462023,BHOPAL,BHOPAL,MADHYA PRADESH,0
201,AU SMALL FINANCE BANK LIMITED,AUBL0002301,BIAORA,NEAR GUNA NAKA OLSD AB ROAD BIAORA 465674,RAJGARH,RAJGARH,MADHYA PRADESH,0
202,AU SMALL FINANCE BANK LIMITED,AUBL0002302,GANJ BASODA-BARETH ROAD,WARD NO 7 PLOT NO 2020 2021 2022 SAWAMI VIVEKANAND WARD HAR GANGA MANGLIK BHAWAN OPP BHARAT MATA CONVENT SCHOOL BARETH ROAD GANJ BASODA 464221,VIDISHA,VIDISHA,MADHYA PRADESH,0
203,AU SMALL FINANCE BANK LIMITED,AUBL0002303,HOSHANGABAD-ANAND NAGAR,AL HAFEEZ TOWER PLOT NO 34 21 SHEET NO 41 ANAND NAGAR HOSHANGABAD 461001,HOSHANGABAD,HOSHANGABAD,MADHYA PRADESH,0
204,AU SMALL FINANCE BANK LIMITED,AUBL0002304,NASRULLAGANJ-RISHI NAGAR,WARD NO 15 ADJ TO EXISTING AUFIN BRANCH RISHI NAGAR BHOPAL ROAD NASRULLAGANJ 466331,SEHORE,SEHORE,MADHYA PRADESH,0
205,AU SMALL FINANCE BANK LIMITED,AUBL0002305,PANDHURNA-SHASTRI WARD,KHASRA NO 217 31 SHASTRI WARD NEAR HOTEL ADITYA RESIDENCY BUS STAND PANDURNA 480334,CHHINDWARA,CHHINDWARA,MADHYA PRADESH,0
206,AU SMALL FINANCE BANK LIMITED,AUBL0002306,RAISEN-ARJUN NAGAR,WARD NO 15 KHASRA NO 193 ARJUN NAGAR SAGAR ROAD RAISEN 464551,RAISEN,RAISEN,MADHYA PRADESH,0
207,AU SMALL FINANCE BANK LIMITED,AUBL0002307,SHUJALPUR-M G ROAD,WARD NO 17 M G ROAD OPP HDFC BANK SHUJALPUR 465333,SHAJAPUR,SHAJAPUR,MADHYA PRADESH,0
208,AU SMALL FINANCE BANK LIMITED,AUBL0002308,VIDISHA-SUBHASH PATH,WARD NO 21 SUBHASH PATH KHARI PHATAK ROAD VIDISHA 464001,VIDISHA,VIDISHA,MADHYA PRADESH,0
209,AU SMALL FINANCE BANK LIMITED,AUBL0002309,AGAR MALWA-CITY CENTRE,CITY CENTRE SURVEY NO 341 1 1 CHAWANI CHARAHA 465441,AGAR-MALWA,AGAR-MALWA,MADHYA PRADESH,0
210,AU SMALL FINANCE BANK LIMITED,AUBL0002310,BARWANI-MG ROAD,98 10 D KUNDIA PALACE MG ROAD NEAR AXIS BANK BADWANI 451551,BARWANI,BARWANI,MADHYA PRADESH,0
211,AU SMALL FINANCE BANK LIMITED,AUBL0002311,DEWAS-JAWAHAR NAGAR,GULAB SHREE SHOP 18 19 20 JAWAHAR NAGAR INDORE DEWAS ROAD DEWAS 455001,DEWAS,DEWAS,MADHYA PRADESH,0
212,AU SMALL FINANCE BANK LIMITED,AUBL0002312,DHAR-MAGAJPURA ROAD,MAGAJPURA ROAD A 1 A 2 SAINT TERESA CAMPUS DHAR INDORE ROAD DHAR 454001,DHAR,DHAR,MADHYA PRADESH,0
213,AU SMALL FINANCE BANK LIMITED,AUBL0002313,INDORE- AB ROAD,SD ARCADE UPPER GROUND FLOOR PLOT 5 PO 3 SCHEME 54 AB ROAD INDORE 462044,INDORE,INDORE,MADHYA PRADESH,0
214,AU SMALL FINANCE BANK LIMITED,AUBL0002314,INDORE-BHANWAR KUAN ROAD,G 16 G 22 G 17 G 21 ON GROUND FLOOR OF VEDA COMPLEX BUILTED ON LAND BEARING KHASRA NO 1619 3 1619 4 1619 5 VEDA COMPLEX NEAR APPLE HOSPITAL BHANWAR KUA ROAD INDORE 452001,INDORE,INDORE,MADHYA PRADESH,0
215,AU SMALL FINANCE BANK LIMITED,AUBL0002315,KHANDWA-ANAND NAGAR,ANAND NAGAR WARD NO 50 ANAND NAGAR MAIN ROAD KHANDWA 450001,EAST NIMAR,EAST NIMAR,MADHYA PRADESH,0
216,AU SMALL FINANCE BANK LIMITED,AUBL0002316,KHARGONE-RADHA VALLABH MARKET,SHOP NO C 13 RADHA VALLABH MARKET KHARGAON 451001,WEST NIMAR,WEST NIMAR,MADHYA PRADESH,0
217,AU SMALL FINANCE BANK LIMITED,AUBL0002317,KHATEGAON-NARMADA MARG,NH 59A NARMADA MARG KANNOD ROAD IN FRONT OF BHARAT PETROL PUMP KHATEGAON 455336,DEWAS,DEWAS,MADHYA PRADESH,0
218,AU SMALL FINANCE BANK LIMITED,AUBL0002318,PITHAMPUR-SANSKAR VALLEY,SHOP NO 82 83 SANSKAR VALLEY PLOT NO 11 WARD NO 10 BELOW YES BANK SECTOR 1 NEAR AU FINANCIERS OFFICE PITHAMPUR 454775,DHAR,DHAR,MADHYA PRADESH,0
219,AU SMALL FINANCE BANK LIMITED,AUBL0002319,UJJAIN,TARANA HOUSE 34 4 5 6 SHANKU MARG TOWER CHOWK FREE GANJ UJJAIN 456010,UJJAIN,UJJAIN,MADHYA PRADESH,0
220,AU SMALL FINANCE BANK LIMITED,AUBL0002320,ALOT-MALGODOWN ROAD,WARD NO 1 MALGODWN ROAD DHAKARD TRADE CENTER KARGIL CHOHRAYA STATION ROAD ALOTE M P 457114,RATLAM,RATLAM,MADHYA PRADESH,0
221,AU SMALL FINANCE BANK LIMITED,AUBL0002321,MANDSAUR-STATION ROAD,STATION ROAD NEAR ICICI BANK MANDSAUR 458001,MANDSAUR,MANDSAUR,MADHYA PRADESH,0
222,AU SMALL FINANCE BANK LIMITED,AUBL0002322,NEEMUCH-AMBEDKAR ROAD COLONY,WARD NO 28 AMBEDKAR ROAD COLONY NO 14 3 PLOT 51 NEAR LIC OFFICE NEEMUCH 458441,NEEMUCH,NEEMUCH,MADHYA PRADESH,0
223,AU SMALL FINANCE BANK LIMITED,AUBL0002323,RATLAM-NAZAR BAGH,PLOT NO 3 NAZAR BAGH BANK COLONY RATLAM MADHYA PRADESH 457001,RATLAM,RATLAM,MADHYA PRADESH,0
224,AU SMALL FINANCE BANK LIMITED,AUBL0002324,SHAMGARH-GAROTH ROAD,CHOUDHARY COMPLEX GAROTH ROAD SHAMGARH 458883,MANDSAUR,MANDSAUR,MADHYA PRADESH,0
225,AU SMALL FINANCE BANK LIMITED,AUBL0002325,CHHATARPUR-JAWAHAR ROAD,KHASRA NO 3103 2 PLOT NO 187 188 189 WARD NO 30 CRISTAL HOUSE TIRAHA JAWAHAR ROAD CHHATERPUR M P 471001,CHATTARPUR,CHATTARPUR,MADHYA PRADESH,0
226,AU SMALL FINANCE BANK LIMITED,AUBL0002326,CHHINDWARA-ADARSH NAGAR PARASIA ROAD,KHASRA NO 107 69 108 69 109 69 107 27 108 27 109 27 107 142 108 142 109 142 SHREE KRISHNA TOWER ADARSH NAGAR PARASIA RD CHHINDWARA 480001,CHHINDWARA,CHHINDWARA,MADHYA PRADESH,0
227,AU SMALL FINANCE BANK LIMITED,AUBL0002327,JABALPUR-SWAMI DAYANAND SARASWATI,PLOT NO 6 2 H NO 780 1 DIVERSION PLOT NO 864 DIVERSION SHEET NO 255 WARD NO 3 SWAMI DAYANAND SARASWATI JABALPUR 482001,JABALPUR,JABALPUR,MADHYA PRADESH,0
228,AU SMALL FINANCE BANK LIMITED,AUBL0002328,KATNI-JABALPUR ROAD,WARD NO 29 PLOT NO 45 1 NEW 42 JABALPUR ROAD BARGAWN KATNI 483501,KATNI,KATNI,MADHYA PRADESH,0
229,AU SMALL FINANCE BANK LIMITED,AUBL0002329,REWA-HEDGEWAR NAGAR,32 C HEDGEWAR NAGAR IN FRONT OF RADIO COLONY 486001,EA,REWA,MADHYA PRADESH,0
230,AU SMALL FINANCE BANK LIMITED,AUBL0002330,SATNA,SATNA PLAZA REWA ROAD SATNA 485001,SATNA,SATNA,MADHYA PRADESH,0
231,AU SMALL FINANCE BANK LIMITED,AUBL0002331,TIKAMGARH-TIKAMGARH KILA,TIKAMGARH KILA KHASRA NO 142 MIN8 142 MIN 19 WARD NO 18 TIKAMGARH 472001,TIKAMGARH,TIKAMGARH,MADHYA PRADESH,0
232,AU SMALL FINANCE BANK LIMITED,AUBL0002333,BHILAI-SUPELA,PLOT NO 7 WARD NO 5 DAHSHIN GANGOTRI SUPELA DURG BHILAI 490001,DURG,DURG,CHHATTISGARH,0
233,AU SMALL FINANCE BANK LIMITED,AUBL0002334,BILASPUR-GAYATRI NAGAR,MAUJA TALAPARA PH NO 35 A WARD NO 101 OPP GUMBER PETROL TALAPARA BHARTI NAGAR CHOWK VYAPAR VIHAR ROAD GAYATRI NAGAR BILASPUR 495001,BILASPUR,BILASPUR,CHHATTISGARH,0
234,AU SMALL FINANCE BANK LIMITED,AUBL0002335,DHAMTARI-BASTAR ROAD,VIJAY PLAZA BESIDE MENONOTE CHURCH BASTAR ROAD DHAMTARI 493773,DHAMTARI,DHAMTARI,CHHATTISGARH,0
235,AU SMALL FINANCE BANK LIMITED,AUBL0002336,KORBA-TP NAGAR,PLOT 82 INDIRA COMMERCIAL RESIDENTIAL COMPLEX TP NAGAR KORBA 495677,KORBA,KORBA,CHHATTISGARH,0
236,AU SMALL FINANCE BANK LIMITED,AUBL0002337,MANDLA-CIVIL LINES,NEHRU SMARAK CIVILI LINES MANDLA 481661,MANDLA,MANDLA,MADHYA PRADESH,0
237,AU SMALL FINANCE BANK LIMITED,AUBL0002338,RAIPUR-FAFADIK CHOWK,PLOT NO 22 SHEET NO 9 NEAR DAGA PETROL PUMP FAFADIH CHOWK RAIPUR 492001,RAIPUR,RAIPUR,CHHATTISGARH,0
238,AU SMALL FINANCE BANK LIMITED,AUBL0002340,MUMBAI-ANDHERI KURLA ROAD,SHOP NO 16 GROUND FLOOR 5TH FLOOR UNIT NO 21 22 23 40 41 KANAKIA ZILLION JUNCTION OF CTS ROAD LBS MARG KURLA WEST 400070,MUMBAI,MUMBAI,MAHARASHTRA,0
239,AU SMALL FINANCE BANK LIMITED,AUBL0002341,MUMBAI-BORIVALI,CTS NO 637 637 1 2 NEW CTS NO 637A CHANDA WARKAR ROAD BOREVALI MUMBAI 400092,MUMBAI,MUMBAI,MAHARASHTRA,0
240,AU SMALL FINANCE BANK LIMITED,AUBL0002342,MUMBAI-SV ROAD,SHOP NO 8 TO 12 GROUND FLOOR MADINA MANZIL BUILDING SV ROAD GEROGOAN WEST MUMBAI 400104,MUMBAI,MUMBAI,MAHARASHTRA,0
241,AU SMALL FINANCE BANK LIMITED,AUBL0002343,VASAI,SHOP NO 4 LANDMARK TOWER PUSHPKUNJ COPERATIVE HOUSING SOCIETY OPPOSITE BISHOPS HOUSE VASAI ROAD WEST 401202,THANE,THANE,MAHARASHTRA,0
242,AU SMALL FINANCE BANK LIMITED,AUBL0002345,BOISAR,GROUND FLOOR WHITE HOUSE BELOW HDFC BOISAR TARAPUR ROAD 401501,PALGHAR,PALGHAR,MAHARASHTRA,0
243,AU SMALL FINANCE BANK LIMITED,AUBL0002346,KALYAN,SHOP NO A 1A BUILDING NO 3 HEESA NO 237 3 276 4 276 5 281 CHARMS STAR CTS NO 3434 3433 3431 3430 3427 NEAR FORTIS KALYAN WEST THANE 421301,THANE,THANE,MAHARASHTRA,0
244,AU SMALL FINANCE BANK LIMITED,AUBL0002347,NASHIK,SH 6 RUSHIRAJ HEIGHTS MAHATMA NAGAR NASHIK 422007,NASHIK,NASHIK,MAHARASHTRA,0
245,AU SMALL FINANCE BANK LIMITED,AUBL0002348,THANE,M S ACE CONSTRUCTIONS ACE AVIANA THANE MUMBAI 400615,THANE,THANE,MAHARASHTRA,0
246,AU SMALL FINANCE BANK LIMITED,AUBL0002349,BARAMATI BHIGVAN ROAD,SHOP NO 1 AND SHOP NO 2 GROUND FLOOR AVDHOOT PLAZA SURVEY NO 279 1 B BARMATI PUNE MAHARASHTRA 413102,PUNE,PUNE,MAHARASHTRA,0
247,AU SMALL FINANCE BANK LIMITED,AUBL0002350,HADAPSAR KHARADI,SHOP NO 10 SURVEY NO 8 9 CONSTRUCTED NO 8 3 9 1 1 WING NO B KAUL SPACE OPPOSITE RELIANCE MART KHARADI PUNE 411014,PUNE,PUNE,MAHARASHTRA,0
248,AU SMALL FINANCE BANK LIMITED,AUBL0002351,NARAYANGAON PUNE NASIK HIGHWAY,S NO 292 264 2B 3 SOMVANSHI BUILDING NR CANARA BANK PUNE NASIK HIGHWAY NARAINGAON TAL JUNNAR PUNE 410504,PUNE,PUNE,MAHARASHTRA,0
249,AU SMALL FINANCE BANK LIMITED,AUBL0002353,PIMPRI,"Shop No. 102 AND 103, Plot No. 96/2+97, CTS No. 1132, 1133, Old Survey No. 129, New Survey No. 184, Anand Park, Aundh, Pune- 411007",PUNE,PUNE,MAHARASHTRA,0
250,AU SMALL FINANCE BANK LIMITED,AUBL0002354,PUNE FC ROAD,"Nandadeep Apartment, City Survey No.1195/1, FP No.551/1, Shivajinagar, Near Tukaram Paduka Chowk, FC Road, Pune-411004",PUNE,PUNE,MAHARASHTRA,0
251,AU SMALL FINANCE BANK LIMITED,AUBL0002355,SOLAPUR,SHOP NO 1 CITY CORNER II MURARJI PETH SARASWATI CHOWK SOLAPUR 413002,SOLAPUR,SOLAPUR,MAHARASHTRA,0
252,AU SMALL FINANCE BANK LIMITED,AUBL0002356,AHMEDNAGAR SAVEDI,PLOT NO 101 83 FINAL PLOT NO 101 IN T P SCHEME NO 4 VILLAGE SAVEDI SAIDEEP EXECUTIVE GROUND FLOOR SAVEDI AHMEDNAGAR 414001,AHMEDNAGAR,AHMEDNAGAR,MAHARASHTRA,0
253,AU SMALL FINANCE BANK LIMITED,AUBL0002357,AURANGABAD,SMS ARCADE PLOT 1 2 3 CTS NO 15187 A 1 VIDHYA VIJAYNAGAR SEVENHILLS JALNA ROAD AURANGABAD 431001,AURANGABAD,AURANGABAD,MAHARASHTRA,0
254,AU SMALL FINANCE BANK LIMITED,AUBL0002358,DHULE GANESH PLAZA,LANE NO 6 GANESH PLAZA CITY SURVEY NO 2101 HOUSE NO 386 OPP D Y MAHAYAN HOSPITAL DHULE 422001,DHULE,DHULE,MAHARASHTRA,0
255,AU SMALL FINANCE BANK LIMITED,AUBL0002359,JALGAON JILLHA PETH,64 JILLHA PETH NEAR LUNKA TOWER JALGAON 425001,JALGAON,JALGAON,MAHARASHTRA,0
256,AU SMALL FINANCE BANK LIMITED,AUBL0002360,JALNA SHIVAJI PUTLA,RAJ BUILDING HEAD POST OFFICE OPPOSITE AMBER HOTEL NEAR AXIS BANK SHIVAJI PUTLA JALNA 431203,JALNA,JALNA,MAHARASHTRA,0
257,AU SMALL FINANCE BANK LIMITED,AUBL0002361,LATUR BARSHI ROAD,CITY SY 9909 2 DEENESH SALES CORPORATION OPP HAUNMAN MANDIR NEAR WATER TANK BARSHI ROAD LATUR 413513,LATUR,LATUR,MAHARASHTRA,0
258,AU SMALL FINANCE BANK LIMITED,AUBL0002362,NANDED VAZIBAD,CITY SURVEY NO 3330 SHEET NO 203 GILDA COMPLEX OPP SP OFFICE VAZIBAD NEAR WOODLAND NANDED 131601,NANDED,NANDED,MAHARASHTRA,0
259,AU SMALL FINANCE BANK LIMITED,AUBL0002363,SANGAMNER-JANTARIYA ROAD,DATTASHILLACOMPLEXOPPFIRSTFLOORMALPANIPLAZAJANTARIYAROADSANGAMNER422605,AHMEDNAGAR,AHMEDNAGAR,MAHARASHTRA,0
260,AU SMALL FINANCE BANK LIMITED,AUBL0002364,SHRIRAMPUR-SAGAMNER ROAD,CTS NO 1370A 9 FINAL PLOT NO 1180 HOTEL SUNMOON BANDUKGAR SAGAMNER ROAD SHRIRAMPUR AHMADNAGAR MAHARASHTRA 413709,AHMEDNAGAR,AHMEDNAGAR,MAHARASHTRA,0
261,AU SMALL FINANCE BANK LIMITED,AUBL0002365,AKOLA NECKLACE ROAD,MADHUMATI VIHAR GROUND FLOOR NECKLACE ROAD RATANLAL PLOT AKOLA 444005,AKOLA,AKOLA,MAHARASHTRA,0
262,AU SMALL FINANCE BANK LIMITED,AUBL0002366,AMRAVATI RAJAPETH CHOWK,PLOT NO 3 8 SHEET NO 66 66 CAND UPPER GROUND FLOOR SHEWALKAR COMPLEX RAJAPETH CHOWK BADNERA ROAD AMRAWATI 444701,AMRAWATI,AMRAWATI,MAHARASHTRA,0
263,AU SMALL FINANCE BANK LIMITED,AUBL0002367,CHANDRAPUR,C O PH AUTOMOBILES OPP POLICE HEADQUATERS CHANDRAPUR 442401,CHANDRAPUR,CHANDRAPUR,MAHARASHTRA,0
264,AU SMALL FINANCE BANK LIMITED,AUBL0002368,GONDIA GOVIND PUR ROAD,P A MILLS COMPOUND GOVUIND PUR ROAD GONDIA 441601,GONDIA,GONDIA,MAHARASHTRA,0
265,AU SMALL FINANCE BANK LIMITED,AUBL0002369,NAGPUR,BLOCK NO 4 25 GANDHI GRAIN MARKET CA ROAD TELEPHONE EXCHANGE SQUARE NAGPUR 440008,NAGPUR,NAGPUR,MAHARASHTRA,0
266,AU SMALL FINANCE BANK LIMITED,AUBL0002370,WANI SAI MANDIR CHOWK,PLOT NO 3 SHEET NO 7 B ABOVE SBI OPP TO SAI MANDIR SAI MANDIR CHOWK WANI YAVATMAL 445304,YAVATMAL,YAVATMAL,MAHARASHTRA,0
267,AU SMALL FINANCE BANK LIMITED,AUBL0002371,WARDHA GANDHI NAGAR,WARD NO 7 NEW 22 OLD HAVING HOUSE NO 228 N0 28 NAZUL SHEET NO 50 PLOT NO 144 BALAJI TOWER GHANDHI NAGAR ARVI ROAD WARDHA 442001,WARDHA,WARDHA,MAHARASHTRA,0
268,AU SMALL FINANCE BANK LIMITED,AUBL0002372,YAVATMAL,BLOCK NO 3 NAZUL SHEET NO 47 A MITTAL AGENCIES OPP TIMBER BHAVAN NEAR SBI SQ DHAMANGAON ROAD YAVATMAL 445001,YAVATMAL,YAVATMAL,MAHARASHTRA,0
269,AU SMALL FINANCE BANK LIMITED,AUBL0002373,CHIPLUN-TAMHANE CHAMBERS,SHOP NO 1 2 3 4 TAMHANE CHAMBERS VIRESHWAR DARSHN VIRESHWR COLONY CHIPLUN 415605,RATNAGIRI,RATNAGIRI,MAHARASHTRA,0
270,AU SMALL FINANCE BANK LIMITED,AUBL0002374,KANKAVLI,MUNICIPAL HOUSE NO 499 B 3 MUNICIPAL HOUSE NO 499 A 1 OPP PRANT OFFICE KANKAVALI DISTT SINDHUDURG 416602,SINDHUDURG,SINDHUDURG,MAHARASHTRA,0
271,AU SMALL FINANCE BANK LIMITED,AUBL0002375,KOLHAPUR,CTS NO 517 SHOP NO 83 84 85 93 94 95 96 GEMSTONE BUILDING VICHARE COMPLEX E WARD NEW SHAHUPURI NEAR CENTRAL BUS STAND KOLAHPUR 416001,KOLHAPUR,KOLHAPUR,MAHARASHTRA,0
272,AU SMALL FINANCE BANK LIMITED,AUBL0002376,MARGAO GOA,SHOP NO UGF 11 12 VASANTA ARACADE MATRIZ NO 1317 MARGAO CITY SURVEY OFFICE CHALTA NO 96 SHEET NO 214 COMBA BOGTANCHO DANDO 403515,GOA,GOA,GOA,0
273,AU SMALL FINANCE BANK LIMITED,AUBL0002377,RATNAGIRI-SIDHI VINAYAK RESIDENCY,SIDHI VINAYAK RESIDENCY SHOP NO 1 2 B WING AIRPORT ROAD ZAADGAON RATNAGITI 415612,RATNAGIRI,RATNAGIRI,MAHARASHTRA,0
274,AU SMALL FINANCE BANK LIMITED,AUBL0002378,SANGLI NORTH SHIVAJI NAGAR,"City Survey No. 1076, North Shivaji Nagar, College Corner, Opp. Punjab AND Sindh Bank, Sangli-416416",SANGLI,SANGLI,MAHARASHTRA,0
275,AU SMALL FINANCE BANK LIMITED,AUBL0002379,SATARA-RADHIKA ROAD,7 12 SURVEY NO 311 20 3 RADHIKA ROAD OPP KANCHAN APARTMENT PARSHWA VAIBHAV PROPERTIES SATARA 415001,SATARA,SATARA,MAHARASHTRA,0
276,AU SMALL FINANCE BANK LIMITED,AUBL0002380,JALANDHAR-MODEL TOWN,KATHURA S 604 MODEL TOWN GURUDWARA SAHIB JALANDHAR 144003,JALANDHAR,JALANDHAR,PUNJAB,0
277,AU SMALL FINANCE BANK LIMITED,AUBL0002381,SHIMLA-MALL ROAD,2 ARGGLE HOUSE THE MALL ROAD SHIMLA 171001,SHIMLA,SHIMLA,HIMACHAL PRADESH,0
278,AU SMALL FINANCE BANK LIMITED,AUBL0002382,BADDI-BANK SQUARE SAI ROAD,KHASRA NO 538 416 16 529 416 16 528 416 16 KHATA KHATUNI NO 162 166 162 167 FAUJI COMPLEX BANK SAQUARE SAI ROAD MOJA BILLANWALI LABANA TEC BADDI 173205,SOLAN,SOLAN,HIMACHAL PRADESH,0
279,AU SMALL FINANCE BANK LIMITED,AUBL0002383,CHANDIGARH-SECTOR C,SCO 45 46 SECTOR 8C CHANDIGARH 160008,CHANDIGARH,CHANDIGARH,PUNJAB,0
280,AU SMALL FINANCE BANK LIMITED,AUBL0002384,MOHALI-PHASE NO. VII,SCF 20 PHASE NO VII SAS NAGAR MOHALI PUNJAB 160059,SAHIBZADA AJIT SINGH NAGAR,SAHIBZADA AJIT SINGH NAGAR,PUNJAB,0
281,AU SMALL FINANCE BANK LIMITED,AUBL0002385,PATIALA-RAM BAGH,COMMERCIAL PROPERTY SCO NO 8 GROUND FLOOR RAM BAGH NEAR LEELA BHAWAN CHOWK PATIALA 147001,PATIALA,PATIALA,PUNJAB,0
282,AU SMALL FINANCE BANK LIMITED,AUBL0002386,SOLAN-RAJGARH ROAD,GLOBAL ELECTRONICS RAJGARH ROAD SOLAN 173212,SOLAN,SOLAN,HIMACHAL PRADESH,0
283,AU SMALL FINANCE BANK LIMITED,AUBL0002387,UNA-HAMIRPUR ROAD,KHASRA NO 3710 2496 3714 2497 2 3721 3346 2500 WARD NO 3 KAMLA COMPLEX NEAR VIJAY BANK HAMIRPUR ROAD UNA 174303,UNA,UNA,HIMACHAL PRADESH,0
284,AU SMALL FINANCE BANK LIMITED,AUBL0002388,FARIDKOT-MOHALLA TALAAB,M C NO B 6 65 MIN MOHALLA TALAAB FARIDKOT 151203,FARIDKOT,FARIDKOT,PUNJAB,0
285,AU SMALL FINANCE BANK LIMITED,AUBL0002389,FIROZPUR-CIRCULAR ROAD,HOUSE NO ES 22 22 BAGDADI GATE CIRCULAR ROAD FEROZPUR 152002,FIROZPUR,FIROZPUR,PUNJAB,0
286,AU SMALL FINANCE BANK LIMITED,AUBL0002390,HOSHIARPUR,SCHEME NO 11 PREMGARH CHANDIGARH ROAD HOSHIARPUR 146001,HOSHIARPUR,HOSHIARPUR,PUNJAB,0
287,AU SMALL FINANCE BANK LIMITED,AUBL0002391,KHANNA-MUNICIPAL COUNCIL AREA,BLOCK NO 1 A WARD NO 23 NEAR PANESAR KANDA MUNICIPAL COUNSIL AREA KHANNA 141401,LUDHIANA,LUDHIANA,PUNJAB,0
288,AU SMALL FINANCE BANK LIMITED,AUBL0002392,LUDHIANA-PAHOWAL ROAD,"SCO No- 1-C, Kanal Colony, Karabara, Pakhowal Road, Ludhiana",LUDHIANA,LUDHIANA,PUNJAB,0
289,AU SMALL FINANCE BANK LIMITED,AUBL0002393,MOGA-IMPROVEMENT TRUST MARKET,SHOP NO 25 SCHEME NO 3 TRUST STAND MOGA FEROZPUR ROAD VILLAGE MEHLA SINGH TEHSIL MOGA 142001,MOGA,MOGA,PUNJAB,0
290,AU SMALL FINANCE BANK LIMITED,AUBL0002394,NAKODAR-NURMAHAL ROAD,KHASRA NO 620 0 11 KHEWAT NO 1320 1358 KHATUNI NO 1505 NURMAHAL ROAD NAKODAR 1 H B NO 31 JALANDHAR 144040,JALANDHAR,JALANDHAR,PUNJAB,0
291,AU SMALL FINANCE BANK LIMITED,AUBL0002395,NAWANSHAHR-BANGA ROAD,GUJJAR PUR KALAN ADJOINING CENTRAL BANK OF INDIA BANGA ROAD NAWANSHAHR 144514,SHAHEED BHAGAT SINGH NAGAR,SHAHEED BHAGAT SINGH NAGAR,PUNJAB,0
292,AU SMALL FINANCE BANK LIMITED,AUBL0002396,ABOHAR-CIRCULAR ROAD,KHASRA NO 702 KHEWATI NO 1661 KHATONI NO 2277 DURGA COMPLEX STREET NO 9 CIRCULAR ROAD ABOHAR 152116,FAZILKA,FAZILKA,PUNJAB,0
293,AU SMALL FINANCE BANK LIMITED,AUBL0002397,BARNALA-COLLEGE ROAD,C326 NEAR OLD BUS STAND COLLEGE ROAD BARNALA 148101,BARNALA,BARNALA,PUNJAB,0
294,AU SMALL FINANCE BANK LIMITED,AUBL0002398,BATHINDA-GURKASHI MARG,DEEP COMPLEX NEAR HANUMAN CHAOWK GURKASHI MARG BHATINDA 151001,BATHINDA,BATHINDA,PUNJAB,0
295,AU SMALL FINANCE BANK LIMITED,AUBL0002399,FAZILKA-RADHASWAMI COLONY,PROPERTY NO 41 KHASRA NO 48 23 1 24 SITUATED AT RADHASWAMI COLONY PAINCHAN WALI NEAR PNB BANK TEHSIL FAZILKA PUNJAB 152123,FAZILKA,FAZILKA,PUNJAB,0
296,AU SMALL FINANCE BANK LIMITED,AUBL0002400,MANSA-WATER WORKS ROAD,KHASRA NO 670 0 17 K K NO 532 1341 WATER WORKS ROAD OPPOSITE MANSA CLUB MANSA PUNJAB 151505,MANSA,MANSA,PUNJAB,0
297,AU SMALL FINANCE BANK LIMITED,AUBL0002401,MUKTSAR-NEW GRAIN MARKET,KHASRA NO 2974 103 8 KHEWAT KHATUNI NO 1886 3255 NEW GRAIN MARKET MUKTSAR 152026,SRI MUKTSAR SAHIB,SRI MUKTSAR SAHIB,PUNJAB,0
298,AU SMALL FINANCE BANK LIMITED,AUBL0002402,SANGRUR-GRAIN MARKET,KHASRA NO 1988 2 3 0 10 1 4 1988 3 2 0 6 1 4 191 2 3 MIN0 4 1 4 GAUSHALA ROAD OPP GRAIN MARKET SANGRUR PUNJAB 148001,SANGRUR,SANGRUR,PUNJAB,0
299,AU SMALL FINANCE BANK LIMITED,AUBL0002403,GURGAON-II,GF 5 6 7 NINEX CITY MART SECTOR 49 SOHNA ROAD GURGAON 122101,GURGAON,GURGAON,HARYANA,0
300,AU SMALL FINANCE BANK LIMITED,AUBL0002404,JAIPUR,"PLOT NO.6 C-6, HARIKISHAN SOMANI MARG, AJMER ROAD JAIPUR",JAIPUR,JAIPUR,RAJASTHAN,0
301,AU SMALL FINANCE BANK LIMITED,AUBL0002405,JAWANPURA,KHASRA NO 2131 RAKBA 1.57 JAWANPURA BUS STAND JAWANPURA VIRATNAGAR 303119,JAIPUR,JAIPUR,RAJASTHAN,0
302,AU SMALL FINANCE BANK LIMITED,AUBL0002406,THEEKARIA,MAIN BUS STAND THIKARIA WARD NO 11 TEHSIL JAIPUR 303106,JAIPUR,JAIPUR,RAJASTHAN,0
303,AU SMALL FINANCE BANK LIMITED,AUBL0002407,PAALDI,NEW BUS STAND VILLAGE AND POST PAALDI TEHSIL VIRATNAGAR 303003,JAIPUR,JAIPUR,RAJASTHAN,0
304,AU SMALL FINANCE BANK LIMITED,AUBL0002408,HANUTHPURA,WARD NO 8 DHANOTA WALON KA MOHALLA VILLAGE HANUTHPURA TEHSIL SHAHPURA 303120,JAIPUR,JAIPUR,RAJASTHAN,0
305,AU SMALL FINANCE BANK LIMITED,AUBL0002409,HATHIDEH,MAIN BUS STAND HATHIDEH 332705,SIKAR,SIKAR,RAJASTHAN,0
306,AU SMALL FINANCE BANK LIMITED,AUBL0002410,CHHARSA MOD,MAIN BUS STAND CHHARSA MODE 303120,JAIPUR,JAIPUR,RAJASTHAN,0
307,AU SMALL FINANCE BANK LIMITED,AUBL0002411,RAIWANA,RAIWANA TALWANA SUB TEHSIL NEEMRANA TEHSIL BEHROR ALWAR 301703,ALWAR,ALWAR,RAJASTHAN,0
308,AU SMALL FINANCE BANK LIMITED,AUBL0002412,CHAKWADA,MAIN BUS STAND CHAKWADA 303005,JAIPUR,JAIPUR,RAJASTHAN,0
309,AU SMALL FINANCE BANK LIMITED,AUBL0002413,KHURI,NH11 KHURI CHHOTI KHURI BADI RAJASTHAN,SIKAR,SIKAR,RAJASTHAN,0
310,AU SMALL FINANCE BANK LIMITED,AUBL0002414,GAILPUR,KHASRA NO 304 MAIN BUS STAND VPO GAILPUR TEHSIL TIJARA 301707,ALWAR,ALWAR,RAJASTHAN,0
311,AU SMALL FINANCE BANK LIMITED,AUBL0002415,BIDARA,IN FRONT OF K P AUTOMOTIVEMANGAL BHAWAN N H 8 BIDARA MOD SHAHPURA,SHAHPURA,SHAHPURA,RAJASTHAN,0
312,AU SMALL FINANCE BANK LIMITED,AUBL0002416,FAIZABAD,"VILLAGE-FAIZABAD,TEHSIL-NARNAULDISTRICTMAHENDRAGARH HARYANA",MAHENDRAGARH,FAIZABAD,HARYANA,0
313,AU SMALL FINANCE BANK LIMITED,AUBL0002417,NAND,"OPPOSITE GOVERNMENT HOSPITALNAND,PUSHKAR TEHSIL AJMER -305022",AJMER,NAND,RAJASTHAN,0
314,AU SMALL FINANCE BANK LIMITED,AUBL0002418,REHNAL BHIWANDI,"PIPALIYA ROAD,BUDIWARABARMER,RAJASTHAN-344022",BARMER,BUDIWARA,RAJASTHAN,0
315,AU SMALL FINANCE BANK LIMITED,AUBL0002419,GUMAN PURA,"SHEVRI DHARAMSHALA,GUMANPURASARDARPUR,DHAR-MP",DHAR,GUMANPURA,MADHYA PRADESH,0
316,AU SMALL FINANCE BANK LIMITED,AUBL0002420,RAJAPUR,"4TH FLOOR,PATHERA ROADRAJEPUR,INDRI,KARNAL",KARNAL,RAJAPUR,HARYANA,0
317,AU SMALL FINANCE BANK LIMITED,AUBL0002421,CHOKDI,"KUMHAO KA BAS,GRAM POST,CHOKRI KALA,CHOKARI KALAN,JODHPUR,RAJASTHAN 342601",OHU,JODHPUR,RAJASTHAN,0
318,AU SMALL FINANCE BANK LIMITED,AUBL0002422,PACHKODIYA,FIRST FLOOR RENWAL ROAD YADAV DHABA KE PASS MAIN BUS STAND PACHKODIYA 303328,JAIPUR,JOBANER,RAJASTHAN,0
319,AU SMALL FINANCE BANK LIMITED,AUBL0002423,KEER KI CHOWKI,"C/O MITTULAL JAIN KEER KI CHOWKI,BHINDER 313603",UDAIPUR,BHINDER,RAJASTHAN,0
320,AU SMALL FINANCE BANK LIMITED,AUBL0002424,SAHAJRASAR,"WARD NO.8,JHANWARLAL JI KA MAKAN MATA JI K MANDIR K PASS,SAHAJRASAR,BIKANER 334602",BIKANER,LUNKARANSAR,RAJASTHAN,0
321,AU SMALL FINANCE BANK LIMITED,AUBL0002425,MAVAL,"MAVAL ABU ROAD,SIROHI 307026",SIROHI,ABU ROAD,RAJASTHAN,0
322,AU SMALL FINANCE BANK LIMITED,AUBL0002426,BHUNAS,"BUS STAND BHUNAS,SAHARA,BHILWARA(DISTRICT ) 311802",BHILWARA,GANGAPUR,RAJASTHAN,0
323,AU SMALL FINANCE BANK LIMITED,AUBL0002427,JAISWAN,"GRAM JAISWAN,POST - KELWARA TEHSIL-KISHANGANJ,DISTRICT BARAN 325216",BARAN,BARAN,RAJASTHAN,0
324,AU SMALL FINANCE BANK LIMITED,AUBL0002428,MANDOLI,"S/O BHIMA RAM,MANDOLI NAGAR MANDOLI,DISTRICT - JALORE 307803",JALORE,BHINMAL,RAJASTHAN,0
325,AU SMALL FINANCE BANK LIMITED,AUBL0002429,KALWA BARA,"165,BASSI KA BASS,KALWA BARA BORAWAR,NAGAUR,TH.MAKRANA 341502",NAGAUR,KUCHAMAN,RAJASTHAN,0
326,AU SMALL FINANCE BANK LIMITED,AUBL0002430,JAWASIYA,"VILLAGE& POST JAWASHIYA,TEHSIL - GANGRARA 312901",CHITTORGARH,GANGRARA,RAJASTHAN,0
327,AU SMALL FINANCE BANK LIMITED,AUBL0009010,UDAIPUR,2ND FLOOR KESAV TOWER NEAR BARODA NARSARI OPP PANDIT PARATHA SAVINA MAIN ROAD HIRAN MAGRI SECTOR 8 UDAIPUR RAJASTHAN 313008,UDAIPUR,UDAIPUR,RAJASTHAN,0
328,AU SMALL FINANCE BANK LIMITED,AUBL0009034,JODHPUR,3RDFLOORSUNDERVILLAABOVEVODAFONESTORE12THROADCROSSRESIDENCYROADJODHPURRAJASTHAN342001,JODHPUR,JODHPUR,RAJASTHAN,0
329,AU SMALL FINANCE BANK LIMITED,AUBL0009116,PUNE,WING 4TH FLOOR OFFICE NO 504 505 506 MEGA CENTER PUNE SOLAPUR ROAD HADAPSAR PUNE MAHARASHTRA 411028,PUNE,PUNE,MAHARASHTRA,0
