,BANK NAME,IFSC,OFFICE,ADDRESS,DISTRICT,CITY,STATE,PHONE
0,THE ANDHRA PRADESH STATE COOPERATIVE BANK LIMITED,APBL0000001,RTGS-HO,"THE ANDHRA PRADESH STATE CO OPERATIVE BANK LTD. HEAD OFFICE, DOOR NO 27-29-28, NTR SAHAKARA BHAVAN, GOVERNORPET, VIJAYAWADA - 520002, ANDHRA PRADESH",KRISHNA,VIJAYAWADA,ANDHRA PRADESH,2429093
1,THE ANDHRA PRADESH STATE COOPERATIVE BANK LIMITED,APBL0000002,BARKATPURA,"DOOR NO 3-4-447&448,SAHAKARA BHAVAN,BARKATPURA,HYDERABAD 500027",HYDERABAD,HYDERABAD,TELANGANA,27687459
2,THE ANDHRA PRADESH STATE COOPERATIVE BANK LIMITED,APBL0000003,BRUNDAVAN GARDENS,"DOOR NO 1-2-55,JKC COLLEGE ROAD,OPP KLP SCHOOL,JKC NAGAR,GUNTUR 522006",GUNTUR,GUNTUR,ANDHRA PRADESH,2329574
3,THE ANDHRA PRADESH STATE COOPERATIVE BANK LIMITED,APBL0000004,GANNAVARAM,"DOOR NO 9-121,RAI NAGAR,GANNAVARAM 521345",KRISHNA,VIJAYAWADA,ANDHRA PRADESH,254554
4,THE ANDHRA PRADESH STATE COOPERATIVE BANK LIMITED,APBL0000005,GOLLAPUDI,"DOOR NO 23-3,SAIPURAM COLONY,GOLLAPUDI,VIJAYAWADA 521225",KRISHNA,VIJAYAWADA,ANDHRA PRADESH,2410755
5,THE ANDHRA PRADESH STATE COOPERATIVE BANK LIMITED,APBL0000006,KALESWARA RAO MARKET,"DOOR NO 9-3-3, BRAHMIN VEEDHI, KOTHAPET, VIJAYAWADA 520013",KRISHNA,VIJAYAWADA,ANDHRA PRADESH,2414909
6,THE ANDHRA PRADESH STATE COOPERATIVE BANK LIMITED,APBL0000007,RAMAVARAPPADU,"DOOR NO 6-121, S E R CENTRE, PRASADAMPADU, RAMAVARAPPADU POST, VIJAYAWADA 521108",KRISHNA,VIJAYAWADA,ANDHRA PRADESH,2844145
7,THE ANDHRA PRADESH STATE COOPERATIVE BANK LIMITED,APBL0000008,VENUGOPALA NAGAR,"DOOR NO 26-46-38, VENUGOPALA NAGAR, NGO COLONY, GUNTUR, GUNTUR DISTRICT- 522004",GUNTUR,GUNTUR,ANDHRA PRADESH,2220751
8,THE ANDHRA PRADESH STATE COOPERATIVE BANK LIMITED,APBL0000009,RAYAPUDI,"DOOR NO 3-34, ADJACENT TO RAYAPUDI PACS, AMARAVATI ROAD, RAYAPUDI VILLAGE,RAYAPUDI PO, TULLURU MANDAL,GUNTUR DISTRICT- 522237",GUNTUR,GUNTUR,ANDHRA PRADESH,244311
9,THE ANDHRA PRADESH STATE COOPERATIVE BANK LIMITED,APBL0000010,KANURU,"SAI PLAZA DOOR NO 11-46/1, OPP PINNAMANENI TEACHERS COLONY, NEAR PANTAKALUVA, KANURU MAIN ROAD,VIJAYAWADA - 520007",KRISHNA,VIJAYAWADA,ANDHRA PRADESH,2553400
10,THE ANDHRA PRADESH STATE COOPERATIVE BANK LIMITED,APBL0000011,CURRENCY NAGAR,"H.NO.48-19-5/1,SRI RAMA CHANDRA NAGAR ROAD,BANK COLONY,CURRENCY NAGAR,VIJAYAWADA,KRISHNA DISTRICT-520008",KRISHNA,VIJAYAWADA,ANDHRA PRADESH,2972300
11,THE ANDHRA PRADESH STATE COOPERATIVE BANK LIMITED,APBL0000012,MANGALAGIRI,"FLAT NO.C-2, GROUND FLOOR,DEEPIKA RESIDENCY,BYPASS ROAD,MANGALAGIRI,GUNTUR DISTRICT-522503",GUNTUR,MANGALAGIRI,ANDHRA PRADESH,7729914914
12,THE ANDHRA PRADESH STATE COOPERATIVE BANK LIMITED,APBL0000013,MOGALRAJPURAM,"D.NO.32-14-5A,OPP. SIVALAYAM,MOGALRAJPURAM,VIJAYAWADA,KRISHNA DISTRICT-520010",KRISHNA,VIJAYAWADA,ANDHRA PRADESH,2489009
13,THE ANDHRA PRADESH STATE COOPERATIVE BANK LIMITED,APBL0000014,CHENCHUPET,"TENALI MUNICIPALITY 1ST WARD, 1ST BLOCK, TS NO.146/4C, PLOT NO MIG A-82, CHENCHUPET, TENALI, GUNTUR DISTRICT 522202",GUNTUR,TENALI,ANDHRA PRADESH,225537
14,THE ANDHRA PRADESH STATE COOPERATIVE BANK LIMITED,APBL0000015,A T AGRAHARAM BRANCH,"D NO 26-19-122/A,NITYA NIVAS,MAIN ROAD,A T AGRAHARAM,GUNTUR,GUNTUR DISTRICT-522004",GUNTUR,GUNTUR,ANDHRA PRADESH,2220751
15,THE ANDHRA PRADESH STATE COOPERATIVE BANK LIMITED,APBL0000106,TIRUPATI,"PLOT NO 21 RC ROAD , TIRUPATI",CHITTOOR,TIRUPATI,ANDHRA PRADESH,2222428
16,THE ANDHRA PRADESH STATE COOPERATIVE BANK LIMITED,APBL0000126,VIJAYAWADA,"27-29-28, NTR SAHAKARA BHAVAN,  KSHEERA SAGAR HOSPITAL ROAD, GOVERNERPET, VIJAYAWADA-2",KRISHNA,VIJAYAWADA,ANDHRA PRADESH,2579523
17,THE ANDHRA PRADESH STATE COOPERATIVE BANK LIMITED,APBL0001001,SRIKAKULAM,"G.T. ROAD, SRIKAKULAM -532 001",SRIKAKULAM,SRIKAKULAM,ANDHRA PRADESH,9160018939
18,THE ANDHRA PRADESH STATE COOPERATIVE BANK LIMITED,APBL0001002,AMADALAVALASA,"MAIN ROAD, NEAR POLICE STATION, AMADALAVALASA  -532 001",SRIKAKULAM,AMADALAVALASA,ANDHRA PRADESH,9160018923
19,THE ANDHRA PRADESH STATE COOPERATIVE BANK LIMITED,APBL0001003,ICHAPURAM,"NEAR RAMA LODGE, ICHAPURAM- 532 312",SRIKAKULAM,ICHAPURAM,ANDHRA PRADESH,9160018922
20,THE ANDHRA PRADESH STATE COOPERATIVE BANK LIMITED,APBL0001004,KOTABOMMALI,"MAIN ROAD, KOTABOMMALI -  532 195",SRIKAKULAM,KOTABOMMALI,ANDHRA PRADESH,9160018928
21,THE ANDHRA PRADESH STATE COOPERATIVE BANK LIMITED,APBL0001005,KOTTURU,"MAIN ROAD, NEAR POLICE STATION, KOTTURU",SRIKAKULAM,KOTTURU,ANDHRA PRADESH,9160018930
22,THE ANDHRA PRADESH STATE COOPERATIVE BANK LIMITED,APBL0001006,NARSANNAPET,"MAIN ROAD, NARASANNAPETA - 532 421",SRIKAKULAM,NARSANNAPET,ANDHRA PRADESH,9160018924
23,THE ANDHRA PRADESH STATE COOPERATIVE BANK LIMITED,APBL0001007,PALAKONDA,"MUDUNRUVARI VEEDI, PALAKONDA -532 440",SRIKAKULAM,PALAKONDA,ANDHRA PRADESH,9160018926
24,THE ANDHRA PRADESH STATE COOPERATIVE BANK LIMITED,APBL0001008,PALASA,"MAIN ROAD, PALASA",SRIKAKULAM,PALASA,ANDHRA PRADESH,9160018929
25,THE ANDHRA PRADESH STATE COOPERATIVE BANK LIMITED,APBL0001009,PATHAPATNAM,"MAIN ROAD, PATHAPATNAM",SRIKAKULAM,PATHAPATNAM,ANDHRA PRADESH,9160018931
26,THE ANDHRA PRADESH STATE COOPERATIVE BANK LIMITED,APBL0001010,PONDURU,"MARKET ROAD, PONDURU",SRIKAKULAM,PONDURU,ANDHRA PRADESH,9160018925
27,THE ANDHRA PRADESH STATE COOPERATIVE BANK LIMITED,APBL0001011,RAJAM,"MADAVA BAZAR, RAJAM -532 127",SRIKAKULAM,RAJAM,ANDHRA PRADESH,9160018927
28,THE ANDHRA PRADESH STATE COOPERATIVE BANK LIMITED,APBL0001012,SOMPETA,"POST OFFICE ROAD, SOMEPTA -532 284",SRIKAKULAM,SOMPETA,ANDHRA PRADESH,9160018921
29,THE ANDHRA PRADESH STATE COOPERATIVE BANK LIMITED,APBL0001013,SRIKAKULAM,"G.T. ROAD, SRIKAKULAM -532 001",SRIKAKULAM,SRIKAKULAM,ANDHRA PRADESH,9160018920
30,THE ANDHRA PRADESH STATE COOPERATIVE BANK LIMITED,APBL0001014,TEKKALI,"RAILWAY STATION ROAD, NEAR OLD BUS STAND, TEKKALI -532 201",SRIKAKULAM,TEKKALI,ANDHRA PRADESH,9160018934
31,THE ANDHRA PRADESH STATE COOPERATIVE BANK LIMITED,APBL0001015,DISTCOOPBANKLTD SRKL CHALLAVANIPETA,MARKET JN JALUMURU MDL SRIKAKULAM 532432,SRIKAKULAM,KOTABOMMALI,ANDHRA PRADESH,9160018917
32,THE ANDHRA PRADESH STATE COOPERATIVE BANK LIMITED,APBL0001016,DISTCOOPBANKLTD SRKL GARA,GARA DCCB MDL SRIKAKULAM 532432,SRIKAKULAM,GARA,ANDHRA PRADESH,9160018935
33,THE ANDHRA PRADESH STATE COOPERATIVE BANK LIMITED,APBL0001017,"THE DIST. CO-OPERATIVE CENTRAL BANK LTD., SRIKAKULAM - DANDIVEEDHI","DANDIVEEDHI DCCB BRANCH, COLLECTOR BUNGALOW ROAD, SRIKAKULAM - 532001",SRIKAKULAM,SRIKAKULAM,ANDHRA PRADESH,9133425551
34,THE ANDHRA PRADESH STATE COOPERATIVE BANK LIMITED,APBL0001018,"THE DIST. CO-OPERATIVE CENTRAL BANK LTD., SRIKAKULAM - RANASTHALAM","OPP NEW POLICE STATION, JR PURAM, RANASTHALAM,SRIKAKULAM - 532407",SRIKAKULAM,SRIKAKULAM,ANDHRA PRADESH,9133427771
35,THE ANDHRA PRADESH STATE COOPERATIVE BANK LIMITED,APBL0001019,"THE DIST. CO-OPERATIVE CENTRAL BANK LTD., SRIKAKULAM - MANDASA","BESIDES SRSM Z.P. HIGH SCHOOL,MAIN ROAD, MANDASA (MANDAL & TOWN) - 532242",SRIKAKULAM,MANDASA,ANDHRA PRADESH,9133427774
36,THE ANDHRA PRADESH STATE COOPERATIVE BANK LIMITED,APBL0001020,"THE DIST. CO-OPERATIVE CENTRAL BANK LTD., SRIKAKULAM - HIRAMANDALAM","D NO 2-26,BESIDE PETROL BUNK,OPP NEELAMMATHALLI TEMPLE, KORADA STREE MAIL ROAD, HIRAMANADALAM - 532459",SRIKAKULAM,HIRAMANDALAM,ANDHRA PRADESH,9133427773
37,THE ANDHRA PRADESH STATE COOPERATIVE BANK LIMITED,APBL0002001,HEAD OFFICE,"THE DISTRICT CO-OPERATIVE CENTRAL BANK LTD., VIZIANAGARAM BRANCH A.G.ROAD, VIZIANAGARAM",VIZIANAGARAM,VIZIANAGARAM,ANDHRA PRADESH,9989773050
38,THE ANDHRA PRADESH STATE COOPERATIVE BANK LIMITED,APBL0002002,BOBBILI,"THE DISTRICT CO-OPERATIVE CENTRAL BANK LTD., BOBBILI BRANCH, 33/110A, BALIJIPETA ROAD,BOBBILI",VIZIANAGARAM,BOBBILI,ANDHRA PRADESH,9989773039
39,THE ANDHRA PRADESH STATE COOPERATIVE BANK LIMITED,APBL0002003,CHEEPURUPALLE,"THE DISTRICT CO-OPERATIVE CENTRAL BANK LTD., CHEEPURUPALLI BRANCH 4/112, RAJAM ROAD, MAIN ROAD,CHEEPURUPALLI",VIZIANAGARAM,CHEEPURUPALLE,ANDHRA PRADESH,9989773046
40,THE ANDHRA PRADESH STATE COOPERATIVE BANK LIMITED,APBL0002004,GAJAPATHINAGARAM,"THE DISTRICT CO-OPERATIVE CENTRAL BANK LTD., GAJAPATHINAGARAM BRANCH",VIZIANAGARAM,GAJAPATHINAGARAM,ANDHRA PRADESH,9989773041
41,THE ANDHRA PRADESH STATE COOPERATIVE BANK LIMITED,APBL0002005,GANTYADA,"THE DISTRICT CO-OPERATIVE CENTRAL BANK LTD., GANTYADA BRANCH KOTARUBILLI JUNCTION",VIZIANAGARAM,GANTYADA,ANDHRA PRADESH,9989773044
42,THE ANDHRA PRADESH STATE COOPERATIVE BANK LIMITED,APBL0002006,GARIVIDI,"THE DISTRICT CO-OPERATIVE CENTRAL BANK LTD., MAIN ROAD, GARIVIDI BRANCH GARIVIDI TOWN",VIZIANAGARAM,GARIVIDI,ANDHRA PRADESH,9989773047
43,THE ANDHRA PRADESH STATE COOPERATIVE BANK LIMITED,APBL0002007,KOTHAVALASA,"THE DISTRICT CO-OPERATIVE CENTRAL BANK LTD., KOTHAVALASA BRANCH, VIZIANAGARAM ROAD.",VIZIANAGARAM,KOTHAVALASA,ANDHRA PRADESH,9989773042
44,THE ANDHRA PRADESH STATE COOPERATIVE BANK LIMITED,APBL0002008,NELLIMERLA,"THE DISTRICT CO-OPERATIVE CENTRAL BANK LTD., NELLIMARLA BRANCH  DR NO.2277, MOIDA JUNCTION, NELLIMARLA",VIZIANAGARAM,NELLIMERLA,ANDHRA PRADESH,9989773048
45,THE ANDHRA PRADESH STATE COOPERATIVE BANK LIMITED,APBL0002009,PARVATHIPURAM,"THE DISTRICT CO-OPERATIVE CENTRAL BANK LTD., PARVATHIPURAM BRANCH PADMASREE CINEMA THEATRE OPPSIT SAHARA INDIA UPSTAIRS PARVATI PURAM",VIZIANAGARAM,PARVATHIPURAM,ANDHRA PRADESH,9989773036
46,THE ANDHRA PRADESH STATE COOPERATIVE BANK LIMITED,APBL0002010,POOSAPATIREGA,"THE DISTRICT CO-OPERATIVE CENTRAL BANK LTD., POOSAPATIREGA BRANCH",VIZIANAGARAM,POOSAPATIREGA,ANDHRA PRADESH,9989773045
47,THE ANDHRA PRADESH STATE COOPERATIVE BANK LIMITED,APBL0002011,SRUNGAVARAPUKOTA,OPP.BARA GANGAMMA TEMPLE,VIZIANAGARAM,SRUNGAVARAPUKOTA,ANDHRA PRADESH,9989773043
48,THE ANDHRA PRADESH STATE COOPERATIVE BANK LIMITED,APBL0002012,SALUR,"ANJANEYA THEATRE OPP, JAIPORE ROAD",VIZIANAGARAM,SALUR,ANDHRA PRADESH,9989773040
49,THE ANDHRA PRADESH STATE COOPERATIVE BANK LIMITED,APBL0002013,SEETHANAGARAM  BRANCH,"THE DISTRICT CO-OPERATIVE CENTRAL BANK LTD., SEETHANAGARAM BRANCH  DR.NO.2-154, VELAMAVARI STREET, SEETHANAGARAM",VIZIANAGARAM,SEETHANAGARAM,ANDHRA PRADESH,9989773038
50,THE ANDHRA PRADESH STATE COOPERATIVE BANK LIMITED,APBL0002014,TERLAM,"THE DISTRICT CO-OPERATIVE CENTRAL BANK LTD., THERLAM BRANCH,  CHERUVU GATTU, THERLAM",VIZIANAGARAM,TERLAM,ANDHRA PRADESH,9989773037
51,THE ANDHRA PRADESH STATE COOPERATIVE BANK LIMITED,APBL0002015,V.T. AGRAHARAMBRANCH,"THE DISTRICT CO-OPERATIVE CENTRAL BANK LTD., V.T.AGRAHARAM BRANCH OPP. ELECTRICAL SUB-STATION, VIZIANAGARAM",VIZIANAGARAM,VIZIANAGARAM,ANDHRA PRADESH,9000882129
52,THE ANDHRA PRADESH STATE COOPERATIVE BANK LIMITED,APBL0002016,VIZIANAGARAM,"THE DISTRICT CO-OPERATIVE CENTRAL BANK LTD., VIZIANAGARAM BRANCH A.G.ROAD, VIZIANAGARAM",VIZIANAGARAM,VIZIANAGARAM,ANDHRA PRADESH,9989773055
53,THE ANDHRA PRADESH STATE COOPERATIVE BANK LIMITED,APBL0002017,BALIJIPETABRANCH,"THE DISTRICT CO-OPERATIVE CENTRAL BANK LTD., COLLEGE ROAD, BALIJIPETA MANDAL",VIZIANAGARAM,BOBBILI,ANDHRA PRADESH,9177927666
54,THE ANDHRA PRADESH STATE COOPERATIVE BANK LIMITED,APBL0003001,SERVICE BRANCH (CENTRAL OFFICE),"MARRIPALEM, VUDA LAYOUT, DOO BO. 58-14-57/2 NH 5 , VISAKHAPATNAM 531009",VISAKHAPATNAM,VISAKHAPATNAM,ANDHRA PRADESH,9989115501
55,THE ANDHRA PRADESH STATE COOPERATIVE BANK LIMITED,APBL0003002,ANAKAPALLE,"DOOR NO 3-7-22,MAIN ROAD, ANAKAPALLI, VISAKHAPATAM DT 531001",VISAKHAPATNAM,ANAKAPALLE,ANDHRA PRADESH,9989115548
56,THE ANDHRA PRADESH STATE COOPERATIVE BANK LIMITED,APBL0003003,BHEEMUNIPATNAM,"DOOR NO 12-26-4,BHEEMUNIPATNAM,VISAKHA DIST",VISAKHAPATNAM,BHEEMUNIPATNAM,ANDHRA PRADESH,9989115527
57,THE ANDHRA PRADESH STATE COOPERATIVE BANK LIMITED,APBL0003004,CHODAVARAM,"COOP COLONY,CHODAVARAM 531036, VISAKHA DT",VISAKHAPATNAM,CHODAVARAM,ANDHRA PRADESH,9989115530
58,THE ANDHRA PRADESH STATE COOPERATIVE BANK LIMITED,APBL0003005,DEVARAPALLI,"DOOR NO 1-167/1,DEVARAPALLI,",VISAKHAPATNAM,DEVARAPALLI,ANDHRA PRADESH,9989115529
59,THE ANDHRA PRADESH STATE COOPERATIVE BANK LIMITED,APBL0003006,DWARAKANAGAR BRANCH,"D NO. 47-10-7/2, NEAR DIMOND PARK, DWARAKANAGAR , VISAKHAPATNAM 16",VISAKHAPATNAM,VISAKHAPATNAM,ANDHRA PRADESH,9989115503
60,THE ANDHRA PRADESH STATE COOPERATIVE BANK LIMITED,APBL0003007,GAJUWAKA,"D NO 12-60-10/3, BC ROAD, GAJUWAKA VISAKHAPTNAM 530026",VISAKHAPATNAM,GAJUWAKA,ANDHRA PRADESH,9989115504
61,THE ANDHRA PRADESH STATE COOPERATIVE BANK LIMITED,APBL0003008,GANDHIPLACE BRANCH,"D NO 8-1-99, OLD CBI JN, ANDHRA UNIVERSITY ROAD , VISAKHAPATNAM",VISAKHAPATNAM,VISAKHAPATNAM,ANDHRA PRADESH,9989115505
62,THE ANDHRA PRADESH STATE COOPERATIVE BANK LIMITED,APBL0003009,GOPALAPATNAM,"MAIN ROAD, GOPALAPATNAM VISAKHAPATNAM",VISAKHAPATNAM,GOPALAPATNAM,ANDHRA PRADESH,9989115506
63,THE ANDHRA PRADESH STATE COOPERATIVE BANK LIMITED,APBL0003010,K.KOTAPADU,"DOOR NO 5-311,K.KOTAPADU, VISAKHA DT",VISAKHAPATNAM,K.KOTAPADU,ANDHRA PRADESH,9989115528
64,THE ANDHRA PRADESH STATE COOPERATIVE BANK LIMITED,APBL0003011,KANCHARAPALEM BRANCH,"DOOR NO 57-1-20,KANCHARAPALEM,VISAKHAPATNAM",VISAKHAPATNAM,VISAKHAPATNAM,ANDHRA PRADESH,9989115507
65,THE ANDHRA PRADESH STATE COOPERATIVE BANK LIMITED,APBL0003012,KOTAURATLA,"KOTAURTLA,  MAIN ROAD VISAKHA DIST",VISAKHAPATNAM,KOTAURATLA,ANDHRA PRADESH,9866695638
66,THE ANDHRA PRADESH STATE COOPERATIVE BANK LIMITED,APBL0003013,M V P COLONY BRANCH,"PLOT NOHIG-100,DOOR NO1-83-11/1/1SECTOR-I,MVP COLONY, VISAKHAP[ATNAM",VISAKHAPATNAM,VISAKHAPATNAM,ANDHRA PRADESH,9989115510
67,THE ANDHRA PRADESH STATE COOPERATIVE BANK LIMITED,APBL0003014,MADHURAVADA,"DOOR NO 4-75,MADHURAWADA, VISAKHAPATNAM",VISAKHAPATNAM,MADHURAVADA,ANDHRA PRADESH,9989115526
68,THE ANDHRA PRADESH STATE COOPERATIVE BANK LIMITED,APBL0003015,MADUGULA,"MADUGULA,VISAKHA DIST.",VISAKHAPATNAM,MADUGULA,ANDHRA PRADESH,9989115531
69,THE ANDHRA PRADESH STATE COOPERATIVE BANK LIMITED,APBL0003016,MAHARANIPETA,"DOOR NO 14-25-11/A,MAHARANIPETA VISAKHAPATNAM",VISAKHAPATNAM,VISAKHAPATNAM,ANDHRA PRADESH,9989115508
70,THE ANDHRA PRADESH STATE COOPERATIVE BANK LIMITED,APBL0003017,VISAKHAPATNAM,"MARRIPALEM VUDA LAYOUT,DOOR NO58-14-57/1NH-5 VISAKHAPATNAM",VISAKHAPATNAM,VISAKHAPATNAM,ANDHRA PRADESH,9989115502
71,THE ANDHRA PRADESH STATE COOPERATIVE BANK LIMITED,APBL0003018,NARSIPATNAM,"DOOR NO1-90/10,MAIN ROAD NARSIPATNAM,VISAKHA DT.",VISAKHAPATNAM,NARSIPATNAM,ANDHRA PRADESH,9989115532
72,THE ANDHRA PRADESH STATE COOPERATIVE BANK LIMITED,APBL0003019,PADERU,"MAIN ROAD PADERU,VISAKHA DIST",VISAKHAPATNAM,PADERU,ANDHRA PRADESH,9494148049
73,THE ANDHRA PRADESH STATE COOPERATIVE BANK LIMITED,APBL0003020,PAYAKARAOPET,"DOOR NO 13-4,MAIN ROAD PAYAKARAOPETA,VISAKHA DIST,",VISAKHAPATNAM,PAYAKARAOPET,ANDHRA PRADESH,9989115546
74,THE ANDHRA PRADESH STATE COOPERATIVE BANK LIMITED,APBL0003021,PENDURTI,"DOOR NO 17-89/8,MAIN ROAD,PENDURTHY,VISAKHAPATNAM 71",VISAKHAPATNAM,PENDURTI,ANDHRA PRADESH,9989115524
75,THE ANDHRA PRADESH STATE COOPERATIVE BANK LIMITED,APBL0003022,RLY NEW COLONY BRANCH,"DOOR NO 43-9-197,RLY NEWCOLONY,VISAKHAPATNAM",VISAKHAPATNAM,VISAKHAPATNAM,ANDHRA PRADESH,9989115514
76,THE ANDHRA PRADESH STATE COOPERATIVE BANK LIMITED,APBL0003023,RAVIKAMATAM,"RAVIKAMATAM,VISAKHA DIST",VISAKHAPATNAM,RAVIKAMATAM,ANDHRA PRADESH,9989502565
77,THE ANDHRA PRADESH STATE COOPERATIVE BANK LIMITED,APBL0003024,SEETHAMMADHARA BRANCH,"DOOR NO 50-44-13, SEETAMMADARA,VISAKHAPATNAM",VISAKHAPATNAM,VISAKHAPATNAM,ANDHRA PRADESH,9989115512
78,THE ANDHRA PRADESH STATE COOPERATIVE BANK LIMITED,APBL0003025,SRIHARIPURAM,"DOOR NO 64-1-51,SRIHARIPURAM,VISAKHAPATNAM-530011",VISAKHAPATNAM,SRIHARIPURAM,ANDHRA PRADESH,9989115513
79,THE ANDHRA PRADESH STATE COOPERATIVE BANK LIMITED,APBL0003026,STEEL CITY BRANCH,"SHOP NO3&6,SECTORV,UKKUNAGARAM,VISAKHAPATNAM",VISAKHAPATNAM,VISAKHAPATNAM,ANDHRA PRADESH,9989115516
80,THE ANDHRA PRADESH STATE COOPERATIVE BANK LIMITED,APBL0003027,VISAKHAPATNAM,"D.NO 26-15-176, MAIN ROAD, VISAKHAPATNAM 531001",VISAKHAPATNAM,VISAKHAPATNAM,ANDHRA PRADESH,9989115502
81,THE ANDHRA PRADESH STATE COOPERATIVE BANK LIMITED,APBL0003028,V L NAGAR BRANCH,"DOOR NO 10-29-85/1,V.L.NAGAR VISAKHAPATNAM",VISAKHAPATNAM,VISAKHAPATNAM,ANDHRA PRADESH,9989115515
82,THE ANDHRA PRADESH STATE COOPERATIVE BANK LIMITED,APBL0003029,YELLAMANCHILI,"MAIN ROSD YELAMANCHILI, VISAKHA DIST",VISAKHAPATNAM,YELLAMANCHILI,ANDHRA PRADESH,9989115547
83,THE ANDHRA PRADESH STATE COOPERATIVE BANK LIMITED,APBL0003030,VISAKHAPATNAM DCCB ADDU ROAD,"THE DISTRICT CO OP CENTRAL BANK LTD, ADDU ROAD BRANCH, D NO 4-70, WARD NO 4, OLD NH5 MAIN ROAD, THIMMAPURAM VILLAGE, ADDU ROAD, VISAKHAPATNAM 531083",VISAKHAPATNAM,VISAKHAPATNAM,ANDHRA PRADESH,9177762144
84,THE ANDHRA PRADESH STATE COOPERATIVE BANK LIMITED,APBL0004001,KAKINADA,"D.NO.70-01-28/1, NAGAMALLITHOTA JN, KAKINADA",KAKINADA,KAKINADA,ANDHRA PRADESH,2340769
85,THE ANDHRA PRADESH STATE COOPERATIVE BANK LIMITED,APBL0004002,ALAMURU,"D.NO.12-126, SAI MADHAVA NILAYAM, ALAMURU",KAKINADA,ALAMURU,ANDHRA PRADESH,278591
86,THE ANDHRA PRADESH STATE COOPERATIVE BANK LIMITED,APBL0004003,ALLAVARAM,"D.NO.6-2, MAIN  ROAD, ALLAVARAM",KAKINADA,AMALAPURAM,ANDHRA PRADESH,259440
87,THE ANDHRA PRADESH STATE COOPERATIVE BANK LIMITED,APBL0004004,AMALAPURAM,"D.NO.3-3-20, K.AGRAHARAM  ROAD, AMALAPURAM",KAKINADA,AMALAPURAM,ANDHRA PRADESH,231836
88,THE ANDHRA PRADESH STATE COOPERATIVE BANK LIMITED,APBL0004005,ANAPARTHI,"D.NO.6-188, CANAL ROAD, ANAPARTHI",KAKINADA,ANAPARTHI,ANDHRA PRADESH,228285
89,THE ANDHRA PRADESH STATE COOPERATIVE BANK LIMITED,APBL0004006,ANGARA,"D.NO.4-174, VENU GOPALA SWAMY TEMPLE STREET, ANGARA",KAKINADA,ANGARA,ANDHRA PRADESH,226177
90,THE ANDHRA PRADESH STATE COOPERATIVE BANK LIMITED,APBL0004007,ANNAVARAM,"D.NO.6-72, VAHANALAVEEDHI, ANNAVARAM",KAKINADA,ANNAVARAM,ANDHRA PRADESH,238162
91,THE ANDHRA PRADESH STATE COOPERATIVE BANK LIMITED,APBL0004008,ATREYAPURAM,"D.NO.468-1, MAIN  ROAD,  ATREYAPURAM",KAKINADA,ATREYAPURAM,ANDHRA PRADESH,271427
92,THE ANDHRA PRADESH STATE COOPERATIVE BANK LIMITED,APBL0004010,DRAKSHARAMA,"D.NO.1-137,  THOTA PETA, DRAKSHARAMA",KAKINADA,DRAKSHARAMA,ANDHRA PRADESH,252404
93,THE ANDHRA PRADESH STATE COOPERATIVE BANK LIMITED,APBL0004011,GANDEPALLI,"D.NO.5-170, CO-OP BANK ST, GANDEPALLI",KAKINADA,RAJANAGARAM,ANDHRA PRADESH,237750
94,THE ANDHRA PRADESH STATE COOPERATIVE BANK LIMITED,APBL0004012,GANGAVARAM,"D.NO.1-16, KOTIPALLI ROAD, K.GANGAVARAM",KAKINADA,DRAKSHARAMA,ANDHRA PRADESH,255424
95,THE ANDHRA PRADESH STATE COOPERATIVE BANK LIMITED,APBL0004013,GOKAVARAM,"D.NO.10-77,  NEAR  OFFICE, GOKAVARAM",KAKINADA,GOKAVARAM,ANDHRA PRADESH,2455529
96,THE ANDHRA PRADESH STATE COOPERATIVE BANK LIMITED,APBL0004014,GOLLAPALEM,"D.NO.1-72. MAIN ROAD, GOLLAPALEM",KAKINADA,GOLLAPALEM,ANDHRA PRADESH,2335311
97,THE ANDHRA PRADESH STATE COOPERATIVE BANK LIMITED,APBL0004015,INAVALLI,"D.NO.4-13, MAIN  ROAD,  INAVILLI",KAKINADA,INAVALLI,ANDHRA PRADESH,225535
98,THE ANDHRA PRADESH STATE COOPERATIVE BANK LIMITED,APBL0004016,JAGGAMPETA,"D.NO.6-76A, DEVI CENTRE,  JAGGAMPETA",KAKINADA,JAGGAMPETA,ANDHRA PRADESH,233467
99,THE ANDHRA PRADESH STATE COOPERATIVE BANK LIMITED,APBL0004017,KADIAM,"PANCHAYAT STREET,  KADIAM",KAKINADA,KADIAM,ANDHRA PRADESH,2453422
100,THE ANDHRA PRADESH STATE COOPERATIVE BANK LIMITED,APBL0004018,KATRENIKONA,"D.NO.3-45, NEAREST ANDHRA BANK, KATRENIKONA",KAKINADA,KATRENIKONA,ANDHRA PRADESH,285126
101,THE ANDHRA PRADESH STATE COOPERATIVE BANK LIMITED,APBL0004019,KORUKONDA,"D.NO.12/51, NEAR BUS STAND, KORUKONDA",KAKINADA,KORUKONDA,ANDHRA PRADESH,2455529
102,THE ANDHRA PRADESH STATE COOPERATIVE BANK LIMITED,APBL0004020,KOTHAPETA,"D.NO.8-2(7), OLD BUS STAND CENTER, KOTHAPETA",KAKINADA,KOTHAPETA,ANDHRA PRADESH,243257
103,THE ANDHRA PRADESH STATE COOPERATIVE BANK LIMITED,APBL0004021,MUMMIDIVARAM,"D.NO.6-161, MAIN ROAD, BALLA GATE CENTER, MUMMIDIVARAM",KAKINADA,MUMMIDIVARAM,ANDHRA PRADESH,271052
104,THE ANDHRA PRADESH STATE COOPERATIVE BANK LIMITED,APBL0004022,MALIKIPURAM,"D.NO.6-286, NEAR SAI BABA TEMPLE, MALIKIPURAM",KAKINADA,MALIKIPURAM,ANDHRA PRADESH,226325
105,THE ANDHRA PRADESH STATE COOPERATIVE BANK LIMITED,APBL0004023,MAMIDIKUDURU,"D.NO.4-34, MAIN  ROAD, MAMIDIKUDURU",KAKINADA,TATIPAKA,ANDHRA PRADESH,238213
106,THE ANDHRA PRADESH STATE COOPERATIVE BANK LIMITED,APBL0004024,MANDAPETA,"D.NO.5-16-14, BURRUGUNTA TANK ROAD, MANDAPETA",KAKINADA,MANDAPETA,ANDHRA PRADESH,233014
107,THE ANDHRA PRADESH STATE COOPERATIVE BANK LIMITED,APBL0004025,MUKKAMALA,"D.NO.2-143, SIVALAYAM STREET,  MUKKAMALA",KAKINADA,AMALAPURAM,ANDHRA PRADESH,227437
108,THE ANDHRA PRADESH STATE COOPERATIVE BANK LIMITED,APBL0004026,MURAMULLA,"D.NO.132-15, I.POLAVARAM ROAD, MURAMALLA",KAKINADA,MURAMULLA,ANDHRA PRADESH,278143
109,THE ANDHRA PRADESH STATE COOPERATIVE BANK LIMITED,APBL0004028,PATHAGANNAVARAM,"D.NO.6-115/3B, NEAR POLICE STATION, P.GANNAVARAM",KAKINADA,PATHAGANNAVARAM,ANDHRA PRADESH,289443
110,THE ANDHRA PRADESH STATE COOPERATIVE BANK LIMITED,APBL0004029,PEDAPUDI,"D.NO.10-64, NEAR  MDO OFFICE, PEDAPUDI",KAKINADA,PEDAPUDI,ANDHRA PRADESH,2312080
111,THE ANDHRA PRADESH STATE COOPERATIVE BANK LIMITED,APBL0004030,PEDDAPURAM,"D.NO.6-3-19, NEAR ANJANEYA SWAMY TEMPLE, PEDDAPURAM",KAKINADA,PEDDAPURAM,ANDHRA PRADESH,241222
112,THE ANDHRA PRADESH STATE COOPERATIVE BANK LIMITED,APBL0004031,PITHAPURAM,"D.NO.4-2-26, CHURCH CENTER ROAD, PITHAPURAM",KAKINADA,PITHAPURAM,ANDHRA PRADESH,251224
113,THE ANDHRA PRADESH STATE COOPERATIVE BANK LIMITED,APBL0004032,PRATHIPADU,"D.NO.6-161, TUNI ROAD, PRATHIPADU",KAKINADA,PRATHIPADU,ANDHRA PRADESH,246057
114,THE ANDHRA PRADESH STATE COOPERATIVE BANK LIMITED,APBL0004033,RAMACHANDRAPURAM,"D.NO.19-1-54, NEAR LIC OFFICE, RAMACHANDRAPURAM",KAKINADA,RAMACHANDRAPURAM,ANDHRA PRADESH,242327
115,THE ANDHRA PRADESH STATE COOPERATIVE BANK LIMITED,APBL0004034,RAGHUDEVAPURAM,"D.NO.12-133, MAIN ROAD, RAGHUDEVAPURAM",KAKINADA,RAGHUDEVAPURAM,ANDHRA PRADESH,2458821
116,THE ANDHRA PRADESH STATE COOPERATIVE BANK LIMITED,APBL0004035,RAJAHMUNDRY,"D.NO.6-5-7, MAIN ROAD, INNIS PETA, RAJAHMUNDRY",KAKINADA,RAJAHMUNDRY,ANDHRA PRADESH,2462467
117,THE ANDHRA PRADESH STATE COOPERATIVE BANK LIMITED,APBL0004036,RAJANAGARAM,"D.NO.2-183, NEAR MARKET, RAJANAGARAM",KAKINADA,RAJANAGARAM,ANDHRA PRADESH,2484103
118,THE ANDHRA PRADESH STATE COOPERATIVE BANK LIMITED,APBL0004037,RANGAMPETA,"D.NO.6-121, MAIN ROAD, RANGAMPETA",KAKINADA,RANGAMPETA,ANDHRA PRADESH,246231
119,THE ANDHRA PRADESH STATE COOPERATIVE BANK LIMITED,APBL0004038,RAVULAPALEM,"D.NO.8-395, VEDIRESWARAM ROAD, RAVULAPALEM",KAKINADA,RAVULAPALEM,ANDHRA PRADESH,255993
120,THE ANDHRA PRADESH STATE COOPERATIVE BANK LIMITED,APBL0004039,RAYAVARAM,"D.NO.5-3, BESIDE TELE PHONE EXCHANGE, RAYAVARAM",KAKINADA,RAMACHANDRAPURAM,ANDHRA PRADESH,235237
121,THE ANDHRA PRADESH STATE COOPERATIVE BANK LIMITED,APBL0004040,RAZOLE,"D.NO.2-55, NEAR LIC OFFICE, RAZOLE",KAKINADA,RAZOLE,ANDHRA PRADESH,221040
122,THE ANDHRA PRADESH STATE COOPERATIVE BANK LIMITED,APBL0004041,SAMALKOT,"D.NO.13-3-36, GOLIVARI STREET, DEVI CHOWK, SAMALKOT",KAKINADA,SAMALKOT,ANDHRA PRADESH,2327106
123,THE ANDHRA PRADESH STATE COOPERATIVE BANK LIMITED,APBL0004042,TALLAREVU,"D.NO.3-18, NEAR VENKATESWARA SWAMY TEMPLE, TALLAREVU",KAKINADA,TALLAREVU,ANDHRA PRADESH,2303542
124,THE ANDHRA PRADESH STATE COOPERATIVE BANK LIMITED,APBL0004043,TATIPAKA,"D.NO.8-313, BNR COMPLEX, OPP:ANJANEYA SWAMY TEMPLE,TATIPAKA",KAKINADA,TATIPAKA,ANDHRA PRADESH,247244
125,THE ANDHRA PRADESH STATE COOPERATIVE BANK LIMITED,APBL0004044,TEMPLE STREET,"D.NO.34-01-33, TEMPLE STREET, KAKINADA",KAKINADA,KAKINADA,ANDHRA PRADESH,2374373
126,THE ANDHRA PRADESH STATE COOPERATIVE BANK LIMITED,APBL0004045,THORREDU,"D.NO.6-179, BESIDE  OF WATER TANK, THORREDU",KAKINADA,THORREDU,ANDHRA PRADESH,2497568
127,THE ANDHRA PRADESH STATE COOPERATIVE BANK LIMITED,APBL0004046,TUNI,"D.NO.3-17-419/1, KOMAKULA VARI STREET, TUNI",KAKINADA,TUNI,ANDHRA PRADESH,253674
128,THE ANDHRA PRADESH STATE COOPERATIVE BANK LIMITED,APBL0004047,UPPALAGUPTAM,"D.NO.6-95/30, UPPALAGUPTAM",KAKINADA,UPPALAGUPTAM,ANDHRA PRADESH,283448
129,THE ANDHRA PRADESH STATE COOPERATIVE BANK LIMITED,APBL0004048,YELESWARAM,"D.NO.1-111, RUPULAMMA TEMPLE STREET, YELESWARAM",KAKINADA,YELESWARAM,ANDHRA PRADESH,224074
130,THE ANDHRA PRADESH STATE COOPERATIVE BANK LIMITED,APBL0004049,THE DISTRICT COOPERATIVE CENTRAL BANK LTD KAKINADA U KOTHAPALLI BRANCH,"THE DISTRICT CO OPERATIVE CENTRAL BANK LTD , KAKINADA U.KOTHAPALLI BRANCH, U KOTHAPALLI",EAST GODAVARI,U.KOTHAPALLI,ANDHRA PRADESH,9553302209
131,THE ANDHRA PRADESH STATE COOPERATIVE BANK LIMITED,APBL0004050,DCCB KAKINADA AMBAJIPETA,"OPP.ANDHRABANK,AMBAJIPETA,EASTGODAVARIDIST,ANDHRAPRADESH.PINCODE-533214",EAST GODAVARI,KAKINADA,ANDHRA PRADESH,243999
132,THE ANDHRA PRADESH STATE COOPERATIVE BANK LIMITED,APBL0004051,DCCB KAKINADA SAKHINETIPALLI,"D.NO.1-303,GEETA MANDIRAM,SBI ROAD,SAKHINETIPALLI,EAST GODAVARI DT,ANDHRA PRADESH,PIN CODE - 533251",EAST GODAVARI,SAKHINETIPALLE,ANDHRA PRADESH,244999
133,THE ANDHRA PRADESH STATE COOPERATIVE BANK LIMITED,APBL0004052,DCCB KAKINADA RAMPACHODAVARAM,"D.NO.2-269,RAMPAROAD,BEHINDOLDLIBRARY,RAMPACHODAVARAM,EASTGODAVARIDT,ANDHRAPRADESH,PINCODE-533288",EAST GODAVARI,RAMPACHODAVARAM,ANDHRA PRADESH,4243477
134,THE ANDHRA PRADESH STATE COOPERATIVE BANK LIMITED,APBL0004053,THE DIST COOP CENTRAL BANK KAKINADA KARAPA,D NO 147 MAIN ROAD KARAPA KAKINADA RURAL MANDAL EAST GODAVARI DISTRICT ANDHRA PRADESH STATE 533462,EAST GODAVARI,KARAPA,ANDHRA PRADESH,2394928
135,THE ANDHRA PRADESH STATE COOPERATIVE BANK LIMITED,APBL0004054,THE DISTRICT COOPERATIVE CENTRAL BANK LTD KAKINADA DANAVAIPETA BRANCH,"THE DISTRICT CO OPERATIVE CENTRAL BANK LTD , KAKINADA DANAVAIPETA BRANCH, RAJAMAHENDRAVARAM",EAST GODAVARI,DANAVAIPETA,ANDHRA PRADESH,9553302209
136,THE ANDHRA PRADESH STATE COOPERATIVE BANK LIMITED,APBL0005002,HEAD OFFICE,"PANUGANTI VARI STREET, R.R.PET, ELURU",ELURU,ELURU,ANDHRA PRADESH,230091
137,THE ANDHRA PRADESH STATE COOPERATIVE BANK LIMITED,APBL0005003,AKIVIDU,"NEAR SBI, AKIVEEDU",ELURU,AKIVIDU,ANDHRA PRADESH,252141
138,THE ANDHRA PRADESH STATE COOPERATIVE BANK LIMITED,APBL0005004,ATTILI,"BANK STREET, ATTILI",ELURU,ATTILI,ANDHRA PRADESH,255132
139,THE ANDHRA PRADESH STATE COOPERATIVE BANK LIMITED,APBL0005005,BHIMADOLE,"MAIN ROAD, BHIMADOLE",ELURU,BHIMADOLEDE,ANDHRA PRADESH,222282
140,THE ANDHRA PRADESH STATE COOPERATIVE BANK LIMITED,APBL0005006,BUTTAIGUDEM,"MAIN ROAD, BUTTAIGUDEM",ELURU,BUTTAIGUDEM,ANDHRA PRADESH,272221
141,THE ANDHRA PRADESH STATE COOPERATIVE BANK LIMITED,APBL0005007,BHIMAVARAM (MAIN),"NEAR SBI, THYAGARAJ BHAVAN, BHIMAVARAM",ELURU,BHIMAVARAM,ANDHRA PRADESH,234315
142,THE ANDHRA PRADESH STATE COOPERATIVE BANK LIMITED,APBL0005008,BHIMAVARAM (BAZAR),"JUVVALAPALEM ROAD, BHIMAVARAM",ELURU,BHIMAVARAM,ANDHRA PRADESH,222760
143,THE ANDHRA PRADESH STATE COOPERATIVE BANK LIMITED,APBL0005009,CHINTALAPUDI,"NEAR TELEPHONE OFFICE, CHINTALAPUDI",ELURU,CHINTALAPUDI,ANDHRA PRADESH,222226
144,THE ANDHRA PRADESH STATE COOPERATIVE BANK LIMITED,APBL0005010,CHAGALLU,"MAIN ROAD, CHAGALLU",ELURU,CHAGALLU,ANDHRA PRADESH,270244
145,THE ANDHRA PRADESH STATE COOPERATIVE BANK LIMITED,APBL0005011,DWARAKA TIRUMALA,"MAIN ROAD, D.TIRUMALA",ELURU,DWARAKA TIRUMALA,ANDHRA PRADESH,271422
146,THE ANDHRA PRADESH STATE COOPERATIVE BANK LIMITED,APBL0005012,ELURU BAZAR,"OPP. HUNUMAN TEMPLE, KOTHA ROAD, ELURU",ELURU,ELURU,ANDHRA PRADESH,0
147,THE ANDHRA PRADESH STATE COOPERATIVE BANK LIMITED,APBL0005013,ELAMANCHILI,"MAIN ROAD, ELAMANCHILI",ELURU,ELAMANCHILI,ANDHRA PRADESH,251906
148,THE ANDHRA PRADESH STATE COOPERATIVE BANK LIMITED,APBL0005014,GANAPAVARAM,"NEAR RTC BUS STAND, GANAPAVARAM",ELURU,GANAPAVARAM,ANDHRA PRADESH,256298
149,THE ANDHRA PRADESH STATE COOPERATIVE BANK LIMITED,APBL0005015,GOPALAPURAM,"MAIN ROAD, GOPALAPURAM",ELURU,GOPALAPURAM,ANDHRA PRADESH,257469
150,THE ANDHRA PRADESH STATE COOPERATIVE BANK LIMITED,APBL0005016,JANGAREDDIGUDEM,"ASWARAO PETA ROAD, J.R.GUDEM",ELURU,JANGAREDDIGUDEM,ANDHRA PRADESH,225221
151,THE ANDHRA PRADESH STATE COOPERATIVE BANK LIMITED,APBL0005017,KAMAVARAPUKOTA,"MAIN ROAD, K.KOTA",ELURU,KAMAVARAPUKOTA,ANDHRA PRADESH,256226
152,THE ANDHRA PRADESH STATE COOPERATIVE BANK LIMITED,APBL0005018,KOVVUR,"SRMT ROAD, KOVVUR",ELURU,KOVVUR,ANDHRA PRADESH,231576
153,THE ANDHRA PRADESH STATE COOPERATIVE BANK LIMITED,APBL0005019,KOYYALAGUDEM,"MAIN ROAD, KOYYALAGUDEM",ELURU,KOYYALAGUDEM,ANDHRA PRADESH,236250
154,THE ANDHRA PRADESH STATE COOPERATIVE BANK LIMITED,APBL0005020,MARTERU,"CANAL ROAD, MARTERU",ELURU,MARTERU,ANDHRA PRADESH,246247
155,THE ANDHRA PRADESH STATE COOPERATIVE BANK LIMITED,APBL0005021,MOGALTUR,"MAIN ROAD, MOGALTURU",ELURU,MOGALTUR,ANDHRA PRADESH,247304
156,THE ANDHRA PRADESH STATE COOPERATIVE BANK LIMITED,APBL0005022,NARSAPUR,"ROYAPETA, NARASAPURAM",ELURU,NARSAPUR,ANDHRA PRADESH,221258
157,THE ANDHRA PRADESH STATE COOPERATIVE BANK LIMITED,APBL0005023,NIDADAVOLE,"YERNAGUDEM ROAD, NIDADAVOLE",ELURU,NIDADAVOLE,ANDHRA PRADESH,0
158,THE ANDHRA PRADESH STATE COOPERATIVE BANK LIMITED,APBL0005024,PALAKOL,"MATTAM STREET, PALACOLE",ELURU,PALAKOL,ANDHRA PRADESH,246147
159,THE ANDHRA PRADESH STATE COOPERATIVE BANK LIMITED,APBL0005025,PENUGONDA,"MAIN ROAD, PENUGONDA",ELURU,PENUGONDA,ANDHRA PRADESH,231217
160,THE ANDHRA PRADESH STATE COOPERATIVE BANK LIMITED,APBL0005026,PERAVALI,"MAIN ROAD, PERAVALI",ELURU,PERAVALI,ANDHRA PRADESH,231217
161,THE ANDHRA PRADESH STATE COOPERATIVE BANK LIMITED,APBL0005027,R.R.PETA,"BENDAPUDI VARI STREET, R.R.PETA, ELURU",ELURU,ELURU,ANDHRA PRADESH,230198
162,THE ANDHRA PRADESH STATE COOPERATIVE BANK LIMITED,APBL0005028,SATRAMPADU ROAD,"SANTHI NAGAR, SATRAMPADU ROAD, ELURU",ELURU,ELURU,ANDHRA PRADESH,232751
163,THE ANDHRA PRADESH STATE COOPERATIVE BANK LIMITED,APBL0005029,TADEPALLIGUDEM,"OLD GOVT. HOSPITAL ROAD, T.P.GUDEM",ELURU,TADEPALLIGUDEM,ANDHRA PRADESH,221375
164,THE ANDHRA PRADESH STATE COOPERATIVE BANK LIMITED,APBL0005030,TADEPALLIGUDEM,"BHIMAVARAM ROAD, T.P.GUDEM BAZAAR",ELURU,TADEPALLIGUDEM,ANDHRA PRADESH,222710
165,THE ANDHRA PRADESH STATE COOPERATIVE BANK LIMITED,APBL0005031,TANUKU,"MAIN ROAD, TANUKU",ELURU,TANUKU,ANDHRA PRADESH,224071
166,THE ANDHRA PRADESH STATE COOPERATIVE BANK LIMITED,APBL0005032,TALLAPUDI,"MAIN ROAD, TALLAPUDI",ELURU,TALLAPUDI,ANDHRA PRADESH,282392
167,THE ANDHRA PRADESH STATE COOPERATIVE BANK LIMITED,APBL0005033,VEERAVASARAM,"MAIN ROAD, VEERAVASARAM",ELURU,VEERAVASARAM,ANDHRA PRADESH,285321
168,THE ANDHRA PRADESH STATE COOPERATIVE BANK LIMITED,APBL0005034,YERNAGUDEM,"NEAR RTC BUS STAND, YERNAGUDEM",ELURU,YERNAGUDEM,ANDHRA PRADESH,229409
169,THE ANDHRA PRADESH STATE COOPERATIVE BANK LIMITED,APBL0005035,JANGAREDDIGUDEM,"NOVA COLLEGE ROAD, VEGAVARAM",ELURU,JANGAREDDIGUDEM,ANDHRA PRADESH,224221
170,THE ANDHRA PRADESH STATE COOPERATIVE BANK LIMITED,APBL0006001,HEAD OFFICE,"27-29-28, NTR SAHAKARA BHAVAN,  KSHEERA SAGAR HOSPITAL ROAD, GOVERNERPET, VIJAYAWADA-208662579523",KRISHNA,VIJAYAWADA,ANDHRA PRADESH,9866057711
171,THE ANDHRA PRADESH STATE COOPERATIVE BANK LIMITED,APBL0006002,MACHILIPATNAM,MACHILIPATNAM,KRISHNA,MACHILIPATNAM,ANDHRA PRADESH,9948688362
172,THE ANDHRA PRADESH STATE COOPERATIVE BANK LIMITED,APBL0006003,VIJAYAWADA,VIJAYAWADA,KRISHNA,VIJAYAWADA,ANDHRA PRADESH,9949688340
173,THE ANDHRA PRADESH STATE COOPERATIVE BANK LIMITED,APBL0006004,JAGGAIAHPET,JAGGAIAHPET,KRISHNA,JAGGAIAHPET,ANDHRA PRADESH,9949688385
174,THE ANDHRA PRADESH STATE COOPERATIVE BANK LIMITED,APBL0006005,NUZIVEEDU,NUZIVEEDU,KRISHNA,NUZIVEEDU,ANDHRA PRADESH,9949688353
175,THE ANDHRA PRADESH STATE COOPERATIVE BANK LIMITED,APBL0006006,GUDIVADA MAIN,GUDIVADA,KRISHNA,GUDIVADA,ANDHRA PRADESH,9949688375
176,THE ANDHRA PRADESH STATE COOPERATIVE BANK LIMITED,APBL0006007,VUYYURU,VUYYURU,KRISHNA,VUYYURU,ANDHRA PRADESH,9949688347
177,THE ANDHRA PRADESH STATE COOPERATIVE BANK LIMITED,APBL0006008,TIRUVURU,TIRUVURU,KRISHNA,TIRUVURU,ANDHRA PRADESH,9949688356
178,THE ANDHRA PRADESH STATE COOPERATIVE BANK LIMITED,APBL0006009,AVANIGADDA,AVANIGADDA,KRISHNA,AVANIGADDA,ANDHRA PRADESH,9949688367
179,THE ANDHRA PRADESH STATE COOPERATIVE BANK LIMITED,APBL0006010,NANDIGAMA MAIN,NANDIGAMA,KRISHNA,NANDIGAMA,ANDHRA PRADESH,9949688389
180,THE ANDHRA PRADESH STATE COOPERATIVE BANK LIMITED,APBL0006011,GANNAVARAM,GANNAVARAM,KRISHNA,GANNAVARAM,ANDHRA PRADESH,9949688349
181,THE ANDHRA PRADESH STATE COOPERATIVE BANK LIMITED,APBL0006012,KAIKALURU,KAIKALURU,KRISHNA,KAIKALURU,ANDHRA PRADESH,9949688381
182,THE ANDHRA PRADESH STATE COOPERATIVE BANK LIMITED,APBL0006013,GUDLAVALLERU,GUDLAVALLERU,KRISHNA,GUDLAVALLERU,ANDHRA PRADESH,9949688378
183,THE ANDHRA PRADESH STATE COOPERATIVE BANK LIMITED,APBL0006014,CHALLAPALLI,CHALLAPALLI,KRISHNA,CHALLAPALLI,ANDHRA PRADESH,9949688365
184,THE ANDHRA PRADESH STATE COOPERATIVE BANK LIMITED,APBL0006015,MUDINEPALLI,MUDINEPALLI,KRISHNA,MUDINEPALLI,ANDHRA PRADESH,9949688379
185,THE ANDHRA PRADESH STATE COOPERATIVE BANK LIMITED,APBL0006016,PAMARRU,PAMARRU,KRISHNA,PAMARRU,ANDHRA PRADESH,9949688376
186,THE ANDHRA PRADESH STATE COOPERATIVE BANK LIMITED,APBL0006017,HANUMAN JUNCTION,HANUMAN JUNCTION,KRISHNA,HANUMAN JUNCTION,ANDHRA PRADESH,9949688350
187,THE ANDHRA PRADESH STATE COOPERATIVE BANK LIMITED,APBL0006018,BANTUMILLI,BANTUMILLI,KRISHNA,BANTUMILLI,ANDHRA PRADESH,9949688364
188,THE ANDHRA PRADESH STATE COOPERATIVE BANK LIMITED,APBL0006019,MYLAVARAM,MYLAVARAM,KRISHNA,MYLAVARAM,ANDHRA PRADESH,9949688395
189,THE ANDHRA PRADESH STATE COOPERATIVE BANK LIMITED,APBL0006020,KANKIPADU,KANKIPADU,KRISHNA,KANKIPADU,ANDHRA PRADESH,9949688346
190,THE ANDHRA PRADESH STATE COOPERATIVE BANK LIMITED,APBL0006021,KANCHIKACHERLA,KANCHIKACHERLA,KRISHNA,KANCHIKACHERLA,ANDHRA PRADESH,9949688391
191,THE ANDHRA PRADESH STATE COOPERATIVE BANK LIMITED,APBL0006022,PATAMATA,PATAMATA,KRISHNA,PATAMATA,ANDHRA PRADESH,9949688343
192,THE ANDHRA PRADESH STATE COOPERATIVE BANK LIMITED,APBL0006023,MOVVA,MOVVA,KRISHNA,MOVVA,ANDHRA PRADESH,9949688371
193,THE ANDHRA PRADESH STATE COOPERATIVE BANK LIMITED,APBL0006024,PEDANA,PEDANA,KRISHNA,PEDANA,ANDHRA PRADESH,9949688363
194,THE ANDHRA PRADESH STATE COOPERATIVE BANK LIMITED,APBL0006025,KALIDINDI,KALIDINDI,KRISHNA,KALIDINDI,ANDHRA PRADESH,9949688382
195,THE ANDHRA PRADESH STATE COOPERATIVE BANK LIMITED,APBL0006026,VISSANNAPETA,VISSANNAPETA,KRISHNA,VISSANNAPETA,ANDHRA PRADESH,9949688358
196,THE ANDHRA PRADESH STATE COOPERATIVE BANK LIMITED,APBL0006027,VEERANKILOCK,VEERANKILOCK,KRISHNA,VEERANKILOCK,ANDHRA PRADESH,9949688345
197,THE ANDHRA PRADESH STATE COOPERATIVE BANK LIMITED,APBL0006028,THOTLAVALLURU,THOTLAVALLURU,KRISHNA,THOTLAVALLURU,ANDHRA PRADESH,9949688396
198,THE ANDHRA PRADESH STATE COOPERATIVE BANK LIMITED,APBL0006029,PENUGANCHIPROLU,PENUGANCHIPROLU,KRISHNA,PENUGANCHIPROLU,ANDHRA PRADESH,9949688387
199,THE ANDHRA PRADESH STATE COOPERATIVE BANK LIMITED,APBL0006030,IBRAHIMPATNAM,IBRAHIMPATNAM,KRISHNA,IBRAHIMPATNAM,ANDHRA PRADESH,9949688393
200,THE ANDHRA PRADESH STATE COOPERATIVE BANK LIMITED,APBL0006031,GAMPALAGUDEM,GAMPALAGUDEM,KRISHNA,GAMPALAGUDEM,ANDHRA PRADESH,9949688357
201,THE ANDHRA PRADESH STATE COOPERATIVE BANK LIMITED,APBL0006032,SURYARAOPET,SURYARAOPET,KRISHNA,SURYARAOPET,ANDHRA PRADESH,9949688342
202,THE ANDHRA PRADESH STATE COOPERATIVE BANK LIMITED,APBL0006033,NAGAYALANKA,NAGAYALANKA,KRISHNA,NAGAYALANKA,ANDHRA PRADESH,9949688368
203,THE ANDHRA PRADESH STATE COOPERATIVE BANK LIMITED,APBL0006034,MUSUNURU,MUSUNURU,KRISHNA,MUSUNURU,ANDHRA PRADESH,9949115444
204,THE ANDHRA PRADESH STATE COOPERATIVE BANK LIMITED,APBL0006035,TELAPROLU,TELAPROLU,KRISHNA,TELAPROLU,ANDHRA PRADESH,0
205,THE ANDHRA PRADESH STATE COOPERATIVE BANK LIMITED,APBL0006036,AGIRIPALLI,AGIRIPALLI,KRISHNA,AGIRIPALLI,ANDHRA PRADESH,9949688352
206,THE ANDHRA PRADESH STATE COOPERATIVE BANK LIMITED,APBL0006037,PEDDAPURAM,PEDDAPURAM,KRISHNA,PEDDAPURAM,ANDHRA PRADESH,9949688392
207,THE ANDHRA PRADESH STATE COOPERATIVE BANK LIMITED,APBL0006038,CHANDARLAPADU,CHANDARLAPADU,KRISHNA,CHANDARLAPADU,ANDHRA PRADESH,9949688390
208,THE ANDHRA PRADESH STATE COOPERATIVE BANK LIMITED,APBL0006039,G.KONDURU,G.KONDURU,KRISHNA,G.KONDURU,ANDHRA PRADESH,9949688394
209,THE ANDHRA PRADESH STATE COOPERATIVE BANK LIMITED,APBL0006040,RUDRAPAKA,RUDRAPAKA,KRISHNA,RUDRAPAKA,ANDHRA PRADESH,9949688380
210,THE ANDHRA PRADESH STATE COOPERATIVE BANK LIMITED,APBL0006041,GUDURU,GUDURU,KRISHNA,GUDURU,ANDHRA PRADESH,9949688372
211,THE ANDHRA PRADESH STATE COOPERATIVE BANK LIMITED,APBL0006042,VATSAVAI,VATSAVAI,KRISHNA,VATSAVAI,ANDHRA PRADESH,9949688386
212,THE ANDHRA PRADESH STATE COOPERATIVE BANK LIMITED,APBL0006043,KAMBHAMPADU,KAMBHAMPADU,KRISHNA,KAMBHAMPADU,ANDHRA PRADESH,9949405533
213,THE ANDHRA PRADESH STATE COOPERATIVE BANK LIMITED,APBL0006044,KATURU,KATURU,KRISHNA,KATURU,ANDHRA PRADESH,9949688348
214,THE ANDHRA PRADESH STATE COOPERATIVE BANK LIMITED,APBL0006045,SATYANARAYANAPURAM,SATYANARAYANAPURAM,KRISHNA,SATYANARAYANAPURAM,ANDHRA PRADESH,9949688341
215,THE ANDHRA PRADESH STATE COOPERATIVE BANK LIMITED,APBL0006046,GHANTASALA,GHANTASALA,KRISHNA,GHANTASALA,ANDHRA PRADESH,9949556336
216,THE ANDHRA PRADESH STATE COOPERATIVE BANK LIMITED,APBL0006047,CHATRAI,CHATRAI,KRISHNA,CHATRAI,ANDHRA PRADESH,9866057575
217,THE ANDHRA PRADESH STATE COOPERATIVE BANK LIMITED,APBL0006048,CHINNAPURAM,CHINNAPURAM,KRISHNA,CHINNAPURAM,ANDHRA PRADESH,9949556338
218,THE ANDHRA PRADESH STATE COOPERATIVE BANK LIMITED,APBL0006049,GUDIVADA BAZAAR,GUDIVADA BAZAAR,KRISHNA,GUDIVADA,ANDHRA PRADESH,9949688384
219,THE ANDHRA PRADESH STATE COOPERATIVE BANK LIMITED,APBL0006050,KODURU,KODURU,KRISHNA,KODURU,ANDHRA PRADESH,9949688374
220,THE ANDHRA PRADESH STATE COOPERATIVE BANK LIMITED,APBL0006051,NANDIGAMA BAZAR,NANDIGAMA BAZAR,KRISHNA,NANDIGAMA,ANDHRA PRADESH,9949556355
221,THE ANDHRA PRADESH STATE COOPERATIVE BANK LIMITED,APBL0006052,"THE KRISHNA DIST. CO-OP. CENTRAL BANK LTD.,PAYAKAPURAM","D.NO. 77-16/1-22DPP, LAKSHMI NAGAR COLONY, AJITH SINGH NAGAR, PAYAKAPURAM, VIJAYAWADA-520015",KRISHNA,VIJAYAWADA,ANDHRA PRADESH,9985688345
222,THE ANDHRA PRADESH STATE COOPERATIVE BANK LIMITED,APBL0006053,KRISHNA DCC BANK JAVVARPETA,"DOOR NO 7/487, JAVVARPETA, MACHILIPATNAM, KRISHNA DISTRICT, 521001",KRISHNA,MACHILIPATNAM,ANDHRA PRADESH,9989799022
223,THE ANDHRA PRADESH STATE COOPERATIVE BANK LIMITED,APBL0006054,"KRISHNA DCC BANK LTD, BHAVANIPURAM","D NO 1-3-113, OPP. APPALA SWAMY QUARRY, VIDYADARAPURAM, VIJAYAWADA 520012",KRISHNA,VIJAYAWADA,ANDHRA PRADESH,9989799122
224,THE ANDHRA PRADESH STATE COOPERATIVE BANK LIMITED,APBL0006055,"KRISHNA DCC BANK LTD., RAMAVARAPPADU","D NO. 2 - 9, HIGH SCHOOL ROAD, RAMAVARAPPADU,VIJAYAWADA",KRISHNA,VIJAYAWADA,ANDHRA PRADESH,9949585544
225,THE ANDHRA PRADESH STATE COOPERATIVE BANK LIMITED,APBL0006056,MOPIDEVI,"THE KRISHNA DISTRICT CO OPERATIVE CENTRAL BANK LTD, MOPIDEVI BRANCH, MOPIDEVI",KRISHNA,MOPIDEVI,ANDHRA PRADESH,8886641173
226,THE ANDHRA PRADESH STATE COOPERATIVE BANK LIMITED,APBL0006057,"KRISHNA DCCB LTD, KOTHURU TADEPALL",The Krishna District Cooperative Central Bank Ltd Assessment No1010 D No1180 R SNo180 B Kothuru Tadepalli 520012 Vijayawada Urban Krishna AP,KRISHNA,KRISHNA,ANDHRA PRADESH,9949062431
227,THE ANDHRA PRADESH STATE COOPERATIVE BANK LIMITED,APBL0006058,"THE DIST. CO-OPERATIVE CENTRAL BANK LTD., KRISHNA - MANDAVALLI",THE KRISHNA DISTRICT CO OPERATIVE CENTRAL BANK LTD MANDAVALLI BRANCH MAIN ROAD MANDAVALLI KRISHNA 521345,KRISHNA,KRISHNA,ANDHRA PRADESH,9949062431
228,THE ANDHRA PRADESH STATE COOPERATIVE BANK LIMITED,APBL0007001,H.O,"NTR BAVAN, 2/13, BRODIPET, GUNTUR┬û522002",GUNTUR,GUNTUR,ANDHRA PRADESH,9703918466
229,THE ANDHRA PRADESH STATE COOPERATIVE BANK LIMITED,APBL0007002,A.O,"2/13, BRODIPET, GUNTUR┬û522002",GUNTUR,GUNTUR,ANDHRA PRADESH,9703918466
230,THE ANDHRA PRADESH STATE COOPERATIVE BANK LIMITED,APBL0007003,ACB,"KOTHAPETA, BATTALABAZAR,  GUNTUR  ┬û 522001",GUNTUR,GUNTUR,ANDHRA PRADESH,9703918480
231,THE ANDHRA PRADESH STATE COOPERATIVE BANK LIMITED,APBL0007004,AMARAVATHI,AMARAVATHI ┬û 522020,GUNTUR,AMARAVATHI,ANDHRA PRADESH,9703918487
232,THE ANDHRA PRADESH STATE COOPERATIVE BANK LIMITED,APBL0007005,BAPATLA,"M.G, ROAD, BAPATLA ┬û 522101",GUNTUR,BAPATLA,ANDHRA PRADESH,9703918475
233,THE ANDHRA PRADESH STATE COOPERATIVE BANK LIMITED,APBL0007006,TENALI,"BOSE ROAD, TENALI  ┬û 522201,",GUNTUR,TENALI,ANDHRA PRADESH,9703918498
234,THE ANDHRA PRADESH STATE COOPERATIVE BANK LIMITED,APBL0007007,CHEBROLE,CHEBROLU ┬û 522212,GUNTUR,CHEBROLE,ANDHRA PRADESH,9703918478
235,THE ANDHRA PRADESH STATE COOPERATIVE BANK LIMITED,APBL0007008,CHERUKUPALLI,CHERUKUPALLI ┬û 522309,GUNTUR,CHERUKUPALLI,ANDHRA PRADESH,9703918471
236,THE ANDHRA PRADESH STATE COOPERATIVE BANK LIMITED,APBL0007009,CHILAKALURIPET,CHILAKALURIPET ┬û 522616TSR COMPLEX.,GUNTUR,CHILAKALURIPET,ANDHRA PRADESH,9703981491
237,THE ANDHRA PRADESH STATE COOPERATIVE BANK LIMITED,APBL0007010,GUNTUR,"2/1, BRODIPET, GUNTUR  - 522002",GUNTUR,GUNTUR,ANDHRA PRADESH,9703981479
238,THE ANDHRA PRADESH STATE COOPERATIVE BANK LIMITED,APBL0007011,DACHEPALLI,DACHEPALLI ┬û 522414,GUNTUR,DACHEPALLI,ANDHRA PRADESH,9703918496
239,THE ANDHRA PRADESH STATE COOPERATIVE BANK LIMITED,APBL0007012,DUGGIRALA,DUGGIRALA ┬û 522330,GUNTUR,DUGGIRALA,ANDHRA PRADESH,9703918468
240,THE ANDHRA PRADESH STATE COOPERATIVE BANK LIMITED,APBL0007013,GURAZALA,GURAZALA ┬û 522415,GUNTUR,GURAZALA,ANDHRA PRADESH,9703918495
241,THE ANDHRA PRADESH STATE COOPERATIVE BANK LIMITED,APBL0007014,TENALI,"7-5-86, PRAKASAM ROAD,TENALI ┬û 522201",GUNTUR,TENALI,ANDHRA PRADESH,9703918467
242,THE ANDHRA PRADESH STATE COOPERATIVE BANK LIMITED,APBL0007015,KAKUMANU,KAKUMANU ┬û 522112,GUNTUR,KAKUMANU,ANDHRA PRADESH,9703918476
243,THE ANDHRA PRADESH STATE COOPERATIVE BANK LIMITED,APBL0007016,KHAJIPALEM,┬áKHAJIPALEM ┬û 522329,GUNTUR,KHAJIPALEM,ANDHRA PRADESH,9703918498
244,THE ANDHRA PRADESH STATE COOPERATIVE BANK LIMITED,APBL0007017,KOLLI PARA,KOLLIPARA -  522304,GUNTUR,KOLLI PARA,ANDHRA PRADESH,9703918478
245,THE ANDHRA PRADESH STATE COOPERATIVE BANK LIMITED,APBL0007018,KORITEPADU,"KORITEPADU,  GUNTUR  - 522007",GUNTUR,GUNTUR,ANDHRA PRADESH,9703918471
246,THE ANDHRA PRADESH STATE COOPERATIVE BANK LIMITED,APBL0007019,KROSUR,KROSURU ┬û 522410,GUNTUR,KROSUR,ANDHRA PRADESH,9703981491
247,THE ANDHRA PRADESH STATE COOPERATIVE BANK LIMITED,APBL0007020,MACHERLA,MACHERLA ┬û 522426,GUNTUR,MACHERLA,ANDHRA PRADESH,9703981479
248,THE ANDHRA PRADESH STATE COOPERATIVE BANK LIMITED,APBL0007021,MANGALAGIRI,MANAGALAGIRI ┬û 522503,GUNTUR,MANGALAGIRI,ANDHRA PRADESH,9703918496
249,THE ANDHRA PRADESH STATE COOPERATIVE BANK LIMITED,APBL0007022,NARSARAOPET,"NARASARAOPET, PRAKASH NAGAR ┬û 522602",GUNTUR,NARSARAOPET,ANDHRA PRADESH,9703918468
250,THE ANDHRA PRADESH STATE COOPERATIVE BANK LIMITED,APBL0007023,NIZAMPATNAM,"NIZAMPATNAM ┬û 522314,",GUNTUR,NIZAMPATNAM,ANDHRA PRADESH,9703918495
251,THE ANDHRA PRADESH STATE COOPERATIVE BANK LIMITED,APBL0007024,PEDAKURAPADU,PEDAKURAPADU ┬û 522402,GUNTUR,PEDAKURAPADU,ANDHRA PRADESH,9703918467
252,THE ANDHRA PRADESH STATE COOPERATIVE BANK LIMITED,APBL0007025,PHIRANGIPURAM,PHINRANGIPURAM ┬û 522509,GUNTUR,PHIRANGIPURAM,ANDHRA PRADESH,9703918476
253,THE ANDHRA PRADESH STATE COOPERATIVE BANK LIMITED,APBL0007026,PIDUGURALLA,PIDUGURALLA ┬û 522413,GUNTUR,PIDUGURALLA,ANDHRA PRADESH,9703918497
254,THE ANDHRA PRADESH STATE COOPERATIVE BANK LIMITED,APBL0007027,PONNUR,"S.P.P. ROAD, PONNURU ┬û522124",GUNTUR,PONNUR,ANDHRA PRADESH,9703918477
255,THE ANDHRA PRADESH STATE COOPERATIVE BANK LIMITED,APBL0007028,PRATHIPADU,PRATHIPADU ┬û 522019,GUNTUR,PRATHIPADU,ANDHRA PRADESH,9703918482
256,THE ANDHRA PRADESH STATE COOPERATIVE BANK LIMITED,APBL0007029,REPALLE,REPALLE ┬û 522265 KIRANA COMPLEX.,GUNTUR,REPALLE,ANDHRA PRADESH,9703918472
257,THE ANDHRA PRADESH STATE COOPERATIVE BANK LIMITED,APBL0007030,SANTHAGUDIPADU,SANTHAGUDIPADU ┬û 522615,GUNTUR,GUNTUR,ANDHRA PRADESH,9703918492
258,THE ANDHRA PRADESH STATE COOPERATIVE BANK LIMITED,APBL0007031,SATTENAPALLE,SATTENAPALLI ┬û 522403,GUNTUR,SATTENAPALLE,ANDHRA PRADESH,9703918484
259,THE ANDHRA PRADESH STATE COOPERATIVE BANK LIMITED,APBL0007032,THULLUR,THULLURU ┬û 522237,GUNTUR,THULLUR,ANDHRA PRADESH,9703918488
260,THE ANDHRA PRADESH STATE COOPERATIVE BANK LIMITED,APBL0007033,VEMURU,VEMURU ┬û 522261,GUNTUR,VEMURU,ANDHRA PRADESH,9703918470
261,THE ANDHRA PRADESH STATE COOPERATIVE BANK LIMITED,APBL0007034,VINUKONDA,VINUKONDA ┬û 522647,GUNTUR,VINUKONDA,ANDHRA PRADESH,9703918493
262,THE ANDHRA PRADESH STATE COOPERATIVE BANK LIMITED,APBL0007036,"THE GUNTUR DIST. CO-OP. CENTRAL BANK LTD., MANDADAM","D.NO. 4-94/3, GROUND FLOOR, MASJID CENTRE, MANDADAM-522237",GUNTUR,MANDADAM,ANDHRA PRADESH,9703918500
263,THE ANDHRA PRADESH STATE COOPERATIVE BANK LIMITED,APBL0007037,THE GUNTUR DIST CO OP CENTRAL BANK LTD BHATTIPROLU,GADDAR BRIDGE ROAD NEAR POST OFFICE BHATTIPROLU,GUNTUR,BHATTIPROLU,ANDHRA PRADESH,9703918519
264,THE ANDHRA PRADESH STATE COOPERATIVE BANK LIMITED,APBL0007038,THE GUNTUR DIST CO OP CENTRAL BANK LTD TADIKONDA,D NO 12 34 BESIDE V M THEATRE MAIN ROAD TADIKONDA 522237,GUNTUR,TADIKONDA,ANDHRA PRADESH,9703918503
265,THE ANDHRA PRADESH STATE COOPERATIVE BANK LIMITED,APBL0007039,"THE DIST. CO-OPERATIVE CENTRAL BANK LTD., GUNTUR - KOLLURU",D NO 11/52 BAVIREDDY NARASAIAH COMPLEX REPALLE ROAD NR POLICE STATION KOLLURU VILLAGE AND MANDAL GUNTUR - 522324,GUNTUR,GUNTUR,ANDHRA PRADESH,243043
266,THE ANDHRA PRADESH STATE COOPERATIVE BANK LIMITED,APBL0007040,"THE DIST. CO-OPERATIVE CENTRAL BANK LTD., GUNTUR - NAKARIKALLU",D NO 4 - 16 CHOWTRA CENTER NAKARIKALLU VILLAGE AND MANDAL GUNTUR - 522615,GUNTUR,GUNTUR,ANDHRA PRADESH,241117
267,THE ANDHRA PRADESH STATE COOPERATIVE BANK LIMITED,APBL0007041,"THE DIST. CO-OPERATIVE CENTRAL BANK LTD., GUNTUR - UNDAVALLI",D NO 3 - 607/2 BEHIND AYYAPPA SWAMY TEMPLE UNDAVALLI VILLAGE TADEPALLI MANDAL GUNTUR - 522501,GUNTUR,GUNTUR,ANDHRA PRADESH,273059
268,THE ANDHRA PRADESH STATE COOPERATIVE BANK LIMITED,APBL0007042,"THE DIST. CO-OPERATIVE CENTRAL BANK LTD., GUNTUR - NAGARAM","D NO 2-5/17, MAIN ROAD, NAGARAM (VILLAGE), NAGARAM (MANDAL), GUNTUR DISTRICT - 522268",GUNTUR,NAGARAM,ANDHRA PRADESH,2355460
269,THE ANDHRA PRADESH STATE COOPERATIVE BANK LIMITED,APBL0008001,HEAD OFFICE,"THE PDCCBANK LTD,  GOVERNOR ROAD , ONGOLE PIN 523001",PRAKASAM,ONGOLE,ANDHRA PRADESH,8886332003
270,THE ANDHRA PRADESH STATE COOPERATIVE BANK LIMITED,APBL0008002,ADDANKI,"THE PDCCBANK LTD., MAIN ROAD,ADDANKI ,  AP ,PIN - 523201",PRAKASAM,ADDANKI,ANDHRA PRADESH,9704660262
271,THE ANDHRA PRADESH STATE COOPERATIVE BANK LIMITED,APBL0008003,B.NIDAMANUR,"THE PDCCBANK LTD.,  B.NIDAMNURU, A.P - 523296",PRAKASAM,B.NIDAMANUR,ANDHRA PRADESH,9704660263
272,THE ANDHRA PRADESH STATE COOPERATIVE BANK LIMITED,APBL0008004,BESTAVARAPET,"THE PDCCBANK LTD., BESTAVARI PET  , PRAKASAM DIST, AP",PRAKASAM,BESTAVARAPET,ANDHRA PRADESH,9704660264
273,THE ANDHRA PRADESH STATE COOPERATIVE BANK LIMITED,APBL0008005,CHIMAKURTHI,"THE PDCCBANK LTD., MAIN ROAD,CHIMAKURHTY, PIN- 523226",PRAKASAM,CHIMAKURTHI,ANDHRA PRADESH,9704660266
274,THE ANDHRA PRADESH STATE COOPERATIVE BANK LIMITED,APBL0008006,CHIRALA,"THE PDCCBANK LTD, CHIRALA, PRAKASAM DIST. PIN 523155",PRAKASAM,CHIRALA,ANDHRA PRADESH,9704660265
275,THE ANDHRA PRADESH STATE COOPERATIVE BANK LIMITED,APBL0008007,DARSI,"THE PDCCBANK LTD.,DARSI, PRAKASAM DIST. PIN 523247",PRAKASAM,DARSI,ANDHRA PRADESH,9704660267
276,THE ANDHRA PRADESH STATE COOPERATIVE BANK LIMITED,APBL0008008,GIDDALUR,"THE PDCCBANK LTD.,GIDDALRU, PRAKASAM DIST. PIN 523357",PRAKASAM,GIDDALUR,ANDHRA PRADESH,9704660268
277,THE ANDHRA PRADESH STATE COOPERATIVE BANK LIMITED,APBL0008009,INKOLLU,"THE PDCCBANK LTD, GANGARAM ROAD,PRAKASAM DIST. PIN.523167",PRAKASAM,INKOLLU,ANDHRA PRADESH,9704660269
278,THE ANDHRA PRADESH STATE COOPERATIVE BANK LIMITED,APBL0008010,KANDUKUR,"THE PDCCBANK LTD.,PAMURU ROAD, PRAKASAM DIST. PIN -523105",PRAKASAM,KANDUKUR,ANDHRA PRADESH,9704660271
279,THE ANDHRA PRADESH STATE COOPERATIVE BANK LIMITED,APBL0008011,KANIGIRI,"THE PDCCBANK LTD., KANIGIRI ,PRAKASAM DIST. PIN 523230",PRAKASAM,KANIGIRI,ANDHRA PRADESH,9704660270
280,THE ANDHRA PRADESH STATE COOPERATIVE BANK LIMITED,APBL0008012,KARAMCHEDU,"THE PDCCBANK LTD.KARAMCHEDU, PRAKASAM DIST. PIN 523168",PRAKASAM,KARAMCHEDU,ANDHRA PRADESH,9704660274
281,THE ANDHRA PRADESH STATE COOPERATIVE BANK LIMITED,APBL0008013,KONDAPI,"THE PDCCBANK LTD., KONDEPI, PRAKASAM DIST. PIN 523270",PRAKASAM,KONDAPI,ANDHRA PRADESH,9704660272
282,THE ANDHRA PRADESH STATE COOPERATIVE BANK LIMITED,APBL0008014,KURICHEDU,"THE PDCCBANK LTD. KURICHEDU, PRAKASAM DIST. PIN 523304",PRAKASAM,KURICHEDU,ANDHRA PRADESH,9704660273
283,THE ANDHRA PRADESH STATE COOPERATIVE BANK LIMITED,APBL0008015,KURNOOL ROAD,"THE PDCCBANK LTD., KURNOOL ROAD, ONGOLE, PRAKASAM DIST. PIN 523001",PRAKASAM,ONGOLE,ANDHRA PRADESH,9704660275
284,THE ANDHRA PRADESH STATE COOPERATIVE BANK LIMITED,APBL0008016,LAWYERPETA,"THE PDCCBANK LTD.,  ONGOLE, PRAKASAM DIST. PIN 523001",PRAKASAM,ONGOLE,ANDHRA PRADESH,9704660276
285,THE ANDHRA PRADESH STATE COOPERATIVE BANK LIMITED,APBL0008017,M.NIDAMALURU,"THE PDCCBANK LTD.MAIN ROAD, M.NIDAMALURU,  PIN 523279",PRAKASAM,M.NIDAMALURU,ANDHRA PRADESH,9704660278
286,THE ANDHRA PRADESH STATE COOPERATIVE BANK LIMITED,APBL0008018,MARKAPUR,"THE PDCCBANK LTD., MARKAPUR, PRAKASAM DIST. PIN 523316",PRAKASAM,MARKAPUR,ANDHRA PRADESH,9704660279
287,THE ANDHRA PRADESH STATE COOPERATIVE BANK LIMITED,APBL0008019,MARTURU,"THE PDCCBANK LTD. MARTURU , PRAKASAM DIST. PIN 523301",PRAKASAM,MARTURU,ANDHRA PRADESH,9704660277
288,THE ANDHRA PRADESH STATE COOPERATIVE BANK LIMITED,APBL0008020,PAMUR,"THE PDCCBANK LTD.,PAMURU, PRAKASAM DIST, PIN 523108",PRAKASAM,PAMUR,ANDHRA PRADESH,9704660281
289,THE ANDHRA PRADESH STATE COOPERATIVE BANK LIMITED,APBL0008021,PARCHOOR,"THE PDCCBANK LTD.,  PARCHURU, PRAKASAM DIST. PIN 523169",PRAKASAM,PARCHOOR,ANDHRA PRADESH,9704660280
290,THE ANDHRA PRADESH STATE COOPERATIVE BANK LIMITED,APBL0008022,PODILI,"THE PDCCBANK LTD., ,NEAR MRO OFFICE, PRAKASAM DIST. PIN 523245",PRAKASAM,PODILI,ANDHRA PRADESH,9704660282
291,THE ANDHRA PRADESH STATE COOPERATIVE BANK LIMITED,APBL0008023,RAVINUTHALA,"THE PDCCBANK LTD., OPP. PANCHAYAT OFFICE,PRAKASAM DIST, PIN 523213",PRAKASAM,RAVINUTHALA,ANDHRA PRADESH,9704660283
292,THE ANDHRA PRADESH STATE COOPERATIVE BANK LIMITED,APBL0008024,SANTHAMAGULUR,"THE PDCCBANK LTD.,  MAIN ROAD, S.MAGULURU, PRAKASAM DIST, PIN 523302",PRAKASAM,SANTHAMAGULUR,ANDHRA PRADESH,9704660285
293,THE ANDHRA PRADESH STATE COOPERATIVE BANK LIMITED,APBL0008025,SINGARAYAKONDA,"THE PDCCBANK LTD.,  SINGARAYAKONDA, PRAKASAM DIST. PIN 523101",PRAKASAM,SINGARAYAKONDA,ANDHRA PRADESH,9704660284
294,THE ANDHRA PRADESH STATE COOPERATIVE BANK LIMITED,APBL0008026,TANGUTURU,"THE PDCCBANK LTD.,  R.R.COMPLEX, TAGUTURU, PIN 523274",PRAKASAM,TANGUTURU,ANDHRA PRADESH,9704660287
295,THE ANDHRA PRADESH STATE COOPERATIVE BANK LIMITED,APBL0008027,TOWN BRANCH,"THE PDCCBANK, LTD., TRUNK ROAD, ONGOLE PIN  523001",PRAKASAM,ONGOLE,ANDHRA PRADESH,9704660286
296,THE ANDHRA PRADESH STATE COOPERATIVE BANK LIMITED,APBL0008028,UPPUGUNDUR,"NAGULUPPALAPADU MANDAL, PRAKASAM DIST PIN 523186",PRAKASAM,UPPUGUNDUR,ANDHRA PRADESH,9704660288
297,THE ANDHRA PRADESH STATE COOPERATIVE BANK LIMITED,APBL0008029,YERRAGONDAPALEM,"MAIN ROAD, YERRAGONDAPALEM , PRAKASAM DIST, PIN 523327",PRAKASAM,YERRAGONDAPALEM,ANDHRA PRADESH,9704660289
298,THE ANDHRA PRADESH STATE COOPERATIVE BANK LIMITED,APBL0009002,HEAD OFFICE BRANCH,"NEAR GANDHI STATUE, TRUNK ROAD, NELLORE.",SRI POTTI SRI RAMULU NELLORE,NELLORE,ANDHRA PRADESH,9951530062
299,THE ANDHRA PRADESH STATE COOPERATIVE BANK LIMITED,APBL0009003,ATMAKUR,"MAIN BAZAR, NEAR ANDHRA BANK, ATMAKUR (P & M), ATMAKUR",SRI POTTI SRI RAMULU NELLORE,ATMAKUR,ANDHRA PRADESH,9951530054
300,THE ANDHRA PRADESH STATE COOPERATIVE BANK LIMITED,APBL0009004,GUDUR,"GANGAMMA TEMPLE STREET, NEAR STATE BANK OF INDIA, GUDUR",SRI POTTI SRI RAMULU NELLORE,GUDUR,ANDHRA PRADESH,9951530056
301,THE ANDHRA PRADESH STATE COOPERATIVE BANK LIMITED,APBL0009005,KAVALI,"JANATHA PET, KAVALI",SRI POTTI SRI RAMULU NELLORE,KAVALI,ANDHRA PRADESH,9951530057
302,THE ANDHRA PRADESH STATE COOPERATIVE BANK LIMITED,APBL0009006,KAVALI EXTENSION,"MAA COMPLEX, OPP. ARUNODAYA CLOTH MERCHANTS, KAVALI MAIN ROAD, KAVALI",SRI POTTI SRI RAMULU NELLORE,KAVALI,ANDHRA PRADESH,9951530058
303,THE ANDHRA PRADESH STATE COOPERATIVE BANK LIMITED,APBL0009007,KOTA,"MAIN ROAD, KOTA (P & V), KOTA",SRI POTTI SRI RAMULU NELLORE,KOTA,ANDHRA PRADESH,9951530059
304,THE ANDHRA PRADESH STATE COOPERATIVE BANK LIMITED,APBL0009008,KOVUR,"D.NO. 2-6-67, R.F ROAD, KOVUR ( P & M) KOVUR.",SRI POTTI SRI RAMULU NELLORE,KOVUR,ANDHRA PRADESH,9951530060
305,THE ANDHRA PRADESH STATE COOPERATIVE BANK LIMITED,APBL0009009,NAIDUPET,"D.NO. 1-1-62, OLD KALAHASTRI ROAD, NAIDUPET",SRI POTTI SRI RAMULU NELLORE,NAIDUPET,ANDHRA PRADESH,9951530061
306,THE ANDHRA PRADESH STATE COOPERATIVE BANK LIMITED,APBL0009010,NELLORE TOWN,"OPP. SUNDAR LODGE, NEAR R.T.C.BUS STAND, ARAVINDA NAGAR, NELLORE",SRI POTTI SRI RAMULU NELLORE,NELLORE,ANDHRA PRADESH,9951530063
307,THE ANDHRA PRADESH STATE COOPERATIVE BANK LIMITED,APBL0009011,PODALAKUR,"C/O M.SREENIVASULA REDDY HOSPITAL, MAIN ROAD, PODALAKUR",SRI POTTI SRI RAMULU NELLORE,PODALAKUR,ANDHRA PRADESH,9951530064
308,THE ANDHRA PRADESH STATE COOPERATIVE BANK LIMITED,APBL0009012,SULLURPET,"PARK STREET, SULLURPET",SRI POTTI SRI RAMULU NELLORE,SULLURPET,ANDHRA PRADESH,9951530065
309,THE ANDHRA PRADESH STATE COOPERATIVE BANK LIMITED,APBL0009013,UDAYAGIRI,"MAIN ROAD, UDAYAGIRI",SRI POTTI SRI RAMULU NELLORE,UDAYAGIRI,ANDHRA PRADESH,9951530067
310,THE ANDHRA PRADESH STATE COOPERATIVE BANK LIMITED,APBL0009014,VAKADU,VAKADU (P & M) VAKADU,SRI POTTI SRI RAMULU NELLORE,VAKADU,ANDHRA PRADESH,9951530067
311,THE ANDHRA PRADESH STATE COOPERATIVE BANK LIMITED,APBL0009015,VENKATAGIRI,"D.V.S.COMPLEX, RAJA STREET, VENKATAGIRI (MANDAL), VENKATAGIRI",SRI POTTI SRI RAMULU NELLORE,VENKATAGIRI,ANDHRA PRADESH,9951530069
312,THE ANDHRA PRADESH STATE COOPERATIVE BANK LIMITED,APBL0009016,VINJAMUR,"D.NO. 2/233, MAIN BAZAR,PATHURU,  VINJAMUR (P & M) VINJAMUR",SRI POTTI SRI RAMULU NELLORE,VINJAMUR,ANDHRA PRADESH,9951530070
313,THE ANDHRA PRADESH STATE COOPERATIVE BANK LIMITED,APBL0009017,NELLORE  TOWN EXT COUNTER,"FIRST FLOOR, K.P. COMPLEX-2, D.NO.5-1-128, PAPPULA STREET, STONEHOUSE PET, NELLORE",SRI POTTI SRI RAMULU NELLORE,NELLORE,ANDHRA PRADESH,8501040022
314,THE ANDHRA PRADESH STATE COOPERATIVE BANK LIMITED,APBL0009018,KOVUR,"MASTHANAIA COMPLEX, B-11-550 , HOUSE THOTA, MARRI CHETTU CENTER",SRI POTTI SRI RAMULU NELLORE,KOVUR,ANDHRA PRADESH,8498055385
315,THE ANDHRA PRADESH STATE COOPERATIVE BANK LIMITED,APBL0009019,"Sri Potti Sri Ramulu Nellore District Cooperative Central Bank Ltd., RAPUR",D NO 6 30 MOGHUL STREET OPP SYNDICATE BANK RAPUR 524408,NELLORE,RAPUR,ANDHRA PRADESH,8501040011
316,THE ANDHRA PRADESH STATE COOPERATIVE BANK LIMITED,APBL0009020,RAMMURTHY NAGAR,D NO 16 3 614 MIMI BYEPASS ROAD RAMMUTHY NAGAR NELLORE 524002,NELLORE,NELLORE,ANDHRA PRADESH,8466917271
317,THE ANDHRA PRADESH STATE COOPERATIVE BANK LIMITED,APBL0009021,ALLUR,DNO 3 11 34 Y RAJARAMI REDDY HOSPITAL BHAVAN ALLUR MANDAL,NELLORE,NELLORE,ANDHRA PRADESH,9951530063
318,THE ANDHRA PRADESH STATE COOPERATIVE BANK LIMITED,APBL0010001,CHITTOOR,"POST BOX NO.7, HEAD OFFICE, PRAKASAM HIGH WAY, CHITTOOR - 517001",CHITTOOR,CHITTOOR,ANDHRA PRADESH,9949826966
319,THE ANDHRA PRADESH STATE COOPERATIVE BANK LIMITED,APBL0010002,B.KOTHAKOTA,"D.NO.12-55-2, POKANATI STREET, B KOTHAKOTA  ,PIN CODE - 517370",CHITTOOR,B.KOTHAKOTA,ANDHRA PRADESH,9100994270
320,THE ANDHRA PRADESH STATE COOPERATIVE BANK LIMITED,APBL0010003,BANGARUPALEM,"D-NO.2-92/5, M B T ROAD, BANGARUPALYAMPINCODE-517416",CHITTOOR,BANGARUPALEM,ANDHRA PRADESH,9949826956
321,THE ANDHRA PRADESH STATE COOPERATIVE BANK LIMITED,APBL0010004,CHINAGOTTIGALLU,"D-NO.6.78/A, MAIN ROAD, CHINNA GOTTI GALLU, PINCODE-517193",CHITTOOR,CHINAGOTTIGALLU,ANDHRA PRADESH,9949826934
322,THE ANDHRA PRADESH STATE COOPERATIVE BANK LIMITED,APBL0010005,CHOWDEPALLE,"DO-NO.2-47, MOTOR STREET, CHOWDEPALLE PINCODE - 517257",CHITTOOR,CHOWDEPALLE,ANDHRA PRADESH,9963475286
323,THE ANDHRA PRADESH STATE COOPERATIVE BANK LIMITED,APBL0010006,CHITTOOR,"DO-NO. 7-381, JANDA STREET,  CHITTOOR PINCODE - 517001",CHITTOOR,CHITTOOR,ANDHRA PRADESH,9949826954
324,THE ANDHRA PRADESH STATE COOPERATIVE BANK LIMITED,APBL0010007,GANGADHARNALLORE,"PUTTUR ROAD,  G D NELLORE PINCODE - 517125",CHITTOOR,GANGADHARNALLORE,ANDHRA PRADESH,9989777454
325,THE ANDHRA PRADESH STATE COOPERATIVE BANK LIMITED,APBL0010008,KANIPAKKAM,"MAIN ROAD, KANIPAKAM  PINCODE - 517131",CHITTOOR,KANIPAKKAM,ANDHRA PRADESH,9908682111
326,THE ANDHRA PRADESH STATE COOPERATIVE BANK LIMITED,APBL0010009,KARVETINAGAR,"DO.NO.6-58, BAZAR STREET,K NAGAR  PINCODE - 517582",CHITTOOR,KARVETINAGAR,ANDHRA PRADESH,9949826951
327,THE ANDHRA PRADESH STATE COOPERATIVE BANK LIMITED,APBL0010010,CHITTOOR,"D NO.3-790, GREAMSPET,OLD INDIAN BANK BUILDING,CHITTOOR  PINCODE - 517001",CHITTOOR,CHITTOOR,ANDHRA PRADESH,9949826949
328,THE ANDHRA PRADESH STATE COOPERATIVE BANK LIMITED,APBL0010011,KUPPAM,"DO-NO.14-378 PALACE ROAD, KUPPAMPINCODE - 517425",CHITTOOR,KUPPAM,ANDHRA PRADESH,9963499964
329,THE ANDHRA PRADESH STATE COOPERATIVE BANK LIMITED,APBL0010012,MADANAPALLE,"BANK STREET,MADANAPALLE, PINCODE - 517325",CHITTOOR,MADANAPALLE,ANDHRA PRADESH,9949826937
330,THE ANDHRA PRADESH STATE COOPERATIVE BANK LIMITED,APBL0010013,NAGARI,"DO.NO.10-204, NAGALAPURAM ROAD,  NAGARI, PINCODE - 517590",CHITTOOR,NAGARI,ANDHRA PRADESH,9949826948
331,THE ANDHRA PRADESH STATE COOPERATIVE BANK LIMITED,APBL0010014,PATHALAPATTU,"DO.NO.6,MAIN ROAD,P S  GATE, PINCODE - 517124",CHITTOOR,PATHALAPATTU,ANDHRA PRADESH,9951530064
332,THE ANDHRA PRADESH STATE COOPERATIVE BANK LIMITED,APBL0010015,PAKALA,"MURALI COMPLEX,  R T C BUS STAND, PAKALA, PINCODE - 517112",CHITTOOR,PAKALA,ANDHRA PRADESH,9951530065
333,THE ANDHRA PRADESH STATE COOPERATIVE BANK LIMITED,APBL0010016,PALAMANER,"DO.NO.12-312, MADANAPALLE ROAD,  PALAMANER,  PINCODE - 517408",CHITTOOR,PALAMANER,ANDHRA PRADESH,9951530067
334,THE ANDHRA PRADESH STATE COOPERATIVE BANK LIMITED,APBL0010017,PILER,"DO.NO.2-105/1,  L B S ROAD, PILER, PINCODE - 517214",CHITTOOR,PILER,ANDHRA PRADESH,9951530067
335,THE ANDHRA PRADESH STATE COOPERATIVE BANK LIMITED,APBL0010018,PITCHATURU,"MAIN ROAD,PICHATUR, PINCODE - 517587",CHITTOOR,PITCHATURU,ANDHRA PRADESH,9951530069
336,THE ANDHRA PRADESH STATE COOPERATIVE BANK LIMITED,APBL0010019,PUNGANUR,"DO.NO.15/16,CAR STREET,  PUNGANUR,PINCODE - 517247",CHITTOOR,PUNGANUR,ANDHRA PRADESH,9951530070
337,THE ANDHRA PRADESH STATE COOPERATIVE BANK LIMITED,APBL0010020,PUTTUR,"DO.NO.4-24, BAZAR STREET, PUTTUR,  PINCODE - 517583",CHITTOOR,PUTTUR,ANDHRA PRADESH,8501040022
338,THE ANDHRA PRADESH STATE COOPERATIVE BANK LIMITED,APBL0010021,SATYAVEDU,"PALLAPU STREET,SATHYAVEDU,PINCODE - 517588",CHITTOOR,SATYAVEDU,ANDHRA PRADESH,8498055385
339,THE ANDHRA PRADESH STATE COOPERATIVE BANK LIMITED,APBL0010022,SRIKALAHASTI,"DO.NO.6/175,  GANDHI STREET,  SRIKALAHASTHI - 517644",CHITTOOR,SRIKALAHASTI,ANDHRA PRADESH,8501040011
340,THE ANDHRA PRADESH STATE COOPERATIVE BANK LIMITED,APBL0010023,TIRUPATI,"DO.NO.12-5-526,TILAK ROAD,  TIRUPATI.  PINCODE - 517501",CHITTOOR,TIRUPATI,ANDHRA PRADESH,8466917271
341,THE ANDHRA PRADESH STATE COOPERATIVE BANK LIMITED,APBL0010024,VENKATAGIRIKOTA,"MAIN ROAD, V KOTA,PINCODE - 517424",CHITTOOR,VENKATAGIRIKOTA,ANDHRA PRADESH,9951530063
342,THE ANDHRA PRADESH STATE COOPERATIVE BANK LIMITED,APBL0010025,VAYALPAD,"DO.NO.9/141, KOTHAPETA STREET,VOYALPAD,  PINCODE - 517299",CHITTOOR,VAYALPAD,ANDHRA PRADESH,9949826966
343,THE ANDHRA PRADESH STATE COOPERATIVE BANK LIMITED,APBL0010026,TIRUPATI,"DNO.19-8-110, R C ROAD, OPP.RYTHU BAZAR, TIRUPATI, PINCODE - 517501",CHITTOOR,TIRUPATI,ANDHRA PRADESH,9949826966
344,THE ANDHRA PRADESH STATE COOPERATIVE BANK LIMITED,APBL0010027,PAPANAIDUPET,"D NO 3-28,  CO-OPBANK STREET, PAPANAIDUPETA (V) PINCODE - 517526",CHITTOOR,PAPANAIDUPET,ANDHRA PRADESH,9100994269
345,THE ANDHRA PRADESH STATE COOPERATIVE BANK LIMITED,APBL0010028,THE CHITTOOR DCCB LTD ANGALLU,"DOOR NO 1 18,MBT ROAD,ANGALLU 517325",CHITTOOR,MADANAPALLE,ANDHRA PRADESH,9573169188
346,THE ANDHRA PRADESH STATE COOPERATIVE BANK LIMITED,APBL0010029,THE CHITTOOR DCCB LTD MADANAPALLI,"DOOR.NO 2 250 A 2 3,RAMIREDDY LAYOUT,NEERUGATTUVARIPALLE,MADANAPALLE 517325",CHITTOOR,MADANAPALLE,ANDHRA PRADESH,9963475289
347,THE ANDHRA PRADESH STATE COOPERATIVE BANK LIMITED,APBL0010030,THE CHITTOOR DCCB LTD RENIGUNTA,"DOOR.NO 15 893,SRIKALAHASTHI ROAD,RENIGUNTA 517520",CHITTOOR,RENIGUNTA,ANDHRA PRADESH,7702606444
348,THE ANDHRA PRADESH STATE COOPERATIVE BANK LIMITED,APBL0010031,THE CHITTOOR DCCB LTD CHANDRAGIRI,"D NO2 14 BY 1,BAZAR STREET,KOTHAPETA,CHANDRAGIRI 517101",CHITTOOR,CHANDRAGIRI,ANDHRA PRADESH,9963475283
349,THE ANDHRA PRADESH STATE COOPERATIVE BANK LIMITED,APBL0010032,"THE DIST. CO-OPERATIVE CENTRAL BANK LTD., CHITTOOR - PACHIKAPALEM","D.NO.13-244-A, TIRUPATHI ROAD PACHIKAPALLAM(V) VEDURUKUPPAM(M)-517569",CHITTOOR,VEDURUKUPPAM,ANDHRA PRADESH,9100367049
350,THE ANDHRA PRADESH STATE COOPERATIVE BANK LIMITED,APBL0010033,"THE DIST. CO-OPERATIVE CENTRAL BANK LTD., CHITTOOR - VARADAIAHPALEM","D.NO.11-20 TRUNK ROAD-GREAMSPET, NEAR INDIAN OIL PETROL BANK VARADAIAH PALEM (P)(M)-517541",CHITTOOR,VARADAIAHPALEM,ANDHRA PRADESH,9100302849
351,THE ANDHRA PRADESH STATE COOPERATIVE BANK LIMITED,APBL0010034,"THE DIST. CO-OPERATIVE CENTRAL BANK LTD., CHITTOOR - KALLUR","D.NO.2-219 KALLUR (PO), PULICHERLA(M) - 5175113",CHITTOOR,PULICHERLA,ANDHRA PRADESH,9100305849
352,THE ANDHRA PRADESH STATE COOPERATIVE BANK LIMITED,APBL0010035,"THE DIST. CO-OPERATIVE CENTRAL BANK LTD., CHITTOOR - TIRUCHANUR","D.NO.2-32-A Nethaji Street, Tiruchanur (v) (po) Tirupati-Rural (m) pincode-517503",CHITTOOR,TIRUCHANUR,ANDHRA PRADESH,6303684482
353,THE ANDHRA PRADESH STATE COOPERATIVE BANK LIMITED,APBL0010036,"THE DIST. CO-OPERATIVE CENTRAL BANK LTD., CHITTOOR - YERPEDU","D.No.2-50/1,Gandla street,Yerpedu - (v), (po) & (m) pincode-517541",CHITTOOR,YERPEDU,ANDHRA PRADESH,9949826942
354,THE ANDHRA PRADESH STATE COOPERATIVE BANK LIMITED,APBL0011001,CUDDAPAH,"D. NO. 2/52 R.S. ROAD, KADAPA",CUDDAPAH,CUDDAPAH,ANDHRA PRADESH,245348
355,THE ANDHRA PRADESH STATE COOPERATIVE BANK LIMITED,APBL0011002,BADVEL,"D. NO. 4/108, MAIN BAZAR, BADVEL",CUDDAPAH,BADVEL,ANDHRA PRADESH,284025
356,THE ANDHRA PRADESH STATE COOPERATIVE BANK LIMITED,APBL0011003,JAMMALAMADAGU,"D. NO. 24/122, OLD BUSTAND,  JAMMALAMADUGU",CUDDAPAH,JAMMALAMADAGU,ANDHRA PRADESH,270098
357,THE ANDHRA PRADESH STATE COOPERATIVE BANK LIMITED,APBL0011004,KAMALAPURAM,"D. NO. 13/196, R.S. ROAD,  KAMALAPURAM",CUDDAPAH,KAMALAPURAM,ANDHRA PRADESH,274312
358,THE ANDHRA PRADESH STATE COOPERATIVE BANK LIMITED,APBL0011005,KODUR,"D. NO. 7/308, NEW KRISHNA  NAGAR, KODUR",CUDDAPAH,KODUR,ANDHRA PRADESH,257016
359,THE ANDHRA PRADESH STATE COOPERATIVE BANK LIMITED,APBL0011006,LAKKIREDDIPALLE,"D. NO. 3/493, RAYACHOTI ROAD, L.R. PALLI",CUDDAPAH,LAKKIREDDIPALLE,ANDHRA PRADESH,234154
360,THE ANDHRA PRADESH STATE COOPERATIVE BANK LIMITED,APBL0011007,PRODDATUR,"D. NO. 3/1151, Y.M.R. COLONY, PRODDATUR",CUDDAPAH,PRODDATUR,ANDHRA PRADESH,253020
361,THE ANDHRA PRADESH STATE COOPERATIVE BANK LIMITED,APBL0011008,MYDUKUR,"KADAPA ROAD, MYDUKURU",CUDDAPAH,MYDUKUR,ANDHRA PRADESH,232274
362,THE ANDHRA PRADESH STATE COOPERATIVE BANK LIMITED,APBL0011009,CUDDAPAH,"D. NO. 6/80, G.R. RAO STREET, KADAPA",CUDDAPAH,CUDDAPAH,ANDHRA PRADESH,241514
363,THE ANDHRA PRADESH STATE COOPERATIVE BANK LIMITED,APBL0011010,PRODDATUR,"D. NO. 10/112, BHAGATH SINGH COLONY, PRODDATUR",CUDDAPAH,PRODDATUR,ANDHRA PRADESH,251581
364,THE ANDHRA PRADESH STATE COOPERATIVE BANK LIMITED,APBL0011011,PORUMAMILLA,"D. NO. 13/96-4, B BLOCK, MAHILA MANDALI STREET, PORUMAMILLA",CUDDAPAH,PORUMAMILLA,ANDHRA PRADESH,285337
365,THE ANDHRA PRADESH STATE COOPERATIVE BANK LIMITED,APBL0011012,PULIVENDLA,"Y.S. RAJAREDDY STREET, PULIVENDULA",CUDDAPAH,PULIVENDLA,ANDHRA PRADESH,286157
366,THE ANDHRA PRADESH STATE COOPERATIVE BANK LIMITED,APBL0011013,CUDDAPAH,"D. NO. 20/316, 317, R.K. NAGAR, KADAPA",CUDDAPAH,CUDDAPAH,ANDHRA PRADESH,243129
367,THE ANDHRA PRADESH STATE COOPERATIVE BANK LIMITED,APBL0011014,RAJAMPET,"D. NO. 4/225-29, MADRAS ROAD, RAJAMPET",CUDDAPAH,RAJAMPET,ANDHRA PRADESH,240217
368,THE ANDHRA PRADESH STATE COOPERATIVE BANK LIMITED,APBL0011015,RAYACHOTI,"CHITTOOR ROAD, RAYACHOTY",CUDDAPAH,RAYACHOTI,ANDHRA PRADESH,251040
369,THE ANDHRA PRADESH STATE COOPERATIVE BANK LIMITED,APBL0011016,SIDDAVATTAM,"RATNASABHAPALLI NAGAR, SIDDAVATAM",CUDDAPAH,SIDDAVATTAM,ANDHRA PRADESH,272032
370,THE ANDHRA PRADESH STATE COOPERATIVE BANK LIMITED,APBL0011017,VEMPALLE,"PULIVENDULA ROAD, NEAR BUSTAND, VEMPALLI",CUDDAPAH,VEMPALLE,ANDHRA PRADESH,280280
371,THE ANDHRA PRADESH STATE COOPERATIVE BANK LIMITED,APBL0011018,CUDDAPAH,"APSARA CIRCLE, MADRAS ROAD, KADAPA",CUDDAPAH,CUDDAPAH,ANDHRA PRADESH,253098
372,THE ANDHRA PRADESH STATE COOPERATIVE BANK LIMITED,APBL0011019,PULLAMPET,"MAIN ROAD, NEAR APG BANK, PULLAMPET",CUDDAPAH,PULLAMPET,ANDHRA PRADESH,257016
373,THE ANDHRA PRADESH STATE COOPERATIVE BANK LIMITED,APBL0011020,CHITVEL,"D. NO. 1/248, UPSTAIR, MAIN ROAD, CHITVEL",CUDDAPAH,CHITVEL,ANDHRA PRADESH,240199
374,THE ANDHRA PRADESH STATE COOPERATIVE BANK LIMITED,APBL0011021,GALIVEEDU,"MAIN ROAD, NEAR POLICE STATION, GALIVEEDU",CUDDAPAH,GALIVEEDU,ANDHRA PRADESH,233066
375,THE ANDHRA PRADESH STATE COOPERATIVE BANK LIMITED,APBL0011022,RAYACHOTI,"D. NO. 59/140-2, KAMSALAVEEDI, RAYACHOTY",CUDDAPAH,RAYACHOTI,ANDHRA PRADESH,250203
376,THE ANDHRA PRADESH STATE COOPERATIVE BANK LIMITED,APBL0011023,TSUNDUPALLI,"D. NO. 2/550, RAMAGULLAPALLI ROAD, BUSTAND CENTER,  T. SUNDUPALLI",CUDDAPAH,TSUNDUPALLI,ANDHRA PRADESH,247101
377,THE ANDHRA PRADESH STATE COOPERATIVE BANK LIMITED,APBL0011024,DUVVUR,"D. NO. 5/204, MAIN ROAD, DUVVURU",CUDDAPAH,DUVVUR,ANDHRA PRADESH,238348
378,THE ANDHRA PRADESH STATE COOPERATIVE BANK LIMITED,APBL0012001,ANANTAPUR,"OPP: RAGHUVEERA TOWERS, SUBHASH ROAD, ANANTAPUR",ANANTAPUR,ANANTAPUR,ANDHRA PRADESH,9848780547
379,THE ANDHRA PRADESH STATE COOPERATIVE BANK LIMITED,APBL0012002,ANANTAPUR,"1ST ROAD, NEW TOWN, ANANTAPUR",ANANTAPUR,ANANTAPUR,ANDHRA PRADESH,9010234830
380,THE ANDHRA PRADESH STATE COOPERATIVE BANK LIMITED,APBL0012003,DHARMAVARAM,"BRAHMIN STREET, NEAR TOWN BANK, DHARMAVARAM",ANANTAPUR,DHARMAVARAM,ANDHRA PRADESH,9010234831
381,THE ANDHRA PRADESH STATE COOPERATIVE BANK LIMITED,APBL0012004,GOOTY,"D NO.7-740, (UP-STAIRS) OPP: APSRTC BUS-STAND, MAIN ROAD, GOOTY",ANANTAPUR,GOOTY,ANDHRA PRADESH,9010234832
382,THE ANDHRA PRADESH STATE COOPERATIVE BANK LIMITED,APBL0012005,GORANTLA,"NEAR RTC BUS-STAND, GORANTLA.",ANANTAPUR,GORANTLA,ANDHRA PRADESH,9010234833
383,THE ANDHRA PRADESH STATE COOPERATIVE BANK LIMITED,APBL0012006,GUNTAKAL,"ANDHRA BANK STREET, GUNTAKAL.",ANANTAPUR,GUNTAKAL,ANDHRA PRADESH,9010234834
384,THE ANDHRA PRADESH STATE COOPERATIVE BANK LIMITED,APBL0012007,HINDUPUR,"RAILWAY STATION ROAD, HINDUPUR",ANANTAPUR,HINDUPUR,ANDHRA PRADESH,9010234835
385,THE ANDHRA PRADESH STATE COOPERATIVE BANK LIMITED,APBL0012008,KADIRI,"D NO.1-36-5-2, COLLEGE ROAD, KADIRI.",ANANTAPUR,KADIRI,ANDHRA PRADESH,9010234836
386,THE ANDHRA PRADESH STATE COOPERATIVE BANK LIMITED,APBL0012009,KALYANDURG,"GOVT. JUNIOR COLLEGE ROAD, DCMS COMPOUND, KALYANADURG",ANANTAPUR,KALYANDURG,ANDHRA PRADESH,9010234837
387,THE ANDHRA PRADESH STATE COOPERATIVE BANK LIMITED,APBL0012010,MADAKASIRA,"NEAR SAIBABA TEMPLE, MADAKASIRA",ANANTAPUR,MADAKASIRA,ANDHRA PRADESH,9010234838
388,THE ANDHRA PRADESH STATE COOPERATIVE BANK LIMITED,APBL0012011,MUDIGUBBA,"KADIRI MAIN ROAD, MUDIGUBBA",ANANTAPUR,MUDIGUBBA,ANDHRA PRADESH,9010234839
389,THE ANDHRA PRADESH STATE COOPERATIVE BANK LIMITED,APBL0012012,PAMIDI,"D NO,1/27-95, BEHIND MANASA HOTEL, PAMIDI.",ANANTAPUR,PAMIDI,ANDHRA PRADESH,9010234840
390,THE ANDHRA PRADESH STATE COOPERATIVE BANK LIMITED,APBL0012013,PENUKONDA,"BEHIND RDO OFFICE, NEAR TELUGU THALLI STATUE, PENUKONDA.",ANANTAPUR,PENUKONDA,ANDHRA PRADESH,9010234841
391,THE ANDHRA PRADESH STATE COOPERATIVE BANK LIMITED,APBL0012014,PUTTAPARTHI,"SATHYA SAI SAHAKARA BHAVAN, SBI STREET ENDING, PUTTAPARTHY.",ANANTAPUR,PUTTAPARTHI,ANDHRA PRADESH,9010234842
392,THE ANDHRA PRADESH STATE COOPERATIVE BANK LIMITED,APBL0012015,RAYADURG,"OPP: SBI, RAYADURG",ANANTAPUR,RAYADURG,ANDHRA PRADESH,9010234843
393,THE ANDHRA PRADESH STATE COOPERATIVE BANK LIMITED,APBL0012016,TADPATRI,"COLLEGE ROAD, SANJEEVA NAGAR, TADIPATRI, ANANTAPUR DIST.",ANANTAPUR,TADPATRI,ANDHRA PRADESH,9010234844
394,THE ANDHRA PRADESH STATE COOPERATIVE BANK LIMITED,APBL0012017,TANAKAL,"NEAR SBI, BANK STREET, TANAKAL",ANANTAPUR,TANAKAL,ANDHRA PRADESH,9010234845
395,THE ANDHRA PRADESH STATE COOPERATIVE BANK LIMITED,APBL0012018,URAVAKONDA,"D NO.7-4-41, A NEAR GRAMA PANCHAYATH, URAVAKONDA.",ANANTAPUR,URAVAKONDA,ANDHRA PRADESH,9010234846
396,THE ANDHRA PRADESH STATE COOPERATIVE BANK LIMITED,APBL0012019,YADIKI,"D NO. 7/107/C, VEMULAPADU ROAD, YADIKI.",ANANTAPUR,YADIKI,ANDHRA PRADESH,9010234847
397,THE ANDHRA PRADESH STATE COOPERATIVE BANK LIMITED,APBL0012020,ANANTAPUR,"GOOTY ROAD, OLD TOWN, ANANTAPUR",ANANTAPUR,ANANTAPUR,ANDHRA PRADESH,9010234825
398,THE ANDHRA PRADESH STATE COOPERATIVE BANK LIMITED,APBL0012021,OBULA DEVARA CHERUVU,"C/O SOCIETY COMPOUND, OBULADEVARA CHERUVU.",ANANTAPUR,OBULA DEVARA CHERUVU,ANDHRA PRADESH,8096688463
399,THE ANDHRA PRADESH STATE COOPERATIVE BANK LIMITED,APBL0012022,KOTHACHERUVU,"UP-STAIRS, DHARMAVARAM ROAD,KOTHA CHERUVU.",ANANTAPUR,KOTHACHERUVU,ANDHRA PRADESH,8096688463
400,THE ANDHRA PRADESH STATE COOPERATIVE BANK LIMITED,APBL0012023,ATMAKUR,"UP-STAIRS, MAIN ROAD, ATMAKURU",ANANTAPUR,ATMAKUR,ANDHRA PRADESH,226898
401,THE ANDHRA PRADESH STATE COOPERATIVE BANK LIMITED,APBL0012024,GUDIBANDA,"C/O MANDALA PALLI PACS BUILDING, GUDIBANDA.",ANANTAPUR,GUDIBANDA,ANDHRA PRADESH,9705009483
402,THE ANDHRA PRADESH STATE COOPERATIVE BANK LIMITED,APBL0012025,ANANTAPUR,"NEAR FLY-OVER, NH-7, RUDRAMPETA CIRCLE, ANANTAPUR",ANANTAPUR,ANANTAPUR,ANDHRA PRADESH,8705009480
403,THE ANDHRA PRADESH STATE COOPERATIVE BANK LIMITED,APBL0012026,VAJRAKARUR,"VAJRAKARUR VILLAGE, VAJRAKARUR MANDAL.",ANANTAPUR,VAJRAKARUR,ANDHRA PRADESH,9505806007
404,THE ANDHRA PRADESH STATE COOPERATIVE BANK LIMITED,APBL0012027,MADHOODI,"MADHOODI VILLAGE, AGALI MANDAL, ANANTAPUR DIST.",ANANTAPUR,MADHOODI,ANDHRA PRADESH,9505765007
405,THE ANDHRA PRADESH STATE COOPERATIVE BANK LIMITED,APBL0012028,KANEKAL,KANEKAL VILLAGE AND MANDAL,ANANTAPUR,KANEKAL,ANDHRA PRADESH,9505754007
406,THE ANDHRA PRADESH STATE COOPERATIVE BANK LIMITED,APBL0013001,KURNOOL,"H.NO: 46-1-C, BUDHAWARPETA, KURNOOL.",KURNOOL,KURNOOL,ANDHRA PRADESH,255730
407,THE ANDHRA PRADESH STATE COOPERATIVE BANK LIMITED,APBL0013002,ADONI,"H.NO:21/142-16, OPP:",KURNOOL,ADONI,ANDHRA PRADESH,253377
408,THE ANDHRA PRADESH STATE COOPERATIVE BANK LIMITED,APBL0013003,ALLAGADDA,"H.NO: 3/5/69, MAIN BAZAR, ALLAGADDA.",KURNOOL,DHONE,ANDHRA PRADESH,220097
409,THE ANDHRA PRADESH STATE COOPERATIVE BANK LIMITED,APBL0013004,ALUR,"H.NO:1-32, BELLARY ROAD, ALUR.",KURNOOL,KURNOOL,ANDHRA PRADESH,228058
410,THE ANDHRA PRADESH STATE COOPERATIVE BANK LIMITED,APBL0013005,ATMAKUR,"H.NO:98-11, JOJI REDDY COMPLEX, GOUD CENTRE, ATMAKUR.",KURNOOL,ATMAKU,ANDHRA PRADESH,283370
411,THE ANDHRA PRADESH STATE COOPERATIVE BANK LIMITED,APBL0013006,BANAGANAPALLI,"H.NO:8/118/A, BANAGANAPALLI",KURNOOL,BANAGANAPALLI,ANDHRA PRADESH,227287
412,THE ANDHRA PRADESH STATE COOPERATIVE BANK LIMITED,APBL0013007,DHONE,"H.NO: 12/15 UP-STAIR, VINAYAKA STREET, DHONE",KURNOOL,DHONE,ANDHRA PRADESH,222174
413,THE ANDHRA PRADESH STATE COOPERATIVE BANK LIMITED,APBL0013008,GUDUR,"H.NO:13/32-1, NEAR R.T.C BUS STAND, GUDUR.",KURNOOL,GUDUR,ANDHRA PRADESH,239040
414,THE ANDHRA PRADESH STATE COOPERATIVE BANK LIMITED,APBL0013009,KODUMUR,"OPP: A.P.G. BANK, LADDAGIRI ROAD, KODUMUR",KURNOOL,KODUMUR,ANDHRA PRADESH,228073
415,THE ANDHRA PRADESH STATE COOPERATIVE BANK LIMITED,APBL0013010,KOILKUNTLA,"H.NO: 10-121 / 26 / 6, KOILAKUNTLA",KURNOOL,KOILKUNTLA,ANDHRA PRADESH,225058
416,THE ANDHRA PRADESH STATE COOPERATIVE BANK LIMITED,APBL0013011,KRISHNAGIRI,"H.NO: 79/109, KRISHNA NAGAR, KURNOOL",KURNOOL,KURNOOL,ANDHRA PRADESH,229219
417,THE ANDHRA PRADESH STATE COOPERATIVE BANK LIMITED,APBL0013012,NANDIKOTKUR,"H.NO: 16/38/C/4, NEAR",KURNOOL,NANDIKOTKUR,ANDHRA PRADESH,280358
418,THE ANDHRA PRADESH STATE COOPERATIVE BANK LIMITED,APBL0013013,NANDYAL,"H.NO:25/552, SRINIVASA NAGAR, NANDYAL.",KURNOOL,NANDYAL,ANDHRA PRADESH,242120
419,THE ANDHRA PRADESH STATE COOPERATIVE BANK LIMITED,APBL0013014,KURNOOL,"H.NO: 57/9, FORT, KURNOOL.",KURNOOL,KURNOOL,ANDHRA PRADESH,244119
420,THE ANDHRA PRADESH STATE COOPERATIVE BANK LIMITED,APBL0013015,OWK,"H.NO:3/92, MUSLIM STREET, OWK.",KURNOOL,OWK,ANDHRA PRADESH,238674
421,THE ANDHRA PRADESH STATE COOPERATIVE BANK LIMITED,APBL0013016,PANYAM,"H.NO: 9/23, PANYAM.",KURNOOL,PANYAM,ANDHRA PRADESH,275042
422,THE ANDHRA PRADESH STATE COOPERATIVE BANK LIMITED,APBL0013017,PATTIKONDA,"H.NO:17/68, OPP:M.D.O. OFFICE, GOOTY ROAD, PATHIKONDA.",KURNOOL,PATTIKONDA,ANDHRA PRADESH,226053
423,THE ANDHRA PRADESH STATE COOPERATIVE BANK LIMITED,APBL0013018,SIRVEL,"SIRIVELLA METTA, OPP: S.B.I., SIRIVELLA.",KURNOOL,SIRVEL,ANDHRA PRADESH,236321
424,THE ANDHRA PRADESH STATE COOPERATIVE BANK LIMITED,APBL0013019,VELGODU,"H.NO: 547/A, NEAR R.T.C BUS STAND, VELUGODU",KURNOOL,VELGODU,ANDHRA PRADESH,235023
425,THE ANDHRA PRADESH STATE COOPERATIVE BANK LIMITED,APBL0013020,YEMMIGANUR,"UTY BUILDING, NEAR GEETHA MANDIR, YEMMIGANUR.",KURNOOL,YEMMIGANUR,ANDHRA PRADESH,255073
426,THE ANDHRA PRADESH STATE COOPERATIVE BANK LIMITED,APBL0013021,BETHAMCHERLA,DOOR NO 229 14 BESIDES STATE BANK OF INDIA BETHAMCHERLA 518599,KURNOOL,KURNOOL,ANDHRA PRADESH,276140
427,THE ANDHRA PRADESH STATE COOPERATIVE BANK LIMITED,APBL0013022,NOONEPALLI,H NO 28 8406 13 OPP SYUMPHONY HEIGHTS BESIDES KHALEEL SIDDIQUI SCHOOL NGOS COLONY NANDYAL 518002,KURNOOL,NANDYAL,ANDHRA PRADESH,240440
428,THE ANDHRA PRADESH STATE COOPERATIVE BANK LIMITED,APBL0013023,"THE DIST. CO-OPERATIVE CENTRAL BANK LTD.,KURNOOL - UPPALAPADU","D.NO.3-7,PEDDABAZAR,UPPALAPADU (V),OWK(M),KURNOOL- 518122",KURNOOL,UPPALAPADU,ANDHRA PRADESH,8860226898
