,BANK NAME,IFSC,OFFICE,ADDRESS,DISTRICT,CITY,STATE,PHONE
0,THE WEST BENGAL STATE COOPERATIVE BANK,WBSC0000001,RTGS-HO,"24A,WATERLOO STREET,KOLKATA - 700069",KOLKATA,KOLKATA,WEST BENGAL,22437816
1,THE WEST BENGAL STATE COOPERATIVE BANK,WBSC0000002,BHOWANIPUR BRANCH,"28 A,S.P.MUKHERJEE ROAD KOLKATA 700025",KOLKATA,KOLKATA,WEST BENGAL,24551199
2,THE WEST BENGAL STATE COOPERATIVE BANK,WBSC0000003,SHYAMBAZAR BRANCH,"15 BY 2 B,BALARAM GHOSH ST,KOLKATA 700004",KOLKATA,KOLKATA,WEST BENGAL,25556588
3,THE WEST BENGAL STATE COOPERATIVE BANK,WBSC0000004,BEHALA BRANCH,"15,S.N.ROY RD,KOLKATA 700038",KOLKATA,KOLKATA,WEST BENGAL,23961373
4,THE WEST BENGAL STATE COOPERATIVE BANK,WBSC0000005,BELIAGHATA BRANCH,"P 52,CIT SCHEME,VIP MARKET,KOLKATA 700010",KOLKATA,KOLKATA,WEST BENGAL,23205108
5,THE WEST BENGAL STATE COOPERATIVE BANK,WBSC0000006,HATIBAGAN BRANCH,"89,ARABINDA SARANI,KOLKATA 700005",KOLKATA,KOLKATA,WEST BENGAL,25553428
6,THE WEST BENGAL STATE COOPERATIVE BANK,WBSC0000007,ENTALLY BRANCH,"27 / 1 BY C,CIT SCHEME,LV,KOLKATA 700014",KOLKATA,KOLKATA,WEST BENGAL,22657442
7,THE WEST BENGAL STATE COOPERATIVE BANK,WBSC0000008,GARIAHAT BRANCH,"2 / 2 A,NANDY STREET,KOLKATA 700 029",KOLKATA,KOLKATA,WEST BENGAL,24643203
8,THE WEST BENGAL STATE COOPERATIVE BANK,WBSC0000009,GOLPARK BRANCH,"28 / 3 A,GARIAHAT RD,KOLKATA 700029",KOLKATA,KOLKATA,WEST BENGAL,24405654
9,THE WEST BENGAL STATE COOPERATIVE BANK,WBSC0000010,NEW ALIPORE,"23 / A,NEW ALIPORE,BLOCK 21 C,KOLKATA 700053",KOLKATA,KOLKATA,WEST BENGAL,23966156
10,THE WEST BENGAL STATE COOPERATIVE BANK,WBSC0000011,CHETLA,"AUDITORIUM BLOCK,CIT MARKET,KOLKATA 700037",KOLKATA,KOLKATA,WEST BENGAL,24797747
11,THE WEST BENGAL STATE COOPERATIVE BANK,WBSC0000012,SILIGURI DAY BRANCH,"1ST FLOOR,HILL CART ROAD.SARKAR MANSION,SILIGURI,DIST.DARJEELING",DARJEELING,SILIGURI,WEST BENGAL,2432257
12,THE WEST BENGAL STATE COOPERATIVE BANK,WBSC0000013,SILIGURI EVENING BRANCH,"1ST FLOOR,HILL CART ROAD.SARKAR MANSION,SILIGURI,DIST.DARJEELING",DARJEELING,SILIGURI,WEST BENGAL,2432237
13,THE WEST BENGAL STATE COOPERATIVE BANK,WBSC0000014,SALT LAKE CITY BRANCH,"EC BLOCK,SALT LAKE CITY,KOLKATA 700 054",KOLKATA,SALT LAKE,WEST BENGAL,23370438
14,THE WEST BENGAL STATE COOPERATIVE BANK,WBSC0000015,POURABHAWAN BRANCH,"415 A,1ST FLOOR,FD BLOCK,SEC III,POURA BHAWAN,SALT LAKE CITY,KOLKATA 700 064",KOLKATA,SALT LAKE,WEST BENGAL,23213724
15,THE WEST BENGAL STATE COOPERATIVE BANK,WBSC0000016,DIAMOND HARBOUR BRANCH,"NEAR DIAMOND HARBOUR MUNICIPALITY,24 PGS.SOUTH",SOUTH 24 PARGANAS,DIAMOND HARBOUR,WEST BENGAL,255684
16,THE WEST BENGAL STATE COOPERATIVE BANK,WBSC0000017,CANNING BRANCH,"NEAR CANNING POST OFFICE,24 PGS.SOUTH",SOUTH 24 PARGANAS,CANNING,WEST BENGAL,255239
17,THE WEST BENGAL STATE COOPERATIVE BANK,WBSC0000018,KAKDWIP BRANCH,"KAKDWIP BAZAR,NEAR KAKDWIP POLICE STATION,24 PGS.SOUTH",SOUTH 24 PARGANAS,KAKDWIP,WEST BENGAL,255043
18,THE WEST BENGAL STATE COOPERATIVE BANK,WBSC0000019,KASHINAGAR BRANCH,"NEAR KASHINAGAR BAZAR,PO.KASHINAGR,24 PGS.SOUTH",SOUTH 24 PARGANAS,KASHINAGAR,WEST BENGAL,274221
19,THE WEST BENGAL STATE COOPERATIVE BANK,WBSC0000020,AMTALA BRANCH,"AMTALA BUS STAND,PO.AMTALA,24PGS.SOUTH",SOUTH 24 PARGANAS,AMTALA,WEST BENGAL,24709342
20,THE WEST BENGAL STATE COOPERATIVE BANK,WBSC0000021,SAGAR BRANCH,"RUDRANAGAR,SAGAR,24 PGS.SOUTH",SOUTH 24 PARGANAS,SAGAR,WEST BENGAL,242533
21,THE WEST BENGAL STATE COOPERATIVE BANK,WBSC0000022,PATHAR PRATIMA BRANCH,"PATHAR PRATIMA BAZAR,24 PGS.SOUTH",SOUTH 24 PARGANAS,PATHAR PRATIMA,WEST BENGAL,267324
22,THE WEST BENGAL STATE COOPERATIVE BANK,WBSC0000023,BHANGORE BRANCH,"BHANGORE,NEAR GHATAKPUKUR BUS STOP,24 PGS.SOUTH",SOUTH 24 PARGANAS,BHANGORE,WEST BENGAL,270535
23,THE WEST BENGAL STATE COOPERATIVE BANK,WBSC0000024,BARUIPUR BRANCH,"NEAR BARUIPUR RLY.STATION,24 PGS.SOUTH",SOUTH 24 PARGANAS,BARUIPUR,WEST BENGAL,24338646
24,THE WEST BENGAL STATE COOPERATIVE BANK,WBSC0000025,BIJOYGUNJ BRANCH,"BIJOY GANJ BAZAR,MANDIR BAZAR,24 PGS.SOUTH",SOUTH 24 PARGANAS,BIJOYGUNJ,WEST BENGAL,277158
25,THE WEST BENGAL STATE COOPERATIVE BANK,WBSC0000026,BARASAT BRANCH,"1ST FLOOR,R.B.C.RD.NEAR BARASAT COURT,NORTH 24 PGS",NORTH 24 PARGANAS,BARASAT,WEST BENGAL,25628202
26,THE WEST BENGAL STATE COOPERATIVE BANK,WBSC0000027,BONGAON BRANCH,"NEAR BONGAON COURT,SCHOOL ROAD,BONGAON,NORTH 24 PGS",NORTH 24 PARGANAS,BONGAON,WEST BENGAL,255069
27,THE WEST BENGAL STATE COOPERATIVE BANK,WBSC0000028,BARRACKPORE BRANCH,"ASHADWIP MUNICIPAL COMPLEX,BARRACKPORE,CHIRIAMORE,NORTH 24 PG",NORTH 24 PARGANAS,BARRACKPORE,WEST BENGAL,25931651
28,THE WEST BENGAL STATE COOPERATIVE BANK,WBSC0000029,BADURIA BRANCH,"NEAR BADURIA BUS STOP,BADURIA,NORTH 24 PGS",NORTH 24 PARGANAS,BADURIA,WEST BENGAL,238538
29,THE WEST BENGAL STATE COOPERATIVE BANK,WBSC0000030,KANCHRAPARA BRANCH,"LICHUBAGAN,KANCHRAPARA, NORTH 24 PGS",NORTH 24 PARGANAS,KANCHRAPARA,WEST BENGAL,25852674
30,THE WEST BENGAL STATE COOPERATIVE BANK,WBSC0000031,HABRA BRANCH,"NEAR HABRA RLY STATION,NORTH 24 PGS",NORTH 24 PARGANAS,HABRA,WEST BENGAL,237024
31,THE WEST BENGAL STATE COOPERATIVE BANK,WBSC0000032,AMDANGA BRANCH,"ARKHALI,AMDANGA PANCHYAT B.D.O.OFFICE.NORT 24 PGS",NORTH 24 PARGANAS,AMDANGA,WEST BENGAL,260118
32,THE WEST BENGAL STATE COOPERATIVE BANK,WBSC0000033,CHANDPARA BRANCH,"CHANDPARA BUS STAND,CHANDPARA BAZAR,NORTH 24 PGS",NORTH 24 PARGANAS,CHANDPARA,WEST BENGAL,250044
33,THE WEST BENGAL STATE COOPERATIVE BANK,WBSC0000034,PANSILA BRANCH,"PANIHATI MUNICIPALITY MARKET COMPLEX,R.N.AVENUE, P.O.KHARDAH,NORTH 24 PGS",NORTH 24 PARGANAS,PANSILA,WEST BENGAL,25689191
34,THE WEST BENGAL STATE COOPERATIVE BANK,WBSC0000035,HELENCHA BRANCH,"P.O.HELENCHA,P.S.BAGDAH,24 PARGANAS NORTH",NORTH 24 PARGANAS,HELENCHA,WEST BENGAL,264771
35,THE WEST BENGAL STATE COOPERATIVE BANK,WBSC0000036,BASIRHAT BRANCH,"NEAR BASIRHAT COURT,NORTH 24 PARGNAS",NORTH 24 PARGANAS,BASIRHAT,WEST BENGAL,265233
36,THE WEST BENGAL STATE COOPERATIVE BANK,WBSC0000037,DUM DUM BRANCH,"60,PURBA SINTHI ROAD,DUM DUM,KADAMTALA MARKET,KOL 30",NORTH 24 PARGANAS,DUM DUM,WEST BENGAL,25135758
37,THE WEST BENGAL STATE COOPERATIVE BANK,WBSC0000038,COOCH BEHAR BRANCH,"BISWA SINGHA RD,NEAR B.D.HOTEL,P.O.AND DIST. COOCH BEHAR",COOCHBEHAR,COOCHBEHAR,WEST BENGAL,222717
38,THE WEST BENGAL STATE COOPERATIVE BANK,WBSC0000039,MATHABHANGA BRANCH,"PO MATHABHANGA,NEAR BUS STOP,COOCH BEHAR",COOCHBEHAR,MATHABHANGA,WEST BENGAL,255258
39,THE WEST BENGAL STATE COOPERATIVE BANK,WBSC0000040,ALIPURDUAR BRANCH,"PO ALIPURDUAR,NEAR CHOWPATHI,DIST.JALPAIGURI",JALPAIGURI,ALIPURDUAR,WEST BENGAL,255242
40,THE WEST BENGAL STATE COOPERATIVE BANK,WBSC0000041,DINHATA BRANCH,"PO DINHATA,NEAR B.D.O.OFFICE,COOCH BEHAR",COOCHBEHAR,DINHATA,WEST BENGAL,255073
41,THE WEST BENGAL STATE COOPERATIVE BANK,WBSC0000042,FALAKATA BRANCH,"PO FALAKATA,NR.BUS STOP AND SITALA MANDIR,DIST.JALPAIGURI",JALPAIGURI,FALAKATA,WEST BENGAL,260273
42,THE WEST BENGAL STATE COOPERATIVE BANK,WBSC0000043,TOOFANGUNJ BRANCH,"PO TOOFANGUNJ,NEAR FIRE SERVICE STATION,DIST.COOCH BEHAR",COOCHBEHAR,TOOFANGUNJ,WEST BENGAL,244300
43,THE WEST BENGAL STATE COOPERATIVE BANK,WBSC000RTGS,HEAD OFFICE,"24A,WATERLOO STREET,2ND FLOOR,KOLKATA 700069",KOLKATA,KOLKATA,WEST BENGAL,22488492
44,THE WEST BENGAL STATE COOPERATIVE BANK,WBSC0BDCB01,BANKURA MAIN BRANCH,"MACHANTALA, P.O. & DIST-BANKURA",BANKURA,BANKURA,WEST BENGAL,251090
45,THE WEST BENGAL STATE COOPERATIVE BANK,WBSC0BDCB02,BISHNUPUR  BRANCH,"GOPALGANJA, P.O. BISHNUPUR, DIST-BANKURA",BANKURA,BISHNUPUR,WEST BENGAL,252085
46,THE WEST BENGAL STATE COOPERATIVE BANK,WBSC0BDCB03,SONAMUKHI  BRANCH,"P.O. SONAMUKHI, DIST-BANKURA",BANKURA,SONAMUKHI,WEST BENGAL,275247
47,THE WEST BENGAL STATE COOPERATIVE BANK,WBSC0BDCB04,JOYPUR  BRANCH,"P.O. JOYPUR, DIST-BANKURA",BANKURA,JOYPUR,WEST BENGAL,249223
48,THE WEST BENGAL STATE COOPERATIVE BANK,WBSC0BDCB05,KOTULPUR  BRANCH,"P.O. KOTULPUR, DIST-BANKURA",BANKURA,KOTUPUR,WEST BENGAL,240239
49,THE WEST BENGAL STATE COOPERATIVE BANK,WBSC0BDCB06,SIMLAPAL  BRANCH,"P.O. SIMLAPAL, DIST-BANKURA",BANKURA,SIMLAPAL,WEST BENGAL,262223
50,THE WEST BENGAL STATE COOPERATIVE BANK,WBSC0BDCB07,INDUS  BRANCH,"P.O. INDAS, DIST-BANKURA",BANKURA,INDAS,WEST BENGAL,263221
51,THE WEST BENGAL STATE COOPERATIVE BANK,WBSC0BDCB08,SARENGA  BRANCH,"RAJABAZAR, P.O. SARENGA, DIST-BANKURA",BANKURA,SARENGA,WEST BENGAL,269224
52,THE WEST BENGAL STATE COOPERATIVE BANK,WBSC0BDCB09,BARJORA  BRANCH,"P.O. BARJORA, DIST-BANKURA",BANKURA,BARJORA,WEST BENGAL,257233
53,THE WEST BENGAL STATE COOPERATIVE BANK,WBSC0BDCB10,CHHATNA  BRANCH,"P.O. CHHATNA, DIST-BANKURA",BANKURA,CHHATNA,WEST BENGAL,277230
54,THE WEST BENGAL STATE COOPERATIVE BANK,WBSC0BDCB11,KHATRA  BRANCH,"P.O. KHATRA, DIST-BANKURA",BANKURA,KHATRA,WEST BENGAL,255244
55,THE WEST BENGAL STATE COOPERATIVE BANK,WBSC0BDCB12,PATRASAYER  BRANCH,"P.O. PATRASAYER, DIST-BANKURA",BANKURA,PATRASAYER,WEST BENGAL,266228
56,THE WEST BENGAL STATE COOPERATIVE BANK,WBSC0BDCB13,TALDANGRA  BRANCH,"P.O. TALDANGRA, DIST-BANKURA",BANKURA,TALDANGRA,WEST BENGAL,265210
57,THE WEST BENGAL STATE COOPERATIVE BANK,WBSC0BDCB14,ONDA  BRANCH,"P.O. ONDA, DIST-BANKURA",BANKURA,ONDA,WEST BENGAL,266291
58,THE WEST BENGAL STATE COOPERATIVE BANK,WBSC0BDCB15,RAIPUR  BRANCH,"PO: GARH RAIPUR, DIST-BANKURA",BANKURA,RAIPUR,WEST BENGAL,267357
59,THE WEST BENGAL STATE COOPERATIVE BANK,WBSC0BDCB16,BANKURA EVENING BRANCH,"MACHANTALA, P.O. & DIST-BANKURA",BANKURA,BANKURA,WEST BENGAL,250302
60,THE WEST BENGAL STATE COOPERATIVE BANK,WBSC0BDCB17,RANIBANDH  BRANCH,"P.O. RANIBANDH, DIST-BANKURA",BANKURA,RANIBANDH,WEST BENGAL,250380
61,THE WEST BENGAL STATE COOPERATIVE BANK,WBSC0BDCB18,KAMALPUR BRANCH,"P.O. KAMALPUR, DIST-BANKURA",BANKURA,KAMALPUR,WEST BENGAL,274300
62,THE WEST BENGAL STATE COOPERATIVE BANK,WBSC0BDCB19,DURLAVPUR BRANCH,"P.O. DURLAVPUR, DIST-BANKURA",BANKURA,DURLAVPUR,WEST BENGAL,262075
63,THE WEST BENGAL STATE COOPERATIVE BANK,WBSC0BDCB20,"HEAD OFFICE,  BANKURA","MACHANTALA, P.O. & DIST-BANKURA",BANKURA,BANKURA,WEST BENGAL,250302
64,THE WEST BENGAL STATE COOPERATIVE BANK,WBSC0BIRB01,HEAD OFFICE,1ST FLOOR VIVEKANANDA ROAD NEAR DIST LIBRARY PO SURI DIST BIRBHUM PIN 731101,BIRBHUM,SURI,WEST BENGAL,255304
65,THE WEST BENGAL STATE COOPERATIVE BANK,WBSC0BIRB02,SURI,GROUND FLOOR VIBEKANANDA ROAD NEAR DIST LIBRARY PO SURI DIST BIRBHUM PIN 731101,BIRBHUM,SURI,WEST BENGAL,258102
66,THE WEST BENGAL STATE COOPERATIVE BANK,WBSC0BIRB03,RAMPURHAT,BANK ROAD PO RAMPURHAT DIST BIRBHUM PIN 731224,BIRBHUM,RAMPURHAT,WEST BENGAL,255042
67,THE WEST BENGAL STATE COOPERATIVE BANK,WBSC0BIRB04,NALHATI,BANK ROAD PO NALHATI DIST BIRBHUM PIN 731243,BIRBHUM,NALHATI,WEST BENGAL,255237
68,THE WEST BENGAL STATE COOPERATIVE BANK,WBSC0BIRB05,VISVA BHARATI,SRINIKETAN ROAD SURUL PO SRINIKETAN DIST BIRBHUM PIN 731236,BIRBHUM,SRINIKETAN,WEST BENGAL,264350
69,THE WEST BENGAL STATE COOPERATIVE BANK,WBSC0BIRB06,BOLPUR,STATION ROAD PO BOLPUR DIST BIRBHUM PIN 731204,BIRBHUM,BOLPUR,WEST BENGAL,252510
70,THE WEST BENGAL STATE COOPERATIVE BANK,WBSC0BIRB07,KIRNAHAR,PO KIRNAHAR DIST BIRBHUM PIN 731302,BIRBHUM,KIRNAHAR,WEST BENGAL,267256
71,THE WEST BENGAL STATE COOPERATIVE BANK,WBSC0BIRB08,DUBRAJPUR,NEAR DUBRAJPUR COART FIRST FLOOR PO DUBRAJPUR DIST BIRBHUM PIN 731123,BIRBHUM,DUBRAJPUR,WEST BENGAL,244376
72,THE WEST BENGAL STATE COOPERATIVE BANK,WBSC0BIRB09,KOTASUR,PO KOTASUR DIST BIRBHUM PIN 731234,BIRBHUM,KOTASUR,WEST BENGAL,235227
73,THE WEST BENGAL STATE COOPERATIVE BANK,WBSC0BIRB10,MURARAI,BHADISWAR MORE PO MURARAI DIST BIRBHUM PIN 731219,BIRBHUM,MURARAI,WEST BENGAL,252223
74,THE WEST BENGAL STATE COOPERATIVE BANK,WBSC0BIRB11,AHMEDPUR,AHMEDPUR KAGAS ROAD DIST BIRBHUM PIN 731201,BIRBHUM,AHMEDPUR,WEST BENGAL,230275
75,THE WEST BENGAL STATE COOPERATIVE BANK,WBSC0BIRB12,LABPUR,LABPUR BUS STAND DIST BIRBHUM PIN 731303,BIRBHUM,LABPUR,WEST BENGAL,266226
76,THE WEST BENGAL STATE COOPERATIVE BANK,WBSC0BIRB13,ABINASHPUR,PO ABINASHPUR DIST BIRBHUM PIN 731121,BIRBHUM,ABINASHPUR,WEST BENGAL,272257
77,THE WEST BENGAL STATE COOPERATIVE BANK,WBSC0BIRB14,MOLLARPUR,BANK ROAD MOLLARPUR DIST BIRBHUM PIN 731216,BIRBHUM,MOLLARPUR,WEST BENGAL,262241
78,THE WEST BENGAL STATE COOPERATIVE BANK,WBSC0BIRB18,SAINTHIA BRANCH,HOUSE OF DEBABRATA SAHA SO LATE PRAFULLA SAHA WORD NO 9 HATTALA NEAR SABJI MARKET PO SAINTHIA PIN 731234,BIRBHUM,SAINTHIA,WEST BENGAL,264113
79,THE WEST BENGAL STATE COOPERATIVE BANK,WBSC0BIRB19,LOHAPUR,PO LOHAPUR STATION ROAD DIST BIRBHUM PIN 731237,BIRBHUM,LOHAPUR,WEST BENGAL,259237
80,THE WEST BENGAL STATE COOPERATIVE BANK,WBSC0BUCB01,BHATPARA NAIHATI COOP BANK LTD. BHATPARA MAIN BR,"3 MUKHERJEE PARA ROAD, P.O.- BHATPARA,",24 PGS NORTH,BHATPARA,WEST BENGAL,25812673
81,THE WEST BENGAL STATE COOPERATIVE BANK,WBSC0BUCB02,BHATPARA NAIHATI COOP BANK LTD. NAIHATI BR,"20 HARIDAS GHOSH ROAD, P.O. - NAIHATI",24 PGS NORTH,NAIHATI,WEST BENGAL,25812680
82,THE WEST BENGAL STATE COOPERATIVE BANK,WBSC0BUCB03,BHATPARA NAIHATI COOP BANK LTD. GARIFA BR,"BELA BHAVAN, KRISHNA SADHUKHAN ROAD, P.O.- ANANDABAZAR",24 PGS NORTH,NAIHATI,WEST BENGAL,25818000
83,THE WEST BENGAL STATE COOPERATIVE BANK,WBSC0BUCB04,BHATPARA NAIHATI COOP BANK LTD. SHYAMNAGAR BR,"4/1 WEST GHOSH PARA ROAD, P.O. - SHYAMNAGAR",24 PGS NORTH,SHYAMNAGAR,WEST BENGAL,25862113
84,THE WEST BENGAL STATE COOPERATIVE BANK,WBSC0DDCB01,HEAD OFFICE,"KACHARI ROAD, BALURGHAT",DAKSHIN DINAJPUR,BALURGHAT,WEST BENGAL,255379
85,THE WEST BENGAL STATE COOPERATIVE BANK,WBSC0DDCB02,BALURGHAT MAIN BRANCH,"KACHARI ROAD, BALURGHAT",DAKSHIN DINAJPUR,BALURGHAT,WEST BENGAL,255379
86,THE WEST BENGAL STATE COOPERATIVE BANK,WBSC0DDCB03,BALURGHAT EVENING BRANCH,"KACHARI ROAD, BALURGHAT",DAKSHIN DINAJPUR,BALURGHAT,WEST BENGAL,255379
87,THE WEST BENGAL STATE COOPERATIVE BANK,WBSC0DDCB04,TAPAN BRANCH,"CHOWRANGI MORE, TAPAN",DAKSHIN DINAJPUR,TAPAN,WEST BENGAL,252042
88,THE WEST BENGAL STATE COOPERATIVE BANK,WBSC0DDCB05,GANGARAMPUR BRANCH,"HIGH ROAD, GANGARAMPUR",DAKSHIN DINAJPUR,GANGARAMPUR,WEST BENGAL,255050
89,THE WEST BENGAL STATE COOPERATIVE BANK,WBSC0DDCB06,PATIRAM BRANCH,"PATIRAM BAZAR, PATIRAM",DAKSHIN DINAJPUR,BALURGHAT,WEST BENGAL,273124
90,THE WEST BENGAL STATE COOPERATIVE BANK,WBSC0DDCB07,KUMARGANJ BRANCH,KUMARGANJ,DAKSHIN DINAJPUR,KUMARGANJ,WEST BENGAL,254181
91,THE WEST BENGAL STATE COOPERATIVE BANK,WBSC0DDCB08,HILI BRANCH,"HILI BAZAR, HILI",DAKSHIN DINAJPUR,HILI,WEST BENGAL,250931
92,THE WEST BENGAL STATE COOPERATIVE BANK,WBSC0DDCB09,GOFANAGAR,"VILL-BADSANKAIR BAZAR, PO-BANIAL, PS-TAPAN, DIST -DAKSHIN DINAJPUR, PIN-733127",DAKSHIN DINAJPUR,DAKHIN DINAJPUR,WEST BENGAL,8373079517
93,THE WEST BENGAL STATE COOPERATIVE BANK,WBSC0DDCB10,GURAIL,"GURAIL GRAM PANCHAYAT OFFICE BUILDING,VILL-BHADRAIL,PO-GURAIL,PS-TAPAN,DIST-DAKHIN DINAPUR,PIN-733142",DAKHIN DINAJPUR,DAKHIN DINAJPUR,WEST BENGAL,8373079520
94,THE WEST BENGAL STATE COOPERATIVE BANK,WBSC0DJCB01,KALIMPONG,"RISHI ROAD, SAHID D.B. GIRI ROAD, P.O. KALIMPONG -734301",DARJEELING,KALIMPONG,WEST BENGAL,258979
95,THE WEST BENGAL STATE COOPERATIVE BANK,WBSC0DJCB02,PEDONG,"PEDONG BAZAR, P.O. PEDONG, DT. DARJEELING, PIN-734311",DARJEELING,PEDONG BAZAR,WEST BENGAL,281334
96,THE WEST BENGAL STATE COOPERATIVE BANK,WBSC0DJCB03,GORUBATHAN,"SOMBARAY BAZAR, P.O. FAGU, GORUBATHAN, DT. DARJEELING, PIN-735231",DARJEELING,GORUBATHAN,WEST BENGAL,222003
97,THE WEST BENGAL STATE COOPERATIVE BANK,WBSC0DJCB04,DARJEELING,"9, S.M. DAS ROAD, OPP. RED CROSS, P.O. & DIST. DARJEELING, PIN-734101",DARJEELING,DARJEELING,WEST BENGAL,2252487
98,THE WEST BENGAL STATE COOPERATIVE BANK,WBSC0DJCB05,KURSEONG,"BELOW SUB-DIV. HOSPITAL, P.O. KURSEONG, DT. DARJEELING, PIN -734203",DARJEELING,KURSEONG,WEST BENGAL,2344486
99,THE WEST BENGAL STATE COOPERATIVE BANK,WBSC0DJCB06,SUKHIAPOKHARI,"SUKHIAPOKHARI BAZAR, P.O. SUKHIAPOKHARI, DT. DARJEELING, PIN- 734221",DARJEELING,SUKHIAPOKHARI,WEST BENGAL,2264391
100,THE WEST BENGAL STATE COOPERATIVE BANK,WBSC0DJCB07,BIJANBARI,"RASHIK PATH, P.O. BIJANBARI, DT. DARJEELING, PIN-734201",DARJEELING,BIJANBARI,WEST BENGAL,2260285
101,THE WEST BENGAL STATE COOPERATIVE BANK,WBSC0DJCB08,RIMBICK,"P.O. RIMBICK BAZAR, DIST. DARJEELING, PIN - 734201",DARJEELING,RIMBICK,WEST BENGAL,7797911877
102,THE WEST BENGAL STATE COOPERATIVE BANK,WBSC0DJCB09,HEAD OFFICE,KALIMPONG,DARJEELING,KAMLIMPONG,WEST BENGAL,255372
103,THE WEST BENGAL STATE COOPERATIVE BANK,WBSC0DJCB10,MIRIK BRANCH,DARJEELING,DARJEELING,DARJEELING,WEST BENGAL,258979
104,THE WEST BENGAL STATE COOPERATIVE BANK,WBSC0DJCB11,MUNGPOO BRANCH,MUNGPOO,DARJEELING,DARJEELING,WEST BENGAL,255372
105,THE WEST BENGAL STATE COOPERATIVE BANK,WBSC0DJCB12,DARJEELING DISTRICT CENTRAL CO-OPERATIVE BANK LTD,"DARJEELING DCCB LTD,JHOLONG BRANCH,P O JALDHAKA SUB-DIV KALIMPONG DISTRICT-DARJEELING (WB-734503 )",DARJEELING,JHOLONG,WEST BENGAL,9832039658
106,THE WEST BENGAL STATE COOPERATIVE BANK,WBSC0DJCB13,"DARJEELING DISTRICT CENTRAL COOPERATIVE BANK LIMITED, SALBARI BRANCH","SALBARI BAZAR,METHIBARI,PIN - 734001",DARJEELING,SILIGURI,WEST BENGAL,255372
107,THE WEST BENGAL STATE COOPERATIVE BANK,WBSC0HCCB01,HEAD OFFICE,P O ULUBERIA NEAR ULUBERIA COURT DIST HOWRAH PIN 711315,HAORA,HOWRAH,WEST BENGAL,0
108,THE WEST BENGAL STATE COOPERATIVE BANK,WBSC0HCCB02,AMTA BRANCH,VILL P O AMTA DIST HOWRAH PIN 711401,HAORA,HOWRAH,WEST BENGAL,0
109,THE WEST BENGAL STATE COOPERATIVE BANK,WBSC0HCCB03,SHYAMPUR BRANCH,VILL P O SHYAMPUR DIST HOWRAH PIN 711314,HAORA,HOWRAH,WEST BENGAL,0
110,THE WEST BENGAL STATE COOPERATIVE BANK,WBSC0HCCB04,UDAYNARAYANPUR BRANCH,VILL P O UDAYNARAYANPUR DIST HOWRAH PIN 711266,HAORA,HOWRAH,WEST BENGAL,0
111,THE WEST BENGAL STATE COOPERATIVE BANK,WBSC0HCCB05,JHIKIRA BRANCH,VILL P O JHIKIRA DIST HOWRAH PIN 711401,HAORA,HOWRAH,WEST BENGAL,0
112,THE WEST BENGAL STATE COOPERATIVE BANK,WBSC0HCCB06,ULUBERIA BRANCH,VILL P O ULUBERIA DIST HOWRAH PIN 711315,HAORA,HOWRAH,WEST BENGAL,0
113,THE WEST BENGAL STATE COOPERATIVE BANK,WBSC0HCCB07,BARGACHIA BRANCH,VILL P O BARGACHIA DIST HOWRAH PIN 711404,HAORA,HOWRAH,WEST BENGAL,0
114,THE WEST BENGAL STATE COOPERATIVE BANK,WBSC0HCCB08,HOWRAH BRANCH,5OR6 MAHATMA GANDHI ROAD DIST HOWRAH PIN 711101,HAORA,HOWRAH,WEST BENGAL,0
115,THE WEST BENGAL STATE COOPERATIVE BANK,WBSC0HCCB09,BAGNAN BRANCH,VILL P O BAGNAN DIST HOWRAH PIN 711303,HAORA,HOWRAH,WEST BENGAL,0
116,THE WEST BENGAL STATE COOPERATIVE BANK,WBSC0HCCB10,BELPUKUR BRANCH,VILL P O AJODHYA DIST HOWRAH PIN 711312,HAORA,HOWRAH,WEST BENGAL,0
117,THE WEST BENGAL STATE COOPERATIVE BANK,WBSC0HCCB11,RANIHATI BRANCH,VILL RANIHATI P O JOYNAGAR DIST HOWRAH PIN 711302,HAORA,HOWRAH,WEST BENGAL,0
118,THE WEST BENGAL STATE COOPERATIVE BANK,WBSC0HCCB12,BELARI BRANCH,VILL ICHAPUR P O BELARI NEAR 58 GATE DIST HOWRAH PIN 711315,HAORA,HOWRAH,WEST BENGAL,0
119,THE WEST BENGAL STATE COOPERATIVE BANK,WBSC0HCCB13,BEGRI BRANCH,VILL P O BEGRI NEAR BATTALA DIST HOWRAH PIN 711411,HAORA,HOWRAH,WEST BENGAL,0
120,THE WEST BENGAL STATE COOPERATIVE BANK,WBSC0HCCB14,THE HOWRAH DISTRICT CENTRAL CO-OPERTAIVE BANK LTD PENRO BRANCH,VILL P.O - PENRO P.S - UNPUR DIST - HOWRAH PIN - 711411,HOWRAH,HOWRAH,WEST BENGAL,50588
121,THE WEST BENGAL STATE COOPERATIVE BANK,WBSC0HDCB01,CHINSURAH,"NETAJI SUBHAS ROAD CHINSURAH,CHINSURAH,PIN 712101",HOOGHLY CHINSU,HOOGHLY CHINSU,WEST BENGAL,0
122,THE WEST BENGAL STATE COOPERATIVE BANK,WBSC0HDCB02,SERAMPORE,"69B G.T.ROAD,SERAMPORE,PIN 712201",HOOGHLY (HUGLI),SERAMPORE,WEST BENGAL,0
123,THE WEST BENGAL STATE COOPERATIVE BANK,WBSC0HDCB03,MOGRA,"MOGRA STATION ROAD MOGRA,MOGRA,PIN 712101",HOOGHLY (HUGLI),MOGRA,WEST BENGAL,0
124,THE WEST BENGAL STATE COOPERATIVE BANK,WBSC0HDCB04,RISHRA,"PANCHASAR APPARTMENT MORE PUKUR ROAD,RISHRA,PIN 712248",HOOGHLY (HUGLI),RISHRA,WEST BENGAL,0
125,THE WEST BENGAL STATE COOPERATIVE BANK,WBSC0HDCB05,NALIKUL,"NALIKUL BATALA,P.O.NALIKUL,NALIKUL,PIN 712407",HOOGHLY (HUGLI),NALIKUL,WEST BENGAL,0
126,THE WEST BENGAL STATE COOPERATIVE BANK,WBSC0HDCB06,ARAMBAGH,"P.C.SEN ROAD,OPP.CHAYABANI CINEMA,ARAMBAGH,HOOGHLY 712601",HOOGHLY (HUGLI),ARAMBAGH,WEST BENGAL,0
127,THE WEST BENGAL STATE COOPERATIVE BANK,WBSC0HDCB07,PANDUA,"G.T.ROAD,PANDUA,KALNA MORE,PANDUA,HOOGHLY 712149",HOOGHLY (HUGLI),PANDUA,WEST BENGAL,0
128,THE WEST BENGAL STATE COOPERATIVE BANK,WBSC0HDCB08,TARAKESWAR,"TARAKESWAR THANA ROAD,TARAKESWAR,HOOGHLY 712149",HOOGHLY (HUGLI),TARAKESWAR,WEST BENGAL,0
129,THE WEST BENGAL STATE COOPERATIVE BANK,WBSC0HDCB09,KHANAKUL,"RAMNAGAR,NEAR KHANAKUL I BLOCK OFFICE,KHANAKUL,HOOGHLY 712406",HOOGHLY (HUGLI),KHANAKUL,WEST BENGAL,0
130,THE WEST BENGAL STATE COOPERATIVE BANK,WBSC0HDCB10,JANGIPARA,"JANGIPARA,HOOGHLY,OPP.JANGIPARA POLICE STATION,PIN 712404",HOOGHLY (HUGLI),JANGIPARA,WEST BENGAL,0
131,THE WEST BENGAL STATE COOPERATIVE BANK,WBSC0HDCB11,DHANIAKHALI,"MADAN MOHAN TALA,DHANIAKHALI,HOOGHLY 712302",HOOGHLY (HUGLI),DHANIAKHALI,WEST BENGAL,0
132,THE WEST BENGAL STATE COOPERATIVE BANK,WBSC0HDCB12,KHAMARGACHI,"SIJA RATHTALA,NEAR KHAMARGACHI RAILWAY STATION,KHAMARGACHI,HOOGHLY 712515",HOOGHLY (HUGLI),KHAMARGACHI,WEST BENGAL,0
133,THE WEST BENGAL STATE COOPERATIVE BANK,WBSC0HDCB13,PURSURAH,"PURSURAH THANA ROAD,PURSURAH,HOOGHLY 712401",HOOGHLY (HUGLI),PURSURAH,WEST BENGAL,0
134,THE WEST BENGAL STATE COOPERATIVE BANK,WBSC0HDCB14,KAMARPUKUR,"TARAKESWAR BANKURA ROAD,KAMARPUKUR,OPP.ZILLA PARISHAD BUNGALOW,HOOGHLY 712612",HOOGHLY (HUGLI),KAMARPUKUR,WEST BENGAL,0
135,THE WEST BENGAL STATE COOPERATIVE BANK,WBSC0HDCB15,HARIPAL,"URIA BAZAR,HARIPAL STATION ROAD,NEAR ALLAHABAD BANK,HARIPAL,HOOGHLY 712409",HOOGHLY (HUGLI),HARIPAL,WEST BENGAL,0
136,THE WEST BENGAL STATE COOPERATIVE BANK,WBSC0HDCB16,SINGUR,"SINGUR BAZAR,S.N.MALLICK ROAD,NEAR ALLAHABAD BANK,SINGUR,HOOGHLY 712409",HOOGHLY (HUGLI),SINGUR,WEST BENGAL,0
137,THE WEST BENGAL STATE COOPERATIVE BANK,WBSC0HDCB17,CHANDITALA,"NEAR MAHALAXMI CINEMA,CHANDITALA,HOOGHLY 712148",HOOGHLY (HUGLI),DANKUNI,WEST BENGAL,0
138,THE WEST BENGAL STATE COOPERATIVE BANK,WBSC0HDCB18,BOINCHEE,"NEAR G.T.ROAD,ROYJEE MARKET,BOINCHEE BHASTARA ROAD,BOINCHEE,HOOGHLY 712134",HOOGHLY (HUGLI),BOINCHEE,WEST BENGAL,0
139,THE WEST BENGAL STATE COOPERATIVE BANK,WBSC0HDCB19,HARIT,"AKBAR MARKET,HARIT HATTALA,HARIT,HOOGHLY 712305",HOOGHLY (HUGLI),HARIT,WEST BENGAL,0
140,THE WEST BENGAL STATE COOPERATIVE BANK,WBSC0HDCB20,"HOOGHLY DISTRICT CENTRAL COOPERATIVE BANK LTD,MADHABPUR BRANCH","MADHABPUR,HOOGHLY,PIN-712413",HOOGHLY,HOOGHLY,WEST BENGAL,7719378116
141,THE WEST BENGAL STATE COOPERATIVE BANK,WBSC0JCCB01,JALPAIGURI MAIN,"TEMPLE STREET GR.FL,PO AND DIST JALPAIGURI,WEST BENGAL 735101",JALPAIGURI,JALPAIGURI,WEST BENGAL,0
142,THE WEST BENGAL STATE COOPERATIVE BANK,WBSC0JCCB02,DHUPGURI,"COLLEGE ROAD,PO DHUPGURI,DIST JALPAIGURI,WEST BENGAL 735210",JALPAIGURI,DHUPGURI,WEST BENGAL,0
143,THE WEST BENGAL STATE COOPERATIVE BANK,WBSC0JCCB03,MAYNAGURI,"MAYNAGURI SUPER MARKET,PO MAYNAGURI,DIST JALPAIGURI,WEST BENGAL 735224",JALPAIGURI,MAINAGURI,WEST BENGAL,0
144,THE WEST BENGAL STATE COOPERATIVE BANK,WBSC0JCCB04,BELAKOBA,"PRASANNANAGAR,PO PRASANNANAGAR,DIST JALPAIGURI,WEST BENGAL 735133",JALPAIGURI,BELAKOBA,WEST BENGAL,0
145,THE WEST BENGAL STATE COOPERATIVE BANK,WBSC0JCCB05,RAJGANJ,"RAJGANJ BAZAR,PO RAJGANJ,DIST JALPAIGURI,WEST BENGAL 735134",JALPAIGURI,RAJGANJ,WEST BENGAL,0
146,THE WEST BENGAL STATE COOPERATIVE BANK,WBSC0JCCB06,MAL,"CALTEX MORE,PO MAL,DIST JALPAIGURI,WEST BENGAL 735221",JALPAIGURI,MAL,WEST BENGAL,0
147,THE WEST BENGAL STATE COOPERATIVE BANK,WBSC0JCCB07,HALDIBARI,"MITRA COMPLEX 1ST FL,NEAR BUS STAND,PO HALDIBARI,DIST COOCHBEHAR,WEST BENGAL 735122",KOCH BIHAR,HALDIBARI,WEST BENGAL,0
148,THE WEST BENGAL STATE COOPERATIVE BANK,WBSC0JCCB08,SILIGURI,"AVOY KUNJA,1ST FL,HAKIMPARA BEHIND GOURI SHANKAR MARKET,PO SILIGURI,DARJEELING,WEST BENGAL 734001",DARJILING,SILIGURI,WEST BENGAL,0
149,THE WEST BENGAL STATE COOPERATIVE BANK,WBSC0JCCB09,JALPAIGURI EVENING BR,"TEMPLE STREET GR.FL,PO AND DIST JALPAIGURI,WEST BENGAL 735101",JALPAIGURI,JALPAIGURI,WEST BENGAL,0
150,THE WEST BENGAL STATE COOPERATIVE BANK,WBSC0JCCB10,BIDHANNAGAR,"PANCHAYAT ROAD,PO BIDHANNAGAR,DIST DARJEELING,WEST BENGAL 734426",DARJILING,BIDHANNAGAR,WEST BENGAL,0
151,THE WEST BENGAL STATE COOPERATIVE BANK,WBSC0JCCB11,THE JALPAIGURI CTRL BANK BANARHAT,"UBI ROAD,PO BANARHAT,DIST JALPAIGURI,WEST BENGAL 735202",JALPAIGURI,BANARHAT,WEST BENGAL,0
152,THE WEST BENGAL STATE COOPERATIVE BANK,WBSC0JCCB12,THE JALPAIGURI CTRL BANK GHOGOMALI,"NAGALAND BUILDING GR.FL,PO GHOGOMALI,DIST JALPAIGURI,WEST BENGAL 734406",JALPAIGURI,SILIGURI,WEST BENGAL,0
153,THE WEST BENGAL STATE COOPERATIVE BANK,WBSC0JCCB14,THE JALPAIGURI CTRL BANK PURATAN,"PURATAN MASJID,PO AND DIST JALPAIGURI,WEST BENGAL 735101",JALPAIGURI,JALPAIGURI,WEST BENGAL,0
154,THE WEST BENGAL STATE COOPERATIVE BANK,WBSC0JCCB15,THE JALPAIGURI CTRL BANK BARDHAMAN,"1 VIDYASAGAR ROAD,FAST ACCESS BUILDING GR.FL,PO SILIGURI,DIST JALPAIGURI,WEST BENGAL 735005",DARJILING,SILIGURI,WEST BENGAL,0
155,THE WEST BENGAL STATE COOPERATIVE BANK,WBSC0JCCB16,THE JALPAIGURI CTRL BANK PANDAPARA,"PANDAPARA ROAD OPP.SRI DAYAL CINEMA HALL,PO AND DIST JALPAIGURI,WEST BENGAL 735101",JALPAIGURI,JALPAIGURI,WEST BENGAL,0
156,THE WEST BENGAL STATE COOPERATIVE BANK,WBSC0JCCB17,J C COOP BANK LTD ALIPURDUAR,"COLLEGE HALT,ALIPURDUAR,DIST JALPAIGURI",JALPAIGURI,ALIPUR DUAR,WEST BENGAL,0
157,THE WEST BENGAL STATE COOPERATIVE BANK,WBSC0JCCB18,NAGRAKATA BRANCH,NANDU MORE,JALPAIGURI,JALPAIGURI,WEST BENGAL,230477
158,THE WEST BENGAL STATE COOPERATIVE BANK,WBSC0JCCB19,NAXALBARI BRANCH,NAXALBARI BUS STAND,DARJEELING,DARJEELING,WEST BENGAL,231573
159,THE WEST BENGAL STATE COOPERATIVE BANK,WBSC0JCCB20,KALCHINI BRANCH,KALCHINI NIMTI CHOWPATHY,ALIPURDUAR,ALIPURDUAR,WEST BENGAL,230477
160,THE WEST BENGAL STATE COOPERATIVE BANK,WBSC0KPCB01,KOLKATA POLICE CO-OPERATIVE BANK LTD LALBAZAR BRANCH,18 LALBAZAR STREET KOLKATA 700001,KOLKATA,KOLKATA,WEST BENGAL,22505058
161,THE WEST BENGAL STATE COOPERATIVE BANK,WBSC0KPCB02,KOLKATA POLICE CO-OPERATIVE BANK LTD LINES BRANCH,7 D.H ROAD KHIDDERPORE KOLKATA 700027,KOLKATA,KOLKATA,WEST BENGAL,24099207
162,THE WEST BENGAL STATE COOPERATIVE BANK,WBSC0KPCB03,KOLKATA POLICE CO-OPERATIVE BANK LTD B.T ROAD BRANCH,"29/1 B.T ROAD COSSIPORE, 2ND KAP KOLKATA 700002",KOLKATA,KOLKATA,WEST BENGAL,25300885
163,THE WEST BENGAL STATE COOPERATIVE BANK,WBSC0KPCB04,KOLKATA POLICE CO-OPERATIVE BANK LTD ULTADANGA BRANCH,"7M, COMMERCIAL BUILDING,5TH BN KAP,ULTADANGA KOLKATA 700054",KOLKATA,KOLKATA,WEST BENGAL,23554817
164,THE WEST BENGAL STATE COOPERATIVE BANK,WBSC0KUCB01,KHARDAH CO OPERATIVE BANK LTD,P.K.BISWAS ROAD,NORTH 24 PARGANAS,KHARDAH,WEST BENGAL,25536557
165,THE WEST BENGAL STATE COOPERATIVE BANK,WBSC0KUCB02,KHARDAH CO OPERATIVE BANK LTD,"TARAK MARKET COMPLEX,ARUNACHAL",NORTH 24 PARGANAS,KHARDAH,WEST BENGAL,25681191
166,THE WEST BENGAL STATE COOPERATIVE BANK,WBSC0MALD01,MALDAH,N S ROAD MALDA PIN 732101,MALDAH,ENGLISH BAZAR,WEST BENGAL,0
167,THE WEST BENGAL STATE COOPERATIVE BANK,WBSC0MALD02,JHALJHALIA,"STATIONROAD,JHALJHALIA PIN732102",MALDAH,ENGLISHBAZAR,WEST BENGAL,0
168,THE WEST BENGAL STATE COOPERATIVE BANK,WBSC0MALD03,RATHBARI,"RATHBARI,PIN732101",MALDAH,RATHBARI,WEST BENGAL,0
169,THE WEST BENGAL STATE COOPERATIVE BANK,WBSC0MALD04,MANGALBARI,"NH34,MANGALBARI,PIN732142",MALDAH,MANGALBARI,WEST BENGAL,0
170,THE WEST BENGAL STATE COOPERATIVE BANK,WBSC0MALD05,GOURROAD,"GOURROAD,MOKDUMPUR PIN732103",MALDAH,ENGLISHBAZAR,WEST BENGAL,0
171,THE WEST BENGAL STATE COOPERATIVE BANK,WBSC0MALD06,GAZOLE,GAZOLE PIN732124,MALDAH,GAZOLE,WEST BENGAL,0
172,THE WEST BENGAL STATE COOPERATIVE BANK,WBSC0MALD07,KALIACHAK,"NH34,KALIACHAK,PIN732201",MALDAH,KALIACHAK,WEST BENGAL,0
173,THE WEST BENGAL STATE COOPERATIVE BANK,WBSC0MALD08,MOTHABARI,POMOTHABARIPIN732207,MALDAH,MOTHABARI,WEST BENGAL,0
174,THE WEST BENGAL STATE COOPERATIVE BANK,WBSC0MALD09,SAMSI,POSAMSIPIN732139,MALDAH,SAMSI,WEST BENGAL,0
175,THE WEST BENGAL STATE COOPERATIVE BANK,WBSC0MALD10,HARISHCHANDRAPUR,"PO H.C.PUR,PIN 732125",MALDAH,MALDA,WEST BENGAL,0
176,THE WEST BENGAL STATE COOPERATIVE BANK,WBSC0MALD11,CHANCHAL,POCHANCHALPIN732123,MALDAH,CHANCHAL,WEST BENGAL,0
177,THE WEST BENGAL STATE COOPERATIVE BANK,WBSC0MALD12,MANIKCHAK,POMATHURAPURPIN732203,MALDAH,MATHURAPUR,WEST BENGAL,0
178,THE WEST BENGAL STATE COOPERATIVE BANK,WBSC0MALD13,PAKUA,POPAKUAHATPIN732138,MALDAH,PAKUAHAT,WEST BENGAL,0
179,THE WEST BENGAL STATE COOPERATIVE BANK,WBSC0MALD14,PUKHURIA,POPUKURIAPIN732213,MALDAH,PUKHURIA,WEST BENGAL,0
180,THE WEST BENGAL STATE COOPERATIVE BANK,WBSC0MALD15,HEADOFFICE,S P ROADPIN732101,MALDAH,ENGLISHBAZAR,WEST BENGAL,0
181,THE WEST BENGAL STATE COOPERATIVE BANK,WBSC0MALD17,MALDA DCCB AMRITY,"ENGLISH BAZAR,PO.AMRITY732208",MALDAH,MALDA,WEST BENGAL,0
182,THE WEST BENGAL STATE COOPERATIVE BANK,WBSC0MALD18,MALDA DCCB HABIBPUR,PO HABIBPUR PIN 732122,MALDAH,MALDA,WEST BENGAL,0
183,THE WEST BENGAL STATE COOPERATIVE BANK,WBSC0MALD19,BIRNAGAR BRANCH,"16 MILE,NH-34 BUS STAND,MALDA-732127",MALDA,MALDA,WEST BENGAL,9593200347
184,THE WEST BENGAL STATE COOPERATIVE BANK,WBSC0MALD20,KHAKSOL-CHANDIPUR BRANCH,"SOVANAGAR G.P,BHABANIPUR,MALDA-732209",MALDA,MALDA,WEST BENGAL,9593200347
185,THE WEST BENGAL STATE COOPERATIVE BANK,WBSC0MCCB01,MAIN,"48, 49, B.B. SEN ROAD, P.O. BAHARAMPUR, 742010",MURSHIDABAD,BERHAMPORE,WEST BENGAL,251116
186,THE WEST BENGAL STATE COOPERATIVE BANK,WBSC0MCCB02,KHAGRA,"48, 49, B.B. SEN ROAD, P.O. BAHARAMPUR, 742101",MURSHIDABAD,BERHAMPORE,WEST BENGAL,251116
187,THE WEST BENGAL STATE COOPERATIVE BANK,WBSC0MCCB03,PANCHANANTALA,"PANCHANANTALA, P.O. BAHARAMPUR, 742101",MURSHIDABAD,BERHAMPORE,WEST BENGAL,250733
188,THE WEST BENGAL STATE COOPERATIVE BANK,WBSC0MCCB04,DOMKAL,"DOMKAL, P.O. DOMKAL, 742303",MURSHIDABAD,DOMKAL,WEST BENGAL,230755
189,THE WEST BENGAL STATE COOPERATIVE BANK,WBSC0MCCB05,FARAKKA,"FARAKKA, P.O. FARAKKA BARRAGE, 742212",MURSHIDABAD,FARAKKA,WEST BENGAL,253248
190,THE WEST BENGAL STATE COOPERATIVE BANK,WBSC0MCCB06,JANGIPUR,"JANGIPUR, P.O. RAGHUNATHGANJ, 742 225",MURSHIDABAD,JANGIPUR,WEST BENGAL,266110
191,THE WEST BENGAL STATE COOPERATIVE BANK,WBSC0MCCB07,SAGARDIGHI,"SAGARDIGHI, P.O. SAGARDIGHI, 742 226",MURSHIDABAD,SAGARDIGHI,WEST BENGAL,268045
192,THE WEST BENGAL STATE COOPERATIVE BANK,WBSC0MCCB08,NABAGRAM,"NABAGRAM, P.O. NABAGRAM, 742184",MURSHIDABAD,NABAGRAM,WEST BENGAL,270211
193,THE WEST BENGAL STATE COOPERATIVE BANK,WBSC0MCCB09,KANDI,"KANDI, P.O. KANDI, 742137",MURSHIDABAD,KANDI,WEST BENGAL,255257
194,THE WEST BENGAL STATE COOPERATIVE BANK,WBSC0MCCB10,GRAMSALIKA,"GRAMSALIKA, P.O. GRAMSALIKA, 742186",MURSHIDABAD,GRAMSALIKA,WEST BENGAL,271040
195,THE WEST BENGAL STATE COOPERATIVE BANK,WBSC0MCCB11,NAGAR,"NAGAR, P.O. NAGAR, 742159",MURSHIDABAD,NAGAR,WEST BENGAL,279044
196,THE WEST BENGAL STATE COOPERATIVE BANK,WBSC0MCCB12,BELDANGA,"BELDANGA, P.O. BELDANGA, 742133",MURSHIDABAD,BELDANGA,WEST BENGAL,264042
197,THE WEST BENGAL STATE COOPERATIVE BANK,WBSC0MCCB13,LALGOLA,"LALGOLA, P.O. LALGOLA, 742148",MURSHIDABAD,LALGOLA,WEST BENGAL,274348
198,THE WEST BENGAL STATE COOPERATIVE BANK,WBSC0MCCB14,LALBAGH,"JIAGANJ, P.O. JIAGANJ, 742123",MURSHIDABAD,JIAGANJ,WEST BENGAL,255370
199,THE WEST BENGAL STATE COOPERATIVE BANK,WBSC0MCCB15,HEAD OFFICE,"BAHARAMPUR, P.O. BAHARAMPUR, 742101",MURSHIDABAD,BERHAMPORE,WEST BENGAL,251116
200,THE WEST BENGAL STATE COOPERATIVE BANK,WBSC0MCCB16,ISLAMPUR,"ISLAMPUR, P.O. ISLAMPUR, 742 304",MURSHIDABAD,ISLAMPUR,WEST BENGAL,7872771111
201,THE WEST BENGAL STATE COOPERATIVE BANK,WBSC0MCCB17,SALAR,"SALAR, P.O. SALAR, PIN- 742 401",MURSHIDABAD,SALAR,WEST BENGAL,7872007722
202,THE WEST BENGAL STATE COOPERATIVE BANK,WBSC0MCCB18,MURSHIDABAD DIST CENTRAL COOP BANK,VILL AND PO SAKTIPUR,MURSHIDABAD,KOLKATA,WEST BENGAL,251116
203,THE WEST BENGAL STATE COOPERATIVE BANK,WBSC0MCCB19,HARIHARPARA,"VILL AND PO HARIHARPARA,PIN 742166",MURSHIDABAD,HARIHARPARA,WEST BENGAL,0
204,THE WEST BENGAL STATE COOPERATIVE BANK,WBSC0MCCB20,DHULIAN,"VILL AND PO DHULIAN,PIN 742202",MURSHIDABAD,DHULIAN,WEST BENGAL,0
205,THE WEST BENGAL STATE COOPERATIVE BANK,WBSC0MCCB21,AKHERIGANJ,"VILL & PO-AKHERIGANJ,DIST-MURSHIDABAD,PIN-742135",MURSHIDABAD,AKHERIGANJ,WEST BENGAL,7872478617
206,THE WEST BENGAL STATE COOPERATIVE BANK,WBSC0MCCB22,RAIPUR,"VILL & PO-RAIPUR,DIST-MURSHIDABAD,PIN-742303",MURSHIDABAD,RAIPUR,WEST BENGAL,7872478617
207,THE WEST BENGAL STATE COOPERATIVE BANK,WBSC0MCCB23,SAHEBNAGAR,"VILL & PO-SAHEBNAGAR,DIST-MURSHIDABAD,PIN-742306",MURSHIDABAD,SAHEBNAGAR,WEST BENGAL,7872478617
208,THE WEST BENGAL STATE COOPERATIVE BANK,WBSC0MCCB24,KUMARSANDA,"VILL & PO-KUMARSANDA,DIST-MURSHIDABAD,PIN-742136",MURSHIDABAD,KUMARSANDA,WEST BENGAL,7872478617
209,THE WEST BENGAL STATE COOPERATIVE BANK,WBSC0MCCB25,MAHESAIL,"VILL-BAMULA,PO-PARULIA,MURSHIDABAD,PIN-742201",MURSHIDABAD,MAHESAIL,WEST BENGAL,782478617
210,THE WEST BENGAL STATE COOPERATIVE BANK,WBSC0MGCB01,"MGCB,MAIN","VILL + P.O - MUGBERIA, P.S. - BHUPATINAGAR, DIST-PURBA MEDINIPUR-721425",PURBA MEDINIPUR,MUGBERIA,WEST BENGAL,3220270224
211,THE WEST BENGAL STATE COOPERATIVE BANK,WBSC0MGCB02,"MGCB,CONTAI","SARASWATITALA ,P.O - CONTAI, P.S. - CONTAI, DIST-PURBA MEDINIPUR-721401",PURBA MEDINIPUR,MUGBERIA,WEST BENGAL,3220255053
212,THE WEST BENGAL STATE COOPERATIVE BANK,WBSC0MGCB03,"MGCB,KALAGACHHIA","VILL- KALAGACHHIA ,P.O - KAMARDA BAZAR, P.S. - KHEJURI, DIST-PURBA MEDINIPUR-721432",PURBA MEDINIPUR,MUGBERIA,WEST BENGAL,3220280077
213,THE WEST BENGAL STATE COOPERATIVE BANK,WBSC0MGCB04,"MGCB,BHAGWANPUR","VILL -BENUDIA P.O - BHAGWANPUR, P.S. - BHAGWANPUR, DIST-PURBA MEDINIPUR-721601",PURBA MEDINIPUR,MUGBERIA,WEST BENGAL,3220272222
214,THE WEST BENGAL STATE COOPERATIVE BANK,WBSC0MGCB05,"MGCB,BAJKUL","VILL-BAJKUL, P.O - KISMAT BAJKUL, P.S. - BHUPATINAGAR, DIST-PURBA MEDINIPUR-721655",PURBA MEDINIPUR,MUGBERIA,WEST BENGAL,3220274257
215,THE WEST BENGAL STATE COOPERATIVE BANK,WBSC0MGCB06,"MGCB,ITABERIA","VILL &  P.O - ITABERIA, P.S. - BHUPATINAGAR, DIST-PURBA MEDINIPUR-721456",PURBA MEDINIPUR,MUGBERIA,WEST BENGAL,3220277021
216,THE WEST BENGAL STATE COOPERATIVE BANK,WBSC0MGCB07,"MGCB,JANKA","VILL + P.O - JANKA, P.S. - KHEJURI, DIST-PURBA MEDINIPUR-721431",PURBA MEDINIPUR,MUGBERIA,WEST BENGAL,3220282275
217,THE WEST BENGAL STATE COOPERATIVE BANK,WBSC0MGCB08,"MGCB,MADHAKHALI EVE","VILL + P.O - MADHAKHALI, P.S. - BHUPATINAGAR, DIST-PURBA MEDINIPUR-721425",PURBA MEDINIPUR,MUGBERIA,WEST BENGAL,3220270535
218,THE WEST BENGAL STATE COOPERATIVE BANK,WBSC0MGCB09,"MGCB,HARIA","VILL + P.O - HARIA, P.S. - KHEJURI, DIST-PURBA MEDINIPUR-721430",PURBA MEDINIPUR,MUGBERIA,WEST BENGAL,3220276388
219,THE WEST BENGAL STATE COOPERATIVE BANK,WBSC0MGCB10,"MGCB,CONTAI MOR EVE","SARASWATITALA ,P.O - CONTAI, P.S. - CONTAI, DIST-PURBA MEDINIPUR-721401",PURBA MEDINIPUR,MUGBERIA,WEST BENGAL,3220259603
220,THE WEST BENGAL STATE COOPERATIVE BANK,WBSC0MGCB11,"MGCB,BHAGWANPUR  EVENING","VILL -BENUDIA P.O - BHAGWANPUR, P.S. - BHAGWANPUR, DIST-PURBA MEDINIPUR-721601",PURBA MEDINIPUR,MUGBERIA,WEST BENGAL,3220272004
221,THE WEST BENGAL STATE COOPERATIVE BANK,WBSC0MGCB12,MUGBERIA CENTRAL CO OPERATIVE BANK LTD,"VILL-SAIYADPUR,POST-RAMNAGAR",PURBA MEDINIPUR,RAMNAGAR,WEST BENGAL,270223
222,THE WEST BENGAL STATE COOPERATIVE BANK,WBSC0MUCB01,KOLKATA MAHILA COOP BANK,"8D,KRISHNA LAHA LANE,BOWBAZAR",KOLKATA,KOLKATA,WEST BENGAL,0
223,THE WEST BENGAL STATE COOPERATIVE BANK,WBSC0NDCB01,KRISHNAGAR MAIN BRANCH,M.M. GHOSH STREET KRISHNAGAR-741101,NADIA,KRISHNAGAR,WEST BENGAL,252789
224,THE WEST BENGAL STATE COOPERATIVE BANK,WBSC0NDCB02,RANAGHAT,"PANDIT KALIMOY GHATAK  LANE , RANAGHAT-741201",NADIA,RANAGHAT,WEST BENGAL,210070
225,THE WEST BENGAL STATE COOPERATIVE BANK,WBSC0NDCB03,KARIMPUR,"KARIMPUR, THANAR MORE",NADIA,KARIMPUR,WEST BENGAL,255119
226,THE WEST BENGAL STATE COOPERATIVE BANK,WBSC0NDCB04,HARINGHATA,HARINGHATA BAZAR,NADIA,HARINGHATA,WEST BENGAL,233373
227,THE WEST BENGAL STATE COOPERATIVE BANK,WBSC0NDCB05,BETHUADAHARY,BETHUADAHARI BAZAR,NADIA,BETHUADAHARY,WEST BENGAL,255235
228,THE WEST BENGAL STATE COOPERATIVE BANK,WBSC0NDCB06,CHAKDHA,CHAKDHA MUNICIPALATY MARKET,NADIA,CHAKDHA,WEST BENGAL,245056
229,THE WEST BENGAL STATE COOPERATIVE BANK,WBSC0NDCB07,BADKULLA,BADKULLA BAZAR,NADIA,BADKULLA,WEST BENGAL,270223
230,THE WEST BENGAL STATE COOPERATIVE BANK,WBSC0NDCB08,DEBAGRAM,DEBAGRAM CHOURASTAR MORE,NADIA,DEBAGRAM,WEST BENGAL,266216
231,THE WEST BENGAL STATE COOPERATIVE BANK,WBSC0NDCB09,CHAPRA,CHAPRA BAZAR,NADIA,CHAPRA,WEST BENGAL,270242
232,THE WEST BENGAL STATE COOPERATIVE BANK,WBSC0NDCB10,HANSKHALI,HANSKHALI BUS STAND,NADIA,HANSKHALI,WEST BENGAL,231011
233,THE WEST BENGAL STATE COOPERATIVE BANK,WBSC0NDCB11,TEHATTA,TEHATTA JITPUR MORE,NADIA,TEHATTA,WEST BENGAL,250248
234,THE WEST BENGAL STATE COOPERATIVE BANK,WBSC0NDCB12,NABADWIP,NABADWIP BOWBAZAR,NADIA,NABADWIP,WEST BENGAL,240346
235,THE WEST BENGAL STATE COOPERATIVE BANK,WBSC0NDCB13,SANTIPUR,SANTIPUR K.C. DAS ROAD,NADIA,SANTIPUR,WEST BENGAL,278041
236,THE WEST BENGAL STATE COOPERATIVE BANK,WBSC0NDCB14,PALASIPARA,PALASIPARA,NADIA,PALASIPARA,WEST BENGAL,252238
237,THE WEST BENGAL STATE COOPERATIVE BANK,WBSC0NDCB15,DHUBULIA,DHUBULIA BATTALA BAZAR,NADIA,DHUBULIA,WEST BENGAL,261247
238,THE WEST BENGAL STATE COOPERATIVE BANK,WBSC0NDCB16,KALYANI,"KALYANI, CENTRAL PARK",NADIA,KALYANI,WEST BENGAL,25826101
239,THE WEST BENGAL STATE COOPERATIVE BANK,WBSC0NDCB17,MAJDIA,MAJDIA RAIL BAZAR,NADIA,MAJDIA,WEST BENGAL,276055
240,THE WEST BENGAL STATE COOPERATIVE BANK,WBSC0NDCB18,NADIA DISTRICT CENTRAL CO-OPERATIVE BANK LTD,M M GHOSH STREET P.O KRISHNANAGAR DIST NADIA PIN 741101,NADIA,KRISHNANAGAR,WEST BENGAL,8373072135
241,THE WEST BENGAL STATE COOPERATIVE BANK,WBSC0NDCB19,NADIA DISTRICT CENTRAL CO-OPERATIVE BANK LTD,M M GHOSH STREET P.O KRISHNANAGAR DIST- NADIA PIN-741101,NADIA,KRISHNANAGAR,WEST BENGAL,8373072135
242,THE WEST BENGAL STATE COOPERATIVE BANK,WBSC0NDCB20,NADIA DISTRICT CENTRAL CO-OPERATIVE BANK LTD,VILL & P.O MADANPUR P.S CHAKDA DIST NADIA PIN-741545,NADIA,KRISHNANAGAR,WEST BENGAL,8373072135
243,THE WEST BENGAL STATE COOPERATIVE BANK,WBSC0NDCB21,NADIA DISTRICT CENTRAL CO-OPERATIVE BANK LTD,VILL & P.O-5/672 KATAGANJA P.O BEDIBHAWAN DIST-NADIA PIN-741250,NADIA,KRISHNANAGAR,WEST BENGAL,8373072135
244,THE WEST BENGAL STATE COOPERATIVE BANK,WBSC0NDCB22,NADIA DISTRICT CENTRAL CO-OPERATIVE BANK LTD,BAGULA COLLEGE ROAD P-O BAGULA,NADIA,BAGULA,WEST BENGAL,256771
245,THE WEST BENGAL STATE COOPERATIVE BANK,WBSC0NDCB23,TARAPUR,"PO - TARAPUR, DIST - NADIA, PIN- 741402",NADIA,KRISHNANAGAR,WEST BENGAL,252683
246,THE WEST BENGAL STATE COOPERATIVE BANK,WBSC0NDCB24,"NAZIRPUR BRANCH,NADIA DISTRICT CENTRAL COOPERATIVE BANK","VILL- NARAYANPUR, P.O- NAZIRPUR, DIST-NADIA,PIN - 741165",NADIA,NAZIRPUR,WEST BENGAL,8373072135
247,THE WEST BENGAL STATE COOPERATIVE BANK,WBSC0PCCB01,HEAD OFFICE,"RANCHI ROAD,P O AND DIST PURULIA PIN 723101",PURULIA,PURULIA,WEST BENGAL,0
248,THE WEST BENGAL STATE COOPERATIVE BANK,WBSC0PCCB02,PURULIYA DAY,"RANCHI ROAD,P O AND DIST PURULIA PIN 723101",PURULIA,PURULIA,WEST BENGAL,0
249,THE WEST BENGAL STATE COOPERATIVE BANK,WBSC0PCCB03,PURULIYA DAY,"RANCHI ROAD,P O AND DIST PURULIA PIN 723101",PURULIA,PURULIA,WEST BENGAL,0
250,THE WEST BENGAL STATE COOPERATIVE BANK,WBSC0PCCB04,JHALDA BRANCH,"PURULIA MAIN ROAD,AT AND P O JHALDA,DIST PURULIA,PIN 723202",PURULIA,PURULIA,WEST BENGAL,0
251,THE WEST BENGAL STATE COOPERATIVE BANK,WBSC0PCCB05,BALARAMPUR,"BARABAZAR ROAD,AT BALARAMPUR,P O RANGADIH,DIST PURULIA PIN 723143",PURULIA,PURULIA,WEST BENGAL,0
252,THE WEST BENGAL STATE COOPERATIVE BANK,WBSC0PCCB06,KASHIPUR PURULIA,"HAT TOLA MORE,NEAR KASHIPUR,G P OFFICE,P O P K RAJ,DIST PURULIA 723132",PURULIA,PURULIA,WEST BENGAL,0
253,THE WEST BENGAL STATE COOPERATIVE BANK,WBSC0PCCB07,MANBAZAR,"HOSPITAL ROAD,AT AND P O MANBAZAR,DIST PURULIA PIN 723131",PURULIA,PURULIA,WEST BENGAL,0
254,THE WEST BENGAL STATE COOPERATIVE BANK,WBSC0PCCB08,RAGHUNATHPUR,"BARAKAR ROAD,NEAR L I CI BLDG,AT AND P O RAGHUNATHPUR",PURULIA,PURULIA,WEST BENGAL,0
255,THE WEST BENGAL STATE COOPERATIVE BANK,WBSC0PCCB09,SARBARI,"PANCHET MORE , SARBARI MORE , BLOCK NETURIA PIN 723 121",PURULIA,RAGHUNATHPUR,WEST BENGAL,8159078124
256,THE WEST BENGAL STATE COOPERATIVE BANK,WBSC0RCCB01,RAIGANJ MAIN BR,"UKILPARA,INSTITUTE BUILDING,RAIGANJ,RAIGANJ",RAIGANJ,RAIGANJ,WEST BENGAL,0
257,THE WEST BENGAL STATE COOPERATIVE BANK,WBSC0RCCB02,MOHANBATI BR,"N.S.ROAD,RAIGANJ",U/DINAJPUR,RAIGANJ,WEST BENGAL,0
258,THE WEST BENGAL STATE COOPERATIVE BANK,WBSC0RCCB03,UKILPARA BR,"TOWN CLUB LANE,UKILPARA,RAIGANJ",U/DINAJPUR,RAIGANJ,WEST BENGAL,0
259,THE WEST BENGAL STATE COOPERATIVE BANK,WBSC0RCCB04,BUNIADPUR BR,"BUNIADPUR BUS STAND,DBYDINAJPUR",D/ DINAJPUR,BUNIADPUR,WEST BENGAL,0
260,THE WEST BENGAL STATE COOPERATIVE BANK,WBSC0RCCB05,HARIRAMPUR BR,"HARIRAMPUR,DBYDINAJPUR",D/ DINAJPUR,HARIRAMPUR,WEST BENGAL,0
261,THE WEST BENGAL STATE COOPERATIVE BANK,WBSC0RCCB06,KUSHMANDI BR,"KUSHMANDI BUS STAND,DBYDINAJPUR",D/ DINAJPUR,KUSHMANDI,WEST BENGAL,0
262,THE WEST BENGAL STATE COOPERATIVE BANK,WBSC0RCCB07,KALIYAGANJ BR,"OPP.OF KALIYAGANJ STATION,KALIYAGANJ",U/ DINAJPUR,KALIYAGANJ,WEST BENGAL,0
263,THE WEST BENGAL STATE COOPERATIVE BANK,WBSC0RCCB08,HEMTABAD BR,"HEMTABAD BUS STAND,HEMTABAD",U/ DINAJPUR,HEMTABAD,WEST BENGAL,0
264,THE WEST BENGAL STATE COOPERATIVE BANK,WBSC0RCCB09,KUNOR BR,"KUNOR BUS STAND,KUNOR,UBYDINAJPUR",U/ DINAJPUR,KUNOR,WEST BENGAL,0
265,THE WEST BENGAL STATE COOPERATIVE BANK,WBSC0RCCB10,ITAHAR BR,"THANA ROAD,ITAHAR,UBYDINAJPUR",U/ DINAJPUR,ITAHAR,WEST BENGAL,0
266,THE WEST BENGAL STATE COOPERATIVE BANK,WBSC0RCCB11,TUNGIDIGHI BR,"N.H.34,BESIDE BUS STAND,TUNGIDIGHI",U/ DINAJPUR,TUNGIDIGHI,WEST BENGAL,0
267,THE WEST BENGAL STATE COOPERATIVE BANK,WBSC0RCCB12,DALKHOLA BR,"N.H.34,NEAR RAILWAY GHOOMTY,DALKHOLA",U/ DINAJPUR,DALKHOLA,WEST BENGAL,0
268,THE WEST BENGAL STATE COOPERATIVE BANK,WBSC0RCCB13,KANKI BR,"BESIDE KANKI JAIN BIDYAMANDIR,KANKI",U/ DINAJPUR,KANKI,WEST BENGAL,0
269,THE WEST BENGAL STATE COOPERATIVE BANK,WBSC0RCCB14,PANJIPARA BR,"BESIDE BAS STAND,KANKI",U/ DINAJPUR,PANJIPARA,WEST BENGAL,0
270,THE WEST BENGAL STATE COOPERATIVE BANK,WBSC0RCCB15,ISLAMPUR BR,"GROUND FLOOR ZEELA PARISAD BANGLO,ISLAMPUR",U/ DINAJPUR,ISLAMPUR,WEST BENGAL,0
271,THE WEST BENGAL STATE COOPERATIVE BANK,WBSC0RCCB16,CHOPRA BR,"BESIDE CHOPRA RURAL LIBRARY,CHOPRA",U/ DINAJPUR,CHOPRA,WEST BENGAL,0
272,THE WEST BENGAL STATE COOPERATIVE BANK,WBSC0SCOP01,NABADWIP,"159 PARAMATALA ROAD,NABADWIP,NADIA-741302",NADIA,NABADWIP,WEST BENGAL,9800078243
273,THE WEST BENGAL STATE COOPERATIVE BANK,WBSC0TCCB01,TAMLUK MAIN,TAMLUK PURBA MEDINIPUR WEST BENGAL PIN 721636,TAMLUK,TAMLUK,WEST BENGAL,0
274,THE WEST BENGAL STATE COOPERATIVE BANK,WBSC0TCCB02,GHATAL,VILL P.O GHATAL PASCHIM MEDINIPUR PIN 721212,MEDINIPUR,GHATAL,WEST BENGAL,0
275,THE WEST BENGAL STATE COOPERATIVE BANK,WBSC0TCCB03,PANSKURA,BAHARGRAM PANSKURA R.S PIN 721152,PURBA MEDINIPUR,PANSKURA,WEST BENGAL,0
276,THE WEST BENGAL STATE COOPERATIVE BANK,WBSC0TCCB04,HALDIA,DURGACHAK NEAR SUPERMARKET PURBA MEDINIPUR PIN 721602,PURBA MEDINIPUR,DURGA CHOWK,WEST BENGAL,0
277,THE WEST BENGAL STATE COOPERATIVE BANK,WBSC0TCCB05,CHANDRAKONA,CHANDRAKONA TOWN PIN 721201,MEDINIPUR,CHANDRAKONA,WEST BENGAL,0
278,THE WEST BENGAL STATE COOPERATIVE BANK,WBSC0TCCB06,MOYNA,ANANDAPUR MOYNA PIN 721629,PURBA MEDINIPUR,MOYNA,WEST BENGAL,0
279,THE WEST BENGAL STATE COOPERATIVE BANK,WBSC0TCCB07,REAPARA,REAPARA PURBA MEDINIPUR PIN 721650,PURBA MEDINIPUR,REYAPARA,WEST BENGAL,0
280,THE WEST BENGAL STATE COOPERATIVE BANK,WBSC0TCCB08,GOURA,CHECHUA GOBINDANAGAR PASCHIM MEDINIPUR PIN 721146,MEDINIPUR,GOURA,WEST BENGAL,0
281,THE WEST BENGAL STATE COOPERATIVE BANK,WBSC0TCCB09,MAHISHADAL,GARH KAMALPUR MAHISHADAL PIN 721628,PURBA MEDINIPUR,MAHISHADAL,WEST BENGAL,0
282,THE WEST BENGAL STATE COOPERATIVE BANK,WBSC0TCCB10,KOLAGHAT,KOLAGHAT PURBA MEDINIPUR PIN 721134,PURBA MEDINIPUR,KOLAGHAT,WEST BENGAL,0
283,THE WEST BENGAL STATE COOPERATIVE BANK,WBSC0TCCB11,MATHCHANDIPUR,CHANDIPUR MATHCHANDIPUR PIN 721659,PURBA MEDINIPUR,MATCHANDIPUR,WEST BENGAL,0
284,THE WEST BENGAL STATE COOPERATIVE BANK,WBSC0TCCB12,CHAITANYAPUR,CHAITANYAPUR PURBA MEDINIPUR PIN 721645,PURBA MEDINIPUR,CHAITANYAPUR,WEST BENGAL,0
285,THE WEST BENGAL STATE COOPERATIVE BANK,WBSC0TCCB13,DASPUR,DASPUR PASCHIM MEDINIPUR PIN 721211,MEDINIPUR,DASSPUR,WEST BENGAL,0
286,THE WEST BENGAL STATE COOPERATIVE BANK,WBSC0TCCB14,NANDAKUMAR,NANDAKUMAR PURBA MEDINIPUR PIN 721632,PURBA MEDINIPUR,NANDAKUMAR,WEST BENGAL,0
287,THE WEST BENGAL STATE COOPERATIVE BANK,WBSC0TCCB15,KHIRPAI,KHIRPAI PASCHIM MEDINIPUR PIN 721232,MEDINIPUR,KHIRPAI,WEST BENGAL,0
288,THE WEST BENGAL STATE COOPERATIVE BANK,WBSC0TCCB16,NANDIGRAM,NANDIGRAM PURBA MEDINIPUR PIN 721631,PURBA MEDINIPUR,NANDIGRAM,WEST BENGAL,0
289,THE WEST BENGAL STATE COOPERATIVE BANK,WBSC0TCCB17,NONAKURI,NONAKURI NONAKURI BAZAR PIN 721172,PURBA MEDINIPUR,NONAKURIBAZAR,WEST BENGAL,0
290,THE WEST BENGAL STATE COOPERATIVE BANK,WBSC0TCCB18,TCCB BRAJALALCHAK,BRAJALALCHAWK DAKSHINCHAK BHWANIPUR PURBA MEDINIPUR PIN 721654,PURBA MEDINIPUR,BRAJALAL CHAWK,WEST BENGAL,0
291,THE WEST BENGAL STATE COOPERATIVE BANK,WBSC0TCCB19,TCCB NIMTAURI,UTTAR NARIKELDA DAKSHIN NARIKELDA TAMLUK PURBA MEDINIPUR PIN 721648,PURBA MEDINIPUR,TAMLUK,WEST BENGAL,0
292,THE WEST BENGAL STATE COOPERATIVE BANK,WBSC0TCCB20,TCCB SONAKHALI,SOYLA SONAKHALI DASPUR PASCHIM MEDINIPUR PIN 721146,MEDINIPUR,SONAKHALI,WEST BENGAL,0
293,THE WEST BENGAL STATE COOPERATIVE BANK,WBSC0TCCB21,T G C COOP BANK LTD RAMJIBANPUR,VILL P.O RAMJIBANPUR P.S CHANDRAKONA PASCHIM MEDINIPUR PIN 721242,MEDINIPUR,RAMJIBANPUR,WEST BENGAL,0
294,THE WEST BENGAL STATE COOPERATIVE BANK,WBSC0TCCB22,T G C COOP BANK LTD SAGARPUR,VILL P.O SAGARPUR P.S DASPUR PASCHIM MEDINIPUR PIN 721211,MEDINIPUR,SAGARPUR,WEST BENGAL,0
295,THE WEST BENGAL STATE COOPERATIVE BANK,WBSC0TCCB23,TAMLUK GHATAL CENTRAL CO OPERATIVE BANK LTD HEAD OFFICE,"VILL-TAMLUK,POST-TAMLUK,P.S-TAMLUK",PURBA MEDINIPUR,TAMLUK,WEST BENGAL,9332612699
296,THE WEST BENGAL STATE COOPERATIVE BANK,WBSC0TCCB24,"TAMLUK GHATAL CCB LTD, BALAIPANDA BRANCH","VILL-PARAMANANDAPUR(BALAIPANDA BAZAR),P.O PARAMANANDAPUR, P.S MOYNA,DIST-PURBA MEDINIPUR, WEST BENGAL, PIN-721644",PURBA MEDINIPUR,BALAIPANDA,WEST BENGAL,8373062422
297,THE WEST BENGAL STATE COOPERATIVE BANK,WBSC0TUCB01,MAHINAGAR,PO-MALANCHA-MAHINAGAR  VILL-MAHINAGAR,24 PGS NORTH,KOLKATA,WEST BENGAL,24379149
298,THE WEST BENGAL STATE COOPERATIVE BANK,WBSC0VCCB01,HEAD OFFICE,"P.O - MIDNAPUR, DIST.-PASCHIM MEDINIPUR, PIN-721101",PASCHIM MEDINIPUR,MIDNAPORE,WEST BENGAL,275417
299,THE WEST BENGAL STATE COOPERATIVE BANK,WBSC0VCCB02,JHARGRAM,"P.O - JHARGRAM, DIST.-PASCHIM MEDINIPUR, PIN-721507",PASCHIM MEDINIPUR,JHARGRAM,WEST BENGAL,255023
300,THE WEST BENGAL STATE COOPERATIVE BANK,WBSC0VCCB03,KHARAGPUR,"AT- KOUSHALYA, P.O - KHARAGPUR, DIST.-PASCHIM MEDINIPUR, PIN-721301",PASCHIM MEDINIPUR,KHARAGPUR,WEST BENGAL,255404
301,THE WEST BENGAL STATE COOPERATIVE BANK,WBSC0VCCB04,BALICHAK,"P.O - BALICHAK, DIST.-PASCHIM MEDINIPUR, PIN-721124",PASCHIM MEDINIPUR,BALICHAK,WEST BENGAL,244241
302,THE WEST BENGAL STATE COOPERATIVE BANK,WBSC0VCCB05,EGRA,"P.O - EGRA, DIST.-PURBA MEDINIPUR, PIN-721429",PURBA MEDINIPUR,EGRA,WEST BENGAL,244232
303,THE WEST BENGAL STATE COOPERATIVE BANK,WBSC0VCCB06,GARHBETA,"P.O - GARHBETA, DIST.-PASCHIM MEDINIPUR, PIN-721127",PASCHIM MEDINIPUR,GARHBETA,WEST BENGAL,265057
304,THE WEST BENGAL STATE COOPERATIVE BANK,WBSC0VCCB07,KESHIARY,"P.O - KESHIARY, DIST.-PASCHIM MEDINIPUR, PIN-721133",PASCHIM MEDINIPUR,KESHIARY,WEST BENGAL,252227
305,THE WEST BENGAL STATE COOPERATIVE BANK,WBSC0VCCB08,KESHPUR,"P.O - KESHPUR, DIST.-PASCHIM MEDINIPUR, PIN-721150",PASCHIM MEDINIPUR,KESHPUR,WEST BENGAL,250236
306,THE WEST BENGAL STATE COOPERATIVE BANK,WBSC0VCCB09,SABONG,"P.O - SABANG, DIST.-PASCHIM MEDINIPUR, PIN-721144",PASCHIM MEDINIPUR,SABONG,WEST BENGAL,249223
307,THE WEST BENGAL STATE COOPERATIVE BANK,WBSC0VCCB10,GOPIBALLAVPUR,"P.O - GOPIBALLAVPUR, DIST.-PASCHIM MEDINIPUR, PIN-721506",PASCHIM MEDINIPUR,GOPIBALLAVPUR,WEST BENGAL,266236
308,THE WEST BENGAL STATE COOPERATIVE BANK,WBSC0VCCB11,PRATAPDIGHI,"P.O - PRATAPDIGHI, DIST.-PURBA MEDINIPUR, PIN-721440",PURBA MEDINIPUR,PRATAPDIGHI,WEST BENGAL,246222
309,THE WEST BENGAL STATE COOPERATIVE BANK,WBSC0VCCB12,GIDHNI,"P.O - GIDHNI, DIST.-PASCHIM MEDINIPUR, PIN-721505",PASCHIM MEDINIPUR,GIDHNI,WEST BENGAL,268239
310,THE WEST BENGAL STATE COOPERATIVE BANK,WBSC0VCCB13,DANTAN,"P.O - DANTAN, DIST.-PASCHIM MEDINIPUR, PIN-721426",PASCHIM MEDINIPUR,DANTAN,WEST BENGAL,253235
311,THE WEST BENGAL STATE COOPERATIVE BANK,WBSC0VCCB14,BELIABERAH,"P.O - BELIABERAH, DIST.-PASCHIM MEDINIPUR, PIN-721517",PASCHIM MEDINIPUR,BELIABERAH,WEST BENGAL,261258
312,THE WEST BENGAL STATE COOPERATIVE BANK,WBSC0VCCB15,MOHANPUR,"P.O - MOHANPUR, DIST.-PASCHIM MEDINIPUR, PIN-721436",PASCHIM MEDINIPUR,MOHANPUR,WEST BENGAL,232227
313,THE WEST BENGAL STATE COOPERATIVE BANK,WBSC0VCCB16,GOALTORE,"P.O - GOALTORE, DIST.-PASCHIM MEDINIPUR, PIN-721228",PASCHIM MEDINIPUR,GOALTORE,WEST BENGAL,288222
314,THE WEST BENGAL STATE COOPERATIVE BANK,WBSC0VCCB17,HOOMGARH,"P.O - HOOMGARH, DIST.-PASCHIM MEDINIPUR, PIN-721157",PASCHIM MEDINIPUR,HOOMGARH,WEST BENGAL,284224
315,THE WEST BENGAL STATE COOPERATIVE BANK,WBSC0VCCB18,MONGLAMARO,"P.O - MANGLAMARO, DIST.-PURBA MEDINIPUR, PIN-721434",PURBA MEDINIPUR,MONGLAMARO,WEST BENGAL,249223
316,THE WEST BENGAL STATE COOPERATIVE BANK,WBSC0VCCB19,CHANDRAKONA ROAD,"AT- CHANDRAKONA, P.O - SATBANKURA, DIST.-PASCHIM MEDINIPUR, PIN-721253",PASCHIM MEDINIPUR,CHANDRAKONA ROAD,WEST BENGAL,282234
317,THE WEST BENGAL STATE COOPERATIVE BANK,WBSC0VCCB20,BELDA,"P.O - BELDA, DIST.-PASCHIM MEDINIPUR, PIN-721424",PASCHIM MEDINIPUR,BELDA,WEST BENGAL,255248
318,THE WEST BENGAL STATE COOPERATIVE BANK,WBSC0VCCB21,CONTAI,"P.O -CONTAI, DIST.-PURBA MEDINIPUR, PIN-721401",PURBA MEDINIPUR,CONTAI,WEST BENGAL,255211
319,THE WEST BENGAL STATE COOPERATIVE BANK,WBSC0VCCB22,BELPAHARI,"P.O - BELPAHARI, DIST.-PASCHIM MEDINIPUR, PIN-721501",PASCHIM MEDINIPUR,BELPAHARI,WEST BENGAL,253205
320,THE WEST BENGAL STATE COOPERATIVE BANK,WBSC0VCCB23,BALIGERIA,"P.O - BALIGERIA, DIST.-PASCHIM MEDINIPUR, PIN-721125",PASCHIM MEDINIPUR,BALIGERIA,WEST BENGAL,267367
321,THE WEST BENGAL STATE COOPERATIVE BANK,WBSC0VCCB24,LALGARH,"P.O - LALGARH, DIST.-PASCHIM MEDINIPUR, PIN-721516",PASCHIM MEDINIPUR,LALGARH,WEST BENGAL,263287
322,THE WEST BENGAL STATE COOPERATIVE BANK,WBSC0VCCB25,ROHINI,"P.O - ROHINI, DIST.-PASCHIM MEDINIPUR, PIN-721143",PASCHIM MEDINIPUR,ROHINI,WEST BENGAL,268312
323,THE WEST BENGAL STATE COOPERATIVE BANK,WBSC0VCCB26,PINGLA,"P.O - PINGLA, DIST.-PASCHIM MEDINIPUR, PIN-721140",PASCHIM MEDINIPUR,PINGLA,WEST BENGAL,238541
324,THE WEST BENGAL STATE COOPERATIVE BANK,WBSC0VCCB27,NARAYANGARH,"P.O - NARAYANGARH, DIST.-PASCHIM MEDINIPUR, PIN-721437",PASCHIM MEDINIPUR,NARAYANGARH,WEST BENGAL,258227
325,THE WEST BENGAL STATE COOPERATIVE BANK,WBSC0VCCB28,PIRAKATA,"P.O - PIRAKATA, DIST.-PASCHIM MEDINIPUR, PIN-721516",PASCHIM MEDINIPUR,PIRAKATA,WEST BENGAL,284546
326,THE WEST BENGAL STATE COOPERATIVE BANK,WBSC0VCCB29,PANIPARUL,"P.O - PANIPARUL, DIST.-PURBA MEDINIPUR, PIN-721448",PURBA MEDINIPUR,PANIPARUL,WEST BENGAL,261223
327,THE WEST BENGAL STATE COOPERATIVE BANK,WBSC0VCCB30,SALBONI,"P.O - SALBONI, DIST.-PASCHIM MEDINIPUR, PIN-721147",PASCHIM MEDINIPUR,SALBONI,WEST BENGAL,285255
328,THE WEST BENGAL STATE COOPERATIVE BANK,WBSC0VCCB31,SILDA,"P.O - SILDA, DIST.-PASCHIM MEDINIPUR, PIN-721515",PASCHIM MEDINIPUR,SILDA,WEST BENGAL,252245
329,THE WEST BENGAL STATE COOPERATIVE BANK,WBSC0VCCB32,GOLGRAM,"P.O - GOLGRAM, DIST.-PASCHIM MEDINIPUR, PIN-721136",PASCHIM MEDINIPUR,GOLGRAM,WEST BENGAL,240488
330,THE WEST BENGAL STATE COOPERATIVE BANK,WBSC0VCCB33,MALANCHA ROAD,"AT-KHARIDA, P.O - KHARAGPUR, DIST.-PASCHIM MEDINIPUR, PIN-721301",PASCHIM MEDINIPUR,MALANCHA,WEST BENGAL,253140
331,THE WEST BENGAL STATE COOPERATIVE BANK,WBSC0VCCB34,MIDNAPORE EVENING,"AT- CHHOTOBAZAR, P.O - MIDNAPUR, DIST.-PASCHIM MEDINIPUR, PIN-721101",PASCHIM MEDINIPUR,MIDNAPORE,WEST BENGAL,274884
332,THE WEST BENGAL STATE COOPERATIVE BANK,WBSC0VCCB35,KHAKURDA,"P.O - KHAKURDA, DIST.-PASCHIM MEDINIPUR, PIN-721445",PASCHIM MEDINIPUR,KHAKURDA,WEST BENGAL,259545
333,THE WEST BENGAL STATE COOPERATIVE BANK,WBSC0VCCB36,SAUTIA,"P.O - SAUTIA, DIST.-PASCHIM MEDINIPUR, PIN-721457",PASCHIM MEDINIPUR,SAUTIA,WEST BENGAL,251251
334,THE WEST BENGAL STATE COOPERATIVE BANK,WBSC0VCCB37,CHAKRASUL,"P.O - CHAKRASUL, DIST.-PURBA MEDINIPUR, PIN-721456",PURBA MEDINIPUR,CHAKRASUL,WEST BENGAL,277007
335,THE WEST BENGAL STATE COOPERATIVE BANK,WBSC0VCCB38,JHARGRAM EVENING,"P.O - JHARGRAM, DIST.-PASCHIM MEDINIPUR, PIN-721507",PASCHIM MEDINIPUR,JHARGRAM,WEST BENGAL,259741
336,THE WEST BENGAL STATE COOPERATIVE BANK,WBSC0VCCB39,MIDNAPORE,"AT- CHOTOBAZAR, P.O - MIDNAPUR, DIST.-PASCHIM MEDINIPUR, PIN-721101",PASCHIM MEDINIPUR,MIDNAPORE,WEST BENGAL,275744
