,BANK NAME,IFSC,OFFICE,ADDRESS,DISTRICT,CITY,STATE,PHONE
0,EQUITAS SMALL FINANCE BANK LIMITED,ESFB0000002,EQUITAS TREASURY,"NO 769,PHASE II,4TH FLOOR,SPENCER PLAZA,ANNA SALAI,CHENNAI-600002",CHENNAI,CHENNAI,TAMIL NADU,30898017
1,EQUITAS SMALL FINANCE BANK LIMITED,ESFB0001001,T NAGAR CHENNAI,"BHAGGYAM GALLERIA,OLD NO.80 / NEW.NO.18 BAZULLA ROAD,T-NAGAR,CHENNAI-600018",CHENNAI,CHENNAI,TAMIL NADU,30898017
2,EQUITAS SMALL FINANCE BANK LIMITED,ESFB0001002,ANNA NAGAR,"O-AH2,AH4,4THAVENUE,FIRSTFLOOR,SHANTHICOLONYMAINROAD,ANNAAGAR-CHENNAI600040,TAMILADU",CHENNAI,CHENNAI,TAMIL NADU,30898015
3,EQUITAS SMALL FINANCE BANK LIMITED,ESFB0001003,ASHOK NAGAR,"NO 82,4TH AVENUE,ASHOK NAGAR - CHENNAI 600083,TAMILNADU",CHENNAI,CHENNAI,TAMIL NADU,30898017
4,EQUITAS SMALL FINANCE BANK LIMITED,ESFB0001004,VELACHERY,"NO-9/71,8TH AVENUE,7TH MAIN ROAD,DHANDEESWAR NAGAR EXTENSION,VELACHERRY,CHENNAI-600 042,TAMIL NADU",CHENNAI,CHENNAI,TAMIL NADU,30898015
5,EQUITAS SMALL FINANCE BANK LIMITED,ESFB0001005,PONDICHERRY,"NO -4&5,VALLAR SALAI,45 FEET ROAD,PONDICHERRY -605011",PONDICHERRY,PONDICHERRY,PUDUCHERRY,30898015
6,EQUITAS SMALL FINANCE BANK LIMITED,ESFB0001006,TAMBARAM,"NO-128,RAJAJI ROAD,TAMBARAM WEST,CHENNAI -45",CHENNAI,CHENNAI,TAMIL NADU,30898017
7,EQUITAS SMALL FINANCE BANK LIMITED,ESFB0001007,KAMARAJAR SALAI MADURAI,"T S NO 1O& 14,NO 220,KAMARAJAR SALAI,MUNICHALAI,MADURAI 625009",MADURAI,MADURAI,TAMIL NADU,30898015
8,EQUITAS SMALL FINANCE BANK LIMITED,ESFB0001008,PALLADAM RURAL,"NO - 8/442,ARULPURAM PO,KARAIPUDHUR VILLAGE,PALLADAM TK,TRIPPUR - 641605,TAMIL NADU",COIMBATORE,COIMBATORE,TAMIL NADU,30898017
9,EQUITAS SMALL FINANCE BANK LIMITED,ESFB0001009,R S PURAM COIMBATORE,"NO - 7-1 AROKIASAMY ROAD EAST,R S PURAM,COIMBATORE-641002",COIMBATORE,COIMBATORE,TAMIL NADU,30898015
10,EQUITAS SMALL FINANCE BANK LIMITED,ESFB0001010,SATHYAMANGALAM,"NO 335,BAZZAR STREET,SATHYAMANGALAM,ERODE-638401",ERODE,ERODE,TAMIL NADU,30898015
11,EQUITAS SMALL FINANCE BANK LIMITED,ESFB0001011,PARAMATHI VELUR NAMAKKAL,"NO - 74F,PONNI NAGAR,OPP SARATHY TVS,PARAMATHI VELUR,NAMAKKAL -638181",AE,SALEM,TAMIL NADU,30898015
12,EQUITAS SMALL FINANCE BANK LIMITED,ESFB0001012,THILAK NAGAR TIRUNELVELI,"NO - 9L/10/1,THATCHANALLURROAD,THILAK NAGAR,TIRUNELVELI -627006,TAMIL NADU",IUVI,TIRUNELVELI,TAMIL NADU,30898015
13,EQUITAS SMALL FINANCE BANK LIMITED,ESFB0001013,RAJAPALAYAM,"NO - 598,TENKASI ROAD,RAJAPALAYAM,PINCODE -626117",VIRUDUNAGAR,VIRUDUNAGAR,TAMIL NADU,30898015
14,EQUITAS SMALL FINANCE BANK LIMITED,ESFB0001014,VIRUDHUNAGAR,"NO -103/1,MADURAI ROAD,VIRUDHUNAGAR,626001 TAMIL NADU",VIRUDUNAGAR,VIRUDUNAGAR,TAMIL NADU,30898015
15,EQUITAS SMALL FINANCE BANK LIMITED,ESFB0001015,DINDIGUL MAIN,"NO - 94,THIRUVALLUVAR SALAI,DINDUGAL 624001,TAMILNADU",DINDIGUL,DINDIGUL,TAMIL NADU,30898015
16,EQUITAS SMALL FINANCE BANK LIMITED,ESFB0001016,PUDUKOTTAI,"Muthu Meena Complex,Santhanapuram 5Th Street,Near New Bus Stand,Pudukottai-622 001.",PUDUKOTTAI,PUDUKOTTAI,TAMIL NADU,30898015
17,EQUITAS SMALL FINANCE BANK LIMITED,ESFB0001017,THILLAI NAGAR TRICHY,"OLD NO -C55,NEW NO -C 15,ANANDAMS PLAZA,THILLAI NAGAR,10TH B CROSS,TRICHY,620018 TAMIL NADU",TRICHY,TRICHY,TAMIL NADU,30898015
18,EQUITAS SMALL FINANCE BANK LIMITED,ESFB0001018,SRIRANGAM TRICHY,"NO - 14,G-1,EVS STREET,RENGANATHAPURAM,SRIRANGAM,TRICHY - 620006,TAMIL NADU",TRICHY,TRICHY,TAMIL NADU,30898017
19,EQUITAS SMALL FINANCE BANK LIMITED,ESFB0001019,THANJAVUR,"NO -1889,SOUTH MAIN STREET,THANJAVUR -613 001",TANJAVUR,TANJAVUR,TAMIL NADU,30898017
20,EQUITAS SMALL FINANCE BANK LIMITED,ESFB0001020,KUMBAKONAM,"No 106,Sarangapani East Street,Kumbakonam-612 001.",TANJAVUR,TANJAVUR,TAMIL NADU,30898017
21,EQUITAS SMALL FINANCE BANK LIMITED,ESFB0001021,MANJAKUPPAM CUDDALORE,"No 13A, Nethaji Road, Manjakuppam, Cuddalore - 607001, Tamil Nadu.",CUDDALORE,CUDDALORE,TAMIL NADU,30898015
22,EQUITAS SMALL FINANCE BANK LIMITED,ESFB0001022,MADIBAKKAM,"NO -246,MADIPAKKAM MAIN ROAD,MADIPAKKAM,CHENNAI -91,TAMIL NADU",CHENNAI,CHENNAI,TAMIL NADU,30898017
23,EQUITAS SMALL FINANCE BANK LIMITED,ESFB0001023,"KATPADI ROAD, VELLORE TOWN","NO 1,BLOCK NO 5,KATPADI ROAD,DHARMARAJA KOVIL STREET,VELLORE TOWN,VELLORE DISTRICT,TAMILNADU",VELLORE,VELLORE,TAMIL NADU,30898017
24,EQUITAS SMALL FINANCE BANK LIMITED,ESFB0001024,SALIGRAMAM,"OLD DOOR NO.25 PART,NEW DOOR NO.34 PART,S.S.R.PANKAJAM ROAD,SALIGRAMAM VILLAGE,CHENNAI-600093",CHENNAI,CHENNAI,TAMIL NADU,30898015
25,EQUITAS SMALL FINANCE BANK LIMITED,ESFB0001025,MOGAPPAIR,"PLOT NO.4/7,HIG TYPE,FIRST FLOOR,MOGAPPAIR WEST,NOLAMBUR,CHENNAI - 600037,TAMIL NADU",TIRUVALLUR,TIRUVALLUR,TAMIL NADU,30898017
26,EQUITAS SMALL FINANCE BANK LIMITED,ESFB0001026,"GANDHIPURAM,COIMBATORE","SRI SHANMUGAA TOWERS,NO 51,9TH STREET,TATABAD,GANDHIPURAM,COIMBATORE-641012",COIMBATORE,COIMBATORE,TAMIL NADU,30898015
27,EQUITAS SMALL FINANCE BANK LIMITED,ESFB0001027,NANGANALLUR,"NO.14,THILLAIGANGA NAGAR,26TH STREET,NANGANALLUR,CHENNAI-600061,TAMILNADU",KANCHIPURAM,KANCHIPURAM,TAMIL NADU,30898015
28,EQUITAS SMALL FINANCE BANK LIMITED,ESFB0001028,"K K NAGAR, MADURAI","80 FEET ROAD,K.K.NAGAR,MADURAI-20,TAMIL NADU",MADURAI,MADURAI,TAMIL NADU,30898015
29,EQUITAS SMALL FINANCE BANK LIMITED,ESFB0001029,"TRICHY ROAD, COIMBATORE","J.S EMPIRE,DOOR NO 1417,TRICHY ROAD,COIMBATORE - 641018",COIMBATORE,COIMBATORE,TAMIL NADU,30898015
30,EQUITAS SMALL FINANCE BANK LIMITED,ESFB0001030,ANAIKARAI,"NO 254,THATHUVACHERY MAIN ROAD,THATHUVACHERY( PO),ANAKARAI -THANJAVUR -612 502",TANJAVUR,TANJAVUR,TAMIL NADU,30898015
31,EQUITAS SMALL FINANCE BANK LIMITED,ESFB0001031,"KESAVAPURAM, NALLUR","NO-4,KALAINGAR NAGAR,KESAVAPURAM,NALUR,MINJUR ( PO),PONNERI TALUK,601203",TIRUVALLUR,TIRUVALLUR,TAMIL NADU,30898015
32,EQUITAS SMALL FINANCE BANK LIMITED,ESFB0001032,"KRISHNAPURAM, PONNERI","Old S.No.79/2, New S.No.393/6, Krishnapuram Village, Ponneri Taluk, Thiruvallur District, Tamilnadu",TIRUVALLUR,TIRUVALLUR,TAMIL NADU,30898015
33,EQUITAS SMALL FINANCE BANK LIMITED,ESFB0001033,CHINNAVALYAM,"MALAYSAIA AMMAN TOWERS,28A CHIDAMBARAM ROAD,CHINNAVALAYAM,JAYAMKONDAN - 621802",ARIYALUR,ARIYALUR,TAMIL NADU,30898015
34,EQUITAS SMALL FINANCE BANK LIMITED,ESFB0001034,SIRUGAMANI,"NO -71 C 2, KARUR MAIN RIAD, PETTAVAITHALAI SOUTH -SIRUGAMANI-TRICHY -639112.",TRICHY,TRICHY,TAMIL NADU,30898017
35,EQUITAS SMALL FINANCE BANK LIMITED,ESFB0001035,KOVILPALKAYAM,"NO -2/21,SATHY MAIN ROAD,KOVILPALAIYAM,COIMBATORE -641107,TAMILNADU",COIMBATORE,COIMBATORE,TAMIL NADU,30898015
36,EQUITAS SMALL FINANCE BANK LIMITED,ESFB0001036,"KEEZHAYUR, MADURAI","DOOR NO -2/1,KEEZHAYUR,MELUR,MADURAI 625102,TAMIL NADU",MADURAI,MADURAI,TAMIL NADU,30898015
37,EQUITAS SMALL FINANCE BANK LIMITED,ESFB0001037,KOOTHANDAM,"PLOT NO.7,ALAGAPURI VILLAGE,KOOTHANDAM,SIVAGANGAI TALUK,SIVAGANGAI DISTRICT,TAMIL NADU",SIVAGANGAI,SIVAGANGAI,TAMIL NADU,30898017
38,EQUITAS SMALL FINANCE BANK LIMITED,ESFB0001038,VALAYAPETTAI,"NO - 110/ 5& 110/ 6,BYE PASS ROAD,WEST STREET,VALAYAPATTI VILLAGE,MANGUDI -KUMBAKONAM TK -612 702",TANJAVUR,TANJAVUR,TAMIL NADU,30898015
39,EQUITAS SMALL FINANCE BANK LIMITED,ESFB0001039,NAGANAPATTI,"O-10/1,KSCOMPLEX,VEDACHANDURROAD,CHECKPOST,AGANAPATTYPIRIVU,ODDANCHATTARM,DINDUGALDIST-624619,TAMILADU",DINDIGUL,DINDIGUL,TAMIL NADU,30898015
40,EQUITAS SMALL FINANCE BANK LIMITED,ESFB0001040,NARASINGAMPETTAI,"NO -37/ 6,7,8,9,MAYILADUTHURAI MAIN ROAD,NARASINGAMPETTAI ( PO).ADUTHURAI 612101,TAMIL NADU",TANJAVUR,TANJAVUR,TAMIL NADU,30898015
41,EQUITAS SMALL FINANCE BANK LIMITED,ESFB0001041,PERUMAL MALAI ADIVARAM,"NO 30,CYLONE OFFICE,PERUMAL MALAI ADIVARAM PO.THURAIYUR -621010. ( NEAR LM HOSPITAL ),TAMIL NADU",TRICHY,TRICHY,TAMIL NADU,30898015
42,EQUITAS SMALL FINANCE BANK LIMITED,ESFB0001042,RAJAKKAPATTI,"S.NO.515,NEW S.NO.1006/5,RAJAKKAPATTI VILLAGE,SANARPATTI SUBDI PANCHAYAT,DINDUGAL DT -624316,TAMIL NADU",DINDIGUL,DINDIGUL,TAMIL NADU,30898017
43,EQUITAS SMALL FINANCE BANK LIMITED,ESFB0001043,RAMARAJAPURAM,"NO -3/2,MAIN ROAD,RAMARAJAPURAM,DINDIGUL-624219,TAMIL NADU",MADURAI,MADURAI,TAMIL NADU,30898017
44,EQUITAS SMALL FINANCE BANK LIMITED,ESFB0001044,"KAZURA GARDEN,TIRUKKOYILUR","SM BUILDING,KAZURA GARDEN,THIRUKOVILUR -605757",VILLUPURAM,VILLUPURAM,TAMIL NADU,30898017
45,EQUITAS SMALL FINANCE BANK LIMITED,ESFB0001045,SRINIVASANALLUR,"NO-68,TRICHY MAIN ROAD,SRINIVASANALLUR,THOTTIYAM -621 215,TAMILNADU.",TRICHY,TRICHY,TAMIL NADU,30898017
46,EQUITAS SMALL FINANCE BANK LIMITED,ESFB0001046,THANAKKANKULAM,"PLOT N0 -48(P),49(P),ASTALAKSHMI NAGAR,MULLAI NAGAR BUS STOP,OPP ANNS CARE CENTRE,THANAKKANKULAM,MADURAI 625006,TAMIL NADU",MADURAI,MADURAI,TAMIL NADU,30898015
47,EQUITAS SMALL FINANCE BANK LIMITED,ESFB0001047,THERVAZHI,"NO - 682/1B,THERVAZHI VILLAGE,GUMMIDIPOONDI TK,THIRUVALLUR DIST,TAMIL NADU",TIRUVALLUR,TIRUVALLUR,TAMIL NADU,30898015
48,EQUITAS SMALL FINANCE BANK LIMITED,ESFB0001048,THOTTAPPANAYAKKANUR,"DOOR NO 1/354,MAIN ROAD EAST STREET,THOTTAPPANAYAKKANUR ( P),USILAMPETTI ( TK),MADURAI 625532",MADURAI,MADURAI,TAMIL NADU,30898015
49,EQUITAS SMALL FINANCE BANK LIMITED,ESFB0001049,NELLIKUPPAM,"NO-502,503-NELLIKUPPAM MAIN ROAD,NELLIKUPPAM 607105",CUDDALORE,CUDDALORE,TAMIL NADU,30898017
50,EQUITAS SMALL FINANCE BANK LIMITED,ESFB0001050,SENATHIPALAYAM,"KONGU NAGAR,MUHUR ROAD,SENATHIPALAYAM VILLGE,VELLAKOIL - 638111,TAMIL NADU",ERODE,ERODE,TAMIL NADU,30898015
51,EQUITAS SMALL FINANCE BANK LIMITED,ESFB0001051,VASAVAPPAPURAM,"NO 1/139,TUTICORIN MAIN ROAD,VASAVAPPAPURAM,TUTICORIN -628252,TAMIL NADU",IUVI,TIRUNELVELI,TAMIL NADU,30898015
52,EQUITAS SMALL FINANCE BANK LIMITED,ESFB0001052,BATLAGUNDU,"NO -60 A,NAGALPURAM,NEAR VETERINARY HOSPITAL,MADURAI MAIN ROAD,BATLAGUNDU -624202,TAMIL NADU",DINDIGUL,DINDIGUL,TAMIL NADU,30898017
53,EQUITAS SMALL FINANCE BANK LIMITED,ESFB0001053,CHENGALPATTU,"OLD NO - 46,NEW NO - 11,DOCTOR VARADHARAJAN STREET,VEDHACHALAM NAGAR,CHENGALPATTU-603001,TAMIL NADU",KANCHIPURAM,KANCHIPURAM,TAMIL NADU,30898015
54,EQUITAS SMALL FINANCE BANK LIMITED,ESFB0001054,GUDIYATHAM,"NO 4,5,6&7,ARJUNA MUDALI STREET,CHUNNAMBUPET,NEAR OLD BUSSTAND,GUDIYATTAM-632602",VELLORE,VELLORE,TAMIL NADU,30898015
55,EQUITAS SMALL FINANCE BANK LIMITED,ESFB0001055,"N P ROAD, KARUR","NO.6,NEW NO.17,N.P.ROAD,M.G.M BUILDING,KARUR - 639001",KARUR,KARUR,TAMIL NADU,30898015
56,EQUITAS SMALL FINANCE BANK LIMITED,ESFB0001056,KATTUMANNARKOIL,"NO-258,KACHERY STREET,KATTUMANAR KOVIL,CHIDAMBARAM,TAMILNADU",CUDDALORE,CUDDALORE,TAMIL NADU,30898015
57,EQUITAS SMALL FINANCE BANK LIMITED,ESFB0001057,KOVILPATTI,"OLD NO -59,NEW NO -113,PUDHUROAD,KOVILPATTY,TAMIL NADU",TUTICORIN,TUTICORIN,TAMIL NADU,30898015
58,EQUITAS SMALL FINANCE BANK LIMITED,ESFB0001058,LALGUDI,"NO 46,MRV NAGAR,POOVALUR ROAD,LALGUDI,TRICHY-621220",TRICHY,TRICHY,TAMIL NADU,30898015
59,EQUITAS SMALL FINANCE BANK LIMITED,ESFB0001059,MAYILADUTHURAI,"NO-15,MAYURANATHAN STREET,WEST STREET,MAYILADUTHURAI - 609003,TAMILNADU",NAGAPATTINAM,NAGAPATTINAM,TAMIL NADU,30898015
60,EQUITAS SMALL FINANCE BANK LIMITED,ESFB0001060,MUSIRI,"BYE PASS ROAD,OPPOSITE TO BUS STAND,MUSIRI,TRICHY",TRICHY,TRICHY,TAMIL NADU,30898015
61,EQUITAS SMALL FINANCE BANK LIMITED,ESFB0001061,PALANI,"DINDIGUL ROAD,NEAR BY CTC DEPO,OPP VASANTHA BHAVAN HOTEL,PALANI,TAMIL NADU",DINDIGUL,DINDIGUL,TAMIL NADU,30898015
62,EQUITAS SMALL FINANCE BANK LIMITED,ESFB0001062,PERAMBALUR,"SUGAM DENTAL CLINIC,PLOT NO 14,VENKATESA PURAM,TRICHY MAIN ROAD,PERAMBALUR - 621212",PERUMBALUR,PERUMBALUR,TAMIL NADU,30898015
63,EQUITAS SMALL FINANCE BANK LIMITED,ESFB0001063,KATTUPAKKAM,"NO - 48A,P.H ROAD,KUMANANCHAVADY SIGNAL,SEENEERKUPPAM,NEAR EVP KALYANA MANDAPAM,POONAMALLE,KATTUPAKKAM - 600056,TAMIL NADU",TIRUVALLUR,TIRUVALLUR,TAMIL NADU,30898015
64,EQUITAS SMALL FINANCE BANK LIMITED,ESFB0001064,VIRUGAMBAKKAM,"OLD NO-14/4 NEW NO 47,FIRST FLOOR,ARCOT ROAD,VIRUGAMBAKKAM,PORUR,CHENNAI",CHENNAI,CHENNAI,TAMIL NADU,30898015
65,EQUITAS SMALL FINANCE BANK LIMITED,ESFB0001065,RANIPET,"NO-9A,M.F.ROAD,RANIPET,MUNICIPAL LIMIT,VELLORE DIST,TAMIL NADU",VELLORE,VELLORE,TAMIL NADU,30898015
66,EQUITAS SMALL FINANCE BANK LIMITED,ESFB0001066,RASIPURAM,"NO - 22,ARS RESIDENCY,PATTANAM MAIN ROAD,RASIPURAM 637408",SALEM,SALEM,TAMIL NADU,30898015
67,EQUITAS SMALL FINANCE BANK LIMITED,ESFB0001067,SANKARANKOVIL,"NO.215 THIRUVENKADAM ROAD,SANKARANKOVIL-627756",IUVI,TIRUNELVELI,TAMIL NADU,30898015
68,EQUITAS SMALL FINANCE BANK LIMITED,ESFB0001068,SIRKALI,"NO-25/B,KATCHERY ROAD,SIRKALI-609110,TAMIL NADU",NAGAPATTINAM,NAGAPATTINAM,TAMIL NADU,30898017
69,EQUITAS SMALL FINANCE BANK LIMITED,ESFB0001069,SIVAKASI,"NO -20&21,VELAYUTHAM ROAD,SIVAKASI - 626123,TAMIL NADU",VIRUDUNAGAR,VIRUDUNAGAR,TAMIL NADU,30898017
70,EQUITAS SMALL FINANCE BANK LIMITED,ESFB0001070,TENKASI,"NO.45,PERUMAL KOVIL STREET,TENKASI-627811",IUVI,TIRUNELVELI,TAMIL NADU,30898017
71,EQUITAS SMALL FINANCE BANK LIMITED,ESFB0001071,THENI,"NO -1287,KNY COMPLEX,GROUND FLOOR,THENI PERIYAKULAM MAIN ROAD,THENI,TAMIL NADU",THENI,THENI,TAMIL NADU,30898015
72,EQUITAS SMALL FINANCE BANK LIMITED,ESFB0001072,TINDIVANAM,"NO-21,NEW MOSQUE STREET,NEAR RAMADOSS CLINIC,TINDIVANAM - 604001,TAMIL NADU",VILLUPURAM,VILLUPURAM,TAMIL NADU,30898015
73,EQUITAS SMALL FINANCE BANK LIMITED,ESFB0001073,"THIRUMANGALAM,MADURAI","NO -23/6,WARD NO 7,DOOR NO -693,MADURAI ROAD,THIRUMANGALAM,MADURAI",MADURAI,MADURAI,TAMIL NADU,30898017
74,EQUITAS SMALL FINANCE BANK LIMITED,ESFB0001074,THIRUVALLUR,"NO-3676,KAKALUR BY PASS ROAD,THIRUVALLUR,602001",TIRUVALLUR,TIRUVALLUR,TAMIL NADU,30898015
75,EQUITAS SMALL FINANCE BANK LIMITED,ESFB0001075,VILLUPURAM,"Raja Timbers Building, 30/132 K.K Road, Villupuram - 605602, Tamil Nadu.",VILLUPURAM,VILLUPURAM,TAMIL NADU,30898015
76,EQUITAS SMALL FINANCE BANK LIMITED,ESFB0001076,VIRUDHACHALAM,"NO.166 A JUNCTION ROAD,VIRUDHACHALAM - 606001,TAMIL NADU",CUDDALORE,CUDDALORE,TAMIL NADU,30898015
77,EQUITAS SMALL FINANCE BANK LIMITED,ESFB0001077,CHIDAMBARAM,"O No 57, New no ┬û 140, East car street, Chidambaram, Cudalore district, Pin 608001.",CUDDALORE,CUDDALORE,TAMIL NADU,30898015
78,EQUITAS SMALL FINANCE BANK LIMITED,ESFB0001078,CHROMEPET,"NO - 10 A& B SONA TOWERS,RAJENDRA PRASAD ROAD,HASTHINAPURAM,CHROMPET,CHENNAI-600044,TAMILNADU",CHENNAI,CHENNAI,TAMIL NADU,30898015
79,EQUITAS SMALL FINANCE BANK LIMITED,ESFB0001079,ARIYALUR,"NO -119 B,1ST FLOOR,ACANARA BANK UPSTAIRS,HOSPITAL ROAD,ARIYALUR -621704,TAMIL NADU",ARIYALUR,ARIYALUR,TAMIL NADU,30898017
80,EQUITAS SMALL FINANCE BANK LIMITED,ESFB0001080,VALLIOOR,"OPPOSITE RAJESH TYRES,VALLIOOR MAIN ROAD,VALLIOOR - 627117",IUVI,TIRUNELVELI,TAMIL NADU,30898015
81,EQUITAS SMALL FINANCE BANK LIMITED,ESFB0001081,"A.P.T ROAD, ERODE","NO 16/930,A.P.T ROAD,1ST FLOOR,PARK ROAD-SATHY ROAD JUNCTION,ERODE - 638003",ERODE,ERODE,TAMIL NADU,30898015
82,EQUITAS SMALL FINANCE BANK LIMITED,ESFB0001082,AMBATTUR,"NO 2,VADIVEL MUDALI STREET,VENKATAPURAM,AMBATTUR,CHENNAI -600 053,TAMIL NADU",CHENNAI,CHENNAI,TAMIL NADU,30898015
83,EQUITAS SMALL FINANCE BANK LIMITED,ESFB0001083,AMBUR,"OLD S NO.94/4,WARD D,BLOCK 4,MELKRISHNAPURAM VILLAGE,AMBUR MUNICIPAL TOWN LIMIT,VELLORE DIST,TAMIL NADU",VELLORE,VELLORE,TAMIL NADU,30898015
84,EQUITAS SMALL FINANCE BANK LIMITED,ESFB0001084,"KATTUR, TRICHY","SAKUNTHALA TOWERS,PLOT NO 4,GANESH NAGAR,TANJORE MAIN ROAD,KATTUR,TRICHY 6200 19",TRICHY,TRICHY,TAMIL NADU,30898015
85,EQUITAS SMALL FINANCE BANK LIMITED,ESFB0001085,KANCHIPURAM,"KBJ,GEETHA TOWERS,NO 131/53,KAMARAJAR ROAD,KANCHEEPURAM,TAMILNADU",KANCHIPURAM,KANCHIPURAM,TAMIL NADU,30898015
86,EQUITAS SMALL FINANCE BANK LIMITED,ESFB0001086,KARIKUDI,"NO - 13/3,GREEN ROAD,KARAIKUDI - 630001,TAMIL NADU",SIVAGANGAI,SIVAGANGAI,TAMIL NADU,30898015
87,EQUITAS SMALL FINANCE BANK LIMITED,ESFB0001087,THIRUVANNAMALAI,"NO 78,SANNATHI STREET,THIRUVANNAMALAI -606601",THIRUVANAMALAI,THIRUVANAMALAI,TAMIL NADU,30898015
88,EQUITAS SMALL FINANCE BANK LIMITED,ESFB0001088,TUTICORIN,"NO -1C,VVD ROAD,TUTICORIN,TAMIL NADU - 628003",TUTICORIN,TUTICORIN,TAMIL NADU,30898015
89,EQUITAS SMALL FINANCE BANK LIMITED,ESFB0001089,NAGAPATTINAM,"NO - 80,NEELA NORTH STREET,NAGAPATINAM -611 001,TAMIL NADU",NAGAPATTINAM,NAGAPATTINAM,TAMIL NADU,30898017
90,EQUITAS SMALL FINANCE BANK LIMITED,ESFB0001090,NAGERCOIL,"NO -33/1 - D,RAJAKAMANGALAM ROAD,RAMANPUTHUR,NAGERCOIL -629002,TAMILNADU",KANYAKUMARI,KANYAKUMARI,TAMIL NADU,30898015
91,EQUITAS SMALL FINANCE BANK LIMITED,ESFB0001091,"RAMAKRISHAN ROAD, SALEM","VARALAKSHMI ORCHID,103/1,GROUND FLOOR,RAMAKRISHNA ROAD,SALEM-636007,TAMILNADU",AE,SALEM,TAMIL NADU,30898015
92,EQUITAS SMALL FINANCE BANK LIMITED,ESFB0001092,PARRYS,"DOOR NO1/2,1/3 FRANCIS JOSEPH ST,GEORGE TOWN,PARRYSCHENNAI-1",CHENNAI,CHENNAI,TAMIL NADU,30898015
93,EQUITAS SMALL FINANCE BANK LIMITED,ESFB0001093,THITUKATTUPALLI,"THIRUKKATUPALLI MAIN ROAD,FOUR ROAD,BOODHALUR TALUK,THANJAVUR DIST -613602",TANJAVUR,TANJAVUR,TAMIL NADU,30898017
94,EQUITAS SMALL FINANCE BANK LIMITED,ESFB0001094,"GANDHI NAGAR, UDUMALPET","DEIVAM COMPLEX,NO 86-C OPP GANESH ELECTRICALS,DHARAPURAM MAIN ROAD,GANDHI NAGAR II,UDUMALPET.642126",COIMBATORE,COIMBATORE,TAMIL NADU,30898017
95,EQUITAS SMALL FINANCE BANK LIMITED,ESFB0001095,SALAIPUDUR,"157/1 KARUR MAIN ROAD,SAALIPUTUR.-638151",ERODE,ERODE,TAMIL NADU,30898017
96,EQUITAS SMALL FINANCE BANK LIMITED,ESFB0001096,ANTHIYUR,"11/86 - 9 BHAVANI MAIN ROAD,ANNAMEDU,PACHAMAPALAYAM POST,ANTHIYUR 638314",ERODE,ERODE,TAMIL NADU,30898017
97,EQUITAS SMALL FINANCE BANK LIMITED,ESFB0001097,PALLIPETTAI,"NO.225/A GST ROAD,PALLIPETTAI,ACHRAPAKKAM POST-603301",KANCHIPURAM,KANCHIPURAM,TAMIL NADU,30898015
98,EQUITAS SMALL FINANCE BANK LIMITED,ESFB0001098,THIRUVAIYARU,"120,Kumbakonam Rastha,Thiruvaiyaru(Tk),Thanjavur Dt -613204.",TANJAVUR,TANJAVUR,TAMIL NADU,30898015
99,EQUITAS SMALL FINANCE BANK LIMITED,ESFB0001099,VASISTHAPURAM,"NO.175/1 VASISTHAPURAM VILLAGE,THITAKUDI THALUK,CUDDALORE DISTRICT",CUDDALORE,CUDDALORE,TAMIL NADU,30898017
100,EQUITAS SMALL FINANCE BANK LIMITED,ESFB0001100,ARANI,"S1,GANDHI ROAD,ARANI,THIRUVANAMALAI DISTRICT - 632301",TIRUVANAMALAI,TIRUVANAMALAI,TAMIL NADU,30898017
101,EQUITAS SMALL FINANCE BANK LIMITED,ESFB0001101,GOBICHETTIPALAYAM,"NO.249,KATCHERY STREET,SATHY MAIN ROAD,GOBICHETTIPALAYAM - 638452",ERODE,ERODE,TAMIL NADU,30898015
102,EQUITAS SMALL FINANCE BANK LIMITED,ESFB0001102,KALLAKURICHI,"90/A&B,DURGAM MAIN ROAD,CHENNAI MAIN ROAD,KALLAKURICHI -606202",VILLUPURAM,VILLUPURAM,TAMIL NADU,30898015
103,EQUITAS SMALL FINANCE BANK LIMITED,ESFB0001103,NAMAKKAL,"Old No 152-F1,New No 406, Front Line Complex, Salem Main Road,Namakkal- 637001",AE,SALEM,TAMIL NADU,30898017
104,EQUITAS SMALL FINANCE BANK LIMITED,ESFB0001104,"BIOSCOPE STREET, POLLACHI","NO 18,BIOSCOPE STREET,POLLACHI - 642001,TAMILNADU",COIMBATORE,COIMBATORE,TAMIL NADU,30898015
105,EQUITAS SMALL FINANCE BANK LIMITED,ESFB0001105,THIRUTHURAIPOONDI,"DEEPAM MOHAN COMPLEX,NEW BUS STAND,THIRUVARUR ROAD,THIRUTHURAIPOONDI -THIRUVARUR DIST -614 713",TIRUVARUR,TIRUVARUR,TAMIL NADU,30898017
106,EQUITAS SMALL FINANCE BANK LIMITED,ESFB0001106,PAPAMPATTI,"NO.14/1,PAPAMPATTI ROAD,KANNAMPALAYAM,SULUR,COIMBATORE -641402",COIMBATORE,COIMBATORE,TAMIL NADU,30898015
107,EQUITAS SMALL FINANCE BANK LIMITED,ESFB0001107,PERUNDURAI,"NO - 74,PERUNDURAI ROAD,ERODE,PINCODE 638011",ERODE,ERODE,TAMIL NADU,30898017
108,EQUITAS SMALL FINANCE BANK LIMITED,ESFB0001108,IKKARAI,"D.NO.2/410-2ANNAIINDHIRASTREET,IKKARAIBOOLUVAMPATTIVILLAGE,COIMBATORE-641109",COIMBATORE,COIMBATORE,TAMIL NADU,30898015
109,EQUITAS SMALL FINANCE BANK LIMITED,ESFB0001109,VALAVANUR,"NO 111,WEST PONDY ROAD,VALLAVANUR -605108",VILLUPURAM,VILLUPURAM,TAMIL NADU,30898015
110,EQUITAS SMALL FINANCE BANK LIMITED,ESFB0001110,KEELUR VADALUR RURAL,"CUDDALORE MAIN ROAD,VADALUR,VADALUR POST -607303,TAMILNADU",CUDDALORE,CUDDALORE,TAMIL NADU,30898015
111,EQUITAS SMALL FINANCE BANK LIMITED,ESFB0001111,SILAMALAI,"No. 350C, Bodi Devaram Main Road, Silamalai, Bodinayakanur Taluk, Theni Dist -625528",THENI,THENI,TAMIL NADU,30898015
112,EQUITAS SMALL FINANCE BANK LIMITED,ESFB0001112,PANRUTI,"NO-20/81,LINK ROAD,PANRUTI - 607106,TAMIL NADU",CUDDALORE,CUDDALORE,TAMIL NADU,30898015
113,EQUITAS SMALL FINANCE BANK LIMITED,ESFB0001113,SIMMAKKAL MADURAI,"Peoples  Tower 153-G-H-I, North Veli Street,Simmakkal, Madurai 625001",MADURAI,MADURAI,TAMIL NADU,30898015
114,EQUITAS SMALL FINANCE BANK LIMITED,ESFB0001114,MAMBAKKAM SRIPERUMBUDUR,NO 411 BANGALORE HIGHWAY MAMBAKKAM VILLAGE SRIPERUMBUDUR 602105,KANCHIPURAM,KANCHIPURAM,TAMIL NADU,30898015
115,EQUITAS SMALL FINANCE BANK LIMITED,ESFB0001115,KAKAPALAYAM ELAMPILLAI,"10/7-E1,GANDHI NAGAR,EDANGANASALAI,SALEM MAIN ROAD,ELAMPILLAI,SALEM-637502",AE,SALEM,TAMIL NADU,30898015
116,EQUITAS SMALL FINANCE BANK LIMITED,ESFB0001116,VEERANAMPALAYAM,"SF NO 76,THOTTIPATTI PIRIVU,PALAYAKOTAI ROAD,VEERNAMPALAYAM,KANGEYAM",ERODE,ERODE,TAMIL NADU,30898017
117,EQUITAS SMALL FINANCE BANK LIMITED,ESFB0001117,ERUMMAPATTY CHETTIYAMKURICHI,"8/368,OPP TO VETNARY HOSPITAL,ERUMMAPATTY VILLAGE,SANGAGIRI MAIN ROAD,KONGANAPURAM-637102",AE,SALEM,TAMIL NADU,30898015
118,EQUITAS SMALL FINANCE BANK LIMITED,ESFB0001118,PALPAKKI-OMALUR,"DURAISAMY GOUNDER COMPLEX,ROJA NAGAR,KOTTAMETTUPATTY,DHARMAPURI MAIN ROAD,OMALUR POST,SALEM-636455",AE,SALEM,TAMIL NADU,30898015
119,EQUITAS SMALL FINANCE BANK LIMITED,ESFB0001119,KUBERAN NAGAR GUDUVANCHERY,"NO 5,FIRST STREET,KUBERAN NAGAR,NANDHIVARAM,GUDUVANCHERY 603202",KANCHIPURAM,KANCHIPURAM,TAMIL NADU,30898017
120,EQUITAS SMALL FINANCE BANK LIMITED,ESFB0001120,UTHAMAPURAM KAMBAM,"Ward No: 3, New Ward 7, Yadhavar Street, Uthamapuram Village , Kambam,Theni Dt",THENI,THENI,TAMIL NADU,30898015
121,EQUITAS SMALL FINANCE BANK LIMITED,ESFB0001121,MANAPPARAI,"NO.14 PONNAGARAM,DINDIGUL ROAD,MANAPPARAI -621306",DINDIGUL,DINDIGUL,TAMIL NADU,30898017
122,EQUITAS SMALL FINANCE BANK LIMITED,ESFB0001122,MUGALIVAKKAM,"LTN5,MHALIVAKKAMRAD,MANGALAKSHMINAGAR,MADHANANDAPURAM,CHENNAI600125",KANCHIPURAM,KANCHIPURAM,TAMIL NADU,30898017
123,EQUITAS SMALL FINANCE BANK LIMITED,ESFB0001123,POIYAPUTHUR,"NO - 119,TRICHY KARUR MAIN ROAD,NEAR MANAPURAM GOLD LOAN,POIYYAPUTHUR -KRISHNARAYAPURAM -TK,KARUR -639102,TAMIL NADU",KARUR,KARUR,TAMIL NADU,30898015
124,EQUITAS SMALL FINANCE BANK LIMITED,ESFB0001124,KARAIKKAL THIRUNALLAR RURAL,"DOOR NO -162,CHURCH STREET,KARAIKKAL -TK& DT.PONDICHERRY STATE",PONDICHERRY,PONDICHERRY,PUDUCHERRY,30898015
125,EQUITAS SMALL FINANCE BANK LIMITED,ESFB0001125,KOVILPAPPAKUDI,"3/299,I FLOOR,ALANGANALLUR MAIN ROAD,SIKKANDAR CHAVADI,KOVILPAPPAKUDI VILLAGE MADURAI 625018",MADURAI,MADURAI,TAMIL NADU,30898015
126,EQUITAS SMALL FINANCE BANK LIMITED,ESFB0001126,AGASTHIYARPATTI,"3/1067 B VEERAMAMUNIVAR STREET,AGASTHIYARPATTI,SIVANTHIPURAM,AMBASAMUDRAM TK,TIRUNELVELI DISTRICT -627428",IUVI,TIRUNELVELI,TAMIL NADU,30898015
127,EQUITAS SMALL FINANCE BANK LIMITED,ESFB0001127,RAGUNATHAPURAM,"PLOT NO 1 / 100A,POONKGA NAGAR ( THREE STAR ) REGUNATHAPURAM ( P),PAPANASAM(TK),TANJORE-614210",TANJAVUR,TANJAVUR,TAMIL NADU,30898015
128,EQUITAS SMALL FINANCE BANK LIMITED,ESFB0001128,BHAVANI,"NO.1041,MAIN ROAD,NEAR SANGEMESEEWARAR TEMPLE BUS STOP,BHAVANI -638301",ERODE,ERODE,TAMIL NADU,30898015
129,EQUITAS SMALL FINANCE BANK LIMITED,ESFB0001129,PONNAMARAVATHI,"70/1,FIRST FLOOR,ANNA SALAI,PUDUKOTTAI ROAD,PONNAMARAVATHY-622407",PUDUKOTTAI,PUDUKOTTAI,TAMIL NADU,30898015
130,EQUITAS SMALL FINANCE BANK LIMITED,ESFB0001130,THIRUVARUR,"NO 87,DN COMPLEX,NORTH MAIN STREET,THIRUVARUR -610 002",TIRUVARUR,TIRUVARUR,TAMIL NADU,30898015
131,EQUITAS SMALL FINANCE BANK LIMITED,ESFB0001131,K K NAGAR,"PLOT NO.1072,D.NO.32,MUNUSAMY SALAI,K K NAGAR WEST,CHENNAI 600078",CHENNAI,CHENNAI,TAMIL NADU,30898015
132,EQUITAS SMALL FINANCE BANK LIMITED,ESFB0001132,PURASAWALKAM,"OLD NO.77,NEW NO.36,MILLERS ROAD,KILPAUK,CHENNAI 600010",CHENNAI,CHENNAI,TAMIL NADU,30898015
133,EQUITAS SMALL FINANCE BANK LIMITED,ESFB0001133,AALAPIRANTHAN,"NO.175,PUDUKKOTTAI MAIN ROAD,ARANTHANGI.614616",PUDUKOTTAI,PUDUKOTTAI,TAMIL NADU,30898015
134,EQUITAS SMALL FINANCE BANK LIMITED,ESFB0001134,SURAPET,"PLOT NO.213,SIVAPRAKASAM NAGAR,SURAPET,CHENNAI 600066",TIRUVALLUR,TIRUVALLUR,TAMIL NADU,30898015
135,EQUITAS SMALL FINANCE BANK LIMITED,ESFB0001135,KATTUVEPALIPATTY-PERIYAKRISHNAPURAM,"NO 76F,76G CUDDALORE MAIN ROAD,PERIYAKRISHNAPURAM,PETHANAIYAKEN PALAYAMTALUK,SALEM DISTRICT,PINCODE - 636 115",AE,KATTUVEPALIPATTY,TAMIL NADU,30898017
136,EQUITAS SMALL FINANCE BANK LIMITED,ESFB0001136,PERUNDURAI,"NO 123,OLD BUS STAND ROAD,PERUNDURAI -638052",ERODE,ERODE,TAMIL NADU,30898015
137,EQUITAS SMALL FINANCE BANK LIMITED,ESFB0001137,KILPUTHUPAKKAM,"NO 11/7C,ARANI 2ND ROAD,KILPUTHUPAKKAM,CHEYYAR,THIRUVANNAMALAI DISTRICT",THIRUVANNAMALAI,THIRUVANNAMALAI,TAMIL NADU,30898017
138,EQUITAS SMALL FINANCE BANK LIMITED,ESFB0001138,TIRUCHENGODE,"105,SANKAGIRI MAIN ROAD,MSM MUTHUVEL COMPLEX,SEETHARAMPALAYAM,TIRUCHENGODE-637209",NAMAKKAL,NAMAKKAL,TAMIL NADU,30898015
139,EQUITAS SMALL FINANCE BANK LIMITED,ESFB0001139,SEMBAKKAM,"NO 1 BY181 ,VELACHERY MAIN ROAD,SANTHOSAPURAM,CHENNAI 600073",KANCHIPURAM,KANCHIPURAM,TAMIL NADU,30898015
140,EQUITAS SMALL FINANCE BANK LIMITED,ESFB0001140,KEELA KABISTHALAM,"2/19/1 MAIN ROAD,KEELA KABISTHALAM,PAPPANASAM THANJAVUR DIST PIN 614203",THANJAVUR,THANJAVUR,TAMIL NADU,30898017
141,EQUITAS SMALL FINANCE BANK LIMITED,ESFB0001141,MARUTHALAM,/SGRDKDYPMCRDYVGJKV.,EOE,VELLORE,TAMIL NADU,30898017
142,EQUITAS SMALL FINANCE BANK LIMITED,ESFB0001142,PAMMAL,"NO.170,PAMMAL MAIN ROAD,KRISHNA NAGAR,PAMMAL,CHENNAI -600075",KANCHIPURAM,KANCHIPURAM,TAMIL NADU,30898015
143,EQUITAS SMALL FINANCE BANK LIMITED,ESFB0001143,ATTUR,"NARAYANASAMY STREET,SOUTH UDAYARPALAYAM,ATTUR-636102",SALEM,SALEM,TAMIL NADU,30898015
144,EQUITAS SMALL FINANCE BANK LIMITED,ESFB0001144,RENDERIPET,"NO 270,FIRST FLOOR,C.C.ROAD,RENDERIPET VILLAGE,POLUR TALUK,THIRUVANNAMALAI DISTRICT",THIRUVANNAMALAI,THIRUVANNAMALAI,TAMIL NADU,30898017
145,EQUITAS SMALL FINANCE BANK LIMITED,ESFB0001153,THIRUPATHUR,"NO 108-A,KRISHNAGIRI ROAD,THIRUPATHUR -635601",VELLORE,VELLORE,TAMIL NADU,30898017
146,EQUITAS SMALL FINANCE BANK LIMITED,ESFB0001154,SAMUTHIRAPATTY,"NO 125/1A,GROUND FLOOR,SAMUTHIRAPATTY POST,NATHAM TALUK,DINDIGUL -624402",DINDIGUL,DINDIGUL,TAMIL NADU,30898017
147,EQUITAS SMALL FINANCE BANK LIMITED,ESFB0001155,PATTUKOTTAI,"D.NO.160,T.S NO.67/3,BLOCK.29,WARD A,SOUTH KALIAMMANKOVIL ST,PATTUKOTTAI,THANJAVUR DT-614602",TANJAVUR,TANJAVUR,TAMIL NADU,30898017
148,EQUITAS SMALL FINANCE BANK LIMITED,ESFB0001156,KOTTAYUR,"NO.3/34 NAGAI ROAD,KOTTAYUR,SARAVAMANYAM,VALANGAIMAN ( TK),NEEDAMANGALAM POST,THIRUVARUR -614404",TIRUVARUR,TIRUVARUR,TAMIL NADU,30898017
149,EQUITAS SMALL FINANCE BANK LIMITED,ESFB0001157,KEELAOHAI,.O.90&KEELAOHAIKORADHACHERIL.FROADPUTHUKADAI-ARAURVILLAGEKUDAVAALTKTHIRUVARURT-660,TIRUVARUR,TIRUVARUR,TAMIL NADU,30898017
150,EQUITAS SMALL FINANCE BANK LIMITED,ESFB0001158,KOTTIVAKKAM,"PLOT NO 21 BAY VIEW SIDE,1ST FLOOR,1/249,ECR KOTTIVAKKAM CHENNAI - 600041",CHENNAI,CHENNAI,TAMIL NADU,30898017
151,EQUITAS SMALL FINANCE BANK LIMITED,ESFB0001159,"VELS UNIVERSITY, PALLAVARAM","VELS UNIVERSITY COMPOUND,VELAN NAGAR,P.V.VAITHIYALINGAM ROAD,PALLAVARAM,CHENNAI -600 117",CHENNAI,CHENNAI,TAMIL NADU,30898017
152,EQUITAS SMALL FINANCE BANK LIMITED,ESFB0001160,WEST MAMBALAM,"OLD NO.10,NEW NO.31,ARYA GOWDA ROAD,WEST MAMBALAM,CHENNAI 600033",CHENNAI,CHENNAI,TAMIL NADU,30898017
153,EQUITAS SMALL FINANCE BANK LIMITED,ESFB0001161,NELSON MANICKAM ROAD,"OLD NO.31,NEW NO.136,NELSON MANICKAM ROAD,CHENNAI -600029",CHENNAI,CHENNAI,TAMIL NADU,30898017
154,EQUITAS SMALL FINANCE BANK LIMITED,ESFB0001162,MOOLAKADAI,"NO 16,MOSQUE STREET,PERIYAR NAGER,MOOLAKADAI,CHENNAI 600060",CHENNAI,CHENNAI,TAMIL NADU,30898015
155,EQUITAS SMALL FINANCE BANK LIMITED,ESFB0001164,VENGIKKAL,"NO 1540/NA,KANJI ROAD,GIRIVALAM SALAI,NEAR ANNA ARCH,VENGIKKAL,TIRUVANNAMALAI 606604",THIRUVANNAMALAI,THIRUVANNAMALAI,TAMIL NADU,30898015
156,EQUITAS SMALL FINANCE BANK LIMITED,ESFB0001165,ARAKKONAM,"NO 118/147,GANDHI RD 1ST FLOOR GANDHI ROAD ARAKKONAM 631001",VELLORE,VELLORE,TAMIL NADU,30898015
157,EQUITAS SMALL FINANCE BANK LIMITED,ESFB0001166,MYLAPORE,"NO 60/119,JAMMI BULIDING,1ST FLOOR ROYAPETTAH HIGH ROAD,MYLAPORE,CHENNAI 600004",CHENNAI,CHENNAI,TAMIL NADU,30898015
158,EQUITAS SMALL FINANCE BANK LIMITED,ESFB0001167,WEST TAMBARAM,"NO-20/1,SIVASHANMUGAM STREET,WEST TAMBARAM 600045",KANCHIPURAM,KANCHIPURAM,TAMIL NADU,30898015
159,EQUITAS SMALL FINANCE BANK LIMITED,ESFB0001168,KAMALALAIYAM,"NO 14-B MELA KAMALALAYAM STREET,NEAR LAKSHNA HOSPITAL,THIRUVARUR 610001",THIRUVARUR,THIRUVARUR,TAMIL NADU,30898015
160,EQUITAS SMALL FINANCE BANK LIMITED,ESFB0001169,MANNARGUDI,"NO,80,BIG KAMALA STREET,NAGARJUNA COMPLEX,MANNARGUDI 614001",THIRUVARUR,THIRUVARUR,TAMIL NADU,30898015
161,EQUITAS SMALL FINANCE BANK LIMITED,ESFB0001170,PUDUKOTTAI SOUTH,"TS NO.3621,NEW PALACE ROAD,2ND FLOOR,NEAR HONDA CAR SHOWROOM,PUDUKKOTTAI 622001",PUDUKOTTAI,PUDUKOTTAI,TAMIL NADU,30898015
162,EQUITAS SMALL FINANCE BANK LIMITED,ESFB0001171,VANDIGATE,154 ARB TOWER 1ST FLOOR CUDDALORE MAIN ROAD VANDIGATE CHIDAMBARAM 608001,CUDDALORE,CUDDALORE,TAMIL NADU,30898015
163,EQUITAS SMALL FINANCE BANK LIMITED,ESFB0001173,PERAMBALUR THANTHONDRI SIVAN,"NO.175-A/16F,1ST FLOOR,AR RESIDENCY,FOUR ROAD VIA,NEAR NEW BUS STAND,PERAMBALUR 621212",PERAMBALUR,PERAMBALUR,TAMIL NADU,30898015
164,EQUITAS SMALL FINANCE BANK LIMITED,ESFB0001174,SUNDARAPURAM,"NO.247A POLLACHI MAIN ROAD,GANDHI NAGAR,SUNDRAPURAM 641024",COIMBATORE,COIMBATORE,TAMIL NADU,30898015
165,EQUITAS SMALL FINANCE BANK LIMITED,ESFB0001176,PALAYAPALAYAM,"NO 64/5 GRDI COMPLEX 1ST FLOOR,PERUNDURAI MAIN ROAD,PALAYAPALAYAM ERODE 638011",ERODE,ERODE,TAMIL NADU,30898015
166,EQUITAS SMALL FINANCE BANK LIMITED,ESFB0001177,SALEM JUNCTION,"5/331 ROYAL TOWERS,II-ND FLOOR SBI COLONY,JUNCTION MAIN ROAD,SALEM 636004",SALEM,SALEM,TAMIL NADU,30898015
167,EQUITAS SMALL FINANCE BANK LIMITED,ESFB0001178,SRIPURAM,"NO 1-82E4/11A S PP BUILDING,IST FLOOR,SN HIGH ROAD,SRIPURAM,TIRUNELVELI 627001",TIRUNELVELI,TIRUNELVELI,TAMIL NADU,30898015
168,EQUITAS SMALL FINANCE BANK LIMITED,ESFB0001179,SELLUR,"NO 155-11A 2ND FLOOR,AMMU COMPLEX MANAVALAN NAGAR,KULAMANGULAM MAIN ROAD,MADURAI 625002",MADURAI,MADURAI,TAMIL NADU,30898015
169,EQUITAS SMALL FINANCE BANK LIMITED,ESFB0001180,PC PATTY,"NO 3.1.45/5,SECOND FLOOR,SBI UPSTAIRS,PC PATTY,KUMULI ROAD,THENI 625531",THENI,THENI,TAMIL NADU,30898015
170,EQUITAS SMALL FINANCE BANK LIMITED,ESFB0001181,SUDAMANIPURAM,"NO S71 120 FEET ROAD,NEAR ESSAR PETROL BUNK,SUDAMANIPURAM,KARAIKUDI 630002",SIVAGANGA,SIVAGANGA,TAMIL NADU,30898015
171,EQUITAS SMALL FINANCE BANK LIMITED,ESFB0001183,VEDACHALAM NAGAR,"OLD NO 17,NEW NO 42,FIRST FLOORS,VARADHARAJAN ST,VEDACHALAM NAGAR,CHENGALPATTU,CHENGALPATTU -603001",KANCHIPURAM,KANCHIPURAM,TAMIL NADU,30898017
172,EQUITAS SMALL FINANCE BANK LIMITED,ESFB0001184,ARCOT ROAD,"PALAR PLAZA 1ST FLOORS,NO 56/19A ARCOT ROAD,RANIPET -632401",VELLORE,VELLORE,TAMIL NADU,30898017
173,EQUITAS SMALL FINANCE BANK LIMITED,ESFB0001185,VELLORE,"NO.5,PRIYADHARSHINI COMPLEX,FIRST FLOORS,NEW BYE PASS ROAD,VELLORE - 632004",VELLORE,VELLORE,TAMIL NADU,30898017
174,EQUITAS SMALL FINANCE BANK LIMITED,ESFB0001186,SAIBABA NAGAR,"O 348/1,BMS COMPLEX,1ST FLOORS,EAR HERO SHOW ROOM,SAIBABA AGAR,TIRPATTUR TK,VELLORE DTS -635601",VELLORE,VELLORE,TAMIL NADU,30898017
175,EQUITAS SMALL FINANCE BANK LIMITED,ESFB0001187,MINJUR,"NO 69/2 PADMAVATHY NAGAR,1ST FLOORS,T.H ROAD,MINJUR-601203",THIRUVALLUR,THIRUVALLUR,TAMIL NADU,30898017
176,EQUITAS SMALL FINANCE BANK LIMITED,ESFB0001188,THAMBIAH ROAD,"NO 43,1ST FLOORS,THAMBIAH ROAD EXT.WEST MAMBALAM,CHENNAI -600033",CHENNAI,CHENNAI,TAMIL NADU,30898017
177,EQUITAS SMALL FINANCE BANK LIMITED,ESFB0001189,CHINTADRIPET,"NO.18 SAIT COLONY,1ST STREET,1ST FLOORS,EGMORE,CHENNAI -600008",CHENNAI,CHENNAI,TAMIL NADU,30898017
178,EQUITAS SMALL FINANCE BANK LIMITED,ESFB0001190,ASHOK NAGAR ND AVENUE,"NO.56,2ND AVENUE ASHOK NAGAR,CHENNAI -600083",CHENNAI,CHENNAI,TAMIL NADU,30898017
179,EQUITAS SMALL FINANCE BANK LIMITED,ESFB0001191,CHOOLAIMEDU,"NO.20/2,SIVAN KOIL STREET,BE COLONY,1ST MAIN ROAD,KODAMBAKKAM,CHENNAI -600024",CHENNAI,CHENNAI,TAMIL NADU,30898017
180,EQUITAS SMALL FINANCE BANK LIMITED,ESFB0001192,VADAMALAI,"NO.14/29,VADAMALAI STREET,PURASAIWAKKAM,CHENNAI -600007",CHENNAI,CHENNAI,TAMIL NADU,30898017
181,EQUITAS SMALL FINANCE BANK LIMITED,ESFB0001194,PERAMBUR,NO6/15 BALARAMAN STREET THIRU VI KA NAGAR CHENNAI -600082,CHENNAI,CHENNAI,TAMIL NADU,30898017
182,EQUITAS SMALL FINANCE BANK LIMITED,ESFB0001195,ROYAPURAM,"NO.306 T.H ROAD NEW WASHERMANPET NEAR BY LAKSHMI KOVIL BUS STOP,TONDIARPET,CHENNAI -600081",CHENNAI,CHENNAI,TAMIL NADU,30898017
183,EQUITAS SMALL FINANCE BANK LIMITED,ESFB0001196,MINT,"NO 6/17 VEERANGAVEDU MURUGESAN ST SEVENWELLS,CHENNAI -600001",CHENNAI,CHENNAI,TAMIL NADU,30898017
184,EQUITAS SMALL FINANCE BANK LIMITED,ESFB0001198,GUMMIDIPUNDI,"NO 69A / 130A,G N T ROAD,GUMMIDIPUNDI -601201",THIRUVALLUR,THIRUVALLUR,TAMIL NADU,30898017
185,EQUITAS SMALL FINANCE BANK LIMITED,ESFB0001200,PONNERI,"69 THAYAUMAN CHETTY,PONNERI - 601204",THIRUVALLUR,THIRUVALLUR,TAMIL NADU,30898017
186,EQUITAS SMALL FINANCE BANK LIMITED,ESFB0001203,VILLIVAKKAM,NO 41/G2 SWETHAAS SWARNAM COMPLEX PONNAN KINARU STREET VILLIVAKKAM CHENNAI 600049,CHENNAI,CHENNAI,TAMIL NADU,30898017
187,EQUITAS SMALL FINANCE BANK LIMITED,ESFB0001204,POONAMALLE,"NO.1,AVADI ROAD,KARAYANCHAVADI,POONAMALLE,CHENNAI -600056",THIRUVALLUR,THIRUVALLUR,TAMIL NADU,30898017
188,EQUITAS SMALL FINANCE BANK LIMITED,ESFB0001205,AVADI,"NO,24,N.M ROAD,AVADI,CHENNAI - 600054",THIRUVALLUR,THIRUVALLUR,TAMIL NADU,30898017
189,EQUITAS SMALL FINANCE BANK LIMITED,ESFB0001206,"ANNA GARDEN, VELACHERY","NO 3 ANNA GARDEN VELACHERY MAIN ROAD VELACHERY,CHENNAI -600042",CHENNAI,CHENNAI,TAMIL NADU,30898017
190,EQUITAS SMALL FINANCE BANK LIMITED,ESFB0001207,THIRUMANGALAM,NO.80 V V KOVIL STREET THIRUVALIISHWAR NAGAR THIRUMANGALAM ANNA NAGAR EXTAN CHENNAI-600040,CHENNAI,CHENNAI,TAMIL NADU,30898017
191,EQUITAS SMALL FINANCE BANK LIMITED,ESFB0001208,ARUMBAKKAM,"OLD NO 3 NEW NO 7/1 THANGAL ST,VIRUGAMBAKKAM,CHENNAI -600092",CHENNAI,CHENNAI,TAMIL NADU,30898017
192,EQUITAS SMALL FINANCE BANK LIMITED,ESFB0001210,NANDIVARAM GUDUVANCHERI,"NO.1368,PAADASALAI STREET,URAPAKKAM,1ST FLOORS,CHENNAI -603210",KANCHIPURAM,KANCHIPURAM,TAMIL NADU,30898017
193,EQUITAS SMALL FINANCE BANK LIMITED,ESFB0001212,MADHURANTHAKAM,"1ST FLOORS,53/105,CAR STREET,SRI KASTURI COMPLEX,MADHURANTHAKAM,KANCHIPURAM -603306",KANCHIPURAM,KANCHIPURAM,TAMIL NADU,30898017
194,EQUITAS SMALL FINANCE BANK LIMITED,ESFB0001213,ACHARAMPAKKAM,"FIRST FLOORS,NO.119,GST ROAD,ACHARAPAKKAM,CHENNAI - 603301",KANCHIPURAM,KANCHIPURAM,TAMIL NADU,30898017
195,EQUITAS SMALL FINANCE BANK LIMITED,ESFB0001214,THIRUVALLUR,"NO 44,PERUMAL KOIL ST,1ST FLOORS,THIRUVLLUR 602001",THIRUVALLUR,THIRUVALLUR,TAMIL NADU,30898017
196,EQUITAS SMALL FINANCE BANK LIMITED,ESFB0001215,KARIKINIL AMARNTHAVAL KOVIL,"FIRST FLOORS,NO.24,KARIKINIL AMARNTHAVAL KOVIL STREET,KANCHIPURAM -631501",KANCHIPURAM,KANCHIPURAM,TAMIL NADU,30898017
197,EQUITAS SMALL FINANCE BANK LIMITED,ESFB0001216,VANDAVASI,NO 30 AKBER ROAD VANDAVASI TK 604408,THIRUVANNAMALAI,THIRUVANNAMALAI,TAMIL NADU,30898017
198,EQUITAS SMALL FINANCE BANK LIMITED,ESFB0001217,SRIPERUMBUDUR,"SAI TOWERS,FLAT NO,65,1ST FLOORS,NO25,CHELLAPERUMAL NAGAR,SRIPERUMBUDUR-602105",KANCHIPURAM,KANCHIPURAM,TAMIL NADU,30898017
199,EQUITAS SMALL FINANCE BANK LIMITED,ESFB0001218,UTHERAMERUR,"NO 22 VENKATIAH PILLAI STREET,UTHERAMERUR BRANCH,UTHERAMERUR TALUK,KANCHEEPURAM DIST 603406",KANCHIPURAM,KANCHIPURAM,TAMIL NADU,30898017
200,EQUITAS SMALL FINANCE BANK LIMITED,ESFB0001220,THALAYATHAM,"NO.9,AB COMPLEX,1ST FLOORS POLICE LINE STREET,THALAYATHAM,GUDIYATHAM VELLORE DT 632602",VELLORE,VELLORE,TAMIL NADU,30898017
201,EQUITAS SMALL FINANCE BANK LIMITED,ESFB0001221,"NATRAJ NAGAR, ARANI","NO.1356/3,V.N.NATRAJ NAGAR,ARCOT ROAD,ARANI,TAMIL NADU -632301",THIRUVANNAMALAI,THIRUVANNAMALAI,TAMIL NADU,30898017
202,EQUITAS SMALL FINANCE BANK LIMITED,ESFB0001222,GINGEE,"NO.18,VILLUPURAM MAIN ROAD,PONPATHI VILLAGE,GINGEE TALUK,VILLUPURAM -604202",VILLUPURAM,VILLUPURAM,TAMIL NADU,30898017
203,EQUITAS SMALL FINANCE BANK LIMITED,ESFB0003001,JAYANAGAR,"No -1011, Ground Floor, Sri Krishnapoorva Arcade, 26th Main, Jayanagar 4th T Block, Bangalore - 560041",BANGALORE METRO,BANGALORE METRO,KARNATAKA,30898015
204,EQUITAS SMALL FINANCE BANK LIMITED,ESFB0003002,K D ROAD MYSURU,"NO 141,BELAKU ARCADE,KALIDASA ROAD,MYSORE 570012",MYSORE,MYSORE,KARNATAKA,30898015
205,EQUITAS SMALL FINANCE BANK LIMITED,ESFB0003003,HSR LAYOUT,"NO - 1665/A,HSR LAYOUT,7TH SECTOR,14TH MAIN ROAD,BANGALORE -560102",BENGALURU URBAN,BENGALURU URBAN,KARNATAKA,30898015
206,EQUITAS SMALL FINANCE BANK LIMITED,ESFB0003004,K R PURAM,"NO.1,2ND CROSS,1ST BLOCK,TC PALYA,AKSHAYANAGAR,BANGALORE 560016",BENGALURU URBAN,BENGALURU URBAN,KARNATAKA,30898015
207,EQUITAS SMALL FINANCE BANK LIMITED,ESFB0003005,BASAVESHWAR NAGAR,"NO.92,LIC COLONY,BASAVESHWARANAGAR MAIN ROAD,BANGLAORE 560079",BENGALURU URBAN,BENGALURU URBAN,KARNATAKA,30898015
208,EQUITAS SMALL FINANCE BANK LIMITED,ESFB0003006,RAJAJINAGAR,"NO 75,SHANTHA ARCADE, DR.RAJKUMAR ROAD, NEAR TVS BRIDGESTONE SHOWROOM,RAJAJINAGAR 2ND BLOCK,BENGALURU-560010.",BENGALURU URBAN,BENGALURU URBAN,KARNATAKA,30898015
209,EQUITAS SMALL FINANCE BANK LIMITED,ESFB0003007,RAMASAMUDRAM,"No 49, LIG Hoousing Board Colony,Ramasamudram,Chamarajan nagar-571313, Karnataka.",CHAMARAJNAGAR,CHAMARAJNAGAR,KARNATAKA,30898015
210,EQUITAS SMALL FINANCE BANK LIMITED,ESFB0003008,HOLE HANASWADI,"SHIMOGA HONNALI ROAD,MELINA HANASWADI POST,SHIMOGA - 577216",SHIMOGA,SHIMOGA,KARNATAKA,30898015
211,EQUITAS SMALL FINANCE BANK LIMITED,ESFB0003009,SIDDARAYANAPURA,"NO.465,SIDDAIAHNAPURAVILLAGE,SURVEYNO.241/8,SIDDAIAHNAPURAGRAMAPANCHAYATH,KOLLEGALTALUK,CHAMARAJANAGARADISTRICT.-571440",CHAMARAJNAGAR,CHAMARAJNAGAR,KARNATAKA,30898015
212,EQUITAS SMALL FINANCE BANK LIMITED,ESFB0003010,BIRUR,"PUSHPA NILAYA,NO -2674/2605,RAILWAY STATION ROAD,BIRUR -577116 -KADUR TALUK,CHICKKAMAGALUR DIST",CHICHMAGALUR,CHICHMAGALUR,KARNATAKA,30898015
213,EQUITAS SMALL FINANCE BANK LIMITED,ESFB0003011,GUNDLUPET,"UPPI COMPLEX,BANGALORE NILGIRI ROAD,ASHIWINI LAY OUT,GUNDULPET - 571111",CHAMARAJNAGAR,CHAMARAJNAGAR,KARNATAKA,30898015
214,EQUITAS SMALL FINANCE BANK LIMITED,ESFB0003012,H D KOTE,"TARAKA SHOPPING COMPLEX,OPP K S R T C BUS STAND,H D KOTE 571114",MYSORE,MYSORE,KARNATAKA,30898015
215,EQUITAS SMALL FINANCE BANK LIMITED,ESFB0003013,HUNSUR,"Khatha No.1613/3600, situated at BM By Pass Road, 1st Division, Hunsur Town, Mysore District.",MYSORE,MYSORE,KARNATAKA,30898015
216,EQUITAS SMALL FINANCE BANK LIMITED,ESFB0003014,SIRA,"NO -1048,PRABHU ENTERPRISES,INDANE GAS DISTRIBUTORS,MAIN ROAD,SIRA -572137",TUMKUR,TUMKUR,KARNATAKA,30898015
217,EQUITAS SMALL FINANCE BANK LIMITED,ESFB0003015,TIPTUR,"SNR COMPOUND,BH ROAD,TIPTUR 572201",TUMAKURU,TUMAKURU,KARNATAKA,30898015
218,EQUITAS SMALL FINANCE BANK LIMITED,ESFB0003016,BELAGAVI,"TO52,ONGRESSROAD,TILAKWADI,BELAGAVI",BELAGAVI,BELAGAVI,KARNATAKA,30898015
219,EQUITAS SMALL FINANCE BANK LIMITED,ESFB0003017,BALLARI,"NO -233/B1,1 ST CROSS,GANDHINAGAR,BELLARY -583103",BELLARY,BELLARY,KARNATAKA,30898015
220,EQUITAS SMALL FINANCE BANK LIMITED,ESFB0003018,MANDYA,"Khatha No. D3/347/1668, situated at Vidya Nagara, Mandya City.",MANDYA,MANDYA,KARNATAKA,30898015
221,EQUITAS SMALL FINANCE BANK LIMITED,ESFB0003019,DAVANGERE,"NO.3348/A-1,SIDDAVEERAPPA LAYOUT,SHAMANUR ROAD,DAVANGERE 577004",DAVANGERE,DAVANGERE,KARNATAKA,30898017
222,EQUITAS SMALL FINANCE BANK LIMITED,ESFB0003020,GADAG,"CTS NO 3812/1/4,OPP MGM HOSPITAL,NEW BUS STAND ROAD,GADAG - 582101,KARNATAKA",GADAG,GADAG,KARNATAKA,30898015
223,EQUITAS SMALL FINANCE BANK LIMITED,ESFB0003021,HASSAN,"N O-12-3-574-322,ARYABHATTA ROAD,RING ROAD,JAYANAGAR,HASSAN -573201",HASSAN,HASSAN,KARNATAKA,30898015
224,EQUITAS SMALL FINANCE BANK LIMITED,ESFB0003022,T K LAYOUT,"Site bearing No.377/B, Saraswathipuram, Thonachikoppal Extension layout, Chamaraja Mohalla, Mysore",MYSORE,MYSORE,KARNATAKA,30898015
225,EQUITAS SMALL FINANCE BANK LIMITED,ESFB0003023,SHIVAMOGGA,"NO.391-2605,BH ROAD,BESIDE ARVIND MOTORS,SHIMOGA - 577201",SHIMOGA,SHIMOGA,KARNATAKA,30898015
226,EQUITAS SMALL FINANCE BANK LIMITED,ESFB0003024,YALAHANKA,"NO.314,A SECTOR,CHIKKABOMMASANDRA CIRCLE,YELAHANKA NEW TOWN,HIG,KHB,BANGALORE - 5600064,KARNATAKA",BENGALURU URBAN,BENGALURU URBAN,KARNATAKA,30898015
227,EQUITAS SMALL FINANCE BANK LIMITED,ESFB0003025,HOSALLI HAVERI,"NO.435/ 1,DEVI HOSUR CROSS,HOSALLI,TALUK HAVERI,DISTRICT HAVERI -581110",AEI,HAVERI,TAMIL NADU,30898017
228,EQUITAS SMALL FINANCE BANK LIMITED,ESFB0003026,DHARWAD,"SHREE RENUKA RESIDENCY,NO.342A / 17,OPP.AXIS BANK,TOLL NAKA,DHARWAD",DHARWAD,DHARWAD,KARNATAKA,30898017
229,EQUITAS SMALL FINANCE BANK LIMITED,ESFB0003027,RANEBENNUR,"P.B.ROAD,NEAR BUS STAND,RANEBENNUR TOWN,RANEBENNUR -581115",AEI,HAVERI,KARNATAKA,30898017
230,EQUITAS SMALL FINANCE BANK LIMITED,ESFB0003028,HOSAPETE,"D NO.317/A,4TH WARD,STATION ROAD,HOSPET 583201",HOSPET,HOSPET,KARNATAKA,30898015
231,EQUITAS SMALL FINANCE BANK LIMITED,ESFB0003029,HUNBBALLI,"SITE NO.01/542/2B/2K,NEAR CHETANA COLLEGE,SHIRUR PARK,VIDYANAGAR,HUBLI -580021",DHARWAD,DHARWAD,KARNATAKA,30898015
232,EQUITAS SMALL FINANCE BANK LIMITED,ESFB0003030,PRASHANTHNAGAR,"ESFB,NO 1,SANGOLLI RAYANNA CIRCLE,MUDALAPALYAMAIN ROAD,AMARJYOTI NAGAR,PRASHANTH NAGAR,BANGALORE-560040",BENGALURU URBAN,BENGALURU URBAN,KARNATAKA,30898015
233,EQUITAS SMALL FINANCE BANK LIMITED,ESFB0003031,KASTURINAGAR,"NO 309/3,KVV SQUARE,GROUND FLOOR,2NDMAIN,KASTURI NAGAR,BANGALORE-560043",BENGALURU URBAN,BENGALURU URBAN,KARNATAKA,30898015
234,EQUITAS SMALL FINANCE BANK LIMITED,ESFB0003032,THAGACHAGERE,"SOGALA NAGARAJA BUILDING,NO 390/208/1 / 76,MAHADESHWARA NAGARA.SATNUR ROAD,NEAR DIVYA CHETANA SCHOOL TAGACHAGERE VILLAGE,TAGACHAGERE GRAMA PANCHAYATH,KASABA HOBLI,CHENNAPATTANA TALUK -562160",RAMNAGAR,RAMNAGAR,KARNATAKA,30898017
235,EQUITAS SMALL FINANCE BANK LIMITED,ESFB0003033,TUMAKURU,"53/3B,BATAWADI,OPPSITCOLLEGE,BHROAD,TUMKUR-572103",TUMKUR,TUMKUR,KARNATAKA,30898015
236,EQUITAS SMALL FINANCE BANK LIMITED,ESFB0003034,RBI LAYOUT,"632,KOTHNUR,RBIHBCSLAYOUT,BANAGLORE-560062",BENGALURU URBAN,BENGALURU URBAN,KARNATAKA,30898015
237,EQUITAS SMALL FINANCE BANK LIMITED,ESFB0003035,K R NAGAR,"SRIDEVI RESIDENCY,GROUND FLOOR,PURASABHA CIRCLE,VANIVILASROAD,LAND MARK OPP TO GOVT HOSPITAL,K.R.NAGARATOWN 571602.",MYSORE,MYSORE,KARNATAKA,30898015
238,EQUITAS SMALL FINANCE BANK LIMITED,ESFB0004001,VIJAYAWADA,"D.NO 33-21-39A ELURU ROAD,CHUTTUGUNTA,SITARAMAPURAM,VIJAYAWADA-520004",KRISHNA,KRISHNA,ANDHRA PRADESH,30898015
239,EQUITAS SMALL FINANCE BANK LIMITED,ESFB0004002,"BENZ CIRCLE,VIJAYAWADA","D.NO 40-1-60,M G ROAD,NEAR BENZ CIRCLE,VIJAYAWADA-520010,ANDHRA PRADESH",KRISHNA,KRISHNA,ANDHRA PRADESH,30898015
240,EQUITAS SMALL FINANCE BANK LIMITED,ESFB0004003,VISAKHAPATNAM,"NO -47-14-10,VIDISHA TOWERS,DWARAKANAGAR MAIN ROAD,VISAKHAPATNAM -530016",VISAKHAPATNAM,VISAKHAPATNAM,ANDHRA PRADESH,30898015
241,EQUITAS SMALL FINANCE BANK LIMITED,ESFB0004004,GUNTUR,"D.NO 6-4-108/2,ARUNDULPET,4/3,GUNTUR-522002,ANDHRAPRADESH",GUNTUR,GUNTUR,ANDHRA PRADESH,30898015
242,EQUITAS SMALL FINANCE BANK LIMITED,ESFB0004005,"RAJAHMUNDRY,EAST GODAVARI","D NO-7-26-06/1 MATURI VARI VEEDHI,T.NAGAR,RAJAHMUNDRY-533101",ATGODAVARI,EAST GODAVARI,ANDHRA PRADESH,30898015
243,EQUITAS SMALL FINANCE BANK LIMITED,ESFB0004006,KAKINADA,"D NO-13-2-28/1,LATCHIRAJU STREET,OPP RELIANCE TRENDS,KAKINADA-533001 ANDHRA PRADESH",ATGODAVARI,EAST GODAVARI,ANDHRA PRADESH,30898015
244,EQUITAS SMALL FINANCE BANK LIMITED,ESFB0005001,"PARADISE, HYDERABAD","N O - 1-8-160/8,BESIDE ANNAPURNA HOTEL,P G ROAD,PARADISE,SECUNDRABAD-500003",HYDERABAD,HYDERABAD,TELANGANA,30898015
245,EQUITAS SMALL FINANCE BANK LIMITED,ESFB0005002,"L B NAGAR, HYDERABAD","SIVAGANGA COLONY,MANOORABAD,L B NAGAR-500074,TELANGANA",HYDERABAD,HYDERABAD,TELANGANA,30898015
246,EQUITAS SMALL FINANCE BANK LIMITED,ESFB0005003,"HABSIGUDA,HYDERABAD","D.NO 1-4-60/B,ROAD NO 8,SNEHA NAGAR,HASIGUDA,HYDERABAD-500007",HYDERABAD,HYDERABAD,TELANGANA,30898015
247,EQUITAS SMALL FINANCE BANK LIMITED,ESFB0005004,"S R NAGAR, HYDERABAD","D.NO -8-3-191/15,M G PLAZA,VENGALRAO NAGAR,SR NAGAR,HYDERABAD",HYDERABAD,HYDERABAD,TELANGANA,30898015
248,EQUITAS SMALL FINANCE BANK LIMITED,ESFB0005005,"KPHB, HYDERABAD","MIG-288,PHASE I& II,KPHB,HYDERBAD-500072",HYDERABAD,HYDERABAD,TELANGANA,30898017
249,EQUITAS SMALL FINANCE BANK LIMITED,ESFB0005006,AS RAO NAGAR,"1-1-257/1,PLOT NO 263,SRINIVASA NAGAR COLONY,A S RAO NAGAR,HYDERABAD -5000062",HYDERABAD,HYDERABAD,TELANGANA,30898017
250,EQUITAS SMALL FINANCE BANK LIMITED,ESFB0007001,MAIN - ANAND,"GROUND FLOOR,SHOP VANDEMATRAM K DIP.ADENWALA BUILDING,NEAR PIONEER HIGH SCHOOL,ANAND,GUJARAT",ANAND,ANAND,GUJARAT,30898015
251,EQUITAS SMALL FINANCE BANK LIMITED,ESFB0007002,MAIN - C G ROAD,"SARTHAK COMPLEX,GROUND FLOOR,NR.SWASTIK CHAR RASTA,SWASTIK CROSS ROAD - CG ROAD,AHMEDABAD,GUJARAT",AHMEDABAD,AHMEDABAD,GUJARAT,30898015
252,EQUITAS SMALL FINANCE BANK LIMITED,ESFB0007003,MAIN - MEHSANA,"SHOP NO 5A/5B GROUND FLOOR,SHRI MAHA LAXMI TYRE,OPP RAJKAMAL PETROL PUMP,HIGHWAY ROAD,MEHSANA-384402",MEHSANA,MEHSANA,GUJARAT,30898015
253,EQUITAS SMALL FINANCE BANK LIMITED,ESFB0007004,"MAIN - UDHANA , SURAT","Rivaa House, Near Udhna Darwaja, Surat, Gujarat",SURAT,SURAT,GUJARAT,30898015
254,EQUITAS SMALL FINANCE BANK LIMITED,ESFB0007005,KUMBHARIA ROAD,"NARANG HOUSE PLOT NO.6 & 7 BESIDES COSMOS BANK,MAGOB CROSS ROAD,PUNA KUMBHARIA ROAD,SURAT-395010",SURAT,SURAT,GUJARAT,30898015
255,EQUITAS SMALL FINANCE BANK LIMITED,ESFB0007006,VADODARA MAIN,"V3,SHOP NO -1,NR GOPINATHJI CHEVROLET SHOWROOM,PADRA ROAD,VADODARA,GUJARAT",OR,VADODARA,GUJARAT,30898017
256,EQUITAS SMALL FINANCE BANK LIMITED,ESFB0007007,JUNAGADH MAIN,"KALPAVRIKSH TOWNSHIP,YAMUNA WADI NI SAME,JUNAGADH-363001",JUNAGADH,JUNAGADH,GUJARAT,30898017
257,EQUITAS SMALL FINANCE BANK LIMITED,ESFB0007008,PATAN MAIN,"1ST FLOOR,MARUTI BUSINESS PARK,OPPOSITE TO NEW COURT,PATAN - 384265,AHMEDABAD,GUJARAT",PATAN,PATAN,GUJARAT,30898017
258,EQUITAS SMALL FINANCE BANK LIMITED,ESFB0007009,SURENDRANAGAR MAIN,"Mega mall-2, Milan main road, Surendra Nagar.",SURENDRANAGAR,SURENDRANAGAR,GUJARAT,30898015
259,EQUITAS SMALL FINANCE BANK LIMITED,ESFB0007010,BAMANGAM,"PATEL FALIYA,BAMANGAM,TA-KARAJAN,DI-BARODA -391243",BARODA,BARODA,GUJARAT,30898015
260,EQUITAS SMALL FINANCE BANK LIMITED,ESFB0007011,MAHEMDAVAD,"SHOP NO.01& 02,RADHEKISHAN PARK,KHATRAJ-MAHEMDAVAD ROAD,MAHEMMDAVAD - 387130",KHEDA,KHEDA,GUJARAT,30898015
261,EQUITAS SMALL FINANCE BANK LIMITED,ESFB0007012,BILIMORA,"SHARDA SADAN, GROUND FLOOR, SHOP NO.1 AND 2, NEAR KRISHNA COMPLEX, GAUHRBAUG ROAD, BILLIMORA,TAL.GANDEVI.DIST.NAVSARI.BILLIMORA -396321.",NAVSARI,NAVSARI,GUJARAT,30898017
262,EQUITAS SMALL FINANCE BANK LIMITED,ESFB0007013,VARACHHA,"PARAS STONE SUPPLIES,PLOT NO.1& 2,BESIDES SOHAMNAGAR SOCIETY,OPP.DOCTOR HOUSE,HIRABAG CIRCLE,VARACHHA ROAD,SURAT -395006",SURAT,SURAT,GUJARAT,30898017
263,EQUITAS SMALL FINANCE BANK LIMITED,ESFB0007014,BOTAD,"Hall No. 01, Ground Floor, Samruddh Complex, Paaliyad Road, Botad - 364710",BHAVNAGAR,BHAVNAGAR,GUJARAT,30898015
264,EQUITAS SMALL FINANCE BANK LIMITED,ESFB0007015,SHASTRI NAGAR,"SHOP NO.G-1,TAKSHASHILA COMPLEX,NR.VIJAY COLD DRINK,SHASTRI NAGAR,BHAVNGAR -364001",BHAVNAGAR,BHAVNAGAR,GUJARAT,30898015
265,EQUITAS SMALL FINANCE BANK LIMITED,ESFB0007016,"GONDAL ROAD,RAJKOT","SHOP NO.GF -1,NAKSHTRA 6,GONDAL ROAD,OPP RENAULT CAR SHOWROOM,RAJKOT-360002",RAJKOT,RAJKOT,GUJARAT,30898015
266,EQUITAS SMALL FINANCE BANK LIMITED,ESFB0007017,JAMNAGAR,"KUBER AVENUE,GROUND FLOOR,SHOP NO -1,GURUDWARA CHOWK,JAMNAGAR -361001,GUJARAT",JAMNAGAR,JAMNAGAR,GUJARAT,30898015
267,EQUITAS SMALL FINANCE BANK LIMITED,ESFB0007018,MANJALPUR,"SHOP NO B-8/9,SAIRUTU COMPLEX,NEAR TULSIDHAM CHAR RASTA,MANJALPUR,VADODARA",OR,VADODARA,GUJARAT,30898017
268,EQUITAS SMALL FINANCE BANK LIMITED,ESFB0007019,HIMMATNAGAR,"SHOP NO 2, GROUND FLOOR, UMIYA COMPLEX,GANDHI ROAD,NEAR PRATAP GADH PETROL PUMP,HIMMATNAGAR 383001.",SABARKANTHA,SABARKANTHA,GUJARAT,30898015
269,EQUITAS SMALL FINANCE BANK LIMITED,ESFB0007020,BODAKDEV,"SHOP NO.2,SHIVALIK HIGH STREET,KESHAVBAGH,VASTRAPUR,AHMEDABAD.",AHMEDABAD,AHMEDABAD,GUJARAT,30898015
270,EQUITAS SMALL FINANCE BANK LIMITED,ESFB0007021,LALAVADAR,"PLOT NO. 19 AND 20, OPP. BUS STAND, LALAVADAR,DISTRICT AMRELI-365601.",AMRELI,AMRELI,GUJARAT,30898015
271,EQUITAS SMALL FINANCE BANK LIMITED,ESFB0007022,RAKHIYAL,"SHOP NO 1& 2,GANESH PLAZA,AJIT MILL CROSS ROAD,RAKHIYAL,AHMEDABAD 380023",AHMEDABAD,AHMEDABAD,GUJARAT,30898017
272,EQUITAS SMALL FINANCE BANK LIMITED,ESFB0007023,PRAHALADNAGAR,"SHOP NO 10,DEV AURUM COMPLEX,NR.SEEMA HALL,PRAHLADNAGAR,AHMEDABAD -380015",AHMEDABAD,AHMEDABAD,GUJARAT,30898017
273,EQUITAS SMALL FINANCE BANK LIMITED,ESFB0007024,DAMEDA,"NR.KARUNA SAGAR BHAGWAN TEMPLE,DHAMEDA POST,TALUK MANSA,DIST GANDHINAGAR -382845",GANDHINAGAR,GANDHINAGAR,GUJARAT,30898017
274,EQUITAS SMALL FINANCE BANK LIMITED,ESFB0007025,NAVSARI,"GROUND FLOOR,RUSHABH PLAZA,OPP ASHA NAGAR,BESIDE YES BANK,STATION ROAD NAVSARI -396445",NAVSARI,NAVSARI,GUJARAT,30898017
275,EQUITAS SMALL FINANCE BANK LIMITED,ESFB0007026,RACE COURSE,"SHOPNO5,THEEMERALD,NR.ALKAPURITELEPHONEEXCHANGE,CHAKLICIRCLE,RACECOURSE,VADODARA-390007",OR,VADODARA,GUJARAT,30898017
276,EQUITAS SMALL FINANCE BANK LIMITED,ESFB0008001,RAIPUR,"SAMVET SHIKHAR,SHOP NO.7,8,9,12,13,14 UPPER GROUND FLOOR,RAJBANDHA MAIDAN,RAIPUR(C.G.)492001",RAIPUR,RAIPUR,CHHATTISGARH,30898015
277,EQUITAS SMALL FINANCE BANK LIMITED,ESFB0008002,BHILAI,"PLOT NO -A-9& A-10,VEER SAVARKAR MARKET,POWER HOUSE,G.E.ROAD,BHILAI DIST,DURG C.G - 490011,CHHATTISGARH",DURG,DURG,CHHATTISGARH,30898015
278,EQUITAS SMALL FINANCE BANK LIMITED,ESFB0008003,JANJGIR,"LINK ROAD,BHAWANI PLAZA,JANJGIR-495668",JANJGIR CHAMPA,JANJGIR CHAMPA,CHHATTISGARH,30898015
279,EQUITAS SMALL FINANCE BANK LIMITED,ESFB0008004,BILASPUR,"A V TOWER GROUND FLOOR,P.H.NO 22/35 WARD NO.7 GURU GHASIDAS NAGAR WARD,MAHARAN PRATAP CHOWK,RAIPUR ROAD,BILASPUR-495001",BILASPUR,BILASPUR,CHHATTISGARH,30898017
280,EQUITAS SMALL FINANCE BANK LIMITED,ESFB0008005,DURG,"GROUND FLOOR-MEGH GANGA PLAZA,AGRASEN CHOWK(C.G)491001",UG,DURG,CHHATTISGARH,30898015
281,EQUITAS SMALL FINANCE BANK LIMITED,ESFB0008006,KORBA,"PLOT NO-82 INDIRA COMMERCIAL COMPLEX,T.P NAGAR,KORBA - 495677",KORBA,KORBA,CHHATTISGARH,30898017
282,EQUITAS SMALL FINANCE BANK LIMITED,ESFB0009001,INDRAYANI NAGAR PUNE,"BHURAT HEIGHTS,GROUND FLOOR,PLOT NO JP/11/1,J-BLOCK,INDRAYANI NAGAR,CHINCHWAD,PUNE-411057",PUNE,PUNE,MADHYA PRADESH,30898015
283,EQUITAS SMALL FINANCE BANK LIMITED,ESFB0009002,KALYAN,"SHOP NO12,MURBAD ROAD,SINDHI GATE,KALYAN,THANE-110057",THANE,THANE,MAHARASHTRA,30898015
284,EQUITAS SMALL FINANCE BANK LIMITED,ESFB0009003,KANDRI,"Jabalpur-Nagpur Road, Opposite MSEB Office, Kandri-441401, Maharashtra",NAGPUR,NAGPUR,MAHARASHTRA,30898015
285,EQUITAS SMALL FINANCE BANK LIMITED,ESFB0009004,MULUND WEST,"ALPS HEIGHTS,SHOP NO - 4&5,DR.R.P.ROAD,MULUND ( W),MAHARASHTRA",MUMBAI,MUMBAI,MAHARASHTRA,30898015
286,EQUITAS SMALL FINANCE BANK LIMITED,ESFB0009005,SHAHUPURI,"C.T.S.NO.889,PKP EMPIRE,SHOP NO.G-1,E WARD SHAHUPURI,KOLHAPUR,DIST KOLHAPUR,PINCODE 416 001",KOLHAPUR,KOLHAPUR,MAHARASHTRA,30898017
287,EQUITAS SMALL FINANCE BANK LIMITED,ESFB0009006,VASHI,"SHOP NO 12/13/14,APSARA SOC.SEC - 17,VASHI NAVI,MUMBAI,MAHARASHTRA",THANE,THANE,MAHARASHTRA,30898015
288,EQUITAS SMALL FINANCE BANK LIMITED,ESFB0009007,WARDHA,"Dhantoli Chowk, Bachelor Road, Near Deshmukh Bakery, Wardha-442001.",WARDHA,WARDHA,MAHARASHTRA,30898015
289,EQUITAS SMALL FINANCE BANK LIMITED,ESFB0009008,BHANDARA,"MRS.JYOTI PUNAMCHAND BAWANKAR,GROUND FLOOR,J.P.TOWER,RAJIV GANDHI CHOWK,JAIL ROAD,BHANDARA 441904,MAHARASHTRA",BHANDARA,BHANDARA,MAHARASHTRA,30898015
290,EQUITAS SMALL FINANCE BANK LIMITED,ESFB0009009,WANI,"SAI MANDIR SQUARE,MAIN YAVATMAL ROAD,WANI -445304,MAHARASHTRA",YAVATMAL,YAVATMAL,MAHARASHTRA,30898017
291,EQUITAS SMALL FINANCE BANK LIMITED,ESFB0009010,AMRAVATI,"A-Wing, Ground floor, Vimaco Towers, Bus Stand Road, Amravati, Maharashtra ┬û 444601.",AMRAVATI,AMRAVATI,MAHARASHTRA,30898015
292,EQUITAS SMALL FINANCE BANK LIMITED,ESFB0009011,BRAMHAPURI,"BESIDE LADUKAR HOSPITAL SHESH NAGAR,BRAMHAPURI,DIST.CHANDRAPUR -441206",CHANDRAPUR,CHANDRAPUR,MAHARASHTRA,30898017
293,EQUITAS SMALL FINANCE BANK LIMITED,ESFB0009012,SANGAMNER,"166,GROUNDFLOOR,SAILEELACOMPLEX,NEARBIBWEHOSPITAL,OPP.PRANTOFFICE,SANGAMNER,AHMEDNAGAR-422605",AHMED NAGAR,AHMED NAGAR,MAHARASHTRA,30898017
294,EQUITAS SMALL FINANCE BANK LIMITED,ESFB0009013,NIGHOTWADI,"SAI BUNGALOW,NIGHOTWADI,POST MANCHAR,TAL - AMBEGAON,PUNE-410503",PUNE,PUNE,MAHARASHTRA,30898017
295,EQUITAS SMALL FINANCE BANK LIMITED,ESFB0009014,GHATKOPAR,"SHOP NO-6,7,8,9,GROUND FLOOR,PARMESHWAR NIKETAN CHS LTD,RAJAWADI ROAD,GHATKOPAR EAST",MUMBAI,MUMBAI,MAHARASHTRA,30898015
296,EQUITAS SMALL FINANCE BANK LIMITED,ESFB0009015,NASHIK - GANGAPUR ROAD,"SHOPNO.3,GROUNDFLOOR,RUSHIRAJREGENCY,NEARVIDYAVIKASCIRCLE,GANGAPURROAD,NASHIK-422005",NASHIK,NASHIK,MAHARASHTRA,30898015
297,EQUITAS SMALL FINANCE BANK LIMITED,ESFB0009016,SHINGWE,"PLOT NO.2, S.NO.144 BY 3B1 AND 2,A.P.SHINGWE,TAL.SHIRPUR, DIST.DHULE PIN 425405",NASHIK,NASHIK,MAHARASHTRA,30898015
298,EQUITAS SMALL FINANCE BANK LIMITED,ESFB0009017,WATHAR NIMBALKAR,"A.P WATHAR NIMBALKAR,NEAR S.T.STAND,TAL PHALTAN,SATARA -415 523",SATARA,SATARA,MAHARASHTRA,30898015
299,EQUITAS SMALL FINANCE BANK LIMITED,ESFB0009018,LONAVALA,"NO.C-66,CTS NO.4BY1,4BY2,HOTEL ANNAPURNA,OLD PUNE-MUMBAI ROAD,LONAVALA,PUNE-410401",PUNE,PUNE,MAHARASHTRA,30898017
300,EQUITAS SMALL FINANCE BANK LIMITED,ESFB0009019,MANMAD,"947,FIRSTFLOOR,SURANASANKUL,NEARINDIANHIGHSCHOOL,OPP.RAILWAYSTATION,MANMAD,NASHIK-423104",NASHIK,NASHIK,MAHARASHTRA,30898017
301,EQUITAS SMALL FINANCE BANK LIMITED,ESFB0009020,DHULE,"SHOPNO.32,BSQUARE,UPPERGROUNDFLOOR,LANENO.06,OPP.ICICIBANK,PAROLAROAD,DHULE-424001",DHULE,DHULE,MAHARASHTRA,30898017
302,EQUITAS SMALL FINANCE BANK LIMITED,ESFB0009021,NEW PANVEL,"SHOP NO.1,2,26& 27,MUNOTH EXPRESS,AMBEDKAR ROAD,OPP.S T DEPOT,PANVEL,RAIGAD -410206",RAIGAD,RAIGAD,MAHARASHTRA,30898017
303,EQUITAS SMALL FINANCE BANK LIMITED,ESFB0009022,UDGIR,"ABHINAV ARCADE,DATTA NAGAR,BIDAR ROAD,MADLAPUR,TQ -UDGIR,LATUR -413517",LATUR,LATUR,MAHARASHTRA,30898017
304,EQUITAS SMALL FINANCE BANK LIMITED,ESFB0009023,BANER,"ELLORA PRIDE,S NO 110/11,NEAR DMART,BANER ROAD,PUNE -411 045",PUNE,PUNE,MAHARASHTRA,30898017
305,EQUITAS SMALL FINANCE BANK LIMITED,ESFB0009024,THANE - GHODBANDER ROAD,"SHOP NO.3,GROUND FLOOR,COSMOS JEWELS,NR.D-MART,G B ROAD,THANE -400615",THANE,THANE,MAHARASHTRA,30898015
306,EQUITAS SMALL FINANCE BANK LIMITED,ESFB0009025,KAROLI,"KAROLI,MAIN PATH LINE,OPPOSITE TO AMRUTLING TEMPLE,KAROLI,SANGLI -416405",SANGLI,SANGLI,MAHARASHTRA,30898015
307,EQUITAS SMALL FINANCE BANK LIMITED,ESFB0009026,RAMTEK,"KHALATKAR HALL,SHOP NO.10,11& 12,OPP.TO BUS STAND,MAIN ROAD,RAMTEK,NAGPUR,MAHARASTRA",NAGPUR,NAGPUR,MAHARASHTRA,30898015
308,EQUITAS SMALL FINANCE BANK LIMITED,ESFB0009027,DAUND,"CST NO 2771,128/1B,PLOT NO 10,NEAR RAJDHANI HOTEL,OPP HDFC BANK,PATAS ROAD,DAUND -413 801",PUNE,PUNE,MAHARASHTRA,30898017
309,EQUITAS SMALL FINANCE BANK LIMITED,ESFB0009028,TALEGAON,"BLOCK ON 9,10 AND SHOP NO.12,13,14,AMBIKA CORNER APTS,PLOT NO.6 AND 7,S.NO.720/1 AND 2,CTS NO.4749 AND 4750,TALEGAON DABHADE,TALUKA MAVAL,DISTRICT PUNE,MAHARASHTRA-410506",PUNE,PUNE,MAHARASHTRA,30898015
310,EQUITAS SMALL FINANCE BANK LIMITED,ESFB0009029,PANDHARPUR,"GROUND FLOOR,PRABHAKAR TENDULKAR PLAZA,CTS NO.4256/A/2,NEAR BALKASHARAM,PANDHARPUR,MAHARASHTRA - 413304",SOLAPUR,SOLAPUR,MAHARASHTRA,30898015
311,EQUITAS SMALL FINANCE BANK LIMITED,ESFB0009030,AURANGABAD,"PLOT NO.12,TOWN CENTER,CIDCO,AURANGABAD -431003",AURANGABAD,AURANGABAD,MAHARASHTRA,30898015
312,EQUITAS SMALL FINANCE BANK LIMITED,ESFB0009031,SHANKAR NAGAR,"PLOT NO.12,WHC ROAD,SHANKAR NAGAR,NAGPUR-440010",NAGPUR,NAGPUR,MAHARASHTRA,30898015
313,EQUITAS SMALL FINANCE BANK LIMITED,ESFB0009032,KOTHRUD,"HPN.18 AND 19, DAMDARVILLE N.3AND 21,OPP KTHRUD BUSSTAND, KTHRUD, PUNE-411038",PUNE,PUNE,MAHARASHTRA,30898015
314,EQUITAS SMALL FINANCE BANK LIMITED,ESFB0009033,MARKET YARD,"GOLDEN EMERALD,473/14 B,GULTEKDI,SALISBURRY PARK AREA,MARKET YARD,PUNE MAHARASHTRA-411037",PUNE,PUNE,MAHARASHTRA,30898015
315,EQUITAS SMALL FINANCE BANK LIMITED,ESFB0009034,PIMPRI,"FUSION PARK,UPPER GROUND FLOOR,SHOP NO.63 AND 67,MASULKAR COLONY,PIMPRI,PUNE MAHARASHTRA 411018.",PUNE,PUNE,MAHARASHTRA,30898015
316,EQUITAS SMALL FINANCE BANK LIMITED,ESFB0009035,NILANGA,PLOT NO 10 SR NO 296/KH H NO 1/3/568 PANCHAL COLONY NILANGA DIST LATUR 431521,LATUR,LATUR,MAHARASHTRA,30898017
317,EQUITAS SMALL FINANCE BANK LIMITED,ESFB0009036,SAAT RASTA,"BALAJI BHAVAN,GROUND FLOOR,NEAR GARUD BANGLOW,SAAT RASTA SOLAPUR 413001",SOLAPUR,SOLAPUR,MAHARASHTRA,30898015
318,EQUITAS SMALL FINANCE BANK LIMITED,ESFB0009037,BARSHI,"GROUND FLOOR,CTS NO.3985/5,OPPOSITE ST STAND,ST STAND CHOWK,BARSHI -413401",SOLAPUR,SOLAPUR,MAHARASHTRA,30898015
319,EQUITAS SMALL FINANCE BANK LIMITED,ESFB0009038,KINGSWAY,"345,SHREEMOHINI USHA COMPLEX,S.V ROAD,KINGSWAY,NAGPUR 440001",NAGPUR,NAGPUR,MAHARASHTRA,30898015
320,EQUITAS SMALL FINANCE BANK LIMITED,ESFB0009039,CHEMBUR,"SHOP NO.5(PART ) 6& 7,GROUND FLOOR,RUNWAL GRANDEUR,CHS,18 TH ROAD,D K SANDHU MARG,NR.GANDHI MAIDAN,CHEMBUR,MUMBAI-400071",MUMBAI,MUMBAI,MAHARASHTRA,30898017
321,EQUITAS SMALL FINANCE BANK LIMITED,ESFB0009040,BAHADURA,"PLOT NO.1,PANDEY COMPLEX,NEAR NEW NAKA GONHI SIM,UMRER ROAD,BAHADURA,NAGPUR DISTRICT 440034",NAGPUR,NAGPUR,MAHARASHTRA,30898015
322,EQUITAS SMALL FINANCE BANK LIMITED,ESFB0009041,BULDHANA,"NEAR DARADA AGENCIES,CLUB LAYOUT,STADIUM ROAD,BULDHANA 443001",BULDHANA,BULDHANA,MAHARASHTRA,30898017
323,EQUITAS SMALL FINANCE BANK LIMITED,ESFB0009042,JALGAON,"SATYAM PLAZA,SHOP NO.6,7,8 BELOW FM RADIO OFFICE,POLAN PETH,JALGAON -425001",JALGAON,JALGAON,MAHARASHTRA,30898017
324,EQUITAS SMALL FINANCE BANK LIMITED,ESFB0009043,SATARA,CUCHP/UVN.3ALHKJUF-4.,SATARA,SATARA,MAHARASHTRA,30898017
325,EQUITAS SMALL FINANCE BANK LIMITED,ESFB0009044,KARAD,"KRISHNA NAKA,BEHIND COSMOS BANK,MANGALWAR PETH,KARAD 415110",SATARA,KARAD,MAHARASHTRA,30898017
326,EQUITAS SMALL FINANCE BANK LIMITED,ESFB0009045,YAVATMAL,"BRIJSHANTI COMPLEX,CIVIL LINES,YAVATMAL 445001",YAVATMAL,YAVATMAL,MAHARASHTRA,30898017
327,EQUITAS SMALL FINANCE BANK LIMITED,ESFB0009046,WAGHODA,"REYMONDS COLONY,NEW GUJARKHED ROAD,NEAR NAG MANDIR,POST MALEGAON,TALUKA SAONER.PIN - 441107",NAGPUR,NAGPUR,MAHARASHTRA,30898015
328,EQUITAS SMALL FINANCE BANK LIMITED,ESFB0009047,KASABA BEED,"SHAMRAO KRISHANRAO PATIL COMMERCIAL COMPLEX,SHIROLI DHUMALA - BAHIRESHWAR ROAD,BEEDSHED CHOWK,A/P KASABA BEED,TALUK KARVEER,MAHARASHTRA 416001",KOLHAPUR,KOLHAPUR,MAHARASHTRA,30898017
329,EQUITAS SMALL FINANCE BANK LIMITED,ESFB0009048,OSMANABAD,"MAIN ROAD,SAMATA COLONY,OSMANABAD -413501",OSMANABAD,OSMANABAD,MAHARASHTRA,30898017
330,EQUITAS SMALL FINANCE BANK LIMITED,ESFB0009049,ISASANI,"SHOP NO 1 TO 8,SUMANGAL VIHAR,ISASANI,TAH-HINGNA,NAGPUR -440016",NAGPUR,ISASANI,MAHARASHTRA,30898017
331,EQUITAS SMALL FINANCE BANK LIMITED,ESFB0009050,GULMANDI,"SEETA SADAN,CTS NO 5688,DIWAN DEODI ROAD,NEAR GULMANDI,AURANGABAD,MAHARASHTRA 431001",AURANGABAD,AURANGABAD,MAHARASHTRA,30898017
332,EQUITAS SMALL FINANCE BANK LIMITED,ESFB0009051,WASHIM,"SHOP NO 1 2 3,UPPER GR FLOOR,A WING PATNI COMMERCIAL COMPLEX,RISOD ROAD,WASHIM,MAHARASHTRA 444505",WASHIM,WASHIM,MAHARASHTRA,30898017
333,EQUITAS SMALL FINANCE BANK LIMITED,ESFB0009052,NAIGAON,"NAIGAON VILALGE,NAIGAON POST,TALUK -KHANDALA,SATARA -412801",SATARA,SATARA,MAHARASHTRA,30898017
334,EQUITAS SMALL FINANCE BANK LIMITED,ESFB0009053,ICHALKARANJI,"GOKUL BHAVAN,WARD NO.12,HOUSE NO.14,BUNGLOW ROAD,ICHALKARANJI,KOLHAPUR -416 115",KOLHAPUR,KOLHAPUR,MAHARASHTRA,30898017
335,EQUITAS SMALL FINANCE BANK LIMITED,ESFB0009054,AKLUJ,"NEAR BANK OF MAHARASHTRA,PRATAP SINGH CHOWK,AKLUJ MAHARASHTRA-413101",SOLAPUR,SOLAPUR,MAHARASHTRA,30898017
336,EQUITAS SMALL FINANCE BANK LIMITED,ESFB0009055,NARHE,"UPPER GROUND FLOOR SHOP 1 2 3 4 5,S NO 46/2 CHAKANKAR CORNER,NARHE MAHARASHTRA-411041",PUNE,PUNE,MAHARASHTRA,30898017
337,EQUITAS SMALL FINANCE BANK LIMITED,ESFB0011001,BHIWANI,"PLOT NO 7,VIJAY NAGAR,MAIN HANSI ROAD,OPPOSITE EASYDAY,BHIWANI",BHIWANI,BHIWANI,HARYANA,30898015
338,EQUITAS SMALL FINANCE BANK LIMITED,ESFB0011002,FARIDABAD,"H.NO -5-B-05,B.P,NIT,FARIDABAD,HARYANA",FARIDABAD,FARIDABAD,HARYANA,30898015
339,EQUITAS SMALL FINANCE BANK LIMITED,ESFB0011003,REWARI,"SCO 121,121A & 12 BRASS MARKET,REWARI,HARYANA-123401",REWARI,REWARI,HARYANA,30898017
340,EQUITAS SMALL FINANCE BANK LIMITED,ESFB0011004,ROHTAK,"NO 120/21,CIVIL ROAD,OPPOSITE TO MNYA TOURISOM,ROHTAK",ROHTAK,ROHTAK,HARYANA,30898017
341,EQUITAS SMALL FINANCE BANK LIMITED,ESFB0011005,OLD GURGAON-SEC,"SCO - 40,OLD JUDICIAL COMPLEX,SECTOR - 15,GURGAON,HARYANA-122001",GURGOAN,GURGOAN,HARYANA,30898017
342,EQUITAS SMALL FINANCE BANK LIMITED,ESFB0011006,BAHADURGARH,"Raj Complex, Mahaveer Park, Opp Corporation Bank, Bahadurgarh",JHAJJAR,JHAJJAR,HARYANA,30898015
343,EQUITAS SMALL FINANCE BANK LIMITED,ESFB0011007,SIRSA,"B24-1,JANTA BHAWAN ROAD,SHIVAJI COLONY,SIRSA.HARYANA",SIRSA,SIRSA,HARYANA,30898015
344,EQUITAS SMALL FINANCE BANK LIMITED,ESFB0011008,KARNAL,"SCO -252,SECTOR - 12,HUDA MARKET,KARNAL.HARYANA",KARNAL,KARNAL,HARYANA,30898015
345,EQUITAS SMALL FINANCE BANK LIMITED,ESFB0014001,GULMOHAR,"PLOT NO - E-8/360,GROUND FLOOR,ESFB GULMOHAR,BHOPAL",BHOPAL,BHOPAL,MAHARASHTRA,30898015
346,EQUITAS SMALL FINANCE BANK LIMITED,ESFB0014002,PIPLIYAHANA,"NO 83,GROUND FLOOR,SWAMI VIVEKANAND NAGAR MAIN ROAD,INDORE",INDORE,INDORE,MADHYA PRADESH,30898015
347,EQUITAS SMALL FINANCE BANK LIMITED,ESFB0014003,VIDISHA,"GHARSANSAR SUPER MARKET CIVIL LINES,VIDHISHA",VIDHISHA,VIDHISHA,MADHYA PRADESH,30898015
348,EQUITAS SMALL FINANCE BANK LIMITED,ESFB0014004,BHAWARKUA INDORE,"O-8,ASHOKAGAR,BHAWARKUARAOD,INDORE,MADHYAPRADESH",INDORE,INDORE,MADHYA PRADESH,30898015
349,EQUITAS SMALL FINANCE BANK LIMITED,ESFB0014005,KOSMI,"NOVELTY HOUSE ROAD,WARD NO.18,BALAGHAT,MADHYA PRADESH",BALAGHAT,BALAGHAT,MADHYA PRADESH,30898015
350,EQUITAS SMALL FINANCE BANK LIMITED,ESFB0014006,BINA,"Achwal Ward, Station Road, Bina Disst, Sagar M.P",SAGAR,SAGAR,MADHYA PRADESH,30898017
351,EQUITAS SMALL FINANCE BANK LIMITED,ESFB0014007,BURHANPUR,"SAIFEE COMPLEX,NO - 282/19,AMRAVATI ROAD,BESIDE HDFC BANK,BURHANPUR,MADYAPRADESH",BURHANPUR - EAST NIMAR,BURHANPUR - EAST NIMAR,MADHYA PRADESH,30898015
352,EQUITAS SMALL FINANCE BANK LIMITED,ESFB0014008,KHANDWA,"RAMACHARAN TOWER,RAMESHWAR ROAD,KHANDWA,MADHYA PRADESH-450001",KHANDWA - EAST NIMAR,KHANDWA - EAST NIMAR,MADHYA PRADESH,30898017
353,EQUITAS SMALL FINANCE BANK LIMITED,ESFB0014009,UJJAIN,"MAHAVIR NAGAR,INDORE ROAD,MADHYA PRADESH-456001",UJJAIN,UJJAIN,MADHYA PRADESH,30898015
354,EQUITAS SMALL FINANCE BANK LIMITED,ESFB0014010,DEWAS,"PLOT NO - 3,GROUND FLOOR,NARAYAN NAGAR,A.B.ROAD,DEWAS",DEWAS,DEWAS,MADHYA PRADESH,30898017
355,EQUITAS SMALL FINANCE BANK LIMITED,ESFB0014011,WRIGHT TOWN JABALPUR,"NO - 1600,NEAR CHANCHALA BAI COLLAGE,WRIGHT TOWN,JABALPUR,MADHYA PRADESH",RAJKOT,RAJKOT,MADHYA PRADESH,30898015
356,EQUITAS SMALL FINANCE BANK LIMITED,ESFB0014012,KAYASTHKHEDI,"GRAM KAYASTH KHEDI,VEH SANWER,INDORE,MADHYA PRADESH",INDORE,INDORE,MADHYA PRADESH,30898017
357,EQUITAS SMALL FINANCE BANK LIMITED,ESFB0014013,DHAR,"NO -25,25/1,RAJAJAI MARG,HOTEL ROYAL RESIDENCY,NEAR BUS STAND DHAR,MADHYAPRADESH -454001",DHAR,DHAR,MADHYA PRADESH,30898017
358,EQUITAS SMALL FINANCE BANK LIMITED,ESFB0014014,SHAHDOL,"GOUND FLOOR,RAJENDRA TALKIES CHOWK, SHAHDOL (M.P)",SHAHDOL,SHAHDOL,MADHYA PRADESH,30898015
359,EQUITAS SMALL FINANCE BANK LIMITED,ESFB0014015,RATLAM,"NO-649,SAROJ SAROVER,MITRA NIWAS ROAD,RATLAM,MADHYA PRADESH",RATLAM,RATLAM,MADHYA PRADESH,30898015
360,EQUITAS SMALL FINANCE BANK LIMITED,ESFB0014016,SAGAR,"BHOPAL SAGAR ROAD,SUBHASH NAGAR,BHAGWANGANJ,NEAR UNION BANK OF INDIA,SAGAR,MADHYA PRADESH -470001",SAGAR,SAGAR,MADHYA PRADESH,30898015
361,EQUITAS SMALL FINANCE BANK LIMITED,ESFB0014017,PIDGAON,"SURVEY NO.131/4& 132/2,SETTLEMENT NO.4,P.C.NO.12,VILLAGE - ATRASMA,(LANDMARK BHAMBU WAREHOUSE),BLOCK HARDA,RNM - HANDIYA,DIST - HARDA,M.P 461331",HARDA,HARDA,MADHYA PRADESH,30898015
362,EQUITAS SMALL FINANCE BANK LIMITED,ESFB0014018,PADONIA,"BHOPAL BY PASS,CHOURGHA GRAM,TALAWADA P.O,PADONIYA,CHAMPAPURA,MADHYA PRADESH 465674",RAISEN,RAISEN,MADHYA PRADESH,30898015
363,EQUITAS SMALL FINANCE BANK LIMITED,ESFB0014019,CHHINDWARA,"GROUND FLOOR,SHANTINATH HEIGHTS,BESIDE PATNI PETROL PUMP,STATION ROAD,DISTT-CHHINDWARA M.P 480001",CHHINDWARA,CHHINDWARA,MADHYA PRADESH,30898015
364,EQUITAS SMALL FINANCE BANK LIMITED,ESFB0014020,KATNI,"RADHE TRADERS,JABALPUR ROAD,BARGAWAN,OPPOSITE LIC BUILDING,DIST-KATNI,M.P 483501",KATNI,KATNI,MADHYA PRADESH,30898015
365,EQUITAS SMALL FINANCE BANK LIMITED,ESFB0014021,MP-ASHOKNAGAR,"VIDISHA BYPASS ROAD,HDFC TIRAHA,NEAR KOTAK BANK,ASHOK NAGAR,MADHYA PRADESH.473331",ASHOK NAGAR - GUNA,ASHOK NAGAR - GUNA,MADHYA PRADESH,30898015
366,EQUITAS SMALL FINANCE BANK LIMITED,ESFB0014022,BETUL,"AABAKARI ROAD,DILBAHAR CHOWK,BESIDE OM MEDICAL.GANJ.BETUL 460001",BETUL,BETUL,MADHYA PRADESH,30898015
367,EQUITAS SMALL FINANCE BANK LIMITED,ESFB0014023,SATNA,"AHINSA TOWER,NEAR SBI CITY BRANCH,IN F/O PUSHKARNI PARK,DIST HOSPITAL ROAD,SATNA 485001",SATNA,SATNA,MADHYA PRADESH,30898017
368,EQUITAS SMALL FINANCE BANK LIMITED,ESFB0014024,REWA,"GROUND FLOOR,BLOCK NO1,OPPOSITE MISHRA PETROL PUMP,NEHRU NAGAR,NH-7,REWA,M.P,PIN-486001.",REWA,REWA,MADHYA PRADESH,30898015
369,EQUITAS SMALL FINANCE BANK LIMITED,ESFB0014025,DHAMTARI,"KHASRA NO 399/1,GROUND FLOOR,DURG ROAD,DHAMTARI-493773,CG",DHAMTARI,DHAMTARI,CHHATTISGARH,30898015
370,EQUITAS SMALL FINANCE BANK LIMITED,ESFB0014026,BAWARIKHEDA,"BAWARIKHEDA,JAIMALPURA,MAHESHWAR ROAD,BADWAHA",KHARGAON,KHARGAON,MADHYA PRADESH,30898017
371,EQUITAS SMALL FINANCE BANK LIMITED,ESFB0014027,KUNDALA,"PANCHAYAT BHAWAN,NEAR RAMKRISHNA AASHRAM,KUNDALA VILLAGE,KOHKAMETTA POST OFFICE,NARAYANPUR DISTRICT-494661",NARAYANPUR,NARAYANPUR,CHHATTISGARH,0
372,EQUITAS SMALL FINANCE BANK LIMITED,ESFB0014028,BHOSTOLA,"VYAVASAIK COMPLEX,BHOSTOLA VILLAGE,MARRI POST OFFICE,RAJNANDGAON DISTRICT -491665",RAJNANDGAON,RAJNANDGAON,CHHATTISGARH,0
373,EQUITAS SMALL FINANCE BANK LIMITED,ESFB0015001,"GILL ROAD, LUDHINA","JBN TOWER,NEAR VISHKARMA CHOWK,GILL ROAD,LUDHINA -141001",LUDHIANA,LUDHIANA,PUNJAB,30898015
374,EQUITAS SMALL FINANCE BANK LIMITED,ESFB0015002,AMRITSAR,"NO.10,DEEP COMPLEX,OPPOSITE DOABA MOTORS,AMRITSAR",AMRITSAR,AMRITSAR,PUNJAB,30898017
375,EQUITAS SMALL FINANCE BANK LIMITED,ESFB0015003,GRUPAR,"OPPOSITE GAGAN PALACE,VILLAGE GARUPAR,NAWANSHAHR -144417",SHAHEEDBHAGATSINGHNAGAR,SHAHEED BHAGAT SINGH NAGAR,PUNJAB,30898017
376,EQUITAS SMALL FINANCE BANK LIMITED,ESFB0015004,MOGA,"SCO NO -17,MPROVEMENT TRUST BUILDING,FEROZEPUR ROAD, MOGA .",MOGA,MOGA,PUNJAB,30898017
377,EQUITAS SMALL FINANCE BANK LIMITED,ESFB0015005,CHANDIGARH,"C O 2421-22,ECTOR 22 C,CHANDIGARH",CHANDIGARH,CHANDIGARH,CHANDIGARH,30898015
378,EQUITAS SMALL FINANCE BANK LIMITED,ESFB0015006,JALANDHAR,"BM TOWER,76,VIJAY NAGAR,MAHAVIR MARG,JALANDHAR -144 001",JALANDHAR,JALANDHAR,PUNJAB,30898015
379,EQUITAS SMALL FINANCE BANK LIMITED,ESFB0015007,BATHINDA,"WALIA COMPLEX,NO.17823,OPPOSITE CLOCK TOWER,MAIN BIBI WALA ROAD CHOWK,BATHINDA-151001",BATHINDA,BATHINDA,PUNJAB,30898015
380,EQUITAS SMALL FINANCE BANK LIMITED,ESFB0015008,SALEMPUR,"SALEMPUR,POST OFFICE NOORPUR BET,TEHSIL& DISTRICT LUDHIANA,PUNJAB 141110",LUDHIANA,LUDHIANA,PUNJAB,30898015
381,EQUITAS SMALL FINANCE BANK LIMITED,ESFB0016001,VAISHALI,"NO-B-99,VAISHALI MARG,NEAR NATIONAL HANDLOOM,VAISHALI,JAIPUR",JAIPUR,JAIPUR,RAJASTHAN,30898015
382,EQUITAS SMALL FINANCE BANK LIMITED,ESFB0016002,BALOTRA,"Hotel Mahaveer International, Pachpadra Road, Opposite Jat Samaj, Near New Bus Stand, Balotra - 344022, Rajasthan.",BARMER,BARMER,RAJASTHAN,30898015
383,EQUITAS SMALL FINANCE BANK LIMITED,ESFB0016003,MAKRANA,"MANGLANA ROAD,GODAWAS MAKRANA,RAJASTHAN",NAGAUR,NAGAUR,RAJASTHAN,30898015
384,EQUITAS SMALL FINANCE BANK LIMITED,ESFB0016004,BHILWARA,"LEYLAND CHORAHA,PUR ROAD,BHILWARA-311001,RAJASTHAN",BHILWARA,BHILWARA,RAJASTHAN,30898017
385,EQUITAS SMALL FINANCE BANK LIMITED,ESFB0016005,KOTA,"PLOT NO 396,SHOPPING CENTER,AERODROME CIRCLE,KOTA,RAJASTHAN - 324009",KOTA,KOTA,RAJASTHAN,30898017
386,EQUITAS SMALL FINANCE BANK LIMITED,ESFB0016006,BANSWARA,"Plot No. 132, Opp. Shrinath Ashram, Mohan Colony, Banswara, Rajasthan - 327001",BANSWARA,BANSWARA,RAJASTHAN,30898017
387,EQUITAS SMALL FINANCE BANK LIMITED,ESFB0016007,SUMERPUR,"Hari Plaza, Gandhi Chauraha, Main Bazar, Sumerpur, District - Pali, Rajasthan - 306902",PALI,PALI,RAJASTHAN,30898015
388,EQUITAS SMALL FINANCE BANK LIMITED,ESFB0016008,CHITTORGARH,"PLOT NO.27,RAJEEV COLONY,CHITTORGARH,RAJASTHAN-312001",CHITTORGARH,CHITTORGARH,RAJASTHAN,30898015
389,EQUITAS SMALL FINANCE BANK LIMITED,ESFB0016009,KISHANGARH,"HOTEL CITY HEART,NEAR BUS STAND,MADANGANJ,KISHANGARH,RAJASTHAN -305801",AJMER,AJMER,RAJASTHAN,30898017
390,EQUITAS SMALL FINANCE BANK LIMITED,ESFB0016010,AJMER,"Bansal Building, Opposite Railway Station Malgodown, Station Road, Ajmer, Rajasthan - 305001",AJMER,AJMER,RAJASTHAN,30898017
391,EQUITAS SMALL FINANCE BANK LIMITED,ESFB0016011,MALPURA,"PLOT NO.28,WARD NO.9,TODA ROAD,MALPURA,DIST -TONK,RAJASTHAN,304504",TONK,TONK,RAJASTHAN,30898015
392,EQUITAS SMALL FINANCE BANK LIMITED,ESFB0016012,SANGANER,"176,SANT KUTTER,NAGAR NIGAM OFFICE,SANGANER BAZAAR,SANGANER,JAIPUR,RAJASTHAN",JAIPUR,JAIPUR,RAJASTHAN,30898015
393,EQUITAS SMALL FINANCE BANK LIMITED,ESFB0016013,C-SCHEME,"Shop No. 38, 39 and 40,Laxmi Complex, Khasara No. 381, Gram Hathori, M.I. Road, Jaipur ,Rajasthan - 302001",JAIPUR,JAIPUR,RAJASTHAN,30898015
394,EQUITAS SMALL FINANCE BANK LIMITED,ESFB0016014,JODHPUR,"Plot No.-87/B/1, Situated at Bombay Motors Circle, Chopasani Road, Jodhpur, Rajasthan",JODHPUR,JODHPUR,RAJASTHAN,30898015
395,EQUITAS SMALL FINANCE BANK LIMITED,ESFB0016015,JHAI,"KALWAADA ROAD,BEHIND JAGDAMBA MOTORS,VILLAGE JHAI,POST BAMBHORIA,TEHSIL -SANGANER,DISTRICT JAIPUR",JAIPUR,JAIPUR,RAJASTHAN,30898015
396,EQUITAS SMALL FINANCE BANK LIMITED,ESFB0016016,KOTUTLI,"Mankash Tower, Khasra No. 1225, Opp. Of Krashi upaj Mandi, Bansur Raod, Kotputli, Tehsil- Kotputli, Dist- Jaipur, Rajasthan - 303108",JAIPUR,JAIPUR,RAJASTHAN,30898015
397,EQUITAS SMALL FINANCE BANK LIMITED,ESFB0016017,JALORE,"PLOT NO.62,SURVEY NO.03339/16,OPPOSITE CENTRAL CO OPERATIVE BANK,MANPURA COLONY,JALORE,DIST.JALORE,RAJASTHAN -343001",JALOR,JALOR,RAJASTHAN,30898015
398,EQUITAS SMALL FINANCE BANK LIMITED,ESFB0016018,NIMBAHERA,"Plot no. 17B, Situated at Adarash Colony, Nimbahera, Tehsil - Nimbahera, Dist. Chittorgarh, Rajasthan",CHITTORGARH,CHITTORGARH,RAJASTHAN,30898015
399,EQUITAS SMALL FINANCE BANK LIMITED,ESFB0016019,PALI,"Plot No. S- 61, S-62, S-63, S-64 Situated at Kalpvarax Grah Nirman Sahakari Samiti Ltd. Scheme No. 2, Ambedkar Circle, Pali, Rajasthan",PALI,PALI,RAJASTHAN,30898015
400,EQUITAS SMALL FINANCE BANK LIMITED,ESFB0016020,TONK,"Situated at Old Hatwara, Subash Bazar, Opp. Of Nizam Bidi factory, Near Central Bank of India, Tonk, Tehsil  Tonk, Rajasthan",TONK,TONK,RAJASTHAN,30898015
401,EQUITAS SMALL FINANCE BANK LIMITED,ESFB0016021,LOHAGAL,"PLOT NO.3,KHASRA NO.1459,GL FURNITURE,JANANA HOSPITAL ROAD,GRAM - LOHAGAL,DIST.AJMER,RAJASTHAN 305001",AJMER,AJMER,RAJASTHAN,30898015
402,EQUITAS SMALL FINANCE BANK LIMITED,ESFB0016022,DIDWANA,"SHOP NO.5,6,7 SITUATED KHASRA NO.3004,KUCHAMAN ROAD,DIDWANA,TEHSIL -DIDWANA,DIST.NAGAUR,RAJASTHAN.341303",NAGAUR,NAGAUR,RAJASTHAN,30898015
403,EQUITAS SMALL FINANCE BANK LIMITED,ESFB0016023,BIKANER,"SARDUL NAGAR,NEAR RAILWAY CROSSING,HOSPITAL ROAD,BIKANER,DIST.BIKANER,RAJASTHAN -334001",BIKANER,BIKANER,RAJASTHAN,30898015
404,EQUITAS SMALL FINANCE BANK LIMITED,ESFB0016024,SIKAR,"S.R.V.MALL,WARD NO.16,DEVIPURA ROAD,NEAR CITY DISPENSARY NO.2,SIKAR,RAJASTHAN -332001",SIKAR,SIKAR,RAJASTHAN,30898015
405,EQUITAS SMALL FINANCE BANK LIMITED,ESFB0016025,BUNDI,"VINAYAK COMPLEX,NEW DHAN MANDI ROAD,LANKA GATE,BUNDI,RAJASTHAN,",BUNDI,BUNDI,RAJASTHAN,30898017
406,EQUITAS SMALL FINANCE BANK LIMITED,ESFB0016026,BARAN,"ARDAND PLAZA,NEAR DEENDAYAL PARK,WARD NO.12,BARAN,RAJASTHAN.325205",BARAN,BARAN,RAJASTHAN,30898015
407,EQUITAS SMALL FINANCE BANK LIMITED,ESFB0016027,KEKRI,"NEAR MEER BAWARI,SHIV CHOWK,HOSPITAL ROAD,KEKRI,TEHSIL -KEKRI,DIST.AJMER,RAJASTHAN 305404",AJMER,AJMER,RAJASTHAN,30898017
408,EQUITAS SMALL FINANCE BANK LIMITED,ESFB0016028,ALWAR,"PLOT NO.2,KHASRA NO 16 85 AND 1690, ROAD NO.1,NEAR AMBEDKAR CIRCLE,NEAR GURUPRASAD COACHING,ALWAR CITY,ALWAR,RAJASTHAN -301001.",ALWAR,ALWAR,RAJASTHAN,30898017
409,EQUITAS SMALL FINANCE BANK LIMITED,ESFB0016029,UDAIPUR,PLOT NO 12 RESIDENCY ROAD OPPOSITE P C JEWELLERS UDAIPUR RAJASTHAN 313001,UDAIPUR,UDAIPUR,RAJASTHAN,30898015
410,EQUITAS SMALL FINANCE BANK LIMITED,ESFB0016030,BEAWAR,"OLD MUNICIPAL NO.7/104,NEW NO.12,ROOPBANI CINEMA,STATION ROAD,NATIONAL HIGHWAY NO.08,TEHSIL -BEAWAR,DISTRICT AJMER,RAJASTHAN",AJMER,AJMER,RAJASTHAN,30898015
411,EQUITAS SMALL FINANCE BANK LIMITED,ESFB0016031,LALPURA,"VILLAGE LALPURA ( PACHAR),OPPOSITE GOVT SENIOR SECONDARY SCHOOL,JOBNER ROAD,KALWAR,DISTRICT - JAIPUR RAJASTHAN -303706",JAIPUR,JAIPUR,RAJASTHAN,30898015
412,EQUITAS SMALL FINANCE BANK LIMITED,ESFB0016032,SUJANGARH,"BALAJI COMPLEX,JAIPUR-BIKANER ROAD,NEAR JAAT HOSTEL& BDS HOTEL,SUJANGARH,DISTT.- CHURU,RAJASTHAN 331507",CHURU,CHURU,RAJASTHAN,30898015
413,EQUITAS SMALL FINANCE BANK LIMITED,ESFB0017001,GREATER NOIDA,"SHOP NO.6,7,8,9,GROND FLOOR,SUNRISE TOWER,ALPHA COMMERCIAL BELT,ALPHA -I,GAUTAM BUDH NAGAR,GREATER NOIDA,UTTAR PRADESH",GAUTAM BUDDHA NAGAR,GAUTAM BUDDHA NAGAR,UTTAR PRADESH,30898017
414,EQUITAS SMALL FINANCE BANK LIMITED,ESFB0017002,NOIDA SECTOR -,"B -11,SECTOR-18,NOIDA,UTTAR PRADESH - 201301",GAUTAM BUDDHA NAGAR,GAUTAM BUDDHA NAGAR,UTTAR PRADESH,30898017
415,EQUITAS SMALL FINANCE BANK LIMITED,ESFB0017003,GHAZIABAD,"D-15,RS PLAZA,RDC,RAJ NAGAR,GHAZIABAD.UTTAR PRADESH",GAZIABAD,GAZIABAD,UTTAR PRADESH,30898015
416,EQUITAS SMALL FINANCE BANK LIMITED,ESFB0017004,VARANASI,"RUDRA PRESTIGE,C-32/23& C-32/25,GROUND FLOOR,SIGRA,VARANASI 221 010",VARANASI,VARANASI,UTTAR PRADESH,30898017
417,EQUITAS SMALL FINANCE BANK LIMITED,ESFB0020001,ROHINI,"O-69/H-19,SEC-7,ROHINI,EWDELHI",NORTH WEST DELHI,NORTH WEST DELHI,DELHI,30898015
418,EQUITAS SMALL FINANCE BANK LIMITED,ESFB0020002,"CONNAUGHT PLACE, NEW DELHI","G1& G2,ANSAL BHAWAN 16,KASTURBA GANDHI MARG,OPP.BRITISH COUNCIL,NEW DELHI-110001",NEW DELHI,NEW DELHI,DELHI,30898015
419,EQUITAS SMALL FINANCE BANK LIMITED,ESFB0020003,"KAROL BAGH , DELHI","NO - 1331,NAIWALAD.B.GUPTA ROAD,KAROL BAGH,NEW DELHI -110005",CENTRAL DELHI,CENTRAL DELHI,DELHI,30898015
420,EQUITAS SMALL FINANCE BANK LIMITED,ESFB0020004,SHAKURPAR,"O A-120,VIKAS MARG,SHAKURPAR DELHI",EAST DELHI,EAST DELHI,DELHI,30898017
421,EQUITAS SMALL FINANCE BANK LIMITED,ESFB0020005,LAJPAT NAGAR,"M - 19,LAJPAT NAGAR,PART - 2,NEW DELHI 110024",SOUTH DELHI,SOUTH DELHI,DELHI,30898015
422,EQUITAS SMALL FINANCE BANK LIMITED,ESFB0020006,RAJOURI GARDEN,"-3A,RAJOURIGARDEN,NEWDELHI-0027",WEST DELHI,WEST DELHI,DELHI,30898015
423,EQUITAS SMALL FINANCE BANK LIMITED,ESFB0020007,KALKAJI,"3 LSC,GF,G1 TO G6,PLOT NO -3,LOCAL SHOPING CENTRE,KALKAJI -NEW DELHI 110019",SOUTH EAST DELHI,SOUTH EAST DELHI,DELHI,30898017
424,EQUITAS SMALL FINANCE BANK LIMITED,ESFB0020008,YAMUNA VIHAR,"C 1/24-A,BLOCK C-1,YAMUNA VIHAR,DELHI-110053",DELHI,DELHI,DELHI,30898015
425,EQUITAS SMALL FINANCE BANK LIMITED,ESFB0020009,MALVIYA NAGAR,"C- 10, Shivalik, Malviya Nagar, New Delhi- 110017",SOUTH DELHI,SOUTH DELHI,DELHI,30898015
426,EQUITAS SMALL FINANCE BANK LIMITED,ESFB0020010,PATEL NAGAR,"42/9,WEST PATEL NAGAR,DELHI 110008",WEST DELHI,WEST DELHI,DELHI,30898015
427,EQUITAS SMALL FINANCE BANK LIMITED,ESFB0020011,CHANDNI CHOWK,"NO.241-242, & 275-276,CHANDNI CHOWK.DELHI 110 006",NORTH DELHI,NORTH DELHI,DELHI,30898015
