,BANK NAME,IFSC,OFFICE,ADDRESS,DISTRICT,CITY,STATE,PHONE
0,RBL Bank Limited,RATN0000001,SHAHUPURI KOLHAPUR,"THE RATNAKAR BANK LTD,1 ST LANE, SHAHUPURI, KOLHAPUR ┬û 416 001.",KOLHAPUR,KOLHAPUR,MAHARASHTRA,0
1,RBL Bank Limited,RATN0000002,LAXMIPURI KOLHAPUR,"THE RATNAKAR BANK LTD,LAXMI ROAD,NEAR KOLHAPUR MUNICIPAL CORPORATION, LAXMIPURI, KOLHAPUR-416002.",KOLHAPUR,KOLHAPUR,MAHARASHTRA,0
2,RBL Bank Limited,RATN0000003,SANGLI MAIN,"THE RATNAKAR BANK LTD,GROUND FLOOR C.S NO 1044,SUKH SHANTI HEIGHTS, COLLEGE CORNER,AMRAI ROAD, NORTH SHIVAJI NAGAR,SANGLI - 416416",SANGLI,SANGLI,MAHARASHTRA,0
3,RBL Bank Limited,RATN0000004,MIRAJ,"THE RATNAKAR BANK LTD,HIGH SCHOOL ROAD,JAWAHAR CHOWK, SHIVRAJ COMPLEX,MIRAJ - 416410.",SANGLI,SANGLI,MAHARASHTRA,0
4,RBL Bank Limited,RATN0000005,JAYSINGPUR,"THE RATNAKAR BANK LTD,A.B.PATIL COMPLEX,SUBHASH ROAD, 9TH LANE, JAYSINGPUR-416101.",KOLHAPUR,KOLHAPUR,MAHARASHTRA,0
5,RBL Bank Limited,RATN0000006,PETHVADGAON,"THE RATNAKAR BANK LTD,R. S. NO.126,BAVDEKAR COMPLEX,NEAR BUS STAND, PETH VADAGAON,TAL. : HATKANGALE,KOLHAPUR - 416112",KOLHAPUR,KOLHAPUR,MAHARASHTRA,0
6,RBL Bank Limited,RATN0000007,HUPARI,"THE RATNAKAR BANK LTD,1670/1 OPP. HUTATMA SMARAK,MAHAVEER NAGAR,MAIN ROAD HUPARI,KOLHAPUR - 416203",KOLHAPUR,KOLHAPUR,MAHARASHTRA,0
7,RBL Bank Limited,RATN0000008,RUKADI,"THE RATNAKAR BANK LTD,MAIN ROAD A/P- RUKADI.TAL.:HATKANGLE, DIST.KOLHAPUR-416115",KOLHAPUR,KOLHAPUR,MAHARASHTRA,0
8,RBL Bank Limited,RATN0000009,ICHALKARANJI,"THE RATNAKAR BANK LTD,7356, MAIN ROAD,ICHALKARANJI -TAL. HATKANANGALE, DIST .KOLHAPUR.416 115",KOLHAPUR,KOLHAPUR,MAHARASHTRA,0
9,RBL Bank Limited,RATN0000010,TARABAI PARK KOLHAPUR,"THE RATNAKAR BANK LTD,SHOP NO.6,7& 8,SIDHIVINAYAK APPARTMAENT, NEAR VIJAYRAJ HOTEL,TARABAI PARK,KOLHAPUR-416003",KOLHAPUR,KOLHAPUR,MAHARASHTRA,0
10,RBL Bank Limited,RATN0000011,MARKET YARD SANGLI,"THE RATNAKAR BANK LTD,PLOT NO.88, BANK BUILDING,MARKET YARD,SANGLI 416 416.",SANGLI,SANGLI,MAHARASHTRA,0
11,RBL Bank Limited,RATN0000012,MHAISAL,"THE RATNAKAR BANK LTD,NEAR NAGOBA KATTA, SHANTI SAGAR MARG, AT POST MHAISAL, TALUKA MIRAJ, DIST SANGLI ┬û 416409",SANGLI,SANGLI,MAHARASHTRA,0
12,RBL Bank Limited,RATN0000013,GIRGAUM (KALBADEVI),"THE RATNAKAR BANK LTD.,JEWEL WORLD BUILDING,GROUND FLOOR,175,KALBADEVI ROAD,CORNER OF SHAIK MEMON STREET,MUMBAI - 400002.",GREATER BOMBAY,GREATER BOMBAY,MAHARASHTRA,0
13,RBL Bank Limited,RATN0000014,BHILWADI,"THE RATNAKAR BANK LTD,DAKSHIN BHAG BHILWADI VIKAS SOCIETY BUILDING,BHILWADI ┬û 416 303. TALUKA: PALUS, ┬áDIST .: SANGLI.",SANGLI,SANGLI,MAHARASHTRA,0
14,RBL Bank Limited,RATN0000015,NANDRE,"THE RATNAKAR BANK LTD,249, E WARD, SOCIETY BUILDING, A/P: NANDRE ┬û 416 423.TALUKA┬á : MIRAJ, DIST.┬á :┬á SANGLI.",SANGLI,SANGLI,MAHARASHTRA,2332473123
15,RBL Bank Limited,RATN0000016,SAMDOLI,"THE RATNAKAR BANK LTD,A/P┬á : SAMDOLI ┬û 416 427.TALUKA┬á :┬á MIRAJ. DIST.┬á :┬á SANGLI.",SANGLI,SANGLI,MAHARASHTRA,2332482435
16,RBL Bank Limited,RATN0000017,INGALI,"THE RATNAKAR BANK LTD,446, A/P : INGALI ┬û 416 202.TALUKA┬á :┬á HATKANANGALE,DIST.┬á :┬á KOLHAPUR",KOLHAPUR,KOLHAPUR,MAHARASHTRA,2302359079
17,RBL Bank Limited,RATN0000018,VASAGADE,"THE RATNAKAR BANK LTD,A/P┬á :VASGADE,TALUKA : KARVEER,DIST.┬á :┬á KOLHAPUR",KOLHAPUR,KOLHAPUR,MAHARASHTRA,2312676146
18,RBL Bank Limited,RATN0000019,GANDHINAGAR KOLHAPUR,"THE RATNAKAR BANK LTD,MAIN ROAD, GANDHINAGAR.TALUKA:┬á KARVEER.DIST.┬á :┬á KOLHAPUR - 416 119.",KOLHAPUR,KOLHAPUR,MAHARASHTRA,2312610218
19,RBL Bank Limited,RATN0000020,RAJARAMPURI KOLHAPUR,"THE RATNAKAR BANK LTD,VITTHAL COMPLEX,9TH LANE, RAJARAMPURI, KOLHAPUR ┬û 416 008.",KOLHAPUR,KOLHAPUR,MAHARASHTRA,0
20,RBL Bank Limited,RATN0000021,HALADI,"THE RATNAKAR BANK LTD,A/P :┬á HALADI ┬û 416 001.TALUKA : KARVEER,DIST.┬á :┬á KOLHAPUR",KOLHAPUR,KOLHAPUR,MAHARASHTRA,2312416640
21,RBL Bank Limited,RATN0000022,INAM DHAMANI,"THE RATNAKAR BANK LTD,A/P┬á : INAM DHAMANI,TAL.┬á MIRAJ, DIST.┬á :┬á SANGLI┬á┬á 416 416",SANGLI,SANGLI,MAHARASHTRA,2332302253
22,RBL Bank Limited,RATN0000023,ARJUNWAD,"THE RATNAKAR BANK LTD,A/P : ARJUNWAD ┬û 416 120.TALUKA┬á : SHIROL, DIST.┬á : KOLHAPUR.",KOLHAPUR,KOLHAPUR,MAHARASHTRA,2322232029
23,RBL Bank Limited,RATN0000024,BELGAUM,"THE RATNAKAR BANK LTD,GROUND FLOOR,BHARATI,CTS NO 3939/1,CLUB ROAD,BELGAUM - 590001",BELGAUM,BELGAUM,KARNATAKA,0
24,RBL Bank Limited,RATN0000025,ISLAMPUR,"THE RATNAKAR BANK LTD,H. NO.2127/28, DR.PARDESHI BLDG.ISLAMPUR ┬û 415 409 TALUKA : WALVA, DIST.┬á :┬á SANGLI",SANGLI,SANGLI,MAHARASHTRA,2342222163
25,RBL Bank Limited,RATN0000026,RANGOLI,"THE RATNAKAR BANK LTD,A/P┬á :┬á RANGOLI,TALUKA : HATKANANGALE,DIST.┬á :┬á KOLHAPUR",KOLHAPUR,KOLHAPUR,MAHARASHTRA,2302495012
26,RBL Bank Limited,RATN0000027,SHAMANEWADI,"THE RATNAKAR BANK LTD,GRAMSEVA SAHAKARI SANGH BLDG┬á┬á┬á┬á SHAMNEWADI ┬û 591 505,TAL.┬á CHIKODI, DIST.:┬á BELGAUM.",BELGAUM,SHAMANEWADI,KARNATAKA,8338662046
27,RBL Bank Limited,RATN0000028,KHUPIRE,"THE RATNAKAR BANK LTD.,C/O. SHRI BALBHEEM VIVIDH KARYAKARI SAHAKARI VIKAS SEVA SANSTHA, KHUPIRE ,TAL : KARVEER,DIST. : KOLHAPUR ┬û 416205.",KOLHAPUR,KOLHAPUR,MAHARASHTRA,2312420270
28,RBL Bank Limited,RATN0000029,GHOTAWADE,"THE RATNAKAR BANK LTD,BAPU DONGALE BUILDING, MAIN ROAD,AT GHIOTAWADE,POST. KAULAV.TAL. RADHANAGRI, DIST. KOLHAPUR,GHOTAWADE - 416211",KOLHAPUR,KOLHAPUR,MAHARASHTRA,0
29,RBL Bank Limited,RATN0000030,AKKIWAT,"THE RATNAKAR BANK LTD,C/O MR. DHANPAL J. KALLANAVAR,A/P  AKKIWAT,TAL.┬á SHIROL, DIST.┬á KOLHAPUR,PIN.┬á -┬á 416 108",KOLHAPUR,KOLHAPUR,MAHARASHTRA,2322238132
30,RBL Bank Limited,RATN0000031,ICC TRADE CENTRE,"THE RATNAKAR BANK LTD, ICC TRADE CENTRE, SHOP NO.5, GROUND FLOOR, SENAPATI BAPAT MARG, PUNE - 411 016",PUNE,PUNE,MAHARASHTRA,0
31,RBL Bank Limited,RATN0000032,BURLI,"THE RATNAKAR BANK LTD,A/P : BURLI ┬û 416 318. TAL. : PALUS, DIST. SANGLI",SANGLI,SANGLI,MAHARASHTRA,2346220141
32,RBL Bank Limited,RATN0000033,SHEDBAL,"THE RATNAKAR BANK LTD,BAZAR PETH, SHEDBAL,TAL. : ATHANI,DIST. BELGAUM ┬û 591 315",BELGAUM,SHEDBAL,KARNATAKA,8339264612
33,RBL Bank Limited,RATN0000034,SHIRGUPPI,"THE RATNAKAR BANK LTD,379, A/P : SHIRGUPPI,TAL.┬á :┬á ATHANI,DIST. :┬á BELGAUM ┬û 591 242",BELGAUM,SHIRGUPPI,KARNATAKA,8339265426
34,RBL Bank Limited,RATN0000035,AITAWADE BDRUK,"THE RATNAKAR BANK LTD,529, SOCIETY BLDG. NO.2,A/P : AITAWADE BUDRUK.TAL. : WALWA, DIST. : SANGLI",SANGLI,SANGLI,MAHARASHTRA,2342253579
35,RBL Bank Limited,RATN0000036,NERLE,"THE RATNAKAR BANK LTD,A/P : NERLE- 415 406 TAL . : WALWA, DIST.┬á : SANGLI",SANGLI,SANGLI,MAHARASHTRA,2342278560
36,RBL Bank Limited,RATN0000037,DUDHAGAON,"THE RATNAKAR BANK LTD,395/2,A/P┬á :┬á DUDHAGAON- 416 315.TALUKA┬á :┬á MIRAJ, DIST.┬á :┬á SANGLI",SANGLI,SANGLI,MAHARASHTRA,2332486130
37,RBL Bank Limited,RATN0000038,ANKALI SANGLI,"THE RATNAKAR BANK LTD,178, A/P : ANKALI.TALUKA : MIRAJ, DIST.┬á :┬á SANGLI",SANGLI,SANGLI,MAHARASHTRA,2332422128
38,RBL Bank Limited,RATN0000039,BELLAD BAGEWADI,"THE RATNAKAR BANK LTD,395, A/P :┬á BELLAD-BAGEWADI.PIN CODE┬á 591 305,TAL. : HUKERI,┬á DIST.┬á :┬á BELGAUM.",BELGAUM,BELLAD BAGEWADI,KARNATAKA,8333257029
39,RBL Bank Limited,RATN0000040,KABNOOR,"THE RATNAKAR BANK LTD,GRAMPANCHAYAT BUILDING, KABNUR,TALUKA : HATKANANGALE,DIST.┬á :┬á KOLHAPUR,PIN. ┬û 416 129",KOLHAPUR,KOLHAPUR,MAHARASHTRA,0
40,RBL Bank Limited,RATN0000041,BHOSE,"THE RATNAKAR BANK LTD,A/P┬á :┬á BHOSE,TALUKA┬á :┬á MIRAJ, DIST.┬á :┬á SANGLI PIN ┬û 416 422",SANGLI,SANGLI,MAHARASHTRA,2332257222
41,RBL Bank Limited,RATN0000042,HINGANGAON,"THE RATNAKAR BANK LTD,53, GRAMPANCHAYAT BUILDING,A/P┬á :┬á HINGANGAON,TALUKA : KAVATHE-MAHANKAL,DIST.┬á :┬á SANGLI┬á -┬á 416 405",SANGLI,SANGLI,MAHARASHTRA,2341226058
42,RBL Bank Limited,RATN0000043,GAON BHAG SANGLI,"THE RATNAKAR BANK LTD,MEHENDALE ┬û KULKARNI BHAVAN,GAONBHAG,SANGLI ┬û 416416.",SANGLI,SANGLI,MAHARASHTRA,0
43,RBL Bank Limited,RATN0000044,GOKAK,"THE RATNAKAR BANK LTD,3195/B/2B NILAKANTH NILAYA, OPPOSITE COURT, HOSPET GALLI, GOKAK, DIST BELGAUM┬û 591307",BELGAUM,GOKAK,KARNATAKA,0
44,RBL Bank Limited,RATN0000045,UNCHAGAON,"THE RATNAKAR BANK LTD.,SEEMA PRIDE SHOP NO.101 & 102,A/P-UCHAGAON,TAL-KARVEER,DIST-KOLHAPUR-416005",KOLHAPUR,KOLHAPUR,MAHARASHTRA,2312605682
45,RBL Bank Limited,RATN0000046,ANKALI (SHITOL),"THE RATNAKAR BANK LTD,A/P┬á :┬á ANKALI ┬û 591 213.TAL.┬á CHIKODI, DIST.┬á :┬á BELGAUM",BELGAUM,ANKALI,KARNATAKA,8338254275
46,RBL Bank Limited,RATN0000047,NIPANI,"THE RATNAKAR BANK LTD,228, PADMARAJ BLDG, SAKHARWADI,PUNE-BANGALORE ROAD,NIPANI ┬û 591 237.DIST. -┬á BELGAUM (KARNATAKA)",BELGAUM,NIPANI,KARNATAKA,0
47,RBL Bank Limited,RATN0000048,HUBLI,"THE RATNAKAR BANK LTD,C.T.S. NO.56/57, WARD NO.2,SAMARTH CENTRE,NEW MYDAR ONI,HUBLI ┬û 580 028 (K.S.)",DHARWAD,HUBLI-DHARWAD,KARNATAKA,0
48,RBL Bank Limited,RATN0000049,BORPADALE,"THE RATNAKAR BANK LTD,A/P: BORPADALE.TALUKA :┬á PANHALA, DIST.┬á :┬á KOLHAPUR",KOLHAPUR,KOLHAPUR,MAHARASHTRA,0
49,RBL Bank Limited,RATN0000050,SWARGATE -PUNE,"THE RATNAKAR BANK LTD,NO-8,GROUND FLOOR,VEGA CENTER,SHANKARSETH ROAD,SWARGATE,PUNE-411042",PUNE,PUNE,MAHARASHTRA,0
50,RBL Bank Limited,RATN0000051,MADILAGE,"THE RATNAKAR BANK LTD,A/P┬á :┬á MADILAGE-416 505.TALUKA┬á :┬á AJARA, DIST. : KOLHAPUR",KOLHAPUR,KOLHAPUR,MAHARASHTRA,0
51,RBL Bank Limited,RATN0000052,CHINCHWAD PUNE,"THE RATNAKAR BANK LTD,199/A ASHIRWAD BUILDING ,OLD PUNE MUMBAI ROAD,CHINCHWAD - 411019",PUNE,PUNE,MAHARASHTRA,0
52,RBL Bank Limited,RATN0000053,KANDIWALI,"THE RATNAKAR BANK LTD,SHRI BUILDING, 295, SHANTILAL MODI ROAD, OPP. SINDHI COLONY,NEAR MAYUR TALKIES,IRANI WADI,KANDIWALI (W), MUMBAI ┬û 400 067.",GREATER BOMBAY,GREATER BOMBAY,MAHARASHTRA,0
53,RBL Bank Limited,RATN0000054,BHADVAN,"THE RATNAKAR BANK LTD,A/P┬á :┬á BHADVAN,TALUKA :┬á AJARA,DIST.┬á :┬á KOLHAPUR ┬û 416 505.",KOLHAPUR,KOLHAPUR,MAHARASHTRA,0
54,RBL Bank Limited,RATN0000055,VISAPUR,"THE RATNAKAR BANK LTD,A/P┬á :┬á VISAPUR ┬û 416 314.TALUKA:┬á TASGAON, DIST.┬á :┬á SANGLI",SANGLI,SANGLI,MAHARASHTRA,0
55,RBL Bank Limited,RATN0000056,DHARWAD,"THE RATNAKAR BANK LTD,┬æKABADI MANSION┬Æ, KOSMOS CLUB ROAD,BEHIND COURT,DHARWAD ┬û 580 001.",DHARWAD,HUBLI-DHARWAD,KARNATAKA,0
56,RBL Bank Limited,RATN0000057,BANGALORE,"THE RATNAKAR BANK LTD,197, 6TH CROSS, GANDHINAGAR, BANGALORE ┬û 560 009.",BANGALORE URBAN,BANGALORE,KARNATAKA,0
57,RBL Bank Limited,RATN0000058,VARTAKNAGAR THANE,"THE RATNAKAR BANK LTD,LAXMI MARKET, POKHRAN ROAD NO.1, NEAR VARTAK NAGAR, THANE (W)",THANE,THANE,MAHARASHTRA,0
58,RBL Bank Limited,RATN0000059,BARAMATI,"THE RATNAKAR BANK LTD,SHANTILAL SHAHA (PANDARKAR) BUILDING,MAHAVIR PATH, BARAMATI ┬û 413 102.",PUNE,PUNE,MAHARASHTRA,0
59,RBL Bank Limited,RATN0000060,SOLAPUR,"THE RATNAKAR BANK LTD,125, A, MURARAJI PETH,SOLAPUR ┬û 413 001.",SOLAPUR,SOLAPUR,MAHARASHTRA,0
60,RBL Bank Limited,RATN0000061,MARGAO,"THE RATNAKAR BANK LTD,VASANT ARCADE, BEHIND POLICE STATION, COMBA, MARGOA-403601.",SOUTH GOA,MARGAO,GOA,0
61,RBL Bank Limited,RATN0000062,BORIWALI,"THE RATNAKAR BANK LTD,SHOP NO.2-6, SHROFF ARCADE, SODAWALA LANE, NEAR PRABODHAN THACKREY NATYAGRAHA,BORIVALI (W),MUMBAI ┬û 400 092.",GREATER BOMBAY,GREATER BOMBAY,MAHARASHTRA,0
62,RBL Bank Limited,RATN0000063,AKLUJ,"THE RATNAKAR BANK LTD,R.S. NO.2258/4A,MAHAVEER PATH,AKLUJ ┬û 413 101.TAL. ┬û MALSHIRAS, DIST. SOLAPUR",SOLAPUR,SOLAPUR,MAHARASHTRA,0
63,RBL Bank Limited,RATN0000064,HARUGERI,"THE RATNAKAR BANK LTD,SADALGE BUILDING, ATHANI ROAD, HARUGERI, TALUKA RAIBAG, DIST BELGAUM - 591220",BELGAUM,HARUGERI,KARNATAKA,0
64,RBL Bank Limited,RATN0000065,AHMEDABAD,"THE RATNAKAR BANK LTD,C/G - 8,9,10,13 & 14,MALLINATH COMPLEX,OPP. SUJATA FLATS,SHAHIBAUG,AHMEDABAD - 380004.",AHMADABAD,AHMEDABAD,GUJARAT,0
65,RBL Bank Limited,RATN0000066,VASAI,"THE RATNAKAR BANK LTD,NIKUNJ SIGNATURE,AMBADI ROAD,VASAI (WEST) - 401202.",THANE,THANE,MAHARASHTRA,0
66,RBL Bank Limited,RATN0000067,PANVEL,"THE RATNAKAR BANK LTD,BLOCK NO.102 & 103, FIRST FLOOR,INDRAPRASTHA BUILDING, TAPAL NAKA,URAN ROAD,PANVEL┬á - 410 206.DIST. RAIGAD",RAIGAD,RAIGAD,MAHARASHTRA,0
67,RBL Bank Limited,RATN0000068,VILE PARLE,"THE RATNAKAR BANK LTD,NO.006, GROUND FLOOR,GALAXY ARCADE, 10 M.G. ROAD,VILE PARLE (EAST), MUMBAI ┬û 400 057.",GREATER BOMBAY,GREATER BOMBAY,MAHARASHTRA,0
68,RBL Bank Limited,RATN0000069,NASHIK,"THE RATNAKAR BANK LTD,SHOP NO.1A, GROUND FLOOR,RIDDHI PARK,SHARANPUR ROAD,NASIK ┬û 422 002.",NASIK,NASIK,MAHARASHTRA,0
69,RBL Bank Limited,RATN0000070,MUMBAI - FORT,"RBL BANK LTD,DHANNUR HOUSE,15,SIR P M ROAD, FORT,MUMBAI-400001",GREATER BOMBAY,GREATER BOMBAY,MAHARASHTRA,0
70,RBL Bank Limited,RATN0000071,NEW DELHI,"THE RATNAKAR BANK LTD,17 A/53, GROUND FLOOR,W.E.A. KAROL BAGH,(OPP. JESSARAM HOSPITAL),GURADWAR ROAD,NEW DELHI ┬û 110 005.",DELHI,DELHI,DELHI,0
71,RBL Bank Limited,RATN0000072,DAVANGERE,"THE RATNAKAR BANK LTD,718/1, SUBHASH ROAD,MANDI PETH,DAVANGERE ┬û 577 001.",DAVANGERE,DAVANGERE,KARNATAKA,0
72,RBL Bank Limited,RATN0000073,NERUL,"THE RATNAKAR BANK LTD,MILLENNIUM PARK, PLOT NO.17,SECTOR 25, NERUL, NAVI MUMBAI.",THANE,THANE,MAHARASHTRA,0
73,RBL Bank Limited,RATN0000074,TASGAON,"THE RATNAKAR BANK LTD,1565-A, SIDDHESHWAR CHOWK, A/P : TASGAON. DIST. SANGLI.",SANGLI,SANGLI,MAHARASHTRA,0
74,RBL Bank Limited,RATN0000075,PONDA,"THE RATNAKAR BANK LTD,DR. DADA VAIDYA CHOWK, MAIN ROAD,PONDA (GOA)-403 401.",NORTH GOA,PONDA,GOA,0
75,RBL Bank Limited,RATN0000076,KALYANINAGAR,"THE RATNAKAR BANK LTD,SHOP NO.126-127, FORT LIZA COMPLEX,CENTRAL AVENUE ROAD, KALYANINGAR, PUNE ┬û 411 006.",PUNE,PUNE,MAHARASHTRA,0
76,RBL Bank Limited,RATN0000077,MAPUSA,"THE RATNAKAR BANK LTD,SHOP NO.S1, MAPUSA TRADE CENTRE,MARODA, MAPUSA,GOA-403 507.",NORTH GOA,MAPUSA,GOA,0
77,RBL Bank Limited,RATN0000078,KHARGHAR,"THE RATNAKAR BANK LTD,SURYA KOTI BUILDING, SURYA CO-OP. HOUSING SOCIETY LTD. PLOT NO.16, SECTOR 19, KHARGHAR, NAVI MUMBAI - 410 210. TAL.PANVEL, DIST. RAIGAD.",RAIGAD,RAIGAD,MAHARASHTRA,0
78,RBL Bank Limited,RATN0000079,KARAD,"THE RATNAKAR BANK LTD,JANAKI PLAZA,PLOT NO.472/A & 478/2A,KOLHAPUR NAKA, SHANIWAR PETH,KARAD ┬û 415 110.",SATARA,SATARA,MAHARASHTRA,0
79,RBL Bank Limited,RATN0000080,SILVASSA(U.T.),"THE RATNAKAR BANK LTD,UNIT NO.1,2 & 7, ROSHAN AVENUE,SILVASSA-VAPI ROAD, SILVASSA ┬û 396 230.",DADRA&NAGAR HAVELI,SILVASA,DADRA AND NAGAR HAVELI,0
80,RBL Bank Limited,RATN0000081,DOMBIVALI(WEST),"THE RATNAKAR BANK LTD,┬æATIM TARA┬Æ, GROUND FLOOR,SUBHASH ROAD, VISHNUNAGAR,DOMBIVALI (W) ┬û 421 202.",THANE,THANE,MAHARASHTRA,0
81,RBL Bank Limited,RATN0000082,PANAJIM,"THE RATNAKAR BANK LTD,SHOP NO.G-10 & 11,NIZAMAR CENTRE,GROUND FLOOR, DR. ATMARAM ROAD,PANAJI, GOA - 403 001.",NORTH GOA,PANAJI,GOA,0
82,RBL Bank Limited,RATN0000083,NALASOPARA,"THE RATNAKAR BANK LTD,BUILDING NO.1, SHREE RAM SANKUL,SHOP NO.1,2,3,4, ACHOLE ROAD,OPP. AAKANSHA COMMERCIAL COMPLEX, NALASOPARA (E).┬áDIST. THANE ┬û 401 209.",THANE,THANE,MAHARASHTRA,0
83,RBL Bank Limited,RATN0000084,KALYAN,"THE RATNAKAR BANK LTD,BINDU TOWER, SHOP NO.2,3, 13 & 14,C.T.S. NO.2989, OPP. K.D.M.C. VEG. MARKET,SANTOSHI MATA ROAD, KALYAN (W) ┬û 421 301.",THANE,THANE,MAHARASHTRA,0
84,RBL Bank Limited,RATN0000085,SINGHGAD ROAD PUNE,"THE RATNAKAR BANK LTD,SHOP NO.1 & 2, GROUND FLOOR, MOHITE PARADISE, WING NO.┬ÆC┬Æ,CTS NO.16/3, 16/4, ANAND NAGAR, SINHGAD ROAD,PUNE ┬û 411 051.┬á",PUNE,PUNE,MAHARASHTRA,0
85,RBL Bank Limited,RATN0000086,BANER PUNE,"THE RATNAKAR BANK LTD, ┬æC┬Æ WING, ANMOL PRIDE, C.T.S. NO.270,BANER, PUNE ┬û 411 045.",PUNE,PUNE,MAHARASHTRA,0
86,RBL Bank Limited,RATN0000087,VIRAR(EAST),"THE RATNAKAR BANK LTD,SUMANT CHHAYA, PURANDAREWADI, NEAR RAILWAY STATION & TALATHI OFFICE,┬áVIRAR (EAST) ┬û 410 303. DIST. THANE.",THANE,THANE,MAHARASHTRA,0
87,RBL Bank Limited,RATN0000088,PAREL,"THE RATNAKAR BANK LTD,TOWER 2, 3RD FLOOR, ONE INDIABULLS CENTRE,SENAPATI BAPAT MARG,LOWER PAREL,MUMBAI ┬û 400 013.",GREATER BOMBAY,GREATER BOMBAY,MAHARASHTRA,0
88,RBL Bank Limited,RATN0000089,THANE (WEST) RAM MARUTI,"THE RATNAKAR BANK LTD. GR FLOOR, SHANKESHWAR ARCADE, RAM GANESH GADKARI PATH, RAM MARUTI CROSS ROAD, THANE(W) - 400602.",THANE,THANE,MAHARASHTRA,0
89,RBL Bank Limited,RATN0000090,DOMBIVALI(EAST),"THE RATNAKAR BANK LTD. 1ST FLOOR, JAYKUL ARCADE, MANPADA ROAD, NEAR GAONDEVI MANDIR, DOMBIVALI (E) - 421201.",THANE,THANE,MAHARASHTRA,0
90,RBL Bank Limited,RATN0000091,KORAMANGALA,"THE RATNAKAR BANK LTD. 631 3RD BLOCK 3RD CROSS, 100 FEET ROAD, NR. BDA COMPLEX, KORAMANGALA, BANGALORE - 560034.",BANGALORE URBAN,BANGALORE,KARNATAKA,0
91,RBL Bank Limited,RATN0000092,CHAKAN,"THE RATNAKAR BANK LTD,GROUND FLOOR , SHOP NO.5 & 6,GAT NO.461, TUKARAM MARKET,MEGA CENTRE , PUNE ┬û NASIK ROAD,MEDANKARWADI ┬û 410 501",PUNE,PUNE,MAHARASHTRA,0
92,RBL Bank Limited,RATN0000093,AIROLI,"THE RATNAKAR BANK LTD. UNIT NO. 1 TO 6, GR FLOOR, RIPPLEZ MALL, PLOT NO 6A, SECTOR NO 7, AIROLI, NAVI MUMBAI - 400701.",THANE,THANE,MAHARASHTRA,0
93,RBL Bank Limited,RATN0000094,MALKAPUR,"THE RATNAKAR BANK LTD,MORE BUILDING, CTS NO.215,B WARD, MALKAPUR, TAL ┬û SHAHUWADIDIST ┬û KOLHAPUR",KOLHAPUR,KOLHAPUR,MAHARASHTRA,2312653720
94,RBL Bank Limited,RATN0000095,SANE GURUJI VASAHAT KOLHAPUR,"THE RATNAKAR BANK LTD,PLOT NO.09,┬á R.S.NO.1012,A WARD, SADASHIV JADHAV HOUSING SOCIETY, RADHANAGRI ROAD, KOLHAPUR ┬û 416 012",KOLHAPUR,KOLHAPUR,MAHARASHTRA,2312653720
95,RBL Bank Limited,RATN0000096,KAGAL,"THE RATNAKAR BANK LTD,AMEYA COMPLEX,C S NO.3611, 3612, 3613BRAHMAPURI, KAGAL, DIST ┬û KOLHAPUR ┬û 416 126",KOLHAPUR,KOLHAPUR,MAHARASHTRA,2312653720
96,RBL Bank Limited,RATN0000097,R MALL THANE,"THE RATNAKAR BANK LTD,UNITED MOTORS PVT LTD;GHODBANDAR ROAD,NEAR RUNWAL ESTATE, THANE (W) ┬û 400 601",THANE,THANE,MAHARASHTRA,2225853975
97,RBL Bank Limited,RATN0000098,OMERGA,"THE RATNAKAR BANK LTD,OMERGA BRANCH,MANE HOSPITAL BUILDING NO 20/21,WARD NO 13, MAIN ROAD,OMERGA 413 606 ,DIST - OSMANABAD",OSMANABAD,OSMANABAD,MAHARASHTRA,2475250080
98,RBL Bank Limited,RATN0000099,KURUNDWAD,"THE RATNAKAR BANK LTD,123, B, BHAU SMRUTI, NEAR PLAY GROUD,KURUNDWAD - 416 106,TAL SHIROL, DIST KOLHAPUR",KOLHAPUR,KOLHAPUR,MAHARASHTRA,2322244159
99,RBL Bank Limited,RATN00000FT,FORT MUMBAI,"7,RAHIMTULLAH HOUSE, HOMJI STREET, HORNIMAN CIRCLE, FORT MUMBAI 400001",GREATER BOMBAY,FORT MUMBAI,MAHARASHTRA,0
100,RBL Bank Limited,RATN0000100,DLF CAPITOL-NEW DELHI,"THE RATNAKAR BANK LTD,UNIT NO. 14 & 15, GROUND FLOOR,DLF CAPITOL POINT,BABA KHARAG SINGH MARG,NEW DELHI ┬û 110 001",DELHI,DELHI,DELHI,9810211851
101,RBL Bank Limited,RATN0000101,DOD BALLARPUR,"THE RATNAKAR BANK LTD,KHATA NO 1762 / 66,WARD NO 4,D CROSS MAIN ROAD,DOD BALLARPUR,KARNATAKA - 561203",BANGALORE RURAL,DODDABALLAPUR,KARNATAKA,9900576962
102,RBL Bank Limited,RATN0000102,"VASHI, NAVI MUMBAI","THE RATNAKAR BANK LTD,ARTI CHS LTD,PLOT 29, SECTOR 2,VASHI, NAVI MUMBAI,MAHARASHTRA - 400 705",GREATER BOMBAY,GREATER BOMBAY,MAHARASHTRA,2243020600
103,RBL Bank Limited,RATN0000103,BADLAPUR,"THE RATNAKAR BANK LTD,NISARGAPRATIKSHA APARTMENT,OLD KATRAP ROAD,BADLAPUR (EAST),TALUKA AMBERNATH , DISTRICT THANE,MAHARASHTRA,PINCODE ┬û 421503",GREATER BOMBAY,GREATER BOMBAY,MAHARASHTRA,2243020600
104,RBL Bank Limited,RATN0000104,AURANGABAD,"THE RATNAKAR BANK LTD,AG TOWER, PLOT NO.303,N-3, CIDCO, AURANGABAD - 431001",AURANGABAD,AURANGABAD,MAHARASHTRA,0
105,RBL Bank Limited,RATN0000105,BHIWADI (SWAGAT HOTEL ),"THE RATNAKAR BANK LTD,THE SWAGAT PALACE ,B 294 / 295 A,RIICO CHOWK MAIN ROAD BHIWADI,BHIWADI. DIST- ALWAR,RAJASTHAN - 301019",ALWAR,ALWAR,RAJASTHAN,9810979311
106,RBL Bank Limited,RATN0000106,BHIWADI ( EX -HERO HONDA),"THE RATNAKAR BANK LTD,A4, BHAGAT SINGH COLONY,ALWAR BYPASS,BHIWADI,RAJASTHAN - 301019",ALWAR,ALWAR,RAJASTHAN,9810979311
107,RBL Bank Limited,RATN0000107,BOISAR,"THE RATNAKAR BANK LTD,BUILDING NO 2 -A AMEYA PARK,NAVAPUR ROAD,BOISAR-WEST - 401501",THANE,THANE,MAHARASHTRA,8692920004
108,RBL Bank Limited,RATN0000108,SURAT,"THE RATNAKAR BANK LTD,GROUND FLOOR, TWIN TOWER,SHOWROOM 4,SAHARA DARWAJA,SURAT - 395002.",SURAT,SURAT,GUJARAT,9825300735
109,RBL Bank Limited,RATN0000109,AHMEDNAGAR,"THE RATNAKAR BANK LTD,MAHADEV FURNITURE HOUSE,NEAR AMBEJOGAI PATPEDHI,SAVEDI ROAD, AHMEDNAGAR - 414003",AHMADNAGAR,AHMADNAGAR,MAHARASHTRA,9823065600
110,RBL Bank Limited,RATN0000110,RAMNAGARA,"THE RATNAKAR BANK LTD,KATHA NO 169 / 1789 /1736 / & 170 / 1781 / 1737 NORTH LAYOUT 1ST STAGE, B M ROAD RAMNAGARAM - 562159",BANGALORE RURAL,RAMANAGARAM,KARNATAKA,9899733770
111,RBL Bank Limited,RATN0000111,SHIRDI,"THE RATNAKAR BANK LTD,SECTOR 961,NAGAR MANMAD HIGHWAY, SHIRDI,TAL- RAHATA, DIST- AHAMEDNAGAR - 423109",AHMADNAGAR,AHMADNAGAR,MAHARASHTRA,9923866451
112,RBL Bank Limited,RATN0000112,HYDERABAD,"THE RATNAKAR BANK LTD,D NO, 6-3-865, GROUND FLOOR,MY HOME JUPALLY,OPP GREEN PARK,GREEN LANDS,AMEERPET,HYDERABAD - 500016",HYDERABAD,HYDERABAD,ANDHRA PRADESH,0
113,RBL Bank Limited,RATN0000113,CHENNAI,"THE RATNAKAR BANK LTD,HMH PLAZA, OLD DOOR NO. 105, NEW DOOR NO. 56, G N CHETTY ROAD, T NAGAR, CHENNAI - 600 017",CHENNAI,CHENNAI,TAMIL NADU,9900576962
114,RBL Bank Limited,RATN0000114,NOIDA,"THE RATNAKAR BANK LTD,P-7, SECTOR-18,NOIDA,UTTAR PRADESH - 201301",GAUTAM BUDDHA NAGAR,GAUTAM BUDDHA NAGAR,UTTAR PRADESH,9999359610
115,RBL Bank Limited,RATN0000115,SOHNA,"THE RATNAKAR BANK LTD,ADITYA BUILDING, GROUND FLOOR,WARD NO -5, DELHI  ALWAR ROAD,OPP BUS STAND, DIST GURGAON,SOHNA ┬û 122103.",GURGAON,SOHNA,HARYANA,9871115450
116,RBL Bank Limited,RATN0000116,GURGAON,"THE RATNAKAR BANK LTD,ABW TOWER, AT IFFCO CHOWK,VILLAGE SUKHRAULI,NH-8, GURGAON,HARYANA - 122002",GURGAON,GURGAON,HARYANA,9899733770
117,RBL Bank Limited,RATN0000117,MANDIDEEP,"THE RATNAKAR BANK LTD,PLOT NO 1,GROUND FLOOR,SECTOR A,INDRA NAGAR,WARD NO 12,MANDIDEEP - 462046.",RAISEN,RAISEN,MADHYA PRADESH,7869105253
118,RBL Bank Limited,RATN0000118,MUNAVALLI,"THE RATNAKAR BANK LTD,PANCHLINGESHWAR CROSS, MAIN ROAD,MUNAVALLI,KARNATAKA - 591117",BELGAUM,MANOLI,KARNATAKA,9481658492
119,RBL Bank Limited,RATN0000119,KHURAI,"THE RATNAKAR BANK LTD,1ST FLOOR, RAI MARKET, SHRI SAI CENTER POINT,NEHROO WARD, STATION ROAD, KHURAI SAGAR,KHURAI - 470117",SAGAR,SAGAR,MADHYA PRADESH,8109156059
120,RBL Bank Limited,RATN0000120,TIRUPATHI,"THE RATNAKAR BANK LTD,D NO: 231/2, PLOT NO: 87, PADMAVATHIPURAM,TIRUCHANOOR ROAD,TIRUPATHI - 517502",CHITTOOR,TIRUPATI,ANDHRA PRADESH,0
121,RBL Bank Limited,RATN0000121,BAGALKOT,"THE RATNAKAR BANK LTD,NO.163/2A,NEAR LIONS SCHOOL,BAGALKOT - 587101",BAGALKOTE,BAGALKOT,KARNATAKA,9901794037
122,RBL Bank Limited,RATN0000122,NELLIKUPPAM,"THE RATNAKAR BANK LTD,DOOR NO : 117/41, I FLOOR,K.S.A.R.ROAD,NELLIKUPPAM,CUDALLORE DISTRICT,NELLIKUPPAM - 607105",CUDDALORE,CUDDALORE,TAMIL NADU,0
123,RBL Bank Limited,RATN0000123,PIPARIYA,"THE RATNAKAR BANK LTD,MURLI TOWER, CEMENT ROAD, PIPARIYA,DIST-HOSANGABAD,PIPARIYA - 461775",HOSHANGABAD,HOSHANGABAD,MADHYA PRADESH,9826224484
124,RBL Bank Limited,RATN0000124,MUDHOL,"THE RATNAKAR BANK LTD,NO.4026/3/D/6,NEAR RANNA CIRCLE,MUDHOL,DISTRICT BAGALKOT-KARNATAKA-587313",BAGALKOTE,MUDHOL,KARNATAKA,9901794037
125,RBL Bank Limited,RATN0000125,AVINASHI,"THE RATNAKAR BANK LTD,5/215, RAJAN NAGAR,OPP TO WEEKLY MARKET, K K PUDUR,POST AVINASHI,AVINASHI - 641654",COIMBATORE,COIMBATORE,TAMIL NADU,9176699612
126,RBL Bank Limited,RATN0000126,VAPI,"THE RATNAKAR BANK LTD,GR.FLOOR, SAHARA MARKET,VAPI SILVASSA ROAD,VAPI - 396195",VALSAD,VAPI,GUJARAT,9879603358
127,RBL Bank Limited,RATN0000127,CHINCHOLI,"THE RATNAKAR BANK LTD,GUT NO 111, PLOT NO 5 & 6,JALGAON AURANGABAD ROAD,CHINCHOLI VILLAGE JALGAON DISTRICT,CHINCHOLI - 425003",JALGAON,JALGAON,MAHARASHTRA,9986442373
128,RBL Bank Limited,RATN0000128,KADI,"THE RATNAKAR BANK LTD,9/A,9/B,10,10/A,10/B,DIAMOND PLAZA,OPP.ARTS AND COMMERCE COLLEGE,THOL ROAD,KADI-382715",MAHESANA,KADI,GUJARAT,9974091651
129,RBL Bank Limited,RATN0000129,INCHAGERI,"THE RATNAKAR BANK LTD,GR.FLOOR,GRAMPANCHAYAT BUILDING,INCHAGERI VILLAGE,INDI TALUK,BIJAPUR DIST.,INCHAGERI - 586117",BIJAPUR,INDI,KARNATAKA,9901794037
130,RBL Bank Limited,RATN0000130,DAMAN,"THE RATNAKAR BANK LTD,758.7.8,GR.FLOOR, OPP.PARAS MOTORS MFG.CO.,NR.PAKAS HOTEL, SOMNATH,DAMAN - 396210",DAMAN,DAMAN,DAMAN AND DIU,0
131,RBL Bank Limited,RATN0000131,BARDOLI,"THE RATNAKAR BANK LTD,SHOP. U/1-2, EMPIRE PLAZA, STATION ROAD,BARDOLI - 394601",SURAT,BARDOLI,GUJARAT,9825184148
132,RBL Bank Limited,RATN0000132,DEESA,"THE RATNAKAR BANK LTD,9-10, KIRAN COMPLEX,NEAR GAYATRI MANDIR,HIGHWAY ROAD,DEESA - 385535",BANAS KANTHA,DEESA,GUJARAT,9727075599
133,RBL Bank Limited,RATN0000133,PADRA,"THE RATNAKAR BANK LTD,7/8 UMIYA NAGAR,BELOW POST OFFICE,PADRA - 391440.",VADODARA,PADRA,GUJARAT,8128873453
134,RBL Bank Limited,RATN0000134,UNJHA,"THE RATNAKAR BANK LTD,OPP UNJHA PHARMACY,STATION ROAD,UNJHA - 384170",PATAN,UNJHA,GUJARAT,9825803540
135,RBL Bank Limited,RATN0000135,PERAVARAM,"THE RATNAKAR BANK LTD,DOOR NO 2/43,1ST FLOOR,PERAVARAM VILLAGE AND GRAM PANCHAYAT,MAIN ROAD,ATREYAPURAM MANDAL,EAST GODAVARI DI,PERAVARAM - 533235",EAST GODAVARI,ATREYAPURAM,ANDHRA PRADESH,8978967320
136,RBL Bank Limited,RATN0000136,CALANGUTE,"THE RATNAKAR BANK LTD,SHOP NO. 7,8,9,10 GROUND FLOOR, SIMPLEX CHAMBERS, PHASE 2 CALANGUTE, CALANGUTE BARDEZ, GOA-402516",NORTH GOA,CALANGUTE,GOA,9823442373
137,RBL Bank Limited,RATN0000137,POROVORIM,"THE RATNAKAR BANK LTD,HOUSE NO. 456, NEAR CHODANKAR NURSIGN HOME, ALTO PORVORIM, BARDEZ, GOAD ┬û 403521.",NORTH GOA,PORVORIM,GOA,9823442373
138,RBL Bank Limited,RATN0000138,JAINPURAWAS,"THE RATNAKAR BANK LTD,GRAND SAPPHIRE INFRATECH PVT. LTD,NIKUNJ CITY, VILLAGE JAINPUWAS,NH-8, TAHSIL- BEHROR, DIST.- ALWAR,JAINPURWAS - 301701",ALWAR,ALWAR,RAJASTHAN,9811136358
139,RBL Bank Limited,RATN0000139,CHAKH KAMED,"THE RATNAKAR BANK LTD,GROUND FLOOR, SURVEY NO.283/2, GRAM CHAKH KAMED, TEHSIL GATHIYA, DISTRICT UJJAIN, MADYA PRADESH 456006",DEWAS,DEWAS,MADHYA PRADESH,9811136358
140,RBL Bank Limited,RATN0000140,KAMATOON,"THE RATNAKAR BANK LTD,GRD. FLOOR,389, VILLAGE KAMTOON, JJ ROAD,TEHSIL: BARELI, DIST: RAISEN,KAMTOON - 464668",RAISEN,RAISEN,MADHYA PRADESH,9811136358
141,RBL Bank Limited,RATN0000141,"HAUZ KHAS, NEW DELHI","THE RATNAKAR BANK LTD,GROUND FLOOR, M-6 HAUZ KHAS, NEW DELHI - 110016",DELHI,DELHI,DELHI,9920074414
142,RBL Bank Limited,RATN0000142,"RAJOURI GARDEN, NEW DELHI","THE RATNAKAR BANK LTD,J-13/52, BASEMENT & GROUND FLOOR, RAJOURI GARDEN,NEW DELHI - 110027",DELHI,DELHI,DELHI,9920074414
143,RBL Bank Limited,RATN0000143,VADODARA,"THE RATNAKAR BANKLTD,CHITRAKUT COMPLEX, OPP HDFC BANK,NR PASHABHAI PARK,RACECOURSE ROAD,VADODARA - 390007",VADODARA,VADODARA,GUJARAT,9920074414
144,RBL Bank Limited,RATN0000144,MANGALORE,"THE RATNAKAR BANK LTD,MAXIMUS COMMERCIAL COMPLEX, LIGHT HOUSE HILL ROAD, MANGALORE - 575001",DAKSHIN KANNAD,MANGALORE,KARNATAKA,9920074414
145,RBL Bank Limited,RATN0000145,MORADABAD,"THE RATNAKAR BANK LTD,GF-1, PARSVNATH PLAZA -II,NEELGIRI COMMERCIAL COMPLEX,DELHI ROAD, MORADABAD-244001",MORADABAD,MORADABAD,UTTAR PRADESH,9920074414
146,RBL Bank Limited,RATN0000146,PANIPAT,"THE RATNAKAR BANK LTD,SHOWROOM #1 196/7(PART), OPP. N.K. TOWER,G T ROAD, PANIPAT - 132103",PANIPAT,PANIPAT,HARYANA,9920074414
147,RBL Bank Limited,RATN0000147,SALEM,"THE RATNAKAR BANK LTD,103/105 SRIRAM NAGAR,SARADHA COLLEGE ROAD,SALEM - 636 016",SALEM,SALEM,TAMIL NADU,9920074414
148,RBL Bank Limited,RATN0000148,UDAIPUR,"THE RATNAKAR BANK LTD,GROUND FLOOR, PLOT NO. 99, L ROAD, BHUPALPURA, VERMA CIRCLE, OPP. COLLECTOR BUNGALOW, UDAIPUR - 313001",UDAIPUR,UDAIPUR,RAJASTHAN,9920074414
149,RBL Bank Limited,RATN0000149,ASHTA,"THE RATNAKAR BANK LTD,GROUND FLOOR, KHASRA NO. 416/1, ASHTA- 466116",SEHORE,SEHORE,MADHYA PRADESH,9833666862
150,RBL Bank Limited,RATN0000150,GANJ BASODA,"THE RATNAKAR BANK LTD,WARD NO.12, GROUND FLOOR, STATION ROAD, GANJ BASODA- 464221",VIDISHA,VIDISHA,MADHYA PRADESH,9833666862
151,RBL Bank Limited,RATN0000151,DHAR,"THE RATNAKAR BANK LTD,SHOP  NUMBER BEARING 21-22, KASHI BAGH, DHAR-454001",DHAR,DHAR,MADHYA PRADESH,9833666862
152,RBL Bank Limited,RATN0000152,BHOPAL,"THE RATNAKAR BANK LTD,PLOT NO.2, AKANKSHA COMPLEX GROUND FLOOR, FRONT RIGHT SIDE PORTION, ZONE-1, M.P NAGAR , BHOPAL- 462011",BHOPAL,BHOPAL,MADHYA PRADESH,9833666862
153,RBL Bank Limited,RATN0000153,SEONI MALWA,"THE RATNAKAR BANK LTD,PLOT NO.100/1/1, THAKUR COLONY, MAIN ROAD,, SEONI MALWA PIN CODE- 461223",HOSHANGABAD,HOSHANGABAD,MADHYA PRADESH,9833666862
154,RBL Bank Limited,RATN0000154,HOSHANGABAD,"THE RATNAKAR BANK LTD,PLOT NO.34/1, AL AZIZ TOWER, BABAI PIPARYA ROAD, ANAND NAGAR, , HOSHANGABAD -461001",HOSHANGABAD,HOSHANGABAD,MADHYA PRADESH,9833666862
155,RBL Bank Limited,RATN0000155,MUMBAI - NARIMAN POINT,"THE RATNAKAR BANK LTD,OFFICE NO./A, GROUND FLOOR, MITTAL COURT, 224 NARIMAN POINT, MUMBAI-400021",GREATER BOMBAY,GREATER BOMBAY,MAHARASHTRA,9833666862
156,RBL Bank Limited,RATN0000156,BANGALORE-PRESTIGE TOWERS,"THE RATNAKAR BANK LTD,G-13, G-14, G-15 & G-17 PRESTIGE TOWERS,99 & 100 RESIDENCY ROAD, BANGALORE ┬û 560025",BANGALORE URBAN,BANGALORE,KARNATAKA,9833666862
157,RBL Bank Limited,RATN0000157,PUNE-CAMP,"THE RATNAKAR BANK LTD,11 MOLEDINA ROAD,NEAR NAAZ BAKERY, EAST STREET FACING, PUNE-411001.",PUNE,PUNE,MAHARASHTRA,9833666862
158,RBL Bank Limited,RATN0000158,AHMEDABAD VIVA COMPLEX,"THE RATNAKAR BANK LTD,VIVA COMPLEX, OPP. PARIMAL GARDEN, ELLISBRIDGE, AHMEDBAD - 380006",AHMADABAD,AHMEDABAD,GUJARAT,9558824663
159,RBL Bank Limited,RATN0000159,ANDHERI,"GROUND FLOOR, GHANSHYAM CHAMBERS, PLOT NO. B12, LINK ROAD, OPP. CITI MALL, ANDHERI WEST, MUMBAI 400053",MUMBAI,MUMBAI,MAHARASHTRA,9833666862
160,RBL Bank Limited,RATN0000160,MAKRONIA,"GROUND FLOOR,KHASRA NO.174.21,174.23 PATWARI HALKA NO.72,MAKRONIA,MADHYA PRADESH 470001.",SAGAR,SAGAR,MADHYA PRADESH,231488
161,RBL Bank Limited,RATN0000161,KOLKATA-THAPAR HOUSE,"THE RATNAKAR BANK LTD,FIRST FLOOR,THAPAR HOUSE,25 BARBOURNE ROAD,KOLKATTA ┬û 700001",KOLKATA,KOLKATA,WEST BENGAL,9833666862
162,RBL Bank Limited,RATN0000162,BORGAON-AMRAVATI,"THE RATNAKAR BANK LTD,SHOP NO. 13, A WING, CITILAND COMPLEX, BORGAON VILLAGE, AMRAVATI-444709",AMRAVATI,AMRAVATI,MAHARASHTRA,9833666862
163,RBL Bank Limited,RATN0000163,NAGPUR,"THE RATNAKAR BANK LTD,3,4,5, ADITYA ENCLAVE, CENTRAL BAZAR ROAD, RAMDAS PETH, NAGPUR-440010",NAGPUR,NAGPUR,MAHARASHTRA,9823442373
164,RBL Bank Limited,RATN0000164,INDORE,"THE RATNAKAR BANK LTD,SHOP NO.3, GROUND FLOOR, THE GRACE, PLOT NO. 1&2, KIBE COMPOUND, INDORE-452001",INDORE,INDORE,MADHYA PRADESH,9833666862
165,RBL Bank Limited,RATN0000165,KAKINADA,"DOOR NO.1 93,KOVVADA PANCHAYAT,KAKINADA RURAL MANDAL,EAST GODAVARI DIST,KAKINADA 533006",EAST GODAVARI,KAKINADA,ANDHRA PRADESH,43020600
166,RBL Bank Limited,RATN0000166,GUNTUR,"DOOR NO.6 48A,SURVEY NO.333,LALUPURAM VILLAGE,GUNTUR RURAL MANDAL,GUNTUR DIST,GUNTUR 522017",GUNTUR,GUNTUR,ANDHRA PRADESH,43020600
167,RBL Bank Limited,RATN0000167,JL NEHRU ROAD KOLKATA,"THE RATNAKAR BANK LTD, GROUND FLOOR, HORIZON BUILDING, 57 JAWAHAR LAL NEHRU ROAD, KOLKATA 700 071",KOLKATA,KOLKATA,WEST BENGAL,224302060
168,RBL Bank Limited,RATN0000168,KARUR,"SURVEY NO.596 BY 2A,N.H 7,BYE PASS ROAD,NANJAI PUGALUR,KARUR TALUK AND DISTRICT,KARUR 639113",KARUR,KARUR,TAMIL NADU,43020600
169,RBL Bank Limited,RATN0000169,TIRUCHIRAPPALLI,"SASHA COMP,MANNACHANALLUR RD,VENGANGUDI VILL,SAMAYAPURAM PO,TIRUCHIRAPALLI 621112",TIRUCHIRAPALLI,TIRUCHIRAPPALLI,TAMIL NADU,43020600
170,RBL Bank Limited,RATN0000170,PATTUKOTTAI,"RANGANATHA VELLALAR COMP,THANJAVUR RD,ALADIKKUMULAI,PATTUKKOTAI,THANJAVUR DIST,THANJAVUR 614615",THANJAVUR,PATTUKOTTAI,TAMIL NADU,43020600
171,RBL Bank Limited,RATN0000171,COIMBATORE,THE RATNAKAR BANK LTD R.G CHAMBERS 726 AVINASHI ROAD TAMILNADU 641018,COIMBATORE,COIMBATORE,TAMIL NADU,43020600
172,RBL Bank Limited,RATN0000172,BHUJ,"B BY H.SARHAD DAIRY,BHUJ KHAVDA HIGHWAY,NR.BIRIYANDAYARA BUS STAND,BHUJ 370510",KACHCHH,BHUJ,GUJARAT,43020600
173,RBL Bank Limited,RATN0000173,PADDHARI,"UMIYA NIVAS,MAIN BAZAR,VILLAGE KHAMBHALA,TALUKA PADDHARI,RAJKOT 360110",RAJKOT,PADDHARI,GUJARAT,43020600
174,RBL Bank Limited,RATN0000174,AGRA,THE RATNAKAR BANK LTD GROUND FLOOR BLOCK NO 41 4 SANJAY PLACE SHOP NO 5 6 7 8 AND BASEMENT FLOOR,AGRA,AGRA,UTTAR PRADESH,43020600
175,RBL Bank Limited,RATN0000175,CHITTORGARH,"PLOT NO.2,SUKHSHANTI COLONY,BHILWARA ROAD,OPPOSITE SUB JAIL CHITTORGARH 312001,RAJASTHAN",CHITTAURGARH,CHITTORGARH,RAJASTHAN,43020600
176,RBL Bank Limited,RATN0000176,MOHANPURA,"GRAM MOHANPURA,KHASRA NO.374 BY 264,PART C 1,GROUND FLOOR,AJMER 305801",JAIPUR,MOHANPURA,RAJASTHAN,43020600
177,RBL Bank Limited,RATN0000177,TALERA,"PATTA NO.7,VILLAGE SEENTA,TEHSIL TALERA,DISTRICT BUNDHI PIN CODE 323021,RAJASTHAN",BUNDI,TALERA,RAJASTHAN,43020600
178,RBL Bank Limited,RATN0000178,ASSONORA,"HOUSE NO.12 BY 1,WADACHA WADA,SHIRGAON,ASSONORA,GOA 403 503",NORTH GOA,ASSONORA,GOA,43020600
179,RBL Bank Limited,RATN0000179,NETRAVALI,THE RATNAKAR BANK LTD HOUSE NO 110 MARGA VADDA NETRAVALI SANGUEM GOA 403704,SOUTH GOA,SANGUEM,GOA,43020600
180,RBL Bank Limited,RATN0000180,NUNGAMBAKKAM,THE RATNAKAR BANK LTD 1ST FLOOR RASHMI TOWER NO 1 VALLUVARKOTTAM HIGH ROAD CHENNAI 600034,CHENNAI,CHENNAI,TAMIL NADU,43020600
181,RBL Bank Limited,RATN0000181,HIMAT NAGAR,"THE RATNAKAR BANK LTD, SHOP NO 7,8,9, ASHOK VATIKA BLOCK NO A GROUND FLOOR SAHKARI JIN ROAD HIMAT NAGAR GUJARAT",SABAR KANTHA,GUJARAT,GUJARAT,43020600
182,RBL Bank Limited,RATN0000182,VASANT VIHAR,THE RATNAKAR BANK LTD 23 BASANT LOK MARKET COMMUNITY CENTRE VASANT VIHAR NEW DELHI 110057,DELHI,DELHI,DELHI,43020600
183,RBL Bank Limited,RATN0000183,VELETVA,"RBL BANK LTD,SHOP NO 1&2,FRIST FLOOR ATIMIYA ENCLAVE,VELETVA CROSS ROAD,NADIAD PETLAD ROAD,VELETVA,NADIAD TALUK,KHEDA DISTRICT,GUJARAT-388440",KHEDA,NADIAD,GUJARAT,1238040
184,RBL Bank Limited,RATN0000184,DADAR-MUMBAI,"THE RATNAKAR BANK LTD,PLOT N0-399,GOKHALE ROAD  SOUTH ,OPP BMC SCHOOL,DADAR WEST MUMBAI-400028",GREATER BOMBAY,MUMBAI,MAHARASHTRA,43020600
185,RBL Bank Limited,RATN0000185,ADYAR,THE RATNAKAR BANK LTD GROUND FLOOR NIBHAV BUILDING NO11 LB ROAD ADYAR CHENNAI 600020,CHENNAI,CHENNAI,TAMIL NADU,40288161
186,RBL Bank Limited,RATN0000186,PARRYS CORNER,THE RATNAKAR BANK LTD FIRST FLOOR DASS INDIA TOWER DOOR NO 3 SECOND LINE BACH CHENNAI 600 001,CHENNAI,CHENNAI,TAMIL NADU,40288161
187,RBL Bank Limited,RATN0000187,ANNA NAGAR,THE RATNAKAR BANK LTD FIRST FLOOR OLD NO AB 134 AND AB 106 AND 108 4TH AVENUE SHANTI COLONY ANNA NAGAR CHENNAI 600 040,CHENNAI,CHENNAI,TAMIL NADU,40288161
188,RBL BANK LIMITED,RATN0000188,GHATKOPAR EAST,"SHOP NO. 13 AND 13A, ZEST BUSINESS SPACES, M G ROAD, GHATKOPAR EAST, MUMBAI 400077.",MUMBAI,MUMBAI,MAHARASHTRA,25011752
189,RBL BANK LIMITED,RATN0000189,CHANDNI CHOWK,RBL BANK LTD 450 454 KUCHA BRIJ NATH CHANDNI CHOWK DELHI 110006,DELHI,DELHI,DELHI,45028843
190,RBL BANK LIMITED,RATN0000190,PITAMPURA,RBL BANK LIMITED 4TH KAPIL VIHAR PITAMPURA DELHI 110034,DELHI,DELHI,DELHI,45028843
191,RBL BANK LIMITED,RATN0000191,"FARIDABAD, HARYANA","RBL BANK LIMITED., SCO NO. 101, SECTOR-16, SHOP NO. G-01 TO G-05 AND G-09 TO G-10, FARIDABAD, HARYANA-121002.",FARIDABAD,FARIDABAD,HARYANA,1800123804
192,RBL BANK LIMITED,RATN0000192,ANDHERI MAROL BR,"RBL BANK LTD., GROUND FLOOR, SHOP NO. 2, BALAJI BUSINESS PARK, CTS NO. 785, MAROL, ANDHERI EAST, MUMBAI 400059.",GREATOR BOMBAY,GREATOR BOMBAY,MAHARASHTRA,1800123804
193,RBL BANK LIMITED,RATN0000193,CRAWFORD MARKET,"RBL BANK LTD., GROUND FLOOR, 190/194, LOKMANYA TILAK NAGAR, SARDAR GRIHA, CRAWFORD MARKET, MUMBAI 400002.",GREATER BOMBAY,GREATER BOMBAY,MAHARASHTRA,61156300
194,RBL BANK LIMITED,RATN0000194,VIKAS MARG - DELHI,"RBL BANK LTD., 6, SHANKAR VIHAR, VIKAS MARG, NEW DELHI 110092.",DELHI,DELHI,DELHI,1800123804
195,RBL BANK LIMITED,RATN0000195,J P NAGAR - BANGALORE,"RBL BANK LTD., N 15 24TH MAIN, J P NAGAR, 1ST PHASE, BANGALORE - 560078.",BANGALORE URBAN,BANGALORE,KARNATAKA,1800123804
196,RBL BANK LIMITED,RATN0000196,GARIAHAT - KOLKATA,"RBL BANK LTD., 9/3A, GARIAHAT ROAD, GROUND FLOOR, KOLKATA - 700019.",KOLKATA,KOLKATA,WEST BENGAL,61156300
197,RBL BANK LIMITED,RATN0000197,KALAKAR STREET - KOLKATA,"RBL BANK LTD., 19, BASAK STREET, (KALAKAR STREET), KOLKATA - 700007.",KOLKATA,KOLKATA,WEST BENGAL,61156300
198,RBL BANK LIMITED,RATN0000198,RBL BANK LTD,RBL BANK LIMITED FORMERLY THE RATNAKAR BANK LTD GROUND FLOOR SADAR BAZAR PLOT NO 4 5332 SADAR THANA ROAD DELHI 110006,DELHI,DELHI,DELHI,1800123804
199,RBL BANK LIMITED,RATN0000199,RBL BANK LTD,"RBL BANK LIMITED FORMERLY THE RATNAKAR BANK LTD, GR FLOOR SHOP NO 3 AND 5 1ST FLOOR 3 4 AND 5 RAHEJA EXTENSION M G ROAD RAIPUR CHHATTISSGARH 492001",RAIPUR,RAIPUR,CHHATTISGARH,1800123804
200,RBL BANK LIMITED,RATN0000200,RBL BANK LTD,"RBL BANK LIMITED FORMERLY THE RATNAKAR BANK LTD 121 A SATHY ERODE HIGHWAYS ARIYAPPAMPALAYAM SATHYAMANGALAM TK ERODE DT SATHYAMANGALAM, TAMIL NADU 638402",ERODE,SATHYAMANGALAM,TAMIL NADU,1800123804
201,RBL BANK LIMITED,RATN0000201,RBL BANK LTD,RBL BANK LIMITED FORMERLY THE RATNAKAR BANK LTD 2 139 SREE MAHALAKSHMI AMMAN COMPLEX RASAKAPALAYAM PULIAMPATTI PO POLLACHI TK POLLACHI TAMIL NADU 642002,COIMBATORE,POLLACHI,TAMIL NADU,1800123804
202,RBL BANK LIMITED,RATN0000202,CHANDIGARH,"RBL BANK LIMITED SCO 135-136 SECTOR 9-C MADHYA MARG,CHANDIGARH",CHANDIGARH,CHANDIGARH,CHANDIGARH,1800123804
203,RBL BANK LIMITED,RATN0000203,LUDHIANA,RBL BANK LIMITED SCO NO 18-19C CANAL COLONY GREEN PARK AVENUE PAKHOWAL ROAD LUDHIANA -141001,LUDHIANA,LUDHIANA,PUNJAB,1800123804
204,RBL BANK LIMITED,RATN0000204,NOIDA,RBL BANK LIMITED GROUND FLOOR H 1A/28  SECTOR 63 NOIDA-201301,GAUTAM BUDDHA NAGAR,NOIDA,UTTAR PRADESH,1800123804
205,RBL BANK LIMITED,RATN0000205,AMBUR-VELLORE,"RBL BANK LIMITED, NO.73,S S AVENUE BY PASSROAD,MELKRISHNAPURAM,AMBUR-635802",VELLORE,AMBUR,TAMIL NADU,8001238040
206,RBL BANK LIMITED,RATN0000206,MADURAI - TAMIL NADU,"RBL BANK LIMITED, NO.98, VAKIL NEW STREET, MADURAI - 625001",MADURAI,MADURAI,TAMIL NADU,8001238040
207,RBL BANK LIMITED,RATN0000207,INDIRA NAGAR BANGALORE,"RBL BANK LIMITED,546,CMH ROAD,INDIRANAGAR,BANGALORE - 560038",BANGALORE URBAN,BANGALORE,KARNATAKA,8001238040
208,RBL BANK LIMITED,RATN0000208,KUKATPALLY,RBL BANK LIMITED NO 10B GROUND FLOOR SURVEY NO 1051 AND 1060 MANJEERA MAJESTIC COMMERCIAL MALL KUKATPALLY 500072,RANGAREDDY,KUKATPALLY,TELANGANA,8001238040
209,RBL BANK LIMITED,RATN0000209,MADHAPUR,"RBL BANK LIMITED GROUND FLOOR MSR BLOCK KRISHE SAPPHIRE SURVAY NO 88, HITECH CITY MAIN ROAD,MADHAPUR,HYDERABAD-500081",RANGAREDDY,MADHAPUR,TELANGANA,8001238040
210,RBL BANK LIMITED,RATN0000210,MALLESWARAM,"RBL BANK LIMITED, KOMARLA PLAZA, NO 141,3RD MAIN,MARGOSA ROAD,MALLESWARAM,BANGALORE - 560003",BANGALORE URBAN,BANGALORE,KARNATAKA,8001238040
211,RBL BANK LIMITED,RATN0000211,SANTACRUZ WEST,"RBL BANK LIMITED,SHOP NO 3 GREENFIELD, S V ROAD,SANTACRUZ WEST MUMBAI - 400054",GREATER BOMBAY,GREATER BOMBAY,MAHARASHTRA,8001238040
212,RBL BANK LIMITED,RATN0000212,MIRA ROAD,"RBL BANK LIMITED,SHOP 21 TO 25 GR FLR,IRASIA CHS,BEVERLY PARK,NR KANAKIA POLICE STN MIRA ROAD,THANE -401107",THANE,MIRA BHAYANDAR,MAHARASHTRA,8001238040
213,RBL BANK LIMITED,RATN0000213,JAIPUR,"RBL BANK LIMITED,SHOP NO 1, GROUND FLOOR,SILVER SQUARE,BHAGWAN DAS ROAD ,JAIPUR - 302001",JAIPUR,JAIPUR,RAJASTHAN,8001238040
214,RBL BANK LIMITED,RATN0000214,JAGRITIENCLAVE,"RBL Bank Limited,UPPER GROUND FLOOR AT 183 JAGRITI ENCLAVE, DELHI  110092",DELHI,DELHI,DELHI,1238040
215,RBL BANK LIMITED,RATN0000215,BUDGE BUDGE KOLKATA,"RBL BANK LIMITED SHUBHAM BLDG 523/2/1 &523//2/2,M.G ROAD CHOWRASTA BUDGE BUDGE ROAD KOLKATA",KOLKATA,KOLKATA,WEST BENGAL,1800123804
216,RBL BANK LIMITED,RATN0000216,MALAD WEST,RBL BANK LIMITED SHOP NO 16-17 SIMPLEX KHUSHAANGAN 82 VIJAYARWADI S V ROAD MALAD WEST MUMBAI-400064,GREATER BOMBAY,GREATER BOMBAY,MAHARASHTRA,1800123804
217,RBL BANK LIMITED,RATN0000217,GREATER KAILASH PART II,RBL BANK LIMITED M 2 GROUND FLOOR AND BASEMENT GREATER KAILASH PART 2 NEW DELHI 110048,DELHI,DELHI,DELHI,1800123804
218,RBL BANK LIMITED,RATN0000218,OCUS TECHNOPOLIS  GURGAON,RBL BANK LIMITED UNIT NO TGF 4 AND 5 GROUND FLOOR OCUS TECHNOPOLIS GOLF COURSE ROAD SECTOR 54 GURGAON HARYANA 122003,GURGAON,GURGAON,HARYANA,1800123804
219,RBL BANK LIMITED,RATN0000219,VISAKHAPATNAM,RBL BANK LIMITED 47 1 4 BHUVANESHWARI PLAZA DIAMOND PARK MAIN ROAD DWARAKANAGAR VISAKHAPATNAM 530016,VISAKHAPATNAM,VISAKHAPATNAM,TAMIL NADU,1800123804
220,RBL BANK LIMITED,RATN0000220,COCHIN,RBL BANK LIMITED GROUND AND FIRST FLOOR PALAL ARCADE NEXT TO BATA SHOW ROOM M G  ROAD DIST ERNAKULAM TAL KANAYANUR VILLAGE KARITHALA COCHIN 682016,COCHIN,COCHIN,KERALA,1800123804
221,RBL BANK LIMITED,RATN0000221,KAGAM ERODE,RBL BANL LIMITED 49 A MANALKATTU THOTTAM ELLAKADAI KAGAM ERODE TAMIL NADU PIN CODE 638109,KAGAM ERODE,KAGAM ERODE,TAMIL NADU,1800123804
222,RBL BANK LIMITED,RATN0000222,KAMALPUR BRANCH,RBL BANK LIMITED SHOP NO 7 AND 8 FIRST FLOOR SAKAL AVENUE KAMALPUR TAL PRANTIJ DIST SABARKANTHA GUJARAT 383205,SABARKANTHA,KAMALPUR,GUJARAT,1800123804
223,RBL BANK LIMITED,RATN0000223,KHALIKPUR BRANCH,RBL BANK LIMITED SHOP NO 16 AND 17 GROUND FLOOR SANSKRUTI COMPLEX NR SHUYOG PETROL PUMP MALPUR ROAD KHALIKPUR DIST ARAVALI GUJARAT 383315,ARAVALI,KHALIKPUR,GUJARAT,1800123804
224,RBL BANK LIMITED,RATN0000224,MADURAVOYAL CHENNAI,RBL BANK LIMITED NO 135 A P H ROAD MADURAVOYAL CHENNAI 600095,CHENNAI,MADURAVOYAL,TAMIL NADU,1800213804
225,RBL BANK LIMITED,RATN0000225,DANKUNI BRANCH,RBL BANK LIMITED FLAT NO 101 AND 102 SHREYA APARTMENTS 1ST FLOOR T N MUKHERJEE ROAD LICHUBAGAN OPP RAMSITA MANDIR DANKUNI HOOGLY PIN 712311,HOOGLY,DANKUNI,WEST BENGAL,1800123804
226,RBL BANK LIMITED,RATN0000226,SOUTH BOPAL AHMEDBAD,RBL BANK LTD SHOP NO 8 AND 9 GROUND FLOOR ORCHID CENTRE SOUTH BHOPAL MOUJE BOPAL TALUKA DASKROI AHMEDABAD 380058,AHMEDABAD,AHMEDABAD,GUJARAT,1800123804
227,RBL BANK LIMITED,RATN0000227,ANKLESHWAR,RBL BANK LIMITED C BLOCK SHOP NO 1 TO 5 MAYUR NAGAR OPP LORDS PLAZA OLD N H NO 08 VILLAGE PIRAMAN TAL ANKLESHWAR DIST BHARUCH 393002,BHARUCH,BHARUCH,GUJARAT,1800123804
228,RBL BANK LIMITED,RATN0000228,RAJPURA BRANCH,RBL BANK LIMITED GROUND FLOOR D 21 CALIBRE MARKET RAJPURA PIN CODE 140401,CHANDIGARH HQ,PATIALA,PUNJAB,1800123804
229,RBL BANK LIMITED,RATN0000229,PHAGWARA KAPURTHALA,RBL BANK LIMITED GROUND FLOOR CITY CENTRE TOWER 338 GURU HARGOBIND NAGAR PHAGWARA PINCODE 144401,KAPURTHALA,PHAGWARA,PUNJAB,1800123804
230,RBL BANK LIMITED,RATN0000230,NANASA BRANCH,RBL BANK LIMITED VILLAGE NANASA P H NO 21 TEHSIL KANNOD DISTRICT MADHYA PRADESH PINCODE 455336,DEWAS,NANASA,MADHYA PRADESH,1800123804
231,RBL BANK LIMITED,RATN0000231,BAWARIKHEDA BRANCH,RBL BANK LIMITED GRAM PANCHAYAT DIST DEWAS MADHYA PRADESH PINCODE 455332,BAWARIKHEDA,BAWARIKHEDA,MADHYA PRADESH,1800123804
232,RBL BANK LIMITED,RATN0000232,BHOJPARA BRANCH,RBL BANK LIMITED R S NO 58 3 PLOT NO 6 NR GALAXY PETROL PUMP NATIONAL HIGHWAY 27 VILLAGE BHOJPARA TALAKU GONDAL DISTRICT RAJKOT PINCODE 360311,GONDAL,GONDAL,GUJARAT,1800123804
233,RBL BANK LIMITED,RATN0000233,ZIRAKPUR BRANCH,RBL BANK LIMITED SCO 1 AND 2 GROUND FLOOR ORBIT APARTMENTS VIP ROAD ZIRAKPUR DISTRICT MOHALI 140603,MOHALI,MOHALI,PUNJAB,1800123804
234,RBL BANK LIMITED,RATN0000234,HAROTACHOMU,RBL BANK LIMITED GROUND FLOOR NERA ANJANI HANUMAN MANDIR AT POST HAROTA TEHSIL CHOMU DISTRICT JAIPUR RAJASTHAN PIN CODE 303705,CHOMU,CHOMU,RAJASTHAN,1800123804
235,RBL BANK LIMITED,RATN0000235,CHAK Z  SRIGANGANAGAR,RBL BANK LIMITED GROUND FLOOR MURRABA NO 42 AND 26 SHOP NO 18 21 CHAK 7 Z TEHSIL AND DIST SRIGANGANAGAR RAJASTHAN PIN CODE 335001,SRIGANGANAGAR,SRIGANGANAGAR,RAJASTHAN,1800123804
236,RBL BANK LIMITED,RATN0000236,KALYANI BRANCH,RBL BANK LIMITED B 7 20 S KALYANI BESIDES BERI HONDA SHOWROOM P O KALYANI DIST NADIA PIN 741235,KALYANI,KALYANI,WEST BENGAL,1800123804
237,RBL BANK LIMITED,RATN0000237,VV NAGAR,RBL BANK LIMITED NILKANTH ESTATE PLOT NO 154 155 GROUND FLOOR SHOP NO 3 NANA BAZAR OPPOSITE UNIVERSITY GIRLS HOSTEL VALLABHVIDYA NAGAR 388120,AHMEDABAD,VALLABHVIDYA NAGAR,GUJARAT,1800123804
238,RBL BANK LIMITED,RATN0000238,KRISHNAGIRI BRANCH,"RBL BANK LTD.,VASAI COMPLEX, ROYAKOTTA ROAD, KRISHNAGIRI, TAMILNADU 635001.",KRISHNAGIRI,KRISHNAGIRI,TAMIL NADU,1800123804
239,RBL BANK LIMITED,RATN0000239,"SADAIYAMPATTU BRANCH, KALLAKURICHI","RBL BANK LTD., NO. 127/2, NEAR OM SAKTHI KOVIL, KACHIRAYAPALAYAM MAIN ROAD, KATTUKOTTAI, SADAIYAMPATTU VILL., SOMANDARKUDI POST, KALLAKURICHI, TAMILNADU 606213.",KALLAKURICHI,KALLAKURICHI,TAMIL NADU,1800123804
240,RBL BANK LIMITED,RATN0000240,SALT LAKE BRANCH,"RBL BANK LTD., PLOT NO. XI 16, BLOCK EP AND GP, SECTOR V, SALT LAKE CITY, KOLKATA - 700091.",KOL,KOLKATA,WEST BENGAL,1800123804
241,RBL BANK LIMITED,RATN0000241,VIJAYAWADA,"RBL BANK LTD. D. NO. 40-5-1, TIKKLE ROAD, OPP DV MANOR, VIJAYAWADA 520010",KRISHNA,VIJAYAWADA,ANDHRA PRADESH,1800123804
242,RBL BANK LIMITED,RATN0000242,SIRSAMA BRANCH,"RBL BANK LTD GROUND FLOOR PIPLI,LADWA ROAD VILLAGE SIRSAMA, TAHSHIL THANESAR KURUKSHETRA,HARYANA",KURUKSHETRA,SIRSAMA,HARYANA,1800123804
243,RBL BANK LIMITED,RATN0000243,RAJKOT BRANCH,"RBL BANK LTD. GROUND FLOOR, BUSINESS PARK, OPP TVS JIV RAJANI SHOW ROOM, KALAWAD ROAD, RAJKOT 360001.",RJKOT,RAJKOT,GUJARAT,1800123804
244,RBL BANK LIMITED,RATN0000244,PRAHLAD NAGAR,"RBL BANK LTD. GROUND FLOOR, SHOP NO.1, SAFAL PEGASUS, PRAHLAD NAGAR, AHMEDABAD 380015.",AHMEDABAD,AHMEDABAD,GUJARAT,1800123804
245,RBL BANK LIMITED,RATN0000245,R A PURAM -  CHENNAI,"RBL BANK LTD. UNIT NO.1, GROUND FLOOR, OXFORD CENTRE, 62/63 C RAMASWAMY ROAD, ALWARPET, CHENNAI 600018.",CHENNAI,CHENNAI,TAMIL NADU,1800123804
246,RBL BANK LIMITED,RATN0000246,GIRISH PARK BRANCH,"RBL BANK LIMITED,187,GROUND FLOOR CHITTRANJAN AVENUE,FORMERLY 11 AND 12 PRABHATI GHOSH LANE POLICE STATION GIRISH PARK WARD NO 25,KOLKATA 700007",KOLKATA,KOLKATA,WEST BENGAL,1800123804
247,RBL BANK LIMITED,RATN0000247,"PALM SQUARE GOLF, COURSE EXTEN","RBL BANK LTD, GROUND FLOOR, EMAAR MGF PALM SQUARE, GOLF COURSE EXTN ROAD, SECTOR-66 GURUGRAM, GURGAON, 122102",GURUGRAM,GURUGRAM,HARYANA,1800123804
248,RBL BANK LIMITED,RATN0000248,LAMINGTON ROAD BRANCH,"RBL BANK LTD, UNIT NO G1 AND G-2, GROUND FLOOR, SIMLIM SQUARE PREMISES CO-OP, SOC, LTD, LAMINGTON ROAD, GRANT ROAD EAST, MUMBAI-400007",MUMBAI,MUMBAI,MAHARASHTRA,1800123804
249,RBL BANK LIMITED,RATN0000249,SARAVANAMPATTI,"RBL BANK LTD, 37, SATHYA MAIN ROAD, SIVANANDHAPURAM, SARAVANAMPATTI, TAMILNADU, COIMBATORE- 641035.",COIMBATORE,COIMBATORE,TAMIL NADU,1800123804
250,RBL BANK LIMITED,RATN0000250,RDC GHAZIABAD,"RBL BANK LTD, D-33, RAJ NAGAR DISTRICT CENTRE RDC, GHAZIABAD-201002",GHAZIABAD,GHAZIABAD,UTTAR PRADESH,1800123804
251,RBL BANK LIMITED,RATN0000251,MODEL TOWN JALANDHAR,"RBL BANK LIMITED, GROUND FLOOR, 265 R, MODEL TOWN, JALANDHAR-144003",JALANDHAR,JALANDHAR,PUNJAB,1800123804
252,RBL BANK LIMITED,RATN0000252,BANDRA WEST BRANCH,"RBL BANK LTD, UNIT NO. 2 AND 3, GROUND FLOOR, KALA KUNG BUILDING, PLOT NO.710, LINKING ROAD, KHAR WEST, MUMBAI-400052",MUMBAI,MUMBAI,MAHARASHTRA,1800123804
253,RBL BANK LIMITED,RATN0000253,HOSKOTE,"RBL BANK LTD, PLOT NO.4189/6275/2/SURVEY NO.125, GROUND FLOOR OPP SADANA THEATRE, N H ROAD, KND COMPLEX, HOSKOTE TOWN, BENGALURU- 5621114",BENGALURU,BENGALURU,KARNATAKA,1800123804
254,RBL BANK LIMITED,RATN0000254,HSR LAYOUT,"RBL BANK LTD, GROUND FLOOR, SS ARCADE, 257, 14TH MAIN, HSR SECTOR, 7, BENGALURU-560102",BENGALURU,BENGALURU,KARNATAKA,1800123804
255,RBL BANK LIMITED,RATN0000255,MANINAGAR,"RBL BANK LTD, SHOP NO.3, SPARSH, JAI HIND CHAR RASTA, MANI NAGAR, AHMEDABAD-380008",AHMEDABAD,AHMEDABAD,GUJARAT,1800123804
256,RBL BANK LIMITED,RATN0000256,TIRUCHENGODE,"RBL BANK LTD,DOOR NO.180,BANGALA STREET,ERODE MAIN ROAD,TIRUCHENGODE-637211",TIRUCHENGODE,TIRUCHENGODE,TAMIL NADU,1800123804
257,RBL BANK LIMITED,RATN0000257,LAJPAT NAGAR,"RBL BANK LTD,GROUND FLOOR & BASEMENT FLOOR,L-96,LAJPAT NAGAR-II,NEW DELHI-110024",DELHI,DELHI,DELHI,1800123804
258,RBL BANK LIMITED,RATN0000258,CG ROAD BRANCH CHEMBUR,"RBL BANL LTD,GROUND FLOOR,G 28 TO G 31,MERCANTILE APARTMENT,DR.C.P.GIDWANI ROAD,NEAR GURUKRUPA HALL,CHEMUBUR,MUMBAI-400074",MUMBAI,MUMBAI,MAHARASHTRA,1800123804
259,RBL BANK LIMITED,RATN0000259,SHYAMBAZAR,"RBL BANK LTD,GROUND AND FIRST FLOOR 128 B BIDHAN SARANI KOLKATA 700004",KOLKATA,KOLKATA,WEST BENGAL,1800123804
260,RBL BANK LIMITED,RATN0000260,SECUNDERABAD BRANCH,"RBL BANK LTD,50,GROUND FLOOR,M.G.ROAD,SECUNDERABAD-500003",SECUNDERABAD,SECUNDERABAD,TELANGANA,1800123804
261,RBL BANK LIMITED,RATN0000261,"BOMMASANDRA,BANGALORE BRANCH","RBL BANL LTD,SHOP NO.3,BHAVANI TOWER,SURVEY NO.61/13,ANANTH NAGAR MAIN ROAD,HUSKUR GATE,ELCETRONIC CITY,BANGALORE-560100",BENGALURU,BENGALURU,KARNATAKA,1800123804
262,RBL BANK LIMITED,RATN0000262,KOTHRUD PUNE BRANCH,"RBL BANK LTD,GROUND FLOOR,SHOP NO.6&7,PARIJAT APARTMENT,SHIVTEERTH NAGAR,KOTHRUD,PUNE-411038",PUNE,PUNE,MAHARASHTRA,1800123804
263,RBL BANK LIMITED,RATN0000263,ROPAR,"RBL BANK LTD,GROUND FLOOR,SCO NO.36,BEANT SINGH AMAN NAGAR,BELA ROAD,ROPAR,PUNJAB-140001",ROPAR,ROPAR,PUNJAB,1800123804
264,RBL BANK LIMITED,RATN0000264,MANDI GOBINDGARH,"RBL BANL LTD,GROUND FLOOR,PLOT NO 416,SECTOR 3,BLOCK C,OPPOSITE HDFC BANK,MANDI GOBINDGARH-147301",MANDI GOBINDGARH,MANDI GOBINDGARH,PUNJAB,1800123804
265,RBL BANK LIMITED,RATN0000265,MANIMAJRA,"RBL BANK LTD,GROUND FLOOR,SCO 830,NAC MANIMAJRA,CHANDIGARH-160101",MANIMAJRA,MANIMAJRA,CHANDIGARH,1800123804
266,RBL BANK LIMITED,RATN0000266,DWARKA,"RBL BANK LTD,PART GROUND FLOOR,PLOT NO.12B/58,DWARKA,NEW DELHI-110075",DELHI,DELHI,DELHI,1800123804
267,RBL BANK LIMITED,RATN0000267,KAMREJ,"RBL BANK LTD,43,JYOTI PARK SOCIETY,SURAT-KAMREJ ROAD,KAMREJ,DIST SURAT GUJARAT-394185",SURAT,SURAT,GUJARAT,1800123804
268,RBL BANK LIMITED,RATN0000268,TRIPURI PATIALA,"RBL BANK LTD, DLF COLONY BANKING LANE, GROUND FLOOR, SCO NO.13, DLF BANKING LANE, TRIPURI, PATIALA-147001, PUNJAB",PATIALA,PATIALA,PUNJAB,1800123804
269,RBL BANK LIMITED,RATN0000269,PUNJABI BAGH,"RBL BANK LTD,GROUND FLOOR,39 WEST AVENUE ROAD,PUNJABI BAGH, NEW DELHI-110026",NEW DELHI,NEW DELHI,DELHI,1800123804
270,RBL BANK LIMITED,RATN0000270,JANAKPURI,"RBL BANK LTD, GROUND FLOOR, B-1/511, JANAKPURI, NEW DELHI-110058",NEW DELHI,NEW DELHI,DELHI,1800123804
271,RBL BANK LIMITED,RATN0000271,JASOLA,SHOP NO JA0028 AND JA0029 DLF TOWER A JASOLA NEW DELHI 110025,DELHI,DELHI,DELHI,1800123804
272,RBL BANK LIMITED,RATN0000272,"GUJRAWALA, MODEL TOWN","RBL BANK LTD, GROUND FLOOR, B-11 GUJRANWALA, MODEL TOWN, NEW DELHI -110009",DELHI,DELHI,DELHI,1800123804
273,RBL BANK LIMITED,RATN0000273,BHUBANESHWAR BRANCH,"RBL BANK LTD, GROUND FLOOR HIG-16, JAYDEV VIHAR, BHUBANESHWAR ODISHA-751013",KHORDHA,BHUBANESHWAR,ODISHA,1800123804
274,RBL BANK LIMITED,RATN0000274,HIRAPUR,RBL BANK LTD GRAM PANCHAYAT BHAWAN INFRONT OF KRISHI UPAJ MANDI MAIN ROAD VILLAGE HIRAPUR BLOCK MAKADI DIST KONDAGAON HIRAPUR CHHATTISGARH 494226,KONDAGAON,KONDAGAON,CHANDIGARH,1800123804
275,RBL BANK LIMITED,RATN0000275,VAISHALI NAGAR JAIPUR,SHOP NO C GROUND FLOOR PLOT NO C1 C BLOCK VAIBHAV COMPLEX GAUTAM MARG VAISHALI NAGAR JAIPUR 302021,JAIPUR,JAIPUR,RAJASTHAN,1800123804
276,RBL BANK LIMITED,RATN0000277,SHIMLA BRANCH,"LEVEL1, BLOCK B KHASRAN NO. 159 TO 165, THE MALL,SHIMLA, HIMACHAL PRADESH 171001",SHIMLA,SHIMLA,HIMACHAL PRADESH,0
277,RBL BANK LIMITED,RATN0000278,RBL,"SHOP NO 5, GROUND FLOOR, ALFA PREMIO , NEAR DATTA MANDIR, OPP KHALSA DAIRY, VIMAN NAGAR, PUNE 4011014",PUNE,PUNE,MAHARASHTRA,1800123804
278,RBL BANK LIMITED,RATN0000279,MAGARPATTA ROAD,GROUND FLOOR FARENA CORPORATE PARK SR NO 135 AND 136 HISSA NO 1A 2 MAGARPATTA ROAD HADAPSAR PUNE 411028,PUNE,PUNE,MAHARASHTRA,1800123804
279,RBL BANK LIMITED,RATN0000280,NEW ALIPORE,"FIRST FLOOR PREMISES NO 51,BANKIM MUKHERJEE SARANI, WARD NO 81,41F BLOCK-C, NEW ALIPORE, KOLKATA-700053",KOLKATTA,KOLKATTA,WEST BENGAL,0
280,RBL BANK LIMITED,RATN0000281,SAKET,"GROUND FLOOR, 214 BLOCK J, SAKET, NEW DELHI 110017",DELHI,DELHI,DELHI,0
281,RBL BANK LIMITED,RATN0000283,AUNDH,SHOWROOM NO 02 VARSHA AVENUE PLOT NO 104 CTS NO 1132  1133  ANAND PARK AUNDH PUNE 41107,PUNE,PUNE,MAHARASHTRA,1800123804
282,RBL BANK LIMITED,RATN0000284,AMBEDKAR GARDEN CHEMBUR EAST,SAMRUDDHI PLOT NO 157 18TH ROAD NEAR AMBEDKAR GARDEN CHEMBUR EAST MUMBAI 400071,MUMBAI,MUMBAI,MAHARASHTRA,1800123804
283,RBL BANK LIMITED,RATN0000285,CUMBALA HILL,SHOP NO 3 GROUND FLOOR SMRUTI APARTMENTS MAHALAXMI MANDIR MARG CUMBALA HILL MUMBAI 400026,MUMBAI,MUMBAI,MAHARASHTRA,1800123804
284,RBL BANK LIMITED,RATN0000286,MAZGAON,230 MOUN ROAD NEAR SALES TAX OFFICE MAZGAON MUMBAI 400010,MUMBAI,MUMBAI,MAHARASHTRA,1800123804
285,RBL BANK LIMITED,RATN0000287,DADAR WEST,SHOP NO 6 AND 7 ANAND VAIBHAV CHS LTD N C KELKAR ROAD GROUND FLOOR OPP SHREE SHIVAJI NATYA MANDIR NEXT TO PLAZA CINEMA DADAR WEST MUMBAI 400028,MUMBAI,MUMBAI,MAHARASHTRA,1800123804
286,RBL BANK LIMITED,RATN0000288,BANASHANKARI BRANCH,"108, GROUND FLOOR, 100 FT. RING ROAD, BSK 3RD STAGE, KATHRIGUPPE,BANGALORE-560085",BANGALORE,BENGALURU,KARNATAKA,0
287,RBL BANK LIMITED,RATN0000289,BROOKEFIELDS BRANCH,"SURAKSHA DE VENETIAN, NO.605, AECS LAYOUT,KUNDALAHALLI, BROOK FIELD, BANGALORE-560037",BANGALORE,BENGALURU,KARNATAKA,0
288,RBL BANK LIMITED,RATN0000290,RAJAJINAGAR BRANCH,"SHANTI TOWER,257/18, 10TH CROSS ROAD, 1ST N BLOCK, WARD NO 14 RAJAJI NAGAR, BANGALORE-560010",BANGALORE,BENGALURU,KARNATAKA,0
289,RBL BANK LIMITED,RATN0000291,WAKAD,SHOWROOM NO 1C GROUND FLOOR GO SQUARE MALL NEXT TO CROMA HINJEWADI WAKAD ROAD WAKAD PUNE 411057,PUNE,PUNE,MAHARASHTRA,1800123804
290,RBL BANK LIMITED,RATN0000292,DEFENCE COLONY,GROUND FLOOR E 10 DEFENCE COLONY NEW DELEHI 110024,DELHI,DELHI,DELHI,1800123804
291,RBL BANK LIMITED,RATN0000294,MEERA BAGH PASCHIM VIHAR BRANCH,B376 MEERA BAGH PASCHIM VIHAR NEW DELHI 110087,DELHI,DELHI,DELHI,1800123804
292,RBL BANK LIMITED,RATN0000295,KIRTI NAGAR BRANCH,GROUND FLOOR F43 KIRTI NAGAR NEW DELHI 110015,DELHI,DELHI,DELHI,1800123804
293,RBL BANK LIMITED,RATN0000296,DARIYAGANJ,"GROUND FLOOR, 2/3619 FAIZ BAZAR, DARIYAGANJ, NEW DELHI - 110002",DELHI,DELHI,DELHI,0
294,RBL BANK LIMITED,RATN0000297,MOHALI,"GROUND FLOOR, SCF 116, 3B2, MOHALI-160059",MOHALI,MOHALI,PUNJAB,0
295,RBL BANK LIMITED,RATN0000298,PANCHKULA,"GROUND FLOOR, SCO 15, SECTOR 11, PANCHKULA-134109",PANCHKULA,PANCHKULA,PUNJAB,0
296,RBL BANK LIMITED,RATN0000299,CHANDIGARH,"GROUND FLOOR, S.C.O NO 329, SECTOR 35B, CHANDIGARH-160035",CHANDIGARH,CHANDIGARH,CHANDIGARH,0
297,RBL BANK LIMITED,RATN0000300,ASHOK NAGAR BRANCH,"GROUND FLOOR, 11TH NRD TOWER, 100 FT ROAD, 1ST AVENUE ASHOK NAGAR, CHENNAI - 600083",CHENNAI,CHENNAI,TAMIL NADU,0
298,RBL BANK LIMITED,RATN0000301,GANDHI MAIDAN BRANCH,"GROUND A, SPACE NO 1,2,3,4, TWIN TOWER,SOUTH GANDHI MAIDAN, PATNA -800003",PATNA,PATNA,BIHAR,0
299,RBL BANK LIMITED,RATN0000302,NARAINA BRANCH,"GROUND FLOOR, C-126, NARAINA INDUSTRIAL AREA, PHASE-1, NEW DELHI-110028",DELHI,DELHI,DELHI,0
300,RBL BANK LIMITED,RATN0000303,NOIDA SECTOR,"GROUND FLOOR, B 258, SECTOR -50, NOIDA -201301",GAUTAM BUDH NAGAR,NOIDA,UTTAR PRADESH,0
301,RBL BANK LIMITED,RATN0000304,NEELANGARAI,"1ST FLOOR, 145, EAST COAST ROAD, NEELANGARAI,KANCHEEPURAM SHOLINGANALLUR-600115",SHOLINANALLUR,SHOLINGANALLUR,TAMIL NADU,0
302,RBL BANK LIMITED,RATN0000308,JAJPUR ROAD BRANCH,"PLOT NO 1253/2117, GROUND FLOOR, CHORADA MAIN ROAD, JAJPUR ROAD, ODISHA 755109",JAJPUR,JAJPUR,ODISHA,0
303,RBL BANK LIMITED,RATN0000314,KAILASH COLONY BRANCH,"A-13,FRONT PORTION & GROUND FLOOR, KAILASH COLONY NEW DELHI 10048",DELHI,DELHI,DELHI,0
304,RBL BANK LIMITED,RATN0000315,KAMLA NAGAR BRANCH,"GROUND FLOOR,4/3 ROOP NAGAR, KAMLA NAGAR, NEW DELHI 110007",DELHI,DELHI,DELHI,0
305,RBL Bank Limited,RATN0000990,CORPORATE OFFICE,"ONE INDIA BULLS CENTRE, 841 6TH FLOOR, TOWER B WING, LOWER PAREL",GREATER BOMBAY,GREATER BOMBAY,MAHARASHTRA,2243020600
306,RBL Bank Limited,RATN0000991,SERVICE BRANCH MUMBAI,"THE RATNAKAR BANK LTD SERVICE BRANCH 19 J B HOUSE, R D STREET , FORT MUMBAI",GREATER BOMBAY,GREATER BOMBAY,MAHARASHTRA,2222655820
307,RBL Bank Limited,RATN0000992,CORPORATE OFFICE ( IB BRANCH ),"ONE INDIABULLS CENTRE, TOWER 2, 6TH FLOOR,841 SENAPATI BAPAT MARG, LOWER PAREL (W), MUMBAI 400 013.",GREATER BOMBAY,GREATER BOMBAY,MAHARASHTRA,0
308,RBL Bank Limited,RATN0000999,HEAD OFFICE,"MAHAVEER, SHRI SHAHU MARKET YARD, KOLHAPUR. PIN 416005",KOLHAPUR,KOLHAPUR,MAHARASHTRA,2312650981
309,RBL BANK LIMITED,RATN00YDCBL,YADRAV COOPERATIVE BANK LTD,"C S NO1170-A,9TH LANE SHUBHASH ROAD,JAYSINGPUR,TAL-SHIROL,DIST-KOLHAPUR-416101",KOLHAPUR,SHIROLI,MAHARASHTRA,982265555
310,RBL BANK LIMITED,RATN0CCIMPS,NOC GOREGAON,"RBL BANK LTD, NATIONAL OPERATING CENTRE, 9TH FLOOR, TECHNI PLEX COMPLEX, NEAR OFF VEER SAVARKAR FLYOVER, GOREGAON WEST, MUMBAI -400062",,GREATE BOMBAY,MAHARASHTRA,262278700
311,RBL Bank Limited,RATN0CRCARD,NOC-GOREGAON,"THE RATNAKAR BANK LTD,9TH FLOOR, TECHNIPLEX-I, OFF VEER SAVARKAR FLYOVER, GOREGAON WEST, MUMBAI - 400 062",GREATER BOMBAY,GREATER BOMBAY,MAHARASHTRA,9833666862
312,RBL BANK LIMITED,RATN0VAAPIS,CORPORATE OFFICE,"RBL BANK LTD,6TH FLOOR,TOWER 2B,ONE INDIA BULLS,LOWER PAREL",MUMBAI,MUMBAI,MAHARASHTRA,1800123804
313,RBL BANK LIMITED,RATN0VAOXGN,CORPORATE OFFICE,"RBL BANK LTD,6TH FLOOR,TOWER 2B,ONE INDIA BULLS,LOWER PAREL",MUMBAI,MUMBAI,MAHARASHTRA,1800123804
