,BANK NAME,IFSC,OFFICE,ADDRESS,DISTRICT,CITY,STATE,PHONE
0,FINO PAYMENTS BANK,FINO0000001,JUINAGAR,"SHREE SAWAM KNOWLEDGE PARK,PLOT NO D 507, SECOND FLOOR, MIDC TURBHE NAVI MUMBAI 400705",THANE,NAVI MUMBAI,MAHARASHTRA,71047054
1,FINO PAYMENTS BANK,FINO0001001,SATIVALI,"SHOP N.15& 25,GROUND FLOOR,ISTIYAK COMPLEX,S.NO.54,H.NO.D,VILLAGE SATIVALI,VASAI EAST,THANE-400 208",THANA,THANA,MAHARASHTRA,7045695400
2,FINO PAYMENTS BANK,FINO0001002,DEVLI,"34/2,KHANPUR DEVLI ROAD,NEW DELHI-110062",NORTH WEST DELHI,NORTH WEST DELHI,DELHI,9210828074
3,FINO PAYMENTS BANK,FINO0001005,SURARAM,"H NO 2-058/11,PORTION NO 13,FRONT SIDE,OPP NARAYAN HRUDALAYA HOSPITAL,SURARAM,RANGAREDDY,TELANGANA-501401",RANGAREDDI,RANGAREDDI,TELANGANA,9949050744
4,FINO PAYMENTS BANK,FINO0001008,DANILIMBDA,"F 12,ALISHAN COMPLEX,NH ROAD,DANILIMBDA,AHMEDABAD -380043",AHMEDABAD,AHMEDABAD,GUJARAT,7069013958
5,FINO PAYMENTS BANK,FINO0001010,KALAMB,"ASHIRWAD NIVAS,NEAR ICICI BANK,DHOKI ROAD,KALAMB 413507",OSMANABAD,OSMANABAD,MAHARASHTRA,9850412704
6,FINO PAYMENTS BANK,FINO0001012,LABHGAON,"MILL ROAD,KHAGARIA,DIST -KHAGARIA,BIHAR -841204",KHAGARIA,KHAGARIA,BIHAR,9708681922
7,FINO PAYMENTS BANK,FINO0001023,DIGHWARA,"MAIN ROAD DIGHWARA BUS STAND,FRONT OF BOI,DIGHARA,DIST -SARAN,BIHAR -841207",SARAN,SARAN,BIHAR,9835421803
8,FINO PAYMENTS BANK,FINO0001024,UMBERGAON GIDC,"SHOP NO-201,SILVER POINT,PLOT NO-42/2,GIDC,UMBERGAON,VALSAD-396130",VALSAD,VALSAD,GUJARAT,9687631267
9,FINO PAYMENTS BANK,FINO0001025,CHINTAL,"48-303,SHOP NO 6,OPP.HDFC BANK,GANESH NAGAR,CHINTAL - 500054",HYDERABAD,HYDERABAD,ANDHRA PRADESH,9951591504
10,FINO PAYMENTS BANK,FINO0001028,ALWAL,"1-23-113,PLOT NO.2,SHREE NILAYAM,BHOODEVI NAGAR,ALWAL,SECUNDARABAD -500015",HYDERABAD,HYDERABAD,ANDHRA PRADESH,9502744735
11,FINO PAYMENTS BANK,FINO0001029,SANATHNAGAR,"SRT 311,7-2-532,I H COLONY,SANATHNAGAR,HYDERABAD -500018",HYDERABAD,HYDERABAD,ANDHRA PRADESH,9866621202
12,FINO PAYMENTS BANK,FINO0001042,AMBAWADI,"SAKINABAI CHAWL,S.V.ROAD,ABOVE GOODWILLMOTER STORE,AMBAWADI,DAHISAREAST",MUMBAI,MUMBAI,MAHARASHTRA,8097349650
13,FINO PAYMENTS BANK,FINO0001043,SANGANEER,"SANT KUTEER NAGAR NIGAM ROAD,  SANGANEER BAZAAR, JAIPUR 302029",SANGANEER,SANGANEER,RAJASTHAN,9928873757
14,FINO PAYMENTS BANK,FINO0001044,BHANGEL,"H.NO.136,SHOP NO.2,ABOVE PUNJABI DHABHA,CBA COMPLEX,NEAR SALARPUR GATE NO.1,DADRI ROAD,BHANGEL-NOIDA,NOIDA-201301",GAUTAM BUDDHA NAGAR,GAUTAM BUDDHA NAGAR,UTTAR PRADESH,9643331694
15,FINO PAYMENTS BANK,FINO0001045,BHAYANDER,"SHOP PREMISES NO.2,NAVDEEP CHS,OPP.MALHAR ARCADE,NEAR VIMAL DAIRY,BHAYANDAR TAL.BHAYNADAR& DIST.THANE -401105",THANA,THANA,MAHARASHTRA,9930902568
16,FINO PAYMENTS BANK,FINO0001046,KALYAN PHATA,"SHOP NO.03,GROUND FLOOR,DASHRATH APARTMENT,OPP.DATTA MANDIR,KALYAN PHATA,DIAGHAR ROAD,POST.PADLE,TQ. & DIST.THANE-421204",THANA,THANA,MAHARASHTRA,8551993877
17,FINO PAYMENTS BANK,FINO0001047,MIDC CHINCHWAD,"S.NO.100,RC 1,SHOP NO.2,NEAR SBI BANK,AKURDI,PUNE-411035",PUNE,PUNE,MAHARASHTRA,9403427082
18,FINO PAYMENTS BANK,FINO0001048,PAROO,"THANA ROAD,AT PO&PS PAROO,DIST -MUZAFFARPUR,BIHAR -843112",MUZAFFARPUR,MUZAFFARPUR,BIHAR,9507087089
19,FINO PAYMENTS BANK,FINO0001051,AKKALKOT,"C/O HOUSE NO2059,FATTESINGH CHOWK,NEAR IDBI BANK,MAIN ROAD AKKALKOT 413216",SOLAPUR,SOLAPUR,MAHARASHTRA,7588386072
20,FINO PAYMENTS BANK,FINO0001052,MUDHALTITTA,"BORAVADE,MAIN CIRCLE,BEHIND HOTEL,JANATA MUDHALTITTA,MUDHALTITTA,PANCHGAON BORAVADE BO",KOLHAPUR,KOLHAPUR,MAHARASHTRA,0
21,FINO PAYMENTS BANK,FINO0001057,MUKUNDPUR,"PLOT NO.12,VILLAGE MUKANDPUR,ADARSH PARK,DELHI-42",NORTH DELHI,NORTH DELHI,DELHI,8447430746
22,FINO PAYMENTS BANK,FINO0001060,BHIWADI,"SHOP NO.A-17,YOJNA PURI COLONY,RAJASTHAN AWASAN MANDAL,BHIWADI,TEHSIL TIJARA,DISTT.ALWAR,RAJASTHAN",ALWAR,ALWAR,RAJASTHAN,9509412150
23,FINO PAYMENTS BANK,FINO0001061,BEGUSARAI,UBI BUILDING GROUND FLOOR KALI CHAK BEGUSARAI 851101,BEGUSARAI,BEGUSARAI,BIHAR,9570044325
24,FINO PAYMENTS BANK,FINO0001067,BAMBAVADE,"AT POST BAMBAWADE DIST KOLHAPUR,NEAR BUS STAND AND POLICE STATION,MAHARASHTRA 416213",KOLHAPUR,KOLHAPUR,MAHARASHTRA,0
25,FINO PAYMENTS BANK,FINO0001068,PANCHGAON,"778 2 3 1,TRIMURTI COLONY,KALAMBA KOLHAPUR 416007",KOLHAPUR,KOLHAPUR,MAHARASHTRA,0
26,FINO PAYMENTS BANK,FINO0001072,NANGLOI,"PLOT NO.19,RAJENDRA PARK,NANGLOI,DELHI-110041",WEST DELHI,WEST DELHI,DELHI,8447437374
27,FINO PAYMENTS BANK,FINO0001076,DABUA COLONY,"H.NO.2217/14,WARD NO-5,DOCTOR KAUSHIK GALI,JAWAHAR COLONY,N.I.T,FARIDABAD,SECTOR 22,HARYANA-121005",FARIDABAD,FARIDABAD,HARYANA,9810150043
28,FINO PAYMENTS BANK,FINO0001086,KAROL BAGH,"SHOP NO-1-17B,G/F DEV NAGAR KAROL BAGH-110005",CENTRAL DELHI,CENTRAL DELHI,DELHI,9654163537
29,FINO PAYMENTS BANK,FINO0001089,JASOLA VILLAGE,"H NO 70, G , F, JASOLA VILLAGE, NEAR JAMIA COPERATIVE, NEW DELHI  110025",NEW DELHI,NEW DELHI,DELHI,9716082250
30,FINO PAYMENTS BANK,FINO0001091,NANDGRAM,"HOUSE NO.B 321/1,NEAR GREEN SWEETS,NANDGRAM,GHAZIABAD,UP-201005",GHAZIABAD,GHAZIABAD,UTTAR PRADESH,8802985613
31,FINO PAYMENTS BANK,FINO0001093,BHIM NAGAR,"SHOP NO.623/10,GR.FLOOR,BHIM NAGARROAD,GURGAON,HARYANA - 122001",GURGAON,GURGAON,HARYANA,7053006989
32,FINO PAYMENTS BANK,FINO0001097,AKLUJ,"GANDHI CHOWK,MALSHIRAS ROAD,FRONT OF BHARAT PETROL PUMP,AKLUJ 413101",SOLAPUR,SOLAPUR,MAHARASHTRA,8208051285
33,FINO PAYMENTS BANK,FINO0001100,NALLASOPARA E PRAGATI NAGAR,"SHOP NO -4,SAI PALACE,NEXT TO OSWAL NAGAI TULINJ,NALASOPARA E -401209",MUMBAI,MUMBAI,MAHARASHTRA,8983618276
34,FINO PAYMENTS BANK,FINO0001107,MADANPUR KHADAR,"C-1254,GR FLOOR,JJ COLONY,MADANPUR KHADAR ROAD,DELHI",SOUTH DELHI,SOUTH DELHI,DELHI,8800512358
35,FINO PAYMENTS BANK,FINO0001108,KALA AMB,"TIRLOKPUR ROAD,KALA AMB,AMBALA,HARYANA -133001",NARAINGARH,NARAINGARH,HARYANA,8352982985
36,FINO PAYMENTS BANK,FINO0001109,ALANDI,"SHOP NO 16,THAKUR GODASE BLD,ALANDI,TAL.KHAD,PUNE -410501",PUNE,PUNE,MAHARASHTRA,8055144544
37,FINO PAYMENTS BANK,FINO0001111,ASHOK NAGAR,"PLOT NO-12,S.NO.495,RAJA KARMACHARI,ASHOK NAGAR,SATPUR,NASHIK -422007",NASIK,NASIK,MAHARASHTRA,9146787852
38,FINO PAYMENTS BANK,FINO0001112,AUTO NAGAR,"D.NO.66-1-1A,PLOT NO 32C/396,WARD NO 27A,SIVALAYAM STREET,NTR CIRCLE,PATAMATA,KRISHNA DIST.VIJAYWADA,AP -520010",VIJAYWADA,VIJAYWADA,ANDHRA PRADESH,8520048256
39,FINO PAYMENTS BANK,FINO0001113,BADDI,"WARD 3,SERAJ MANJRE,TEH BADDI DISTT.SOLAN,HP -173205",SOLAN,SOLAN,HIMACHAL PRADESH,7831889070
40,FINO PAYMENTS BANK,FINO0001115,BHANDUP W PAGARE NIWAS,"SHOP NO.1,PAGARE NIWAS,PIPE LINE,TULSHEET PADA ROAD,BHANDUP W -400078",MUMBAI,MUMBAI,MAHARASHTRA,9890179851
41,FINO PAYMENTS BANK,FINO0001116,BOMANNAHALLI,"NO.4/2,W.NO.12,HOSUR MAIN ROAD,BOMMANAHALLI,BANGALORE -560068",BANGALORE,BANGALORE,KARNATAKA,9966689497
42,FINO PAYMENTS BANK,FINO0001118,CHAR RASTA,"SHOP NO 1784/45,R K COMPLEX PALSANA,CHAR RASTA,PALSANA,SURAT -394327",SURAT,SURAT,GUJARAT,9978865765
43,FINO PAYMENTS BANK,FINO0001122,DAHEJ,"SHOP NO 22,GR.FLOOR,SAI NARAYAN COMPLEX,BLOCK NO.695,AT& PO-DAHEJ,TA VAGARA,BHARUCH -392130",BHARUCH,BHARUCH,GUJARAT,9574172797
44,FINO PAYMENTS BANK,FINO0001125,DHARAVI,"SHOP NO-42,GOLD FIELD PLAZA,SION BANDRA LINK ROAD,DHARAVI,MUMBAI - 400017",MUMBAI,MUMBAI,MAHARASHTRA,8291958145
45,FINO PAYMENTS BANK,FINO0001128,GADKHOL PATIYA ANKLESSHWAR,"MEGHNA AMPAYAR,G.F SHOP NO.15,GADKHOL,TAL-ANKLESHWAR,DIST-BHARUCH,GUJRAT-393001",ANKLESHWAR,ANKLESHWAR,GUJARAT,9727118778
46,FINO PAYMENTS BANK,FINO0001129,GANDHI NAGAR,"X/25006 RAGHUVARPURA NO 2,GHANDHI NAGAR - 110031",EAST DELHI,EAST DELHI,DELHI,7042793001
47,FINO PAYMENTS BANK,FINO0001131,GIASPURA,"SVA ROAD,NEAR SVA CHOWK,VILLAGE GIASPURA TEHSIL& DISTT.LUDHIANA-141010",LUDHIANA,LUDHIANA,PUNJAB,9115990402
48,FINO PAYMENTS BANK,FINO0001138,JANAKPURI,"1321/2,GR.FLR,GANESH NAGAR ROAD,OPP GANESH MANDIR,JANAKPURI TEHSIL AND DISTT.LUDHIANA,PUNJAB - 141003",LUDHIANA,LUDHIANA,PUNJAB,9988695983
49,FINO PAYMENTS BANK,FINO0001139,JANAKPURI - SAHIBABAD,"SHOP NO.2,GR.FLOOR,IQBAL SUPER MARKET,BRINDAVN GARDEN VILLAGE,0PP AARADHNA CHOWK,PASONDA PARGNA LONI TEHSIL& DIST GHAZIABAD,UP-201005",GHAZIABAD,GHAZIABAD,DELHI,8802886253
50,FINO PAYMENTS BANK,FINO0001141,KALAMBOLI,"UNIT NO F-TYPE,SHOP NO 27,SECTOR 4EA,KALAMBOLI,NAVI MUMBAI,MAHARASHTRA",RAIGAD,RAIGAD,MAHARASHTRA,7045955806
51,FINO PAYMENTS BANK,FINO0001142,GOVINDPURI KALKAJI,"1652 A/15,GOVINDPURI,KALKAJI,NEW DELHI-110019",SOUTH DELHI,SOUTH DELHI,DELHI,8130899799
52,FINO PAYMENTS BANK,FINO0001143,KALWA W,"SHOP NO9 GROUND FLOOR,ROOP SANGAM COOPERATIVE 400605",THANE,THANE,MAHARASHTRA,0
53,FINO PAYMENTS BANK,FINO0001146,KHARABWADI,"GATE NO.2912,TAL-KHED,DIST-PUNE,KHARABWADI -410505",PUNE,PUNE,MAHARASHTRA,8291958252
54,FINO PAYMENTS BANK,FINO0001147,KHORA COLONY,"A-10/1,GROUND FLOOR,DEEPAK VIHAR,KHORA ROAD,NOIDA,UP -201008",NOIDA,NOIDA,UTTAR PRADESH,9990263971
55,FINO PAYMENTS BANK,FINO0001150,LIMBAYAT,"PLOT NO - 11,NAVANAGAR,LIMBAYAT,DINDOLI,SURAT -394210",SURAT,SURAT,GUJARAT,9638695703
56,FINO PAYMENTS BANK,FINO0001156,MANDOLI,KHASHRA NO-103 VILL MANDOLI DELHI-110093,NEW DELHI,NEW DELHI,DELHI,9650221774
57,FINO PAYMENTS BANK,FINO0001157,MANKHURD,"CEN 676,PLOT B 5,LANE - 5,MATANG,RUSHI NAGAR,G M LINK ROAD,MANKHURD-400073",MUMBAI,MUMBAI,MAHARASHTRA,9920392107
58,FINO PAYMENTS BANK,FINO0001165,NAROL,"HOTEL LAKEVIEW,NAROL CIRCLE,NAROL,AHMEDABAD -382405",AHMEDABAD,AHMEDABAD,GUJARAT,9712852020
59,FINO PAYMENTS BANK,FINO0001167,NEW MADHOPURI,"B-24-3379/2 MAIN ROAD GALI NO 15,NEW MADHAVPURI LUDHIANA -141008",LUDHIANA,LUDHIANA,PUNJAB,9357131132
60,FINO PAYMENTS BANK,FINO0001177,RAWALPADA,"SHOP-4,A WING,KARVEER NAGAR CO-OPERATIVE HOUSING SOCITETY LTD,RAWALPADA,S.N.DUBEY ROAD,DAHISAR E-400068",MUMBAI,MUMBAI,MAHARASHTRA,8976369060
61,FINO PAYMENTS BANK,FINO0001179,SACHIN GIDC,"SHOP NO 47,TALANGPUR ROAD,G.I.D.C.SACHIN,SURAT -394520",SURAT,SURAT,GUJARAT,7069092674
62,FINO PAYMENTS BANK,FINO0001180,SAGARPUR,"RZ G-48-A F/F POLE NO 329,WEST SAGAR PUR,NEW DELHI 110046",SOUTH WEST DELHI,SOUTH WEST DELHI,DELHI,9311298790
63,FINO PAYMENTS BANK,FINO0001183,BAIGANWADI SHIVAJI NAGAR,"ROOM NO.1,BUILDING NAME PLOT NO.12/Q/1,BLOCK,SECTOR GOVANDI,ROAD NEAR SHIV SENA OFFICE,GOVANDI,MUMBAI,MAHARASHTRA,400043",MUMBAI,MUMBAI,MAHARASHTRA,9821654482
64,FINO PAYMENTS BANK,FINO0001185,SODAL ROAD,"VAKIA RABADI,MAHAKALI NAGAR,SAIPUR,SODAL ROAD,JALAHANDAR-144004",JALANDHAR,JALANDHAR,PUNJAB,9878445550
65,FINO PAYMENTS BANK,FINO0001192,VIVEKANANDA NAGAR,"H.NO.4-32-990,PLOT NO.A/412,GROUND FLOOR,1ST PHASE ROAD,ALWYAN COLONY,JAGATGIRIGUTTA,KUKATAPALLY VILLAGE,BALA NAGAR MANDAL,HYDERABAD-500071",HYDERABAD,HYDERABAD,ANDHRA PRADESH,7097525814
66,FINO PAYMENTS BANK,FINO0001193,WADKHAL,"SHRIKRISHNA BLD,OPP.BANK OF BARODA,WADKHAL,TAL - PEN,RAIGAD -402107",PUNE,PUNE,MAHARASHTRA,9421726103
67,FINO PAYMENTS BANK,FINO0001196,WAZIRPUR,"H.NO 5/1,BLOCK -C,WAZIRPUR IND AREA,DELHI - 110052",NORTH WEST DELHI,NORTH WEST DELHI,DELHI,8882581272
68,FINO PAYMENTS BANK,FINO0001198,YAMUNANAGAR,"KHAJURI ROAD,NEAR YAMUNA BHARAMANKANT,YAMUNAGAGAR,HARYANA -135001",YAMUNANAGAR,YAMUNANAGAR,HARYANA,9034211624
69,FINO PAYMENTS BANK,FINO0001200,HAJIPUR,"STATION ROAD,DIGHI KALA,HAJIPUR,VAISHALI,BIHAR -844101",VAISHALI,VAISHALI,BIHAR,9263496285
70,FINO PAYMENTS BANK,FINO0001202,ICHALKARANJI,"19 110111 PRATIK PLAZA,KOLHAPUR ROAD,ICHALKARANJI 416115",KOLHAPUR,ICHALKARANJI,MAHARASHTRA,0
71,FINO PAYMENTS BANK,FINO0001207,GOPALGANJ,"UBI BUILDING,HOSPITAL CHOWK,IN FRONT OF SADAR HOSPITAL,STATION ROAD,GAPALGANJ BIHAR -841428",GOPALGANJ,GOPALGANJ,BIHAR,8882226582
72,FINO PAYMENTS BANK,FINO0001216,OSMANABAD TER,"OLD BUS STAND,MAIN ROAD,TER,DIST-OSMANABAD,MAH-413509",OSMANABAD,OSMANABAD,MAHARASHTRA,9922687785
73,FINO PAYMENTS BANK,FINO0001218,NALDURGA,"MAIN ROAD,NEAR KAZI MEDICAL AND GENERAL STORES,NALDURGA,TAL.TULJAPUR& DIST.OSMANABAD,MAHARASHTRA -413602",OSMANABAD,OSMANABAD,MAHARASHTRA,9665808571
74,FINO PAYMENTS BANK,FINO0001219,BARAUNI,"RAJENDRA ROAD,BARAUNI,DIST -BEGUSARAI,BIHAR -851112",BEGUSARAI,BEGUSARAI,BIHAR,7631937430
75,FINO PAYMENTS BANK,FINO0001220,BARH,"BAJITPUR STATION ROAD,  BARH BIHAR 803214",PATNA,PATNA,BIHAR,8294166163
76,FINO PAYMENTS BANK,FINO0001222,DANAPUR,"PETHIYA BAZAR,NEAR DURGA ASTHAN,PHULWARI SHARIF,DANAPUR,DIST -PATNA,BIHAR -801505",PATNA,PATNA,BIHAR,8287417213
77,FINO PAYMENTS BANK,FINO0001223,BIHTA,"ARYA SAMAJ ROAD,BIHTA,BIHAR -801103",PATNA,PATNA,BIHAR,7004182207
78,FINO PAYMENTS BANK,FINO0001226,GANJBAZAR,"GANJBAZAR,MUSTFAGANJ,MINAPUR,DIST -MUZAFFARPUR,BIHAR -843128",MUZAFFARPUR,MUZAFFARPUR,BIHAR,8416882768
79,FINO PAYMENTS BANK,FINO0001230,KAGAL,"G08 G09 GROUND FLOOR,COMMERCIAL BUILDING NO1 OPP BUS STAND,VIRAJ CITY KAGAL 416216",KOLHAPUR,KAGAL,MAHARASHTRA,0
80,FINO PAYMENTS BANK,FINO0001231,MIRGANJ,"PACHHIM MOHALLA,MIRGANJ,PS -UCHAKAGAON,DIST -GOPALGANJ,BIHAR -841207",GOPALGANJ,GOPALGANJ,BIHAR,9931750849
81,FINO PAYMENTS BANK,FINO0001234,MOKAMA,"GOSALA ROAD,MOKAMA,BIHAR -803302",PATNA,PATNA,BIHAR,7050728018
82,FINO PAYMENTS BANK,FINO0001240,MIRAJ MALGAON,"MORE BUILDING,NEAR ST STAND,AT-POST-MALGAON,TAL-MIRAJ,DIST-SANGLI,MAHARASHTRA-416407",SANGLI,SANGLI,MAHARASHTRA,9730139797
83,FINO PAYMENTS BANK,FINO0001253,BHOOM,"H.N.2894,NEAR ICICI BANK,PARDI ROAD,BHOOM 413504",OSMANABAD,OSMANABAD,MAHARASHTRA,9881322489
84,FINO PAYMENTS BANK,FINO0001256,MANGALWEDHA,"VISHWAYUG COMPLEX,BAZAR CHOWK,NEAR BHAJI MANDAI,MANGALWEDHA,DIST-PANDHARPUR,MAHARASHTRA-413305",SOLAPUR,SOLAPUR,MAHARASHTRA,8788997461
85,FINO PAYMENTS BANK,FINO0001257,BARSHI KURDWADI,"SHANPE HOUSE,SHIVAJI CHOUK,KURUDWADI 413208",SOLAPUR,SOLAPUR,MAHARASHTRA,9765794442
86,FINO PAYMENTS BANK,FINO0001269,KADAMWADI,"1284 MAJULA BUILDING,MAIN ROAD KASBA BAWDA,KADAMWADI KOLHAPUR 416006",KOLHAPUR,KOLHAPUR,MAHARASHTRA,0
87,FINO PAYMENTS BANK,FINO0001273,MAHESHKHUNT,"PATEL SCHOOL ROAD,MAHESHKHUNT,BIHAR -851213",KHAGARIA,KHAGARIA,BIHAR,8051941851
88,FINO PAYMENTS BANK,FINO0001281,KHANAPUR VITA,"KARAD RD,NEAR MUKTANGAN VACHANALAYA,PANDURANG COMPLEX,VITA,MAH-415311",SANGLI,SANGLI,MAHARASHTRA,8412844161
89,FINO PAYMENTS BANK,FINO0001283,SOLAPUR NORTH SOLAPUR,"C.S.NO.10389,P.NO.35/1D,70 VEGETABLE MARKET ROAD,SOLAPUR-413006",SOLAPUR,SOLAPUR,MAHARASHTRA,9767634387
90,FINO PAYMENTS BANK,FINO0001284,OSMANABAD,"KRANTIVIR COMPLEX,KALA MARUTI MANDIR ROAD,BEHIND TAJMAHAL TALKIES,OSMANABAD 413501",OSMANABAD,OSMANABAD,MAHARASHTRA,9970990188
91,FINO PAYMENTS BANK,FINO0001289,BAHERI,"NEAR KALI MANDIR,MAIN CHOWK,BAHERI,DIST -MUZAFFARPUR,BIHAR -847105",DARBHANGA,DARBHANGA,BIHAR,9771032823
92,FINO PAYMENTS BANK,FINO0001290,BAKHTIYARPUR,"C/O JANTA HOMEO HALL,STATION ROAD,BAKITIYARPUR,PATNA,BIHAR -803212",PATNA,PATNA,BIHAR,8271331474
93,FINO PAYMENTS BANK,FINO0001291,KAIJ,"BEED PAREL ROAD,NEAR BUS STAND,KAIJ,MAH-431123",OSMANABAD,OSMANABAD,MAHARASHTRA,8421647278
94,FINO PAYMENTS BANK,FINO0001292,MALKAPUR,"FIRST FLOOR,SHOP NO-09,KALASH PRIDE,NEAR WAI BANK,MALKAPUR,TAL-KARAD,MAH - 415110",SATARA,SATARA,MAHARASHTRA,9860555968
95,FINO PAYMENTS BANK,FINO0001293,TAJPUR,"NEAR DARGHA ROAD,NEEM CHAWK,TAJPUR,SAMASTIPUR,BIHAR -848130",SAMASTIPUR,SAMASTIPUR,BIHAR,7250811491
96,FINO PAYMENTS BANK,FINO0001296,UMARGA,"PLOT NO.16,WARD NO.14,PATANGE RD,NEAR POST OFFICE,UMARGA-413606",OSMANABAD,OSMANABAD,MAHARASHTRA,8805797737
97,FINO PAYMENTS BANK,FINO0001297,SOLAPUR LAXMI MARKET,"SHOP 5,6,7,8,23/1,SAUTH KASABA LAXMI MARKET,SOLAPUR 413305",SOLAPUR,SOLAPUR,MAHARASHTRA,9096483000
98,FINO PAYMENTS BANK,FINO0001298,PATNA CITY,"UNITED TRADING COMPANY,OPP ELECTRIC OFFICE,PADARI KI HAWELI,PATNA CITY-800008",PATNA,PATNA,BIHAR,7992387590
99,FINO PAYMENTS BANK,FINO0001299,BUXAR,"BADI MASZID,SATYADEV GANJ,MAIN ROAD BUXAR,BIHAR PIN -802101",BUXAR,BUXAR,BIHAR,8507765211
100,FINO PAYMENTS BANK,FINO0001302,TASGAON,"VISWAPRIYA BLDG,OPP.BANK OF INDIA,TASGAON,MAH-416312",SANGLI,SANGLI,MAHARASHTRA,9860681945
101,FINO PAYMENTS BANK,FINO0001306,CHHAPARA,"SARKARI BAZAR,TULSI GALI,CHHAPRA -841301",SARAN,SARAN,BIHAR,9308084616
102,FINO PAYMENTS BANK,FINO0001308,DALSINGHSARAI,"KUER COMPLEX,GHAT NAWADA,DALSINGHSARAI,DIST -SAMASTIPUR,BIHAR -848114",SAMASTIPUR,SAMASTIPUR,BIHAR,7277485164
103,FINO PAYMENTS BANK,FINO0001309,PHALTAN,"NEAR BHOJRAJ HOTEL,OPP.DWARKADAS SHYAM KUMAR,RAVIVAR PETH,PHALTAN,MAH-415523",SATARA,SATARA,MAHARASHTRA,9096410091
104,FINO PAYMENTS BANK,FINO0001310,BARSHI,"HOUSE NO.4069,TULJAPUR ROAD,NEAR SBI& BUS STAND,BARSHI-413401",SOLAPUR,SOLAPUR,MAHARASHTRA,9921547893
105,FINO PAYMENTS BANK,FINO0001314,KOREGAON,"1ST FLOOR,PAWAR COMPLEX,AZAD CHOWK,KOREGAON,MAH-425501",SATARA,SATARA,MAHARASHTRA,8830477329
106,FINO PAYMENTS BANK,FINO0001315,AKLUJ NATEPOTE,"AHILYADEVI ROAD,MAIN ROAD,BEHIND VIDHARBA KOKAN BANK,NATEPUTE,MAH-413109",SOLAPUR,SOLAPUR,MAHARASHTRA,9766339391
107,FINO PAYMENTS BANK,FINO0001325,MUZAFFARPUR,"MAHESH BABU CHOWK,JHURAN CHHAPRA,MUZAFFARPUR,BIHAR -842003",MUZAFFARPUR,MUZAFFARPUR,BIHAR,8877621573
108,FINO PAYMENTS BANK,FINO0001326,ARAH,"KARI MOHALLA MARE,NEAR MAHABIR MANDIR ARA BHOJPUR BIHAR -802301",BHOJPUR,BHOJPUR,BIHAR,7301507098
109,FINO PAYMENTS BANK,FINO0001327,MIRAJ KAVATHEMAHANKAL,"NEAR ICICI BANK,MAIN ROAD,KAVATHEMAHANKAL - 416405",SANGLI,SANGLI,MAHARASHTRA,9595707615
110,FINO PAYMENTS BANK,FINO0001335,PATANKUDULI,"SHIVAJI CHOWK OLD ST STAND,PATTANKODOLI MAH 416202",KOLHAPUR,PATTANKODOLI,MAHARASHTRA,0
111,FINO PAYMENTS BANK,FINO0001337,BALLIA,"BALLIA BAZAR,PO.- LAKHMINIYA,DISTT.- BEGUSARAI,PIN -851211",BEGUSARAI,BEGUSARAI,BIHAR,7549007777
112,FINO PAYMENTS BANK,FINO0001339,SAMASTIPUR,"WARD NO 21,BAHADURPUR,NEAR ANUP TAKIES,SAMASTIPUR-851211",SAMASTIPUR,SAMASTIPUR,BIHAR,9471278470
113,FINO PAYMENTS BANK,FINO0001342,SARAI,"AKBAR MALAHI,SARAI MAIN ROAD,DIST -VAISALI,BIHAR -844125",VAISHALI,VAISHALI,BIHAR,9835825210
114,FINO PAYMENTS BANK,FINO0001346,MAHUA,"MOBARAK RASULPUR,MOBARAKPUR MANIKPUR,MAHUA,VAISHALI-844122",VAISHALI,VAISHALI,BIHAR,8935940958
115,FINO PAYMENTS BANK,FINO0001347,SIWAN,"NEAR STATE BANK OF INDIA ATM,BABUNIYA ROAD,SIWAN,BIHAR-841226",SIWAN,SIWAN,BIHAR,8873009006
116,FINO PAYMENTS BANK,FINO0001349,MOTIPUR,"MAHNA ROAD,NEAR GANDHI CHOWK,MOTIPUR,DIST-MUZAFFARPUR,BIHAR-843111",MUZAFFARPUR,MUZAFFARPUR,BIHAR,8298808494
117,FINO PAYMENTS BANK,FINO0001350,WASHI,"SHIVAJI NAGAR,OPP.BHARAT GAS,WASHI,MAH-413503",OSMANABAD,OSMANABAD,MAHARASHTRA,9730609976
118,FINO PAYMENTS BANK,FINO0001351,KALE,"DESAI GALLI,MAIN ROAD,KALE MAHARASHTRA",KOLHAPUR,KOLHAPUR,MAHARASHTRA,0
119,FINO PAYMENTS BANK,FINO0001354,PARANDA,"H.N.12/56,NEAR BANK OF INDIA,PATEL COMPLEX,BARSHI ROAD,PARANDA,MAH-413502",OSMANABAD,OSMANABAD,MAHARASHTRA,9730242758
120,FINO PAYMENTS BANK,FINO0001355,TULJAPUR,"1ST FLOOR,SUNIL PLAZA,BACK SIDE OF OLD BUS STAND,BHAVANI ROAD,TULJAPUR,MAH-413601",OSMANABAD,OSMANABAD,MAHARASHTRA,8975603151
121,FINO PAYMENTS BANK,FINO0001356,PANDARPUR,"1297/A2,LONAR GALLI,SHIVAJI CHOWK,PANDARPUR MAH-413304",SOLAPUR,SOLAPUR,MAHARASHTRA,9049041042
122,FINO PAYMENTS BANK,FINO0001358,VADGAON,"CTS NO.683,DHANYA LINE,GANDHI CHOWK,VADGAON,TAL-HATKANANGALE,DIST-KOLHAPUR,MAH-416112",SANGLI,SANGLI,MAHARASHTRA,9552540610
123,FINO PAYMENTS BANK,FINO0001359,LOHARA,"NEAR BUS STAND,SHIVAJI CHOWK,TAL-UMARGA,DIST OSMANABAD,LOHARA-413608",OSMANABAD,OSMANABAD,MAHARASHTRA,9766141666
124,FINO PAYMENTS BANK,FINO0001360,SHIRALA,"PROPERTY NO.1942,SOMVAR PETH,TAL-SHIRALA,DIST-SANGLI,MAH-415408",SANGLI,SANGLI,MAHARASHTRA,7798000167
125,FINO PAYMENTS BANK,FINO0001407,HADAPSAR,"SHOP NO 4 AMI PARK CO OP HSG SOC,156 2A 1MP 1 SOLAPUR ROAD HADAPSAR,PUNE 411028",PUNE,PUNE,MAHARASHTRA,0
126,FINO PAYMENTS BANK,FINO0001414,STATION RD VAPI,"SERVE NO - 2124,VAPI SILVASSA ROAD,TALUKA - PARDI,DI - VALSAD -396191",VAPI,VAPI,GUJARAT,9099230130
127,FINO PAYMENTS BANK,FINO0001422,DARBHANGA,"TERHI BAZAR,OPP.POWER HOUSE,NEAR NATIONAL CINEMA,DARBHANGA-846004",DARBHANGA,DARBHANGA,BIHAR,8420346056
128,FINO PAYMENTS BANK,FINO0001432,SIMIRI,"SIMRI DARBHANGA, KANSI SIMRI, BIHAR, PIN 847106",BUXAR,SIMRI,BIHAR,9525001446
129,FINO PAYMENTS BANK,FINO0001437,SANGLI,"294,ASHIRWAD BUILDING,R.K.EXTENTION,STAND ROAD,SANGLI 416416",SANGLI,SANGLI,MAHARASHTRA,9175124754
130,FINO PAYMENTS BANK,FINO0001445,BIHAR RO,4TH FLOOR HOTEL D PINTO,PATNA,PATNA,BIHAR,7103500
131,FINO PAYMENTS BANK,FINO0001446,MP RO,"SECOND FLOOR, PLOT NO 2, OPP NAMAN HOSPITAL",BHOPAL,BHOPAL,MADHYA PRADESH,4212797
132,FINO PAYMENTS BANK,FINO0001447,MAHARASHTRA RO,"C O S R PATIL, CS NO 510, E WARD",KOLHAPUR,KOLHAPUR,MAHARASHTRA,0
133,FINO PAYMENTS BANK,FINO0001448,UP RO,"NEAR IP MALL, GANESH NILAYAM",VARANASI,VARANASI,UTTAR PRADESH,2410019
134,FINO PAYMENTS BANK,FINO0009001,HEAD OFFICE,"2ND FLOOR,SAWAN KNOWLEDGE PARK,TURBHE MIDC,NAVI MUMBAI 400705",MUMBAI,MUMBAI,MAHARASHTRA,71047054
135,FINO PAYMENTS BANK,FINO0009002,JUINAGAR BRANCH,"2ND FLOOR,SAWAN KNOWLEDGE PARK,TURBHE MIDC,NAVI MUMBAI 4000705",MUMBAI,MUMBAI,MAHARASHTRA,71047054
136,FINO PAYMENTS BANK,FINO0009003,HEAD OFFICE,"2ND FLOOR,SAWAN KNOWLEGDE PARK,TURBHE MIDC,NAVI MUMBAI 400705",MUMBAI,MUMBAI,MAHARASHTRA,71047054
