,BANK NAME,IFSC,OFFICE,ADDRESS,DISTRICT,CITY,STATE,PHONE
0,SOUTH INDIAN BANK,SIBL0000001,ALAPPUZHA,"DOOR NO.324 A,WARD NO.XXV,SIB BUILDING,CCSB R NEAR MUNICIPAL OFFICE,ALAPPUZHA P.O.",ALAPUZZHA,ALAPPUZHA,KERALA,2260420
1,SOUTH INDIAN BANK,SIBL0000002,ALUVA,"ALUVA BRANCH,RAILWAY STATION SQUARE,ALUVA , ERNAKULAM, KERALA, PIN-683101",ERNAKULAM,ALUVA,KERALA,2625160
2,SOUTH INDIAN BANK,SIBL0000003,AMMADAM,"DONO293 A, XI, MAIN ROAD, AMMADAM PO, THRISSUR, KERALA-680563",TRISSUR,AMMADAM,KERALA,2278383
3,SOUTH INDIAN BANK,SIBL0000004,ARKONAM,"ARKONAM BRANCH, 198, GANDHI ROAD ,ARKONAM , VELLORE, TAMIL NADU, PIN-631001",VELLORE,ARKONAM,TAMIL NADU,232201
4,SOUTH INDIAN BANK,SIBL0000005,ARUPPUKOTTAI,"ARUPPUKOTTAI BRANCH,ANUT COMPLEX,(1ST FLOOR) , 23, PANDALGUDI ROAD JN , VIRUDHUNAGAR , TAMIL NADU, PIN-626101",VIRUDHUNAGAR,ARUPPUKOTTAI,TAMIL NADU,222422
5,SOUTH INDIAN BANK,SIBL0000006,AYARKUNNAM,"WARD NOVII, ST MARYS COMPLEX, AYARKUNNAM PO, KOTTAYAM DISTRICT, KERALA- 686564",KOTTAYAM,AYARKUNNAM,KERALA,2542439
6,SOUTH INDIAN BANK,SIBL0000007,AYYANTHOLE,"WARD NO.50, PLATINUM JUBILEE BUILDING ,P.B.#: 603, CIVIL LINE ROAD,AYYANTHOLE, PINCODE: 680003",TRISSUR,AYYANTHOLE,KERALA,2388009
7,SOUTH INDIAN BANK,SIBL0000008,BANGALORE CITY,"KEMPEGOWDA MAHARAJA COMPLEX, K.G.ROAD BANGALORE DIST; KARNATAKA, PINCODE: 560009",BANGALORE URBAN,BANGALORE,KARNATAKA,22256668
8,SOUTH INDIAN BANK,SIBL0000009,BANGALORE CANTONMENT,"DOOR NO 10, INFANTRY ROAD CROSS ,P.B.#: 5011, BM COMPLEX, PINCODE: 560001, SHIVAJI NAGAR, BANGALORE METRO",BANGALORE URBAN,BANGALORE,KARNATAKA,25580649
9,SOUTH INDIAN BANK,SIBL0000010,BHARANANGANAM,"DONO1-243-249, WARD NO VII, NJAYARKULAM BUILDINGS, PALA-ERATTUPETTA MAIN ROAD, OPPOSITE STALPHONSA SHRINE CHURCH, BHARANANGANAM PO, KOTTAYAM, KERALA-686578",KOTTAYAM,KOTTAYAM,KERALA,236391
10,SOUTH INDIAN BANK,SIBL0000011,BHAVANI,"BHAVANI BRANCH, 701 ,MURUGAN TRANSPORT BLDG: ,METTUR ROAD , BHAVANI, BHAVANI - 638 302, TAMIL NADU, PIN-638302",ERODE,BHAVANI,TAMIL NADU,230409
11,SOUTH INDIAN BANK,SIBL0000012,CHALAKUDY,"CHALAKUDY BRANCH,MANJALY ACHANDY TRADE CENTRE,NEAR CHURCH STOP,TRUNK ROAD, THRISSUR , KERALA, PIN-680307",TRISSUR,CHALAKUDY,KERALA,2702387
12,SOUTH INDIAN BANK,SIBL0000013,CHANGANACHERRY,"PB 23, PARACKEL BUILDINGS, NEAR BISHOPS HOUSE,VAZHOOR ROAD, PINCODE: 686101",KOTTAYAM,CHANGANASSERY,KERALA,2420386
13,SOUTH INDIAN BANK,SIBL0000014,CHANGARAMKULAM,"DONO443 I, WARD NO17, NIHALA COMMERCIAL COMPLEX, NARANIPUZHA ROAD, CHANGARAMKULAM, NANNAMUKKU PO, MALAPPURAM DISTRICT, KERALA-679575",MALAPURAM,MALAPPURAM,KERALA,2650389
14,SOUTH INDIAN BANK,SIBL0000015,CHELAKKARA,"CHELAKKARA BRANCH, EDAYANAL SHOPPING CENTRE, NEAR GHS ,MAIN ROAD ,CHELAKKARA, THRISSUR , KERALA, PIN-680586",TRISSUR,CHELAKKARA,KERALA,252030
15,SOUTH INDIAN BANK,SIBL0000016,CHITTUR,"CHITTUR BRANCH,11/223,MAIN ROAD ,CHITTUR , PALAKKAD , KERALA, PIN-678101",PALAKKAD,CHITTUR,KERALA,222350
16,SOUTH INDIAN BANK,SIBL0000017,CHAVAKKAD,"610A, XXII, H S CENTRE, MAIN ROAD, CHAVAKKAD PO, THRISSUR, KERALA-680506",TRISSUR,CHAVAKKAD,KERALA,2507347
17,SOUTH INDIAN BANK,SIBL0000018,MATTANCHERRY,"INFANT JESUS CHURCH BUILDING, SANTO GOPALAN ROAD, KOOVAPADAM KOCHI, ERNAKULAM, KERALA-682002",ERNAKULAM,KOCHI,KERALA,2221601
18,SOUTH INDIAN BANK,SIBL0000019,COIMBATORE RAJA STREET,"COIMBATORE RAJA STREET BRANCH, 838-839,SIB BUILDING,RAJA STREET , COIMBATORE , TAMIL NADU, PIN-641001",COIMBOTORE,COIMBATORE,TAMIL NADU,2302099
19,SOUTH INDIAN BANK,SIBL0000020,KODUNGALLUR,"FIRST FLOOR, PAVIZHAM TOWER, CHANDAPURA, KODUNGALLUR PO, THRISSUR, KERALA-680664",TRISSUR,KODUNGALLUR,KERALA,2802256
20,SOUTH INDIAN BANK,SIBL0000021,DINDIGUL,"DONO6-1A, WARD NO19, JKTOWERS, SPENCERS COMPOUND, 13TH CROSS ROAD, THIRUVALLUVAR SALAI, NAGAL NAGAR PO, DINDIGUL, TAMIL NADU-624003",MADURAI,MADURAI,TAMIL NADU,2422234
21,SOUTH INDIAN BANK,SIBL0000022,ELAPULLY,"ALSAFA COMPLEX, DOOR NO. 9/1177 ,MAIN ROAD PARA, PINCODE: 678622 ELAPULLY",PALAKKAD,ELAPPULLY,KERALA,2583234
22,SOUTH INDIAN BANK,SIBL0000023,ERODE,"TS NO16, WARD NO29, VETERINARY HOSPITAL ROAD, NEAR GANDHIJI ROAD, ERODE, TAMIL NADU ┬û 638001",ERODE,ERODE,TAMIL NADU,2257547
23,SOUTH INDIAN BANK,SIBL0000024,ERNAKULAM MARKET ROAD,"ERNAKULAM MARKET ROAD BRANCH,MARKET ROAD ,ERNAKULAM ,KOCHI , ERNAKULAM, KERALA, PIN-682035",ERNAKULAM,KOCHI,KERALA,2360227
24,SOUTH INDIAN BANK,SIBL0000025,ERNAKULAM M G ROAD,"DONO4165, WARD NO39, SHEMA BUILDING, MG ROAD, KOCHI MG ROAD PO, RAVIPURAM, ERNAKULAM DISTRICT, KERALA-682016",ERNAKULAM,KOCHI,KERALA,23606622
25,SOUTH INDIAN BANK,SIBL0000026,ERUMAPETTY,"ERUMAPETTY BRANCH, DOOR NO. 1/374, NEW CHURCH BUILDING,MAIN ROAD ,ERUMAPETTY, THRISSUR , KERALA, PIN-680584",TRISSUR,ERUMAPPETTY,KERALA,262234
26,SOUTH INDIAN BANK,SIBL0000027,GOBICHETTIPALAYAM,"DONO63-63A, WARD NO24, KARPAHAM COMPLEX, MODACHUR ROAD, GOBICHETTIPALAYAM, MODACHUR POST OFFICE, ERODE, TAMIL NADU-638452",ERODE,GOBICHETTIPALAYAM,TAMIL NADU,222016
27,SOUTH INDIAN BANK,SIBL0000028,IRINJALAKUDA,"IRINJALAKUDA BRANCH,XVIII/343 ,BLAZE COURT ,MAIN ROAD , THRISSUR , KERALA, PIN-680121",TRISSUR,IRINJALAKUDA,KERALA,2826282
28,SOUTH INDIAN BANK,SIBL0000029,KANCHEEPURAM,"NO.68, KAMARAJAR ROAD, KANCHEEPURAM, PINCODE: 631501",KANCHEEPURAM,KANCHIPURAM,TAMIL NADU,27222662
29,SOUTH INDIAN BANK,SIBL0000030,KANDASSANKADAVU,"DOOR NO.XV/684 D, VALLOOKKARAN`S BLDG.,, MAIN ROAD ,KANDASSANKADAVU, PINCODE: 680613",TRISSUR,THRISSUR,KERALA,2630394
30,SOUTH INDIAN BANK,SIBL0000031,KANJANY,"KANJANY BRANCH,MAIN ROAD ,KANJANY , THRISSUR , KERALA, PIN-680612",TRISSUR,THRISSUR,KERALA,2632368
31,SOUTH INDIAN BANK,SIBL0000032,KANJIRAMATTOM,"DONO5D, MOOLAMKUZHI ARCADE, MILLUNGAL JUNCTION, KANJIRAMATTOM PO, ERNAKULAM, KERALA-682315",ERNAKULAM,KANJIRAMATTOM,KERALA,2746285
32,SOUTH INDIAN BANK,SIBL0000033,KATTOOR,"DOOR NO:IX/347-A, ANNA KARIYA BUILDING OPP:BUS STAND ,KATTOOR, PINCODE: 680702",TRISSUR,KATTUR,KERALA,2877230
33,SOUTH INDIAN BANK,SIBL0000034,KINATTUKADAVU,"KINATTUKADAVU BRANCH, 62, MAIN ROAD,KINATTUKADAVU , COIMBATORE , TAMIL NADU, PIN-642109",COIMBOTORE,COIMBATORE,TAMIL NADU,242023
34,SOUTH INDIAN BANK,SIBL0000035,KODAKARA,"KODAKARA BRANCH,MAIN ROAD ,KODAKARA, THRISSUR , KERALA, PIN-680684",TRISSUR,KODAKARA,KERALA,2720249
35,SOUTH INDIAN BANK,SIBL0000036,KOLLENGODE,"DONOIX-963, WARD NO11, SREEVALSAM ARCADE, NENMARA-POLLACHI MAIN ROAD, KOLLENGODE PO, PALAKKAD DISTRICT, KERALA-678506",PALAKKAD,KOLLENGODE I,KERALA,262328
36,SOUTH INDIAN BANK,SIBL0000037,KOTTAYAM,"KOTTAYAM BRANCH,275/ IX ,CATHOLIC CENTRE ,CENTRAL JUNCTION, KOTTAYAM , KERALA, PIN-686001",KOTTAYAM,KOTTAYAM,KERALA,2566801
37,SOUTH INDIAN BANK,SIBL0000038,KOZHIKODE MAIN,"KOZHIKODE (MAIN) BRANCH, D. NO. 18/1175B, 1ST FLOOR, TEE TEE COMPLEX , JAIL ROAD, KOZHIKODE, KERALA, PIN-673004",KOZHIKODE,CALICUT,KERALA,2701880
38,SOUTH INDIAN BANK,SIBL0000039,KOZHINJAMPARA,"KOZHINJAMPARA BRANCH, 111/403, CHITTUR ROAD,KOZHINJAMPARA , PALAKKAD , KERALA, PIN-678555",PALAKKAD,KOZHINJAMPARA,KERALA,272242
39,SOUTH INDIAN BANK,SIBL0000040,KOZHUVANAL,"WARD NO12, PARISH HALL BUILDING, ST JOHN NEPHUMSIANS CHURCH, KOZHUVANAL PO, KOTTAYAM DISTRICT, KERALA-686573",KOTTAYAM,KOZHUVANAL,KERALA,267031
40,SOUTH INDIAN BANK,SIBL0000041,KUNNAMKULAM,"KUNNAMKULAM BRANCH,1ST FLOOR ,HALL NO. 3 & 4,MUNICIPAL C SHAPE BUILDING, THRISSUR , KERALA, PIN-680503",TRISSUR,KUNNAMKULAM,KERALA,222217
41,SOUTH INDIAN BANK,SIBL0000042,CHENNAI  G T,"CHENNAI G.T BRANCH, 64, ARMENIAN STREET,CATHOLIC CENTRE ,CHENNAI GT, CHENNAI, TAMIL NADU, PIN-600001",CHENNAI,CHENNAI,TAMIL NADU,25360592
42,SOUTH INDIAN BANK,SIBL0000043,CHENNAI MOUNT ROAD,"CHENNAI MOUNT ROAD BRANCH, 19 ,GROUND FLOOR , ,MOUNT ROAD, OPP: ANNASALAIHPO, CHENNAI, TAMIL NADU, PIN-600002",CHENNAI,CHENNAI,TAMIL NADU,28549050
43,SOUTH INDIAN BANK,SIBL0000044,MADURAI,"DONO3, LIC BUILDING, GROUND FLOOR, WEST MARRET STREET, MADURAI, TAMIL NADU ┬û 625001",MADURAI,MADURAI,TAMIL NADU,2623967
44,SOUTH INDIAN BANK,SIBL0000045,MAHE,"DONOIV-555 A B, KALATHIL BUILDING, MAIN ROAD, OPP TO MAYYAZHI PETROL PUMP, MAHE PO, MAHE DISTRICT, PONDICHERRY-673310",MAHE,MAHE,PUDUCHERRY,2332226
45,SOUTH INDIAN BANK,SIBL0000046,MANGALORE,"PLAZA CHAMBERS, BALMATTA ROAD,HAMPANKATTA, PINCODE: 575001",DAKSHINA KANNADA,MANGALORE,KARNATAKA,2422069
46,SOUTH INDIAN BANK,SIBL0000047,MANJERI,"MANJERI BRANCH,XX/240,RAM BUILDING,(1ST FLOOR) , MALAPPURAM , KERALA, PIN-676121",MALAPURAM,MANJERI,KERALA,2766124
47,SOUTH INDIAN BANK,SIBL0000048,MANNARKAD,"MANNARKAD BRANCH,KCK SQUARE,1ST FLOOR ,OPP. PUNCHAYAT BUS STAND, PALAKKAD , KERALA, PIN-678582",PALAKKAD,MANNARKAD,KERALA,222340
48,SOUTH INDIAN BANK,SIBL0000049,MATHILAKAM,"MATHILAKAM BRANCH, 5/422 A , ST:JOSEPHS LATIN CHURCH BLDG:, PALLIVALAVU , THRISSUR , KERALA, PIN-680685",TRISSUR,THRISSUR,KERALA,2848326
49,SOUTH INDIAN BANK,SIBL0000050,MULANTHURUTHY,"MULANTHURUTHY BRANCH, PURAPPADATHIL ARCADE ,MAIN ROAD ,MULANTHURUTHY , ERNAKULAM, KERALA, PIN-682314",ERNAKULAM,MULAMTHURUTHY,KERALA,2740267
50,SOUTH INDIAN BANK,SIBL0000051,MULLASSERY,"MULLASSERY BRANCH, III/478, MAIN ROAD ,MULLASSERY, THRISSUR , KERALA, PIN-680509",TRISSUR,MULLASSERY,KERALA,2260377
51,SOUTH INDIAN BANK,SIBL0000052,NAGAPATTINAM,"NAGAPATTINAM BRANCH,DOOR NO.41, WARD NO.3,NEELA SOUTH STREET, NAGAPATTINAM , TAMIL NADU, PIN-611001",NAGAPATTINAM,NAGAPATTINAM,TAMIL NADU,242419
52,SOUTH INDIAN BANK,SIBL0000053,NAGERCOIL,"NAGERCOIL BRANCH,1ST FLOOR ,XAVIER BUILDING ,ASSISSI CAMPUS, KANYAKUMARI, TAMIL NADU, PIN-629001",KANNIYAKUMARI,NAGERCOIL,TAMIL NADU,227380
53,SOUTH INDIAN BANK,SIBL0000054,NALEPILLY,"NALEPILLY BRANCH, D NO. VIII/173 A, GROUND FLOOR ,AMERICAN PLAZA,MAIN ROAD , PALAKKAD , KERALA, PIN-678553",PALAKKAD,NALLEPPILLEY,KERALA,282251
54,SOUTH INDIAN BANK,SIBL0000055,NANGIARKULANGARA,"NANGIARKULANGARA BRANCH, GOKULAM, 1/271-A ,NH 47 ,NANGIARKULANGARA, ALAPUZHA , KERALA, PIN-690513",ALAPUZZHA,ALAPPUZHA,KERALA,2412705
55,SOUTH INDIAN BANK,SIBL0000056,NEMMARA,"NEMMARA BRANCH,VII/472 ,MAIN ROAD ,NEMMARA , PALAKKAD , KERALA, PIN-678508",PALAKKAD,NEMMARA,KERALA,244251
56,SOUTH INDIAN BANK,SIBL0000057,NILAMBUR,"NILAMBUR BRANCH,PEEVEE'S ARCADE ,NILAMBUR JN ,NILAMBUR, MALAPPURAM , KERALA, PIN-679329",MALAPURAM,NILAMBUR,KERALA,220233
57,SOUTH INDIAN BANK,SIBL0000058,NORTH PARUR,"NORTH PARUR BRANCH,VII/3 ,MAIN ROAD ,NORTH PARUR , ERNAKULAM, KERALA, PIN-683513",ERNAKULAM,PARAVUR,KERALA,2442381
58,SOUTH INDIAN BANK,SIBL0000059,OLLURKARA,"X-109-B, GROUND FLOOR, HEPHZIBAH COMPLEX, OLLUKKARA, MANNUTHY PO, THRISSUR, KERALA-680651",TRISSUR,OLLUKARA,KERALA,2370545
59,SOUTH INDIAN BANK,SIBL0000060,OLLUR,"DOOR NO.XI/758,RAMUS SHOPPING MALL,, MAIN ROAD ,OLLUR, THRISSUR , KERALA, PIN-680306",TRISSUR,OLLUR,KERALA,2352363
60,SOUTH INDIAN BANK,SIBL0000061,OTTAPALAM,"DONO9-1041, KIZHADAYIL COMPLEX, MAIN ROAD, OPP LAKSHMI THEATRE, OTTAPALAM PO, PALAKKAD, KERALA-679101",PALAKKAD,OTTAPALAM,KERALA,2244328
61,SOUTH INDIAN BANK,SIBL0000062,PALAI,"VADAYATTU BUILDINGS, PETTA ROAD ,LALAM JUNCTION, PALA,PINCODE: 686575",KOTTAYAM,PALAI,KERALA,212424
62,SOUTH INDIAN BANK,SIBL0000063,PALAKKAD,"DOOR NO.12/858 (10), WARD NO.XVIII,JOBYS MALL,PALAKKAD,PINCODE: 678001",PALAKKAD,PALAKKAD,KERALA,2522655
63,SOUTH INDIAN BANK,SIBL0000064,PALLASANA,"PALLASANA BRANCH, CHIRAKODE, PALLASSANA , PALAKKAD , KERALA, PIN-678505",PALAKKAD,PALLASSENA,KERALA,268316
64,SOUTH INDIAN BANK,SIBL0000065,PARIYARAM,"DONO57, WARD NO1, MAIN ROAD, CROSS JN, PARIYARAM PO, THRISSUR, KERALA-680721",TRISSUR,PARIYARAM,KERALA,2746830
65,SOUTH INDIAN BANK,SIBL0000066,PATTANCHERRY,"NO572-15, VANDITHAVALAM ROAD, PATTANCHERY PO PALAKKAD,KERALA-678532",PALAKKAD,PATTANCHERRY,KERALA,232227
66,SOUTH INDIAN BANK,SIBL0000067,PAZHAYANNUR,"PAZHAYANNUR BRANCH,V/648- A,AKBAR BUILDINGS ,THRISSUR ROAD , THRISSUR , KERALA, PIN-680587",TRISSUR,PAZHAYANNUR,KERALA,225024
67,SOUTH INDIAN BANK,SIBL0000068,PERINGOTTUKARA,"DOOR NO.25 B & 25 C, ALIYA COMPLEX, THRISSUR - TRIPRAYAR ROAD,PERINGOTTUKARA, PINCODE: 680565",TRISSUR,TRIPRAYAR,KERALA,2392747
68,SOUTH INDIAN BANK,SIBL0000069,PERUVEMBA,"9/496, KRISHNA BUILDING, NEAR PANCHAYAT OFFICE,PERUVEMBA, PINCODE: 678531",PALAKKAD,PERUVEMBA,KERALA,252311
69,SOUTH INDIAN BANK,SIBL0000070,POLLACHI,"DONO42-3, WARD NO5, NEW SCHEME ROAD, POLLACHI, MAHALINGAPURAM PO, COIMBATORE, TAMIL NADU-642002",COIMBOTORE,COIMBATORE,TAMIL NADU,224587
70,SOUTH INDIAN BANK,SIBL0000071,PONNANI,"PONNANI BRANCH,FAJAR COMPLEX ,KUTTIKAD JUNCTION ,CHANDAPADI, MALAPPURAM , KERALA, PIN-679577",MALAPURAM,PONNANI,KERALA,2666018
71,SOUTH INDIAN BANK,SIBL0000072,PUDUKAD,"D.NO.IX/145, MANGALAN BUILDING,GROUND FLOOR,PUDUKAD,PINCODE: 680301",TRISSUR,PUDUCAD,KERALA,2751384
72,SOUTH INDIAN BANK,SIBL0000073,PULINCUNNOO,"PULINCUNNOO BRANCH,FATHIMA ROAD,PULINCUNNOO , ALAPUZHA , KERALA, PIN-688504",ALAPUZZHA,PULINCUNNOO,KERALA,2702223
73,SOUTH INDIAN BANK,SIBL0000074,KOLLAM,"KOLLAM BRANCH, BISHOP JEROME NGR COMM CMPLX ,CHINNAKADA,KOLLAM, KOLLAM , KERALA, PIN-691001",KOLLAM,KOLLAM,KERALA,2742027
74,SOUTH INDIAN BANK,SIBL0000075,SALEM MAIN,"SALEM MAIN BRANCH, DOOR NO. 13-16, LIGHT HOUSE COMPLEX,OMALUR MAIN ROAD,SALEM , TAMIL NADU, PIN-636009",SALEM,SALEM,TAMIL NADU,2353940
75,SOUTH INDIAN BANK,SIBL0000076,THANJAVUR,"DONO941, SAVITHRI SWAGATH BUILDING, EAST MAIN STREET, THANJAVUR WEST PO, THANJAVUR DISTRICT, TAMIL NADU-613009",THANJAVUR,THANJAVUR,TAMIL NADU,230422
76,SOUTH INDIAN BANK,SIBL0000077,TATTAMANGALAM,"TATTAMANGALAM BRANCH,18/123,BAZAR ST. ,TATTAMANGALAM , PALAKKAD , KERALA, PIN-678102",PALAKKAD,TATTAMANGALAM,KERALA,227278
77,SOUTH INDIAN BANK,SIBL0000078,THALASSERY,"P.B.NO: 12, GUNDERT ROAD,THALASSERY, KANNUR DIST , KERALA, PIN-670101",KANNUR,THALASSERY,KERALA,2320220
78,SOUTH INDIAN BANK,SIBL0000079,TIRUVALLA,"TIRUVALLA BRANCH,MT COMMERCIAL CENTRE,TK ROAD ,NEAR SCS JUNCTION , PATHANAMTHITTA , KERALA, PIN-689101",PATHANAMTHITTA,THIRUVALLA,KERALA,2602153
79,SOUTH INDIAN BANK,SIBL0000080,THIRUVAMKULAM,"DONO408 B1   C1, WARD NOVII, P S ENCLAVE, CHOTTANIKKARA ROAD, THIRUVAMKULAM PO, ERNAKULAM, KERALA-682305",ERNAKULAM,THIRUVANKULAM,KERALA,2787236
80,SOUTH INDIAN BANK,SIBL0000081,THIRUVILWAMALA,"PO NO:03,SREE KRISHNA BUILDINGS,CHUNGAM ,THRUVILWAMALA , THRISSUR , KERALA, PIN-680588",TRISSUR,THIRUVILWAMALA,KERALA,282021
81,SOUTH INDIAN BANK,SIBL0000082,TIRUCHIRAPALLI,"GATE NO3, ST JOSEPHS COLLEGE CAMPUS, COLLEGE ROAD, TEPPAKULAM PO, TIRUCHIRAPPALLI, TAMIL NADU-620002",MADURAI,MADURAI,TAMIL NADU,2715507
82,SOUTH INDIAN BANK,SIBL0000083,TIRUPUR,"DONO256-158, OPP TO TALUK OFFICE, KUMARAN ROAD, TIRUPUR, TAMIL NADU-641601",COIMBOTORE,COIMBATORE,TAMIL NADU,2232722
83,SOUTH INDIAN BANK,SIBL0000084,THRISSUR MAIN,"THRISSUR MAIN BRANCH,XXV/2149,ROUND SOUTH ,THRISSUR, THRISSUR , KERALA, PIN-680001",TRISSUR,THRISSUR,KERALA,2424215
84,SOUTH INDIAN BANK,SIBL0000085,THRISSUR BAZAR,"THRISSUR BAZAR BRANCH,MUNICIPAL OFFICE ROAD , THRISSUR , THRISSUR , KERALA, PIN-680001",TRISSUR,THRISSUR,KERALA,2424765
85,SOUTH INDIAN BANK,SIBL0000086,THRISSUR HIGH ROAD,"DOOR NO:X/1749/1/2 CORDIAL COURT,HIGH ROAD , THRISSUR , KERALA, PIN-680001",TRISSUR,THRISSUR,KERALA,2420387
86,SOUTH INDIAN BANK,SIBL0000087,THRISSUR - M G ROAD,"THRISSUR WEST BRANCH,AMBIKA ARCADE ,M.G ROAD,THRISSUR, THRISSUR , KERALA, PIN-680001",TRISSUR,THRISSUR,KERALA,2320819
87,SOUTH INDIAN BANK,SIBL0000088,TRIPUNITHARA,"DONO638 A, WARD NOXX, VAIKOM ROAD, TRIPUNITHURA-EAST FORT, TRIPUNITHURA PO, ERNAKULAM, KERALA-682301",ERNAKULAM,TRIPPUNITHURA,KERALA,2777362
88,SOUTH INDIAN BANK,SIBL0000089,THIRUVANANTHAPURAM CHALAI,"P.B.NO: 5136,PAZHAVANGADI ,SIVAKAMI BUILDINGS,POWER HOUSE ROAD ,TRIVANDRUM CHALAI, THIRUVANANTHAPURAM , KERALA, PIN-695023",TRIVANDRUM,THIRUVANANTHAPURAM,KERALA,2471003
89,SOUTH INDIAN BANK,SIBL0000090,TUTICORIN,"PO NO:102,,40-41 ,PEREIRA STREET,TUTICORIN , TOOTHUKUDI , TAMIL NADU, PIN-628001",THOOTHKUDI,TUTICORIN,TAMIL NADU,2330158
90,SOUTH INDIAN BANK,SIBL0000091,VAIKOM,"VAIKOM BRANCH,7/329 ,WEST GATE ,VAIKOM, KOTTAYAM , KERALA, PIN-686141",KOTTAYAM,VAIKOM,KERALA,221247
91,SOUTH INDIAN BANK,SIBL0000092,VALANCHERRY,"2194-WARD NO-1X,MAYYERI COMPLEX,KOZHIKODE ROAD, MALAPPURAM , KERALA, PIN-676552",MALAPURAM,VALANCHERRY,KERALA,2645430
92,SOUTH INDIAN BANK,SIBL0000093,VANDITHAVALAM,"VANDITHAVALAM BRANCH, 6/132, MAIN ROAD ,VANDITHAVALAM , PALAKKAD , KERALA, PIN-678534",PALAKKAD,VANDITHAVALAM,KERALA,232237
93,SOUTH INDIAN BANK,SIBL0000094,VELUR -THRISSUR,"VELUR BRANCH, PRIYADARSHINI COMPLEX, 1ST FLOOR ,POST OFFICE CENTRE,VELUR , THRISSUR , KERALA, PIN-680601",TRISSUR,VELOOR,KERALA,285430
94,SOUTH INDIAN BANK,SIBL0000095,WADAKKANCHERRY,"DONO442-A1-E1, NPTOWER, MAIN ROAD, OPP BUS STAND, WADAKKANCHERRY PO, THRISSUR, KERALA-680582",TRISSUR,WADAKANCHERRY,KERALA,234548
95,SOUTH INDIAN BANK,SIBL0000096,ALAPAD BRANCH,"DO NO261A, WARD NO 3, STAR COMPLEX, MAIN ROAD,  ALAPAD PO, THRISSUR, KERALA-680641",TRISSUR,ALAPAD,KERALA,2272048
96,SOUTH INDIAN BANK,SIBL0000097,ATHANI,"385-14, JS PLAZA, KAMARAJAR SALAI, ATHANI PO, ERODE, TAMIL NADU-638502",ERODE,ATHANI,TAMIL NADU,250230
97,SOUTH INDIAN BANK,SIBL0000098,ERNAKULAM BANERJI ROAD,"ELIAS CHAMBERS, BANERJI ROAD, ERNAKULAM NORTH PO, ERNAKULAM, KERALA-682018",ERNAKULAM,KOCHI,KERALA,2352699
98,SOUTH INDIAN BANK,SIBL0000099,KODUVAI,"KODUVAI BRANCH, RAJALAKSHMI COMPLEX (1ST FLOOR), 7/131,MAIN ROAD , COIMBATORE , TAMIL NADU, PIN-638660",COIMBOTORE,COIMBATORE,TAMIL NADU,2312240
99,SOUTH INDIAN BANK,SIBL0000100,MUTHALAMADA,"VI-276, WARD NO15, VS COMPLEX, KOLLENGODE-POLLACHI MAIN ROAD KAMBRATHCHALLA, MUTHALAMADA PO, PALAKKAD, KERALA-678507",PALAKKAD,MUTHALAMADA,KERALA,275242
100,SOUTH INDIAN BANK,SIBL0000101,KARUVATTA,"KARUVATTA BRANCH, MARTHOMAS CH CENTNARY COMM HALL, GRD FLR KARUVATTA, ALAPUZHA , KERALA, PIN-690517",ALAPUZZHA,KARUVATTA,KERALA,2492226
101,SOUTH INDIAN BANK,SIBL0000102,KARANCHIRA,"KARANCHIRA BRANCH, 1/200,KARANCHIRA, TRICHUR DIST:, THRISSUR , KERALA, PIN-680702",TRISSUR,THRISSUR,KERALA,2877346
102,SOUTH INDIAN BANK,SIBL0000103,PATHANAD,"DONO514, PADINJAREMURIYIL BUILDING, MANIMALA ROAD, PATHANADU, KANGAZHA P O, KOTTAYAM, KERALA-686541",KOTTAYAM,KOTTAYAM,KERALA,2494325
103,SOUTH INDIAN BANK,SIBL0000104,CHENNAMANGALAM,"CHENNAMANGALAM BRANCH, NAIR SAMAJAM  BUILDING ,MAIN ROAD ,CHENNAMANGALAM, ERNAKULAM, KERALA, PIN-683512",ERNAKULAM,CHENNAMANGALAM,KERALA,2518641
104,SOUTH INDIAN BANK,SIBL0000105,KOTTARAKARA,"KOTTARAKARA BRANCH,X/1234/1,QS ROAD ,CITY TOWER BUILDING , KOLLAM , KERALA, PIN-691506",KOLLAM,KOTTARAKKARA,KERALA,2452319
105,SOUTH INDIAN BANK,SIBL0000106,VATAKARA,"VATAKARA BRANCH, ARKAY BUILDING, NEAR HPO ,EDODI ,VATAKARA, KOZHIKODE, KERALA, PIN-673101",KOZHIKODE,VADAKARA,KERALA,2524760
106,SOUTH INDIAN BANK,SIBL0000107,KUMARAKOM,"DONO5B, WARD NO6, ATTAMANGALAM ARCADE, KOTTAYAM-KUMARAKOM ROAD, OPP ATTAMANGALAM CHURCH, KUMARAKOM PO, KOTTAYAM DISTRICT, KERALA-686563",KOTTAYAM,KUMARAKOM,KERALA,2524454
107,SOUTH INDIAN BANK,SIBL0000108,BANGALORE BRIGADE ROAD,"DONO74, WARD NO111, FRONT SIDE, SUMERU TOWERS, BRIGADE ROAD, NEAR ST JOSEPHS COLLEGE OF COMMERCE, MUSEUM ROAD PO, BANGALORE URBAN DISTRICT, KARNATAKA 560025",BANGALORE URBAN,BANGALORE,KARNATAKA,25570542
108,SOUTH INDIAN BANK,SIBL0000109,PULLAD,"PULLAD BRANCH, 8/160,HIGH SCHOOL JUNCTION,PULLAD, PATHANAMTHITTA , KERALA, PIN-689548",PATHANAMTHITTA,PULLAD,KERALA,2660221
109,SOUTH INDIAN BANK,SIBL0000110,CHENNAI NUNGAMBAKKAM,"CHENNAI NUNGAMBAKKAM BRANCH, NO.1,STERLING ROAD , NIAGARA APARTMENTS ,NUNGAMBAKKAM, CHENNAI, TAMIL NADU, PIN-600034",CHENNAI,CHENNAI,TAMIL NADU,28272722
110,SOUTH INDIAN BANK,SIBL0000111,COIMBATORE GANDHIPURAM,"P B NO:2933, DOOR NO:41/1, CKN BUILDING , NEAR KARPAKAM BUILDING ,100 FEET ROAD,GANDHIPURAM , COIMBATORE , TAMIL NADU, PIN-641012",COIMBOTORE,COIMBATORE,TAMIL NADU,2492631
111,SOUTH INDIAN BANK,SIBL0000112,CHENNAI TRIPLICANE,"CHENNAI TRIPLICANE BRANCH, 150, TRIPLICANE HIGH ROAD,TRIPLICANE, CHENNAI, TAMIL NADU, PIN-600005",CHENNAI,CHENNAI,TAMIL NADU,28443300
112,SOUTH INDIAN BANK,SIBL0000113,KANJIRAPALLY,"PB NO:17,KOLLAMKULAM BUILDINGS ,KURISINKAL,KANJIRAPALLY, KOTTAYAM , KERALA, PIN-686507",KOTTAYAM,KANJIRAPPALLY,KERALA,204104
113,SOUTH INDIAN BANK,SIBL0000114,ATTINGAL,"DONOAMC17-83,17-87, WARD NOAMC17, SURYA BUILDING, MAIN ROAD NH ┬û 47, ATTINGAL PO, THIRUVANANTHAPURAM, KERALA-695101",TRIVANDRUM,ATTINGAL,KERALA,2622377
114,SOUTH INDIAN BANK,SIBL0000115,THEODICAL,"THEODICAL BRANCH, 2/349,KUTTIKANDATHIL BUILDING JUNCTION, THEODICAL, PATHANAMTHITTA , KERALA, PIN-689613",PATHANAMTHITTA,PATHANAMTHITTA,KERALA,2774236
115,SOUTH INDIAN BANK,SIBL0000116,ATHIRAMPUZHA,"PANNACKAL BUILDINGS, CENTRAL JUNCTION, ATHIRAMPUZHA, KOTTAYAM, KERALA-686562",KOTTAYAM,KOTTAYAM,KERALA,2730585
116,SOUTH INDIAN BANK,SIBL0000117,NEW DELHI KAROL BAGH,"WARD NO18, PUSA ROAD, OPP CITY HOSPITAL, METRO PILLAR NO95, KAROL BAGH PO, DELHI DISTRICT, DELHI-110005",NEW DELHI,DELHI,DELHI,25724009
117,SOUTH INDIAN BANK,SIBL0000118,THOPPUMPADY,"DOOR NO.2487 C,WARD NO.18,KEJEES BUILDING ,OPPOSITE ST.SEBASTIANS HIGH SCHOOL,THOPPUMPAD, ERNAKULAM, KERALA, PIN-682005",ERNAKULAM,KOCHI,KERALA,2234274
118,SOUTH INDIAN BANK,SIBL0000119,THIRUVANANTHAPURAM MAIN,"MAR BASELIOUS BUILDING FIRST FLOOR, SPENCER JUNCTION, THIRUVANANTHAPURAM, KERALA-695039",TRIVANDRUM,THIRUVANANTHAPURAM,KERALA,2331747
119,SOUTH INDIAN BANK,SIBL0000120,CHERTHALA,"SREEMATH SUDHEENDRA THIRTHA NAVATHI SMARAKA SHOPPING COMPLEX, NEAR MANORAMA JN,CHERTHALA,KERALA-688524",ALAPUZZHA,CHERTHALA,KERALA,2818204
120,SOUTH INDIAN BANK,SIBL0000121,COONOOR,"NEW PHARMACY BUILDING, 1ST FLOOR, 15-7, MOUNT ROAD, COONOOR, NILGIRIS, TAMIL NADU-643102",COIMBOTORE,COIMBATORE,TAMIL NADU,2234500
121,SOUTH INDIAN BANK,SIBL0000122,KOVILPALAYAM,"THEVAR BUILDING, COIMBATORE-POLLACHI MAIN ROAD, KOVILPALAYAM, TAMIL NADU-642110",COIMBOTORE,KOVILPALAYAM,TAMIL NADU,259242
122,SOUTH INDIAN BANK,SIBL0000123,IDUKKI,"IDUKKI BRANCH, ST. GEORGE'S CHURCH BUILDING ,NAYARUPARA P.O,IDUKKI, IDUKKI , KERALA, PIN-685602",IDUKKI,IDIKKI,KERALA,235257
123,SOUTH INDIAN BANK,SIBL0000124,MERCARA,"POST BOX NO 36, SRI LAKSHMI COMPLEX, COLLEGE ROAD, MADIKERI, KODAGU, KARNATAKA ┬û 571201",MADIKERI,MADIKERI,KARNATAKA,229601
124,SOUTH INDIAN BANK,SIBL0000125,SHIMOGA,"PB NO:87,1ST FLOOR ,KARNATAKA SANGHA COMPLEX,B H ROAD, SHIMOGA, KARNATAKA , PIN-577201",SHIMOGA,SHIMOGA,KARNATAKA,278179
125,SOUTH INDIAN BANK,SIBL0000126,KAKINADA,"DOOR NO.12-1-28,JAWAHAR STREET,SURYARAOPETA,KAKINADA P.O,EAST GODAVARI DIST, ANDHRA PRADESH, PIN-533001",EAST GODAVARI,KAKINADA,ANDHRA PRADESH,2373656
126,SOUTH INDIAN BANK,SIBL0000127,BANGALORE YESWANTHPUR,"GROUND FLOOR,K N NAIR COMPLEX,NO33/1,1ST CROSS,GOKULA 1 STAGE,2ND PHASE, HMT MAIN ROAD, YESHWANTHPUR , BANGALORE, KARNATAKA , PIN-560022",BANGALORE URBAN,BANGALORE,KARNATAKA,3473889
127,SOUTH INDIAN BANK,SIBL0000128,HYDERABAD,"DONO4-1-898, LALA II OASIS PLAZA, TILAK ROAD, ABIDS PO, HYDERABAD, TELANGANA ┬û 500001",HYDERABAD URBAN,HYDERABAD,ANDHRA PRADESH,24753925
128,SOUTH INDIAN BANK,SIBL0000129,KOLKATA G.C AVENUE,"KOLKATA G.C AVENUEBRANCH, 38, JAYSREE HOUSE,GANESH CHANDRA AVENUE ,1ST FLOOR , CALCUTTA , WEST BENGAL , PIN-700013",KOLKATA,KOLKATA,WEST BENGAL,22150366
129,SOUTH INDIAN BANK,SIBL0000130,TRIPALLUR,"TRIPALLUR BRANCH,CAV BUILDING,KODUVAYUR ROAD,TRIPPALUR , PALAKKAD , KERALA, PIN-678546",PALAKKAD,TRIPPALUR,KERALA,210266
130,SOUTH INDIAN BANK,SIBL0000131,VELLORE,"VELLORE BRANCH, JAYALAKHMI COMPLEX , , FIRST FLOOR , 50 ,KATPADIROAD, VELLORE, TAMIL NADU, PIN-632004",VELLORE,VELLORE,TAMIL NADU,2221957
131,SOUTH INDIAN BANK,SIBL0000132,MUVATTUPUZHA,"DOOR NO.125 B,9TH WARD,PULINATTU PROPERTIES,ELLOORKUNNAM,MARKET PO, MUVATTUPUZHA , ERNAKULAM, KERALA, PIN-686661",ERNAKULAM,MUVATTUPUZHA,KERALA,2832619
132,SOUTH INDIAN BANK,SIBL0000133,KANNUR,"KANNUR BRANCH,1ST FLOOR ,SWADESHI SHOPPING COMPLEX ,BANK ROAD , KANNUR , KERALA, PIN-670001",KANNUR,CANNUR,KERALA,2700322
133,SOUTH INDIAN BANK,SIBL0000134,FEROKE,"DONO234 A, MADHAVI BLDG, MARKET ROAD, FEROKE, KOZHIKODE, KERALA-673631",KOZHIKODE,FEROKE,KERALA,2482520
134,SOUTH INDIAN BANK,SIBL0000135,KADUTHURUTHY,"KADUTHURUTHY BRANCH, 511/IX ,K.P ,AVE MARIA , KOTTAYAM , KERALA, PIN-686604",KOTTAYAM,KADUTHURUTHY,KERALA,282361
135,SOUTH INDIAN BANK,SIBL0000136,KOTHAMANGALAM,"DONOKMC-302 M-N1, N2, NAVARATHNA SQUARE, ALWAYA-MUNNAR ROAD, CHERIAPALLITHAZHAM, KOTHAMANGALAM, ERNAKULAM, KERALA-686691",ERNAKULAM,KOTHAMANGALAM,KERALA,2822360
136,SOUTH INDIAN BANK,SIBL0000137,PANAJI - GOA,"23-25, NEW MNCPAL OFF BLDG DR PISSURLENKAR ROAD PANAJI-GOA, NORTH GOA, GOA-403001",NORTH GOA,PANAJI,GOA,2229610
137,SOUTH INDIAN BANK,SIBL0000138,CHENNAI KELLYS,"PRINCE TOWERS, 94, PURUSAWLKAM HIGH ROAD KELLYS, CHENNAI, TAMIL NADU-600010",CHENNAI,CHENNAI,TAMIL NADU,26421646
138,SOUTH INDIAN BANK,SIBL0000139,VARKALA,"P B NO:1424,NO:11/439,MAIDANAM,VARKALA , THIRUVANANTHAPURAM , KERALA, PIN-695141",TRIVANDRUM,VARKALA,KERALA,2602357
139,SOUTH INDIAN BANK,SIBL0000140,KARUNAGAPALLY,"DONO28072, WARD NOIII, Musaliar Building, Ground Floor, Old High way, Opposite Govt Welfare School, Pada South, Karunagapally,Kerala-695018",KOLLAM,KARUNAGAPALLY,KERALA,2620267
140,SOUTH INDIAN BANK,SIBL0000141,PARASSALA,"DONOPP-X11-1405 VELUS BUILDING, MAIN ROAD PARASSALA, THIRUVANANTHAPURAM, KERALA-695502",TRIVANDRUM,PARASSALA,KERALA,2202062
141,SOUTH INDIAN BANK,SIBL0000142,VIJAYWADA,"VIJAYWADA BRANCH,9-61-16,B.R.P.ROAD,ISLAMPET ,VIJAYAWAD , KRISHNA, ANDHRA PRADESH, PIN-520001",KRISHNA,VIJAYAWADA,ANDHRA PRADESH,2569094
142,SOUTH INDIAN BANK,SIBL0000143,SASTHAMCOTTA,"P.B.NO:  2,  111/714-B, KANNIMELAZHIKAM BULDG, KOLLAM , KERALA, PIN-690521",KOLLAM,SASTHAMCOTTA,KERALA,2830343
143,SOUTH INDIAN BANK,SIBL0000144,PEERMADE,"349-A, WARD NO3, NEAR ST:MARYS CHURCH PEERMADE-THOTTAPURA ROAD, PEERMADE IDUKKI, KERALA-685531",IDUKKI,PEERMADE,KERALA,232093
144,SOUTH INDIAN BANK,SIBL0000145,AMBALAPUZHA,"AMBALAPUZHA BRANCH, KATCHERRY JUNCTION ,KOMANA,AMBALAPUZHA , ALAPUZHA , KERALA, PIN-688561",ALAPUZZHA,AMBALAPUZHA,KERALA,2272092
145,SOUTH INDIAN BANK,SIBL0000146,ERUMELY,"DONOB, WARD NOXX, MODERN DENTAL TOWER, ERUMELY-MUNDAKAYAM ROAD, ERUMLEY PO, KOTTAYAM, KERALA-686509",KOTTAYAM,ERUMELY,KERALA,210376
146,SOUTH INDIAN BANK,SIBL0000147,PUNE,"PUNE BRANCH,GROUND FLOOR,AURORA TOWERS ( EAST WING), 9,MOLEDINA ROAD, PUNE , MAHARASHTRA , PIN-411001",PUNE,PUNE,MAHARASHTRA,6138461
147,SOUTH INDIAN BANK,SIBL0000148,FORT KOCHI,"FORT KOCHI BRANCH,SANTA CRUZ BASILICA BUILDING,FORT KOCHI, ERNAKULAM, KERALA, PIN-682001",ERNAKULAM,KOCHI,KERALA,2216824
148,SOUTH INDIAN BANK,SIBL0000149,CHENNAI MYLAPORE,"CHENNAI MYLAPORE BRANCH, 1ST FLOOR,OMS LAKSHANA, 146, ROYPETTAH HIGH ROAD , CHENNAI, TAMIL NADU, PIN-600004",CHENNAI,CHENNAI,TAMIL NADU,24982116
149,SOUTH INDIAN BANK,SIBL0000150,PERAMBRA,"DOOR NO.2,WARD NO.X,ST.ANTONYS CHURCH BUILDIN,PERAMBRA, THRISSUR , KERALA, PIN-680689",TRISSUR,THRISSUR,KERALA,2723674
150,SOUTH INDIAN BANK,SIBL0000151,BANGALORE JAYANAGAR,"BANGALORE JAYANAGAR BRANCH,28TH CROSS,10TH MAIN ,4TH BLOCK , BANGALORE, KARNATAKA , PIN-560011",BANGALORE URBAN,BANGALORE,KARNATAKA,6530214
151,SOUTH INDIAN BANK,SIBL0000152,KALADY,"KALADY BRANCH,ALIKKAL SHOPPING OMPLEX ,M C ROAD,KALADY, ERNAKULAM, KERALA, PIN-683574",ERNAKULAM,KALADY,KERALA,2462416
152,SOUTH INDIAN BANK,SIBL0000153,NEW DELHI CONNAUGHT PLACE,"P B NO:323, 22, REGAL BUILDING ,CONNAUGHT PLACE ,NEW DELHI , DELHI , PIN-110001",NEW DELHI,DELHI,DELHI,23361585
153,SOUTH INDIAN BANK,SIBL0000154,BHADRAVATHY,"P B NO:11,5TH CROSS ROAD,BH ROAD ,BHADRAVATHY , SHIMOGA, KARNATAKA , PIN-577301",SHIMOGA,BHADRAVATI,KARNATAKA,266579
154,SOUTH INDIAN BANK,SIBL0000155,POONOOR,"POONOOR BRANCH, 2/137,RP AHAMEDKUTTY BUILDING ,THAMARASSERY -BALUSSERY ROAD, KOZHIKODE, KERALA, PIN-673574",KOZHIKODE,POONOOR,KERALA,2646281
155,SOUTH INDIAN BANK,SIBL0000156,KOLKATA-HOWRAH,"HOWRAH (KOLKATA) BRANCH, 2, HAZARIMULL SHAH ROAD,BANDAGHAT ,HOWRAH, HOWRAH , WEST BENGAL , PIN-711106",KOLKATA,KOLKATA,WEST BENGAL,26555805
156,SOUTH INDIAN BANK,SIBL0000157,MUMBAI BANDRA,"MUMBAI BANDRA BRANCH, 266, LINKING ROAD,BANDRA (WEST) ,MUMBAI, GREATER MUMBAI , MAHARASHTRA , PIN-400050",GREATER BOMBAY,MUMBAI,MAHARASHTRA,26423850
157,SOUTH INDIAN BANK,SIBL0000158,VENKITANGU,"DONO331 A, PANDANS BUILDING, MAIN ROAD, KARUVANTHALA, ENAMAKKAL, VENKITANGU PO THRISSUR, KERALA-680510",TRISSUR,VENKITANGU,KERALA,2260489
158,SOUTH INDIAN BANK,SIBL0000159,AVITTATHUR,"IV-2391, PULLUR-MALA ROAD, AVITTATHUR, THRISSUR, KERALA-680683",TRISSUR,AVITTATHUR,KERALA,2821632
159,SOUTH INDIAN BANK,SIBL0000160,CHEMANCHERRY,"DOOR NO 1-448 R, 1ST  FLOOR, AL MANSOORI BUSINESS CENTRE BUILDING, POOKATU, CHEMMENCHERY, KOZHIKODE-KANNUR ROAD, PINCODE-673304",KOZHIKODE,CHEMANCHERY,KERALA,2687132
160,SOUTH INDIAN BANK,SIBL0000161,VIYYUR,"VIYYUR BRANCH, ST. JOSEPH'SI.S PRESS BUILDING ,SHORNUR ROAD, PATTURAIKKAL , THRISSUR , KERALA, PIN-680001",TRISSUR,VIYYOOR,KERALA,2334533
161,SOUTH INDIAN BANK,SIBL0000162,PUVATHUR,"DOOR NO.270 E,WARD NO.XIV,KOORIYAL BUILDINGS,PUVATHUR P.O,THRISSUR DIST, KERALA, PIN-680508",TRISSUR,THRISSUR,KERALA,2642241
162,SOUTH INDIAN BANK,SIBL0000163,VISAKHAPATNAM,"VISAKHAPATNAM BRANCH,APSARA ROAD ,D.NO. 13-1-1C , CATHOLIC CENTRE BLDG 1ST FLR , VISAKHAPATNAM, ANDHRA PRADESH, PIN-530002",VISHAKAPATNAM,VISAKHAPATNAM,ANDHRA PRADESH,2706727
163,SOUTH INDIAN BANK,SIBL0000164,PERUMBAVOOR,"PB NO.7,DREAM TOWER THOMBRA,OPP:GOVT HOSPITAL,A M ROAD, PERUMBAVOOR,PERMBAVOOR, ERNAKULAM, KERALA, PIN-683542",ERNAKULAM,PERUMBAVOOR,KERALA,2523118
164,SOUTH INDIAN BANK,SIBL0000165,VELIYANCODE,"VELIYANCODE BRANCH, 173/3,AMBALAYIL BUILDING,CHAVAKAD - PUDUPONANI ROAD, MALAPPURAM , KERALA, PIN-679579",MALAPURAM,VELIYANCODE,KERALA,2677339
165,SOUTH INDIAN BANK,SIBL0000166,THAVITTUPALAYAM,"THAVITTUPALAYAM BRANCH,277-H ,SPP OMPLEX,ANNA SALAI, THAVITTUPALAYAM - 638 501, TAMIL NADU, PIN-638501",ERODE,THAVITTUPALAYAM,TAMIL NADU,260274
166,SOUTH INDIAN BANK,SIBL0000167,MUDAPPALLUR,"MUDAPPALLUR BRANCH,XI/298,SALINA COMPLEX,MUDAPPALUR, PALAKKAD , KERALA, PIN-678705",PALAKKAD,MUDAPPALLUR,KERALA,255219
167,SOUTH INDIAN BANK,SIBL0000168,ORUMANAYUR,"DoNo 268-A, WARD NO VI, PERUMBADI ARCADE, MUTHENMAVU, ORUMANAYUR, THRISSUR, KERALA- 680512",TRISSUR,ORUMANAYOOR,KERALA,2507603
168,SOUTH INDIAN BANK,SIBL0000169,MARUDADU,"MARUDADU BRANCH, 2/121,BAZAR STREET,MARUDADU, TIRUVANNAMALAI , TAMIL NADU, PIN-604405",TIRUVANNAMALAI,MARUDADU,TAMIL NADU,242025
169,SOUTH INDIAN BANK,SIBL0000170,MUTHALAKODAM,"DOOR NO.228/J1,WARD NO.XVII,NJARAKULAM ARCADE,UDUMBANNOOR RD,THODUPUZHA ,MUTHALAKODAM POST, IDUKKI , KERALA, PIN-685605",IDUKKI,MUTHALAKODAM,KERALA,222383
170,SOUTH INDIAN BANK,SIBL0000171,THIRUNNAVAYA,"DONOTP559-C, WARD NOVII, JMARCADE, EDAKKULAM BAZAR, THIRUNAVAYA PO, MALAPPURAM DISTRICT, KERALA-676301",MALAPURAM,THIRUNAVAYA,KERALA,2602023
171,SOUTH INDIAN BANK,SIBL0000172,THEVALAKARA,"DONOTP III-1215, WARD NO3, MAR ABO SMRUTHI MANDIRAM, THEVALAKKARA PO, KOLLAM DISTRICT, KERALA-690524",KOLLAM,THEVALAKKARA,KERALA,2872050
172,SOUTH INDIAN BANK,SIBL0000173,PIRAVANTHUR,"PIRAVANTHUR BRANCH, 7/438,ALIMUKKU,VETTITHITTA PO, KOLLAM , KERALA, PIN-689696",KOLLAM,PIRAVANTHUR,KERALA,2222264
173,SOUTH INDIAN BANK,SIBL0000174,AZHIKODE,"DONOXIII-175B, ABHILASH SHOPPING CENTRE, MAIN ROAD, AZHICODE , THRISSUR, KERALA-680666",TRISSUR,AZHICODE,KERALA,2819553
174,SOUTH INDIAN BANK,SIBL0000175,BELGAUM,"PLOT NO:8,HIGH STREET, HAVELOCK ROAD , CAMP BELGAUM,BELGAUM, KARNATAKA , PIN-590001",BELGAUM,BELGAUM,KARNATAKA,2460591
175,SOUTH INDIAN BANK,SIBL0000176,MAYANNUR,"WARD NO3, LAKSHMIKA ARCADE, CHIRANKARA, MAYANNUR CENTRE, MAYANNUR PO, THRISSUR DISTRICT, KERALA-679105",TRISSUR,MAYANNUR,KERALA,286233
176,SOUTH INDIAN BANK,SIBL0000177,KURUMANDUR,"DONO123-6, WARD NO: 3, KOVAI MAIN ROAD, KURUMANDUR, ERODE, TAMIL NADU-638457",ERODE,KURUMANDUR,TAMIL NADU,254151
177,SOUTH INDIAN BANK,SIBL0000178,MELADUR,"MELADUR BRANCH, VIII/506 ,INFANT JESUS CHURCH BUILDING ,MELADUR , THRISSUR , KERALA, PIN-680741",TRISSUR,MELADOOR,KERALA,2770072
178,SOUTH INDIAN BANK,SIBL0000179,AHMEDABAD,"AHMEDABAD BRANCH,B J HOUSE (1ST FLOOR) ,ASHRAM ROAD ,NAVRANGPURA , AHMEDABAD, GUJARAT , PIN-380009",AHMEDABAD,AHMEDABAD,GUJARAT,26580858
179,SOUTH INDIAN BANK,SIBL0000180,VYLATHUR,"DoNoXIII-243-B,VELLARA SQUARE BUILDING,NAYARANGADI, VYLATHUR, PO NHAMANANGHAT, THRISSUR, KERALA-679563",TRISSUR,VYLATHUR,KERALA,2681273
180,SOUTH INDIAN BANK,SIBL0000181,GOPANURPUDUR,"5/21-X,NEGAMAM GOPANURPUDUR RD ,NEAR SUB - REGISTRY OFFICE,KVK NAGAR , COIMBATORE , TAMIL NADU, PIN-642120",COIMBOTORE,GOPANUR PUDUR,TAMIL NADU,244257
181,SOUTH INDIAN BANK,SIBL0000182,PONDICHERRY,"PONDICHERRY BRANCH,113-127 ,MISSION STREET(UPSTAIRS),PONDICHERRY , PONDICHERRY, PONDICHERRY , PIN-605001",PONDICHERRY,PONDICHERRY,PUDUCHERRY,2336734
182,SOUTH INDIAN BANK,SIBL0000183,PRAVITHANAM,"PRAVITHANAM BRANCH, DOOR NO 4/74K ,CHOORANOLICKAL ARCADE, PRAVITHANAM, KOTTAYAM , KERALA, PIN-686651",KOTTAYAM,PRAVITHANAM,KERALA,248864
183,SOUTH INDIAN BANK,SIBL0000184,NEHRU NAGAR (THRISSUR),"THEKKATH SQUIRE , GROUND FLOOR MAIN ROAD KURIACHIRA, THRISSUR, KERALA-680006",TRISSUR,THRISSUR,KERALA,2252019
184,SOUTH INDIAN BANK,SIBL0000185,THIROOR-THRISSUR,"GRESHMAM,SHORNUR ROAD, PO M.G KAVU THIROOR ,THRISSUR , KERALA, PIN-680581",TRISSUR,TIROOR,KERALA,2200245
185,SOUTH INDIAN BANK,SIBL0000186,POTTASSERI,"BUILDING NO3-523, WARD NO3, FIRST FLOOR, ORCHID PLAZA, KANHIRAM, POTTASSERY PO, PALAKKAD DISTRICT, KERALA-678598",PALAKKAD,POTTASSERY,KERALA,238272
186,SOUTH INDIAN BANK,SIBL0000187,KOTHUR,"KOTHUR BRANCH, 1/27, SWAPNANJANA COMPLEX,KOTHUR, MAHBUBNAGAR, ANDHRA PRADESH, PIN-509228",MEHBOOBNAGAR,KOTHUR,ANDHRA PRADESH,257130
187,SOUTH INDIAN BANK,SIBL0000188,PUDUPADI,"PUDUPADI BRANCH, PP 2/383 A ,PUDUPADI,PO KAITHAPOIL , KOZHIKODE, KERALA, PIN-673023",KOZHIKODE,PUDUPADI,KERALA,2235235
188,SOUTH INDIAN BANK,SIBL0000189,NADUVANNUR,"1ST FLOOR, KPCOMPLEX, ULLYERI-PERAMBRA ROAD, NADUVANNUR, KOZHIKODE, KERALA-673614",KOZHIKODE,NADUVANNUR,KERALA,2652249
189,SOUTH INDIAN BANK,SIBL0000190,PULLOORAMPARA,"PULLOORAMPARA BRANCH, VIII/163 ,PUTHIAKUNNEL BUILDINGS,MAIN ROAD , KOZHIKODE, KERALA, PIN-673603",KOZHIKODE,PULLOORAMPARA,KERALA,2276232
190,SOUTH INDIAN BANK,SIBL0000191,KADAKKAVUR,"DONO8-251 A, CHEKALAVILAKAM, P O  KADAKKAVUR, THIRUVANANTHAPURAM, KERALA-695306",TRIVANDRUM,KADAKKAVOOR,KERALA,2656634
191,SOUTH INDIAN BANK,SIBL0000192,YEROOR,"VIA. ANCHAL,YEROOR,ARAVIND ANJALI COMPLEX, KOLLAM , KERALA, PIN-691312",KOLLAM,YEROOR,KERALA,2273336
192,SOUTH INDIAN BANK,SIBL0000193,PAPPAMPATI,"PAPPAMPATI BRANCH, 6/86 ,KALLAPALAYAM ROAD ,PAPPAMPATTI , COIMBATORE , TAMIL NADU, PIN-641016",COIMBOTORE,COIMBATORE,TAMIL NADU,2634626
193,SOUTH INDIAN BANK,SIBL0000194,MUMBAI NARIMAN POINT,"MUMBAI NARIMAN POINT BRANCH, 207, EMBASSY CENTRE, 8,GROUND FLOOR, GREATER MUMBAI , MAHARASHTRA , PIN-400021",GREATER BOMBAY,MUMBAI,MAHARASHTRA,22844133
194,SOUTH INDIAN BANK,SIBL0000195,ELAPAKAM,"ELAPAKAM BRANCH, MAIN ROAD,PINNAPOONDI ,ELAPAKKAM , KANCHEEPURAM , TAMIL NADU, PIN-603201",KANCHIPURAM,ELAPAKAM,TAMIL NADU,27524533
195,SOUTH INDIAN BANK,SIBL0000196,ORATHI,"DONO5-104, WARD NO 5, MAIN ROAD, ORATHY PO, KANCHEEPURAM, TAMIL NADU-603307",KANCHEEPURAM,ORATHI,TAMIL NADU,27549922
196,SOUTH INDIAN BANK,SIBL0000197,CHERPUNKAL,"DONO18A, WARD NO6, NELLIPUZHA BUILDING, PALA-ETTUMANOOR HIGHWAY, CHERPUNKAL PO, KOTTAYAM DISTRICT, KERALA-686584",KOTTAYAM,KOTTAYAM,KERALA,255969
197,SOUTH INDIAN BANK,SIBL0000198,THOLANUR,"THOLANUR BRANCH, 1/376,DENHOLM BUILDING,MAIN ROAD , PALAKKAD , KERALA, PIN-678722",PALAKKAD,THOLANUR,KERALA,287223
198,SOUTH INDIAN BANK,SIBL0000199,PUDUKODE,"PUDUKODE BRANCH, 8/256,ANCHUMURRY,PUDUKODE, PALAKKAD , KERALA, PIN-678687",PALAKKAD,PUDUKODE,KERALA,266241
199,SOUTH INDIAN BANK,SIBL0000200,BODINAYAKANUR,"DONO42 , WARD NO: 22, DRVASUDEVAN BUILDING, UTHAMAPALAYAM ROAD, OPP BODINAYAKANNUR BUS STAND, BODINAYAKANNUR, THENI, TAMIL NADU-625513",THENI,BODINAYAKANUR,TAMIL NADU,280344
200,SOUTH INDIAN BANK,SIBL0000201,OTHAKALMANDAPAM,"12/1 POLLACHI MAIN ROAD , OTHAKALMANDAPAM,KANDHASWAMY GOUNDER DR SIVASWAMY TOWERS, COIMBATORE , TAMIL NADU, PIN-641032",COIMBOTORE,OTHAKALMANDAPAM,TAMIL NADU,2610664
201,SOUTH INDIAN BANK,SIBL0000202,KANJAR,"KANJAR BRANCH, PURAYIDATHIL BUILDING,KANJAR,(VIA) THODUPUZHA, IDUKKI , KERALA, PIN-685592",IDUKKI,KANJAR,KERALA,252072
202,SOUTH INDIAN BANK,SIBL0000203,PADAPPAI,"PADAPPAI BRANCH, 2/410,BAZAR STREET,PADAPPAI, KANCHEEPURAM , TAMIL NADU, PIN-601301",KANCHEEPURAM,PADAPPAI,TAMIL NADU,27174248
203,SOUTH INDIAN BANK,SIBL0000204,AYYAMPETTAI,"DONO378, KANCHIPURAM-CHENGALPET MAIN ROAD, AYYAMPETTAI PO, 631601",KANCHEEPURAM,AIYAMPET,TAMIL NADU,27253216
204,SOUTH INDIAN BANK,SIBL0000206,COIMBATORE NGGO COLONY,"COIMBATORE NGGO COLONY BRANCH, NGGO COLONY, KURUDAMPALAYAM ,COIMBATORE, COIMBATORE , TAMIL NADU, PIN-641022",COIMBOTORE,COIMBATORE,TAMIL NADU,2642327
205,SOUTH INDIAN BANK,SIBL0000207,KUNDALIYUR,"KUNDALIYUR BRANCH, KAKKANAT BUILDING,OPP. KUNDALIYUR POST OFFICE ,MAIN ROAD , THRISSUR , KERALA, PIN-680616",TRISSUR,KUNDALIYUR,KERALA,2290223
206,SOUTH INDIAN BANK,SIBL0000208,MUTHARASANALLUR,"DOOR NO.3/1,GANGA TOWERS,BAZAR STREET,MUTHARASANALLUR,TIRUCHIRAPALLI, TAMIL NADU, PIN-620101",TIRUCHIORAPPALLI,MUTHARASSANELLOOR,TAMIL NADU,2685233
207,SOUTH INDIAN BANK,SIBL0000209,NOCHIAM,"NOCHIAM BRANCH, 4/81 B ,TRICHY-SALEM MAIN ROAD,NOCHIAM , TIRUCHIRAPALLI , TAMIL NADU, PIN-621216",TIRUCHIORAPPALLI,NOCHIAM,TAMIL NADU,2560411
208,SOUTH INDIAN BANK,SIBL0000210,KALLARA,"KALLARA BRANCH, ST. MARY'S CHURCH BUILDING ,KALLARA (NORTH) , KOTTAYAM , KERALA, PIN-686611",KOTTAYAM,KALLARA,KERALA,267302
209,SOUTH INDIAN BANK,SIBL0000211,BANAVARAM,"DO NO 312-1, PKR COMPLEX, GANDHI ROAD, BANAVARAM PO, VELLORE DISTRICT, TAMIL NADU-632505",VELLORE,BANAVARAM,TAMIL NADU,249240
210,SOUTH INDIAN BANK,SIBL0000212,PAMPADY,"71D/VII, RHEMA CENTER ,PAMPADY , KOTTAYAM , KERALA, PIN-686502",KOTTAYAM,PAMPADY,KERALA,2505494
211,SOUTH INDIAN BANK,SIBL0000213,CHELLANAM,"CHELLANAM BRANCH, AMJ COMPLEX,(1ST FLOOR) ,CHELLANAM , ERNAKULAM, KERALA, PIN-682008",ERNAKULAM,CHELLANAM,KERALA,2249895
212,SOUTH INDIAN BANK,SIBL0000214,KATTANAM,"KATTANAM BRANCH, GALAXY ,BP XII - 339 B 2,KATTANAM JN KATTANAM, ALAPUZHA , KERALA, PIN-690503",ALAPUZZHA,ALAPPUZHA,KERALA,2332036
213,SOUTH INDIAN BANK,SIBL0000215,KUMBALAM,"RGBUILDINGS, NH BYE PASS, KUMBALAM, ERNAKULAM DT, KERALA-682506",ERNAKULAM,KUMBALAM,KERALA,2700393
214,SOUTH INDIAN BANK,SIBL0000216,ODAYAMKULAM,"ODAYAMKULAM BRANCH,DOOR NO. 8/3-1,SETHUMADAI ROAD,ODAYAMKULAM ,VETTAIKARANPUDUR, COIMBATORE , TAMIL NADU, PIN-642129",COIMBOTORE,ODAYAKULAM,TAMIL NADU,282210
215,SOUTH INDIAN BANK,SIBL0000217,SILAIMAN,"DONO2-334, GOLDEN NAGAR, MADURAI-RAMESWARAM MAIN ROAD, SILAIMAN, MADURAI, TAMIL NADU-625201",MADURAI,SILAIMAN,TAMIL NADU,2465527
216,SOUTH INDIAN BANK,SIBL0000218,MANDYA,"#1119 / A, OPPOSITE RAILWAY STATION, M C ROAD ,MANDYA , KARNATAKA , PIN-571401",MANDYA,MANDYA,KARNATAKA,220813
217,SOUTH INDIAN BANK,SIBL0000219,ANGAMALY,"P.B.NO: 29, CHENNAKADAN BUILDING,BANK JN ,ALUVA ROAD, ERNAKULAM, KERALA, PIN-683572",ERNAKULAM,ANGAMALY,KERALA,2457010
218,SOUTH INDIAN BANK,SIBL0000220,KODUVAYUR,"DOOR NO.946,WARD NO.3,MAIN ROAD ,KODUVAYUR P O , PALAKKAD , KERALA, PIN-678501.",PALAKKAD,KODUVAYUR,KERALA,252206
219,SOUTH INDIAN BANK,SIBL0000221,DELHI CHANDNI CHOWK,"DELHI CHANDNI CHOWK BRANCH, 4946-4948,PAL MARKET,CHANDNI CHOWK , DELHI, DELHI , PIN-110006",NEW DELHI,DELHI,DELHI,23955010
220,SOUTH INDIAN BANK,SIBL0000222,KOZHENCHERRY,"POST BO NO 3,11/698,POYANIL BUILDING,1ST FLOOR , PATHANAMTHITTA , KERALA, PIN-689641",PATHANAMTHITTA,KOZHENCHERRY,KERALA,2210443
221,SOUTH INDIAN BANK,SIBL0000223,KOLKATA BURRA BAZAR,"KOLKATA BURRA BAZAR BRANCH, SRINIKETAN HOUSE , 25 ,KALIKRISHNA TAGORE STREET , CALCUTTA , WEST BENGAL , PIN-700007",KOLKATA,KOLKATA,WEST BENGAL,22749433
222,SOUTH INDIAN BANK,SIBL0000224,KALAMASSERY,"DONOSRA-43, SHANU TOWER, NH-47, KALAMASSERY PO, ERNAKULAM DISTRICT, KERALA-683104",ERNAKULAM,KALAMASSERY,KERALA,2555003
223,SOUTH INDIAN BANK,SIBL0000225,ERAVIPEROOR,"PALAMOOTIL BUILDINGS, ERAVIPEROOR, PATHANAMTHITTA, KERALA-689542",PATHANAMTHITTA,ERAVIPEROOR,KERALA,2664474
224,SOUTH INDIAN BANK,SIBL0000226,ARUMUGHAPETTAI,"DOOR NO.92, WARD NO. 5, RAJA STREET ,ARUMUGHAPETTAI, PINCODE: 631605",KANCHEEPURAM,KANCHIPURAM,TAMIL NADU,256062
225,SOUTH INDIAN BANK,SIBL0000227,DAMAL,"DOOR NO.229/3 ,MAIN ROAD ,DAMAL , KANCHEEPURAM , TAMIL NADU, PIN-631602",KANCHEEPURAM,DAMAL,TAMIL NADU,27246528
226,SOUTH INDIAN BANK,SIBL0000228,PALARIVATTOM,"POST BOX NO2284,JANATHA JUNCTION,PALARIVATTOM, ERNAKULAM, KERALA, PIN-682025",ERNAKULAM,KOCHI,KERALA,2344940
227,SOUTH INDIAN BANK,SIBL0000229,CHENNAI WOODS ROAD,"CHENNAI WOODS ROAD BRANCH, 20, WOODS ROAD , CHENNAI, CHENNAI, TAMIL NADU, PIN-600002",CHENNAI,CHENNAI,TAMIL NADU,28460544
228,SOUTH INDIAN BANK,SIBL0000230,MEPPADI,"MEPPADI BRANCH,DOOR NO MP IX/960 F ,MEBURACK BUILDING ,MEPPADI , WAYANAD, KERALA, PIN-673577",WAYANAD,MEPPADI,KERALA,282484
229,SOUTH INDIAN BANK,SIBL0000231,BANGALORE MARUTHISEVANAGAR,"DOOR NO.10/3-1,WARD NO.86,BANASWADI MAIN ROAD,MARUTHI SEVA NAGAR P.O,ASHWA ARCAD, BANGALORE, KARNATAKA , PIN-560033",BANGALORE URBAN,BANGALORE,KARNATAKA,5461331
230,SOUTH INDIAN BANK,SIBL0000232,GUDIYATTAM,"GUDIYATTAM BRANCH, 277, SANTHAPET ,GUDIYATTAM, VELLORE, TAMIL NADU, PIN-632602",VELLORE,GUDIYATTAM,TAMIL NADU,220456
231,SOUTH INDIAN BANK,SIBL0000233,MUPLIYAM,"DOOR NO.496 A,WARD NO.XV,MAIN ROAD,OPP.ASSUMPTION CHURCH,MUPLIYAM P O,MUPLIYAM, THRISSUR , KERALA, PIN-680312",TRISSUR,MUPLIYAM,KERALA,2780227
232,SOUTH INDIAN BANK,SIBL0000234,POOCHAKULAM,"DONO387-1, IRINJALAKUDA-KAKKATHURUTHY ROAD, PO IRINJALAKUDA, THRISSUR, KERALA-680121",TRISSUR,POOCHAKULAM(CHELOOR),KERALA,2821826
233,SOUTH INDIAN BANK,SIBL0000235,DAVENGERE,"NO. 659/1, GROUND FLOOR, MANDIPET, DAVENGERE, KARNATAKA , PIN-577001",DAVANAGARE,DAVANGERE,KARNATAKA,257654
234,SOUTH INDIAN BANK,SIBL0000236,TRIVANDRUM CHACKAI,"T.C.NO. 31/1398 (3), N.H BYEPASS ROAD , CHAKKAI JUNCTION, P.O. PETTAH, THIRUVANANTHAPURAM , KERALA, PIN-695024",TRIVANDRUM,THIRUVANANTHAPURAM,KERALA,2505205
235,SOUTH INDIAN BANK,SIBL0000237,KANNANALLOOR,"POONGHOTTU BUILDINGS, KANNANALLOOR-KOTTIYAM ROAD KANNANALLOOR, KOLLAM, KERALA-691576",KOLLAM,KOLLAM,KERALA,2501012
236,SOUTH INDIAN BANK,SIBL0000238,ANJOOR,"DOOR NO.289,WARD NO.VIII,, NILA COMPLEX,ANJOOR, THOZHIYOOR P.O, PINCODE: 680520",TRISSUR,ANJOOR,KERALA,2681039
237,SOUTH INDIAN BANK,SIBL0000239,MURIKKASSERY,"MURIKKASSERY BRANCH, PATHICATT BUILDING ,KARIMPANA ROAD,IDUKKI COLONY , IDUKKI , KERALA, PIN-685602",IDUKKI,MURIKKASSERY,KERALA,263244
238,SOUTH INDIAN BANK,SIBL0000240,KAPPAD,"GROUND FLOOR,JOHN PAUL II PILGRIM CENTRE, K.E. ROAD, KAPPAD, KOTTAYAM , KOTTAYAM , KERALA, PIN-686508",KOTTAYAM,KOTTAYAM,KERALA,236933
239,SOUTH INDIAN BANK,SIBL0000241,KARIAMANICKAM,"KARIAMANICKAM BRANCH, 202/1,PILLAYAR KOVIL STREET ,KARIAMANICKAM , TIRUCHIRAPALLI , TAMIL NADU, PIN-621005",TIRUCHIORAPPALLI,MANACHANALLUR,TAMIL NADU,2655221
240,SOUTH INDIAN BANK,SIBL0000242,UDIYANKULANGARA,"UDIYANKULANGARA BRANCH, X/1330 ,NOHA COMPLEX,MAIN ROAD , THIRUVANANTHAPURAM , KERALA, PIN-695122",TRIVANDRUM,THIRUVANANTHAPURAM,KERALA,2233308
241,SOUTH INDIAN BANK,SIBL0000243,KALIYAR,"KALIYAR BRANCH, X/340,D-10,VANNAPPURAM P.O., (VIA)THODUPUZHA, MUNDACKAL TOWER,KALIYAR, IDUKKI , KERALA, PIN-685582",IDUKKI,KALIYAR,KERALA,245342
242,SOUTH INDIAN BANK,SIBL0000245,PASUMATHUR,"PM COMPLEX, 1ST FLOOR, 1-120, BUS STAND, PASUMATHUR VIA GUDIYATTAM, VELLORE, TAMIL NADU-635803",VELLORE,PASUMATHUR,TAMIL NADU,244229
243,SOUTH INDIAN BANK,SIBL0000246,SECUNDERABAD,"SECUNDERABA0D BRANCH, 1-7-395, GROUND FLOOR, SAROJINI DEVI ROAD , SECUNDERABAD , HYDERABAD, ANDHRA PRADESH, PIN-500003",HYDERABAD URBAN,HYDERABAD,ANDHRA PRADESH,27845170
244,SOUTH INDIAN BANK,SIBL0000247,PANANGAD,"DONO669, WARD NO4, THADATHIL BUILDING, THALAYAD PO, KOZHIKODE DISTRICT, KERALA-673574",KOZHIKODE,UNNIKULAM,KERALA,2270262
245,SOUTH INDIAN BANK,SIBL0000248,RAJAHMUNDRY,"DNO-6-3-13,CHALLAPALLIVARI,T-NAGAR,RAJAHMUNDRY, ANDHRA PRADESH, PIN-533101",EAST GODAVARI,RAJAHMUNDRY,ANDHRA PRADESH,2442643
246,SOUTH INDIAN BANK,SIBL0000249,KAJULURU,"DOOR NO:2/21 ,NEAR KAJULURU BUS STOP,KAJULURU ,EAST GODAVARI DT. ANDHRA PRADESH, PIN-533263",EAST GODAVARI,KAJULURU,ANDHRA PRADESH,2330434
247,SOUTH INDIAN BANK,SIBL0000250,ERIYAD,"ERIYAD, VIA: KODUNGALLUR, THRISSUR, KERALA-680666",TRISSUR,ERIYAD,KERALA,2819796
248,SOUTH INDIAN BANK,SIBL0000251,PAKALKURI,"DO NO 251, SHA ARCADE, PALLICKAL, TRIVANDRUM, KERALA-695604",TRIVANDRUM,PAKALKURI,KERALA,2682046
249,SOUTH INDIAN BANK,SIBL0000252,KOTIPALLI,"KOTIPALLI BRANCH, 4/09,PANCHAYATH ROAD ,KOTTIPALLI, EAST GODAVARI, ANDHRA PRADESH, PIN-533306",EAST GODAVARI,KOTIPALLY,ANDHRA PRADESH,2365657
250,SOUTH INDIAN BANK,SIBL0000253,KUMBAKONAM,"KUMBAKONAM BRANCH,40-43 ,SARANGAPANI SOUTH STREET,KUMBAKONAM, THANJAVUR, TAMIL NADU, PIN-612001",THANJAVUR,KUMBAKONAM,TAMIL NADU,2421619
251,SOUTH INDIAN BANK,SIBL0000254,TIRUNELVELI,"DONO2G-2, WARD NO5, RMKG BUILDING, MADURAI ROAD, TIRUNELVELI JUNCTION PO, TIRUNELVELI, TAMIL NADU-627001",MADURAI,MADURAI,TAMIL NADU,2321744
252,SOUTH INDIAN BANK,SIBL0000255,MARAPPARAI,"MARAPPARAI BRANCH, 2/28, KVR BUILDINGS,MARAPPARAI,PO VIAPPAMALAI, TAMIL NADU, PIN-637410",SALEM,SALEM,TAMIL NADU,233262
253,SOUTH INDIAN BANK,SIBL0000256,UPPATTI,"UPPATTI BRANCH, ST. GEORGE BUILDING,MAIN ROAD ,UPPATTI , NILGIRI, TAMIL NADU, PIN-643241",NILGIRIS,UDHAGAMANDALAM,TAMIL NADU,220256
254,SOUTH INDIAN BANK,SIBL0000257,CHEMBANODA,"CHEMBANODA BRANCH, MAIN ROAD,CHEMBANODA,(VIA) PERUVANNAMUZHI, KOZHIKODE, KERALA, PIN-673528",KOZHIKODE,CHEMBANODA,KERALA,2666277
255,SOUTH INDIAN BANK,SIBL0000258,MYSORE,"MYSORE BRANCH,50 & 51 ,1ST FLOOR ,DEVRAJ URS ROAD , MYSORE , KARNATAKA , PIN-570001",MYSORE,MYSORE,KARNATAKA,2424979
256,SOUTH INDIAN BANK,SIBL0000259,KARETTE,"PP XII-896, VARNAM BUILDING, MC ROAD, KARETTE, PO VAMANAPURAM, THIRUVANANTHAPURAM, KERALA-695606",TRIVANDRUM,THIRUVANANTHAPURAM,KERALA,2836336
257,SOUTH INDIAN BANK,SIBL0000260,PULPALLY,"MADATHIL BUILDING, MAIN ROAD P.B.#: WYNAD DIST , PULPALLY, PINCODE:673579,SULTHAN BATHERY, KERALA, WAYANAD",WAYANAD,PULPALLY,KERALA,240275
258,SOUTH INDIAN BANK,SIBL0000261,CHENGANNUR,"DOOR NO.12, WARD NO.XI, AMBATTU BUILDING, COURT ROAD CHENGANNUR P.O., PINCODE:689121",ALAPUZZHA,CHENGANNUR,KERALA,2455002
259,SOUTH INDIAN BANK,SIBL0000262,KOLKATA BRABOURNE ROAD,"KOLKATA BRABOURNE ROAD (P.C STR) BRANCH,VAISHNO CHAMBERS,6 ,BRABOURNE ROAD , CALCUTTA , WEST BENGAL , PIN-700001",KOLKATA,KOLKATA,WEST BENGAL,22343559
260,SOUTH INDIAN BANK,SIBL0000263,MUMBAI FORT BRANCH,"MUMBAI FORT BRANCH,EMCA HOUSE (GROUND FLOOR) , 289,SB SINGH ROAD , GREATER MUMBAI , MAHARASHTRA , PIN-400038",GREATER BOMBAY,MUMBAI,MAHARASHTRA,22658974
261,SOUTH INDIAN BANK,SIBL0000264,INTERNATIONAL BANKING DIVISION ERNAKULAM,"MARKET ROAD,ERANAKULAM, KERALA, 682031",ERNAKULAM,KOCHI,KERALA,2355499
262,SOUTH INDIAN BANK,SIBL0000265,KATHIKUDAM,"KATHIKUDAM BRANCH, KATHIKUDAM ,(VIA) KORATTY , THRISSUR , KERALA, PIN-680308",TRISSUR,KATHIKUDAM,KERALA,2718112
263,SOUTH INDIAN BANK,SIBL0000266,MUMBAI GIRGAUM,"MUMBAI GIRGAUM BRANCH,163-165 ,ANAND BHAVAN,V.P ROAD, GREATER MUMBAI , MAHARASHTRA , PIN-400004",GREATER BOMBAY,MUMBAI,MAHARASHTRA,23826504
264,SOUTH INDIAN BANK,SIBL0000267,KOLKATA BALLYGUNGE,"48,LEELA ROY SARANI GARIAHAT RD,MAYURA CENTRE BALLYGUNGE,KOLKATA , CALCUTTA , WEST BENGAL , PIN-700019",KOLKATA,KOLKATA,WEST BENGAL,24617624
265,SOUTH INDIAN BANK,SIBL0000268,ENNAMANGALAM,"ENNAMANGALAM BRANCH, IV - 3/54-B,AMMANKOIL STREET,ENNAMANGALAM, ERODE, TAMIL NADU, PIN-638501",ERODE,ENNAMANGALAM,TAMIL NADU,251143
266,SOUTH INDIAN BANK,SIBL0000269,KOZHIKODE WEST HILL,"1-1274 G, AL-ZAHRA PLAZA, CHAKKORATHUKULAM CANNANORE ROAD, NADAKAVU PO KOZHIKODE, KERALA-673006",KOZHIKODE,CALICUT,KERALA,2368021
267,SOUTH INDIAN BANK,SIBL0000271,MAVELIKARA,"MAVELIKARA BRANCH, 6/168B ,FIRST FLOOR, , SAMUEL BUILDINGS , NADAKAVU , ALAPUZHA , KERALA, PIN-690101",ALAPUZZHA,MAVELIKKARA,KERALA,2307855
268,SOUTH INDIAN BANK,SIBL0000272,PERUMPUZHA,"PERUMPUZHA BRANCH, IX/743 ,SAI MANDIRAM,KUNDARA - KOTTIYAM ROAD , KOLLAM , KERALA, PIN-691504",KOLLAM,KOLLAM,KERALA,2522573
269,SOUTH INDIAN BANK,SIBL0000273,AYIROOPARA,"MELULIYAZHATHARA BRANCH, X/388,MELULIYAZHATHARA,PO AYIROOPARA , THIRUVANANTHAPURAM , KERALA, PIN-695584",TRIVANDRUM,POTHENCODE,KERALA,2419325
270,SOUTH INDIAN BANK,SIBL0000274,KANIYALAMPATTI,"KANIYALAMPATTI BRANCH, 4/36,A-3 ,MAIN ROAD ,KANIYALAMPATTI, KANIYALAMPATTI - 621 301 , TAMIL NADU, PIN-621301",KARUR,KANIYALAMPATTY,TAMIL NADU,255336
271,SOUTH INDIAN BANK,SIBL0000275,CHINNAKANAL,"DOOR NO.2/127/D, WARD II, OTTAYIL HOUSE ,MAIN ROAD, CHINNAKANAL P.O PINCODE:685618 (VIA) MUNNAR,KERALA, IDUKKI",IDUKKI,CHINNAKANAL,KERALA,249310
272,SOUTH INDIAN BANK,SIBL0000277,COIMBATORE SAIBABA COLONY,"COIMBATORE SAIBABA COLONY BRANCH, 62/431-435, NSR ROAD , SAIBABA COLONY , COIMBATORE , TAMIL NADU, PIN-641011",COIMBOTORE,COIMBATORE,TAMIL NADU,2430985
273,SOUTH INDIAN BANK,SIBL0000278,KADAVALLUR,"DAVISON BUILDING, KALLUMPURAM JUNCTION, KADAVALLUR POST, THRISSUR, KERALA-680543",TRISSUR,KADAVALLUR,KERALA,282341
274,SOUTH INDIAN BANK,SIBL0000279,BANGALORE MALLESWARAM,"BANGALORE MALLESWARAM BRANCH, 230, 1ST FLOOR ,15TH CROSS,MALLESWARAM , BANGALORE, KARNATAKA , PIN-560003",BANGALORE URBAN,BANGALORE,KARNATAKA,23368321
275,SOUTH INDIAN BANK,SIBL0000280,CUDDALORE,"NO. 33-B, SIVA COMPLEX IMPERIAL ROAD PINCODE:607002 CUDDALORE, CUDDALORE MUNICIPALITY,TAMIL NADU",CUDDALORE,CUDDALORE,TAMIL NADU,236374
276,SOUTH INDIAN BANK,SIBL0000281,AKALAKUNNAM,"MAR SLEEVA SHOPPING COMPLEX, CHURCH ROAD, AKALAKUNNAM, PO KANJIRAMATTAM, VIA CHENGALAM, KOTTAYAM, KERALA-686585",KOTTAYAM,AKALAKUNNAM,KERALA,2704242
277,SOUTH INDIAN BANK,SIBL0000282,CHENNAI ANNA NAGAR,"CHENNAI ANNA NAGAR BRANCH, 995 E,2ND AVENUE ANNA NAGAR ,CHENNAI , CHENNAI, TAMIL NADU, PIN-600040",CHENNAI,CHENNAI,TAMIL NADU,26161760
278,SOUTH INDIAN BANK,SIBL0000284,PADUR,"NEW BUILDING, MANI IYER, GST ROAD, PADUR PO, VILLUPURAM DISTRICT, TAMIL NADU -606115",VILLUPURAM,PADUR,TAMIL NADU,209749
279,SOUTH INDIAN BANK,SIBL0000285,P.METTUPALAYAM,"82/1,MAIN ROAD,P.METTUPALAYAMA,ERODE-638 315, TAMILNADU",ERODE,GOBICHETTIPALAYAM,TAMIL NADU,240434
280,SOUTH INDIAN BANK,SIBL0000286,PACHAMBALA,"OBARLA K C BUILDING PACHAMBALA ICHILANGODE PO KASARAGOD, KERALA-671324",KASARAGOD,PACHAAMBALA,KERALA,63156
281,SOUTH INDIAN BANK,SIBL0000287,GOOLIKADAVU,"GOOLIKADAVU BRANCH, FATHIMA MATHA COMPLEX,GOOLIKADAVU ,ATTAPADY, PALAKKAD , KERALA, PIN-678581",PALAKKAD,PALAKKAD,KERALA,254405
282,SOUTH INDIAN BANK,SIBL0000288,DHEEVANUR,"R K G BUILDING, MAIN ROAD ,DHEEVANUR PINCODE:604206 , TAMIL NADU, VILLUPURAM-RAMASAMY",VILLUPURAM,DHEEVANUR,TAMIL NADU,235223
283,SOUTH INDIAN BANK,SIBL0000290,SRIPERUMBUDUR,"NO 190-110, WARD NO10, GANDHI ROAD, SRIPERUMBUDUR, KANCHEEPURAM, TAMIL NADU-602105",KANCHEEPURAM,SRIPERUMBUDUR,TAMIL NADU,27162177
284,SOUTH INDIAN BANK,SIBL0000291,NELVOY,"WARD NO1, NKNCOMPLEX, UTHIRAMERUR MAIN ROAD, NELVOY PO, KANCHEEPURAM, TAMIL NADU-603107",KANCHEEPURAM,NELVOY,TAMIL NADU,27293219
285,SOUTH INDIAN BANK,SIBL0000293,INGUR,"DONO13-329, WARD NO13, SIPCOT-KAMPLIAMPATTI ROAD, INGUR WEST, INGUR PO, ERODE DISTRICT, TAMIL NADU-638052",ERODE,INGUR,TAMIL NADU,230236
286,SOUTH INDIAN BANK,SIBL0000294,PALLAPALAYAM,"PALLAPALAYAM BRANCH, 155, TRICHY ROAD ,GANDHI NAGAR,PALLAPALAYAM, COIMBATORE , TAMIL NADU, PIN-641016",COIMBOTORE,COIMBATORE,TAMIL NADU,2273420
287,SOUTH INDIAN BANK,SIBL0000295,JAVADUPATTY,"DONO116, MAIN ROAD, JAVADUPATTY DINDIGUL, TAMIL NADU-624704",DINDIGUL,JAVADUPATTY,TAMIL NADU,220292
288,SOUTH INDIAN BANK,SIBL0000296,POGALUR,"POGALUR BRANCH, 6/70 ,POGALUR , COIMBATORE , TAMIL NADU, PIN-641697",COIMBOTORE,POGALUR,TAMIL NADU,262494
289,SOUTH INDIAN BANK,SIBL0000297,ELAMBULASSERY,"DOOR NO.392, WARD NO.9, ELAMBULASSERY P.O., PINCODE:678595,KERALA, PALAKKAD",PALAKKAD,SRIKRISHNAPURAM,KERALA,22658977
290,SOUTH INDIAN BANK,SIBL0000299,THRISSUR MISSION QUARTERS,"THRISSUR MISSION QUARTERS BRANCH, OPP. ALL SAINTS CHURCH ,MAIN ROAD ,MISSION QUARTERS, THRISSUR , KERALA, PIN-680001",TRISSUR,THRISSUR,KERALA,2428090
291,SOUTH INDIAN BANK,SIBL0000300,ANANDAVADI,"ANANDAVADI BRANCH, 7/41-2 ,POST OFFICE ROAD,ANANDAVADI, ARIYALUR , TAMIL NADU, PIN-621718",PERAMBALUR,ANANDAVADI,TAMIL NADU,291444
292,SOUTH INDIAN BANK,SIBL0000301,T. SUBBULAPURAM,"SURVEY NO 407-2A, WARD NOII, MAIN ROAD, T SUBBULAPURAM PO, THENI DISTRICT, TAMIL NADU-625536",THENI,T.SUBBULAPURAM,TAMIL NADU,242221
293,SOUTH INDIAN BANK,SIBL0000302,SALEM LEIGH BAZAR,"SALEM LEIGH BAZAR BRANCH, SREE LAKSHMI COMPLEX ,4/33,OMALUR MAIN ROAD, SALEM, TAMIL NADU, PIN-636004",SALEM,SALEM,TAMIL NADU,2431007
294,SOUTH INDIAN BANK,SIBL0000303,DELHI ROHINI,"DELHI ROHINI BRANCH,VIKAS PLAZA PLOT NO. 2,SPACE NO. 103 ,COMMUNITY CENTRE, DELHI, DELHI , PIN-110085",NEW DELHI,DELHI,DELHI,27942185
295,SOUTH INDIAN BANK,SIBL0000304,BELLADI,"BELLADI BRANCH, 2/285-G,CHINNATHOTTIPALAYAM ,BELLADI , COIMBATORE , TAMIL NADU, PIN-641104",COIMBOTORE,BELLADI,TAMIL NADU,272530
296,SOUTH INDIAN BANK,SIBL0000305,CHENNAI SERVICE,"CHENNAI SERVICE BRANCH, 19 ,GROUND FLOOR , ,MOUNT ROAD,OPP: ANNASALAI HPO , CHENNAI, TAMIL NADU, PIN-600002",CHENNAI,CHENNAI,TAMIL NADU,28544080
297,SOUTH INDIAN BANK,SIBL0000306,SURAT,"GURUKRIPA HOUSE, 21ST CENTURY BUSINESS CENTRE, RING ROAD, NEAR UDHNA DARWAJA, RUSTAMPURA SURAT, GUJARAT-395002",SURAT,SURAT,GUJARAT,2321946
298,SOUTH INDIAN BANK,SIBL0000307,ERNAKULAM (NRI),"TEEPEEYEM ENCLAVE, 37-138 A   B, KALOOR-KADAVANTHRA ROAD, KADAVANTHRA, ERNAKULAM, KERALA-682020",ERNAKULAM,KOCHI,KERALA,2380580
299,SOUTH INDIAN BANK,SIBL0000308,PATNA,"MAA BHAGWATI NIWAS, GROUND FLOOR, BORING ROAD CROSSING, GPO, PATNA, BIHAR-800001",PATNA,PATNA,BIHAR,2264343
300,SOUTH INDIAN BANK,SIBL0000309,MUMBRA BRANCH,"MUMBRA BRANCH, GROUND FLOOR ,RAVI CO-OP. HOUSING SOCIETY LTD ,AMRUT NAGAR , MUMBRA-400 612 , MAHARASHTRA , PIN-400612",THANE,THANE,MAHARASHTRA,25469200
301,SOUTH INDIAN BANK,SIBL0000310,COIMBATORE R S PURAM,"COIMBATORE INDUSTRIAL FINANCE BRANCH,D NO. 1084,TRICHY ROAD ,SUNGAM, COIMBATORE , TAMIL NADU, PIN-641018",COIMBOTORE,COIMBATORE,TAMIL NADU,2552722
302,SOUTH INDIAN BANK,SIBL0000311,"ERNAKULAM OVERSEAS BRANCH,","ERNAKULAM OVERSEAS BRANCH, OVERSEAS BRANCH,DOOR NO. 33/2171.A1 ,BYE PASS JUNCTION , ERNAKULAM, KERALA, PIN-682028",ERNAKULAM,KOCHI,KERALA,2805740
303,SOUTH INDIAN BANK,SIBL0000312,CHENNAI INDUSTRIAL FINANCE BRANCH,"CHENNAI INDUSTRIAL FINANCE BRANCH, 110, RAHEJA TOWERS , 177,ANNA SALAI, CHENNAI, TAMIL NADU, PIN-600002",CHENNAI,CHENNAI,TAMIL NADU,28603965
304,SOUTH INDIAN BANK,SIBL0000313,KAKKANAD,"D.NO-426/B, TRANS AVENUE, MAVELIPURAM, KAKKANAD, KOCHI-682030",ERNAKULAM,KAKKANAD,KERALA,2421883
305,SOUTH INDIAN BANK,SIBL0000314,MALLAPALLY BRANCH,"MALLAPALLY BRANCH, 13/1 ,KARAKKAL BUILDING ,CENTRAL JUNCTION, PATHANAMTHITTA , KERALA, PIN-689585",PATHANAMTHITTA,MALLAPPALLY,KERALA,2681981
306,SOUTH INDIAN BANK,SIBL0000315,KANJIKUZHY,"KANJIKUZHY BRANCH, VI/29-G,JUNCTION,KANJIKUZHY, KOTTAYAM , KERALA, PIN-686004",KOTTAYAM,KOTTAYAM,KERALA,2572902
307,SOUTH INDIAN BANK,SIBL0000316,PATHANAMTHITTA,"X11-1192, THERAKATHU BUILDING COLLEGE ROAD, PATHANAMTHITTA, KERALA-689645",PATHANAMTHITTA,PATHANAMTHITTA,KERALA,2225107
308,SOUTH INDIAN BANK,SIBL0000317,VATANAPALLY,"814A,WARD NO.12,, EMINANT MALL,NH 17,  VATANAPALLY PINCODE:680614 ,VATANAPILLY CENTRE, THALIKULAM KERALA, THRISSUR",TRISSUR,VADANAPPALLY,KERALA,2607465
309,SOUTH INDIAN BANK,SIBL0000318,VADODARA (BARODA),"VADODARA (BARODA) BRANCH,1ST FLOOR ,ORIENT BUSINESS CENTRE,OPP. SURAJ PLAZA, VADODARA , GUJARAT , PIN-390005",VADODARA,VADODARA,GUJARAT,2361084
310,SOUTH INDIAN BANK,SIBL0000320,KECHERI,"KECHERI BRANCH, REGENT SHOPPING COMPLEX,(1ST FLOOR) ,MAIN ROAD , THRISSUR , KERALA, PIN-680501",TRISSUR,KECHERY,KERALA,242494
311,SOUTH INDIAN BANK,SIBL0000321,KASARGOD,"KMC/III/183-B-62, GOLDEN ARCADE COMPLEXP.B.#: 44, NEAR NEW MUNICIPAL BUS STAND, PINCODE:671121,KASARGOD",KASARAGOD,KASARAGOD,KERALA,220999
312,SOUTH INDIAN BANK,SIBL0000322,RANNI,"RANNI BRANCH, 11/391 ,PUTHENVEETIL BUILDING ,PAZHAVANGADI PO , PATHANAMTHITTA , KERALA, PIN-689673",KOTTAYAM,KOTTAYAM,KERALA,229544
313,SOUTH INDIAN BANK,SIBL0000323,UZHAVOOR,"UZHAVOOR BRANCH, VATTAKULATHIL BUILDING ,PALA- KOOTHATTUKULAM ROAD , UZHAVOOR , KOTTAYAM , KERALA, PIN-686634",KOTTAYAM,KOTTAYAM,KERALA,240577
314,SOUTH INDIAN BANK,SIBL0000324,KARUKACHAL,"DONO118-B-1, LARA TOWER, VAZHOOR ROAD, KARUKACHAL, KOTTAYAM, KERALA-686540",KOTTAYAM,KARUKACHAL,KERALA,2487028
315,SOUTH INDIAN BANK,SIBL0000325,THODUPUZHA,"DONO463,C3, WARD NOVII, KALARICKAL BAZAR, PALA ROAD, THODUPUZHA PO, IDUKKI DISTRICT, KERALA-685584",ERNAKULAM,KOCHI,KERALA,226902
316,SOUTH INDIAN BANK,SIBL0000326,TRIPRAYAR,"TRIPRAYAR BRANCH,SALMATH SHOPPING COMPLEX,IV/459,TEMPLE ROAD , THRISSUR , KERALA, PIN-680566",TRISSUR,TRIPRAYAR,KERALA,2392903
317,SOUTH INDIAN BANK,SIBL0000327,KARUR,"DOOR NO.9,, 80 FEET ROAD, P.B.#: 254, SENGUNTHAPURAM (PO), PINCODE:639002,KARUR, KARUR MUNICIPALITY,TAMIL NADU",KARUR,KARUR,TAMIL NADU,238542
318,SOUTH INDIAN BANK,SIBL0000328,CHANGARAMKULAM (NRI),"DONOXVI-1009, CITY MALL, THRISSUR ROAD, CHANGARAMKULAM, NANNAMKUNNU, MALAPPURAM, KERALA,  PIN CODE-679595",MALAPURAM,MALAPPURAM,KERALA,2650869
319,SOUTH INDIAN BANK,SIBL0000329,PERINTHALMANNA,"THARAYIL PLAZA, PATTAMBI ROAD, PERINTHALMANNA PO, MALAPPURAM, KERALA-679322",KOZHIKODE,CALICUT,KERALA,226645
320,SOUTH INDIAN BANK,SIBL0000330,ADOOR,"WARD NO24, VILANILAM EBENEZER COMPLEX, KP ROAD, KARUVATTA, ADOOR PO, PATHANAMTHITTA DISTRICT, KERALA-691523",PATHANAMTHITTA,ADOOR,KERALA,228670
321,SOUTH INDIAN BANK,SIBL0000331,ANGAMALY NORTH,"VARKEYS COMPLEX,NEAR KSRTC BUS STAND, ANGAMALY ,PINCODE: 683572",ERNAKULAM,ANGAMALY,KERALA,2454462
322,SOUTH INDIAN BANK,SIBL0000332,CHAVAKAD (NRI),"WARD NO 7, SHA SHOPPING MALL, CHETTUVA BYE PASS ROAD, OPP BUS STAND, CHAVAKKAD, THRISSUR, KERALA-680506",TRISSUR,CHAVAKKAD,KERALA,2509127
323,SOUTH INDIAN BANK,SIBL0000333,IRINJALAKUDA (NRI),"IRINJALAKUDA (NRI) BRANCH,XVIII/343 ,BLAZE COURT ,MAIN ROAD , THRISSUR , KERALA, PIN-680121",TRISSUR,IRINJALAKUDA,KERALA,2821760
324,SOUTH INDIAN BANK,SIBL0000334,THRISSUR ROAD BRANCH KUNNAMKULAM,"DOOR NO.510 A3, WARD NO.XIX, M.C.TOWERS , THRISSUR ROAD , KUNNAMKULAM",TRISSUR,KUNNAMKULAM,KERALA,224912
325,SOUTH INDIAN BANK,SIBL0000335,VAZHAKULAM,"VAZHAKULAM BRANCH, PULPARAMBIL SHOPPING COMPLEX ,VAZHAKULAM, ERNAKULAM, KERALA, PIN-686670",ERNAKULAM,VAZHAKULAM,KERALA,2260499
326,SOUTH INDIAN BANK,SIBL0000336,THIRUVANANTHAPURAM (NRI),"THIRUVANANTHAPURAM (NRI) BRANCH, NRI BRANCH ,MAR BASELIOUS BUILDING,(GROUND FLOOR), THIRUVANANTHAPURAM , KERALA, PIN-695039",TRIVANDRUM,THIRUVANANTHAPURAM,KERALA,2337635
327,SOUTH INDIAN BANK,SIBL0000337,PANDALAM,"PANDALAM BRANCH,DOOR NO. X/785,M C ROAD,PANDALAM, PATHANAMTHITTA , KERALA, PIN-689501",KOTTAYAM,KOTTAYAM,KERALA,253301
328,SOUTH INDIAN BANK,SIBL0000338,TIRUPUR OVERSEAS BRANCH,"TIRUPUR OVERSEAS BRANCH, KMA BUILDINGS,1-A ,EASWARAN KOIL STREET NORTH, COIMBATORE , TAMIL NADU, PIN-641604",COIMBOTORE,COIMBATORE,TAMIL NADU,2242434
329,SOUTH INDIAN BANK,SIBL0000340,M C ROAD CHANGANACHERRY,"474/XXXI, PB 30, KATTOOR BUILDING,S B COLLEGE JUNCTION,CHANGANACHERRY M.C.ROAD, CHANGANACHERRY,PINCODE: 686101",KOTTAYAM,CHANGANASSERY,KERALA,2410688
330,SOUTH INDIAN BANK,SIBL0000341,CHENGANNUR (NRI),"KIZHAKKETHALAKKAL BUILDING,OPP. ST. THOMAS CATHOLIC CHURCH ,CHENGANNUR, ALAPUZHA , KERALA, PIN-689121",ALAPUZZHA,CHENGANNUR,KERALA,2453998
331,SOUTH INDIAN BANK,SIBL0000342,MUVATTUPUZHA (NRI),"MUVATTUPUZHA (NRI) BRANCH,MADEPARAMBIL CHAMBERS ,(GROUND FLOOR),TB JUNCTION , ERNAKULAM, KERALA, PIN-686661",ERNAKULAM,MUVATTUPUZHA,KERALA,2835063
332,SOUTH INDIAN BANK,SIBL0000343,MUMBAI SERVICE BRANCH,"MUMBAI SERVICE BRANCH,EMCA BUILDING , 289, SB SINGH ROAD ,FORT, GREATER MUMBAI , MAHARASHTRA , PIN-400038",GREATER BOMBAY,MUMBAI,MAHARASHTRA,22611837
333,SOUTH INDIAN BANK,SIBL0000344,KOTTAYAM COLLECTORATE JN,"AMBALLOOR BUILDING,, K K ROAD COLLECTORATE P.O., KOTTAYAM PINCODE:686002 KOTTAYAM COLLECTORATE JN., KOTTAYAM MUNICIPALITY",KOTTAYAM,KOTTAYAM,KERALA,2569603
334,SOUTH INDIAN BANK,SIBL0000345,KOZHENCHERRY (NRI),"DONOXIII-677, WARD NO13, UTHRADOM TOWERS, KOZHENCHERRY PO, PATHANAMTHITTA DISTRICT, KERALA-689641",PATHANAMTHITTA,KOZHENCHERRY,KERALA,2213349
335,SOUTH INDIAN BANK,SIBL0000346,THRISSUR (NRI),"THRISSUR (NRI) BRANCH,ALKA BUILDING (1ST FLOOR) ,ROUND NORTH ,THRISSUR, THRISSUR , KERALA, PIN-680001",TRISSUR,THRISSUR,KERALA,2335940
336,SOUTH INDIAN BANK,SIBL0000347,KOZHIKODE MAVOOR ROAD,"5/3410 H4, GALLERIA TRADE CENTRE NEAR MARKAZ COMPLEX,MAVOOR ROAD, KOZHIKODE ,PINCODE: 673004",KOZHIKODE,CALICUT,KERALA,2720588
337,SOUTH INDIAN BANK,SIBL0000348,KOLENCHERRY,"DO NO 460 C, WARD NO4, JJ  ARCADE, NH 49 STREET, KOLENCHERY PO ERNAKULUM DISTRICT, KERALA-682311",ERNAKULAM,KOLENCHERRY,KERALA,2761190
338,SOUTH INDIAN BANK,SIBL0000349,UDUMALPET,"UDUMALPET BRANCH, SREE TOWERS, , 168/4,PALANI ROAD, ,P.O.GANDHI NAGAR, , COIMBATORE , TAMIL NADU, PIN-642154",COIMBOTORE,COIMBATORE,TAMIL NADU,231602
339,SOUTH INDIAN BANK,SIBL0000351,MALAPPURAM,"DONO14-243-A-A1-A2, WARD NO: 23, PARY SHOPPING COMPLEX, KOZHIKODE ROAD, DOWN HILL, MALAPPURAM, KERALA-676519",MALAPURAM,MALAPPURAM,KERALA,2737312
340,SOUTH INDIAN BANK,SIBL0000352,MUMBAI GOREGAON,"1-2-3, MILIND BHAVAN P.B.#: 8224, M.G.ROAD, PINCODE:400062 MUMBAI GOREGAON, GOREGAON WEST, M.G.ROAD,MAHARASHTRA, GREATER MUMBAI",GREATER BOMBAY,MUMBAI,MAHARASHTRA,28759595
341,SOUTH INDIAN BANK,SIBL0000353,MYLAPRA BRANCH,"SACRED HEART CHURCH BUILDING, PALLIPADI JUNCTION, MYLAPRA, PATHANAMTHITTA, KERALA-689671",PATHANAMTHITTA,MYLAPRA,KERALA,2223976
342,SOUTH INDIAN BANK,SIBL0000354,MUMBAI ANDHERI EAST,"SHOP NO.9, AMBIKA TOWERS, AGADI NAGAR,PUMP HOUSE,ANDHERI EAST,MUMBAI-400093",GREATER BOMBAY,MUMBAI,MAHARASHTRA,28257418
343,SOUTH INDIAN BANK,SIBL0000355,GHAZIABAD,"79, KALKAGARHI CHOWK, AMDEDKAR ROAD, GHAZIABAD, GHAZIABAD, UTTAR PRADESH-201001",GHAZIABAD,GHAZIABAD,UTTAR PRADESH,2792781
344,SOUTH INDIAN BANK,SIBL0000357,CHENNAI T. NAGAR,"CHENNAI T. NAGAR BRANCH, KENCEEY'S TOWERS ,NO. 1 ,RAMAKRISHNA ROAD, CHENNAI, TAMIL NADU, PIN-600017",CHENNAI,CHENNAI,TAMIL NADU,28143589
345,SOUTH INDIAN BANK,SIBL0000358,NEW DELHI CHITTARANJAN PARK,"DONOB-103, GROUND FLOOR, CHITTARANJAN PARK, NEW DELHI-110019",NEW DELHI,DELHI,DELHI,28533489
346,SOUTH INDIAN BANK,SIBL0000359,DELHI JANAKPURI,"DONOA-1-177, GROUND FLOOR, OPPOSITE METRO PILLAR NO 611, JANAKPURI, NEW DELHI-110058",NEW DELHI,DELHI,DELHI,25557592
347,SOUTH INDIAN BANK,SIBL0000360,MUMBAI MALAD,"MUMBAI MALAD BRANCH, EDELWEISS,UNIT NOS 101 & 102,PLOT NO. 25 , GREATER MUMBAI , MAHARASHTRA , PIN-400064",GREATER BOMBAY,MUMBAI,MAHARASHTRA,28014482
348,SOUTH INDIAN BANK,SIBL0000361,MUMBAI BORIVLI WEST,"SHOP 1-4, MEHTA APTS, NEAR BHAGWATI HOSPITAL, TULSI BAUG, S V P ROAD, BORIVALI WEST, MUMBAI, MAHARASHTRA-400103",GREATER BOMBAY,MUMBAI,MAHARASHTRA,28956908
349,SOUTH INDIAN BANK,SIBL0000363,THELLAKOM,"THELLAKOM BRANCH, IX/62,CARITHAS HOSPITAL COMPLEX ,THELLAKOM , KOTTAYAM , KERALA, PIN-686016",KOTTAYAM,KOTTAYAM,KERALA,2791587
350,SOUTH INDIAN BANK,SIBL0000364,MARGAO,"MARGAO BRANCH,CASA DOS ALIADOS,NEXT TO GOMANT VIDYA NIKETAN,ABADE FARIA ROAD, SOUTH-GOA, GOA , PIN-403601",SOUTH GOA,MARGAO,GOA,2704303
351,SOUTH INDIAN BANK,SIBL0000365,MUMBAI GHATKOPAR,"MUMBAI GHATKOPAR BRANCH, FLAT NO. 101 & 102 (1ST FLOOR) ,KANTA SMRUTI APTS ,KHARWADI, GREATER MUMBAI , MAHARASHTRA , PIN-400086",GREATER BOMBAY,MUMBAI,MAHARASHTRA,25136849
352,SOUTH INDIAN BANK,SIBL0000366,MUMBAI POWAI,"MUMBAI POWAI BRANCH, PLOT NO. 148 ,GROUND FLOOR,MUKALADIYIL , GREATER MUMBAI , MAHARASHTRA , PIN-400076",GREATER BOMBAY,MUMBAI,MAHARASHTRA,25778069
353,SOUTH INDIAN BANK,SIBL0000367,KUTTAPUZHA,"KUTTAPUZHA BRANCH, POOTHAKUZHY BUILDING , TIRUVALLA-MALLAPALLY ROAD, KUTTAPUZHA , PATHANAMTHITTA , KERALA, PIN-689111",PATHANAMTHITTA,THIRUVALLA,KERALA,2605780
354,SOUTH INDIAN BANK,SIBL0000368,THRISSUR EAST FORT,"THRISSUR EAST FORT BRANCH, ST. JOHN'S ARCADE, EASTERN ENDOF, IKKANDA WARRIERROAD EAST FORT, THRISSUR , KERALA, PIN-680005",TRISSUR,THRISSUR,KERALA,2420398
355,SOUTH INDIAN BANK,SIBL0000370,COIMBATORE GANAPATHY,"COIMBATORE GANAPATHY BRANCH, CMS MATRICULATION HSS COMPOUND ,SATHY ROAD,GANAPATHY , COIMBATORE , TAMIL NADU, PIN-641006",COIMBOTORE,COIMBATORE,TAMIL NADU,2530228
356,SOUTH INDIAN BANK,SIBL0000371,CHENGAROOR,"ST. GEORGE ORTHODOX CHURCH BUILDING,THIRUVALLA - MALLAPALLY ROAD,CHENGAROOR, PATHANAMTHITTA , KERALA, PIN-689594",KOTTAYAM,KOTTAYAM,KERALA,2688797
357,SOUTH INDIAN BANK,SIBL0000372,MUMBAI ANDHERI WEST,"MUMBAI ANDHERI WEST BRANCH, ASHIRWAD NO.1,DADABHAI ROAD , OFF.JP RD, NR NAVRANG, GREATER MUMBAI , MAHARASHTRA , PIN-400058",GREATER BOMBAY,MUMBAI,MAHARASHTRA,26235202
358,SOUTH INDIAN BANK,SIBL0000373,VENNIKULAM,"VI/274, VENNIKULAM P.B.#: NIL, VENNIKULAM, PINCODE:689544, PURAMATTOM,MALLAPPALLY, KOODATHINGAL BLDG.,KERALA, PATHANAMTHITTA",PATHANAMTHITTA,PATHANAMTHITTA,KERALA,2650395
359,SOUTH INDIAN BANK,SIBL0000374,VYTILLA,"VYTILLA BRANCH, THARAYIL COMPLEX ,TRIPUNITHARA ROAD ,VYTTILA , ERNAKULAM, KERALA, PIN-682019",ERNAKULAM,KOCHI,KERALA,2301531
360,SOUTH INDIAN BANK,SIBL0000375,MAPRANAM,"MAPRANAM BRANCH, OPP. LAL MEMORIAL HOSPITAL ,MAIN ROAD ,MAPRANAM, THRISSUR , KERALA, PIN-680712",TRISSUR,THRISSUR,KERALA,2821138
361,SOUTH INDIAN BANK,SIBL0000376,THRISSUR ROUND NORTH,"THRISSUR ROUND NORTH BRANCH, ROUND NORTH BRANCH ,ALKA BUILDING ,FIRST FLOOR , THRISSUR , KERALA, PIN-680001",TRISSUR,THRISSUR,KERALA,2320032
362,SOUTH INDIAN BANK,SIBL0000377,KONNI,"KONNI BRANCH, PANACHAKKAL TOWERS ,MAIN ROAD ,KONNI , PATHANAMTHITTA , KERALA, PIN-689691",PATHANAMTHITTA,KONNI,KERALA,2345909
363,SOUTH INDIAN BANK,SIBL0000378,GUNTUR,"DONO4-1-1, WARD NO3, GAYATHRI PLAZA, KORITEPADU MAIN ROAD, BESIDE HARIHARA MAHAL, CHANDRAMOULI NAGAR PO, GUNTUR, ANDHRA PRADESH ┬û 522007",GUNTUR,GUNTUR,ANDHRA PRADESH,2245655
364,SOUTH INDIAN BANK,SIBL0000379,THIRUVANANTHAPURAM KESAVADASAPURAM,"DONOTC 2-274, WARD NO2, VAZHVELI BUILDING, KESAVADASAPURAM-ULLOOR ROAD, KESAVADASAPURAM, PATTOM PO, THIRUVANANTHAPURAM, KERALA-695004",TRIVANDRUM,THIRUVANANTHAPURAM,KERALA,2551003
365,SOUTH INDIAN BANK,SIBL0000380,ELANTHUR,"DONO32A, WARD NOIII, MEMURIYIL PLAZA, NEDUVELI JUNCTION, ELANTHUR PO, PATHANAMTHITTA, KERALA-689643",PATHANAMTHITTA,ELANTHUR,KERALA,2362210
366,SOUTH INDIAN BANK,SIBL0000381,NELLORE,"DONO15-292-A, KVKTOWERS, BRUNDAVANAM, SPSRNELLORE, ANDHRA PRADESH-524001",NELLORE,NELLORE,ANDHRA PRADESH,2333553
367,SOUTH INDIAN BANK,SIBL0000382,EZHAMKULAM,"EZHAMKULAM BRANCH, EMSON COMPLEX,MP ROAD ,P.O PARAKODE, PATHANAMTHITTA , KERALA, PIN-691554",PATHANAMTHITTA,EZHAMKULAM,KERALA,444699
368,SOUTH INDIAN BANK,SIBL0000383,ARANMULA,"ARANMULA BRANCH, SRI KRISHNA LODGE BUILDINGS,IKKARA JUNCTION ,ARANMULA, PATHANAMTHITTA , KERALA, PIN-689533",PATHANAMTHITTA,ARANMULA,KERALA,2317485
369,SOUTH INDIAN BANK,SIBL0000384,KUMBANAD,"KUMBANAD BRANCH, PG ALEXANDER MEMORIAL,NURSING SCHOOL,KUMBANAD, PATHANAMTHITTA , KERALA, PIN-689547",PATHANAMTHITTA,PATHANAMTHITTA,KERALA,2665178
370,SOUTH INDIAN BANK,SIBL0000385,COIMBATORE TRICHY,"COIMBATORE TRICHY ROAD BRANCH, D NO. 1084 ,TRICHY ROAD ,SUNGAM, COIMBATORE , TAMIL NADU, PIN-641018",COIMBOTORE,COIMBATORE,TAMIL NADU,2300242
371,SOUTH INDIAN BANK,SIBL0000386,THUMPAMON,"THUMPAMON BRANCH, D NO. 171,CHURCH VIEW BUILDING,THUMPAMON JUNCTION, PATHANAMTHITTA , KERALA, PIN-689502",PATHANAMTHITTA,PATHANAMTHITTA,KERALA,267400
372,SOUTH INDIAN BANK,SIBL0000387,OMALLOOR,"DONO438 A, WARD NO13, GROUND FLOOR, MALANKARA CENTRE, NEAR DARSANA AUDITORIUM, ADOOR-PATHANAMTHITTA MAIN ROAD, OMALLOOR-KLA PO, PATHANAMTHITTA DISTRICT, KERALA-689647",PATHANAMTHITTA,OMALLOOR,KERALA,2231177
373,SOUTH INDIAN BANK,SIBL0000388,TRICHY CANTONMENT,"NO.1,1ST FLOOR, PAVALAM BLOCK,ST. PAUL'S SEMINARY COMPLEX , OPP.HPO,TRICHY CANTONMENT, TIRUCHIRAPALLI , TAMIL NADU, PIN-620001",TIRUCHIORAPPALLI,TIRUCHIRAPPALLI,TAMIL NADU,2464669
374,SOUTH INDIAN BANK,SIBL0000389,MUMBAI HILL ROAD,"MUMBAI HILL ROAD BRANCH, SAGAR ELEGANCE BUILDING,107/D ,HILL ROAD , GREATER MUMBAI , MAHARASHTRA , PIN-400050",GREATER BOMBAY,MUMBAI,MAHARASHTRA,26417057
375,SOUTH INDIAN BANK,SIBL0000390,PUTHANATHANI,"1ST FLOOR, AYAPILLY COMMERCIAL COMPLEX VALANCHERRY ROAD PUTHANATHANI PINCODE:676552,AYAPILLY COMMERCIAL COMPLEX,KERALA",MALAPURAM,MALAPPURAM,KERALA,2105162
376,SOUTH INDIAN BANK,SIBL0000391,EDAPPAL,"EDAPPAL BRANCH, D NO. 684/C-2,WARD NO. VIII ,CRESCENT PLAZA, MALAPPURAM , KERALA, PIN-679576",MALAPURAM,EDAPPAL,KERALA,2684280
377,SOUTH INDIAN BANK,SIBL0000393,CHEMMAD-TIRURANGADI,"CHEMMAD-TIRURANGADI BRANCH, D NO. C3A,ACM TOWERS,CHEMMAD - TIRURANGADI , MALAPPURAM , KERALA, PIN-676306",MALAPURAM,MALAPPURAM,KERALA,2466180
378,SOUTH INDIAN BANK,SIBL0000394,THEKKEMALA,"DOOR NO.341 C,THEKKEMALAYIL BLDG.,THEKKEMALA P.O., PINCODE:689654,KOZHENCHERRY, ELANTHUR,KERALA, PATHANAMTHITTA",PATHANAMTHITTA,KOZHENCHERRY,KERALA,2314037
379,SOUTH INDIAN BANK,SIBL0000395,THADIYOOR,"THADIYOOR BRANCH, PLACKATHARAYIL COMPLEX ,BANK JUNCTION ,TIRUVALLA - RANNI ROAD, PATHANAMTHITTA , KERALA, PIN-689545",PATHANAMTHITTA,PATHANAMTHITTA,KERALA,2655511
380,SOUTH INDIAN BANK,SIBL0000396,BANGALORE CHRIST COLLEGE,"CHRIST UNIVERSITY CAMPUS, HOSUR ROAD,DHARMARAM COLLEGE P.O PINCODE:560029,BANGALORE, BANGALORE METRO, HOSUR ROAD ,KARNATAKA",BANGALORE URBAN,BANGALORE,KARNATAKA,41116164
381,SOUTH INDIAN BANK,SIBL0000397,NEW DELHI VASANT KUNJ,"NEW DELHI VASANT KUNJ BRANCH, SHOP NO. 4 ,POCKET 8/9,SECTOR B, NEW DELHI DT , DELHI , PIN-110070",NEW DELHI,DELHI,DELHI,26138999
382,SOUTH INDIAN BANK,SIBL0000398,NEW DELHI DWARKA,"NEW DELHI DWARKA BRANCH, PLOT NO. 9 ,1ST FLOOR ,PANKAJ ARCADE , DELHI, DELHI , PIN-110045",NEW DELHI,DELHI,DELHI,25088244
383,SOUTH INDIAN BANK,SIBL0000399,BANGALORE INDIRA NAGAR,"1084, 12TH MAIN ROAD, INDIRANAGAR ,HAL 2ND STAGE PO PINCODE:560038,BANGALORE, BANGALORE METRO,KARNATAKA",BANGALORE URBAN,BANGALORE,KARNATAKA,25204284
384,SOUTH INDIAN BANK,SIBL0000400,THALIPARAMBA,"FIRST FLOOR, COMPASS POINT,  CHIRAVAKKU JUNCTION, TALIPARAMBA, KANNUR,KERALA-670141",KANNUR,TALIPARAMBA,KERALA,2200411
385,SOUTH INDIAN BANK,SIBL0000401,NEW DELHI VIKAS PURI,"DONO129, WARD NO : F BLOCK, VIKAS PURI, NEW DELHI-110018",NEW DELHI,DELHI,DELHI,28533489
386,SOUTH INDIAN BANK,SIBL0000402,PAYYANNUR,"PAYYANNUR BRANCH, 1ST FLOOR,D.NO. XXI/687A 27 TO 29 ,SEASON COMPLEX, KANNUR , KERALA, PIN-670307",KANNUR,PAYYANNUR,KERALA,203526
387,SOUTH INDIAN BANK,SIBL0000403,PANCHKULA,"PANCHKULA BRANCH, SCO - 284,SECTOR - 20 ,PANCHKULA , PANCHKULA, HARYANA , PIN-134112",PANCHKULA,PANCHKULA,HARYANA,2551443
388,SOUTH INDIAN BANK,SIBL0000404,CHANDIGARH,"CHANDIGARH BRANCH, SCO-2475-76,GROUND FLOOR,SECTOR - 22 C , CHANDIGARH , CHANDIGARH, PIN-160022",CHANDIGARH,CHANDIGARH,CHANDIGARH,2727728
389,SOUTH INDIAN BANK,SIBL0000405,PASCHIM VIHAR,"NEW DELHI PASCHIM VIHAR BRANCH, 14/476 ,SUNDER VIHAR,PASCHIM VIHAR , DELHI-110 087, DELHI , PIN-110087",NEW DELHI,DELHI,DELHI,25257251
390,SOUTH INDIAN BANK,SIBL0000406,KOTTAKKAL,"KPM TOWERS, NEAR BUS STAND, MAIN ROAD, KOTTAKKAL, MALAPPURAM, KERALA, PIN CODE-676503",MALAPURAM,KOTTAKKAL,KERALA,2102810
391,SOUTH INDIAN BANK,SIBL0000407,POONAMALLEE,"POONAMALLEE BRANCH, 70, IDAYAM COMPLEX ,TRUNK ROAD,KARAYAN CHAVADI , CHENNAI, TAMIL NADU, PIN-600056",CHENNAI,CHENNAI,TAMIL NADU,26494165
392,SOUTH INDIAN BANK,SIBL0000408,GURUVAYUR,"GURUVAYUR BRANCH, GROUND FLOOR , R.V TRADE CENTRE , EAST NADA, THRISSUR , KERALA, PIN-680101",TRISSUR,GURUVAYUR,KERALA,3290750
393,SOUTH INDIAN BANK,SIBL0000409,MUMBAI VASHI,"MUMBAI VASHI BRANCH, DR. BABASAHEB AMBEDKAR SANKUL,PLOT NO. 62 A ,SECTOR - 29 , NAVI MUMBAI, MAHARASHTRA , PIN-400703",GREATER BOMBAY,MUMBAI,MAHARASHTRA,27881082
394,SOUTH INDIAN BANK,SIBL0000410,NEW DELHI PATPARGANJ,"SHOP NO- 19   20, DDA MARKET, NR ST ANDREWS SCOTT SCHOOL, CSC NO-1, ZONE E 13, PATPARGANJ, DELHI-110092",NEW DELHI,DELHI,DELHI,22012329
395,SOUTH INDIAN BANK,SIBL0000411,LUDHIANA,"218,OM SHANTI COMPLEX,INDUSTRIAL AREA A,CHEEMA CHOWK, LUDHIANA 141003",LUDHIANA,LUDHIANA,PUNJAB,2406032
396,SOUTH INDIAN BANK,SIBL0000412,KOZHIKODE S.M STREET,"1ST FLOOR, HAPPY TOWERS, VAIKOM MOHAMMED BASHEER ROAD, MANANCHIRA, KOZHIKODE, KERALA-673001",KOZHIKODE,CALICUT,KERALA,2722247
397,SOUTH INDIAN BANK,SIBL0000413,SECUNDERABAD DIAMOND POINT,"GROUND FLOOR, 157/6, CHAI COMPLEX STAFF ROAD, SIKH VILLAGE PINCODE:500009 SECONDERABAD DIAMOND POINT,RANGA REDDY ,ANDHRA PRADESH",HYDERABAD URBAN,HYDERABAD,ANDHRA PRADESH,27897747
398,SOUTH INDIAN BANK,SIBL0000414,VIJAYAWADA NIRMALA CONVENT ROAD,"NEAR JAMMICHETTU CENTRE,KRISHN P.B.#:., PO MOGALRAJAPURAM, PINCODE:520010,VIJAYAWADA NIRMALA CONVENT RD., ANDHRA PRADESH, KRISHNA",KRISHNA,VIJAYAWADA,ANDHRA PRADESH,2493045
399,SOUTH INDIAN BANK,SIBL0000415,MYSORE N.R. MOHALLA,"MYSORE N.R. MOHALLA BRANCH, CARMEL ARCADE,SHIVAJI ROAD,MYSORE, MYSORE , KARNATAKA , PIN-570007",MYSORE,MYSORE,KARNATAKA,2456344
400,SOUTH INDIAN BANK,SIBL0000416,BANGALORE KORMANGLA,"BANGALORE KORMANGLA BRANCH, SEVASADAN TRAINING INSTITUTE ,3RD BLOCK ,8TH MAIN ROAD , BANGALORE, KARNATAKA , PIN-560034",BANGALORE URBAN,BANGALORE,KARNATAKA,25535396
401,SOUTH INDIAN BANK,SIBL0000417,TOCH ERNAKULAM,"DONO364 B, WARD NO52, TALBOT CENTRE, TOC-H SCHOOL ROAD, VYTTILA PO, ERNAKULAM DISTRICT, KERALA-682019",ERNAKULAM,KOCHI,KERALA,2303126
402,SOUTH INDIAN BANK,SIBL0000418,ERNAKULAM LOURDES HOSPITAL,"ERNAKULAM LOURDES HOSPITAL BRANCH, 45/447 ,VADUTHALA ROAD,PACHALAM, ERNAKULAM, KERALA, PIN-682012",ERNAKULAM,KOCHI,KERALA,2393184
403,SOUTH INDIAN BANK,SIBL0000419,GURGAON,"GURGAON BRANCH, SCO NO.97,SECTOR - 31 ,GURGAON , HARYANA , PIN-122001",GURGAON,GURGAON,HARYANA,2382173
404,SOUTH INDIAN BANK,SIBL0000420,NEWDELHI NIRMAN VIHAR,"DELHI NIRMAN VIHAR BRANCH, PARMESH COMPLEX,1ST FLOOR ,PLOT NO.1 , DELHI , PIN-110092",NEW DELHI,DELHI,DELHI,22464816
405,SOUTH INDIAN BANK,SIBL0000421,NEWDELHI SAINIK VIHAR,"DELHI SAINIK VIHAR BRANCH, ANAND PLAZA,1ST FLOOR,PLOT NO. 2,LSC,SAINIK VIHAR, PITAMPURA , DELHI , PIN-110034",NEW DELHI,DELHI,DELHI,27028669
406,SOUTH INDIAN BANK,SIBL0000422,MANDIRAM,"DONO13-274,BLOCK PADI-MANDIRAM,RANNI SO,PATHANAMTHITTA,KERALA-689672",PATHANAMTHITTA,PATHANAMTHITTA,KERALA,2227015
407,SOUTH INDIAN BANK,SIBL0000423,ERNAKULAM VENNALA,"DONO34-585C2, C4, WARD NO 41, KRISHNA TOWERS, CIVIL LINE ROAD, PADIVATTOM, EDAPALLY PO, ERNAKULAM, KERALA-682024",ERNAKULAM,KOCHI,KERALA,2806756
408,SOUTH INDIAN BANK,SIBL0000424,DELHI RAJOURI GARDEN,"DELHI RAJOURI GARDEN BRANCH, E-6,RAJOURI GARDEN ,NEW DELHI ,, DELHI , PIN-110027",NEW DELHI,DELHI,DELHI,25115562
409,SOUTH INDIAN BANK,SIBL0000425,JALANDHAR,"JALANDHAR BRANCH, PLOT NO:28,PRIME TOWER , OPP ;NARINDER CINEMA , G.T.ROAD, JALANDHAR DIST:, JALANDHAR, PUNJAB, PIN-141001",JALANDHAR,JALANDHAR,PUNJAB,2240072
410,SOUTH INDIAN BANK,SIBL0000426,TIRUR- MALAPURAM,"DONO7-612 EEEPEES TOWER NEAR BUS STAND TIRUR, MALAPPURAM, KERALA-676101",MALAPURAM,TIRUR,KERALA,2430439
411,SOUTH INDIAN BANK,SIBL0000427,PAYANGADI,"PAYANGADI BRANCH, DOOR NO: XI/585 A, , BUS STAND ROAD, PAYANGADI, KERALA STATE , KERALA, PIN-670358",KANNUR,CANNUR,KERALA,2875890
412,SOUTH INDIAN BANK,SIBL0000428,THAMARASSERY,"THAMARASSERY BRANCH, DOOR NO:T.P.7/396 K, , MATHA TOWERS , KOZHIKODE-WAYNAD ROAD, , KOZHIKODE DIST: KERALA , KERALA, PIN-673573",KOZHIKODE,TAMARASSERY,KERALA,2222550
413,SOUTH INDIAN BANK,SIBL0000429,JAIPUR,"JAIPUR BRANCH, SHOP NO:103&106, APEX MALL, LAL KOTHI ,TONK ROAD , RAJASTHAN, RAJASTHAN , PIN-",JAIPUR,JAIPUR,RAJASTHAN,2740732
414,SOUTH INDIAN BANK,SIBL0000430,NOIDA,"NOIDA BRANCH, G-75B,GROUND FLOOR , , PARSVNATH PLAZA, SECTOR-27 , NOIDA,GOUTHAM BUDDH NAGAR DIST:, UTTAR PRADESH , PIN-201301",GAUTAM BODDA NAGAR,NOIDA,UTTAR PRADESH,2440440
415,SOUTH INDIAN BANK,SIBL0000431,NEWDELHI SERVICE BRANCH,"DELHI SERVICE BRANCH, 22,REGAL BUILDING, CONNAUGHT PLACE, NEW DELHI, DELHI , PIN-110001",NEW DELHI,DELHI,DELHI,65662692
416,SOUTH INDIAN BANK,SIBL0000432,NAGPUR,"NAGPUR BRANCH, JAI BHARAT TOWERS, OLD PARADI NAKO, BHANDARAM ROAD , MAHARASHTRA , PIN-440008",NAGPUR,NAGPUR,MAHARASHTRA,2682072
417,SOUTH INDIAN BANK,SIBL0000433,RAIPUR,"RAIPUR BRANCH, AJIT TOWERS, RAMSAGARPARA , NEAR SINDHI SCHOOL,, CHHATTISGARH, PIN-492001",RAIPUR,RAIPUR,CHHATTISGARH,2293171
418,SOUTH INDIAN BANK,SIBL0000434,NEWDELHI MAYUR VIHAR,"DELHI MAYUR VIHAR BRANCH, GROUND FLOOR, PANKAJ GRAND PLAZA, CSC,MAYUR VIHAR PHASE 1, NEW DELHI, DELHI , PIN-110091",NEW DELHI,DELHI,DELHI,22753982
419,SOUTH INDIAN BANK,SIBL0000435,CHEROOR,"CHEROOR BRANCH, CHEROOR, ENGINEERING COLLEGE P.O. , TRICHUR, KERALA, PIN-680009",TRISSUR,CHERUR,KERALA,2320324
420,SOUTH INDIAN BANK,SIBL0000436,PUTHENPEEDIKA,"PUTHENPEEDIKA BRANCH, ST: ANTONYS SHOPPING COMPLEX , PUTHENPEEDIKA, TRICHUR DIST:, KERALA,",TRISSUR,PUTHENPEEDIKA,KERALA,2272312
421,SOUTH INDIAN BANK,SIBL0000437,ERAVU,"DOOR NO.XV/275 A, PANDENS PLAZA,, THRISSUR - KANJANY ROAD ,ERAVU P.O., PINCODE:680620,NEAR SHIP CHURCH, PARAKKAD,THRISSUR,KERALA",TRISSUR,THRISSUR,KERALA,2311968
422,SOUTH INDIAN BANK,SIBL0000438,PALLIKUNNU,"DONO1-754 ASSUMPTION CHURCH BUILDING PALLIKUNNU, VARANDARAPILLY PO, THRISSUR, KERALA-680303",TRISSUR,VARANDRAPALLY,KERALA,2760324
423,SOUTH INDIAN BANK,SIBL0000439,KADAVANTRA,"MUSCUT TOWERS, SAROAD, KADAVANTHARA KOCHI, ERNAKULAM, KERALA-682020",ERNAKULAM,KOCHI,KERALA,2323566
424,SOUTH INDIAN BANK,SIBL0000440,COIMBATORE BIG BAZAR STREET,"COIMBATORE BIG BAZAR STREET BRANCH, BIG BAZAR STREET , COIMBATORE , TAMIL NADU , TAMIL NADU, PIN-641001",COIMBOTORE,COIMBATORE,TAMIL NADU,2398081
425,SOUTH INDIAN BANK,SIBL0000441,AMIRITSAR,"AMRITSAR BRANCH, PLOT NO:26, KENNEDY AVENUE , COURT ROAD , PUNJAB , PUNJAB, PIN-143001",AMRITSAR,AMRITSAR,PUNJAB,2221770
426,SOUTH INDIAN BANK,SIBL0000442,INDORE,"INDORE BRANCH, FF 27,28,OPP MANGAL MARILAND GARDENS, SCHEME NO:54,VIJAYANAGAR, INDORE, MADHYA PRADESH, PIN - 143001",INDORE,INDORE,MADHYA PRADESH,2552724
427,SOUTH INDIAN BANK,SIBL0000443,BHOPAL,"PLOT NO25, SECTOR A, RAISEN ROAD, INDRAPURI, NEAR TVS SHOWROOM, BHEL PO, BHOPAL DISTRICT, MADHYA PRADESH-462022",BHOPAL,BHOPAL,MADHYA PRADESH,2751006
428,SOUTH INDIAN BANK,SIBL0000444,LUCKNOW,"UPPER GROUND FLOOR, FIPLAZA, NR SAI BABA MANDIR, BADA CHANGANJ, ALIGANJ, LUCKNOW, UTTAR PRADESH-226024",LUCKNOW,LUCKNOW,UTTAR PRADESH,2327332
429,SOUTH INDIAN BANK,SIBL0000445,CONVENT SQUARE ALAPPUZHA,"CONVENT SQUARE ALAPPUZHA BRANCH, CONVENT SQUARE, ALAPUZHA, KERALA, PIN - 688001",ALAPUZZHA,ALAPPUZHA,KERALA,2245214
430,SOUTH INDIAN BANK,SIBL0000446,AYROOR,"AYROOR BRANCH, ST.THOMAS HIGH SCHOOL, AYIROOR, ERNAKULAM, KERALA,",ERNAKULAM,AIROOR,KERALA,2478318
431,SOUTH INDIAN BANK,SIBL0000447,THAMMANAM,"DOOR NO32/260 A4 WARD NO 43 BAVA COMPLEX, MAHAKAVI VYLOPPILLY ROAD , THAMMANAM, PINCODE:682032,ERNAKULAM, EDAPALLY SOUTH,KERALA",ERNAKULAM,KOCHI,KERALA,2338071
432,SOUTH INDIAN BANK,SIBL0000448,VELI-COCHIN,"JUBILEE BUILDING, VELI FORT KOCHI, ERNAKULAM, KERALA-682001",ERNAKULAM,KOCHI,KERALA,2228242
433,SOUTH INDIAN BANK,SIBL0000449,KOOTHUPARAMBA,"DONO4-758, BALRAM ARCADE, THALASSERY ROAD, KUTHUPARAMBA PO, KANNUR, KERALA-670643",KANNUR,KUTHUPARAMBA,KERALA,2365327
434,SOUTH INDIAN BANK,SIBL0000450,MUNDAKKAL-KOLLAM,"MC.VIII/1571/569C, NOORJI COMMERCIAL COMPLEX, S.N.COLLEGE JUNCTION ,PATTATHANAM PINCODE:691001 , KOLLOM MUNCIPALITY, KOLLAM,KERALA",KOLLAM,KOLLAM,KERALA,2740874
435,SOUTH INDIAN BANK,SIBL0000451,KOTTIYAM,"DONOAP-XI-926 EAKCOMPLEX KOTTIYAM, KOLLAM, KERALA-691571",KOLLAM,KOTTIYAM,KERALA,2532531
436,SOUTH INDIAN BANK,SIBL0000452,CHETHIPUZHA,"MOZHIKADU BUILDING, KURISUMMOODU PO, KOTTAYAM DISTRICT, KERALA-686104",KOTTAYAM,CHANGANASSERY,KERALA,2723798
437,SOUTH INDIAN BANK,SIBL0000453,ARUNAPURAM,"268/1, 268/2 ,PALA-KOTTAYAM HIGHWAY PINCODE:686574 ,ARUNAPURAM, PULIYANNOOR VILLAGE,KERALA,",KOTTAYAM,PALAI,KERALA,2212545
438,SOUTH INDIAN BANK,SIBL0000454,MALLASSERY,"DONO162, WARD NOXVIII, MALANKARA CATHOLIC CHURCH BUILDING AVE MARIA COMPLEX, POONKAVU, MALLASSERY PO, PATHANAMTHITTA DISTRICT, KERALA-689646",PATHANAMTHITTA,PATHANAMTHITTA,KERALA,2335774
439,SOUTH INDIAN BANK,SIBL0000455,NEDUNGADAPPALLY,"KOCHIKUZHIYIL BUILDINGS NEDUNGADAPPALLY, KOTTAYAM DIST: KERALA PINCODE:686545,NEDUNGADAPALLY,KERALA, PATHANAMTHITTA",PATHANAMTHITTA,PATHANAMTHITTA,KERALA,2487038
440,SOUTH INDIAN BANK,SIBL0000456,MUTHOOR,"KACKANATTU SQUARE TBJUNCTION MUTHOOR, TIRUVALLA PATHANAMTHITTA, KERALA-689107",PATHANAMTHITTA,THIRUVALLA,KERALA,2601566
441,SOUTH INDIAN BANK,SIBL0000457,CHENGALPATTU,"DOOR NO. 1, WARD NO 1, TB ROAD, KRISHNA COMPLEX- GROUND FLOOR ,OPP. TO ST:JOSEPHS CATHEDRAL PINCODE:603002,CHENGALPATTU,",KANCHEEPURAM,CHENGALPATTU,TAMIL NADU,27424970
442,SOUTH INDIAN BANK,SIBL0000458,PERUNDURAI,"NO.104/1, J.PTOWERS ,OLD BUS STAND ROAD PINCODE:638052 ,PERUNDURAI, PERUNGUDI VILLAGE,ERODE DIST, OLD BUS STAND ROAD ,TAMIL NADU, ERODE",ERODE,PERUNDURAI,TAMIL NADU,224933
443,SOUTH INDIAN BANK,SIBL0000459,LILUAH-HOWRAH,"LILUAH-HOWRAH BRANCH, 136/136A, GIRISH GHOSH ROAD, DON BOSCO, LILUAH, HOWRAH, WEST BENGAL, PIN - 711204",HOWRAH,HOWRAH,WEST BENGAL,26553953
444,SOUTH INDIAN BANK,SIBL0000460,BHUBANESWAR,"PLOT NO9-16, ARCH BISHOP HOUSE, OPPOSITE TO BIG BAZAR, SATYANAGAR PO, KHURDA DISTRICT, ODISHA-751007",KHURDA,BHUBANESWAR,ODISHA,2571710
445,SOUTH INDIAN BANK,SIBL0000461,THIRUVAMPADY,"THIRUVAMPADY BRANCH, HIGH SCHOOL ROAD, NEAR BUS STAND, THIRUVAMPADY, KOZHIKODE, 673603",KOZHIKODE,THIRUVAMBADY,KERALA,2254321
446,SOUTH INDIAN BANK,SIBL0000462,AMALA NAGAR (THRISSUR),"TRICHUR-KUNNAMKULAM ROAD, AMALA NAGAR (P.O) TRICHUR TRICHUR DIST: KERALA PINCODE:680555, PUZHAKKAL VILLAGE OFFICE",TRISSUR,THRISSUR,KERALA,2307030
447,SOUTH INDIAN BANK,SIBL0000463,IRINJALAKUDA CHRIST NAGAR,"VI/950-B, CHRIST NAGAR, AKP JN ,IRINJALAKUDA NORTH PINCODE:680125 ,IRINJALAKUDA CHRIST NAGAR, IRINJALAKUDA MUNICIPALITY,TRICHUR DIST: KERALA",TRISSUR,IRINJALAKUDA,KERALA,2822236
448,SOUTH INDIAN BANK,SIBL0000464,KURAVILANGAD,"KURAVILANGAD, MARUTHANAL BLDGS,OPP PRIVATE BUS STAND, M C ROAD,KURAVILANGAD P.O, KOTTAYAM, KERALA",KOTTAYAM,KURAVILANGAD,KERALA,2233033
449,SOUTH INDIAN BANK,SIBL0000465,NERUL,"PLOT NO 31,SECT 25, NERUL,NAVI-MUMBAI, MAHARASHTRA, 400706",GREATER BOMBAY,MUMBAI,MAHARASHTRA,27723070
450,SOUTH INDIAN BANK,SIBL0000466,RAJKOT,"G-4A, SOLITAIRE BUILDING, AMIN MARG JUNCTION 150 FT RING ROAD, RAJKOT, GUJARAT ┬û 360005",RAJKOT,RAJKOT,GUJARAT,2573243
451,SOUTH INDIAN BANK,SIBL0000467,KALYAN,"KALYAN BRANCH, 5, 6, 7 & 8, 'VIJAYANT', SAWANT COMPLEX,KARNIK ROAD, OPP. ELITE CLASSES, KALYAN (W),THANE, MAHARASHTRA, 421034",THANE,KALYAN,MAHARASHTRA,2314824
452,SOUTH INDIAN BANK,SIBL0000469,VAKATHANAM,"PARAYIL BUILDING NJALIAKUZHI JUNCTION, NJALIAKUZHY-THENGANAL ROAD P.O. VAKATHANAM PINCODE:686538,VAKATHANAM,KOTTAYAM DIST,",KOTTAYAM,VAKATHANAM,KERALA,2465242
453,SOUTH INDIAN BANK,SIBL0000470,JAMMU,"JAMMU BRANCH, HOUSE NO 91 A, GOLE MARKET GANDHI NAGAR, JAMMU, JAMMU & KASHMIR, 180004",JAMMU,JAMMU,JAMMU AND KASHMIR,2432867
454,SOUTH INDIAN BANK,SIBL0000471,DEHRADUN,"DEHRADUN BRANCH, 105,LAXMI CHAMBERS,OPP HOTEL MEDOW, 69,RAJPUR ROAD, DEHRA DUN, UTTARAKHAND, 248001",DEHRADUN,DEHRADUN,UTTARAKHAND,2741122
455,SOUTH INDIAN BANK,SIBL0000472,KOLKATA-SALT LAKE,"AD-54,SECTOR 1,SALT LAKE,KOLKATA,WEST BENGAL",KOLKATA,KOLKATA,WEST BENGAL,23345159
456,SOUTH INDIAN BANK,SIBL0000473,GUWAHATI,"FIRST FLOOR, PEACE CENTRE, GNB ROAD, AMBARI, KAMRUP METROPOLITAN, ASSAM ┬û 781001",KAMRUP,KAMRUP,ASSAM,2733191
457,SOUTH INDIAN BANK,SIBL0000474,RANCHI,"SRIRAM GARDENS,KANKE ROAD,RANCHI,JHARKHAND",RANCHI,RANCHI,JHARKHAND,2232893
458,SOUTH INDIAN BANK,SIBL0000475,MADURAI - WEST,"ST JOSEPHS SHP CPLX,AA RD,GNANAVOLIVAPURAM, MADURAI, TAMILNADU",MADURAI,MADURAI,TAMIL NADU,2362858
459,SOUTH INDIAN BANK,SIBL0000476,KONDOTTY,"KP/3/1093-B,BYPASS ROAD, KONDOTTY, MALAPPURAM, KERALA",MALAPURAM,KUNDOTTY,KERALA,2710150
460,SOUTH INDIAN BANK,SIBL0000477,PARAPPANANGADI,"PP/XI/1493-H,KADALUNDI RD,PARAPPANANGADI, MALAPPURAM, KERALA",MALAPURAM,PARAPPANANGADI,KERALA,2415488
461,SOUTH INDIAN BANK,SIBL0000478,CHELARI,"1ST FLOOR,KAITHON CMPX, CHELARI,THENHIPALAM, MALAPPURAM, KERALA",MALAPURAM,TENJIPALAM,KERALA,2402333
462,SOUTH INDIAN BANK,SIBL0000479,AREACODE,"AP/111/333A,CK BLDG, MUKKAM RD,AREACODE, MALAPPURAM, KERALA",MALAPURAM,AREACODE,KERALA,2853322
463,SOUTH INDIAN BANK,SIBL0000480,MARTHANDAM,"OPP. GOVT. GIRLS HSS, VETTUVENNI ,VII/32, MAIN ROAD (NH-47) PINCODE:629165 ,MARTHANDAM, VILAVANCODE,TAMIL NADU, KANYAKUMARI",KANNIYAKUMARI,KANYAKUMARI,TAMIL NADU,205424
464,SOUTH INDIAN BANK,SIBL0000481,PATHANAPURAM,"DONO796, WARD NO17, PMROAD, NEDUMPARAMBU JUNCTION, PATHANAPURAM PO, KOLLAM, KERALA-689695",KOLLAM,PATHANAPURAM,KERALA,2352131
465,SOUTH INDIAN BANK,SIBL0000482,ANCHAL,"NEAR ST:JOHNS SCHOOL COLLEGE JUNCTION, ANCHAL, KOLLAM DIST; KERALA PINCODE:691306 , COLLEGE JUNCTION ,KERALA",KOLLAM,KOLLAM,KERALA,2270330
466,SOUTH INDIAN BANK,SIBL0000483,NALANCHIRA,"MAR IVANIOS STAFF QUARTERS BLDG BETHENY HILLS, NALANCHIRA, THIRUVANANTHAPURAM, KERALA-695015",TRIVANDRUM,THIRUVANANTHAPURAM,KERALA,2544524
467,SOUTH INDIAN BANK,SIBL0000484,EDAPALLY,"DONO1623, WARD NO 34, NH47, EDAPALLY PO, ERNAKULAM, KERALA-682024",ERNAKULAM,ERNAKULAM,KERALA,2334633
468,SOUTH INDIAN BANK,SIBL0000485,ERNAKULAM NORTH,"CHITTOOR ROAD, OPP POLICE STATION, ERNAKULAM NORTH, KOCHI, KERALA-682018",ERNAKULAM,KOCHI,KERALA,2395357
469,SOUTH INDIAN BANK,SIBL0000486,BANGALORE-KOTHANUR,"DOOR NO.4-41/3, HENNUR MAIN ROAD ,GEDDALAHALLY PINCODE:560077,BANGALORE, BANGALORE METRO,KOTHANNUR P.O.,KARNATAKA",BANGALORE URBAN,BANGALORE,KARNATAKA,28465884
470,SOUTH INDIAN BANK,SIBL0000487,BIDADI,"IKON COLLEGE PREMISES, B M ROAD,BIDADI, BANGALORE, KARNATAKA",BANGALORE RURAL,BIDADI,KARNATAKA,27204296
471,SOUTH INDIAN BANK,SIBL0000488,KOORKENCHERY,"DO NO1-375-36, WARD NO 1, GROUND FLOOR, CITY GATE BUILDING, MAIN ROAD, KOORKENCHERY- 680007",TRISSUR,THRISSUR,KERALA,2429432
472,SOUTH INDIAN BANK,SIBL0000489,ODDANCHATHRAM,"CHRISTIAN MATRICULATION HS BLDG DINDIGUL-PALANI MAIN ROAD, ODDANCHATRAM, DINDIGUL, TAMIL NADU-624619",DINDIGUL,DINDIGUL,TAMIL NADU,243867
473,SOUTH INDIAN BANK,SIBL0000490,CHENGALOOR,"DOOR NO.2/588/B, MOUNT CARMEL CHURCH BULDG. PUDUKKAD-MUPLIYAM ROAD PINCODE:680312,CHENGALOOR, KERALA, THRISSUR",TRISSUR,THRISSUR,KERALA,2760989
474,SOUTH INDIAN BANK,SIBL0000491,BANGALORE-MARTHAHALLY,"NO.9, 2ND CROSS ROAD, LAKSHMI LAYOUT, MUNNEKOLALA MAIN ROAD VIJAYA PARVATHI COMPLEX PINCODE:560037,BANGALORE, BANGALORE METRO,MARATHAHALLY",BANGALORE URBAN,BANGALORE,KARNATAKA,25228687
475,SOUTH INDIAN BANK,SIBL0000492,BANGALORE-ELECTRONIC CITY,"S.F.S SCHOOL CAMPUS, HUSKUR GATE ,ELECTRONIC CITY PINCODE:560100,BANGALORE, BANGALORE METROHEBBAGODI,KARNATAKA",BANGALORE URBAN,BANGALORE,KARNATAKA,27834600
476,SOUTH INDIAN BANK,SIBL0000493,MYSORE JAYALAKHSHMIPURAM,"ST JOSEPHS INSTITUTION,CMPLX,JAYALAKSHMIPURAM,MYSORE,KARNATAKA",MYSORE,MYSORE,KARNATAKA,2510284
477,SOUTH INDIAN BANK,SIBL0000494,MANGALORE-LADY HILL,"1ST FLOOR, KRISHNA TOWERS,KULUR FERRY ROAD, LADY HILL,CHILIMBI, MANGALORE 575006.",DAKSHINA KANNADA,DAKSHIN KANNAD,KARNATAKA,2645733
478,SOUTH INDIAN BANK,SIBL0000495,KOYAMBEDU,"DOOR NO.1, WARD 65, M.M.TOWERS ,V.V.KOIL STREET PINCODE:600044,KOYAMBEDU, CHINMAYA NAGAR STAGE I, CHINMAYA NAGAR(P.O.),TAMIL NADU, CHENNAI",CHENNAI,CHENNAI,TAMIL NADU,24796486
479,SOUTH INDIAN BANK,SIBL0000496,EDAKKARA,"EP/952, JHI GROUND FLOOR,ROYAL ARCADE ,EDAKKARA",MALAPURAM,MALAPPURAM,KERALA,276600
480,SOUTH INDIAN BANK,SIBL0000497,SREEKARYAM,"BROTHERS TOWER, KALLAMPALLY JUNCTION , SREEKARYAM",TRIVANDRUM,THIRUVANANTHAPURAM,KERALA,2446931
481,SOUTH INDIAN BANK,SIBL0000498,NAGAMPADAM,"DOOR NO.408/C-1, WARD NO. XVI,, KIZHAKETHIL ARCADE, M.C ROAD, NEAR NAGAMPADAM BRIDGE PINCODE:686001,NAGAMPADAM, KOTTAYAM,KERALA",KOTTAYAM,KOTTAYAM,KERALA,2582266
482,SOUTH INDIAN BANK,SIBL0000499,BIBWEWADI,"GROUND FLOOR, TODKAR GARDEN,BIBWEWADI-KONDHWA ROAD, BIBWEWADI",PUNE,PUNE,MAHARASHTRA,24268082
483,SOUTH INDIAN BANK,SIBL0000500,EDAVANNA,"PARARI COMPLEX,CENTRAL BAZAR,EDAVANNA",MALAPURAM,MALAPPURAM,KERALA,2703300
484,SOUTH INDIAN BANK,SIBL0000501,VENGARA,"VALAPPIL TOWER, MAIN ROAD, THAZHE ANGADI,VEGARA P.O",MALAPURAM,MALAPPURAM,KERALA,2459666
485,SOUTH INDIAN BANK,SIBL0000502,KARUVARAKUNDU,"HOLY FAMILY CHURCH BUILDING, NILUMBUR,PEURMBILAB, STATE HIGHWAY, KARUVARAKUNDU",MALAPURAM,MALAPPURAM,KERALA,282282
486,SOUTH INDIAN BANK,SIBL0000503,SASTHAMANGALAM,"DONOTCNO29-8681, GROUND FLOOR, WARD NO29, SITA TOWER, AALTHARA JUNCTION, SASTHAMANGALAM PO, THIRUVANANTHAPURAM DISTRICT, KERALA-695010",TRIVANDRUM,THIRUVANANTHAPURAM,KERALA,2311606
487,SOUTH INDIAN BANK,SIBL0000504,UDAIPUR,"NO 1, I-ROAD, SHIKARPUR COLONY,BEHIND COLLECTOR BUNGLOW, BHUPALPURA",UDAIPUR,UDAIPUR,RAJASTHAN,2416175
488,SOUTH INDIAN BANK,SIBL0000505,NEW DELHI-VIVEK VIHAR,"DOOR NO. D-215 , VIVEK VIHAR  , DELHI",NEW DELHI,DELHI,DELHI,22165020
489,SOUTH INDIAN BANK,SIBL0000506,NASIK,"PLOT NO. 47, ANAND RUPA APARTMENT,MAHATMA NAGAR ROAD, PARIJAT NAGAR",NASHIK,NASIK,MAHARASHTRA,2351198
490,SOUTH INDIAN BANK,SIBL0000507,AMEERPET,"8-3-24/22/S GROUND FLOOR,SAI SURYA TATA TOWER ,SREENIVASA COLONY(WEST), AMEERPET",HYDERABAD URBAN,HYDERABAD,ANDHRA PRADESH,23754064
491,SOUTH INDIAN BANK,SIBL0000508,HYDERABAD - A S RAO NAGAR,"H NO.1-12/107, LIGB3, A S RAO NAGAR,KAPRA, HYDERABAD",HYDERABAD URBAN,HYDERABAD,ANDHRA PRADESH,27140062
492,SOUTH INDIAN BANK,SIBL0000509,ADAYAR,"G-1, SRUTI APARTMENT, NO.11,II MAIN ROAD, GANDHI NAGAR, ADYAR",CHENNAI,CHENNAI,TAMIL NADU,24455131
493,SOUTH INDIAN BANK,SIBL0000510,VADAPALANI,"DOOR NO.278, GRACE ARK,, ARCOT ROAD ,VADAPALANI P.O. PINCODE:600026,OPP.RAM THEATRE, CHENNAI ,EGMORE-NUNGAMBAKKAM,TAMIL NADU",CHENNAI,CHENNAI,TAMIL NADU,22165020
494,SOUTH INDIAN BANK,SIBL0000511,DHARMAPURI,"DRV ANNEXE, 64, NETHAJI BY-PASS ROAD",DHARMAPURI,DHARMAPURI,TAMIL NADU,2269444
495,SOUTH INDIAN BANK,SIBL0000512,VILLUPURAM,"41/1 B, KK ROAD , VILLUPURAM",VILLUPURAM,VILLUPURAM,TAMIL NADU,226656
496,SOUTH INDIAN BANK,SIBL0000513,WEST FORT THRISSUR,"M.G ROAD,CHETTUPUZHA TOWERS, SANKARA IYYER ROAD JUNCTION,WESTFORT,THRISSUR",TRISSUR,THRISSUR,KERALA,2389293
497,SOUTH INDIAN BANK,SIBL0000514,KUKATPALLY,"6TH PHASE, KPHB COLONY,KUKATPALLY,PLOT NO. 541 AND 542, UNIT NO.  G2 AND G3,KUKATPALLY",HYDERABAD,KUKATPALLY,ANDHRA PRADESH,23051174
498,SOUTH INDIAN BANK,SIBL0000515,WANDOOR,"M.A.R. VENTURE BUILDINGS,PANDIKKAD ROAD,WANDOOR",MALAPURAM,WANDOOR,KERALA,245949
499,SOUTH INDIAN BANK,SIBL0000516,CHENNAI-TAMBARAM,"10 A, DUARI SAMI PILLAI STREET ,WEST TAMBARAM",CHENNAI,TAMBARAM,TAMIL NADU,22265861
500,SOUTH INDIAN BANK,SIBL0000517,BANASHANKARI,"569, C.R COMPLEX, 80 FT.ROAD ,30TH MAIN, BANASHANKARI, BANGALORE METRO 80 FT ROAD,  BANGALORE",BANGALORE URBAN,BANGALORE,KARNATAKA,26797634
501,SOUTH INDIAN BANK,SIBL0000518,BANGALORE-SARJAPUR ROAD,"65/2,KAILKONDRAHALLI, SARJAPUR ROAD, BANGLORE",BANGALORE URBAN,BANGALORE,KARNATAKA,25741205
502,SOUTH INDIAN BANK,SIBL0000519,AURANGABAD,"PLOT NO.7-10,TOWN CENTRE,SECTOR-N1 CIDCO,201-203,AKSHAYDEEP PLAZA,NEAR CIDCO BUS STAND,AURANGABAD",AURANGABAD,AURANGABAD,MAHARASHTRA,2481128
503,SOUTH INDIAN BANK,SIBL0000520,KOLAHPUR,"1426/A,C WARD,G-1,LAXMI TOWERS,KOLHAPUR",KOLHAPUR,KOLAHPUR,MAHARASHTRA,2641144
504,SOUTH INDIAN BANK,SIBL0000522,THRIKKAKKARA,"WARD NO. 3, GROUND FLOOR, KAITHAPADATHU MOIDEEN HAJI MEMORIAL BLDG. ,PIPELUNE JUNCTION, PINCODE: 682021,THRIKKAKKARA, KOCHI",ERNAKULAM,THRIKKAKARA,KERALA,2576877
505,SOUTH INDIAN BANK,SIBL0000523,BANGALORE-R.T.NAGAR,"NO.551, GROUND FLOOR,2ND BLOCK,  2ND CROSS,, RAHMATHNAGAR,R.T.NAGAR",BANGALORE URBAN,BANGALORE,KARNATAKA,23439810
506,SOUTH INDIAN BANK,SIBL0000524,MYSORE BANNIMANTAP,"DOOR NO 176/2, BANNIMANTAP B LAYOUT, BANGALORE MYSORE ROAD",MYSORE,MYSORE,KARNATAKA,2493724
507,SOUTH INDIAN BANK,SIBL0000525,KALOOR ERNAKULAM,"GROUND FLOOR ,FINANCE TOWERS, KALOOR KOCHI-17",ERNAKULAM,KALOOR,KERALA,2400478
508,SOUTH INDIAN BANK,SIBL0000526,BANGALORE BANNERGHATA ROAD,"HOLY SPIRIT SCHOOL CAMPUS, NEAR MEENAKSHI TEMPLE, BANNERGHATA ROAD PO, BANGALORE URBAN, KARNATAKA-560076",BANGALORE URBAN,BANNERGHATTA,KARNATAKA,26482638
509,SOUTH INDIAN BANK,SIBL0000527,SOUTH KALLARA,"STTHOMAS CHURCH BUILDING, KALLARA SOUTH PO, KOTTAYAM, KERALA-686611",KOTTAYAM,KALLARA,KERALA,269161
510,SOUTH INDIAN BANK,SIBL0000528,KAIPUZHA,"ST.GEORGE FORANE CHURCH BUILDING, KAIPUZHA KOTTAYAM ,KAIPUZHA P.O, PINCODE: 686602,KAIPUZHA, KAIPUZHA VILLAGE OFFICE",KOTTAYAM,KAIPUZHA,KERALA,2712570
511,SOUTH INDIAN BANK,SIBL0000529,RAMAPURAM,"MAR AUGUSTHINOS COLLEGE BUILDING, RAMAPURAM BAZAR P O",KOTTAYAM,RAMAPURAM,KERALA,262766
512,SOUTH INDIAN BANK,SIBL0000530,KODENCHERRY,"ST. JOSEPSHS HSS, KODENCHERRY P O,KOZHIKODE-673580",KOZHIKODE,KODENCHERRY,KERALA,2236844
513,SOUTH INDIAN BANK,SIBL0000531,EDATHUA,"ST. GEORGE BUILDING, EDATHUA, ALAPUZHA-689573",ALAPUZZHA,EDATHUA,KERALA,2210390
514,SOUTH INDIAN BANK,SIBL0000532,ELAMAKKARA ERNAKULAM,"44/1781-A,LFC ROAD,NEAR LF CHURCH,POTTAKUZHY,NORTH KALOOR,KOCHI 682017",ERNAKULAM,ELAMAKARA,KERALA,2536521
515,SOUTH INDIAN BANK,SIBL0000533,HOLY ANGELS ROAD OLLUR,"DOOR NO.465, WARD NO 30, HOLY ANGELS SCHOOL BUILDING, HOLY ANGELS ROAD, PINCODE: 680306 OLLUR, THRISSUR",THRISSUR,OLLUR,KERALA,2350360
516,SOUTH INDIAN BANK,SIBL0000534,PATHIRIPPALA,"MAIN ROAD, PATHIRIPALA PERUR POST, PINCODE: 679302 ,PATHIRIPALA, LAKKIDI PERUR PALAKKAD, KERALA",PALAKKAD,OTTAPALAM,KERALA,2874949
517,SOUTH INDIAN BANK,SIBL0000535,KUTTANELLUR,"JOS ALUKKAS SHOPPING COMPLEX, ADJACENT TO ST JOHN BOSCO R C CHURCH, MARIAPURAM, ANCHERY PO, THRISSUR, KERALA-680006",TRISSUR,KUTTANALLUR,KERALA,2350557
518,SOUTH INDIAN BANK,SIBL0000536,KALPATTA,"KM 18/6 ,OPP. DE PAUL SCHOOL, KOZHIKODE ROAD,KALPETTA-673121",WAYANAD,KALPETTA,KERALA,207224
519,SOUTH INDIAN BANK,SIBL0000537,ANGADIPURAM,"DONO416 A, KOZHIKODE ROAD, ANGADIPURAM PO, MALAPPURAM, KERALA-679321",MALAPURAM,ANGADIPURAM,KERALA,253330
520,SOUTH INDIAN BANK,SIBL0000538,WARRANGAL,"HNO-1-7-1079, NAKKALAGUTTA,HANAMKONDA,WARANGAL-506001",WARANGAL,WARANGAL,ANDHRA PRADESH,2544993
521,SOUTH INDIAN BANK,SIBL0000539,MALKAJGIRI,"GROUND FLOOR, TARIKA ORION, NO25-21-7-3-1 EAST ANANDBAGH, MOULALI MAIN ROAD, MALKAJGIRI PO, HYDERABAD, TELANGANA-500047",HYDERABAD,MALKAJGIRI,ANDHRA PRADESH,27243921
522,SOUTH INDIAN BANK,SIBL0000540,"ST. THOMAS MOUNT, CHENNAI","NO.68,BUTT RAOD,ST.THOMAS MOUNT,CHENNAI-600016",CHENNAI,CHENNAI,TAMIL NADU,22332977
523,SOUTH INDIAN BANK,SIBL0000541,AGARTALA,"AMULLYA MARKET,MANTRIBARI ROAD,NEAR WEST AGARTHALA POLICE STATION",WEST TRIPURA,AGARTALA,TRIPURA,2316875
524,SOUTH INDIAN BANK,SIBL0000542,THIPPASANDRA,"31/39,MANITHA MANSION,VYGNANA NAGAR,THIPPASANDRA-560037",BANGALORE RURAL,THIPPASANDRA,KARNATAKA,25222640
525,SOUTH INDIAN BANK,SIBL0000543,DEVANAHALLI,"DONO11, VJCOMPLEX, SULIBELE ROAD, SHANTI NAGAR, DEVANAHALLI PO, BANGALORE RURAL DISTRICT, KARNATAKA-562110",BANGALORE RURAL,DEVANAHALLI,KARNATAKA,27683855
526,SOUTH INDIAN BANK,SIBL0000544,PUNKUNNAM,"DOOR NO-32/198, SITHARAM MILL ROAD, PUNKUNNAM,THRISSUR,KERALA",THRISSUR,THRISSUR,KERALA,2389941
527,SOUTH INDIAN BANK,SIBL0000545,KONATHUKUNNU,"S N SHOPPING COMPLEX, BUILDING NO-18A, KODUNGALLUR ROAD,THRISSUR,KERALA",THRISSUR,IRINJALAKUDA,KERALA,2867210
528,SOUTH INDIAN BANK,SIBL0000546,L B NAGAR,"1-2-84/1,PRASHANTI ARCADE,KOTHAPET,L B NAGAR,HYDERABAD",HYDERABAD,L.B.NAGAR,ANDHRA PRADESH,24140433
529,SOUTH INDIAN BANK,SIBL0000547,QUTABULLAPUR,"SHOP NO.4,5,6 PLOT NO-7/17, SUCHTRA JUNCTION,VENKATESHWARA ENCLAVE",RANGAREDDY,QUTHBULLAPUR,ANDHRA PRADESH,27230008
530,SOUTH INDIAN BANK,SIBL0000548,SERILINGAMPALLY,"DONO7-1-1 -1-2, CIRCLE NO13, NH-7, SERILINGAMPALLY, MIYAPUR PO,RANGA REDDI, TELANGANA-500049",RANGAREDDY,SERI-LINGAMPALLY,ANDHRA PRADESH,230402
531,SOUTH INDIAN BANK,SIBL0000549,UPPAL KALAN,"1-7-9/3,HARIHARA ESTATE,STREET NO.8,OPP. ISI,HABSIGUDA,GHMC",RANGAREDDY,UPPAL,ANDHRA PRADESH,27156035
532,SOUTH INDIAN BANK,SIBL0000550,KIDANGOOR,"DONO483-C, MATTATHIL BUILDING, HIGHWAY, NEAR HOTEL ELEGANCE, KIDANGOOR PO, KOTTAYAM, KERALA-686572",KOTTAYAM,KIDANGOOR,KERALA,257669
533,SOUTH INDIAN BANK,SIBL0000551,KARTHIKAPALLY,"ST.THOMAS HIGH SCHOOL, KARTHIKAPALLY,ALAPUZHA,KERALA",ALAPUZHA,KORTHIKAPPALLY,KERALA,2487711
534,SOUTH INDIAN BANK,SIBL0000552,CHALAKUDY NORTH,"KANICHIKATTIL COMPLEX, NEAR STJAMES HOSPITAL, MAIN ROAD, CHALAKUDY PO, THRISSUR, KERALA-680307",THRISSUR,CHALAKUDY,KERALA,2706799
535,SOUTH INDIAN BANK,SIBL0000553,MAPUSA-GOA,"NO13, 1ST FLOOR, ATRIA BUILDING, NEAR COURT JUNCTION MAPUSA, BARDEZ, GOA ┬û 403507",NORTH GOA,MAPUSA,GOA,2262250
536,SOUTH INDIAN BANK,SIBL0000554,DELHI NAJAFGARH,"RZ 14/5 LAKSHMI GARDEN, NAJAFGARH,DELHI",DELHI,DELHI,DELHI,25321065
537,SOUTH INDIAN BANK,SIBL0000555,FARIDABAD,"SHOP NO-60,CLM MALL,I P COLONY,SECTOR30-33,FARIDABAD",FARIDABAD,FARIDABAD,HARYANA,2252316
538,SOUTH INDIAN BANK,SIBL0000556,INDIRAPURAM,"C-5,NYAY KHAND-1,GROUD FLOOR, INDIRAPURAM,GAZIABAD",GHAZIABAD,GHAZIABAD,UTTAR PRADESH,4252785
539,SOUTH INDIAN BANK,SIBL0000557,BHILAI NAGAR,"GRACE PLAZA, SHOP 107/108, BLOCK B, NEHRU NAGAR SQUARE, BHILAI NAGAR",DURG,BHILAINAGAR,CHHATTISGARH,2293667
540,SOUTH INDIAN BANK,SIBL0000558,PALAKKAD CHANDRA NAGAR,"DOOR NO.9/1484,KAV,CENTRAL COMPLEX, CHANDRA NAGAR",PALAKKAD,CHANDRANAGAR,KERALA,2570700
541,SOUTH INDIAN BANK,SIBL0000559,NEW DELHI-MALVIYA NAGAR,"C-46, SHIVALIK MALVIYA NAGAR NEW DELHI",DELHI,DELHI,DELHI,26684346
542,SOUTH INDIAN BANK,SIBL0000560,NEW DELHI-PUNJABI BAGH,NORTH AVENUE WEST PUNJABI BAGH NEW DELHI -42,DELHI,DELHI,DELHI,25229293
543,SOUTH INDIAN BANK,SIBL0000561,NIGDI,"RIDDHE CAPITAL, S-11, SECTOR NO.26, ADC PCNTDA, NEAR SAMBAHJI CHOWK, NIGDI PRADHI KARAN",PUNE,NIGDI,MAHARASHTRA,27641177
544,SOUTH INDIAN BANK,SIBL0000562,TRIVANDRUM PEROORKADA,"MAYUR PLAZA, OPP. LUTHERAN CHURCH, PEROORKADA",THIRUVANANTHAPURAM,THIRUVANANTHAPURAM,KERALA,2438375
545,SOUTH INDIAN BANK,SIBL0000563,KAYAMKULAM,"KADEESA CATHEDRAL COMPLEX,K.P.ROAD,KAYAMKULAM,SIB LTD,DOOR NO.KMC XVII/100A,WARD NO.17,KAYAMKULAM",ALAPUZHA,KAYAMKULAM,KERALA,2449941
546,SOUTH INDIAN BANK,SIBL0000564,AVADI,"NO:226, NEW MILITARY ROAD AVADI CHENNAI -54",THIRUVALLUR,AVADI,TAMIL NADU,26553944
547,SOUTH INDIAN BANK,SIBL0000565,COIMBATORE VADAVALLI,"1C, THIRUMURUGAN NAGAR, MARUTHAMALAI MAIN ROAD",COIMBATORE,VADAVALLI,TAMIL NADU,2424834
548,SOUTH INDIAN BANK,SIBL0000566,THUCKALAY,"SEVALAYAM,MAIN ROAD,THUCKALAI P.O,SIB LTD,DOOR NO.18/32 F,WARD NO.13,THUCKALAY",KANYAKUMARI,THUCKALAI,TAMIL NADU,252066
549,SOUTH INDIAN BANK,SIBL0000567,PERUNGUDI,"DOOR NO 112, OMR ROAD,┬á┬á RAJIV GANDHI SALAI, PERUNGUDI",KANCHEEPURAM,PERUNGUDI,TAMIL NADU,24963544
550,SOUTH INDIAN BANK,SIBL0000568,BILASPUR,"INDRAJITH COMPLEX, B2, GROUND FLOOR,┬áOPPOSITE HIGH COURT, HIGH COURT MAIN ROAD",BILASPUR,BILASPUR,CHHATTISGARH,220833
551,SOUTH INDIAN BANK,SIBL0000569,CUTTACK,"OSL TOWER, GROUND FLOOR,┬á┬á┬áLINK ROAD",CUTTACK,CUTTACK,ODISHA,2367373
552,SOUTH INDIAN BANK,SIBL0000570,JAMSHEDPUR,"NO.341, KUNTI TOWER, KALIMATI ROAD, SAKCHI, JAMSHEDPUR",PURBI SINGHBHUM,JAMSHEDPUR,JHARKHAND,2443087
553,SOUTH INDIAN BANK,SIBL0000571,HOSUR,"TPS TOWERS, H-2, RAILWAY STATION ROAD, NEAR TALUK OFFICE, HOSUR",KRISHNAGIRI,HOSUR,TAMIL NADU,226512
554,SOUTH INDIAN BANK,SIBL0000572,ERNAKULAM PANAMPILLY NAGAR,"49/491UA, ANDHRA KALANILAYAM PANAMPILLY NAGAR KOCHI",ERNAKULAM,KOCHI,KERALA,2311150
555,SOUTH INDIAN BANK,SIBL0000573,NEDUMKUNNAM,PUTHIYAPARAMBIL BUILDING KAVUNADA KARUKACHAL-MANIMALA ROAD NEDUMKUNNAM 686542,KOTTAYAM,NEDUMKUNNAM,KERALA,2417570
556,SOUTH INDIAN BANK,SIBL0000574,EDAKAZHIYUR,"DO NO212-A, WARD NO 13, WEST SIDE OF NH 17, EDAKAZHIYUR, THRISSUR, KERALA- 680515",THRISSUR,EDAKAZHIYUR,KERALA,2616100
557,SOUTH INDIAN BANK,SIBL0000575,PHAGWARA,"GORAYA MANSION, SINGLA MARKET, G T ROAD PHAGWARA",KAPURTHALA,PHAGWARA,PUNJAB,24221484
558,SOUTH INDIAN BANK,SIBL0000576,MEERUT,"SRI RAM PALACE, NEAR NEW SABAJI MANDI,DELHI ROAD, MEERUT",MEERUT,MEERUT,UTTAR PRADESH,2402425
559,SOUTH INDIAN BANK,SIBL0000577,KANPUR,"110/19, NEHRU NAGAR, 80 FEET ROAD KANPUR",KANPUR CITY,KANPUR,UTTAR PRADESH,2543312
560,SOUTH INDIAN BANK,SIBL0000578,SHILLONG,"26 A , CANTONMENT, G S ROAD, BARA BAZAR,  SHILLONG",EAST KHASI HILLS,SHILLONG,MEGHALAYA,2545042
561,SOUTH INDIAN BANK,SIBL0000579,SHIMLA,"GMHR BUILDING, PHASE-3, SECTOR 5, BELOW BCS, NEW SHIMLA",SIMLA,SIMLA,HIMACHAL PRADESH,2673619
562,SOUTH INDIAN BANK,SIBL0000580,AGRA,"D-520, GROUND FLOOR, KAMALA NAGAR, AGRA",AGRA,AGRA,UTTAR PRADESH,2881220
563,SOUTH INDIAN BANK,SIBL0000581,ALWAL,"H NO:6-44/90, PLOT NO:29A, TEMPLE ALWAL, VALLABH NAGAR, SECUNDERABAD",RANGAREDDY,ALWAL,ANDHRA PRADESH,27970067
564,SOUTH INDIAN BANK,SIBL0000582,PODUKOTTAI,"2633, MUTHU MEENA COMPLEX, EAST MAIN STREET, PUDUKKOTTAI",PUDUKKOTTAI,PUDUKKOTTAI,TAMIL NADU,220833
565,SOUTH INDIAN BANK,SIBL0000583,KENGERI SATELLITE TOWN,"DONO1895  A, WARD NO15, S V COMPLEX, 1ST MAIN, 2ND CROSS, KENGERI SATELLITE TOWN, KENGERI PO, BANGALORE URBAN, KARNATAKA-560060",BANGALORE URBAN,KENGERI,KARNATAKA,28482933
566,SOUTH INDIAN BANK,SIBL0000584,MANESAR,"ANAND RAJ TECH PARK, CP-1, SECTOR 8, IMT, MANESAR",GURGAON,MANESAR,HARYANA,2290077
567,SOUTH INDIAN BANK,SIBL0000585,KAL0OR VIA KALLORKKAD,"KOCHUKUDIYIL BUILDING, NO.691/A  NO. IV, KALOORKAD PANCHAYATH VIA KALOOR 686668",ERNAKULAM,KALLOOR,KERALA,2678888
568,SOUTH INDIAN BANK,SIBL0000586,MOOKKANNUR,"BUILDING NO. VII/204-207, MOOKKANNUR PO, VIA ANGAMALY 683577",ERNAKULAM,MOOKKANNOR,KERALA,2615815
569,SOUTH INDIAN BANK,SIBL0000587,RAJAGIRI VALLEY KAKKANAD,"GROUND FLOOR, SIB BUILDING, INFOPARK ROAD, KAKANAD, RAJAGIRI VALLEY PO, ERNAKULAM, KERALA-682039",ERNAKULAM,KAKKANAD,KERALA,2771357
570,SOUTH INDIAN BANK,SIBL0000588,TIRUVALLA PUSHPAGIRI,PUSHPAGIRI BUILDONG PUSHPAGIRI ROAD TIRUVALLA 689101,PATHANAMTHITTA,THIRUVALLA,KERALA,2604214
571,SOUTH INDIAN BANK,SIBL0000589,PARAVATTANI,"DONO2-323-22, WARD NO14, MALALA ARCADE, MAIN ROAD, PARAVATTANY, EAST FORT, THRISSUR, KERALA-680005",THRISSUR,THRISSUR,KERALA,2371070
572,SOUTH INDIAN BANK,SIBL0000590,VADAKKENCHERRY,"VDK IV/1415-1418,SARA CPLX OPP. BUS STAND,VADAKKENCHERRY 678683",THRISSUR,WADAKANCHERRY,KERALA,257170
573,SOUTH INDIAN BANK,SIBL0000591,MANIKONDA (JAGIR),"MKD PLOT NO3,LALLAMMA GARDEN STREET NO 4,  MAIN ROAD MANIKONDA 500089",RANGAREDDY,SERI-LINGAMPALLY,ANDHRA PRADESH,233005
574,SOUTH INDIAN BANK,SIBL0000592,AMTALA,"AMT K E CARMEL SCHOOL BLDG BARUIPUR ROAD, CHANDI 743503",MURSHIDABAD,AMTALA,WEST BENGAL,24809762
575,SOUTH INDIAN BANK,SIBL0000593,BANGALORE ST. PHILOMINA'S HOSPITAL,"ST PHILOMENAS HOSPITAL BUILDING, NEELASANDRA ROAD, BANGALORE, KARNATAKA-560047",BANGALORE URBAN,BANGALORE,KARNATAKA,25300033
576,SOUTH INDIAN BANK,SIBL0000594,MARANCHERY,M A SQUARE BUILDING PONNANI GURUVAYUR ROAD MARANCHERY MALAPPURAM 679 581,MALAPPURAM,MARANCHERI,KERALA,2672200
577,SOUTH INDIAN BANK,SIBL0000595,PULAMANTHOLE,P T S COMPLEX MAIN ROAD OPP. BUS STAND  PULAMANTHOLE MALAPPURAM 679 323,MALAPPURAM,PULAMANTHOLE,KERALA,269444
578,SOUTH INDIAN BANK,SIBL0000596,VAILATHUR,SHALIMAR COMPLEX PONMUNDAM P O VAILATHUR MALAPPURAM DT 676 106,MALAPPURAM,VAILATHUR,KERALA,2587060
579,SOUTH INDIAN BANK,SIBL0000597,NIZAMPET,"H. NO. 3-147/35, MAIN ROAD, NIZAMPET, QUTBULLAPUR, MANDAL, RANGAREDDY DIST, ANDHRA PRADESH500 090",RANGAREDDY,KUKATPALLY,ANDHRA PRADESH,23894234
580,SOUTH INDIAN BANK,SIBL0000598,GANDI MAISAMMA,"GROUND FLOOR, BGR ARCADE 3-93/4 D, GANDI MAISAMMA X ROAD DOMMARA POCHAMPALLY GRAM PANCHAYATH R.R.DIST, HYDERABAD",RANGAREDDY,BOWRAMPET,ANDHRA PRADESH,255121
581,SOUTH INDIAN BANK,SIBL0000599,CHENNAI-PORUR,"NO.133, M S R COMPLEX,KUNDRATHUR HIGH ROAD,┬áPORUR, ┬á THIRUVALLUR┬á (┬áDT┬á),CHENNAI.600 116",THIRUVALLUR,PORUR,TAMIL NADU,24825990
582,SOUTH INDIAN BANK,SIBL0000600,ELAMPILLAI,10/74 SMR BUILDING OPP. BUSSTAND ELAMPILLAI SALEM DIST. 637502,SALEM,ELAMPILLAI,TAMIL NADU,2493600
583,SOUTH INDIAN BANK,SIBL0000601,OMALUR,"DONO21, DHARMAPURI MAIN ROAD OMALUR, SALEM, TAMIL NADU-636455",SALEM,OMALUR,TAMIL NADU,220378
584,SOUTH INDIAN BANK,SIBL0000602,NEDUMBASSERI,"V/1051, VIP PANORAMA ARCADE MAIN  ROAD ATHANI ERNAKULAM 683585",ERNAKULAM,ALUVA,KERALA,2477575
585,SOUTH INDIAN BANK,SIBL0000603,KATTAPPANA,KGEES BUILDING ERATTAYAR ROAD KATTAPPANA IDUKI 685508,IDUKKI,KATTAPPANA,KERALA,274457
586,SOUTH INDIAN BANK,SIBL0000604,SULTHAN BATHERY,"P K RESIDENCY, MAIN ROAD SULTHAN BATTERY WAYANAD DT. 673 592",WAYANAD,SULTHANBATHERY,KERALA,265696
587,SOUTH INDIAN BANK,SIBL0000605,MANANTHAVADY,"MP VI /801, D,D1,D2,D3,D4, & D5 SANJOS SHOPPING COMLEX ST. JOSEPH HOSPITAL ROAD MANANTHAVADI WAYANAD 670645",WAYANAD,MANANTHAVADY,KERALA,242260
588,SOUTH INDIAN BANK,SIBL0000606,AROOR,"K K BUILDING NANDANAM AROOR, ALAPUZHA ┬û 689 534",ALAPUZZHA,AROOR,KERALA,2876040
589,SOUTH INDIAN BANK,SIBL0000607,ETTUMANOOR,VETTOOR SHOPINGG COMPLEX NEAR  KSRTCBUS STAND  MC ROAD ETTUMANOOR .P.O  KOTTAYAM (DIST)686 631,KOTTAYAM,ETTUMANOOR,KERALA,2534343
590,SOUTH INDIAN BANK,SIBL0000608,VADASSERIKKARA,"VIII/520 A, MUNDAPLAKKAL BUILDING , VADASSERIKKARA SABARIMALA ROAD 689662",PATHANAMTHITTA,VADASSERIKARA,KERALA,252480
591,SOUTH INDIAN BANK,SIBL0000609,VYPIN( MURIKKUMPADAM ),"99C, ASWATHY BUILDINGS NEAR SEAFOOD BUS STOP AZHEEKKKAL P O MURIKKUMPADAM KOCHI 682508",ERNAKULAM,KOCHI,KERALA,2502700
592,SOUTH INDIAN BANK,SIBL0000610,ADIMALI,"XII / 337 B, SIVARAM S BUILDING , BUS STAND JUNCTION NH-49 ADIMALI IDUKKI 685561",IDUKKI,IDIKKI,KERALA,223383
593,SOUTH INDIAN BANK,SIBL0000611,IRITTY,"DONOB-12, PERAVOOR ROAD, PAYANCHERY JUNCTION, IRITTY PO, KANNUR, KERALA-670703",CANNUR,KIZHOOR IRITTY,KERALA,2493322
594,SOUTH INDIAN BANK,SIBL0000612,PILATHARA,"DONO772-I, WARD NO6, CHRISTI JYOTHI CENTRE, PILATHARA PO, KANNUR DISTRICT, KERALA-670504",CANNUR,PAYYANNUR,KERALA,2802400
595,SOUTH INDIAN BANK,SIBL0000613,CHERUPUZHA,SANILAS COMPLEX MAIN ROAD CHERUPUZHA KANNUR 670 511,CANNUR,CHERUPUZHA,KERALA,240505
596,SOUTH INDIAN BANK,SIBL0000614,PERAVOOR,"WARD NOXI-743, THALASSERY-KOTTIYOOR ROAD, PERAVOOR PO, KANNUR, KERALA-670673",CANNUR,PERAVOOR,KERALA,2446330
597,SOUTH INDIAN BANK,SIBL0000615,IRIKKUR,"FIBNA COMPLEX, MAIN ROAD IRIKKUR TOWN KANNUR, 670 593",CANNUR,IRIKKUR,KERALA,2297100
598,SOUTH INDIAN BANK,SIBL0000616,THRIKKARIPUR,"ROYAL COMPLEX, MAIN ROAD THRIKKARIPUR KASARGOD 671 310",KASARAGOD,KASARAGOD,KERALA,2213640
599,SOUTH INDIAN BANK,SIBL0000617,UDUMA,WARD NO. XI ROOM NO 496 YEMPEES COMPLEX MAIN ROAD PALAKUNNU BEKAL KASARGOD DT,KASARAGOD,UDMA,KERALA,2239000
600,SOUTH INDIAN BANK,SIBL0000618,MEDCHAL,"SOYAL NIVAS, PLOT NO5, RAGHAVENDRA NAGAR COLONY, MAIN ROAD, MEDCHAL PO, RANGA REDDI, TELANGANA-501401",RANGAREDDY,MEDCHAL,ANDHRA PRADESH,220124
601,SOUTH INDIAN BANK,SIBL0000619,MONGAM,446/20 BLAST K T BUILDING MORAYUR VILLAGE MALAPPURAM DT 676519,MALAPURAM,MALAPPURAM,KERALA,2771666
602,SOUTH INDIAN BANK,SIBL0000620,KIZHISSERY,KOTTA TOWER NEAR TELEPHONE EXCHANGE KIZHISSERY 673 641 MALAPPURAM,MALAPURAM,MALAPPURAM,KERALA,2757550
603,SOUTH INDIAN BANK,SIBL0000621,KUTTIPPURAM,K T TOWERS BYE PASS JUNCTION KUTTIPPURAM MALAPPURAM 679 571,MALAPPURAM,KUTTIPURAM,KERALA,2607450
604,SOUTH INDIAN BANK,SIBL0000622,POOKOTTUPADAM,"SHAIJ BUILDINGS, KALIKAVU ROAD, POOKOTTUPADAM 679332 MALAPPURAM",MALAPPURAM,NILAMBUR,KERALA,260020
605,SOUTH INDIAN BANK,SIBL0000623,PANDIKKAD,HIBA ASIA TOURIST HOME NEAR MAIN JUNCTIONPERINTHALMANNA ROAD PANDIKKAD PO MALAPPURAM 679 322,MALAPPURAM,PANDIKKAD,KERALA,2785500
606,SOUTH INDIAN BANK,SIBL0000624,TECHNOPARK TRIVANDRUM,"DONO100-43446, SEA PEARL, NH BYPASS ROAD, NEAR TECHNOPARK PHASE 3, KULATHUR PO, THIRUVANANTHAPURAM DISTRICT, KERALA-695583",THIRUVANANTHAPURAM,KAZHAKUTTAM,KERALA,2527576
607,SOUTH INDIAN BANK,SIBL0000625,MADURAI- ANNA NAGAR,"HIG 19, 80 FEET ROAD, ANNANAGAR PO, MADURAI, TAMIL NADU ┬û 625020",MADURAI,MADURAI,TAMIL NADU,2527444
608,SOUTH INDIAN BANK,SIBL0000626,DISPUR,"KAY M PLAZA, G.S ROAD  GUWAHATI, KAMRUP,ASSAM - 781 006",KAMRUP,GUWAHATI,ASSAM,2232518
609,SOUTH INDIAN BANK,SIBL0000627,ALLAHABAD,"53/4, CIVIL STATION B NO.37, UPPER GROUND FLOOR, COLVIN ROAD, CIVIL LINES, ALLAHABAD-211001",ALLAHABAD,ALLAHABAD,UTTAR PRADESH,2103886
610,SOUTH INDIAN BANK,SIBL0000628,KARIMNAGAR,"#2-6-299,GROUND FLOOR, A K ESTATES, OPP.AXIS BANK, NEAR MANAIR HOTEL, MUKARAMPURA,KARIMNAGAR DISTRICT, ANDHRAPRADESH-505 001",KARIMNAGAR,KARIMNAGAR,ANDHRA PRADESH,6450628
611,SOUTH INDIAN BANK,SIBL0000629,PALLAVARAM,"NO. 9, PAMMAL MAIN ROAD PALLAVARAM CHENNAI TAMILNADU - 600  043",KANCHEEPURAM,PALLAVARAM,TAMIL NADU,22641109
612,SOUTH INDIAN BANK,SIBL0000630,UDUPI,"DONO10-4-5,SHIRIBEEDU WARD,GREEN PARK PREMIER, MASJID ROAD, OPPHOTEL RAMAKRISHNA, UDUPI, 576101",UDIPI,UDUPI,KARNATAKA,2531947
613,SOUTH INDIAN BANK,SIBL0000631,GANDHIDHAM,"PLOT NO. 274, WARD NO. 12/B MAIN MARKET, HINDUJA CHAMBERS, GANDHIDHAM - 370 201",KACHCHH,GANDHIDHAM,GUJARAT,229030
614,SOUTH INDIAN BANK,SIBL0000632,KANHANGAD,"ALFLAH COMPLEX, T.B.ROAD JUNCTION, MAIN ROAD, KANHANGAD KASARAGOD-671315",KASARAGOD,KANHANGAD,KERALA,2205866
615,SOUTH INDIAN BANK,SIBL0000633,VASCO-DA-GAMA (MORMUGAO),"GROUND FLOOR,MELQUIDES BUILDING,FR.JOSEPH VAZ ROAD,SOUTH GOA,GOA-403802",SOUTH GOA,MORMUGAO,GOA,2500880
616,SOUTH INDIAN BANK,SIBL0000634,VARAPUZHA,"THALIYATH BUILDING, PUTHENPALLY VARAPUZHA - 683517",ERNAKULAM,VARAPUZHA,KERALA,2516332
617,SOUTH INDIAN BANK,SIBL0000635,KOOTHATTUKULAM,"EDINJUKUZHIYIL BUILDING, CENTRAL JUNCTION, KOOTHATTUKULAM - 686 662",ERNAKULAM,KOOTHATTUKULAM,KERALA,2252192
618,SOUTH INDIAN BANK,SIBL0000636,PATTIMATTOM,"GROUND FLOOR, AARADHANA TOWERS, P P ROAD, PATTIMATTOM PO, ERNAKULAM, KERALA - 683562",ERNAKULAM,KOLENCHERRY,KERALA,2687132
619,SOUTH INDIAN BANK,SIBL0000637,KARUKUTTY,"KANNAPPILLY BUILDING, NH 47, RAILWAY STATION JUNCTION, KARUKUTTY PO, ERNAKULAM, KERALA-683576",ERNAKULAM,KARUKUTTY,KERALA,2613121
620,SOUTH INDIAN BANK,SIBL0000639,KOTHANALLOORE,"THAYIL BUILDING KOTHANALLOOR, KOTTAYAM DIST - 686632",KOTTAYAM,ETTUMANOOR,KERALA,245614
621,SOUTH INDIAN BANK,SIBL0000640,MUNDAKKAYAM,"KUTTENCHIRAYIL BUILDINGS,┬á┬á NH 220, MUNDAKKAYAM KOTTAYAM - PIN 686513",KOTTAYAM,MUNDAKAYAM,KERALA,272880
622,SOUTH INDIAN BANK,SIBL0000641,MANARCAUD,VELIANKUNNATH BUILDING KIDANGOOR ROAD MANARCAUD KOTTAYAM-686019┬á,KOTTAYAM,MANARCAUD,KERALA,2373351
623,SOUTH INDIAN BANK,SIBL0000642,PARIPALLY,"KP/XIII/322 A, ┬á D&D TOWER,┬á┬áMAIN ROAD, PARIPALLY- 695574",KOLLAM,PARIPALLY,KERALA,2572223
624,SOUTH INDIAN BANK,SIBL0000643,OACHIRA,"S.D BUILDING, 463/A, ┬áMARKET ROAD,(OLD HIGHWAY),OACHIRA, KOLLAM DISTRICT,PIN-690526, KERALA",KOLLAM,OACHIRA,KERALA,2690088
625,SOUTH INDIAN BANK,SIBL0000644,KALLAMBALAM,"SHINE ARCADE KALLAMBALAM- 69560,",THIRUVANANTHAPURAM,KALLAMBALAM,KERALA,2691144
626,SOUTH INDIAN BANK,SIBL0000646,KORATTY,"468/C, WARD XIV,OPP.GOVT OF INDIA PRESS NH-47, KORATTY-  THRISSUR, KERALA680308",THRISSUR,KORATTY,KERALA,2733051
627,SOUTH INDIAN BANK,SIBL0000647,MALA,"XV/773, NEAR ANUPAMA RESTAURANT MAIN ROAD, MALA THRISSUR DISTRICT, KERALA",THRISSUR,MALA,KERALA,2895040
628,SOUTH INDIAN BANK,SIBL0000648,CHERPULASSERY,"9/17, PATTAMBI ROAD CHERPULASSERY , PALAKKAD DT-679503",PALAKKAD,CHERPALACHERRY,KERALA,2280648
629,SOUTH INDIAN BANK,SIBL0000649,OLARIKKARA,"TC VIII/4/10, 1ST FLOOR, THATTIL ARCADE, P.O.PULLAZHI, OLARIKKARA, THRISSUR-680012, KERALA",THRISSUR,OLARIKKRA,KERALA,2365220
630,SOUTH INDIAN BANK,SIBL0000650,SURAT UDHNA,"GROUND FLOOR, SNS HOUSE, OOP. SILICON SHOPPER COMPLEX, UDHNA TEEN RASTA, UDHNA SURAT GUJARAT-394 210",SURAT,SURAT,GUJARAT,2270072
631,SOUTH INDIAN BANK,SIBL0000651,NARAINA VIHAR,"E 20,GIRDHARI LAL GOSWAMI MARG, OPPOSITE BIKANERVALA, NARAINA VIHAR",DELHI,DELHI,DELHI,25895186
632,SOUTH INDIAN BANK,SIBL0000652,BANJARA HILLS,"PLOT NO.13, N.N.R ARCADE, 1ST FLOOR, ROAD NO.10, BANJARA HILLS,HYDERABAD",HYDERABAD,HYDERABAD,ANDHRA PRADESH,23320668
633,SOUTH INDIAN BANK,SIBL0000653,THEVARA,"DOOR NO. 1570 A/1570 D, KANJIRAPARAMBIL BUILDINGS THEVARA ERNAKULAM.-682015",ERNAKULAM,KOCHI,KERALA,2665850
634,SOUTH INDIAN BANK,SIBL0000654,CHENNAI-ASHOK NAGAR,"59/107, 4TH AVENUE, ASHOK NAGAR CHENNAI TAMIL NADU - 600 083",CHENNAI,CHENNAI,TAMIL NADU,24711288
635,SOUTH INDIAN BANK,SIBL0000655,BANGALORE COX TOWN,"SBH ARCADE, DONO61, WHEELERS ROAD, COX TOWN, BANGALORE, KARNATAKA-560005",BANGALORE URBAN,BANGALORE,KARNATAKA,25476463
636,SOUTH INDIAN BANK,SIBL0000656,KOLKATA BIDHAN NAGAR,"PLOT NO 7, BLOCK-EN,  SECTOR 5, SALT LAKE  BIDHAN NAGAR - KOLKATA 700091",DARJILING,BIDHANNAGAR,WEST BENGAL,23576547
637,SOUTH INDIAN BANK,SIBL0000657,SOUTH BAZAR KANNUR,"SB 5/1-2,NEAR MAKKANI , SOUTH BAZAR, KANNUR KERALA-670 002",CANNUR,CANNUR,KERALA,2767645
638,SOUTH INDIAN BANK,SIBL0000658,TRIVANDRUM SERVICE BRANCH,"HOTEL SAFA INTERNATIONAL BUILDING, 25/1075, NEAR ARISTO JUNCTION, EAST THAMPANOOR TRIVANDRUM 695 014",THIRUVANANTHAPURAM,THIRUVANANTHAPURAM,KERALA,2329581
639,SOUTH INDIAN BANK,SIBL0000660,PATTAMBI,"1ST FLOOR, SUDARSAN BUILDING, MELE PATTAMI, PALAKKAD",PALAKKAD,PATTAMBI,KERALA,2211900
640,SOUTH INDIAN BANK,SIBL0000661,PONDA,"SHOP NO-6,7,8,9,88&89, GROUND FLOOR ,PONDA COMMERCE CENTRE, GOMANT NAGAR,PONDA, NORTH GOA-403401",NORTH GOA,PONDA,GOA,2311272
641,SOUTH INDIAN BANK,SIBL0000662,PALLADAM,"NO.30A, TRICHY ROAD ,PALLADAM,TIRUPUR DIST, TAMILNADU",COIMBATORE,PALLADAM,TAMIL NADU,252488
642,SOUTH INDIAN BANK,SIBL0000663,SARAVANAMPATTY,"NO.11266, THUDIYALUR ROAD, SARAVANAMPATTY, COIMBATORE,TAMILNADU",COIMBATORE,THUDIYALOOR,TAMIL NADU,2668660
643,SOUTH INDIAN BANK,SIBL0000664,ANEKAL,"PARIHAR COMPLEX, OPP. IOC PETROL PUMB, CHANDAPURA ROAD, ANEKAL, BANGLORE, KARNATAKA- 652 106",BANGALORE URBAN,ANEKAL,KARNATAKA,27841877
644,SOUTH INDIAN BANK,SIBL0000665,PONKUNNAM,"APHIYALIL PLAZA, OPP. VAIDHUDHI BHAVAN, K K ROAD,PONKUNNAM,KOTTAYAM",KOTTAYAM,PONKUNNAM,KERALA,224404
645,SOUTH INDIAN BANK,SIBL0000666,KILIMANOOR,"PP IX 1507, M C ROAD, PAPALA, KILIMANOOR-695601, THIRUVANANTHAPURAM",THIRUVANANTHAPURAM,KILIMANOOR,KERALA,2670009
646,SOUTH INDIAN BANK,SIBL0000667,VENJARAMOOD,"NP XI/65, VAYYATE JUNCTION,VENJARAMOOD-695607, THIRUVANANTHAPURAM",THIRUVANANTHAPURAM,VEMBAYAM,KERALA,2870069
647,SOUTH INDIAN BANK,SIBL0000668,AYUR,"KEEZHOOTTU BUILDING,M C ROAD, AYUR P.O,DOOR NO.EP590,WARD NO EP XIII/590,AYUR",KOLLAM,AYOOR,KERALA,2292138
648,SOUTH INDIAN BANK,SIBL0000669,PUNALUR,"M GEORGE BUILDING, POLSON JUNCTION, CHEMANTHOOR, PUNALUR-691305, KOLLAM",KOLLAM,PUNALUR,KERALA,2222343
649,SOUTH INDIAN BANK,SIBL0000670,BALARAMAPURAM,"III/1361, ARS COMPLEX, KATTAKADA ROAD, BALARAMAPURAM-695501, THIRUVANANTHAPURAM",THIRUVANANTHAPURAM,BALARAMAPURAM,KERALA,2400309
650,SOUTH INDIAN BANK,SIBL0000671,CHERKALA,"BUILDING NO.C.P.XV/464, AJMAL SHOPPING ARCADE, CHENGALA P.O, CHERKALA, KASARAGOD, KERALA-671541",KASARAGOD,CHEGALA,KERALA,4284800
651,SOUTH INDIAN BANK,SIBL0000672,SREEKANDAPURAM,"NEAR GOVT. HIGHER SECONDARY SCHOOL, SREEKANDAPURAM,KANNUR",CANNUR,SREEKANDAPURAM,KERALA,2231277
652,SOUTH INDIAN BANK,SIBL0000673,KARUVANCHAL,"1ST FLOOR, HARITHAM COMPLEX, OPP. ST.JOSEPH'S HOSPITAL, KARUVANCHAL-670571, KANNUR",CANNUR,ALAKODE,KERALA,2247447
653,SOUTH INDIAN BANK,SIBL0000674,MANJAPRA,"VII / 193, ST. GEORGE JACOBITE CHURCH BUILDING,  MANJPARA P.O ERNAKULAM DIST. 683 581",ERNAKULAM,MANJAPRA,KERALA,2691700
654,SOUTH INDIAN BANK,SIBL0000675,KANJOOR,"CHAKKARAKKADAN BUILDING, NEAR POST OFFICE, KANJOOR, ERNAKULAM",ERNAKULAM,KANJOOR,KERALA,2467009
655,SOUTH INDIAN BANK,SIBL0000676,PIRAVOM,"AMMAVAN CHAMBERS, PIRAVOM MUVATTUPUZHA ROAD,OPPOSITE OLD PETROL PUMP, PIRAVOM 686664",ERNAKULAM,PIRAVOM,KERALA,2241440
656,SOUTH INDIAN BANK,SIBL0000677,MARADU,"BUILDING NO. 1, KALATHARA JUNCTION,WARD NO.14,NEAR ABAD NUCLEUS,MARADU P.O., 682304",ERNAKULAM,MARADU,KERALA,2706550
657,SOUTH INDIAN BANK,SIBL0000678,NEDUMKANDAM,"BUILDING NO:9/33/E, CENTRE POINT, OPP.CHELLAM RESIDENCY, NEDUMKANDAM,IDUKKI",IDUKKI,NEDUMKANDAM,KERALA,234990
658,SOUTH INDIAN BANK,SIBL0000679,VASAI (EAST),"VASAI (EAST) BRANCH, HOUSE NO. 1688, GROUND FLOOR, GOKHIWARE NAKA VASAI (EAST)",THANE,VASAI,MAHARASHTRA,2464991
659,SOUTH INDIAN BANK,SIBL0000680,GHATKESAR,"D.NO.8-102, BLOCK  8,GHATKESAR PANCHAYAT,HYDERABAD ┬û 501 301,R.R.DIST, ANDHRA PRADESH",RANGAREDDY,GHATKESAR,ANDHRA PRADESH,224333
660,SOUTH INDIAN BANK,SIBL0000681,IBRAHIMPATNAM,"PLOT NO.54, MANCHAL ROAD, IBRAHIMPATNAM VILLAGE & MANDAL, HYDERABAD-501506 R.R.DIST.,, ANDHRA PRADESH",KARIMNAGAR,IBRAHIMPATNAM,ANDHRA PRADESH,222225
661,SOUTH INDIAN BANK,SIBL0000682,NEELANKARAI,"DONO3-81, SHANKAR COMPLEX, VETTUVANKENI, EAST COAST ROAD, CHENNAI, KANCHEEPURAM, TAMIL NADU-600115",KANCHEEPURAM,SHOLINGANALLUR,TAMIL NADU,24495730
662,SOUTH INDIAN BANK,SIBL0000683,SHOLINGANALLUR,"DOOR NO. 187, OLD MAHABALIPURAM ROAD┬á ( OMR┬á),┬áSHOLINGANALLUR, CHENNAI┬á 600 119.┬á",KANCHEEPURAM,SHOLINGANALLUR,TAMIL NADU,24502069
663,SOUTH INDIAN BANK,SIBL0000684,VALASARAVAKKAM,"DOOR NO. 1, GROUND FLOOR,KAMARAJ SALAI,┬áRAMAKRISHNA NAGAR, VALASARAVAKKAM, CHENNAI 600 098.",THIRUVALLUR,VALASARAVAKKAM,TAMIL NADU,24861101
664,SOUTH INDIAN BANK,SIBL0000686,DIMAPUR,"195, CIRCULAR ROAD, BISHOP'S HOUSE BUILDING, DIMAPUR-797112, NAGALAND",DIMAPUR,DIMAPUR,NAGALAND,224917
665,SOUTH INDIAN BANK,SIBL0000687,MEDAVAKKAM,"PLOT B. TAMBARAM-VELACHERRY MAIN┬á,┬á MEDAVAKKAM,CHENNAI -600100, KANCHEEPURAM,TAMILNAD",KANCHEEPURAM,TAMBARAM,TAMIL NADU,22771045
666,SOUTH INDIAN BANK,SIBL0000688,BACHUPALLI,"SURVEY NOS. 8, 10 & 11,BESIDE SILVER OAKS SCHOOL,BACHUPALLI PANCHAYAT,QUTBULLAPUR MANDAL,HYDERABAD ┬û 500090 R.R.DIST., ANDHRA PRADESH",HYDERABAD,HYDERABAD,ANDHRA PRADESH,9179322120
667,SOUTH INDIAN BANK,SIBL0000689,ALMASGUDA,"H.NO.1-34, ALMASGUDA VILLAGE,SAROOR NAGAR MANDAL,HYDERABAD-500058 R.R.DIST., ANDHRA PRADESH",HYDERABAD,HYDERABAD,ANDHRA PRADESH,244117
668,SOUTH INDIAN BANK,SIBL0000690,MANCHIREVULA,"PLOT NO.4, MANCHIREVULA VILLAGE,RAJENDRA NAGAR MANDAL,HYDERABAD-500089 R.R.DIST., ANDHRA PRADESH",HYDERABAD,HYDERABAD,ANDHRA PRADESH,3233282
669,SOUTH INDIAN BANK,SIBL0000691,BAHADURPALLI,"PLOT NO.5, 6 AND 7,BAHADURPALLI VILLAGE,QUTBULLAPUR MANDAL,HYDERABAD-500043 R.R.DIST., ANDHRA PRADESH",HYDERABAD,HYDERABAD,ANDHRA PRADESH,7382602850
670,SOUTH INDIAN BANK,SIBL0000692,BADANGPET,"PLOT NO.14, BADANGPET VILLAGE,SAROOR NAGAR MANDAL,HYDERABAD-500058 R.R.DIST., ANDHRA PRADESH",HYDERABAD,HYDERABAD,ANDHRA PRADESH,245692
671,SOUTH INDIAN BANK,SIBL0000693,ANNOJIGUDA,"PLOT NO.4, 5 & 6,ANNOJIGUDA VILLAGE,POCHARAM PANCHAYAT,GHATKESAR MANDAL,HYDERABAD, R.R. DIST-501301. ANDHRA PRADESH",HYDERABAD,HYDERABAD,ANDHRA PRADESH,200266
672,SOUTH INDIAN BANK,SIBL0000694,PALMAKUL,"H.NO.7-73/A, SURVEY NO.106 (NEW),PALMAKUL VILLAGE,SHAMSHABAD MANDAL,HYDERABAD-509325 R.R.DIST., ANDHRA PRADESH",MEDAK,PALMAKUL,ANDHRA PRADESH,257333
673,SOUTH INDIAN BANK,SIBL0000695,CHINTALKUNTA,"D.NO.5-5-724/1 & 5-5-724/1/A,CHINTALKUNTA,L.B.NAGAR MUNCIPALITY,HYDERABAD ┬û 500 024 R.R. DIST., ANDHRA PRADESH",RANGAREDDY,CHINTAKUNTA,ANDHRA PRADESH,24127888
674,SOUTH INDIAN BANK,SIBL0000696,MEDBOWLI,"SURVEY NO.8, TKR EDUCATIONAL SOCIETY,MEDBOWLI VILLAGE,SAROOR NAGAR MANDAL,HYDERABAD -500097 R.R.DIST., ANDHRA PRADESH",HYDERABAD,HYDERABAD,ANDHRA PRADESH,24094696
675,SOUTH INDIAN BANK,SIBL0000697,KANDLAKOI,"SURVEY NO.188,KANDLAKOI VILLAGE,MEDCHEL MANDAL,HYDERABAD ┬û 501401 R.R.DIST., ANDHRA PRADESH",RANGAREDDY,MEDCHAL,ANDHRA PRADESH,200097
676,SOUTH INDIAN BANK,SIBL0000698,KHANAPUR,"D.NO. 4-1, KHANAPUR VILLAGE,RAJENDRA NAGAR MANDAL,HYDERABAD-500075 R.R,.DIST., ANDHRA PRADESH",ADILABAD,KHANAPUR,ANDHRA PRADESH,234282
677,SOUTH INDIAN BANK,SIBL0000699,VATTINAGULAPALLI,"D.NO.1/41/5, VATTINAGULAPALLI VILLAGE,RAJENDRA NAGAR MANDAL,HYDERABAD-500075 R.R.DIST., ANDHRA PRADESH",HYDERABAD,HYDERABAD,ANDHRA PRADESH,3234283
678,SOUTH INDIAN BANK,SIBL0000700,KODUVAZHANNUR,"PP 17/955, ANGANA, KODUVAZHANNUR-695612, THIRUVANANTHAPURAM",THIRUVANANTHAPURAM,KARETTE,KERALA,2678339
679,SOUTH INDIAN BANK,SIBL0000701,NEYYAR DAM,"KALLIKKAD JUNCTION, MYLAKARA P.O, THIRUVANATHAPURAM - 695571",THIRUVANANTHAPURAM,KALLIKKAD,KERALA,2271221
680,SOUTH INDIAN BANK,SIBL0000702,KANKOLE,"NEAR 110 KV SUBSTATION,KANKOLE PO,670 207,KANNUR DT.,KERALA STATE",CANNUR,PAYYANNUR,KERALA,267666
681,SOUTH INDIAN BANK,SIBL0000703,PADUPPU,"D.NO.KP IX 102A,B, PADUPPU 671 541 , KUTTIKOLE PANCHAYATH ,KASARAGOD DT.,KERALA STATE",KASARAGOD,BANDADKA,KERALA,200111
682,SOUTH INDIAN BANK,SIBL0000704,ACHOORANAM,"KMS BLDG,6TH MILE, ACHOORANAM  P O,673 575,VITHIRI,WAYANAD DT, KERALA STATE",WAYANAD,ACHOORANAM,KERALA,6251300
683,SOUTH INDIAN BANK,SIBL0000705,CHERUVALLY,"DOOR NO.499/CP/XI, PAZHAYIDOM, CHERUVALLY - 686543, KOTTAYAM",KOTTAYAM,MANIMALA,KERALA,263250
684,SOUTH INDIAN BANK,SIBL0000706,PALUVAI,"MEHSAJ COMPLEX, PALUVAI, THAIKKAD VILLAGE, CHAVAKKAD,THRISSUR-680522",THRISSUR,GURUVAYUR,KERALA,2553545
685,SOUTH INDIAN BANK,SIBL0000707,AMRITHAPURI (VALLIKAVU),"SB/WARD NO.1, THIRUMUTTATHU, CLAPPANA PO, VALLIKAVU, PIN CODE┬á 690525",KOLLAM,OACHIRA,KERALA,2899797
686,SOUTH INDIAN BANK,SIBL0000708,CHOONDACHERRY,"SJCET BUILDING,COONDANCHERRY P O,ST JOSEPHS COLLEGE OF ENGG CAMPUS,CHOONDACHE",KOTTAYAM,BHARANANGANAM,KERALA,239409
687,SOUTH INDIAN BANK,SIBL0000709,SIVAKASI,"940 C, P.K.N ROAD, BYE PASS ROAD, SIVAKASI (EAST) ┬û 626 189",VIRUDHUNAGAR,SIVAKASI,TAMIL NADU,275567
688,SOUTH INDIAN BANK,SIBL0000710,RAJAPALAYAM,"454 C-D, THENKASI ROAD, OPP CHITRA HOSPITAL, RAJAPALAYAM, VIRUDHUNAGAR",VIRUDHUNAGAR,RAJAPALAIYAM,TAMIL NADU,232526
689,SOUTH INDIAN BANK,SIBL0000711,THENI,"DOOR NO:OLD:407/NEW:343,PERIYAKULAM ROAD, (NEHRUJI ROAD),OPP. CONVENT HOSPITAL,THENI 625 531.",THENI,THENI,TAMIL NADU,262055
690,SOUTH INDIAN BANK,SIBL0000712,BHUJ,"B A BHAGAT COMPLEX, OPP. DENA BANK, LAL TEKRY, BHUJ-370001,KUTCH,GUJARAT",KACHCHH,BHUJ,GUJARAT,220712
691,SOUTH INDIAN BANK,SIBL0000713,JAMNAGAR,"YOGI MOTORS NEAR HOTEL ARAM, OPP. DKV CIRCLE, P.N. MARG, JAMNAGAR ┬û 361 008",JAMNAGAR,JAMNAGAR,GUJARAT,2550049
692,SOUTH INDIAN BANK,SIBL0000714,ANAND,"R.S. PLATINUM, G1-G2, NEAR BUS DEPOT, BHALEJ ROAD, ANAND",ANAND,ANAND,GUJARAT,255676
693,SOUTH INDIAN BANK,SIBL0000715,BANGALORE CORPORATE,"DO NO 37, WARD NO62, SUMERU TOWERS, BRIGADE ROAD, NEAR ST JOSEPHS COLLEGE OF COMMERCE, MUSEUM ROAD PO, BANGALORE URBAN DISTRICT, KARNATAKA-560025",BANGALORE URBAN,BANGALORE,KARNATAKA,22221040
694,SOUTH INDIAN BANK,SIBL0000716,HUBLI,"CTS 2971, ELEVEETY BUILDING,OPP. HUBLI-DHARWAD MUNCIPAL OFFICE,SRI SIDDAPA KAMBLI ROAD ,HUBLI-580020,DHARWAD DISTRICT,KARNATAKA",DHARWAD,HUBLI-DHARWAD,KARNATAKA,2362770
695,SOUTH INDIAN BANK,SIBL0000717,MUNNAR,"BUILDING NO.3454A, WARD NO.9,NADAYAR ROAD, MUNNAR,IDUKKI -685612",IDUKKI,MUNNAR,KERALA,230675
696,SOUTH INDIAN BANK,SIBL0000718,NATTAKOM,"┬áOPP:MALAYALA MANORAMA,NATTAKOM P.O, M.C ROAD,KOTTAYAM,┬áPIN-686013",KOTTAYAM,NATTAKAM,KERALA,2307307
697,SOUTH INDIAN BANK,SIBL0000719,VASUNDHARA,"COMMERICIAL PLOT NO13 /C-9, SEC-13 , VASUNDHARA,GHAZIABAD (DIST) U.P-201 012",ETAH,VASUNDHARA,UTTAR PRADESH,4166227
698,SOUTH INDIAN BANK,SIBL0000720,VIRUDHUNAGAR,"DONO129-1A-1B, KACHERI ROAD MADURAI ROAD, VIRUDHUNAGAR, TAMIL NADU-626001",VIRUDHUNAGAR,VIRUDHUNAGAR,TAMIL NADU,242720
699,SOUTH INDIAN BANK,SIBL0000721,THAMPANOOR,"HOTEL SAFA INTERNATIONAL BUILDING , TC┬á25/1075, NEAR ARISTO JUNCTION, EAST THAMPANOOR, TRIVANDRUM┬á,695014.",THIRUVANANTHAPURAM,THIRUVANANTHAPURAM,KERALA,2329585
700,SOUTH INDIAN BANK,SIBL0000722,SOMAJIGUDA,"GROUND FLOOR, D NO 6-3-1085/D/G1, DEGA TOWERS, RAJ BHAVAN ROAD, SOMAJIGUDA, HYDERABAD-500082",HYDERABAD,HYDERABAD,ANDHRA PRADESH,23412722
701,SOUTH INDIAN BANK,SIBL0000723,NEW DELHI - TILAK NAGAR,"WZ-116, PLOT NO. 61-H, MEENAKSHI GARDEN, NAZAFGARH ROAD, TILAK NAGAR, NEW DELHI 110018",DELHI,DELHI,DELHI,28124195
702,SOUTH INDIAN BANK,SIBL0000724,DELHI MODEL TOWN,"PLOT NO. 22, BLOCK C- 5,MODEL TOWN PHASE 3,OPP POST OFFICE, DELHI- 110009",DELHI,DELHI,DELHI,27232161
703,SOUTH INDIAN BANK,SIBL0000725,DELHI SHALIMAR BAGH,"BT-1, SHALIMAR BAGH RESIDENTIAL SCHEME,OPP DT CINEMAS, DELHI 110088",DELHI,DELHI,DELHI,27486296
704,SOUTH INDIAN BANK,SIBL0000726,HI TEC CITY,"1ST FLOOR, H NO:2-38/A, P NO:8, GUTTALA BEGUMPET VILLAGE, MADHAPUR MAIN RD, HYDERABAD",KARIMNAGAR,BEGUMPET,ANDHRA PRADESH,23110726
705,SOUTH INDIAN BANK,SIBL0000727,AHMEDABAD SATELLITE ROAD,"SHOP NO. 5 7 6, ISCON PLAZA, SATELLITE ROAD, OPP. STAR INDIA BAZAR, NEAR SUNDAVAN, AHMEDABAD ┬û 380015",AHMEDABAD,AHMEDABAD,GUJARAT,26925501
706,SOUTH INDIAN BANK,SIBL0000728,KOLKATA CORPORATE,"2,CHURCH LANE,KOLKATA-700001",KOLKATA,KOLKATA,WEST BENGAL,22611209
707,SOUTH INDIAN BANK,SIBL0000729,VADAKKANKULAM,"DONO12-686A, WARD NO3, SANGU NAGAR, VADAKKANKULAM PO, TIRUNELVELI, TAMIL NADU-627116",TIRUNELVALI,VALLIOOR,TAMIL NADU,232482
708,SOUTH INDIAN BANK,SIBL0000730,PERUMTHURUTHY,"PUSHPAGIRI DENTAL┬á COLLEGE,PERUMTHURUTHY,THIRUVALLA,PIN 689107",PATHANAMTHITTA,THIRUVALLA,KERALA,2645733
709,SOUTH INDIAN BANK,SIBL0000731,BALLUR,"345,SIPCOT ROAD,BALLUR,ANEKKAL THALUK,KARNATAKA",BANGALORE URBAN,ANEKAL,KARNATAKA,314014
710,SOUTH INDIAN BANK,SIBL0000732,ENATHI,"NO.2/731,THIRUMANJOLAI,ENATHI, SIVAGANGAI DIST- 630561",SIVAGANGA,SIVAGANGA,TAMIL NADU,22611209
711,SOUTH INDIAN BANK,SIBL0000733,SAKKIMANGALAM,"1/135, SOURASTRA COLONY, MEENATCHI NAGAR, SAKKIMANGALAM, MADURAI NORTH- 625201",MADURAI,MADURAI,TAMIL NADU,22611209
712,SOUTH INDIAN BANK,SIBL0000734,THETHIPALAYAM,"SHOP NO:103,WARD NSMK COMPLEX SIRUVANI MAIN ROAD,KALAMPALAYAM,THETHIPALAYAM, COIMBATORE-641010",COIMBATORE,KALAMPALAYAM,TAMIL NADU,2609734
713,SOUTH INDIAN BANK,SIBL0000735,KOTTAYI,"KOTTAYI  P.O, PALAKKAD DISTRICTDOOR NO.8/609,""SHIFA ARCADE"",, KOTTAYI,PALAKKAD -678572",PALAKKAD,KOTTAYI,KERALA,285040
714,SOUTH INDIAN BANK,SIBL0000736,PALAKKAYAM,"T. JAYS COMPLEX,BUILDING NO 704/A,PALAKKAYAM P O, PALAKKAD- 678591",PALAKKAD,POTTASSERY,KERALA,256066
715,SOUTH INDIAN BANK,SIBL0000737,PUTHUPARIYARAM,"DONO19-597, WARD NO19, KARUNA BUILDING, MUTTIKULANGARA, VALLIKODE JUNCTION, MUTTIKULANGARA PO, PALAKKAD, KERALA-678594",PALAKKAD,PUTHUPPARIYARAM,KERALA,2555508
716,SOUTH INDIAN BANK,SIBL0000738,PERUMATTY,"TKD BUILDING,BUILDING NO.275,NANNIODE JN., NANNIODE P O, PALAKKAD-678534",PALAKKAD,VANDITHAVALAM,KERALA,232100
717,SOUTH INDIAN BANK,SIBL0000739,ENKAKKAD,"BUILDING NO.10/1052,OTTUPARA,VAZHANI ROAD,WADAKKENCHERY, ENKAKKAD,PALAKKAD-680582",THRISSUR,WADAKANCHERRY,KERALA,4234750
718,SOUTH INDIAN BANK,SIBL0000741,KURUVAMBALAM,"GROUND FLOOR,BUILDING NO.VI/152, ONAPPUDA, KOLATHUR VIA, KURUVAMBALAM, MALAPPURAM",MALAPPURAM,PULAMANTHOLE,KERALA,202300
719,SOUTH INDIAN BANK,SIBL0000742,EDULABAD,"DONO10-132-2, GHATKESAR MANDAL, GHATKESAR PO, RANGA REDDI, TELANGANA-501301",RANGAREDDY,GHATKESAR,ANDHRA PRADESH,222748
720,SOUTH INDIAN BANK,SIBL0000743,MEDIPALLI,"PLOT NO.8,P&T COLONY,MEDIPPALLI GRAM PANCHAYAT,GHATKESAR MANDAL, RANGAREDDY DIST.",RANGAREDDY,MEDIPALLI,ANDHRA PRADESH,27208743
721,SOUTH INDIAN BANK,SIBL0000744,NEW DELHI CORPORATE,"A-301, III FLOOR, STATESMAN HOUSE, 148,BARAKHAMBA ROAD, NEW DELHI",DELHI,DELHI,DELHI,23736140
722,SOUTH INDIAN BANK,SIBL0000745,AIZAWL,"F.KAPSANGA BUILDING,GROUND FLOOR,OPP.ASSAM RIFLE GATE, DAWRPUI,AIZAWL-796001, MIZORAM",AIZAWL,AIZAWL,MIZORAM,2316327
723,SOUTH INDIAN BANK,SIBL0000751,THALTEJ-AHMEDABAD,"GF,SHOP NO. 35,36 &37,ORCHID SHOPPING MALL,THALTEJ-SHILAJ ROAD,THALTEJ,AHMEDABAD",AHMADABAD,THALTAJ,GUJARAT,26880505
724,SOUTH INDIAN BANK,SIBL0000752,NAMAKKAL,"337/114 B-1,KKP COMPLEX, OPP. LMR THEATRE, SALEM ROAD, NAMAKKAL-637001",NAMAKKAL,NAMAKKAL,TAMIL NADU,276752
725,SOUTH INDIAN BANK,SIBL0000753,KUNIAMUTHUR,"PALAKAD MAIN ROAD, KUNIAMUTHUR,COIMBATORE-641008",COIMBATORE,KUNIAMUTHUR,TAMIL NADU,2252939
726,SOUTH INDIAN BANK,SIBL0000754,GUDALUR,"DOOR NO.11/367,WARD NO.13,SENSATION BUI, GUDALUR ,P.B.#: PO GUDALUR BAZAR POST,, , PINCODE: 643212,GUDALUR  TAMIL NADU, NILGIRI",NILGIRI,GUDALUR,TAMIL NADU,263822
727,SOUTH INDIAN BANK,SIBL0000755,UDHAGAMANDALAM,"D.30A,WARD NO.09, PREETHI CLASSIC TOWER, COONOOR ROAD, CHARING CROSS, PINCODE: 643001  COONOOR ROAD, UDHAGAMANDALAM NILGIRI",NILGIRI,UDHAGAMANDALAM,TAMIL NADU,2449555
728,SOUTH INDIAN BANK,SIBL0000756,KUNDARA,"DONOEP-XV-736-751, KALLARACKAL BUILDING, MUKKADA JUNCTION, KUNDARA PO, KOLLAM, KERALA-691501",THRISSUR,KUNDARA,KERALA,2290223
729,SOUTH INDIAN BANK,SIBL0000757,KOYILANDY,"NO.26/54 QTOX,CITY BAZAR SHOPPING MALL, KANNUR ROAD,KOYILANDY P.O., PINCODE: 673305 ,KERALA, KOZHIKODE",KOZHIKODE,KOYILANDY,KERALA,2620315
730,SOUTH INDIAN BANK,SIBL0000758,PUNNEKKAD,"DR NO.282,283,298,299,PULICHAMAKKAL BLDG, K.P.ROAD ,KEERAMPARA P.O., PUNNEKKAD, PINCODE: 686681 ,KERALA, ERNAKULAM",MUVATTUPUZHA,PUNNEKKAD,KERALA,2570123
731,SOUTH INDIAN BANK,SIBL0000759,PALLIKKARA,"OPP.ST.MARYS CATHEDRAL, PALLIKKARA,KUMARAPURAM, PINCODE: 683565 ,KERALA, ERNAKULAM",ERNAKULAM,PALLIKKARA,KERALA,2680822
732,SOUTH INDIAN BANK,SIBL0000760,POTHANICAD,"DOOR NO.402, ELLICKAL BUILDING,, POTHANICAD - KALIYAR ROAD,POTHANICAD P.O.,, PINCODE: 686671 MUVATTUPUZHA, KOTHAMANGALAM",MUVATTUPUZHA,POTHANICAD,KERALA,2562600
733,SOUTH INDIAN BANK,SIBL0000761,PANACHIPARA,"DOOR NO.II/108 (B),KARTHIKA COMPLEX,P.B.#: POONJAR NADUBHAGAM, PANACHIPARA P.O.,, PINCODE: 686581",KOTTAYAM,PANACHIPARA,KERALA,277737
734,SOUTH INDIAN BANK,SIBL0000762,MONIPALLY,"DOOR NO.210A,310B,310C, URALIL BUILDING,MONIPALLY P.O.,, PINCODE: 686636 ,KERALA, KOTTAYAM",KOTTAYAM,MONIPALLY,KERALA,243355
735,SOUTH INDIAN BANK,SIBL0000763,PUTHUPPALLY,"WARD NO.17, C & C COMPLEX, PUTHUPALLY CHURCH ROAD ,PUTHUPALLY, PINCODE: 686011 KOTTAYAM ,PALLOM",KOTTAYAM,PUTHUPPALLY,KERALA,2351171
736,SOUTH INDIAN BANK,SIBL0000764,CHINGAVANAM,"WARD NO.II/134 C, KUNNUTHARAYIL ARCADE,, M.C.ROAD ,CHINGAVANAM, PINCODE: 686531 NATTAKOM",KOTTAYAM,CHINGAVANAM,KERALA,2430363
737,SOUTH INDIAN BANK,SIBL0000765,MEENANGADI,"DOOR NO.12/1083, SILVEROAK,PANAMARAM ROAD,MEENANGADI P.O, PINCODE: 673591,SULTHAN BATHERY ,WAYANAD",WAYANAD,MEENANGADI,KERALA,246566
738,SOUTH INDIAN BANK,SIBL0000766,NILESHWARAM,"DOOR NO.437/2 G, PANDIKODE UILDING, MAIN BAZAR ,NILESHWARAM P.O., PINCODE: 671314",KASARAGOD,NILESHWARAM,KERALA,2285123
739,SOUTH INDIAN BANK,SIBL0000767,ANJARAKANDY,"DOOR NO.493,WARD NO.XXI,T.K.COMPLEX,ANCHARAKKANDY P.O., PINCODE: 670612,THALASSERY, KOOTHUPARAMBU,KANNUR",KANNUR,ANJARAKANDY,KERALA,2856055
740,SOUTH INDIAN BANK,SIBL0000768,THURAVOOR,"DOOR NO.86 A,WARD NO.5, ABN BUILDING,THURAVOOR P.O.,, PINCODE: 688532 ,CHERTHALA TALUK,KERALA,ALAPUZHA",ALAPUZHA,THURAVOOR,KERALA,2562485
741,SOUTH INDIAN BANK,SIBL0000769,MANNAMARUTHI,"DOOR NO.84, WARD NO.17, CHENGOTTAYIL,MAKKAPUZHA P.O., MANNAMARUTHI, PINCODE: 689676 RANNI  KERALA, PATHANAMTHITTA",PATHANAMTHITTA,MANNAMARUTHI,KERALA,262040
742,SOUTH INDIAN BANK,SIBL0000770,SHORNUR,"WARD NOXVII, KOPPANS OUTLET MALL, GROUND FLOOR, MAIN ROAD, SHORNUR PO, PALAKKAD DISTRICT, KERALA-679121",PALAKKAD,SHORNUR,KERALA,2222282
743,SOUTH INDIAN BANK,SIBL0000771,VISHRANTWADI,"SARISHYAM HEIGHTS,NEAR POLICE STATION, ALANDI ROAD",PUNE,VISHRANTWADI,MAHARASHTRA,26680491
744,SOUTH INDIAN BANK,SIBL0000772,"AVINASHI ROAD,COIMBATORE","725/A,S R COMPLEX , AVINASHI ROAD",COIMBATORE,AVANASHI,TAMIL NADU,2222499
745,SOUTH INDIAN BANK,SIBL0000773,KUMARAPURAM,"TC 1/1979,GOKULAM,NEAR KUMARAPURAM JN.",THIRUVANANTHAPURAM,KUMARAPURAM,KERALA,2444403
746,SOUTH INDIAN BANK,SIBL0000774,BURDWAN,"ARIHANT ENCLAVE, GRAND TRUNK ROAD,PINCODE: 713103 MUCHIPARA, BARDDHAMAN  ,  WEST BENGAL, KOLKATA",KOLKATA,BURDWAN,WEST BENGAL,2645800
747,SOUTH INDIAN BANK,SIBL0000775,DURGAPUR,"AXES POINT, NAZRUL SARANI,P.B.#: DURGAPUR, DURGAPUR, PINCODE: 713216 ,CITY CENTRE, DURGAPUR  , NAZRUL SARANI ,WEST BENGAL, KOLKATA",KOLKATA,DURGAPUR,WEST BENGAL,2546009
748,SOUTH INDIAN BANK,SIBL0000776,KOLKATA KANKURGACH,"P-22/1, VIP ROAD,KANKURGACHI, PINCODE: 700054,CIT SCHEME,VII M KANKURGACHI, KOLKATA",KOLKATA,KOLKATA KANKURGACH,WEST BENGAL,23550176
749,SOUTH INDIAN BANK,SIBL0000777,MANINAGAR,"GROUND FLOOR, SHIVDEEP,NEAR BRTS, OPP MANI NAGAR RAILWAY STATION",AHMEDABAD,MANINAGAR,GUJARAT,25461790
750,SOUTH INDIAN BANK,SIBL0000778,TONDPALLE,"H NO:3-55, NH-44 ,P.B.#: PALAMAKOLE, , PINCODE: 509325 ,OPP. Z.P. HIGH SCHOOL, PALMAKOLE SHAMSHABAD, TONDUPALLY GRAM PANCHAYAT ANDHRA PRADESH, RANGAREDDY",RANGAREDDY,TONDPALLE,ANDHRA PRADESH,7702571182
751,SOUTH INDIAN BANK,SIBL0000779,CHAKAN,"HOTEL SAVERA BUILDING, PUNE NASHIK ROAD ,CHAKAN, PINCODE: 410501,MAHARASHTRA, MUMBAI",MUMBAI,CHAKAN,MAHARASHTRA,249077
752,SOUTH INDIAN BANK,SIBL0000780,WAGHOLI,"F M REALTY,9 KRISHNA KUNJ GUT NO.648 BY 2,PUNE NAGAR ROAD,WAGHOLI,PUNE 412207",PUNE,WAGHOLI,MAHARASHTRA,2365657
753,SOUTH INDIAN BANK,SIBL0000782,MATTANUR,"FIRST FLOOR, MATTANNUR MUNICIPAL COMPLEX, MATTANNUR-MANNUR ROAD ,P.B.#: 670702, MATTANNUR P.O., PINCODE: 670702 ,NEAR BSNL OFFICE, MATTANNUR, MATTANNUR ,THALASSERY TALUK, MATTANNUR,KERALA, KANNUR",KANNUR,MATTANUR,KERALA,2471722
754,SOUTH INDIAN BANK,SIBL0000783,ATHIKAYAM,"VALLIPURAYIDATHIL BUILDING, NARANAMOOZHY P O, ATHIKKAYAM,RANNI ┬û PERUNAD 689711, PATHANAMTHITTA",PATHANAMTHITTA,PERUNAD,KERALA,270004
755,SOUTH INDIAN BANK,SIBL0000784,KAINOOR,"WARD NO.II,VAIKKATTIL TRADE CENTRE,, POUND ROAD JUNCTION,PUTHUR, PINCODE: 680014 KERALA, THRISSUR",THRISSUR,KAINOOR,KERALA,2409099
756,SOUTH INDIAN BANK,SIBL0000785,ANANDAPURAM,"370/1, ANANDAPURAM KURIES BUILDING, ANANDAPURAM P.O-680 305",THRISSUR,MURIYAD,KERALA,2880150
757,SOUTH INDIAN BANK,SIBL0000786,VALIYAPARAMBU,"GROUND FLOOR ,A R PLAZA, VALUYAPARAMBU, KURUVILASSERY P O, THRISSUR-680732",THRISSUR,MELADOOR,KERALA,2365657
758,SOUTH INDIAN BANK,SIBL0000787,CHENTRAPPINNI,"WARD NOIX, ZULU TOWER, NH 17, CHENTRAPPINNI PO, THRISSUR, KERALA-680687",THRISSUR,CHENDRAPPINNI,KERALA,2365657
759,SOUTH INDIAN BANK,SIBL0000789,S N PURAM,"535/DEFG, MINERVA COMPLEX, PANANGAD P O, S N PURAM-680 665",THRISSUR,SREENARAYANAPURAM,KERALA,2850789
760,SOUTH INDIAN BANK,SIBL0000790,ALOOR,"KAINADATHU SHOPPING COMPLEX, ALOOR CENTRE, ALOOR-680 683",THRISSUR,ALOOR,KERALA,2727666
761,SOUTH INDIAN BANK,SIBL0000791,PAZHOOKARA,"ST.JOSEPH'S CHURCH BUILDING, PAZHOOKARA.P O - 680 731",THRISSUR,ASHTAMICHIRA,KERALA,2785255
762,SOUTH INDIAN BANK,SIBL0000792,NADAVARAMBU,"X111/56A, NADAVARAMBU JN. , VAIKARA ROAD, THRISSUR-680661",THRISSUR,IRINJALAKUDA,KERALA,2365657
763,SOUTH INDIAN BANK,SIBL0000793,KANYAKUMARI,"SUTHA COMPLEX,DOOR NO.5/67D, WARD NO.15,, KANNIYAKUMARI MAIN ROAD ,KANNIYAKUMARI, PINCODE: 629702",KANYAKUMARI,KANYAKUMARI,TAMIL NADU,248322
764,SOUTH INDIAN BANK,SIBL0000794,GOTA,"VANDEMATRAM ARCADE,, NEW SG ROAD,PO GOTA, PINCODE: 382481 ,NEAR VANDEMATRAM CITY, GOTA ,DASCROI, FIRST FLOOR, SHOP NO.1,GUJARAT, AHMEDABAD",AHMEDABAD,GOTA,GUJARAT,65255525
765,SOUTH INDIAN BANK,SIBL0000795,MANNARGUDI,"D.NO 75B,EAST VADAMPOKKI STREET, MANNARGUDI-614001",THIRUVARUR,MANNARGUDI,TAMIL NADU,226611
766,SOUTH INDIAN BANK,SIBL0000796,MAYILADUTHURAI,"8/B, STATE BANK ROAD, AVAIYAMBALPURAM, MAYILADUTHURAI 609001",NAGAPATTINAM,MAYURAM(MAYILADUTHURAI),TAMIL NADU,220796
767,SOUTH INDIAN BANK,SIBL0000797,KARAIKUDI,"CHONA BUILDING, OLD N0-17, NEW NO-14,SUBRAMANIAPURAM, 2ND STREET, KARAIKUDI- 630002",SIVAGANGA,KARAIKUDI,TAMIL NADU,225111
768,SOUTH INDIAN BANK,SIBL0000798,RAMANATHAPURAM,"102/14, SURYA TOWERS, DEVIPATTINAM ROAD, RAMANATHAPURAM - 623501",TIRUNELVALI,RAMANATHAPURAM,TAMIL NADU,2365657
769,SOUTH INDIAN BANK,SIBL0000799,PATTUKOTTAI,"21, ARANTHANGI ROAD, PATTUKOTTAI - 614601",THANJAVUR,PATTUKOTTAI,TAMIL NADU,2365657
770,SOUTH INDIAN BANK,SIBL0000800,PERAMBALUR,"DOOR NO.172B, GROUND FLOOR, SENTHIL RAJA COMPLEX, MADHANAGOPALAPURAM, TRICHY MAIN ROAD, PERAMBALUR-621212",PERAMBALUR,PERAMBALUR,TAMIL NADU,276666
771,SOUTH INDIAN BANK,SIBL0000801,MANNAR,"468A,PUTHENPURAYIL COMPLEX,NEAR PARUMALAKKADAVU,MANNAR,ALAPUZHA",ALAPUZHA,MANNAR,KERALA,2365657
772,SOUTH INDIAN BANK,SIBL0000802,THALAYOLAPARAMBU,"DONO9-669, WARD NO9, PORAVANTHATTIL BUILDINGS, VAIKOM-KOTTAYAM ROAD SIDE, THALAYOLAPARAMBU PO, KOTTAYAM, KERALA-686605",KOTTAYAM,THALAYOLAPARAMBU,KERALA,236665
773,SOUTH INDIAN BANK,SIBL0000803,KODALY,"DONO1026-A, WARD NO22, THAYYIL BUILDINGS, VELLIKULANGARA ROAD, KODALY, PADY PO, THRISSUR, KERALA-680699",THRISSUR,MATTATHUR,KERALA,2365657
774,SOUTH INDIAN BANK,SIBL0000804,MOONNUPEEDIKA,"TELEPHONE EXCHANGE ROAD,NEAR MOONNUPEEDIKA BUS STOP,PERINJANAM 680686",THRISSUR,PERINGANAM,KERALA,2365657
775,SOUTH INDIAN BANK,SIBL0000805,KUMILY,"WARD NOXII, NAMPOZHIL BUILDINGS, K K ROAD, NEAR KSRTC BUS STATION, KUMILY PO, IDUKKI, KERALA-685509",IDUKKI,KUMILY,KERALA,223160
776,SOUTH INDIAN BANK,SIBL0000806,THODUPUZHA TOWN,"SREEVALSAM BUILDING, GROUND FLOOR, TEMPLE BYEPASS ROAD, THODUPUZHA-685584",IDUKKI,THODUPUZHA,KERALA,2365657
777,SOUTH INDIAN BANK,SIBL0000807,KARIMANNOOR,"J. J SQUARE, KARIMANNOOR ┬û THOMMAKUTH ROAD, KARIMANNOOR P.O, IDUKKI ┬û 685581",IDUKKI,KARIMANNOOR,KERALA,261777
778,SOUTH INDIAN BANK,SIBL0000808,PUTHENCRUZ,"PALACHUVATTIL ARCADE, OPP. H P PETROL PUMP, PUTHENCRUZ P.O, ERNAKULAM-682308",ERNAKULAM,PUTHENCRUEZ,KERALA,2730321
779,SOUTH INDIAN BANK,SIBL0000809,KURUPPAMPADY,"LEMONGRASS OIL & GENERAL MARKETING SOCIE, AM ROAD ,PO KURUPPAMPADY, PINCODE: 684535 ,KURUPPAMPADY, PERUMBAVOOR,KERALA, ERNAKULAM",ERNAKULAM,KURUPPAMPADY,KERALA,2592006
780,SOUTH INDIAN BANK,SIBL0000810,PAMPAKUDA,"DO.NO.382 B,WARD.IV,KUZHIPPILLIL COPMLEX, PIRAVOM ROAD,PAMPAKUDA, PINCODE: 686667 MUVATTUPUZHA",MUVATTUPUZHA,PAMPAKUDA,KERALA,2274715
781,SOUTH INDIAN BANK,SIBL0000811,BOPAL,"1 TO 4,SHILP SARAL ARTS, BOPAL-GHUMA ROAD BOPAL, PINCODE: 380058 GUJARAT, AHMEDABAD",AHMEDABAD,BOPAL,GUJARAT,233282
782,SOUTH INDIAN BANK,SIBL0000812,RATNAGIRI,"INFINTY PLAZA, SHOP NO.1,2,3, SIDDHIVINAYAL NAGAR,RATNAGIRI, PINCODE: 415612 MAHARASHTRA, RATNAGIRI",RATNAGIRI,RATNAGIRI,MAHARASHTRA,220801
783,SOUTH INDIAN BANK,SIBL0000813,BELTHANGADY,"RAKSHA ARCADE, WARD NO.6,, MAIN ROAD BELTHANGADY, PINCODE: 574214 KARNATAKA, DAKSHIN KANNAD",DAKSHIN KANNAD,BELTHANGADY,KARNATAKA,233131
784,SOUTH INDIAN BANK,SIBL0000814,PUTTUR,"PRABHU BUILDING, DO.NO.IV/572,WARD NO.IV, MAIN ROAD,PUTTUR, PINCODE: 574201",DAKSHIN KANNAD,PUTTUR,KARNATAKA,235900
785,SOUTH INDIAN BANK,SIBL0000815,KARWAR,"GROUND FLOOR, DOOR NO.1081, WARD NO.13, KAIKINI ROAD ,KARWAR, PINCODE: 581301",UTTAR KANNADA,KARWAR,KARNATAKA,227707
786,SOUTH INDIAN BANK,SIBL0000816,VELLARAKKAD,"WARD NO10, MUKRIYAKATHU BUILDINGS, VELLARAKKAD PO, THRISSUR DISTRICT, KERALA-680584",THRISSUR,VELLARAKKAD,KERALA,266665
787,SOUTH INDIAN BANK,SIBL0000817,ERUVELI,"DOOR NO.152, WARD NO.VIII,CHOTTANIKARA, PINCODE: 682312",ERNAKULAM,ERUVELI,KERALA,2711660
788,SOUTH INDIAN BANK,SIBL0000818,ARAYANKAVU,DOOR NO 11 483A BB ARCADE KULAYATTIKARA P O KANJIRAMATTOM VIA ARAYANKAVU ERNAKULAM 682315,ERNAKULAM,KANJIRAMATTOM,KERALA,2365657
789,SOUTH INDIAN BANK,SIBL0000819,MOGRAL,"BISMILLAH SHOPPING COMPLEX, DO.NO.IX/216,MOGRAL, PINCODE: 671321 ,KERALA, KASARAGOD",KASARGOD,MOGRAL,KERALA,213166
790,SOUTH INDIAN BANK,SIBL0000820,ARIKKADY,"RIFA CITY SHOPPING COMPLEX,DOOR-471,, NH-17,WARD NO.II,P.O.KUMBALA, PINCODE: 671321  ARIKKADY JUNCTION,, ARIKADY KERALA, KASARAGOD",KASARGOD,ARIKKADY,KERALA,213766
791,SOUTH INDIAN BANK,SIBL0000821,NEELAMPEROOR,"THIRUTHITHARA BUILDING,DOOR NO.III/16,, NEELAMPEROOR P.O.EARA NORTH, PINCODE: 686534,NEELAPEROOR, WARD NO.IV,, NEELAMPEROOR ,KERALA, ALAPUZHA",ALAPUZA,NEELAMPEROOR,KERALA,2710006
792,SOUTH INDIAN BANK,SIBL0000822,MUTTOM,"MARTH MARIYAM SHOPPIING COMPLEX, MUTTOM ,P.B.#: MUTTOM, , PINCODE: 685587 THODUPUZHA,KERALA, IDUKKI",IDUKKI,MUTTOM,KERALA,256344
793,SOUTH INDIAN BANK,SIBL0000823,NEYYASSERY,"ST.SEBASTIAN`S CHURCH BUILDINGS,NEYYASSERY, PINCODE: 685581  ,NEAR ST.SEBASTIAN`S CHURCH, NEYYASSERI ,KERALA, IDUKKI",IDUKKI,NEYYASSERY,KERALA,261888
794,SOUTH INDIAN BANK,SIBL0000824,CHANGODAR,"SATYAM MARKET,DO.NO.32-36, SARKEJ-BAVLA ROAD ,CHANGODHAR, PINCODE: 382213 ,MORAIYA, CHANGODHAR, MORAIYA SANAND,GUJARAT, AHMEDABAD",AHMEDABAD,CHANGODAR,GUJARAT,8155001951
795,SOUTH INDIAN BANK,SIBL0000825,KUDASAN,"SHOP NO33 TO 36, GROUND FLOOR, RADHE CRYSTAL, B-H SWAGAT RAINFOREST II, KUDASAN PO, GANDHINAGAR, GUJARAT-382421",GANDHI NAGAR,KUDASAN,GUJARAT,9913370712
796,SOUTH INDIAN BANK,SIBL0000826,BEHALA,"FLOOR 1, WARD NO.123, 18 DIAMOND HARBOUR ROAD ,BEHALA, PINCODE: 700008 BARISHA JANAKALYAN, KOLKATA",KOLKATA,BEHALA,WEST BENGAL,9007866977
797,SOUTH INDIAN BANK,SIBL0000827,GARIA,"SANJEEVANI BUILDING,DO.NO.3151,WARD 29, GARIA MAIN ROAD SONARPUR, PINCODE: 700084 KOLKATA, RAJPUR-SONARPUR WEST BENGAL, KOLKATA",KOLKATA,GARIA,WEST BENGAL,9903306033
798,SOUTH INDIAN BANK,SIBL0000828,SILIGURI,"UPPER GROUND FLOOR, WARD-13,MOTI SADAN, SEVOKE ROAD SILIGURI, PINCODE: 734001 MADURAI TAMILNADU",DARJILING,SILIGURI,WEST BENGAL,2465527
799,SOUTH INDIAN BANK,SIBL0000829,VIMAN NAGAR,"SHOP NO 69 TO 74,GROUND FLOOR,ASHOKA PLAZE,PUNE NAGAR ROAD,VIMAN NAGAR,PUNE 411016",PUNE,PUNE,MAHARASHTRA,2365657
800,SOUTH INDIAN BANK,SIBL0000830,SANGLI,"B WARD CTS 1035-B, URMILA EMPIRE APPARTMENT, AMRAI ROAD, OPP SHIVAJI STADIUM, SANGLI PO, SANGLI, MAHARASHTRA-416416",SANGLI,SANGLI,MAHARASHTRA,0
801,SOUTH INDIAN BANK,SIBL0000831,KAVILKADAVU,"CEEVEE'S COMPLEX, KAVILKADAVU, KODUNGALLUR.P.O, THRISSUR-680664",THRISSUR,KODUNGALLUR,KERALA,2365657
802,SOUTH INDIAN BANK,SIBL0000832,KOOTTILANGADI,"HAMSA HAJI BUILDING, IST FLOOR , KOOTTILANGADI. P.O, MALAPPURAM",MALAPPURAM,MALAPPURAM,KERALA,2365657
803,SOUTH INDIAN BANK,SIBL0000833,ARANATTUKARA,"DONO17-352-1, WARD NO38, PLATINUM TOWER, POOTHOLE ROAD, ARANATTUKARA PO, THRISSUR, KERALA-680618",THRISSUR,THRISSUR,KERALA,2365657
804,SOUTH INDIAN BANK,SIBL0000834,CHEMBUKAVU,"LATHIKA STUDIO BUILDING, MUSEUM, CHEMBUKAVU, THRISSUR, KERALA 680 020",THRISSUR,THRISSUR,KERALA,2365657
805,SOUTH INDIAN BANK,SIBL0000835,SANAND,"AAKAR ARCADE AND RESIDENCY, NR.LUHANA WADI,SHOP NO.6&7SANAND, PINCODE: 382110 GUJARAT, AHMEDABAD",AHMEDABAD,SANAND,GUJARAT,9904266200
806,SOUTH INDIAN BANK,SIBL0000836,TENKASI,TEMPLE TOWER 135 MUDUKKU VINAYAGA KOVIL STREET NEAR OLD BUS STAND TANKASI 627811,TIRUNELVALI,TENKASI,TAMIL NADU,2365657
807,SOUTH INDIAN BANK,SIBL0000838,NARODA,"GROUND FLOOR,HILONI BUSINESS CENTRE,NEAR HARIVALLABH SOCIETY,NARODA,AHMEDABAD",AHMADABAD,AHMEDABAD,GUJARAT,2365657
808,SOUTH INDIAN BANK,SIBL0000840,GREGORIAN PUBLIC SCHOOL EC,GREGORIAN DALE MARADU ERNAKULAM KERALA 682034,ERNAKULAM,MARADU,KERALA,2365657
809,SOUTH INDIAN BANK,SIBL0000841,"CHRIST ACADEMY SCHOOL,BANGALORE","CHRIST ACADEMY,BEGUR-KOPPA ROAD,HULLAHALLI,SAKKALWARA POST,BANGALORE",BANGALORE,HULLAHALLI,KARNATAKA,2365657
810,SOUTH INDIAN BANK,SIBL0000842,ST. JOSEPHS COLLEGE DEVAGIRI EC,"DOOR NO.83/1,MSW BLOCK,DEVAGIRI COLLEGE P O,KOZHIKODE-673008,KERALA",KOZHIKODE,CALICUT,KERALA,2365657
811,SOUTH INDIAN BANK,SIBL0000844,AMAL JYOTHI ENGINEERING COLLEGE EC KOOVAPPALLY,"DOOR NO.XIII 242, KOTTAYAM ERUMELY ROAD, KOOVAPPALLY, KOTTAYAM 686518,KERALA",KOTTAYAM,KOOVAPALLY,KERALA,2365657
812,SOUTH INDIAN BANK,SIBL0000845,NIRMALA COLLEGE EXTN COUNTER,NIRMALA COLLEGE CAMPUS NIRMALA COLLEGE P O MUVATTUPUZHA ERNAKULAM 686661,ERNAKULAM,MUVATTUPUZHA,KERALA,2365657
813,SOUTH INDIAN BANK,SIBL0000848,ST. GITS COLLEGE EC PATHAMUTTAM,"WARD NO.XIII, PATHAMUTTOM P O, KOTTAYAM 686532, KERRALA",KOTTAYAM,KOTTAYAM,KERALA,2365657
814,SOUTH INDIAN BANK,SIBL0000851,MAMBARAM SENIOR SECONDARY SCHOOL EC,"MAMBARAM ENGLISH MEDIUM SENIOR SECONDARY SCHOOL, MAMBARAM, KANNUR 670741",CANNUR,THALASSERY,KERALA,2365657
815,SOUTH INDIAN BANK,SIBL0000852,XAVIER UNIVERSITY EC BHUBANESWAR,"XAVIER CITY CAMPUS,NIJIGADA KURKI,HARIRAJPUR P O,PURI 752050,ORISSA",KHURDA,BHUBANESWAR,ODISHA,2365657
816,SOUTH INDIAN BANK,SIBL0000853,RAJAGIRI MEDICITY EC CHUNANGAMVELIY,"4/565 SANTINILAYAM, CMI HOUSE, CHUNANGAMVELY, ERUMATHALA P O, ERNAKULAM 683112",ERNAKULAM,ALUVA,KERALA,2365657
817,SOUTH INDIAN BANK,SIBL0000855,BISHOP BERETTA HIGH SCHOOL EC WARANGAL,"24-7-34, ARUNODAYA YOUTH CENTRE, FATHIMA NAGAR, KAZIPET, WARANGAL, TELANGANA",WARANGAL,KAZIPET,TELANGANA,2365657
818,SOUTH INDIAN BANK,SIBL0000857,ST. ANTONYS  H S S EC MOORKANAD,"CHURCH ROAD,ST.ANTONYS CHURCH, PORATHISSERI,THRISSUR 680711",THRISSUR,PORATHISSERI,KERALA,2365657
819,SOUTH INDIAN BANK,SIBL0000858,NEWMAN COLLEGE EXTN COUNTER,"LIBRARY BUILDING, NEWMAN COLLEGE CAMPUS, THODUPUZHA EAST, IDUKKI, KERALA",IDUKKI,THODUPUZHA,KERALA,2365657
820,SOUTH INDIAN BANK,SIBL0000862,CSI MEDICAL COLLEGE EC KARAKONAM,"ALBANY BLOCK, CSI MEDICAL COLLEGE,KARAKONAM,NEYYATTINKARA",THIRUVANANTHAPURAM,KUNNATHUKKAL,KERALA,2365657
821,SOUTH INDIAN BANK,SIBL0000863,MARIAS DAY SCHOOL EC HOWRAH,"11 6,G T ROAD S , 2, GOPAL GOVIND BOSE LANE, HOWRAH P O, HOWRAH 711101, WEST BENGAL",HAORA,HOWRAH,WEST BENGAL,2365657
822,SOUTH INDIAN BANK,SIBL0000864,WAKAD,"OFFICE NO 1, GANGA OSIAN SQUARE, A BUILDING, WAKAD, PUNE 411057",PUNE,PUNE,MAHARASHTRA,2365657
823,SOUTH INDIAN BANK,SIBL0000865,PUNE BHOSARI,"INDRAYANI NAGAR, PLOT NO 9S, PCNTDA,SHIV APARTMENT BUILDING, BHOSARI, PUNE 411035",PUNE,PUNE,MAHARASHTRA,2365657
824,SOUTH INDIAN BANK,SIBL0000866,KONGALNAGARAM,POLLACHI DHARAPURAM MAIN ROAD KONGALNAGARAM P O TIRUPUR TAMILNADU,COIMBATORE,UDUMALPET,TAMIL NADU,2365657
825,SOUTH INDIAN BANK,SIBL0000867,MANCHERIAL,"DONO11-252 TO 254, WARD NO 11, VASUDEVA COMPLEX, IB STREET, MANCHERIAL PO, ADILABAD, TELANGANA-504208",ADILABAD,MANCHERIYAL,TELANGANA,2365657
826,SOUTH INDIAN BANK,SIBL0000868,NALLANUR,"DHARMAPURI PENNAGARAM HIGHWAY, OPP JAYAM COLLEGE, BILIYANUR P O, DHARMAPURI 636813, TAMILNADU",DHARMAPURI,PENNAGARAM,TAMIL NADU,2365657
827,SOUTH INDIAN BANK,SIBL0000869,UNJAVELAMPATTI,"2/288,FRANCIS BUILDING, UDUMAL ROAD, UNJAVELAMPATTI, COIMBATORE 642003",COIMBATORE,POLLACHI,TAMIL NADU,2365657
828,SOUTH INDIAN BANK,SIBL0000870,HATIBAGAN,"DONO64, ARABINDA SARANI, BEADON STREET PO, KOLKATA, WEST BENGAL-700006",KOLKATA,KOLKATA,WEST BENGAL,2365657
829,SOUTH INDIAN BANK,SIBL0000871,GANGTOK,"HUNGRY JACK PLAZA, 31 A NATIONAL HIGHWAY, GANGTOK, EAST SIKKIM 737101, SIKKIM",EAST SIKKIM,GANGTOK,SIKKIM,2365657
830,SOUTH INDIAN BANK,SIBL0000872,MARANGATTUPILLY,"CHURCH BUILDING, MARANGATTUPILLY P O,KOTTAYAM 686635,KERALA",KOTTAYAM,MARANGATTUPALLY,KERALA,2365657
831,SOUTH INDIAN BANK,SIBL0000873,VADAPERUMBAKKAM,"BALAJI NAGAR, VADAPERUMBAKKAM P O, THIRUVALLUR",THIRUVALLUR,MADHAVARAM,TAMIL NADU,2365657
832,SOUTH INDIAN BANK,SIBL0000874,JUBILEE MISSION MEDICAL COLLEGE EC,"JUBILEE MISSION MEDICAL COLLEGE, THRISSUR EAST P O, THRISSUR,KERALA 680005",THRISSUR,THRISSUR,KERALA,2365657
833,SOUTH INDIAN BANK,SIBL0000875,TUMKUR,"WARD NO7, KORI SADANNA COMPLEX, BH ROAD, GUBBI GATE CIRCLE, TUMAKURU PO, TUMAKURU, KARNATAKA-572101",TUMKUR,TUMKUR,KARNATAKA,2365657
834,SOUTH INDIAN BANK,SIBL0000877,SACRED HEART MISSION HOSPITAL EC PULLUR,SACRED HEART MISSION HOSPITAL BUILDING RAILWAY STATION RAOD IRINJALAKUDA,THRISSUR,MURIYAD,KERALA,2365657
835,SOUTH INDIAN BANK,SIBL0000879,BRILLIANT STUDENT CENTRE EC,"BRILLIANT, MUTHOLY-KODUNGOOR ROAD, MUTHOLY, PULIYANNOOR, KOTTAYAM 686573",KOTTAYAM,PALAI,KERALA,2365657
836,SOUTH INDIAN BANK,SIBL0000880,ST MARYS COLLEGE EC TUTICORIN,"6,18, A BLOCK, ST MARYS COLLEGE (AUTONOMOUS), 104 NORTH BEACH ROAD, TUTICORIN, TAMIL NADU 628001",TOOTHUKUDI,TUTICORIN,TAMIL NADU,2365657
837,SOUTH INDIAN BANK,SIBL0000881,LISIE HOSPITAL EC KALOOR,"36/1000A, CITY CENTRE, LISIE JUNCTION, KALOOR,ERNAKULAM-682018",ERNAKULAM,KALOOR,KERALA,2365657
838,SOUTH INDIAN BANK,SIBL0000882,ST FRANSCILIAN SOCIETY H S S EC,"SFS SCHOOL BUILDING,SHANTI NAGAR, NORTH LALAGUDA,LALAPET,RANGA REDDY,TELANGANA",RANGAREDDY,MALKAJGIRI,TELANGANA,2365657
839,SOUTH INDIAN BANK,SIBL0000883,CARMELRAM ROSARIAN TRAINING INSTITUTE,"WARD NO 150, BELLANDUR,ROSARIAN TRAINING CENTRE,GUNJUR ROAD,CARMELRAM",BANGALORE URBAN,BANGALORE,KARNATAKA,2365657
840,SOUTH INDIAN BANK,SIBL0000884,TANALUR,"PSM BUILDING, TANALUR, MALAPPURAM",MALAPPURAM,TANALUR,KERALA,2365657
841,SOUTH INDIAN BANK,SIBL0000885,ABHISHEGAPAKKAM,"NO 19, MADUKARAI ROAD, ABHISHEGAPAKKAM, PONDICHERRY 605 007",PONDICHERRY,ARIYAMKUPPAM,PUDUCHERRY,2365657
842,SOUTH INDIAN BANK,SIBL0000886,PADHUVANCHERRY,"NEW NO 54, AGARAMTHEN MAIN ROAD, SECRETAIRAT COLONY, PADHUVANCHERRY 600126",KANCHEEPURAM,TAMBARAM,TAMIL NADU,2365657
843,SOUTH INDIAN BANK,SIBL0000887,UJJAIN,"ARIHANT AVENUE, NANA KHEDA,DUSSEHRA MAIDAN M L NAGAR, UJJAIN 456006",UJJAIN,UJJAIN,MADHYA PRADESH,2365657
844,SOUTH INDIAN BANK,SIBL0000888,PULLIPADAM,"7F, RAHMATH TOWER, CNG MAIN ROAD, MAMPAD, MALAPPURAM, KERALA",MALAPPURAM,MAMPAD,KERALA,2365657
845,SOUTH INDIAN BANK,SIBL0000889,KOLKATA PARK STREET,"20B,63, NEAR KFC, PARK STREET, KOLKATA, WEST BENGAL 700 016",KOLKATA,KOLKATA,WEST BENGAL,2365657
846,SOUTH INDIAN BANK,SIBL0000890,VESU SURAT,"MONEY ARCADE, G D GOYANKA SCHOOL CANAL ROAD, VESU BHARATHANA, VESU, SURAT, GUJARAT 395007",SURAT,VESU,GUJARAT,2365657
847,SOUTH INDIAN BANK,SIBL0000892,ST FRANCIS XAVIER CHURCH UPS EC,"II/119,WARD NO II,CHURCH UP SCHOOL,CHERANALLOOR-KOOVAPADY ROAD, EAST CHERANALLOOR,KOOVAPADY, ERNAKULAM-683 544,KERALA",ERNAKULAM,KOOVAPADY,KERALA,2365657
848,SOUTH INDIAN BANK,SIBL0000893,PULIYANMALA,"GREEN HOUSE, KUMILY KATTAPPANA ROAD, PULIYANMALA, IDUKKI 685515",IDUKKI,VANDANMETTU,KERALA,2365657
849,SOUTH INDIAN BANK,SIBL0000894,SAVURIYUR,"5/473C-D, AADAIYUR MAIN ROAD, SAVURIYUR BUS STOP, JALAKANDAPURAM, SALEM 636501",SALEM,JALAKANTAPURAM,TAMIL NADU,2365657
850,SOUTH INDIAN BANK,SIBL0000896,ST PAULS COLLEGE EC KALAMASSERY,"HMT SEAPORT AIRPORT ROAD, INSIDE ST PAULS COLLEGE,HMT COLONY PO, ERNAKULAM 683 503",ERNAKULAM,KALAMASSERY,KERALA,2365657
851,SOUTH INDIAN BANK,SIBL0000897,MALANKARA SYRIAN ORTHODOX THEOLOGICAL SEMINARY EC,"MSOT BOOK STALL BUILDING,MAMALAKAVALA,PIROVAM ROAD,UDAYAGIRI,VETTICKAL P O,ERNAKULAM 682314",ERNAKULAM,THIRUVANIYOOR,KERALA,2365657
852,SOUTH INDIAN BANK,SIBL0000898,SFS SCHOOL EC SEETHAMMADHARA,"GROUD FLOOR,SFS SCHOOL,OPP. RYTHU BAZAR, SEETHAMMADHARA,VISAKHAPATNAM 530 013",VISHAKHAPATNAM,VISAKHAPATNAM,ANDHRA PRADESH,2365657
853,SOUTH INDIAN BANK,SIBL0000899,KOTAK SALESIAN SCHOOL EC CHINNA WALTAIR,"GROUND FLOOR,KOTAK SALESIAN SCHOOL,CHINNA WALTAIR,VISAKHAPATNAM 530 003",VISHAKHAPATNAM,VISAKHAPATNAM,ANDHRA PRADESH,2365657
854,SOUTH INDIAN BANK,SIBL0000900,ST JOSEPHS CELLEGE EC ABIDS,"ST JOSEPH DEGREE AND PG COLLEGE,KING KOTI ROAD,GUN FOUNDARY ,ABIDS, HYDERABAD 500 001",HYDERABAD,HYDERABAD,TELANGANA,2365657
855,SOUTH INDIAN BANK,SIBL0000901,AL AZHAR MEDICAL COLLEGE EC THODUPUZHA,"AL AZHAR MEDICAL COLLEGE,EZHALLOOR ROAD,PERUMBILLICHIRA,EZHALLOOR PO,THODUPUZHA 685 605",IDUKKI,KUMARAMANGALAM,KERALA,2365657
856,SOUTH INDIAN BANK,SIBL0000902,MUHAMMA,"K E CARMEL SCHOOL BUILDING, MUHAMMA, ALAPUZHA, KERALA 688 525",ALAPUZHA,THANNEERMUKKAM SOUTH,KERALA,2365657
857,SOUTH INDIAN BANK,SIBL0000904,KARIMKUNNAM,"ST.AUGUSTINES CHURCH BUILDING,KARIMKUNNAM -PURAPUZHA ROAD,KARIMKUNNAM,IDUKKI 685586",IDUKKI,KARIMKUNNAM,KERALA,2365657
858,SOUTH INDIAN BANK,SIBL0000905,KARIMUGHAL,"EBENEZER BUILDING, ALUVA THRIPUNITHURA ROAD,KARIMUGHAL,ERNAKULAM, KERALA 682 303",ERNAKULAM,KARIMUGAL,KERALA,2365657
859,SOUTH INDIAN BANK,SIBL0000906,ELURU,"KAVYA SRI NILAYAM, GUBBALAVARI STREET, R R PETA, CHANAKYAPURI COLONY, WEST GODAVARI 534002",WEST GODAVARI,ELURU,ANDHRA PRADESH,2365657
860,SOUTH INDIAN BANK,SIBL0000907,GURGAON SECTOR TWENTY THREE,"SECTOR 23, PALAM VIHAR, GURGAON, HARYANA 122017",GURGAON,GURGAON,HARYANA,2365657
861,SOUTH INDIAN BANK,SIBL0000908,THIRUVATHUR,"DONO352, WARD NO1, KPS COMPLEX, THIRUVATHUR, PAVUNJUR PO, KANCHEEPURAM DISTRICT, TAMIL NADU-603312",KANCHEEPURAM,PAVINJUR,TAMIL NADU,2365657
862,SOUTH INDIAN BANK,SIBL0000911,PEENYA INDUSTRIAL AREA,"138-B, UDAYAGIRI COMPLEX, PEENYA 3RD PHASE INDUSTRIAL AREA,PEENYA,BANGALORE NORTH,KARNATAKA",BANGALORE URBAN,PEENYA,KARNATAKA,2365657
863,SOUTH INDIAN BANK,SIBL0000912,AMBATTUR,"PMR TOWERS,MENAMBEDU MAIN ROAD,COROMANDEL TOWN, AMBATTUR INDUSTRIAL ESTATE,PADI",TIRUVALLUR,PADI,TAMIL NADU,2365657
864,SOUTH INDIAN BANK,SIBL0000913,VELANKANNI,"DONO22, WARD NO9, M DEIVAKIAMMAL BUILDING, ECR MAIN ROAD, VELANKANNI PO, NAGAPATTINAM, TAMIL NADU-611111",NAGAPATTINAM,VELANGANNI,TAMIL NADU,2365657
865,SOUTH INDIAN BANK,SIBL0000914,ST. TERESAS SENIOR SECONDARY SCHOOL,"ST. TERESAS SR. SEC. SCHOOL, PUSPAGIRI,BOHRA GANESH JI ROAD,SHASTRI CIRCLE, SUB OFFICE, UDAIPUR,RAJASTHAN",UDAIPUR,UDAIPUR,RAJASTHAN,2365657
866,SOUTH INDIAN BANK,SIBL0000915,ST MICHELS HIGH SCHOOL THATHAMPALLY,"ST MICHEALS BUILDING,ST MICHEALS CHRCH ROAD,ST MICHEALS SCHOOL THATHAMPALLY,ALAPPUZHA",ALAPPUZHA,ALAPPUZHA,KERALA,2365657
867,SOUTH INDIAN BANK,SIBL0000916,ST.SEBASTIANS PUBLIC SCHOOL UDAYAMPERUR,"WARD NO 7,ST SEBASTIANS PUBLIC SCHOOL PREMISES,NADAKKAVU,UDAYAMPERUR",ERNAKULAM,NADAKKAVU,KERALA,2365657
868,SOUTH INDIAN BANK,SIBL0000918,LOYOLA HIGH SCHOOL,"WARD NO 3,4 AND 5,LOYOLA INDUSTRIAL TRAINING INSTITUTE,KURJI,PATNA",PATNA,KURJI,BIHAR,2365657
869,SOUTH INDIAN BANK,SIBL0000919,CHRIST INSTITUTE OF MANAGEMENT,"CHRIST INSTITUTE OF MANAGEMENT,30, VALOR COURT, DASVE, POCKET P3,DASVE LAVASA",PUNE,PUNE,MAHARASHTRA,2365657
870,SOUTH INDIAN BANK,SIBL0000920,SARASWATI VISHWA VIDYALAYA,"SHOP NO14,GAT NO164 A,SONIGARA HEIGHTS BUILDING COMMERICIAL,TRIVENI NAGAR,TALAWADE",PUNE,PUNE,MAHARASHTRA,2365657
871,SOUTH INDIAN BANK,SIBL0000921,ST JOSEPHS INDUSTRIAL TRAINING CENTRE,"ST JOSEPHS INDUSTRIAL TRAINING CENTRE,DOOR NO 45-1-41,WARD NO 5,ELURU ROAD,GUNADALA",KRISHNA,GUNADALA,ANDHRA PRADESH,2365657
872,SOUTH INDIAN BANK,SIBL0000922,ST THOMAS HOSPITAL,"ST THOMAS HOSPITAL,CHETHIPUZHA,KURISUMMOODU,KOTTAYAM",KOTTAYAM,KOTTAYAM,KERALA,2365657
873,SOUTH INDIAN BANK,SIBL0000924,"ST MARYS UPS ,CHERANALLOOR","WARD NO 2,ST. MARYS UPS SCHOOL,W. CHERANALLOOR,CHERANALLOOR,ERNAKULAM",ERNAKULAM,CHERANALLUR,KERALA,2365657
874,SOUTH INDIAN BANK,SIBL0000925,"LOBELIA HSS,NAYARAMBALAM","DOOR NO 534 A,WARD NO 7,VYPIN-PALLIPURAM ROAD,KUDUNGASSERY,NAYARAMBALAM,ERNAKULAM",ERNAKULAM,NAYARAMBALAM,KERALA,2365657
875,SOUTH INDIAN BANK,SIBL0000926,ST JOSEPHS HOSPITAL MARIAM NAGAR,"ST JOSEPHS HOSPITAL,MARIAM NAGAR,NANDGRAM,MEERUT ROAD,GHAZIABAD",GHAZIABAD,GHAZIABAD,UTTAR PRADESH,2365657
876,SOUTH INDIAN BANK,SIBL0000927,KODUMON HIGH SCHOOL,"DOOR NO15,16,ARADHANA BUILDING,KODUMON,PATHANAMTHITTA",PATHANAMTHITTA,KODUMON,KERALA,2365657
877,SOUTH INDIAN BANK,SIBL0000928,ST.GREGORIUS SENIOR SECONDARY SCHOOL,"WARD NO 2,OLD HOSPITAL BLOCK, ST. GREGORIUS SENIOR SECONDARY SCHOOL,KAIPATTOOR",PATHANAMTHITTA,PATHANAMTHITTA,KERALA,2365657
878,SOUTH INDIAN BANK,SIBL0000930,KOTTAYAM MEDICAL COLLEGE,"WARD 52,KARIMATTATHIL BUILDING NO XIII/5733,GANDHINAGAR,KOTTAYAM",KOTTAYAM,KOTTAYAM,KERALA,2556003
879,SOUTH INDIAN BANK,SIBL0000931,KATTAKADA CHRISTIAN COLLEGE,"DOOR NO 275,CHRISTIAN COLLEGE, KATTAKADA,THIRUVANANTHAPURAM",THIRUVANANTHAPURAM,KATTAKADA,KERALA,2556003
880,SOUTH INDIAN BANK,SIBL0000932,ALAMBADI,"BUILDING NO 121,CHRIST COLLEGE OF SCIENCES & MANAGEMENT CAMPUS,CHRIST NAGAR,ALAMBADI,KOLAR",KOLAR,KOLAR,KARNATAKA,2365657
881,SOUTH INDIAN BANK,SIBL0000934,PERUMPADAVU,"DONO11, WARD NO10, MODAYANICKAL COMPLEX, PERUMPADAVU-PAYYANNUR ROAD, PERUMPADAVU, KARIPPAL PO, 670581",CANNUR,CANNUR,KERALA,2365657
882,SOUTH INDIAN BANK,SIBL0000935,"MARY MATHA ENGLISH MEDIUM SCHOOL,THULLUR","DOOR NO 2-18,MARY MATHA ENGLISH MEDIUM HIGH SCHOOL,THULLUR MAIN ROAD,THULLUR,GUNTUR",GUNTUR,THULLUR,ANDHRA PRADESH,2365657
883,SOUTH INDIAN BANK,SIBL0000937,MEENAKSHI MISSION HOSPITAL AND RESEARCH CENTRE,"DOOR NO 1,WARD 28,MMHRC,MELUR ROAD,MATTUTHAVANI POST OFFICE,MADURAI",MADURAI,MADURAI,TAMIL NADU,2365657
884,SOUTH INDIAN BANK,SIBL0000938,VALAYANCHIRANGARA,"WARD NO 14,PARACKAL SQUARE,MANNOOR- PONJASSERY ROAD,VALAYANCHIRANGARA",ERNAKULAM,ARAKKAPADY,KERALA,2365657
885,SOUTH INDIAN BANK,SIBL0000939,SOUTH VAZHAKULAM,"WARD NO20, PADANAIR TOWERS, ALUVA-MUNNAR ROAD, THADIYITTAPARAMBU JUNCTION, SOUTH VAZHAKULAM PO, ERNAKULAM, KERALA-683105",ERNAKULAM,VAZHAKULAM,KERALA,2365657
886,SOUTH INDIAN BANK,SIBL0000940,PALAKKAD - MELAMURI,"512/7,WARD NO 27,MERCY COLLEGE MELAMURI ROAD, MELAMURI, PALLIPURAM POST, PALAKKAD, KERALA. PIN CODE-678006",PALAKKAD,PALAKKAD,KERALA,2365657
887,SOUTH INDIAN BANK,SIBL0000941,NEDUMANGAD,"NMC 13,VADAKKATHIL TOWER,AMMAN KOVIL JUNCTION,NEDUMANGAD.TRIVANDRUM,KERALA.",TRIVANDRUM,TRIVANDRUM,KERALA,2365657
888,SOUTH INDIAN BANK,SIBL0000942,PALLIMUKKU,"WARD NO 6,NNS BUILDING,KAYYALAKKAL,PALLIMUKKU,VADAKKEVILA POST,PINCODE 691010,KOLLAM KERALA",KOLLAM,KOLLAM,KERALA,2365657
889,SOUTH INDIAN BANK,SIBL0000945,KODIBAIL,"GULF PLAZA, NH17 UPPALA, KAIKAMBA JUNCTION, KADIBAIL,UPPALA POST. PIN 671322, MANJESHWARAM TQ, KASARAGOD DIST",KASARAGUD,KASARAGOD,KERALA,2365657
890,SOUTH INDIAN BANK,SIBL0000946,SEETHANGOLI,"DONO197 XIX, SANTHOSH COMPLEX, BADIADKA ROAD, SEETHANGOLI, BELA PO, KASARAGOD, KERALA-671321",KASARAGUD,KASARAGOD,KERALA,2365657
891,SOUTH INDIAN BANK,SIBL0000947,PALLITHURA HIGHER SECONDARY SCHOOL EC,"TC 1/1396, WARD NO.100, ST LOYALA COMMUNITY HALL BUILDING, PALLITHURA, TRIVANDRUM. PIN CODE-695586",TRIVANDRUM,TRIVANDRUM,KERALA,2365657
892,SOUTH INDIAN BANK,SIBL0000948,DCSMAT GROUP OF INSTITUTIONS EC,"DOOR NO 35, WARD NO 1, DCSMAT, DC COUNTY, PULLIKKANAM,VAGAMAN. PIN CODE 685503 KERALA",IDUKKI,IDUKKI,KERALA,2365657
893,SOUTH INDIAN BANK,SIBL0000949,KURIAKOSE ELIAS SCHOOL MANNANAM,"DOOR NO 132,WARD NO 17,KURIAKOSE ELIAS SCHOOL BUILDING,MANNANAM AMMENCHERRY ROAD,MANNANAM 686561,KOTTAYAM,KERALA.",KOTTAYAM,KOTTAYAM,KERALA,2365657
894,SOUTH INDIAN BANK,SIBL0000950,"SANTHI NURSING ROOM, PUNNAYURKULAM","DOOR NO 12, 247,248,249, SANTHI NURSING HOME BUILDING,PUNNAYURKULAM POST, PUNNAYURKULAM,PINCODE 679561,THRISSUR,KERALA",TRISSUR,THRISSUR,KERALA,2365657
895,SOUTH INDIAN BANK,SIBL0000951,ST JOSEPH UP SCHOOL,"DOOR NO 168B,WARD NO 14, KUNDANNUR, KUNDANNUR POST,PINCODE 680590,THRISSUR,KERALA",TRISSUR,THRISSUR,KERALA,2365657
896,SOUTH INDIAN BANK,SIBL0000952,DEVAMATHA EDUCATIONAL INSTITUTIONS,"PP VI 52,WARD NO VI, DEVAMATHA EDUCATIONAL INSTITUTIONS, DEVAMATHA COLLEGE, PAISAKARY, PIN CODE 670633, KANNUR DISTRICT, KERALA.",ALAPPUZHA,KANNUR,KERALA,2365657
897,SOUTH INDIAN BANK,SIBL0000953,TIRUPATI,"DOOR NO 25, GROUND FLOOR, K R PRIDE BUILDING, K T ROAD, TIRUPATI. PIN CODE 517507 ANDRA PRADESH",CHITTOOR,CHITTOOR,ANDHRA PRADESH,2365657
898,SOUTH INDIAN BANK,SIBL0000954,JABALPUR,"DOOR NO 1749, SUBASHCHANDRA BANERJI WARD NO 65,RAINA TOWER,AIRPORT ROAD,CIVIL LINES",JABALPUR,JABALPUR,MADHYA PRADESH,2365657
899,SOUTH INDIAN BANK,SIBL0000955,KANNUR CHALAD,"DOOR NO P P II 6A,GK COMPLEX,ALAVIL POST,PINCODE 670008,KANNUR,KERALA",KANNUR,KANNUR,KERALA,2365657
900,SOUTH INDIAN BANK,SIBL0000956,KANNUR MELE CHOVVA,"DONOELP 13-468-A, WARD NO13,V K COMPLEX, MELE CHOVVA, KANNUR, KERALA - 670006",KANNUR,KANNUR,KERALA,2365657
901,SOUTH INDIAN BANK,SIBL0000957,HARIPAD,"DOOR NO 732,WARD NO 9, ARAVIND BUILDING,EZHIKKAKATHU JUNCTION, HARIPAD, PIN CODE 690514 ALAPPUZHA DISTRICT, KERALA.",ALAPPUZHA,ALAPPUZHA,KERALA,2365657
902,SOUTH INDIAN BANK,SIBL0000958,"PUNE,HADAPSAR","SHOP NO. 22,23,24,FORTUNE ESTATE, PLOT NO. 58,PUNE  SOLAPUR HIGHWAY, HADAPSAR",PUNE,HADAPSAR,MAHARASHTRA,2365657
903,SOUTH INDIAN BANK,SIBL0000959,GAJUWAKA,"SIMHADRI SQAURE,KANATHI ROAD, KAILASH NAGAR,GAJUWAKA",VISHAKHAPATNAM,GAJUWAKA,ANDHRA PRADESH,2365657
904,SOUTH INDIAN BANK,SIBL0000960,NAGPUR SADAR,"PLOT NO 186,RED CROSS ROAD,SADAR,NAGPUR,440001,MAHARASHTRA",NAGPUR,NAGPUR,MAHARASHTRA,2365657
905,SOUTH INDIAN BANK,SIBL0000961,ST MARTHAS HOSPITAL,"NO 5, ST MARTHAS HOSPITAL,NRUPATHUNGA ROAD, BANGALORE 560001, KARNATAKA",BANGALORE,BANGALORE,KARNATAKA,2365657
906,SOUTH INDIAN BANK,SIBL0000962,RANNI NILAKKAL DIOCESAN CENTRE,"MAR THOMA DIOCES BUILDING, MANDIRAM RANNI,PINCODE 689672,PATHANAMTHITTA KERALA",KOLLAM,PATHANAMTHITTA,KERALA,2365657
907,SOUTH INDIAN BANK,SIBL0000963,"UNION CHRISTIAN COLLEGE, ALUVA","WARD NO 13, UNION CHRISTIAN COLLEGE, UC COLLEGE ROAD,UC COLLEGE POST,ALUVA,PINCODE 683102, ERNAKULAM KERALA",ERNAKULAM,ERNAKULAM,KERALA,2365657
908,SOUTH INDIAN BANK,SIBL0000964,ST JOSEPHS COLLEGE,"NO 74,SUMERU TOWERS,BRIGADE ROAD STREET,RICHMOND ROAD,PINCODE 560025,BENGALURU, KARNATAKA",BENGAGURU,BENGALURU,KARNATAKA,2365657
909,SOUTH INDIAN BANK,SIBL0000965,ST.JOHNS MEDICAL COLLEGE AND HOSPITAL,"1ST FLOOR, UTILITY BUILDING,JOHN NAGAR ,ST. JOHNS MEDICAL COLLEGE AND HOSPITAL, KORMANGALA",BANGALORE,BANGALORE URBAN,KARNATAKA,2365657
910,SOUTH INDIAN BANK,SIBL0000966,PERINGATHUR,"DOOR NO 471E,CENTRE POINT,MARKET ROAD,PERINGATHUR,KANNUR",CANNUR,PERINGATHUR,KERALA,2365657
911,SOUTH INDIAN BANK,SIBL0000967,KALARCODE,"DOOR NO 29/541 A,PATHUMURIYIL,SANATHANAPURAM PO,KALARCODE.",ALAPUZHA,ALAPUZHA,KERALA,2365657
912,SOUTH INDIAN BANK,SIBL0000968,KEEKAN,"DO NO 269, WARD NO XV, AL SHAMOUS BUILDING, THEKKUMPURAM,  POOCHAKKAD, KEEKAN, KASARGOD, KERALA- 671316",KASARAGOD,KASARAGOD,KERALA,2365657
913,SOUTH INDIAN BANK,SIBL0000969,KADAMBAR,"KA COMMERCIAL COMPLEX, NEAR KADAMBAR GUP SCHOOL,KADAMBAR, MANJESHWAR 671323,KASARAGOD. KERALA",KASARAGOD,KASARAGOD,KERALA,2365657
914,SOUTH INDIAN BANK,SIBL0000970,ASIAN CHRISTIAN ACADEMY,"ASIAN CHRISTIAN HIGH SCHOOL,HOSUR MALUR HIGHWAY,GEEMANGALAM,KRISHNAGIRI",KRISHNAGIRI,KRISHNAGIRI,TAMIL NADU,2365657
915,SOUTH INDIAN BANK,SIBL0000971,KOTTIYOOR,"DOOR NO IX/274A, 274B AND 274C,KOTTIYOOR DEVASWOM BUILDING,KOTTIYOOR",CANNUR,PERAVOOR,KERALA,2365657
916,SOUTH INDIAN BANK,SIBL0000972,ST. JOSEPH OF CLUNY HIGHER SECONDARY SCHOOL,"AIRPORT ROAD,LAWSPET POST OFFICE,PONDICHERRY",PONDICHERRY,LAWSPET,PUDUCHERRY,2365657
917,SOUTH INDIAN BANK,SIBL0000973,ST TERESAS SCHOOL,"SULTAN ROAD,CHAMRAJPET,BANGALORE,KARNATAKA",BANGALORE URBAN,KENGERI,KARNATAKA,2365657
918,SOUTH INDIAN BANK,SIBL0000976,KOTHAVALASA,"WARD NO 8,MOORKURI MANSIONS,KOTHAVALASA,VIZIANAGARAM",VIZIANAGARAM,KOTHAVALASA,ANDHRA PRADESH,2365657
919,SOUTH INDIAN BANK,SIBL0000978,NARASIPATNAM,"DOOR NO 9-33-14,WARD NO 9,RAMA RAO PETA,NARSIPATNAM",VISHAKHAPATNAM,NARSIPATNAM,ANDHRA PRADESH,2365657
920,SOUTH INDIAN BANK,SIBL0000979,KRISTU JAYANTI COLLEGE,"DOOR NO 71/35/36/4, 25- HORAMAVU,KRISTU JAYANTI COLLEGE,K NARAYANAPURA,KOTHANUR",BANGALORE URBAN,KOTHANUR,KARNATAKA,2365657
921,SOUTH INDIAN BANK,SIBL0000980,KARINKALLATHANI,"DOOR NO 852,WARD NO 16,SAJLEE COMPLEX,NH 966, KARINKALLATHANI,PALAKKAD",PALAKKAD,MANNARKAD,KERALA,2365657
922,SOUTH INDIAN BANK,SIBL0000981,KONGAD,"BENSON COMPLEX,CHALLIKKAL,KONGAD,PALAKKAD",PALAKKAD,KONGAD,KERALA,2365657
923,SOUTH INDIAN BANK,SIBL0000982,KOOTTANADU,"CITY CENTER MALL,KOOTTANADU,PALAKKAD",PALAKKAD,KOOTTANAD,KERALA,2365657
924,SOUTH INDIAN BANK,SIBL0000983,KOPPAM,"PALLATH ARCADE,PULASSERY PO,KOPPAM,PALAKKAD",PALAKKAD,KOPPAM,KERALA,2365657
925,SOUTH INDIAN BANK,SIBL0000984,KALIKAVU,"DOOR NO 490,WARD NO 11,KOONARI BUILDING,KALIKAVU,MALAPPURAM",MALAPPURAM,KALIKAVU,KERALA,2365657
926,SOUTH INDIAN BANK,SIBL0000985,KARULAI,"DOOR NO 291/S,WARD NO 10,MUNDODAN ARCADE,KARULAI,MALAPPURAM",MALAPPURAM,KARULAI,KERALA,2365657
927,SOUTH INDIAN BANK,SIBL0000986,RAMANATTUKARA,"DOOR NO 12/811,MAHARAJ COMPLEX,UNIVERSITY ROAD",KOZHIKODE,RAMANATTUKARA,KERALA,2365657
928,SOUTH INDIAN BANK,SIBL0000987,PERAMBRA,"DO. NO.5/623,FATHIMA BUILDING,T.B ROAD,PERAMBRA",KOZHIKODE,CALICUT,KERALA,2365657
929,SOUTH INDIAN BANK,SIBL0000988,KUNNAMANGALAM,"DO.NO 14/1008,S R SHOPPING COMPLEX,KUNNAMANGALAM",KOZHIKODE,KUNNAMANGALAM,KERALA,2365657
930,SOUTH INDIAN BANK,SIBL0000989,BHIMAVARAM,"DOOR NO 1-1-17,VNR ARENA,JUVVALAPLAEM ROAD,SURYANARAYANAPURAM",WEST GODAVARI,BHIMAVARAM,ANDHRA PRADESH,2365657
931,SOUTH INDIAN BANK,SIBL0000990,ONGOLE,"DOOR NO.8-42-3 GROUND FLOOR,BESIDE UMA MAHESWARA JR COLLEGE,M M ROAD,ADDANKI GATE,ONGOLE",PRAKASAM,ONGOLE,ANDHRA PRADESH,2365657
932,SOUTH INDIAN BANK,SIBL0000991,VIZIANAGARM,"SAROJINI ARCADE, FIRST FLOOR,PLOT 1, TOWN CENTRE LAYOUT,100FT RING ROAD",VIZIANAGARAM,ALAMANDA,ANDHRA PRADESH,2365657
933,SOUTH INDIAN BANK,SIBL0000992,TANUKU,"GROUND FLOOR, D.NO.33-3-10,RANINEEDI VARI STREET,NEAR NARENDRA CENTRE, TANUKU",WEST GODAVARI,TANUKU,ANDHRA PRADESH,2365657
934,SOUTH INDIAN BANK,SIBL0008018,TREASURY DEPARTMENT,"PARINEE CRESCENZO,804,8TH FLOOR,B WING,G BLOCK,BANDRA KURLA COMPLEX,BANDRA(E),MUMBAI-400051",GREATER BOMBAY,MUMBAI,MAHARASHTRA,2365657
935,SOUTH INDIAN BANK,SIBL0008090,TRADE FINANCE CENTRAL PROCESSING CENTRE,"IST├╜ FLOOR, SIB BUILDING,MARKET ROAD ,ERNAKULAM , KERALA-682035",ERNAKULAM,KOCHI,KERALA,2365657
936,SOUTH INDIAN BANK,SIBL0008096,CPSMS CELL,"PLANNING & DEVELOPEMENT DEPT, HEAD OFFICE, THRISSUR-680001",THRISSUR,THICHUR,KERALA,2365657
937,SOUTH INDIAN BANK,SIBL0008263,RTGS CELL,"EMCA HOUSE, 289 GROUND FLOOR, S B SINGH ROAD, FORT, MUMBAI",GREATER BOMBAY,MUMBAI,MAHARASHTRA,22611209
