,BANK NAME,IFSC,OFFICE,ADDRESS,DISTRICT,CITY,STATE,PHONE
0,JAMMU AND KASHMIR BANK LIMITED,JAKA0AALLAH,ALLAH BISHNAH,"PO-VILLAGE ALLAH, TEHSIL-BISHNAH, DISTRICT-JAMMU, PIN-181131",JAMMU,BISHNA,JAMMU AND KASHMIR,272952
1,JAMMU AND KASHMIR BANK LIMITED,JAKA0ABHAMA,ABHAMA,"VILLAGE-ABHAMA, BLOCK- ACHAGOZA, TEHSIL-RAJPORA, DISTRICT-PULWAMA, JK, PIN-192301",PULWAMA,RAJPURA,JAMMU AND KASHMIR,9858889888
2,JAMMU AND KASHMIR BANK LIMITED,JAKA0ACHBAL,ACHABAL SOPORE,"MAIN MARKET ACHBAL,DOABGH SOPORE",BARAMULLA,ACHBAL SOPORE,JAMMU AND KASHMIR,7298004434
3,JAMMU AND KASHMIR BANK LIMITED,JAKA0ACHENN,ACHEN,PULWAMA KASHMIR JAMMU AND KASHMIR PIN 192305,PULWAMA,PULWAMA,JAMMU AND KASHMIR,9596580353
4,JAMMU AND KASHMIR BANK LIMITED,JAKA0ACHKAM,AKCHAMAL,"RAKINA, AKCHAMAL, BLOCK / TEHSIL & DISTRICT-KARGIL, PIN-194103",KARGIL,KARGIL,JAMMU AND KASHMIR,9419895835
5,JAMMU AND KASHMIR BANK LIMITED,JAKA0ACHNAG,ACHABAL  ANANTNAG,ACHBAL ANANTNAG,ANANTNAG,ACHBAL,JAMMU AND KASHMIR,241226
6,JAMMU AND KASHMIR BANK LIMITED,JAKA0AGADOL,AHLAN GADOLE,"Ahlan Gadole,District Anantnag,J AND K Pin code 192202",ANANTNAG,AHLAN GADOLE,JAMMU AND KASHMIR,9797863888
7,JAMMU AND KASHMIR BANK LIMITED,JAKA0AGHARJ,AGHARJITTO,"AGHARJITTO,DISTRICT REASI,TEHSIL REASI,JAMMU,J AND K PIN 182301",REASI,AGHAR JITOO,JAMMU AND KASHMIR,0
8,JAMMU AND KASHMIR BANK LIMITED,JAKA0AHAMAD,C G ROAD AHMADABAD,"PARISEEMA COMPLEX, G.G. ROAD",AHMADABAD,AHMADABAD,GUJARAT,26562553
9,JAMMU AND KASHMIR BANK LIMITED,JAKA0AHMADD,AHMAD NAGAR,"AHMAD NAGAR, MAIN CHOWK (90 FT. ROAD),SRINAGAR, PIN-190020",SRINAGAR,SRINAGAR,JAMMU AND KASHMIR,9419086735
10,JAMMU AND KASHMIR BANK LIMITED,JAKA0AHMSHA,AHAMSHARIEF,"AHAMSHARIEF,DISTRICT BANDIPORA,KASHMIR,J AND K PIN 193502",BANDIPORA,BANDIPORA,JAMMU AND KASHMIR,9796148872
11,JAMMU AND KASHMIR BANK LIMITED,JAKA0AIRCAR,AIR CARGO SRINAGAR,"OPP NEW ERA SCHOOL,RAJBAGH",SRINAGAR,AIR CARGO,JAMMU AND KASHMIR,2313490
12,JAMMU AND KASHMIR BANK LIMITED,JAKA0AJJASS,AJAS,"AJAS, BANDIPORA",BANDIPORA,"AJAS,",JAMMU AND KASHMIR,210068
13,JAMMU AND KASHMIR BANK LIMITED,JAKA0AJJOTE,AJOTE,"AJOTE,DISTRICT POONCH,PIN CODE 185101",POONCH,AJOTE,JAMMU AND KASHMIR,9622178426
14,JAMMU AND KASHMIR BANK LIMITED,JAKA0AJMERR,AJMER,"GROUND FLOOR AND FIRST FLOOR, COMMERCIAL AREA NO 303/22,  PLAZA CINEMA ROAD, DIGGHI CHOWK, AJMER, PIN 305001",AJMER,AJMER,RAJASTHAN,9419439820
15,JAMMU AND KASHMIR BANK LIMITED,JAKA0AKHNOR,AKHNOOR,MAIN BAZAR AKHNOOR,JAMMU,AKHNOOR,JAMMU AND KASHMIR,0
16,JAMMU AND KASHMIR BANK LIMITED,JAKA0AKNGAM,AKINGAM,MAIN BAZAR AKHNOOR,ANANTNAG,AKHINGAM ANANTNAG,JAMMU AND KASHMIR,241331
17,JAMMU AND KASHMIR BANK LIMITED,JAKA0ALABAD,ALLAHBAD,24/36 SHIV CHARAN LAL ROAD,ALLAHABAD,ALLAHABAD,UTTAR PRADESH,2563388
18,JAMMU AND KASHMIR BANK LIMITED,JAKA0ALIGAR,ALIGARH,"ROOP NARANIAN MARKET,G.T ROAD",ALIGARH,ALIGARH,UTTAR PRADESH,2405632
19,JAMMU AND KASHMIR BANK LIMITED,JAKA0ALMGRI,ALAMGIRI BAZAR SRINAGAR,ALAMGIRI BAZAR CHOWK,SRINAGAR,ALAMGIRI BAZAR,JAMMU AND KASHMIR,2424451
20,JAMMU AND KASHMIR BANK LIMITED,JAKA0ALNOOR,CHRAR I SHARIEF,TEHSIL CHARISHARIEF,BUDGAM,CHAR I SHARIEF,JAMMU AND KASHMIR,253535
21,JAMMU AND KASHMIR BANK LIMITED,JAKA0ALOOSA,ALOOSA,ALOOSA,BANDIPORA,ALOOSA,JAMMU AND KASHMIR,7298559521
22,JAMMU AND KASHMIR BANK LIMITED,JAKA0AMARGH,"AMARGARH, SOPORE","ZONAL OFFICE BUILDING, NEAR SOPORE KUPWARA BYE PASS, AMARGARH SOPORE, PIN 193201",BARAMULLA,BARAMULLA,JAMMU AND KASHMIR,7006174015
23,JAMMU AND KASHMIR BANK LIMITED,JAKA0AMBALA,AMBALLA CANTT,"5683/1, NICHOLSAN ROAD, AMBALA CANTT. (PUNJAB)",AMBALA,AMBALA,HARYANA,2630009
24,JAMMU AND KASHMIR BANK LIMITED,JAKA0AMGROT,AMB GROTA,AMBGROTA,JAMMU,OPPOSITE POLICE STATION,JAMMU AND KASHMIR,9469140950
25,JAMMU AND KASHMIR BANK LIMITED,JAKA0AMINLK,AMINABAD LUCKNOW,NEAR GONGEE PARK AMINABAD,LUCKNOW,AMINABAD LUCKNOW,UTTAR PRADESH,2625885
26,JAMMU AND KASHMIR BANK LIMITED,JAKA0AMPHLA,AMPHALLA JAMMU,49 MAIN CHOWK NEAR CENTRAL JAIL,JAMMU,AMPHALLA BRANCH,JAMMU AND KASHMIR,2564017
27,JAMMU AND KASHMIR BANK LIMITED,JAKA0ANCHAR,ANCHAR,BUCHPORA,SRINAGAR,ANCHAR,JAMMU AND KASHMIR,2401632
28,JAMMU AND KASHMIR BANK LIMITED,JAKA0ANDERI,ANDHERI MUMBAI,"SUYOG SADAN BLDG, MAHA KALI CAVES ROAD,ANDHERI EAST",GREATER BOMBAY,ANDHERI,MAHARASHTRA,28214472
29,JAMMU AND KASHMIR BANK LIMITED,JAKA0ANSALL,ANSAL PLAZA DELHI,"B-207, 2ND FLOOR,ANSAL PLAZA, KHEL GOAN MARG",DELHI,ANSAL PLAZA,DELHI,26264330
30,JAMMU AND KASHMIR BANK LIMITED,JAKA0AORIAN,CHAN ARRORIAN,"CHAN ARORIAN, NATI",KATHUA,CHAN ARORIAN KATHUA,JAMMU AND KASHMIR,255125
31,JAMMU AND KASHMIR BANK LIMITED,JAKA0APEXBR,APEX BRANCH CHQ,"CORPORATE HEADQUARTER,M.A.ROAD",SRINAGAR,APEX BRANCH,JAMMU AND KASHMIR,2472589
32,JAMMU AND KASHMIR BANK LIMITED,JAKA0APPLET,FRUIT MANDI SOPORE,FRUIT MANDI SOPORE,BARAMULLA,FRUIT MANDI SOPORE,JAMMU AND KASHMIR,223511
33,JAMMU AND KASHMIR BANK LIMITED,JAKA0ARAHAN,ARRAH,"ARRAH, KULGAM",KULGAM,"ARRAH, KULGAM",JAMMU AND KASHMIR,213382
34,JAMMU AND KASHMIR BANK LIMITED,JAKA0ARAKHO,ARAKHOSHIPORA,ARAKHUSHIPORA,ANANTNAG,MAIN MARKET,JAMMU AND KASHMIR,9596053626
35,JAMMU AND KASHMIR BANK LIMITED,JAKA0ARIHAL,ARIHAL,PULWAMA,PULWAMA,MAIN CHOWK ARIHAL,JAMMU AND KASHMIR,9858386527
36,JAMMU AND KASHMIR BANK LIMITED,JAKA0ARIPAL,ARIPAL,"ARIPAL TRAL, BLOCK & TEHSIL-ARIPAL, DISTRICT-PULWAMA, KASHMIR,├╜ PIN-192123",PULWAMA,TRAL,JAMMU AND KASHMIR,9419090206
37,JAMMU AND KASHMIR BANK LIMITED,JAKA0ARIZAL,ARIZAL,ARIZAL KHAN SAHIB,BUDGAM,"ARIZAL, KHAN SAHIB, BUDGAM",JAMMU AND KASHMIR,9419428864
38,JAMMU AND KASHMIR BANK LIMITED,JAKA0ARMPOR,ARAMPORA,"ARAMPORA,DISTRICT KUPWARA,PIN CODE 193221",KUPWARA,ARMPORA,JAMMU AND KASHMIR,9419005974
39,JAMMU AND KASHMIR BANK LIMITED,JAKA0ARMYCO,EC ARMY CANTONMENT BARAMULLA,"MILITARY CANTONMENT BARAMULLA, JK, PIN 193101",BARAMULLA,BARAMULLA,JAMMU AND KASHMIR,9797791044
40,JAMMU AND KASHMIR BANK LIMITED,JAKA0ARNASS,ARNAS,ARNASS,REASI,"ARNAS, REASI",JAMMU AND KASHMIR,220028
41,JAMMU AND KASHMIR BANK LIMITED,JAKA0ARWANI,ARWANI,"ARWANI DISTRICT KULGAM,J AND K PIN CODE 192124",KULGAM,ARWANI,JAMMU AND KASHMIR,9697078383
42,JAMMU AND KASHMIR BANK LIMITED,JAKA0ASHAJI,ASHAJIPORA ANANTNAG,ASHAJIPORA ANANTNAG,ANANTNAG,ASHAJIPORA,JAMMU AND KASHMIR,222572
43,JAMMU AND KASHMIR BANK LIMITED,JAKA0ASHMUJ,ASHMUJI,"ASHMUJI,DISTRICT KULGAM,PIN 192231",KULGAM,ASHMUJI KULGAM,JAMMU AND KASHMIR,8803061378
44,JAMMU AND KASHMIR BANK LIMITED,JAKA0ASHPOR,ASHIPORA,"ASHIPORA LANGATE, KUPWARA, J&K-193303",KUPWARA,LANGATE,JAMMU AND KASHMIR,9622430850
45,JAMMU AND KASHMIR BANK LIMITED,JAKA0ASSARR,ASSAR,ASSAR TEHSIL DODA,DODA,ASSAR DODA,JAMMU AND KASHMIR,7298004648
46,JAMMU AND KASHMIR BANK LIMITED,JAKA0AURANG,AURANGABAD,MANAS APARTMENT 5 KUSHAL NAGAR NEAR NATRAJ RESIDENCY JALNA ROAD,AURANGABAD,"AURANGABAD,MAHARASHTRA",MAHARASHTRA,2340760
47,JAMMU AND KASHMIR BANK LIMITED,JAKA0AWANTI,AWANTIPORA,NATIONAL HIGHWAY AWANTIPORA,PULWAMA,AWANTIPORA,JAMMU AND KASHMIR,247239
48,JAMMU AND KASHMIR BANK LIMITED,JAKA0AWOORA,AWOORA,DISTRICT KUPWARA,KUPWARA,"AWOORA, KUPWARA",JAMMU AND KASHMIR,1955
49,JAMMU AND KASHMIR BANK LIMITED,JAKA0AZDPUR,AZADPUR  DELHI,NEW  SABZI MANDI,DELHI,AZADPUR,DELHI,11
50,JAMMU AND KASHMIR BANK LIMITED,JAKA0AZGUNJ,AZADGUNJ BARAMULLA,AZAD GUNJ BARAMULLA,BARAMULLA,AZAD GUNJ BARAMULLA,JAMMU AND KASHMIR,7298004510
51,JAMMU AND KASHMIR BANK LIMITED,JAKA0BACHAN,SKURBACHAN,"SKURBACHAN,LEH,LADAKH,J AND K",LEH,SKURBACHAN,JAMMU AND KASHMIR,228046
52,JAMMU AND KASHMIR BANK LIMITED,JAKA0BADAMI,B B CANTT SRINAGAR,BADAMI BAGH,SRINAGAR,BADAMI BAGH CANTT SRINAGAR,JAMMU AND KASHMIR,2465212
53,JAMMU AND KASHMIR BANK LIMITED,JAKA0BADOHI,BHADOHI,"MAIN ROAD, MARYAB PATTI",SANT RAVIDAS NAGAR,BADOHI,UTTAR PRADESH,228711
54,JAMMU AND KASHMIR BANK LIMITED,JAKA0BAGAAT,BARZULLA SRINAGAR,BAAGAT,SRINAGAR,SRINAGAR,JAMMU AND KASHMIR,2432777
55,JAMMU AND KASHMIR BANK LIMITED,JAKA0BAGDAD,WALTENGO,WALTENGO,KULGAM,KULGAM,JAMMU AND KASHMIR,9858783832
56,JAMMU AND KASHMIR BANK LIMITED,JAKA0BAGGAA,BHAGGA,TEHSIL MOHRE,REASI,"BAGGA , REASI, JAMMU",JAMMU AND KASHMIR,9469175164
57,JAMMU AND KASHMIR BANK LIMITED,JAKA0BAGWAT,BHAGWATI NAGAR JAMMU,"BHAGWATI NAGAR, JAMMU",JAMMU,JAMMU,JAMMU AND KASHMIR,2506922
58,JAMMU AND KASHMIR BANK LIMITED,JAKA0BAHROT,BEHROTE,TEHSIL THANAMANDI,RAJOURI,BAHROTE THANAMANDI,JAMMU AND KASHMIR,9419151337
59,JAMMU AND KASHMIR BANK LIMITED,JAKA0BAKSHI,BAKSHI NAGAR JAMMU,BAKSHI NAGAR,JAMMU,BAKSHI NAGAR,JAMMU AND KASHMIR,2583180
60,JAMMU AND KASHMIR BANK LIMITED,JAKA0BALAKO,BALAKOTE,"POST OFFICE DHARGLOON, MENDHAR, POONCH, JAMMU, JK PIN 185211",POONCH,POONCH,JAMMU AND KASHMIR,9469101611
61,JAMMU AND KASHMIR BANK LIMITED,JAKA0BALESA,GANDOH(BALESA),"BHALESSA, POST OFFICE GANDOH",DODA,GANDOH BALESSA DODA,JAMMU AND KASHMIR,7298004633
62,JAMMU AND KASHMIR BANK LIMITED,JAKA0BALETA,BALETAR(SUMB),POST OFFICE-SUMB,SAMBA,VILLAGE-BALETAR,JAMMU AND KASHMIR,9622631298
63,JAMMU AND KASHMIR BANK LIMITED,JAKA0BALLAH,BALLAHAMA,"BALLAHAMA, SRINAGAR, JK PIN 191201",SRINAGAR,SRINAGAR,JAMMU AND KASHMIR,9419035397
64,JAMMU AND KASHMIR BANK LIMITED,JAKA0BALSHA,BALSHAMA,"POST OFFICE-BAKHA, TEHSIL- SUNDERBANI, DISTRICT-RAJOURI, J&K, PIN-185152",RAJOURI,SUNDER BANI,JAMMU AND KASHMIR,9469136448
65,JAMMU AND KASHMIR BANK LIMITED,JAKA0BAMBLA,BHAMBLA,BHAMBLA DISTRICT REASI PIN CODE 185154,REASI,BHAMBLA,JAMMU AND KASHMIR,9419105691
66,JAMMU AND KASHMIR BANK LIMITED,JAKA0BANDRA,BANDRA MUMBAI,"184 ASHRA, WATER FIELD ROAD,BANDRA WEST",MUMBAI,BANDRA,MAHARASHTRA,26408630
67,JAMMU AND KASHMIR BANK LIMITED,JAKA0BANNIE,BANI,BANNI KATHUA,KATHUA,BANNI  KATHUA,JAMMU AND KASHMIR,268162
68,JAMMU AND KASHMIR BANK LIMITED,JAKA0BANTAL,BANTALAB JAMMU,BARNAI ROAD BANTALAB,JAMMU,BANTALAB,JAMMU AND KASHMIR,2596085
69,JAMMU AND KASHMIR BANK LIMITED,JAKA0BARODA,BARODA,"CAPRI HOUSE II, SUDHA NAGAR SOCIETY, JETALPUR ROAD,ALKA PURI",VADODARA,BARODA,GUJARAT,2336713
70,JAMMU AND KASHMIR BANK LIMITED,JAKA0BARSOO,BARSOO AWANTIPORA,"BARSOO, AWANTIPORA, PULWAMA",PULWAMA,PULWAMA,JAMMU AND KASHMIR,9797987069
71,JAMMU AND KASHMIR BANK LIMITED,JAKA0BASANT,DODU BASANTGARH,TEHSIL RAMNAGAR,UDHAMPUR,DUDU BASANTGARH UDHAMPUR,JAMMU AND KASHMIR,7298004617
72,JAMMU AND KASHMIR BANK LIMITED,JAKA0BASOLI,BASOHLI,"MAIN BAZAR, BASOLI",KATHUA,BASOHLI,JAMMU AND KASHMIR,251227
73,JAMMU AND KASHMIR BANK LIMITED,JAKA0BASTEE,NAI BASTI JAMMU,SATWARI CHOWK,JAMMU,NAI BASTI,JAMMU AND KASHMIR,2430034
74,JAMMU AND KASHMIR BANK LIMITED,JAKA0BATALA,BATALA,MAHARAJA JESSA SINGH RAM GARH ROAD,GURDASPUR,BATALA,PUNJAB,1244322
75,JAMMU AND KASHMIR BANK LIMITED,JAKA0BATLIK,BATALIK,"BATALIK,DISTRICT KARGIL,J AND K PIN CODE 194103",KARGIL,BATALIK,JAMMU AND KASHMIR,281138
76,JAMMU AND KASHMIR BANK LIMITED,JAKA0BATMOL,BAZAR BATMALOO,"NEAR AASTAN SHARIEF, BAZAAR BATMALOO",SRINAGAR,BAZAAR BATMALOO,JAMMU AND KASHMIR,2471808
77,JAMMU AND KASHMIR BANK LIMITED,JAKA0BATOTE,BATOTE,BATOTE,RAMBAN,"BATOTE, RAMBAN J&K",JAMMU AND KASHMIR,7298004721
78,JAMMU AND KASHMIR BANK LIMITED,JAKA0BATPOR,BATAPORA,BATAPORA NEAR BUS STAND TEHSIL SHOPIAN JK PIN 192303,SHOPIAN,SHOPIAN,JAMMU AND KASHMIR,9797701717
79,JAMMU AND KASHMIR BANK LIMITED,JAKA0BATWIN,BATWINA GANDERBAL,"BATWINA,DISTRICT GANDERBAL,BLOCK WAKURA,TEHSIL LAR PIN 193501",GANDERBAL,BATVENA,JAMMU AND KASHMIR,9419778507
80,JAMMU AND KASHMIR BANK LIMITED,JAKA0BAZZAR,MALIK BAZAR KOLKATTA,"6 -EKTA ROAD,MALIK BAZAR KOLKATTA",KOLKATA,MALIK BAZAR,WEST BENGAL,22874729
81,JAMMU AND KASHMIR BANK LIMITED,JAKA0BBHARA,BIJBEHARA,NATIONAL HIGHWAY BIJBEHARA,ANANTNAG,BIJBEHARA,JAMMU AND KASHMIR,9906645399
82,JAMMU AND KASHMIR BANK LIMITED,JAKA0BBNGAM,BUL BUL NOWGAM,BULBUL NOWGAM,ANANTNAG,BULBUL NOWGAM,JAMMU AND KASHMIR,227636
83,JAMMU AND KASHMIR BANK LIMITED,JAKA0BCROAD,B. C. ROAD,REHARI CHUNGI,JAMMU,87- B.C ROAD,JAMMU AND KASHMIR,2520819
84,JAMMU AND KASHMIR BANK LIMITED,JAKA0BEBROT,BEBROTA,"BPO RAJGARH, DODA, JAMMU, JK PIN 182148",DODA,ASSAR,JAMMU AND KASHMIR,9796031326
85,JAMMU AND KASHMIR BANK LIMITED,JAKA0BEERWA,BEERWAH,"MAIN BAZAR,BEERWAH",BUDGAM,BEERWAH,JAMMU AND KASHMIR,275360
86,JAMMU AND KASHMIR BANK LIMITED,JAKA0BEMINA,BEMINA SRINAGAR,"NEAR GRID STATION,MAIN MARKET, BEMINA",SRINAGAR,BEMINA,JAMMU AND KASHMIR,2491133
87,JAMMU AND KASHMIR BANK LIMITED,JAKA0BGDONG,BOGDANG,DISKIT,LEH,BOGDAND NUBRA,JAMMU AND KASHMIR,9419655143
88,JAMMU AND KASHMIR BANK LIMITED,JAKA0BHADAR,BHADERWAH,"MAIN MARKET, BHADERWAH",DODA,BHADERWAH MAIN,JAMMU AND KASHMIR,244247
89,JAMMU AND KASHMIR BANK LIMITED,JAKA0BHADOO,BHADOO,"V.P.O BHADOO,BILAWAR",KATHUA,BHADOO,JAMMU AND KASHMIR,266029
90,JAMMU AND KASHMIR BANK LIMITED,JAKA0BHAGWA,BHAGWA,BHAGWA DODA,DODA,BHAGWA DODA,JAMMU AND KASHMIR,7298004733
91,JAMMU AND KASHMIR BANK LIMITED,JAKA0BHALLA,BHALLA,"BHALLA, DODA, JAMMU",DODA,"BHALLA, DODA, JAMMU",JAMMU AND KASHMIR,7298004680
92,JAMMU AND KASHMIR BANK LIMITED,JAKA0BHALRA,BHALRA,NAGNI TEHSIL BADERWAH,DODA,"BHALRA,",JAMMU AND KASHMIR,7298004623
93,JAMMU AND KASHMIR BANK LIMITED,JAKA0BHARGI,BHARGI,"BHARGI, GANDOH BHALESA, TEHSIL-GANDOH, DISTRICT-DODA, JK, PIN-182203",DODA,GANDOH BHALESA,JAMMU AND KASHMIR,9596698860
94,JAMMU AND KASHMIR BANK LIMITED,JAKA0BHATAA,BHATA DHURIA,"BHATTA DHURIA, POST OFFICE-BHATA DURIA, TEHSIL-MENDHAR, DISTRICT-POONCH, JK, PIN-185121",POONCH,MENDHAR,JAMMU AND KASHMIR,9622276613
95,JAMMU AND KASHMIR BANK LIMITED,JAKA0BHATIN,BHATINDA,"SSD SABHA, THE MALL ROAD",BATHINDA,BATHINDA,PUNJAB,2238986
96,JAMMU AND KASHMIR BANK LIMITED,JAKA0BHAWNI,PATHERGHATI  HYDERABAD,22-7-110 SYJ SHOPPING MALL,HYDERABAD,PATHARGATHI,ANDHRA PRADESH,66712111
97,JAMMU AND KASHMIR BANK LIMITED,JAKA0BHELLA,BHELLA,TEHSIL THATRI,DODA,BHELLA,JAMMU AND KASHMIR,9419155350
98,JAMMU AND KASHMIR BANK LIMITED,JAKA0BHOGAL,BHOGAL DELHI,"4 BHOGAL ROAD,JANGPURA",DELHI,BHOGAL NEW DELHI,DELHI,43659600
99,JAMMU AND KASHMIR BANK LIMITED,JAKA0BHOPAL,BHOPAL,"MIG-I, MLA QUARTERS,TT NAGAR,",BHOPAL,BHOPAL,MADHYA PRADESH,2777649
100,JAMMU AND KASHMIR BANK LIMITED,JAKA0BILWAR,BILLAWAR,"MAIN BAZAR, BILAWAR",KATHUA,"BILAWAR, KATHUA",JAMMU AND KASHMIR,222027
101,JAMMU AND KASHMIR BANK LIMITED,JAKA0BIRPUR,NARSINGH DEVJI MANDIR IRPUR,"NARSINGH DEV MANDIR,",SAMBA,"BIRPUR ,NARSINGH DEV JI MANDIR",JAMMU AND KASHMIR,249168
102,JAMMU AND KASHMIR BANK LIMITED,JAKA0BISHNA,BISHNA,"MAIN BAZAR, BISHNAW",JAMMU,BISHNAW,JAMMU AND KASHMIR,236048
103,JAMMU AND KASHMIR BANK LIMITED,JAKA0BJHOSP,BONE & JOINT HOSPITAL SRINAGAR,NEAR BONE & JOINT HOSPITAL,SRINAGAR,BONE & JOINT HOSPITAL,JAMMU AND KASHMIR,2434761
104,JAMMU AND KASHMIR BANK LIMITED,JAKA0BKPORA,BAGATI KANIPORA,BAGATI KANI PORA P/O NATIPORA,BUDGAM,BAGATI KANI PORA,JAMMU AND KASHMIR,8803001930
105,JAMMU AND KASHMIR BANK LIMITED,JAKA0BLOOMY,SALLAR,SALLAR ANANTNAG,ANANTNAG,SALLAR ANANTNAG,JAMMU AND KASHMIR,211793
106,JAMMU AND KASHMIR BANK LIMITED,JAKA0BNGLOR,INFANTRY ROAD BANGALORE,"F 6-7, INFANTRY ROAD,GEM PLAZA, BANGLORE",BANGALORE,BANGLORE MAIN,KARNATAKA,25321979
107,JAMMU AND KASHMIR BANK LIMITED,JAKA0BOMBAY,FORT  MUMBAI,"79A, MEHTA HOUSE,BOMBAY SAMACHAR MARG, GREATER MUMBAI",GREATER MUMBAI,"FORT, MUMBAI",MAHARASHTRA,22610056
108,JAMMU AND KASHMIR BANK LIMITED,JAKA0BONABQ,BONA BAZAR QAZIGUND,"QAZIGUND, BONA BAZAR, BLOCK / TEHSIL-QAZIGUND, DISTRICT-ANANTNAG, KASHMIR, PIN-192102",ANANTNAG,QAZIGUND,JAMMU AND KASHMIR,8713920833
109,JAMMU AND KASHMIR BANK LIMITED,JAKA0BONJWA,BOUNJWAH(BINOON,"VILLAGE BOUNJWAHBINOON,TEHSIL AND DISTRICT KISHTWAR,J AND K PIN 182203",KISHTWAR,BOUNJWAH (BINOON),JAMMU AND KASHMIR,9622150155
110,JAMMU AND KASHMIR BANK LIMITED,JAKA0BONYAR,BONIYAR,"BONIYAR, URI BARAMULLA",BARAMULLA,"BONIYAR,URI BARAMULLA",JAMMU AND KASHMIR,7298004541
111,JAMMU AND KASHMIR BANK LIMITED,JAKA0BOOGAM,BUGAM,"BSINESS UNIT BUGAM,POST OFFICE BUGAM TEHSIL",KULGAM,BUGAM KULGAM,JAMMU AND KASHMIR,9906645399
112,JAMMU AND KASHMIR BANK LIMITED,JAKA0BORDER,POONCH,"NEAR GURDUWARA SINGH SABHA,",POONCH,"POONCH, JAMMU",JAMMU AND KASHMIR,220248
113,JAMMU AND KASHMIR BANK LIMITED,JAKA0BOTSHA,BOTSHAH MOHALLA SRINAGAR,"NEAR SALFIA MASJID, BOTSHAH MOHALLA,LAL BAZAR",SRINAGAR,BOTSHAH MOHALLA,JAMMU AND KASHMIR,2424906
114,JAMMU AND KASHMIR BANK LIMITED,JAKA0BPONCH,BUS STAND POONCH,"BUS STAND POONCH, J&K-185101",POONCH,POONCH,JAMMU AND KASHMIR,9419244720
115,JAMMU AND KASHMIR BANK LIMITED,JAKA0BRIDGE,DODA PULL,KHELLANI(PULL DODA),DODA,KHELLANI DODA,JAMMU AND KASHMIR,238333
116,JAMMU AND KASHMIR BANK LIMITED,JAKA0BRNOTI,BARNOTI,NATIONAL HIGHWAY,KATHUA,BARNOTI,JAMMU AND KASHMIR,231528
117,JAMMU AND KASHMIR BANK LIMITED,JAKA0BSMEND,BUS STAND MENDHER,"NEAR BUS STAND MENDHER,POONCH PIN-185111",RAJOURI,RAJOURI,JAMMU AND KASHMIR,9419197608
118,JAMMU AND KASHMIR BANK LIMITED,JAKA0BSTRAL,BUS STAND TRAL,BUS STAND TRAL,PULWAMA,BUS STAND TRAL,JAMMU AND KASHMIR,251212
119,JAMMU AND KASHMIR BANK LIMITED,JAKA0BTINDI,BATHINDI,BATHINDI,JAMMU,NEAR MECCA MASJID,JAMMU AND KASHMIR,2493890
120,JAMMU AND KASHMIR BANK LIMITED,JAKA0BUBBLE,NEW MARKET ANANTNAG,"NEW MARKET ,ANANTNAG",ANANTNAG,ANANTNAG,JAMMU AND KASHMIR,224017
121,JAMMU AND KASHMIR BANK LIMITED,JAKA0BUDHAL,KOTRANKA BUDHAL,"KOTRANKA,RAJOURI",RAJOURI,"KOTRANKA, RAJOURI",JAMMU AND KASHMIR,9419138021
122,JAMMU AND KASHMIR BANK LIMITED,JAKA0BUDRAJ,BUDHAL,THE. KOTRANKA,RAJOURI,"RAJNAGAR, BUDHAL",JAMMU AND KASHMIR,9419155647
123,JAMMU AND KASHMIR BANK LIMITED,JAKA0BUFLAZ,BUFLIAZ POONCH,"JAMMU AND KASHMIR BANK BUFLIAZ, POST OFFICE BUFLIAZ, TEHSIL SURANKOT, POONCH PIN-185121",POONCH,POONCH,JAMMU AND KASHMIR,990617884
124,JAMMU AND KASHMIR BANK LIMITED,JAKA0BULBUL,RAJOURI KADAL SRINAGAR,RAJOURI KADAL,SRINAGAR,RAJOURI KADAL,JAMMU AND KASHMIR,2426353
125,JAMMU AND KASHMIR BANK LIMITED,JAKA0BULVAD,BOULEVARD ROAD SRINAGAR,"SHAHENSHAH HOTEL,BOULEVARD ROAD SRINAGAR PIN CODE- 190001",SRINAGAR,SRINAGAR,JAMMU AND KASHMIR,9419024141
126,JAMMU AND KASHMIR BANK LIMITED,JAKA0BUSANG,BUS ADDA ANANTNAG,GENERAL BUS ADDA ANANTNAG,ANANTNAG,BUS ADDA ANANTNAG,JAMMU AND KASHMIR,223609
127,JAMMU AND KASHMIR BANK LIMITED,JAKA0BUSRAJ,BUS STAND RAJOURI,NEAR PANJA CHOWK,RAJOURI,NEW BUS STAND,JAMMU AND KASHMIR,9419680400
128,JAMMU AND KASHMIR BANK LIMITED,JAKA0CALCAT,KOLKATA MAIN,"6 D - R.N.MUKHERJI ROAD,STEPHEN HOUSE, DALHOUSIE SQUARE",KOLKATA,R.N.MUKHERJI ROAD,WEST BENGAL,22485457
129,JAMMU AND KASHMIR BANK LIMITED,JAKA0CAMPUS,CANAL ROAD JAMMU,CANNAL ROAD,JAMMU,CANNAL ROAD,JAMMU AND KASHMIR,2565590
130,JAMMU AND KASHMIR BANK LIMITED,JAKA0CANAAL,NEW UNIVERSITY CAMPUS JAMMU,"UNIVERSITY OF JAMMU,RAILWAY ROAD,",JAMMU,NEW UNIVERSITY CAMPUS,JAMMU AND KASHMIR,2458663
131,JAMMU AND KASHMIR BANK LIMITED,JAKA0CANADA,CHANDANWARI,TEHSIL BONIYAR,BARAMULLA,"CHANDANWARI, URI",JAMMU AND KASHMIR,7298004561
132,JAMMU AND KASHMIR BANK LIMITED,JAKA0CANDLE,NAWA KADAL SRINAGAR,NAWAKADAL,SRINAGAR,NAWAKADAL,JAMMU AND KASHMIR,2420657
133,JAMMU AND KASHMIR BANK LIMITED,JAKA0CAREER,MATTAN,MATTAN ANANTNAG,ANANTNAG,MATTAN,JAMMU AND KASHMIR,227223
134,JAMMU AND KASHMIR BANK LIMITED,JAKA0CEMENT,KHREW,KHREW PAMPORE,PULWAMA,KHREW,JAMMU AND KASHMIR,245270
135,JAMMU AND KASHMIR BANK LIMITED,JAKA0CENTRE,RCC SRINAGAR,RESIDENCY ROAD,SRINAGAR,SRINAGAR,JAMMU AND KASHMIR,2478064
136,JAMMU AND KASHMIR BANK LIMITED,JAKA0CHADOO,HOSPITAL ROAD CHADOORA,CHADOORA,BUDGAM,HOSPITAL ROAD CHADOORA,JAMMU AND KASHMIR,9906527928
137,JAMMU AND KASHMIR BANK LIMITED,JAKA0CHADUR,CHADURA,TEHSIL CHADOORA BUDGAM,BUDGAM,CHADOORA BUDGAM,JAMMU AND KASHMIR,230226
138,JAMMU AND KASHMIR BANK LIMITED,JAKA0CHAGAM,CHOWGAM,CHOWGAM,KULGAM,NEAR EID GAH,JAMMU AND KASHMIR,9419945351
139,JAMMU AND KASHMIR BANK LIMITED,JAKA0CHAKMA,CHAKMALAL,"CHAK MALAL (KHOUR),",JAMMU,"CHAK MALAL, JAMMU",JAMMU AND KASHMIR,24243118
140,JAMMU AND KASHMIR BANK LIMITED,JAKA0CHAKRO,CHAKROI,"TEHSIL-SUCHETGARH R.S. PURA DISTRICT-JAMMU, J&K-181102",JAMMU,CHAKROI,JAMMU AND KASHMIR,979642666
141,JAMMU AND KASHMIR BANK LIMITED,JAKA0CHAMAL,CHAMALWAS RAMBAN,"CHAMALVAS, TEHSIL BANIHAL, DISTRICT RAMBAN┬áPIN 182146",RAMBAN,RAMBAN,JAMMU AND KASHMIR,9906902866
142,JAMMU AND KASHMIR BANK LIMITED,JAKA0CHANDI,CHANDIMARH,"CHANDIMARH,TEHSIL SURANKOTE,DISTRICT POONCH,JANDK PIN 185121",POONCH,CHANDIMARH,JAMMU AND KASHMIR,9858138430
143,JAMMU AND KASHMIR BANK LIMITED,JAKA0CHANDK,CHANDAK,TEHSIL-HAVELI,POONCH,CHANDAK,JAMMU AND KASHMIR,9419175212
144,JAMMU AND KASHMIR BANK LIMITED,JAKA0CHANGA,CHANGA,CHANGA BHALESSA - DODA,DODA,"CHANGA BHALESSA, DODA",JAMMU AND KASHMIR,2580578
145,JAMMU AND KASHMIR BANK LIMITED,JAKA0CHANPO,CHANNAPORA SRINAGAR,CHANAPORA,SRINAGAR,CHANAPORA,JAMMU AND KASHMIR,2441481
146,JAMMU AND KASHMIR BANK LIMITED,JAKA0CHARPR,CHARRIPORA,TEHSIL CHARISHARIEF,BUDGAM,CHARIPORA,JAMMU AND KASHMIR,9906501917
147,JAMMU AND KASHMIR BANK LIMITED,JAKA0CHASAN,CHASANA,P/O GOTA TEHSIL MAHORE,REASI,CHASANA,JAMMU AND KASHMIR,9697244824
148,JAMMU AND KASHMIR BANK LIMITED,JAKA0CHATER,CHATTERGAM,TEHSIL-CHADURA,BUDGAM,CHATTERGAM,JAMMU AND KASHMIR,9419018867
149,JAMMU AND KASHMIR BANK LIMITED,JAKA0CHATGB,CHATTERGUL,TEHSIL-KANGAN,GANDERBAL,CHATTERGUL,JAMMU AND KASHMIR,9596377275
150,JAMMU AND KASHMIR BANK LIMITED,JAKA0CHATRO,CHATROO,"CHATROO, KISTHWAR",KISHTWAR,"CHATROO, KISTHWAR",JAMMU AND KASHMIR,7298004722
151,JAMMU AND KASHMIR BANK LIMITED,JAKA0CHAWAL,CHAWALGAM,"Chawalgam,District Kulgam,J AND K Pin code 192231",KULGAM,CHAWALGAM,JAMMU AND KASHMIR,9858431219
152,JAMMU AND KASHMIR BANK LIMITED,JAKA0CHAWRI,CHAWRI BAZAR DELHI,3462-GALI BAJRANG BALI,DELHI,CHAWRI BAZAR,DELHI,23272400
153,JAMMU AND KASHMIR BANK LIMITED,JAKA0CHBTRA,CHOWK CHABUTRA JAMMU,CHOWK CHABUTRA,JAMMU,CHOWK CHABUTRA,JAMMU AND KASHMIR,2543457
154,JAMMU AND KASHMIR BANK LIMITED,JAKA0CHDUNA,CHUNDUNA,SHALLABUG,GANDERBAL,CHANDUNA,JAMMU AND KASHMIR,9797034419
155,JAMMU AND KASHMIR BANK LIMITED,JAKA0CHECKI,CHECKI-CHOLAN,"CHECKI-CHOLAN, BLOCK HERMAN, TEHSIL HERMAN, DISTRICT SHOPIAN, KASHMIR  PIN-192303",SHOPIAN,HARMAN,JAMMU AND KASHMIR,9797991258
156,JAMMU AND KASHMIR BANK LIMITED,JAKA0CHEENI,CHEENI CHOWK ANANTNAG,CHEENI CHOWK ANANTNAG,ANANTNAG,CHEENI CHOWK,JAMMU AND KASHMIR,222552
157,JAMMU AND KASHMIR BANK LIMITED,JAKA0CHERRY,FRUIT COMPLEX JAMMU,FRUIT COMPLEX,JAMMU,FRUIT COMPLEX,JAMMU AND KASHMIR,2476282
158,JAMMU AND KASHMIR BANK LIMITED,JAKA0CHERSO,CHERSOO,"CHERSOO, BLOCK & TEHSIL-AWANTIPORA, DISTRICT-PULWAMA, J&K, PIN-192122",PULWAMA,AWANTIPURA,JAMMU AND KASHMIR,9906542493
159,JAMMU AND KASHMIR BANK LIMITED,JAKA0CHIGAM,CHINGAM,"CHATRO, KISHTWAR, JAMMU, JAMMU AND KASHMIR PIN 182205",DODA,CHATROO,JAMMU AND KASHMIR,9419188086
160,JAMMU AND KASHMIR BANK LIMITED,JAKA0CHINAR,RESIDENCY  ROAD SRINAGAR,LAL CHOWK,SRINAGAR,RESIDENCY ROAD,JAMMU AND KASHMIR,2480034
161,JAMMU AND KASHMIR BANK LIMITED,JAKA0CHINGD,"CHINIGUND, DOORU","CHINIGUND, TEHSIL DOORU, ANANTNAG PIN192211",ANANTNAG,ANANTNAG,JAMMU AND KASHMIR,9469112591
162,JAMMU AND KASHMIR BANK LIMITED,JAKA0CHINTA,CHINTA,"CHHANI CHINTA, BLOCK & TEHSIL- BHADERWAH, DISTRICT-DODA,├╜ PIN-182222",DODA,BHADERWAH,JAMMU AND KASHMIR,9906333034
163,JAMMU AND KASHMIR BANK LIMITED,JAKA0CHITER,CHITRAKOTE,TANGDAR,KUPWARA,CHITRAKOTE,JAMMU AND KASHMIR,1958
164,JAMMU AND KASHMIR BANK LIMITED,JAKA0CHITRA,CHITRAGAM,"CHITRAGAM, SHOPIAN, KASHMIR, JK PIN 191201",PULWAMA,SHOPIAN,JAMMU AND KASHMIR,9858796111
165,JAMMU AND KASHMIR BANK LIMITED,JAKA0CHKANA,CHAK KANA,"TEHSIL - MARH , DISTRICT - JAMMU , PIN - 181206",JAMMU,JAMMU,JAMMU AND KASHMIR,9419425046
166,JAMMU AND KASHMIR BANK LIMITED,JAKA0CHKTAN,CHIKTAN,"THE JAMMU AND KASHMIR BANK LTD,BLOCK SHAKAR CHIKTAN",KARGIL,CHIKTAN,JAMMU AND KASHMIR,1985
167,JAMMU AND KASHMIR BANK LIMITED,JAKA0CHNANI,CHENANI,UDHAMPUR,UDHAMPUR,CHANANI,JAMMU AND KASHMIR,7298000462
168,JAMMU AND KASHMIR BANK LIMITED,JAKA0CHNDAR,CHANDERKOT,CHANDERKOTE RAMBAN,RAMBAN,CHANDERKOTE,JAMMU AND KASHMIR,7298004728
169,JAMMU AND KASHMIR BANK LIMITED,JAKA0CHOHAN,CHOWKI HANDAN,"CHOWKI HANDAN, POST OFFICE-CHOWKI, TEHSIL-NOWSHERA, DISTRICT-RAJOURI, JK, PIN-185151",RAJOURI,NOWSHERA,JAMMU AND KASHMIR,9906104003
170,JAMMU AND KASHMIR BANK LIMITED,JAKA0CHOKBL,CHOWKIBAL,"CHOWKIBAL,DISTRICT KUPWARA,PIN CODE 193224",KUPWARA,CHOWKIBAL,JAMMU AND KASHMIR,9906849975
171,JAMMU AND KASHMIR BANK LIMITED,JAKA0CHOORA,CHOORA,PATTAN,BARAMULLA,CHOORA,JAMMU AND KASHMIR,9906664854
172,JAMMU AND KASHMIR BANK LIMITED,JAKA0CHOOSE,BARI BRAHMNA,NATIONAL HIGHWAY,SAMBA,BARI BRAHAMANA,JAMMU AND KASHMIR,220874
173,JAMMU AND KASHMIR BANK LIMITED,JAKA0CHOWKI,CHOWKI CHAURA,"POST OFFICE & TEHSIL-CHOWKI CHAURA, DISTRICT-JAMMU, J&K-185154",JAMMU,CHOWKI CHOWRA,JAMMU AND KASHMIR,9469211778
174,JAMMU AND KASHMIR BANK LIMITED,JAKA0CHQCSC,COMMON SERVICE CENTRE DEPTT.,"HRD, CORPORATE HEADQUARTERS, M A ROAD",SRINAGAR,SRINAGAR,JAMMU AND KASHMIR,2486423
175,JAMMU AND KASHMIR BANK LIMITED,JAKA0CHQIBR,IBR DEPARTMENT CHQ,HARI SINGH HIGH STREET,SRINAGAR,SRINAGAR,JAMMU AND KASHMIR,2481941
176,JAMMU AND KASHMIR BANK LIMITED,JAKA0CHTBAL,CHATTABAL,CHATTABAL,SRINAGAR,BAGHIYAS,JAMMU AND KASHMIR,9697018547
177,JAMMU AND KASHMIR BANK LIMITED,JAKA0CIDWAL,,VILLALGE CHIDWAL TEHSIL HIRA NAGAR,KATHUA,CHIDWAL KATHUA,JAMMU AND KASHMIR,255033
178,JAMMU AND KASHMIR BANK LIMITED,JAKA0CIRCLE,R C C NEW DELHI,"1/7,EMPORIA BUILDING,BABA KHARK SINGH MARG",DELHI,NEW DELHI,DELHI,26252361
179,JAMMU AND KASHMIR BANK LIMITED,JAKA0CIRCUS,CANNAUGHT PLACE DELHI,"G-40 , IST FLOOR",DELHI,CANNOUGHT PLACE,DELHI,23352098
180,JAMMU AND KASHMIR BANK LIMITED,JAKA0CKATRA,ARLI KATRA,CHANDI BORH ARLI ROAD KATRA,REASI,ARLI KATRA,JAMMU AND KASHMIR,9086060609
181,JAMMU AND KASHMIR BANK LIMITED,JAKA0CNDOSA,CHANDOSA,"CHANDOSA,BARAMULLA,J AND K",BARAMULLA,"CHANDOOSA, BARAMULLA",JAMMU AND KASHMIR,7298004388
182,JAMMU AND KASHMIR BANK LIMITED,JAKA0COLLEG,ISLAMIA COLLEGE SRINAGAR,ISLAMIA COLLEGE ROAD,SRINAGAR,ISLAMIA COLLEGE,JAMMU AND KASHMIR,2422149
183,JAMMU AND KASHMIR BANK LIMITED,JAKA0COLONY,NEW COLONY SOPORE,NEW COLONY,BARAMULLA,NEW COLONY SOPORE,JAMMU AND KASHMIR,222464
184,JAMMU AND KASHMIR BANK LIMITED,JAKA0COMTAX,COMMERCIAL TAXES DEPARTMENT,"SILK FACTORY ROAD, SOLINA",SRINAGAR,COMMERCIAL TAXES DEPTT.,JAMMU AND KASHMIR,9906667425
185,JAMMU AND KASHMIR BANK LIMITED,JAKA0COMTOR,COIMBATORE,"229 TB SWAMY ROAD,RS PURAM",COIMBATORE,COIMBATORE,TAMIL NADU,2542967
186,JAMMU AND KASHMIR BANK LIMITED,JAKA0COUPLE,ZONAL OFFICE JAMMU CENTRAL,RAIL HEAD COMPLEX JAMMU JAMMU AND KASHMIR 180012,JAMMU,JAMMU,JAMMU AND KASHMIR,2473917
187,JAMMU AND KASHMIR BANK LIMITED,JAKA0CRMAGM,COURT ROAD MAGAM,"COURT ROAD MAGAM,J AND K",BUDGAM,COURT ROAD MAGAM,JAMMU AND KASHMIR,9906414330
188,JAMMU AND KASHMIR BANK LIMITED,JAKA0CRSHOP,COURT ROAD SHOPIAN,"COURT ROAD SHOPIAN, TEHSIL & DISTRICT-SHOPIAN, KASHMIR , J&K, PIN-192303",SHOPIAN,SHOPIAN,JAMMU AND KASHMIR,9906685080
189,JAMMU AND KASHMIR BANK LIMITED,JAKA0DABGNB,DAB,DAB GANDERBAL TEHSIL WAKURA DISTRICT GANDERBAL KASHMIR PINCODE 191131,GANDERBAL,GANDERBAL,JAMMU AND KASHMIR,9419077864
190,JAMMU AND KASHMIR BANK LIMITED,JAKA0DABHAR,DABLEHAR,"MAIN BAZAR, VPO DABLEHAR TEHSIL R. S. PURA",JAMMU,JAMMU,JAMMU AND KASHMIR,9858281615
191,JAMMU AND KASHMIR BANK LIMITED,JAKA0DACHAN,DACHAN,DACHAN,KISHTWAR,KISHTWAR,JAMMU AND KASHMIR,0
192,JAMMU AND KASHMIR BANK LIMITED,JAKA0DADAOM,DADA OMPORA,CHADORA,BUDGAM,DADA OMPORA,JAMMU AND KASHMIR,7298004313
193,JAMMU AND KASHMIR BANK LIMITED,JAKA0DADSAR,DADSAR,DADSAR TRAL PULWAMA,PULWAMA,DADSAR TRAL PULWAMA,JAMMU AND KASHMIR,9419948827
194,JAMMU AND KASHMIR BANK LIMITED,JAKA0DALGAT,DALGATE SRINAGAR,BOULEVARD ROAD,SRINAGAR,DALGATE,JAMMU AND KASHMIR,2452997
195,JAMMU AND KASHMIR BANK LIMITED,JAKA0DALINA,DELINA,DALINA BARAMULLA,BARAMULLA,DALINA,JAMMU AND KASHMIR,7298004464
196,JAMMU AND KASHMIR BANK LIMITED,JAKA0DALORI,DALHORI,"DALHORI, RAJOURI",RAJOURI,"DALHORI,RAJOURI",JAMMU AND KASHMIR,9419171016
197,JAMMU AND KASHMIR BANK LIMITED,JAKA0DALSAR,DALSAR,"VPO DALSAR, DISTRICT UDHAMPUR, TEHSIL RAMNAGAR, JAMMU, JK PIN 182122",UDHAMPUR,UDHAMPUR,JAMMU AND KASHMIR,9906163038
198,JAMMU AND KASHMIR BANK LIMITED,JAKA0DAMHAL,DAMHAL HANJIPORA,"TEHSIL, DAMHAL HANJIPORA",KULGAM,"DAMHAL, HANJIPORA",JAMMU AND KASHMIR,212404
199,JAMMU AND KASHMIR BANK LIMITED,JAKA0DANDAL,"DANDAL, DODA",DHANDAL TEHSIL KASTIGARH DISTRICT DODA 182147,DODA,DODA,JAMMU AND KASHMIR,7051440055
200,JAMMU AND KASHMIR BANK LIMITED,JAKA0DANGRI,DHANGRI,"DHANGRI, POST OFFICE-DHANGRI, TEHSIL & DISTRICT-RAJOURI, JK, PIN-185132",RAJOURI,DHANGRI,JAMMU AND KASHMIR,9858816891
201,JAMMU AND KASHMIR BANK LIMITED,JAKA0DANSAL,DANSAL,P.O-DANSAL,JAMMU,MAIN ROAD DANSAL,JAMMU AND KASHMIR,2669177
202,JAMMU AND KASHMIR BANK LIMITED,JAKA0DARASS,DRASS,"QATELGAH, MAIN BAZAR DRASS",KARGIL,DARASS KARGIL LADAKH,JAMMU AND KASHMIR,274040
203,JAMMU AND KASHMIR BANK LIMITED,JAKA0DARHAL,DARHAL,NEAR BUS STAND DARHAL,RAJOURI,DARHAL,JAMMU AND KASHMIR,240240
204,JAMMU AND KASHMIR BANK LIMITED,JAKA0DAYAAL,DAYALACHAK,DAYALACHAK,KATHUA,"MAIN ROAD, NATIONAL HIGHWAY",JAMMU AND KASHMIR,9419623181
205,JAMMU AND KASHMIR BANK LIMITED,JAKA0DCREAS,DC OFFICE REASI,"DC OFFICE REASI,DISTRICT REASI,TEHSIL REASI,JAMMU,J AND K PIN 182311",REASI,REASI,JAMMU AND KASHMIR,0
206,JAMMU AND KASHMIR BANK LIMITED,JAKA0DEALER,RTGS-HO,"NATIONAL BUSINESS CENTRE, 3RD & 4TH FLOOR, BANDRA KURLA COMPLEX, BANDRA (EAST)",MUMBAI,MUMBAI,MAHARASHTRA,26384105
207,JAMMU AND KASHMIR BANK LIMITED,JAKA0DECENT,WANPORA,P/O HUNIPORA WANPORA PAMPORA KASHMIR,PULWAMA,WANPORA PULWAMA,JAMMU AND KASHMIR,237352
208,JAMMU AND KASHMIR BANK LIMITED,JAKA0DECODE,DODA,DODA MAIN,DODA,DODA MAIN,JAMMU AND KASHMIR,7298004727
209,JAMMU AND KASHMIR BANK LIMITED,JAKA0DEDOON,DEHRADUN,"56-RAJPUR ROAD,",DEHRA DUN,DEHRADUN,UTTARAKHAND,2741027
210,JAMMU AND KASHMIR BANK LIMITED,JAKA0DEESSA,DESA,OPPOSITE POST OFFICE DODA,DODA,"DESSA, DODA",JAMMU AND KASHMIR,7298004717
211,JAMMU AND KASHMIR BANK LIMITED,JAKA0DEETHU,DEETHU ANANTNAG,DEETHU NEAR OLD EIDGAH BLOCK AND TEHSIL SHANGUS DISTRICT ANANTNAG KASHMIR J&K 192201,ANANTNAG,ANANTNAG,JAMMU AND KASHMIR,9596362646
212,JAMMU AND KASHMIR BANK LIMITED,JAKA0DEHWAT,DEHWATHU,"DACHNIPORA, PAHALGAM, ANANTNAG, KASHMIR, JAMMU AND KASHMIR PIN 192401",ANANTNAG,DEHTU,JAMMU AND KASHMIR,9469493700
213,JAMMU AND KASHMIR BANK LIMITED,JAKA0DERBAB,DERA BABA BANDA BAHADUR,"DERA BABA BANDA BAHADUR,DISTRICT REASI,JANDK",REASI,DEAR BABA BANDA BAHADUR,JAMMU AND KASHMIR,9419160321
214,JAMMU AND KASHMIR BANK LIMITED,JAKA0DESERT,CHATTERGUL,ANANTNAG,ANANTNAG,CHATURGUL ANANTNAG,JAMMU AND KASHMIR,210266
215,JAMMU AND KASHMIR BANK LIMITED,JAKA0DESIRE,SAGAM,"MAIN ROAD, SAGAM TEHSIL KOKERNAG",ANANTNAG,SAGAM ANANTNAG,JAMMU AND KASHMIR,244136
216,JAMMU AND KASHMIR BANK LIMITED,JAKA0DEVAAR,DEVAR,"DEVAR,LOLAB,DISTRICT KUPWARA,BLOCK SOGAM,KASHMIR,J AND K PIN 193223",KUPWARA,SOGAM,JAMMU AND KASHMIR,0
217,JAMMU AND KASHMIR BANK LIMITED,JAKA0DEVSAR,DEVSAR,KULGAM,KULGAM,DEVSAR KULGAM,JAMMU AND KASHMIR,212715
218,JAMMU AND KASHMIR BANK LIMITED,JAKA0DHANGI,DANGIWACHA,DANGIWACHA  BARAMULLA,BARAMULLA,"DANGIWACHA,BARAMULLA",JAMMU AND KASHMIR,7298004560
219,JAMMU AND KASHMIR BANK LIMITED,JAKA0DHARMA,DHARMARI,P.O DHARMARI TAHSIL MAHORE,REASI,DHARMARI,JAMMU AND KASHMIR,9419214916
220,JAMMU AND KASHMIR BANK LIMITED,JAKA0DHASTI,DULHASTI,DULHASTI KISHTWAR,KISHTWAR,"DULHASTI,KISHTWAR",JAMMU AND KASHMIR,7298004441
221,JAMMU AND KASHMIR BANK LIMITED,JAKA0DHAVER,DAWER GUREZ,"DAVER GUREZ,DISTRICT BANDIPORA,J AND K",BANDIPORA,DAVER,JAMMU AND KASHMIR,9419708754
222,JAMMU AND KASHMIR BANK LIMITED,JAKA0DIALGM,DIALGAM,NEAR HR. SEC.SCHOOL DIALGAM,ANANTNAG,DIALGAM,JAMMU AND KASHMIR,222928
223,JAMMU AND KASHMIR BANK LIMITED,JAKA0DINAMB,"DINGA AMB, KATHUA",DINGA AMBTEHSIL AND PO├╜DINGA AMBDISTRICT KATHUA PIN 184144,KATHUA,KATHUA,JAMMU AND KASHMIR,7006042805
224,JAMMU AND KASHMIR BANK LIMITED,JAKA0DISKIT,DISKIT NOBRA,DISKIT NOBRA LEH,LEH,DISKIT NOBRA LEH,JAMMU AND KASHMIR,220044
225,JAMMU AND KASHMIR BANK LIMITED,JAKA0DKPORA,DK PORA SHOPIAN,"NEAR PRIMARY HEALTH CENTRE, D K PORA, SHOPIAN, J&K-192303",SHOPIAN,SHOPIAN,JAMMU AND KASHMIR,8803030903
226,JAMMU AND KASHMIR BANK LIMITED,JAKA0DLFGUR,DLF GURGAON,"A-6&7, SHOPPING MALL, ARJUN MARG,DLF PHASE I, GURGAON",GURGAON,DLF GURGAON,HARYANA,2563950
227,JAMMU AND KASHMIR BANK LIMITED,JAKA0DOCTOR,GOVT MEDICAL COLLEGE SRINAGAR,"GOVERNMENT MEDICAL COLLEGE,KARAN NAGAR",SRINAGAR,GMC,JAMMU AND KASHMIR,2453479
228,JAMMU AND KASHMIR BANK LIMITED,JAKA0DOMANA,DOMANA,POST OFFICE DOMANA,JAMMU,JAMMU-AKHNOOR ROAD,JAMMU AND KASHMIR,9419112240
229,JAMMU AND KASHMIR BANK LIMITED,JAKA0DOOROO,DOORU SHAHABAD,DOORU SHAHABAD,ANANTNAG,"DOORU SHAHABAD,ANANTNAG",JAMMU AND KASHMIR,230235
230,JAMMU AND KASHMIR BANK LIMITED,JAKA0DORSUM,DORSUMA MANIGAM,"DORSUMA MANIGAM,DISTRICT GANDERBAL,TEHSIL LAR,PIN 191201",GANDERBAL,MANIGAM,JAMMU AND KASHMIR,9906664830
231,JAMMU AND KASHMIR BANK LIMITED,JAKA0DRABLA,DRABSHALLA,"DRABSHALLA,DODA,J AND K",KISHTWAR,DRABSHALLA,JAMMU AND KASHMIR,7298004764
232,JAMMU AND KASHMIR BANK LIMITED,JAKA0DRGMUL,DRAGMULLAH,NEAR R.T.O OFFICE,KUPWARA,DRAGMULLAH,JAMMU AND KASHMIR,9622841778
233,JAMMU AND KASHMIR BANK LIMITED,JAKA0DRUROO,DRUROO,DRUROO TANGMARG 193402,BARAMULLA,BARAMULLA,JAMMU AND KASHMIR,7006224112
234,JAMMU AND KASHMIR BANK LIMITED,JAKA0DSHALA,DHARAMSHALA,"KOTWALI BAZAR,",KANGRA,DHARAM SHALLA,HIMACHAL PRADESH,2228075
235,JAMMU AND KASHMIR BANK LIMITED,JAKA0DUBGAM,DRABGAM,TEHSIL PULWAMA,PULWAMA,"DRABGAM PULWAMA,",JAMMU AND KASHMIR,276103
236,JAMMU AND KASHMIR BANK LIMITED,JAKA0DUDDUU,DUDU,"POST OFFICE, DUDU,TEHSIL-LATTEE,DISTRICT-UDHAMPUR, LAND MARK NEAR BUS STAND DUDU, J&K-182128",UDHAMPUR,LATHI,JAMMU AND KASHMIR,9419161929
237,JAMMU AND KASHMIR BANK LIMITED,JAKA0DUDRHM,DUDERHAMA,TAWHEED MARKET NEAR QAMRIA PARK,GANDERBAL,DUDERHAMA GANDERBAL,JAMMU AND KASHMIR,2416530
238,JAMMU AND KASHMIR BANK LIMITED,JAKA0DUDWAR,DUDWAR,"GANDOH BHALESA, TEHSIL GANDOH, DODA, JK PIN 182203",DODA,GANDOH BHALESA,JAMMU AND KASHMIR,9596752080
239,JAMMU AND KASHMIR BANK LIMITED,JAKA0DURBUK,DURBUK,DURBUK LEH,LEH,DURBUK LEH,JAMMU AND KASHMIR,9469190202
240,JAMMU AND KASHMIR BANK LIMITED,JAKA0DURGAN,DURGA NAGAR,"NEAR AMARNATH VAISHNAVI MARG, MAIN ROAD, DURGA NAGAR, JAMMU, 180013",JAMMU,JAMMU,JAMMU AND KASHMIR,9697509427
241,JAMMU AND KASHMIR BANK LIMITED,JAKA0DWARKA,DWARKA DELHI,"ASHISH PLAZA, PLOT NO. 2, POCKET 7,SECTOR 12, DWARKA",DELHI,DWARKA,DELHI,11
242,JAMMU AND KASHMIR BANK LIMITED,JAKA0DWMARG,DANEW KANDIMARG,DANEW KANDI MARG TEHSIL DAMHAL HANJIPO,KULGAM,DANEW KANDIMARG,JAMMU AND KASHMIR,9906638900
243,JAMMU AND KASHMIR BANK LIMITED,JAKA0EAKNOR,T P AKHNOOR,TEHSIL OFFICE  AKHNOOR,JAMMU,T.P.AKHNOOR,JAMMU AND KASHMIR,253546
244,JAMMU AND KASHMIR BANK LIMITED,JAKA0EARNIA,ARNIA,BILLS & POST OFFICE ARNIA NEAR POLICE STATION,JAMMU,ARNIA BISHNA,JAMMU AND KASHMIR,2727712
245,JAMMU AND KASHMIR BANK LIMITED,JAKA0EAURSP,SKUAST  CHATTA,SKUAST CHATTA,JAMMU,SKUAST CHATTA,JAMMU AND KASHMIR,9419205500
246,JAMMU AND KASHMIR BANK LIMITED,JAKA0EBARJN,"BARJANI MEEN CHARKAN, MAHEEN",POST OFFICE SMAILPUR,SAMBA,"BARJANI TALAB, MAHEEN",JAMMU AND KASHMIR,9419212677
247,JAMMU AND KASHMIR BANK LIMITED,JAKA0EBAROO,TP BAROO,BAROO KARGIL,KARGIL,BAROO KARGIL,JAMMU AND KASHMIR,9419819720
248,JAMMU AND KASHMIR BANK LIMITED,JAKA0EBATRA,BATRA HOSPITAL JAMMU,ASCOMS HOSPITAL SIDHRA,JAMMU,BATRA HOSPITAL,JAMMU AND KASHMIR,2662603
249,JAMMU AND KASHMIR BANK LIMITED,JAKA0ECDPAN,POLICE LINES KHANABAL,"POLICE LINES, KHANNABAL",ANANTNAG,"POLICE LINES, KHANNABAL",JAMMU AND KASHMIR,227804
250,JAMMU AND KASHMIR BANK LIMITED,JAKA0ECHEST,CHEST DISEASE HOSPITAL SRINAGAR,"DALGATE,",SRINAGAR,C.D.HOSPITAL,JAMMU AND KASHMIR,2476422
251,JAMMU AND KASHMIR BANK LIMITED,JAKA0ECIUST,ISLAMIC UNIVERSITY OF SCIENCE & TECHNOLOGY,ISLAMIC UNIVERSITY OF SCIENCE AND TECHNLOGY,PULWAMA,AWANTIPORA,JAMMU AND KASHMIR,9419022251
252,JAMMU AND KASHMIR BANK LIMITED,JAKA0ECNBAL,NAGBAL,NEAR PETROL PUMP NAGBAL,GANDERBAL,NAGBAL,JAMMU AND KASHMIR,2262605
253,JAMMU AND KASHMIR BANK LIMITED,JAKA0ECROOM,PCR BATAMALOO,POLICE CONTROL ROOM,SRINAGAR,"PCR BATMALOO,SRINAGAR",JAMMU AND KASHMIR,2450891
254,JAMMU AND KASHMIR BANK LIMITED,JAKA0ECSOPR,CHINKIPORA SOPORE,"CHINKIPORA , SOPORE",BARAMULLA,"CHINKIPORA , SOPORE",JAMMU AND KASHMIR,7298004391
255,JAMMU AND KASHMIR BANK LIMITED,JAKA0ECZEWN,ZEWAN,ZEVAN  PANTHA CHOWK,SRINAGAR,ZEWAN,JAMMU AND KASHMIR,9419070314
256,JAMMU AND KASHMIR BANK LIMITED,JAKA0EDANGA,KAMBAL DANGA,SUNARI ROAD KAMAL DANGA,UDHAMPUR,"KAMBAL DANGA, UDHAMPUR",JAMMU AND KASHMIR,7298004629
257,JAMMU AND KASHMIR BANK LIMITED,JAKA0EDOCOM,DC  OFFICE COMPEX KUPWARA,D.C OFFICE COMPLEX KUPWARA,KUPWARA,DC COMPEX KUPWARA,JAMMU AND KASHMIR,7298004504
258,JAMMU AND KASHMIR BANK LIMITED,JAKA0EDREAM,MANWAL,"MANWAL, UDHAMPUR,",UDHAMPUR,"MANWAL, UDHAMPUR, JAMMU",JAMMU AND KASHMIR,7298004651
259,JAMMU AND KASHMIR BANK LIMITED,JAKA0EGANDI,TP SHASTRI NAGAR JAMMU,"371-372, SHASTRI NAGAR",JAMMU,T.P. SHASTRI,JAMMU AND KASHMIR,7298004460
260,JAMMU AND KASHMIR BANK LIMITED,JAKA0EGCENG,GOVT. COLLEGE FOR ENGG & TECH JAMMU,"E/C GCET,CANAL ROAD",JAMMU,JAMMU,JAMMU AND KASHMIR,2562927
261,JAMMU AND KASHMIR BANK LIMITED,JAKA0EGMARG,GULMARG,GULMARG,BARAMULLA,GULMARG,JAMMU AND KASHMIR,7298004545
262,JAMMU AND KASHMIR BANK LIMITED,JAKA0EGOUSH,GOUSHBUG,"GOSHBUGH, PATTAN",BARAMULLA,"GOSHBUGH, PATTAN",JAMMU AND KASHMIR,7298004472
263,JAMMU AND KASHMIR BANK LIMITED,JAKA0EGROTA,GUJROO,TEHSIL BILAWAR,KATHUA,GUJROO NAGROTA,JAMMU AND KASHMIR,224268
264,JAMMU AND KASHMIR BANK LIMITED,JAKA0EJVBEM,JVMC SRINAGAR,BEMINA,SRINAGAR,JVC HOSPITAL,JAMMU AND KASHMIR,2491841
265,JAMMU AND KASHMIR BANK LIMITED,JAKA0EKARUL,KAROO,KAROO,LEH,KARU LEH,JAMMU AND KASHMIR,249241
266,JAMMU AND KASHMIR BANK LIMITED,JAKA0EKATRA,ADH KUWARI,"ADHKWARI, KATRA,  DIST",REASI,KATRA,JAMMU AND KASHMIR,283332
267,JAMMU AND KASHMIR BANK LIMITED,JAKA0EKCJAM,KC PUBLIC SCHOOL JAMMU,KC PUBLIC SCHOOL,JAMMU,JAMMU,JAMMU AND KASHMIR,2503731
268,JAMMU AND KASHMIR BANK LIMITED,JAKA0EKHREW,JK CEMENT KHREW,"J&KBANK LTD;EXTENSION COUNTER KHREW,CAMP: JK CEMENTS LTD.",PULWAMA,PULWAMA,JAMMU AND KASHMIR,245270
269,JAMMU AND KASHMIR BANK LIMITED,JAKA0EKUTAM,KUTA MOR,EXTENSION COUNTER: KOOTAH,KATHUA,KATHUA,JAMMU AND KASHMIR,2249090
270,JAMMU AND KASHMIR BANK LIMITED,JAKA0ELAGAM,LAGAMA URI,"TEHSIL URI,",BARAMULLA,T.P. LAGAMA,JAMMU AND KASHMIR,9906886646
271,JAMMU AND KASHMIR BANK LIMITED,JAKA0ELINES,DISTT POLICE LINES JAMMU,DIST. POLICE LINE JAMMU,JAMMU,"GHANDHI NAGAR, JAMMU",JAMMU AND KASHMIR,2452796
272,JAMMU AND KASHMIR BANK LIMITED,JAKA0ELUXUR,J&K BOSE REHARI,RAJ PORA REHARI,JAMMU,"J&K BOSE ,JAMMU",JAMMU AND KASHMIR,2565147
273,JAMMU AND KASHMIR BANK LIMITED,JAKA0EMCJAM,SMGS HOSPITAL JAMMU,"SMGS HOSPITAL,SHALIMAR ROAD",JAMMU,SMGS HOSPITAL,JAMMU AND KASHMIR,2566502
274,JAMMU AND KASHMIR BANK LIMITED,JAKA0EMPIRE,T P ANANTNAG,TEHSIL ROAD,ANANTNAG,T.P.ANANTNAG,JAMMU AND KASHMIR,222282
275,JAMMU AND KASHMIR BANK LIMITED,JAKA0EMUNDA,LOWER MUNDA,TOLL POST LOWER MUNDA,ANANTNAG,"LOWER MUNDA, QAZIGUND",JAMMU AND KASHMIR,9419568665
276,JAMMU AND KASHMIR BANK LIMITED,JAKA0ENAMBL,NAMBLABAL PAMPORE,NAMLABAL,PULWAMA,E/C NAMLABAL,JAMMU AND KASHMIR,223930
277,JAMMU AND KASHMIR BANK LIMITED,JAKA0ENPORA,NOORPORA (TRAL),"NOORPORA TRAL,TEHSIL AWANTIPORA",PULWAMA,"NOORPORA, TRAL",JAMMU AND KASHMIR,8803051659
278,JAMMU AND KASHMIR BANK LIMITED,JAKA0ENSMCE,NSM PATTA BOHRI JAMMU,"NSM COLLEGE OF EDUCATION,PATTA BOHRI",JAMMU,NSM COLLEGE JAMMU,JAMMU AND KASHMIR,2503740
279,JAMMU AND KASHMIR BANK LIMITED,JAKA0EOSJAM,OLD SECRETARIAT  JAMMU,OLD SECRETRAIT PANJTRITHI,JAMMU,OLD SECRETRAIT JAMMU,JAMMU AND KASHMIR,2579036
280,JAMMU AND KASHMIR BANK LIMITED,JAKA0EPONCH,POONCH CITY,"POLICE CONTROL ROOM,POONCH",POONCH,MAIN BAZAR POONCH,JAMMU AND KASHMIR,9858516016
281,JAMMU AND KASHMIR BANK LIMITED,JAKA0ERAILH,RAIL HEAD COMPLEX JAMMU,PANAMA CHOWK,JAMMU,RAIL HEAD COMPLEX,JAMMU AND KASHMIR,2470778
282,JAMMU AND KASHMIR BANK LIMITED,JAKA0ERAMBN,MAITRA,MAITRA RAMBAN,RAMBAN,MAITRA RAMBAN,JAMMU AND KASHMIR,9906202040
283,JAMMU AND KASHMIR BANK LIMITED,JAKA0ESADER,SADAR COURT SRINAGAR,"SADDER COURT PERMISES,COURT ROAD",SRINAGAR,SADDER COURT,JAMMU AND KASHMIR,2483607
284,JAMMU AND KASHMIR BANK LIMITED,JAKA0ESAMBA,MAIN BAZAR SAMBA,MAIN BAZAR SAMBA,SAMBA,SAMBA,JAMMU AND KASHMIR,217925
285,JAMMU AND KASHMIR BANK LIMITED,JAKA0ESANIK,SAINIK SCHOOL MANASBAL,BARSOO,GANDERBAL,SAINIK SCHOOL MANASBAL,JAMMU AND KASHMIR,8803001802
286,JAMMU AND KASHMIR BANK LIMITED,JAKA0ESEMNA,NHPC KISHTWAR,SEMA COLONY,KISHTWAR,CHENAB NAGAR,JAMMU AND KASHMIR,7298004737
287,JAMMU AND KASHMIR BANK LIMITED,JAKA0ESHKTI,CAMA HOUSING COLONY,"CAMA HOUSING COLONY,NEAR NATIONAL HIGHWAY",UDHAMPUR,CAMA HOUSING COLONY,JAMMU AND KASHMIR,7298004624
288,JAMMU AND KASHMIR BANK LIMITED,JAKA0ESINGH,SSM ENGG. COLLEGE PATTAN,"SSM ENGG. COLLEGE,DEVER, PARIHASPORA, PA",BARAMULLA,"SSM ENGG. COLLEGE, PATTAN",JAMMU AND KASHMIR,7298004587
289,JAMMU AND KASHMIR BANK LIMITED,JAKA0ESTATE,IC BARI BRAHAMNA,BARI BRAHMNA (I.C),SAMBA,IC BARI BRAHMNA,JAMMU AND KASHMIR,220362
290,JAMMU AND KASHMIR BANK LIMITED,JAKA0ESURAN,T. P. SURANKOT,"SURRANKOTE,POONCH",POONCH,SURANKOTE,JAMMU AND KASHMIR,0
291,JAMMU AND KASHMIR BANK LIMITED,JAKA0ETHEED,NEW THEED,NEW THEED HARWAN,SRINAGAR,NEW THEED,JAMMU AND KASHMIR,2463313
292,JAMMU AND KASHMIR BANK LIMITED,JAKA0ETOOTO,TATTOO GROUND SRINAGAR,"TOTTO GROUND, SRINAGAR",SRINAGAR,SRINAGAR,JAMMU AND KASHMIR,9419006109
293,JAMMU AND KASHMIR BANK LIMITED,JAKA0ETPPUL,T P PULWAMA,NEAR POLICE STATION PULWAMA,PULWAMA,"T P PULWAMA , SERVICE COUNTER",JAMMU AND KASHMIR,241633
294,JAMMU AND KASHMIR BANK LIMITED,JAKA0EWAKUR,WAKURA,GANDERBAL,GANDERBAL,WAKURA,JAMMU AND KASHMIR,2107882
295,JAMMU AND KASHMIR BANK LIMITED,JAKA0EXAMBR,BOARD OF SCHOOL EDUCATION SRINAGAR,BEMINA,SRINAGAR,STATE BOAARD OF SCHOOL EDUCATION,JAMMU AND KASHMIR,2495249
296,JAMMU AND KASHMIR BANK LIMITED,JAKA0EXDODA,TP DODA,"PAY COUNTER,TEHSIL OFFICE,TP DODA,J AND K",DODA,TREASURY PREMISES DODA,JAMMU AND KASHMIR,9906524251
297,JAMMU AND KASHMIR BANK LIMITED,JAKA0EXPORT,LAL BAZAR SRINAGAR,NEAR MOLVI STOP,SRINAGAR,LAL BAZAR,JAMMU AND KASHMIR,2425390
298,JAMMU AND KASHMIR BANK LIMITED,JAKA0EZIRIP,ZIRIPORA,BIJBEHARA,ANANTNAG,ZIRIPORA,JAMMU AND KASHMIR,234806
299,JAMMU AND KASHMIR BANK LIMITED,JAKA0FASBAD,FASLABAD,TEHSIL-SURANKOTE,POONCH,FASLABAD,JAMMU AND KASHMIR,8803160164
300,JAMMU AND KASHMIR BANK LIMITED,JAKA0FATTEH,FATEH KADAL SRINAGAR,FATEH KADAL,SRINAGAR,FATEH KADAL,JAMMU AND KASHMIR,2458012
301,JAMMU AND KASHMIR BANK LIMITED,JAKA0FAVOUR,ZONAL OFFICE DELHI,PLOT NO 132 134 SECTOR 44 GURGAON HARYANA 122002,GURGAON,GURGAON,HARYANA,4715800
302,JAMMU AND KASHMIR BANK LIMITED,JAKA0FCPALO,FRIENDS COLONY PALOURA,PATTA PALOURA,JAMMU,153-WARD NO. 41,JAMMU AND KASHMIR,2591171
303,JAMMU AND KASHMIR BANK LIMITED,JAKA0FEROZE,FEROZPUR,"MALWAL ROAD OPP, H.M.SCHOOL",FEROZPUR,"FEROZPUR, PUNJAB",PUNJAB,220741
304,JAMMU AND KASHMIR BANK LIMITED,JAKA0FLORAL,TRAL,MAIN TRAL,PULWAMA,TRAL,JAMMU AND KASHMIR,250243
305,JAMMU AND KASHMIR BANK LIMITED,JAKA0FMKLGM,FRUIT MANDI KULGAM,"FRUIT MARKET KULGAM,DISTRICT KULGAM,J AND K PIN CODE 192231",KULGAM,FRIT MARKET KULGAM,JAMMU AND KASHMIR,9622828912
306,JAMMU AND KASHMIR BANK LIMITED,JAKA0FOREST,KUPWARA (MAIN),BY PASS ROAD KUPWARA,KUPWARA,KUPWARA,JAMMU AND KASHMIR,252218
307,JAMMU AND KASHMIR BANK LIMITED,JAKA0FRABAD,FARIDABAD,"SHOPPING COMPLEX, 107, SECTOR - 16,BEHIND SAGAR CINEMA",FARIDABAD,FARIDABAD,HARYANA,4105871
308,JAMMU AND KASHMIR BANK LIMITED,JAKA0FRAZER,FRAZER TOWN,"95 MOSQUE ROAD, FRAZER TOWN",BANGALORE,GROUND FOOR,KARNATAKA,7795367396
309,JAMMU AND KASHMIR BANK LIMITED,JAKA0FRBTNG,FRUIT MANDI BATENGOO,"FRUIT MANDI BATENGOO, ANANTNAG, PIN 192101",ANANTNAG,ANANTNAG,JAMMU AND KASHMIR,9906496564
310,JAMMU AND KASHMIR BANK LIMITED,JAKA0FRISAL,FRISAL,MAIN MARKET,KULGAM,FRISAL,JAMMU AND KASHMIR,9622506615
311,JAMMU AND KASHMIR BANK LIMITED,JAKA0FRUITS,FRUIT COMPLEX SRINAGAR,"FRUIT COMPLEX,",SRINAGAR,FRUIT COMPLEX,JAMMU AND KASHMIR,2490323
312,JAMMU AND KASHMIR BANK LIMITED,JAKA0GAGWAL,GAGWAL,NATIONAL HIGHWAY,SAMBA,GHAGWAL SAMBA,JAMMU AND KASHMIR,230241
313,JAMMU AND KASHMIR BANK LIMITED,JAKA0GAIDES,GAI DESSA,"TEHSIL BHAGWA, DISTT. DODA -182202",DODA,DESA,JAMMU AND KASHMIR,9716932602
314,JAMMU AND KASHMIR BANK LIMITED,JAKA0GAJANI,GAJANSOO,"MAIN BUS STAND,VPO GAJANSOO,DISTRICT JAMMU,TEHSIL JAMMU,PIN 181206",JAMMU,GAJANSU,JAMMU AND KASHMIR,0
315,JAMMU AND KASHMIR BANK LIMITED,JAKA0GAJOTH,GAJOTH,"POST OFFICE MALOTHI, TEHSIL BHALLA, DISTRICT DODA-182221",DODA,DODA,JAMMU AND KASHMIR,9858567146
316,JAMMU AND KASHMIR BANK LIMITED,JAKA0GALUTA,GALHUTA,"GALHUTA, POONCH",POONCH,"GALHUTA, POONCH",JAMMU AND KASHMIR,1965
317,JAMMU AND KASHMIR BANK LIMITED,JAKA0GAMUDD,GAMUD GADAKHUD,TEHSIL-SUMBAL,BANDIPORA,GAMUD GADAKHUD,JAMMU AND KASHMIR,9906961440
318,JAMMU AND KASHMIR BANK LIMITED,JAKA0GANDER,GANDERBAL,BEEHAMA GANDERBAL,GANDERBAL,GANDERBAL,JAMMU AND KASHMIR,2416881
319,JAMMU AND KASHMIR BANK LIMITED,JAKA0GANDHI,GANDHINAGR JAMMU,"GOLE MARKET, GHANDHI PLAZA",JAMMU,GHANDHI NAGAR,JAMMU AND KASHMIR,2430192
320,JAMMU AND KASHMIR BANK LIMITED,JAKA0GANPAT,GANPATYAR SRINAGAR,GANPATYAR,SRINAGAR,GANPATYAR,JAMMU AND KASHMIR,2471792
321,JAMMU AND KASHMIR BANK LIMITED,JAKA0GARDEN,BALGARDEN SRINAGAR,"SMC COMPLEX, BALGARDEN",SRINAGAR,BALGARDEN,JAMMU AND KASHMIR,2451091
322,JAMMU AND KASHMIR BANK LIMITED,JAKA0GAROOR,"GAROORA, BANDIPORA","GAROORA, BANDIPORA, PIN 193502",BANDIPORA,BANDIPORA,JAMMU AND KASHMIR,7298015118
323,JAMMU AND KASHMIR BANK LIMITED,JAKA0GENBUS,GENERAL BUS STAND BATAMALOO,BARAN PATHER BATAMALOO DISTRCT SRINAGAR J K PIN CODE 190009,SRINAGAR,BARN PATHER BATAMALOO,JAMMU AND KASHMIR,9419590525
324,JAMMU AND KASHMIR BANK LIMITED,JAKA0GGMCOL,"G.G.M.SCIENCE COLLEGE JAMMU, CLUSTER UNIVERSITY JAMMU","G.G.M. SCIENCE COLLEGE CLUSTER UNIVERSITY, JAMMU, PIN-180001",JAMMU,JAMMU,JAMMU AND KASHMIR,9796694843
325,JAMMU AND KASHMIR BANK LIMITED,JAKA0GHAATH,GHAT,GHAT,DODA,NEAR BUS STAND,JAMMU AND KASHMIR,9796262760
326,JAMMU AND KASHMIR BANK LIMITED,JAKA0GHARUN,CHANDIGARH UNIVERSITY GHARAUN,"CHANDIGARH UNIVERSITY, GHARAUN CAMPUS, LUDHIANA ROAD, SAS NAGAR MOHALI (PUNJAB) - 140413",SAS NAGAR,SAHIBZADA AJIT SINGH NAGAR,PUNJAB,9906399347
327,JAMMU AND KASHMIR BANK LIMITED,JAKA0GHAZIA,NOIDA,"P-2, J.O.P PLAZA,SECTOR 18, NOIDA",GAUTAM BUDDHA NAGAR,NOIDA,UTTAR PRADESH,4557791
328,JAMMU AND KASHMIR BANK LIMITED,JAKA0GHORDI,GHORDI,TEHSIL-RAMNAGAR,UDHAMPUR,BUS STAND GHORDI,JAMMU AND KASHMIR,9622383037
329,JAMMU AND KASHMIR BANK LIMITED,JAKA0GHOUMA,GHOU MANHASSAN,"GHOU MANHASSAN, NEAR FISHRIES DEPARTMENT, VPO-GHOU MANHASSAN, DISTRICT-JAMMU, J&K, PIN-181206",JAMMU,GHO MANHASAN,JAMMU AND KASHMIR,2644229
330,JAMMU AND KASHMIR BANK LIMITED,JAKA0GKJAMU,GREATER KAILASH JAMMU,FOUNTAIN CHOWK,JAMMU,GREATER KAILASH,JAMMU AND KASHMIR,2480314
331,JAMMU AND KASHMIR BANK LIMITED,JAKA0GKLASH,GREATER KAILASH DELHI,"C-10, PART-I",DELHI,GREATER KAILASH,DELHI,29243035
332,JAMMU AND KASHMIR BANK LIMITED,JAKA0GNGJAM,GUJJAR NAGAR JAMMU,NEAR SHERI KASHMIR BRIDGE,JAMMU,GUJJAR NAGAR,JAMMU AND KASHMIR,2564641
333,JAMMU AND KASHMIR BANK LIMITED,JAKA0GNGYAL,GANGYAL,OPP. IFCA BOTTELING COMPANY,JAMMU,GANGYAL,JAMMU AND KASHMIR,2480119
334,JAMMU AND KASHMIR BANK LIMITED,JAKA0GNOIDA,GREATER NOIDA,"DADRI ROAD, SURAJPUR, OPP PETROL PUMP",GAUTAM BUDDHA NAGAR,GREATER NOIDA,UTTAR PRADESH,2569074
335,JAMMU AND KASHMIR BANK LIMITED,JAKA0GOBIND,MANDI GOBINDGARH,"G T ROAD, MANDI GOBIND GARH,DISTRICT FATTEH GARH SAHIB",FATEHGARH SAHIB,MANDI GOBIND GARH,PUNJAB,242224
336,JAMMU AND KASHMIR BANK LIMITED,JAKA0GOLDEN,PULWAMA,PULWAMA MAIN,PULWAMA,PULWAMA MAIN,JAMMU AND KASHMIR,241340
337,JAMMU AND KASHMIR BANK LIMITED,JAKA0GOOLAB,GOOL,"GOOL ,RAMBAN",RAMBAN,"GOOL, RAMBAN",JAMMU AND KASHMIR,7298004730
338,JAMMU AND KASHMIR BANK LIMITED,JAKA0GOPALK,"GOPALPORA, KULGAM",GOPALPORA KULGAM PIN 192233,KULGAM,KULGAM,JAMMU AND KASHMIR,9906598271
339,JAMMU AND KASHMIR BANK LIMITED,JAKA0GOUNDH,GUND,"GUND, KANGAN",GANDERBAL,"GUND, KANGAN",JAMMU AND KASHMIR,2180003
340,JAMMU AND KASHMIR BANK LIMITED,JAKA0GOVIND,GOVINDSAR,OPP. INDUSTRIAL ESTATES,KATHUA,GOVINDSAR,JAMMU AND KASHMIR,233165
341,JAMMU AND KASHMIR BANK LIMITED,JAKA0GOWHAR,GOWHARPORA,GOWHARPORA CHADOORA,BUDGAM,GOWHARPORA BUDGAM,JAMMU AND KASHMIR,9906953311
342,JAMMU AND KASHMIR BANK LIMITED,JAKA0GRAMEN,J AND K GRAMEEN BANK,"ALL BRANCHES, J AND K GRAMEEN BANK, JAMMU AND KASHMIR",JAMMU,JAMMU,JAMMU AND KASHMIR,0
343,JAMMU AND KASHMIR BANK LIMITED,JAKA0GSBUNI,BABA GHULAM SHAH UNIVERSITY RAJOURI,RAJOURI,RAJOURI,BSGB UNIVERSITY,JAMMU AND KASHMIR,241010
344,JAMMU AND KASHMIR BANK LIMITED,JAKA0GUJCCJ,GUJJAR CHARITABLE TRUST JAMMU,"NEAR JAMKASH VEHCILADES,OPP CHANNI HIMAT, BYE PASS RD",JAMMU,GUJJAR CHARITABLE TRUST,JAMMU AND KASHMIR,2460641
345,JAMMU AND KASHMIR BANK LIMITED,JAKA0GUJJAR,GUJJAR MARKET RAJOURI,"NEAR L.I.C OF INDIA,GUJJAR MARKET RAJOURI",RAJOURI,GUJJAR MARKET RAJOURI,JAMMU AND KASHMIR,263578
346,JAMMU AND KASHMIR BANK LIMITED,JAKA0GUJRAL,CAMP GOLE  GUJRAL,"JASWANT PLAZA, GOLE GUJRAL",JAMMU,JAMMU,JAMMU AND KASHMIR,9419102383
347,JAMMU AND KASHMIR BANK LIMITED,JAKA0GUMMAT,UPPER GUMMAT JAMMU,UPPER GUMMAT BAZAAR,JAMMU,UPPER GUMMAT,JAMMU AND KASHMIR,2579643
348,JAMMU AND KASHMIR BANK LIMITED,JAKA0GUMPHA,ZONAL OFFICE LEH,LEH LADAKH JAMMU AND KASHMIR 194101,LEH,LEH,JAMMU AND KASHMIR,252130
349,JAMMU AND KASHMIR BANK LIMITED,JAKA0GUNDHI,DRABA GUNDHI,"DRABA GUNDHI,",POONCH,"DRABA, GUNDHI, POONCH",JAMMU AND KASHMIR,230418
350,JAMMU AND KASHMIR BANK LIMITED,JAKA0GUNDNA,"GUNDANA, DODA","GUNDANA, TEHSIL GUNDANA DISTRICT DODA 182202",DODA,DODA,JAMMU AND KASHMIR,9419168627
351,JAMMU AND KASHMIR BANK LIMITED,JAKA0GURAHH,GURHA SINGHU,VPO SHAMA CHAK,JAMMU,VILLAGE- GURHA SINGHU,JAMMU AND KASHMIR,9419189392
352,JAMMU AND KASHMIR BANK LIMITED,JAKA0GURGON,GURGAON MAIN,"OLD JUDICAL COMPLEX, TOWER 47,CIVIL LINES",GURGAON,GURGOAN MAIN,HARYANA,4118501
353,JAMMU AND KASHMIR BANK LIMITED,JAKA0GURKAL,GURHA KALYAL,TEHSIL-BILLAWAR,KATHUA,GURHA KALYAL,JAMMU AND KASHMIR,9419128558
354,JAMMU AND KASHMIR BANK LIMITED,JAKA0GURSEC,GURGOAN SECTOR 44,SECTOR 44,GURGAON,PLOT NO. 132-134,HARYANA,4715800
355,JAMMU AND KASHMIR BANK LIMITED,JAKA0GURSHA,GURSAHI,GURSAHI,POONCH,"GURSAHI, POONCH",JAMMU AND KASHMIR,225319
356,JAMMU AND KASHMIR BANK LIMITED,JAKA0GURSLA,GURHA SALATHIA,"GURHA SALATHIA,DISTRICT SAMBA,J AND K,PIN 181143",SAMBA,GURHA SALATHIA,JAMMU AND KASHMIR,9906170800
357,JAMMU AND KASHMIR BANK LIMITED,JAKA0GURUJI,SHASTRI MARKET AMRITSAR,S.M.AMRITSAR,AMRITSAR,SHASTRI MARKET AMRITSAR,PUNJAB,2292778
358,JAMMU AND KASHMIR BANK LIMITED,JAKA0GZABAD,GHAZIABAD,"204, 1ST FLOOR AMBEDKAR ROAD,OPP NEHRU YUVA KENDRA GHAZIABAD",GHAZIABAD,GHAZIABAD,UTTAR PRADESH,2796213
359,JAMMU AND KASHMIR BANK LIMITED,JAKA0HABBAK,HABBAK CROSSING,"HABBAK CROSSING, POST OFFICE-KASHMIR UNIVERSITY, DISTRICT-SRINAGAR, PIN-190006",SRINAGAR,SRINAGAR,JAMMU AND KASHMIR,9419064530
360,JAMMU AND KASHMIR BANK LIMITED,JAKA0HAFROO,HAFROO BATPORA,CHADORA,BUDGAM,HAFROO BATPORA,JAMMU AND KASHMIR,8803009765
361,JAMMU AND KASHMIR BANK LIMITED,JAKA0HAIDER,J N ROAD HYDERABAD,J.N ROAD HYDERABAD,HYDERABAD,HYDERABAD J.N ROAD,ANDHRA PRADESH,24615539
362,JAMMU AND KASHMIR BANK LIMITED,JAKA0HAJJIN,HAJIN,HAJIN,BANDIPORA,"HAJIN, BANDIPORA",JAMMU AND KASHMIR,265340
363,JAMMU AND KASHMIR BANK LIMITED,JAKA0HAKURA,HAKURA BADASGAM,NEAR JAMIA MASJID,ANANTNAG,HAKURA BADASGAM,JAMMU AND KASHMIR,9797930483
364,JAMMU AND KASHMIR BANK LIMITED,JAKA0HALMAT,HALMATPORA,"HALMATPORA,DISTRIC KUPWARA,KASHMIR,J AND K PIN 193222",KUPWARA,HALMAT PORA,JAMMU AND KASHMIR,9419954525
365,JAMMU AND KASHMIR BANK LIMITED,JAKA0HARDWR,HRIDWAR,"ACHARAYA CHANDRA CHOWK, RANIPUR MORH, OPPOSITE CITY HOSPITAL, HARIDWAR, UTTARAKHAND, PIN-249401",HARIDWAR,HARDWAR,UTTARAKHAND,9419263215
366,JAMMU AND KASHMIR BANK LIMITED,JAKA0HARNAG,HARNAG,"HARNAG, BLOCK & TEHSIL-ACHABAL,DISTRICT-ANANTNAG, KASHMIR, PIN-192102",ANANTNAG,ACHABAL,JAMMU AND KASHMIR,9906684618
367,JAMMU AND KASHMIR BANK LIMITED,JAKA0HARRAI,HARAI,"HARRAI,DISTRICT KUPWARA,PIN CODE 193224",KUPWARA,HARRAI,JAMMU AND KASHMIR,9906652700
368,JAMMU AND KASHMIR BANK LIMITED,JAKA0HASBAT,GUND HASSI BHAT,"GUND HASSI BHAT,DISTRICT SRINAGAR,J AND K PIN CODE 190017",SRINAGAR,GUND HASIBHAT,JAMMU AND KASHMIR,9419009593
369,JAMMU AND KASHMIR BANK LIMITED,JAKA0HBEIGH,HAIDER BEIGH,"HYDER BEIGH, BARAMULLA",BARAMULLA,"HYDERBEIGH, BARAMULLA",JAMMU AND KASHMIR,7298004468
370,JAMMU AND KASHMIR BANK LIMITED,JAKA0HCCJAM,HIGH COURT COMPLEX JAMMU,HIGH COUT COMPLEX,JAMMU,HIGH COURT COMPLEX,JAMMU AND KASHMIR,2530490
371,JAMMU AND KASHMIR BANK LIMITED,JAKA0HCCSGR,HIGH COURT COMPLEX SRINAGAR,J&K HIGH COURT,SRINAGAR,HIGH COURT,JAMMU AND KASHMIR,2482839
372,JAMMU AND KASHMIR BANK LIMITED,JAKA0HEFFSH,"HEFF, SHOPIAN","HEFF, SHOPIAN, KASHMIR PIN-192305",SHOPIAN,SHOPIAN,JAMMU AND KASHMIR,9906461962
373,JAMMU AND KASHMIR BANK LIMITED,JAKA0HEMMIS,THIKSAY,"THIKSAY LEH,LADAKH REGION",LEH,THIKSEY,JAMMU AND KASHMIR,0
374,JAMMU AND KASHMIR BANK LIMITED,JAKA0HERMAN,HERMAN,HERMAN SHOPIAN,SHOPIAN,"HERMAIN , SHOPIAN",JAMMU AND KASHMIR,217003
375,JAMMU AND KASHMIR BANK LIMITED,JAKA0HESPER,HIMYA,"HIMYA KAIRYLEH,LADAKH,J AND K",LEH,"HIMYA (KAIRY),LEH",JAMMU AND KASHMIR,9419178288
376,JAMMU AND KASHMIR BANK LIMITED,JAKA0HIDYAL,HIDYAL,"NEAR HIDYAL CHOWK,DISTRICT KISHTWAR,PIN CODE 182204",KISHTWAR,NEAR HIDYAL CHOWK,JAMMU AND KASHMIR,9419914183
377,JAMMU AND KASHMIR BANK LIMITED,JAKA0HILLAR,HILLAR ARHAMA,"HILLAR ARHAMA, OPPOSITE JAMIA MASJID, HILLAR, ANANTNAG, J&K- 192201",ANANTNAG,ANANTNAG,JAMMU AND KASHMIR,9018879171
378,JAMMU AND KASHMIR BANK LIMITED,JAKA0HISSAR,HISSAR,"SCO 73-74, URBAN ESTATE 1,RED SQUARE MARKET, HISSAR",HISAR,HISSAR,HARYANA,2231215
379,JAMMU AND KASHMIR BANK LIMITED,JAKA0HITECH,AGRO HI TECH SOPORE,AGRO HITECH CHANKHAN,BARAMULLA,HITECH SOPORE,JAMMU AND KASHMIR,7298004612
380,JAMMU AND KASHMIR BANK LIMITED,JAKA0HKADAL,HABBA KADAL SRINAGAR,HABBA KADAL,SRINAGAR,HABBA KADAL,JAMMU AND KASHMIR,2108288
381,JAMMU AND KASHMIR BANK LIMITED,JAKA0HNAGAR,HIRA NAGAR,"MAIN BAZAAR HIRANAGAR,",KATHUA,"HIRANAGAR, MAIN BAZAR",JAMMU AND KASHMIR,274238
382,JAMMU AND KASHMIR BANK LIMITED,JAKA0HNDWAR,HANDWARA,NEAR TEHSIL OFFICE,KUPWARA,HANDWARA MAIN,JAMMU AND KASHMIR,262245
383,JAMMU AND KASHMIR BANK LIMITED,JAKA0HONOUR,SAFA KADAL SRINAGAR,SAFAKADAL,SRINAGAR,SAFAKADAL,JAMMU AND KASHMIR,2475043
384,JAMMU AND KASHMIR BANK LIMITED,JAKA0HOSERY,ZONAL OFFICE MOHALI,UPPER NORTH PHASE 2 SECTOR 54 MOHALI PUNJAB 160055,SAS NAGAR MOHALI,RUPNAGAR,PUNJAB,2228938
385,JAMMU AND KASHMIR BANK LIMITED,JAKA0HOSPUR,HOSHIARPUR,"DHAAMI COMMERCIAL COMPLEX, SUTHERI ROAD, DISTRICT- HOSHIAPUR,PUNJAB, PIN-146001",HOSHIARPUR,HOSHIARPUR,PUNJAB,246046
386,JAMMU AND KASHMIR BANK LIMITED,JAKA0HRCHAK,HARIA CHAK,TEHSIL HIRANAGAR,KATHUA,HARIA CHAK  HIRANAGAR,JAMMU AND KASHMIR,210250
387,JAMMU AND KASHMIR BANK LIMITED,JAKA0HRDABR,HARDU ABOORA,BLOCK KUNZER TEHSIL TANGMARG,BARAMULLA,"HARDU ABOORA ,",JAMMU AND KASHMIR,9419018792
388,JAMMU AND KASHMIR BANK LIMITED,JAKA0HRDCHQ,CHQ,"HRD, CORPORATE HEADQUARTERS, M A ROAD",SRINAGAR,SRINAGAR,JAMMU AND KASHMIR,2481922
389,JAMMU AND KASHMIR BANK LIMITED,JAKA0HRHAND,HANDWARA (SOUTH),HOSPITAL ROAD,KUPWARA,"HANDWARA , SOUTH",JAMMU AND KASHMIR,262549
390,JAMMU AND KASHMIR BANK LIMITED,JAKA0HRSHOP,H R SHOPIAN,"NEAR POLICE STATION,HOSPITAL ROAD",SHOPIAN,"HOSPITAL ROAD, SHOPIAN",JAMMU AND KASHMIR,260297
391,JAMMU AND KASHMIR BANK LIMITED,JAKA0HUDPUR,HYDERPORA SRINAGAR,AIRPORT ROAD,SRINAGAR,HYDERPORA,JAMMU AND KASHMIR,2441694
392,JAMMU AND KASHMIR BANK LIMITED,JAKA0HUMHAM,HUMHAMA,AIRPORT ROAD,BUDGAM,HUMHAMA,JAMMU AND KASHMIR,2303566
393,JAMMU AND KASHMIR BANK LIMITED,JAKA0HYGAAM,HYGAM SOPORE,"HYGAM SOPORE,DISTRICT BARAMULLA,J AND K PIN 193201",BARAMULLA,HYGAM SOPORE,JAMMU AND KASHMIR,9797296393
394,JAMMU AND KASHMIR BANK LIMITED,JAKA0HYHAMA,QASBA HYHAMA,"NEAR GIRLS HIGHER SECONDARY SCHOOL,SALKOTE ROAD HYHAMA KUPWARA",KUPWARA,HYHAMA KUPWARA,JAMMU AND KASHMIR,253035
395,JAMMU AND KASHMIR BANK LIMITED,JAKA0IALUDH,INDUSTRIAL AREA LUDHIANA,"PLOT NO.330, INDUSTRIAL AREA-A,NEAR CHEEMA CHOWK",LUDHIANA,INDUSTRIAL AREA LUDHIANA,PUNJAB,2221296
396,JAMMU AND KASHMIR BANK LIMITED,JAKA0ICHGAM,ICHGAM,"ICHGAM, BUDGAM",BUDGAM,ICHGAM,JAMMU AND KASHMIR,255161
397,JAMMU AND KASHMIR BANK LIMITED,JAKA0IFSMBA,INDUSTRIAL FINANCE BRANCH  SAMBA,INDUSTRIAL FINANCE SID,SAMBA,"INDUSTRIAL FINANCE , SAMBA",JAMMU AND KASHMIR,241130
398,JAMMU AND KASHMIR BANK LIMITED,JAKA0IMMAMS,IMMAM SAHIB,SHOPAIN,SHOPIAN,IMAM SAHIB,JAMMU AND KASHMIR,268023
399,JAMMU AND KASHMIR BANK LIMITED,JAKA0IMMOHH,IMOH,"ACHABAL ANANTNAG KASHMIR, JAMMU AND KASHMIR PIN 192201",ANANTNAG,ACHABAL,JAMMU AND KASHMIR,9797970842
400,JAMMU AND KASHMIR BANK LIMITED,JAKA0IMPBNG,IMPAIRED ASSET RECOVERY BRANCH BENGALURU,"GROUND FLOOR, GOLD SIGNATURE-95, MOSQUE ROAD, FRAZER TOWN, BENGALURU-560005",BENGALURU,BANGALORE,KARNATAKA,8150854175
401,JAMMU AND KASHMIR BANK LIMITED,JAKA0IMPMUM,IMPAIRED ASSET RECOVERY BRANCH MUMBAI,"ZONAL OFFICE,THE JAMMU & KASHMIR BANK LTD, NBC,1ST FLOOR, BKC, BANDRA(EAST),MUMBAI-400051",MUMBAI,MUMBAI,MAHARASHTRA,26384100
402,JAMMU AND KASHMIR BANK LIMITED,JAKA0INBANG,INDRA NAGAR BANGALORE,"8TH EDIFICE,CMH ROAD,",BANGALORE,INDIRA NAGAR,KARNATAKA,25213854
403,JAMMU AND KASHMIR BANK LIMITED,JAKA0INDORE,INDORE,"(U.G.)3-4 DIAMOND,TRADE CENTRE INDORE",INDORE,INDORE DIAMOND COLONY,MADHYA PRADESH,2538884
404,JAMMU AND KASHMIR BANK LIMITED,JAKA0INDUDH,INDUSTRIAL ESTATE SICOP COMPLEX UDHAMPUR,"IID CENTRE, BATTAL BALLION, UDHAMPUR, PIN-182101",UDHAMPUR,UDHAMPUR,JAMMU AND KASHMIR,9086000112
405,JAMMU AND KASHMIR BANK LIMITED,JAKA0INDZAN,INDUSTRIAL ESTATE ZAINAKOTE,"GROUND FLOOR, ZONAL OFFICE KASHMIR CENTRAL-2, BUDGAM, INDUSTRIAL ESTATE ZAINAKOTE, SRINAGAR, J&K , PIN 190012",SRINAGAR,SRINAGAR,JAMMU AND KASHMIR,9622831400
406,JAMMU AND KASHMIR BANK LIMITED,JAKA0INTDIV,INTERNATIONAL BANKING DIV SRINAGAR,"SHANSHAH PALACE, BOULEVARD ROAD, DALGATE",SRINAGAR,INTERNATIONAL BANKING DIV.,JAMMU AND KASHMIR,2500081
407,JAMMU AND KASHMIR BANK LIMITED,JAKA0JAAKHH,JAKH,JAKH,SAMBA,NATIONAL HIGHWAY,JAMMU AND KASHMIR,242939
408,JAMMU AND KASHMIR BANK LIMITED,JAKA0JADEED,JADEED ROAD,"JADEED ROAD,DISTRICT BARAMULLA,PIN CODE 193101",BARAMULLA,JADEED ROAD,JAMMU AND KASHMIR,9697948031
409,JAMMU AND KASHMIR BANK LIMITED,JAKA0JAGANO,JAGANOO,"JAGANU,UDHAMPUR",UDHAMPUR,"JAGANU,UDHAMPUR",JAMMU AND KASHMIR,7298004679
410,JAMMU AND KASHMIR BANK LIMITED,JAKA0JAGMOR,JAGANOO MORE,"NEAR KV NO. 2, DHAR ROAD",UDHAMPUR,OPPOSITE BASE WORKSHOP,JAMMU AND KASHMIR,9622020330
411,JAMMU AND KASHMIR BANK LIMITED,JAKA0JAGTEE,JAGTI TOWNSHIP,"JAKH TOWNSHIP, NAGROTA",JAMMU,LANE NO. 23,JAMMU AND KASHMIR,9419117442
412,JAMMU AND KASHMIR BANK LIMITED,JAKA0JAIPUR,JAIPUR,"M.I.ROAD,PANCH BATI",JAIPUR,"M.I.ROAD,JAIPUR",RAJASTHAN,2372522
413,JAMMU AND KASHMIR BANK LIMITED,JAKA0JAKYAS,JAKYAS,P/O THATHRI TEHSIL  GANDOH,DODA,"JHAKYAS, THATRI",JAMMU AND KASHMIR,9906067056
414,JAMMU AND KASHMIR BANK LIMITED,JAKA0JAMIAH,E C JAMIA HAMDARD UNIVERSITY,"JAMIA HAMDARD (HAMDARD UNIVERSITY), HAMDARD NAGAR, NEW DELHI, PIN-110062",DELHI,DELHI,DELHI,9899933736
415,JAMMU AND KASHMIR BANK LIMITED,JAKA0JANGLA,JANGLAT MANDI ANANTNAG,"JANGLAT MANDI,DISTRICT ANANTNAG,BLOCK ACHABAL,KASHMIR,J AND K PIN 192101",ANANTNAG,ACHABAL,JAMMU AND KASHMIR,9797284849
416,JAMMU AND KASHMIR BANK LIMITED,JAKA0JANKAT,JANU,"POST OFFICE-BHOOND, TEHSIL-BASOHLI",KATHUA,VILLAGE-JANU,JAMMU AND KASHMIR,9622211120
417,JAMMU AND KASHMIR BANK LIMITED,JAKA0JANNAK,JANAKPURI,B 1 BY 512  JANALPURI NEW DELHI 110058,DELHI,B-1/512 JANAKPURI,DELHI,9868621285
418,JAMMU AND KASHMIR BANK LIMITED,JAKA0JATWAL,JATWAL,"JATWAL, TEHSIL- GHAGWAL, DISTRICT- SAMBA, PIN-184141",SAMBA,SAMBA,JAMMU AND KASHMIR,9906062963
419,JAMMU AND KASHMIR BANK LIMITED,JAKA0JAWHAR,JAWAHAR NAGAR RAJOURI,"JAWHAR NAGAR, RAJOURI",RAJOURI,"JAWHAR NAGAR, RAJOURI",JAMMU AND KASHMIR,263541
420,JAMMU AND KASHMIR BANK LIMITED,JAKA0JEHLUM,URI (MAIN),URI MAIN BARAMULLA,BARAMULLA,URI MAIN,JAMMU AND KASHMIR,244204
421,JAMMU AND KASHMIR BANK LIMITED,JAKA0JINDHR,JANDRAH,"DREAM CHOWK, BLOCK-DHANSAL, DISTRICT-JAMMU, J&K, PIN-181224",JAMMU,JANDRAH,JAMMU AND KASHMIR,2661679
422,JAMMU AND KASHMIR BANK LIMITED,JAKA0JKBCCB,BARAMULLA CENTRAL CO-OPERATIVE BANK LTD,"OPPOSITE POLICE STATION, NATIONAL HIGHWAY , BARAMULLA, JK PIN 193101",BARAMULLA,BARAMULLA,JAMMU AND KASHMIR,234725
423,JAMMU AND KASHMIR BANK LIMITED,JAKA0JKEDIP,JKEDI PAMPORE,JKEDI INSTITUTE PAMPORE 192121,PULWAMA,PAMPORE,JAMMU AND KASHMIR,9419518606
424,JAMMU AND KASHMIR BANK LIMITED,JAKA0JKPHQR,J&K POLICE HEADQUARTERS,PIR BAGH,SRINAGAR,SRINAGAR,JAMMU AND KASHMIR,9419059097
425,JAMMU AND KASHMIR BANK LIMITED,JAKA0JNAGAR,JAWAHAR NAGAR SRINAGAR,NEAR BUS STAND,SRINAGAR,JAWAHAR NAGAR,JAMMU AND KASHMIR,2310939
426,JAMMU AND KASHMIR BANK LIMITED,JAKA0JNGRAL,MOGHLA (JENGRAL),TEHSIL KALAKOTE,RAJOURI,MOGHLA JARANGAL,JAMMU AND KASHMIR,9419170604
427,JAMMU AND KASHMIR BANK LIMITED,JAKA0JOHNUU,JOHNU,"VILLAGE AND POST OFFICE JOHNU, TEHSIL AND DISTRICT UDHAMPUR, J&K-182124",UDHAMPUR,UDHAMPUR,JAMMU AND KASHMIR,9419212821
428,JAMMU AND KASHMIR BANK LIMITED,JAKA0JORIAN,JOURIAN,INDRI-PATTAN ROAD,JAMMU,NEAR COMMUNITY HEALTH CENTRE,JAMMU AND KASHMIR,9906901012
429,JAMMU AND KASHMIR BANK LIMITED,JAKA0JULUND,JALLANDAR,"G.T ROAD, ADDA BASTI",JALLANDAR,JULLUNDUR,PUNJAB,2405306
430,JAMMU AND KASHMIR BANK LIMITED,JAKA0JYOTIE,JYOTIPURAM,MAIN BAZAAR JYOTIPURAM,REASI,"JYOTIPURAM, REASI",JAMMU AND KASHMIR,255020
431,JAMMU AND KASHMIR BANK LIMITED,JAKA0KACHDR,KACHDOORA,"KACHDOORA,SHOPIAN,PULWAMA,J AND K",SHOPIAN,"KACHDOORA, SHOPIAN",JAMMU AND KASHMIR,260803
432,JAMMU AND KASHMIR BANK LIMITED,JAKA0KADDAR,KADDER,"KADDAR KULGAM,P/O YARIPORA",KULGAM,"KADDER , KULGAM",JAMMU AND KASHMIR,9906642740
433,JAMMU AND KASHMIR BANK LIMITED,JAKA0KAHARA,KAHARA,KAHARA THATRI DODA,DODA,KAHARA THATRI DODA,JAMMU AND KASHMIR,7298004632
434,JAMMU AND KASHMIR BANK LIMITED,JAKA0KAKPUR,KAKAPORA,"PULWAMA, KASHMIR",PULWAMA,KAKPORA,JAMMU AND KASHMIR,265244
435,JAMMU AND KASHMIR BANK LIMITED,JAKA0KALANT,KALANTROO PAYEEN,"KALANTROO PAYEEN,DISTRICT BARAMULLA,BLOCK WAGOORA,KASHMIR,J AND K PIN 193101",BARAMULLA,KALANTRA PAIN,JAMMU AND KASHMIR,0
436,JAMMU AND KASHMIR BANK LIMITED,JAKA0KALBAA,KALBADEVI MUMBAI,"582/584, JSS ROAD,CHIRA BAZAR",GREATER BOMBAY,KALBADEVI,MAHARASHTRA,22053224
437,JAMMU AND KASHMIR BANK LIMITED,JAKA0KALBAR,KALIBARI,KALIBARI,KATHUA,NATIONAL HIGHWAY 1A,JAMMU AND KASHMIR,9419660835
438,JAMMU AND KASHMIR BANK LIMITED,JAKA0KALKAT,KALAKOTE,"KALAKOTE, RAJORI",RAJOURI,"KALAKOTE, RAJOURI",JAMMU AND KASHMIR,275027
439,JAMMU AND KASHMIR BANK LIMITED,JAKA0KALLAR,KALLAR,"KALLAR, POST OFFICE-DALOGRA, TEHSIL & DISTRICT-RAJOURI, JK, PIN-185134",RAJOURI,RAJOURI,JAMMU AND KASHMIR,9796694843
440,JAMMU AND KASHMIR BANK LIMITED,JAKA0KAMMAN,KAMMANHALLI,"1ST FLOOR ,NO 606,4TH CROSS ROAD,2ND BLOCK, KALYAN NAGAR ,KAMMANHALLI, HRBR LAYOUT, BENGALURU 560043",BENGALURU,BANGALORE,KARNATAKA,25450026
441,JAMMU AND KASHMIR BANK LIMITED,JAKA0KANEER,KANIR,"KANIR,DISTRICT BUDGAM PIN 191113",BUDGAM,KANIR,JAMMU AND KASHMIR,9697060844
442,JAMMU AND KASHMIR BANK LIMITED,JAKA0KANGAN,KANGAN,KANGAN GANDERBAL,GANDERBAL,KANGAN,JAMMU AND KASHMIR,2418221
443,JAMMU AND KASHMIR BANK LIMITED,JAKA0KANIDA,KANIDAJAN,"KANIDAJAN,DISTRICT BUDGAM,J AND K PIN 191112",BUDGAM,KANIDAJAN,JAMMU AND KASHMIR,9469249988
444,JAMMU AND KASHMIR BANK LIMITED,JAKA0KANIHA,KANIHAMA NARBAL,"KANIHAMA NARBAL,DISTRICT BUDGAM,J AND K PIN 193401",BUDGAM,KANIHAMA NARBAL,JAMMU AND KASHMIR,8803453903
445,JAMMU AND KASHMIR BANK LIMITED,JAKA0KANISP,KANISPORA,"TEHSIL & DISTRICT BARAMULLA, KASHMIR, PIN- 193101",BARAMULLA,KANISPORA,JAMMU AND KASHMIR,9797971997
446,JAMMU AND KASHMIR BANK LIMITED,JAKA0KANPUR,KANPUR,"40/116, HOSPITAL ROAD, PARADE",KANPUR CITY,KANPUR,UTTAR PRADESH,2352392
447,JAMMU AND KASHMIR BANK LIMITED,JAKA0KANWAN,KANELWAN,DACHINPORA,ANANTNAG,KANILWANI,JAMMU AND KASHMIR,9906694979
448,JAMMU AND KASHMIR BANK LIMITED,JAKA0KAPRIN,KAPRIN,POST OFFICE KAPRIN TEHSIL SHOPIAN,SHOPIAN,"KAPRIN , SHOPIAN",JAMMU AND KASHMIR,294290
449,JAMMU AND KASHMIR BANK LIMITED,JAKA0KARGIL,KARGIL (MAIN),LADAKH,KARGIL,MAIN BRANCH KARGIL,JAMMU AND KASHMIR,233628
450,JAMMU AND KASHMIR BANK LIMITED,JAKA0KARIMA,KAREEMABAD,"VILLAGE-KAREEMABAD, BLOCK-NEWA, DISTRICT-PULWAMA, JK, PIN-192301",PULWAMA,NEWA,JAMMU AND KASHMIR,9596100633
451,JAMMU AND KASHMIR BANK LIMITED,JAKA0KARLAL,LAL CHOWK KARGIL,LALCHOWKKARGILPIN194103,KARGIL,LAL CHOWK KARGIL,JAMMU AND KASHMIR,9419899712
452,JAMMU AND KASHMIR BANK LIMITED,JAKA0KARNAL,KARNAL,"OPP BUS STAND, OLD GT ROAD",KARNAL,KARNAL,HARYANA,2262243
453,JAMMU AND KASHMIR BANK LIMITED,JAKA0KARNBG,KARAN BAGH JAMMU,R.S.PORA ROAD,JAMMU,KARAN BAGH,JAMMU AND KASHMIR,2263990
454,JAMMU AND KASHMIR BANK LIMITED,JAKA0KAROLE,KAROL BAGH DELHI,"GURDUWARA ROAD, 6/32-33,NEAR JESSA RAM  HOSPITAL, KAROL BAGH",DELHI,KAROL BAGH,DELHI,28756066
455,JAMMU AND KASHMIR BANK LIMITED,JAKA0KARRAN,KARAN NAGAR SRINAGAR,GOLE MARKET,SRINAGAR,KARAN NAGAR,JAMMU AND KASHMIR,2479131
456,JAMMU AND KASHMIR BANK LIMITED,JAKA0KASKOT,KASKOOT,TEHSIL-BANIHAL,RAMBAN,BANIHAL,JAMMU AND KASHMIR,9906901466
457,JAMMU AND KASHMIR BANK LIMITED,JAKA0KASTIG,KASTIGARH,NEAR BUS STAND DODA,DODA,KASTIGARH,JAMMU AND KASHMIR,7298004694
458,JAMMU AND KASHMIR BANK LIMITED,JAKA0KATHUA,KATHUA (MAIN),MUKERJEE CHOWK MAIN BAZAR,KATHUA,KATHUA MAIN,JAMMU AND KASHMIR,1922
459,JAMMU AND KASHMIR BANK LIMITED,JAKA0KATSOO,KATRASOO,MAIN CHOWK,KULGAM,KATRASOO,JAMMU AND KASHMIR,9469155222
460,JAMMU AND KASHMIR BANK LIMITED,JAKA0KATTRA,KATRA,"NEAR GAGAN SWEETS,MAIN BAZAR, KATRA",REASI,KATRA,JAMMU AND KASHMIR,232067
461,JAMMU AND KASHMIR BANK LIMITED,JAKA0KAYRAN,KERAN,KERAN,KUPWARA,KUPWARA,JAMMU AND KASHMIR,9906454390
462,JAMMU AND KASHMIR BANK LIMITED,JAKA0KBADDA,KB ADDA BARAMULLA,"PARK ROAD, AHMAD SHOPPING COMPLEX",BARAMULLA,K.B.ADDA BARAMULLA,JAMMU AND KASHMIR,9906673820
463,JAMMU AND KASHMIR BANK LIMITED,JAKA0KCHJAM,KACHI CHAWNI JAMMU,KACHI CHAWNI,JAMMU,KACHI CHAWNI,JAMMU AND KASHMIR,2571252
464,JAMMU AND KASHMIR BANK LIMITED,JAKA0KEELAM,KILLAM,"J&K BANK, KILLAM, NEAR MASJID SHARIEF, DISTRICT KULGAM, PIN- 192231",KULGAM,KULGAM,JAMMU AND KASHMIR,9797743525
465,JAMMU AND KASHMIR BANK LIMITED,JAKA0KEEPER,RESIDENCY ROAD JAMMU,RESIDENCY ROAD,JAMMU,RESIDENCY ROAD,JAMMU AND KASHMIR,2546032
466,JAMMU AND KASHMIR BANK LIMITED,JAKA0KEERAN,KEERIAN,POST OFFICE-KEERIAN GANDIAL,KATHUA,VILLAGE-KEERIAN,JAMMU AND KASHMIR,9697164238
467,JAMMU AND KASHMIR BANK LIMITED,JAKA0KEERII,KERI TERYATH,"POST OFFICE KERI TERYATH, TEHSIL KALAKOTE, DISTRICT RAJOURI, JAMMU JK PIN 185203",RAJOURI,RAJOURI,JAMMU AND KASHMIR,9419614887
468,JAMMU AND KASHMIR BANK LIMITED,JAKA0KELLER,KELLER,"KELLER SHOPIAN,PULWAMA,J AND K",SHOPIAN,"KELLER, SHOPIAN",JAMMU AND KASHMIR,217600
469,JAMMU AND KASHMIR BANK LIMITED,JAKA0KENHAM,KENIHAMA,NOWGAM,BUDGAM,KENIHAMA,JAMMU AND KASHMIR,9796171503
470,JAMMU AND KASHMIR BANK LIMITED,JAKA0KEYGAM,KEYGAM,PULWAMA ROAD,SHOPIAN,SHOPIAN,JAMMU AND KASHMIR,9906919611
471,JAMMU AND KASHMIR BANK LIMITED,JAKA0KHAAGH,KHAG,"KHAGH, BUDGAM",BUDGAM,"KHAGH, BUDGAM",JAMMU AND KASHMIR,215357
472,JAMMU AND KASHMIR BANK LIMITED,JAKA0KHAARI,KHARI,"VPO KHARI, BANIHAL, DISTRICT-RAMBAN, J&K PIN-182145",RAMBAN,BANIHAL,JAMMU AND KASHMIR,9906901660
473,JAMMU AND KASHMIR BANK LIMITED,JAKA0KHALSI,KHALTSI,KHALSI LEH LADAKH,LEH,KHALSI LEH LADAKH,JAMMU AND KASHMIR,224025
474,JAMMU AND KASHMIR BANK LIMITED,JAKA0KHANBL,KHANABAL ANANTNAG,"K.P.CHOWK, KHANABAL, ANANTNAG, J&K- 192101",ANANTNAG,ANANTNAG,JAMMU AND KASHMIR,9419051994
475,JAMMU AND KASHMIR BANK LIMITED,JAKA0KHANDA,KHANDA,"KHANDA,BUDGAM,KASHMIRJAMMU AND KASHMIR",BUDGAM,KHANDA,JAMMU AND KASHMIR,237438
476,JAMMU AND KASHMIR BANK LIMITED,JAKA0KHANNA,KHANNA,"OLD SABZI MANDI, G.T.ROAD",LUDHIANA,KHANNA,PUNJAB,225272
477,JAMMU AND KASHMIR BANK LIMITED,JAKA0KHANTR,"KHANETAR KANUYIAN, POONCH","JAMMU AND KASHMIR BANK KHANETAR, POST OFFICE KHANETAR, BLOCK POONCH, DISTRICT POONCH, PIN-185101",POONCH,POONCH,JAMMU AND KASHMIR,7006189056
478,JAMMU AND KASHMIR BANK LIMITED,JAKA0KHARAK,"KHARAK, NEW DELHI",A7 BABA KHARAK SINGH MARG NEW DELHI PIN 110001,DELHI,DELHI,DELHI,9560223427
479,JAMMU AND KASHMIR BANK LIMITED,JAKA0KHAWAS,KHAWAS,"KOTRANKA, BUDHAL",RAJOURI,KHAWAS,JAMMU AND KASHMIR,9906170440
480,JAMMU AND KASHMIR BANK LIMITED,JAKA0KHAYAM,KHAYAM CHOWK SRINAGAR,OPP. HOTEL BAHAR,SRINAGAR,KHAYAM,JAMMU AND KASHMIR,2485211
481,JAMMU AND KASHMIR BANK LIMITED,JAKA0KHEORA,KHEORA,"KHEORA,TEHSIL AND DISTRICT RAJOURI,J AND K PIN 185131",RAJOURI,KHEORA,JAMMU AND KASHMIR,97634286
482,JAMMU AND KASHMIR BANK LIMITED,JAKA0KHERBL,KHEERIBAL,"KHEERIBAL, ANANTNAG",ANANTNAG,"KHEERIBAL, ANANTNAG",JAMMU AND KASHMIR,237892
483,JAMMU AND KASHMIR BANK LIMITED,JAKA0KHERRI,KHERRI (RAMSOO),KHERRI RAMSOO,RAMBAN,KHERRI RAMSOO,JAMMU AND KASHMIR,9419216643
484,JAMMU AND KASHMIR BANK LIMITED,JAKA0KHIRAM,KHIRAM,"KHIRAM,NEAR DARGAH SHARIF, BLOCK-DACHNIPORA, TEHSIL-SRIGUPHWARA, DISTRICT-ANANTNAG, PIN-192401",ANANTNAG,KHIRAM,JAMMU AND KASHMIR,9906499688
485,JAMMU AND KASHMIR BANK LIMITED,JAKA0KHMENI,KHUMANI CHOWK,KHOMENI CHOWK,BUDGAM,KHOMENI CHOWK BEMINA,JAMMU AND KASHMIR,2495002
486,JAMMU AND KASHMIR BANK LIMITED,JAKA0KHOJBG,KHOJ BAGH,MAIN KHAWAJA BAGH,BARAMULLA,KHAWAJA BAGH MAIN,JAMMU AND KASHMIR,7298004492
487,JAMMU AND KASHMIR BANK LIMITED,JAKA0KHOONI,KHOON,P.O KHOON TEHSIL MAJALTA,UDHAMPUR,"KHOON, UDHAMPUR",JAMMU AND KASHMIR,7298004683
488,JAMMU AND KASHMIR BANK LIMITED,JAKA0KHOOUR,KHOUR,"NEAR CHAK MALAL FILLING STATION, POST OFFICE CHAKMALAL, JAMMU, JK PIN 181202",JAMMU,KHOUR,JAMMU AND KASHMIR,9419104194
489,JAMMU AND KASHMIR BANK LIMITED,JAKA0KHOURR,KHOUR SALARIAN,POST OFFICE-NANADPUR,SAMBA,VILLAGE-KHOUR SALARIAN,JAMMU AND KASHMIR,9697858041
490,JAMMU AND KASHMIR BANK LIMITED,JAKA0KHUDWN,KHUDWANI,KHUDWANI,KULGAM,"KHUDWANI, KULGAM",JAMMU AND KASHMIR,238455
491,JAMMU AND KASHMIR BANK LIMITED,JAKA0KHUMRI,KHUMRIYAL,"KHUMRIYAL,DISTRICT KUPWARA,J AND K PIN CODE 193022",KUPWARA,KHUMRIYAL,JAMMU AND KASHMIR,9906635345
492,JAMMU AND KASHMIR BANK LIMITED,JAKA0KISHEN,KISHENPUR,"VILLAGE -KISHANPUR, TEH-BILLAWER",KATHUA,"KISHENPUR, KATHUA",JAMMU AND KASHMIR,222044
493,JAMMU AND KASHMIR BANK LIMITED,JAKA0KLAROS,KALAROOS,"QASBA KALAROOCH,",KUPWARA,KALAROOCH,JAMMU AND KASHMIR,7298004390
494,JAMMU AND KASHMIR BANK LIMITED,JAKA0KLGUND,KRALGUND,"LANGATE, HANDWARA",KUPWARA,"KRALGUND, QAZIABAD",JAMMU AND KASHMIR,9419424193
495,JAMMU AND KASHMIR BANK LIMITED,JAKA0KOLPUL,KOIL,"KOIL,DISTRICT PULWAMA,J AND K PIN CODE 192301",PULWAMA,KOIL,JAMMU AND KASHMIR,9018908170
496,JAMMU AND KASHMIR BANK LIMITED,JAKA0KONMOH,KHONMOH,NEAR JAMIA MASJID,SRINAGAR,KHONMOH,JAMMU AND KASHMIR,222683
497,JAMMU AND KASHMIR BANK LIMITED,JAKA0KOOKER,KOKERNAG,KOKERNAG  ANANTNAG,ANANTNAG,KOKERNAG  ANANTNAG,JAMMU AND KASHMIR,244046
498,JAMMU AND KASHMIR BANK LIMITED,JAKA0KOOTTA,KOOTAH,TEHSIL HIRANAGAR KOOTAH,KATHUA,KOOTAH KATHUA,JAMMU AND KASHMIR,249145
499,JAMMU AND KASHMIR BANK LIMITED,JAKA0KRALPR,KRALPORA,"VILLAGE-KRALPORA, TEHSIL & BLOCK-B K PORA, DISRICT-BUDGAM, JK, PIN-190019",BUDGAM,GANDOH BHALESA,JAMMU AND KASHMIR,9906660407
500,JAMMU AND KASHMIR BANK LIMITED,JAKA0KREERI,KREERI,MORADABAD KREERI BARAMULLA,BARAMULLA,KRERI PATTAN,JAMMU AND KASHMIR,7298004428
501,JAMMU AND KASHMIR BANK LIMITED,JAKA0KSAHIB,KHAN SAHIB,KHANSAHIB BUDGAM,BUDGAM,"KHANSAHIB ,BUDGAM",JAMMU AND KASHMIR,277226
502,JAMMU AND KASHMIR BANK LIMITED,JAKA0KSHORE,KREMSHORE,KRIMSHORE BUDGAM,BUDGAM,"KRIMSHORE,BUDGAM",JAMMU AND KASHMIR,265347
503,JAMMU AND KASHMIR BANK LIMITED,JAKA0KSTWAR,KISHTWAR,SHAHAN COMPLEX NEAR BUS STAND KISTWAR,KISHTWAR,KISHTWAR,JAMMU AND KASHMIR,259310
504,JAMMU AND KASHMIR BANK LIMITED,JAKA0KUCHIE,KOCHI,"ERNAKULAM, M.G ROAD",ERNAKULAM,KOCHIE,KERALA,2381073
505,JAMMU AND KASHMIR BANK LIMITED,JAKA0KUDJAM,KUD,"JAMMU KASHMIR NATIONAL HIGHWAY 1A, NEAR POLICE STATION, CHENANI, UDHAMPUR, JAMMU, JK PIN 182142",UDHAMPUR,KUD,JAMMU AND KASHMIR,9797011269
506,JAMMU AND KASHMIR BANK LIMITED,JAKA0KULEED,KULEED,KULEED,KISHTWAR,NEAR DC OFFICE,JAMMU AND KASHMIR,9858576415
507,JAMMU AND KASHMIR BANK LIMITED,JAKA0KULGAM,KULGAM (MAIN),KULGAM MAIN,KULGAM,KULGAM MAIN,JAMMU AND KASHMIR,260235
508,JAMMU AND KASHMIR BANK LIMITED,JAKA0KULIAN,KULLIAN,R.S.PORA ROAD,JAMMU,MIRAN SAHIB,JAMMU AND KASHMIR,9622216333
509,JAMMU AND KASHMIR BANK LIMITED,JAKA0KULIGA,KULIGAM,"KULIGAM LOLAB,TEHSIL KUPWARA,JAMMU AND KASHMIR PIN 193222",KUPWARA,KUPWARA,JAMMU AND KASHMIR,9419177026
510,JAMMU AND KASHMIR BANK LIMITED,JAKA0KULLAN,KULANGAM,"KULANGAM,DISTRICT KUPWARA,PIN CODE 193221",KUPWARA,KULANGAM,JAMMU AND KASHMIR,9596231117
511,JAMMU AND KASHMIR BANK LIMITED,JAKA0KULLOO,KULLU,"IST FLOOR, HARISON BUILDING",KULU,KULLU,HIMACHAL PRADESH,2222227
512,JAMMU AND KASHMIR BANK LIMITED,JAKA0KULWNT,KULWANTA,"VILLAGE KULWANTA, POST OFFICE AMROH, TEHSIL RAMNAGAR, DISTRCT-UDHAMPUR, J&K-182122",UDHAMPUR,RAMNAGAR,JAMMU AND KASHMIR,9419195730
513,JAMMU AND KASHMIR BANK LIMITED,JAKA0KUMDAL,KUMDALAN SHOPIAN,"KUMDALAN,DISTRICT SHOPIAN,KASHMIR,J AND K PIN 192303",SHOPIAN,KUMDALAN,JAMMU AND KASHMIR,9697384219
514,JAMMU AND KASHMIR BANK LIMITED,JAKA0KUNZER,KUNZER,"GULMARG ROAD,",BARAMULLA,KUNZER,JAMMU AND KASHMIR,7298004594
515,JAMMU AND KASHMIR BANK LIMITED,JAKA0LADHOO,LADHOO,LADHOO PAMPORE,PULWAMA,"LADHOO, PULWAMA",JAMMU AND KASHMIR,246030
516,JAMMU AND KASHMIR BANK LIMITED,JAKA0LADORA,LADOORA RAFIABAD,"LADOORA RAFIABAD,DISTRICT BARAMULLA,BLOCK SOPORE,KASHMIR,J AND K PIN 193201",BARAMULLA,LUDURA,JAMMU AND KASHMIR,9906410010
517,JAMMU AND KASHMIR BANK LIMITED,JAKA0LAJORA,LAJORA,"LAJORA, PULWAMA",PULWAMA,"LAJORA, PULWAMA",JAMMU AND KASHMIR,212313
518,JAMMU AND KASHMIR BANK LIMITED,JAKA0LAJPAT,LAJPAT NAGAR DELHI,"A-17 SECTOR 4, RING ROAD OPP,HALDIRAM",DELHI,LAJPAT NAGAR,DELHI,26442091
519,JAMMU AND KASHMIR BANK LIMITED,JAKA0LALANG,LAL CHOWK ANANTNAG,LAL CHOWK ANANTNAG,ANANTNAG,LAL CHOWK ANANTNAG,JAMMU AND KASHMIR,223433
520,JAMMU AND KASHMIR BANK LIMITED,JAKA0LALDED,LD HOSPITAL SRINAGAR,"LEL DED HOSPITAL, HAZURI BAGH",SRINAGAR,LD HOSPITAL,JAMMU AND KASHMIR,2313740
521,JAMMU AND KASHMIR BANK LIMITED,JAKA0LALPOR,LALPORA,LALPORA,KUPWARA,LALPORA LOLAB KUPWARA,JAMMU AND KASHMIR,9419420037
522,JAMMU AND KASHMIR BANK LIMITED,JAKA0LAMBER,LAMBERI,"POST OFFICE LAMBERI, DISTRICT RAJOURI, TEHSIL NOWSHERA, JAMMU JK PIN 185152",RAJOURI,RAJOURI,JAMMU AND KASHMIR,9469540580
523,JAMMU AND KASHMIR BANK LIMITED,JAKA0LANDER,LANDHER PANCHARI,LANDHER PANCHERI UDHAMPUR,UDHAMPUR,LANDHER PANCHARI,JAMMU AND KASHMIR,7298004657
524,JAMMU AND KASHMIR BANK LIMITED,JAKA0LANGAT,LANGATE,"LANGATE,KUPWARA",KUPWARA,"LANGATE,KUPWARA",JAMMU AND KASHMIR,216225
525,JAMMU AND KASHMIR BANK LIMITED,JAKA0LANUDH,LANDER,"LANDER,TEHSIL AND DISTRICT UDHAMPUR PIN CODE 182125",UDHAMPUR,LANDER,JAMMU AND KASHMIR,9419157025
526,JAMMU AND KASHMIR BANK LIMITED,JAKA0LARKIP,LARKIPORA,"LARKIPORA, ANANTNAG",ANANTNAG,"LARKIPORA, ANANTNAG",JAMMU AND KASHMIR,245078
527,JAMMU AND KASHMIR BANK LIMITED,JAKA0LARNOO,LARNOO,"LARNOO CAMP VAILOO,",ANANTNAG,"LARNOO, ANANTNAG",JAMMU AND KASHMIR,9906593049
528,JAMMU AND KASHMIR BANK LIMITED,JAKA0LASANA,LASSANA,TEH SURANKOTE. DISTT POONCH,POONCH,LASSANA POONCH,JAMMU AND KASHMIR,230843
529,JAMMU AND KASHMIR BANK LIMITED,JAKA0LASIPR,LASSIPORA,INDUSTRIAL GROWTH,PULWAMA,"LASSIPORA, PULWAMA",JAMMU AND KASHMIR,290397
530,JAMMU AND KASHMIR BANK LIMITED,JAKA0LASJAN,LASJAN SRINAGAR,"LASJAN SRINAGAR,",SRINAGAR,LASJAN,JAMMU AND KASHMIR,2467165
531,JAMMU AND KASHMIR BANK LIMITED,JAKA0LATTEE,LATTI,LATTI UDHAMPUR,UDHAMPUR,"LATTI,UDHAMPUR",JAMMU AND KASHMIR,283221
532,JAMMU AND KASHMIR BANK LIMITED,JAKA0LBAZAR,LAKHDATTA BAZAR JAMMU,LAKHDATA BAZAR,JAMMU,LAKHDATA BAZAR,JAMMU AND KASHMIR,2565456
533,JAMMU AND KASHMIR BANK LIMITED,JAKA0LBJNGR,LADIES BRANCH JAWAHAR NAGAR,JAWAHAR NAGAR NEAR BEECO GALLERY SRINAGAR PIN 190008,SRINAGAR,SRINAGAR,JAMMU AND KASHMIR,1942481930
534,JAMMU AND KASHMIR BANK LIMITED,JAKA0LETPUR,LETHPORA,"NEAR RICE MILL, FCI INDIA",PULWAMA,LETHPORA,JAMMU AND KASHMIR,246294
535,JAMMU AND KASHMIR BANK LIMITED,JAKA0LINKGB,GOVERNMENT BUSINESS LINK OFFICE CORPORATE HEADQUARTERS,IST FLOOR CORPORATE OFFICE MA ROAD SRINAGAR 190001,SRINAGAR,SRINAGAR,JAMMU AND KASHMIR,2502640
536,JAMMU AND KASHMIR BANK LIMITED,JAKA0LINKRO,LINK ROAD JAMMU,LINK ROAD,JAMMU,LINK ROAD,JAMMU AND KASHMIR,2560129
537,JAMMU AND KASHMIR BANK LIMITED,JAKA0LITTER,LITTER,LITTER,PULWAMA,LITTER,JAMMU AND KASHMIR,264404
538,JAMMU AND KASHMIR BANK LIMITED,JAKA0LOHARA,"LOHARAKOTE, SUNDERBANI","NEAR LIC OFFICE LOHARAKOTE, SUNDERBANI, RAJOURI PIN 185153",RAJOURI,RAJOURI,JAMMU AND KASHMIR,9906104003
539,JAMMU AND KASHMIR BANK LIMITED,JAKA0LORAAN,LORAN,"LORAN,TEHSIL MANDI,DISTRICT POONCH,J AND K PIN CODE 185102",POONCH,"LORAN, TEHSIL-MANDI",JAMMU AND KASHMIR,9697111011
540,JAMMU AND KASHMIR BANK LIMITED,JAKA0LUDHIA,CHAURA BAZAR LUDHIANA,LUDHIANA,LUDHIANA,LUDHIANA,PUNJAB,2750213
541,JAMMU AND KASHMIR BANK LIMITED,JAKA0LUKNOW,LUCKNOW,"ABDUL AZIZ ROAD,AKBARI GATE CROSSING ,LUCKNOW",LUCKNOW,LUCKNOW,UTTAR PRADESH,2264320
542,JAMMU AND KASHMIR BANK LIMITED,JAKA0LULPUR,LOLIPUR,TEHSIL-CHADURA,BUDGAM,LOLIPUR,JAMMU AND KASHMIR,9797147234
543,JAMMU AND KASHMIR BANK LIMITED,JAKA0LUXURY,SHALAMAR ROAD JAMMU,"GHULAB BHAWAN, FIRST FLOOR",JAMMU,SHALLAMAR ROAD,JAMMU AND KASHMIR,2579701
544,JAMMU AND KASHMIR BANK LIMITED,JAKA0MACHAN,MACHHEDI,MACHHEDI  TEHSIL BILAWAR,KATHUA,"MACHHEDI BILLAWAR,KATHUA",JAMMU AND KASHMIR,9697231529
545,JAMMU AND KASHMIR BANK LIMITED,JAKA0MACHIL,MACHIL,MACHIL,KUPWARA,KUPWARA,JAMMU AND KASHMIR,0
546,JAMMU AND KASHMIR BANK LIMITED,JAKA0MADRAS,MOUNT ROAD CHENNAI,"787 ANNA SALAI, NEAR ELECTRICITY BOARD",CHENNAI,MOUNT ROAD,TAMIL NADU,28515260
547,JAMMU AND KASHMIR BANK LIMITED,JAKA0MAGGAM,MAGAM BUDGAM,MAGAM BUDGAM,BUDGAM,MAGAM BUDGAM,JAMMU AND KASHMIR,272226
548,JAMMU AND KASHMIR BANK LIMITED,JAKA0MAGRML,MAGARMAL BAGH SRINAGAR,NEAR RANI MANDIR MAGARMAL BAGH SRINAGAR├╜├╜PIN 190001,SRINAGAR,SRINAGAR,JAMMU AND KASHMIR,9906590062
549,JAMMU AND KASHMIR BANK LIMITED,JAKA0MAHANP,MAHANPUR,MAHANPUR TEHSIL BASOLI,KATHUA,MAHANPUR BASOLI,JAMMU AND KASHMIR,254026
550,JAMMU AND KASHMIR BANK LIMITED,JAKA0MAHDEV,SUDH MAHADEV,CHENANI,UDHAMPUR,SUDH MAHDEV UDHAMPUR,JAMMU AND KASHMIR,7298000462
551,JAMMU AND KASHMIR BANK LIMITED,JAKA0MAHIMM,MAHIM MUMBAI,124 A/B SYED HOUSE S.V.SAVARKAR MARG,MUMBAI,MAHIM MUMBAI,MAHARASHTRA,24469978
552,JAMMU AND KASHMIR BANK LIMITED,JAKA0MAHORE,MAHORE,"MAHORE,DISTRICT REASI,JANDK,PIN 182315",REASI,MAHORE DISTRICT REASI,JAMMU AND KASHMIR,222286
553,JAMMU AND KASHMIR BANK LIMITED,JAKA0MAHRAJ,MAHARAJ GUNJ SRINAGAR,NEAR NALLAMAR ROAD,SRINAGAR,"MAHARAJ GUNJ, SRINAGAR",JAMMU AND KASHMIR,2472546
554,JAMMU AND KASHMIR BANK LIMITED,JAKA0MAIDAN,KHARA MAIDANA,KHARA MAIDANA SAMBA TEHSIL SAMBHA,SAMBA,"KHARA MAIDANA SAMBA, JAMMU",JAMMU AND KASHMIR,249204
555,JAMMU AND KASHMIR BANK LIMITED,JAKA0MAINMK,MAIN MARKET AWANTIPORA,"OPPOSITE MUNICIPAL COMMITTEE AWANTIPORA, PULWAMA, J&K-192122",PULWAMA,AWANTIPURA,JAMMU AND KASHMIR,9419021301
556,JAMMU AND KASHMIR BANK LIMITED,JAKA0MAJLIS,BUDGAM,BUDGAM,BUDGAM,BUDGAM,JAMMU AND KASHMIR,255228
557,JAMMU AND KASHMIR BANK LIMITED,JAKA0MAJUAU,MAJUA UTTAMI,"P.O RAIKA, TEHSIL BISHNAH, DISTT JAMMU-181132┬á (J&K)",JAMMU,BISNAH,JAMMU AND KASHMIR,9469173270
558,JAMMU AND KASHMIR BANK LIMITED,JAKA0MAKHAN,MAKHANPUR,POST OFFICE-BISHNA,JAMMU,VILLAGE-MAKHANPUR,JAMMU AND KASHMIR,9419144326
559,JAMMU AND KASHMIR BANK LIMITED,JAKA0MALBAG,MALLABAGH,HAZRATBAL,SRINAGAR,MALLABAGH,JAMMU AND KASHMIR,9596425585
560,JAMMU AND KASHMIR BANK LIMITED,JAKA0MALPOR,MALPORA,NAGAM,BUDGAM,MALPORA,JAMMU AND KASHMIR,9906513798
561,JAMMU AND KASHMIR BANK LIMITED,JAKA0MALROO,MALROO,"MALROO,DISTRICT SRINAGAR,J AND K PIN 190017",SRINAGAR,ZAINAKOTE,JAMMU AND KASHMIR,0
562,JAMMU AND KASHMIR BANK LIMITED,JAKA0MALVIA,MALVIYA NAGAR,"C 107,SHIVALIK ROAD,MALVIYA NAGAR,NEW DELHI,PIN 110017",DELHI,DELHI,DELHI,8800997845
563,JAMMU AND KASHMIR BANK LIMITED,JAKA0MANAJA,MANJAKOTE,"MANJAKOTE,DISTRICT RAJOURI,PIN CODE 185131",RAJOURI,MANJAKOTE,JAMMU AND KASHMIR,9419660730
564,JAMMU AND KASHMIR BANK LIMITED,JAKA0MANALI,MANALI,"NEAR MAYUR RESTURANT,GOVIND COMPLEX, MANALI",KULU,MANALI,HIMACHAL PRADESH,2253778
565,JAMMU AND KASHMIR BANK LIMITED,JAKA0MANDIE,MANDI,"MAIN BAZAR MANDI POONCH,",POONCH,"MANDI,POONCH",JAMMU AND KASHMIR,257222
566,JAMMU AND KASHMIR BANK LIMITED,JAKA0MANDJA,MAND,"NATIONAL HIGHWAY 1A, OPPOSITE BHARAT PETROLEUM PETROL PUMP, UDHAMPUR JAMMU JK PIN 182121",UDHAMPUR,UDHAMPUR,JAMMU AND KASHMIR,9419278153
567,JAMMU AND KASHMIR BANK LIMITED,JAKA0MANGAL,MANGALORE,HOTEL PUNJA INTERNATIONAL K.S RAO ROAD,DAKSHIN KANNAD,MANGLORE,KARNATAKA,2440261
568,JAMMU AND KASHMIR BANK LIMITED,JAKA0MANGAM,MANIGAM,"MANIGAM,DIST.GANDERBAL,JANDK PIN 191201",GANDERBAL,"MANIGAM , GANDERBAL",JAMMU AND KASHMIR,9906694756
569,JAMMU AND KASHMIR BANK LIMITED,JAKA0MANSAR,MANSAR,MANSAR,SAMBA,MAIN ROAD,JAMMU AND KASHMIR,246231
570,JAMMU AND KASHMIR BANK LIMITED,JAKA0MANSSA,MANSA,GOSHALLA ROAD,MANSA,MANSA,PUNJAB,225868
571,JAMMU AND KASHMIR BANK LIMITED,JAKA0MANTAL,MANTALIA,"MANTALAI, SUDHMAHADEV, DISTRICT-UDHAMPUR, JK, 182141",UDHAMPUR,SUDHMAHADEV,JAMMU AND KASHMIR,9419159327
572,JAMMU AND KASHMIR BANK LIMITED,JAKA0MARBLE,KRALAPORA,J&K BANK KRALPORA,KUPWARA,KRALPORA KUPWARA,JAMMU AND KASHMIR,246301
573,JAMMU AND KASHMIR BANK LIMITED,JAKA0MARDAN,BAGH ALI MARDAN SRINAGAR,BAGHI ALI MARDAN KHAN,SRINAGAR,BAGHI ALI MARDAN KHAN,JAMMU AND KASHMIR,2424751
574,JAMMU AND KASHMIR BANK LIMITED,JAKA0MARHEN,MARHEEN,"MARHEEN  KATHUA,",KATHUA,"MARHEEN, KATHUA,",JAMMU AND KASHMIR,258027
575,JAMMU AND KASHMIR BANK LIMITED,JAKA0MARHJM,MARH,MARH,JAMMU,NEAR G.D GOENKA SCHOOL,JAMMU AND KASHMIR,9796480068
576,JAMMU AND KASHMIR BANK LIMITED,JAKA0MARHMA,MARHAMA,MARHAMA BIJBEHARA ANAN,ANANTNAG,"MARHAMA ANANTNAG,KASHMIR",JAMMU AND KASHMIR,233274
577,JAMMU AND KASHMIR BANK LIMITED,JAKA0MARHOT,MARHOTE,TEHSIL-SURANKOTE,POONCH,MARHOTE,JAMMU AND KASHMIR,8803270726
578,JAMMU AND KASHMIR BANK LIMITED,JAKA0MARKET,MAIN BAZAR SOPORE,MAIN BAZAR SOPORE,BARAMULLA,M.B SOPORE,JAMMU AND KASHMIR,222344
579,JAMMU AND KASHMIR BANK LIMITED,JAKA0MARMAT,GOHA MARMAT,"NEAR BUS STAND,GOHA MARMAT,DISTRICT DODA,PIN CODE 182201",DODA,GOHA MARMAT,JAMMU AND KASHMIR,9906028151
580,JAMMU AND KASHMIR BANK LIMITED,JAKA0MAROAD,MOHD ALI ROAD MUMBAI,"55-NOOR MAHAL, CO-OPERATIVE SOCIETY",GREATER BOMBAY,MOHD ALI ROAD,MAHARASHTRA,23464416
581,JAMMU AND KASHMIR BANK LIMITED,JAKA0MARTAA,MARTA NAGROTA,"MARTA NAGROTA, PLAKH-PLASSI ROAD, TEHSIL-BASOHLI,├╜DISTRICT-KATHUA, J&K-184201.",KATHUA,BASHOHLI,JAMMU AND KASHMIR,9419108946
582,JAMMU AND KASHMIR BANK LIMITED,JAKA0MARWAH,MARWAH,MARWAH,KISHTWAR,KISHTWAR,JAMMU AND KASHMIR,0
583,JAMMU AND KASHMIR BANK LIMITED,JAKA0MASTER,APEX BRANCH,APEX BRANCH J AND K BANK CHQ MA ROAD SRINAGAR,SRINAGAR,SRINAGAR,JAMMU AND KASHMIR,0
584,JAMMU AND KASHMIR BANK LIMITED,JAKA0MEDJAM,GOVERNMENT MEDICAL COLLEGE  JAMMU,"MEDICAL COLLEGE JAMMU,MAHESHPURA CHOWK, JAMMU",JAMMU,"GMC, JAMMU",JAMMU AND KASHMIR,2580380
585,JAMMU AND KASHMIR BANK LIMITED,JAKA0MEERUT,MEERUT,43-BEGUM BRIDGE,MEERUT,MEERUT UP,UTTAR PRADESH,2653657
586,JAMMU AND KASHMIR BANK LIMITED,JAKA0MEHIND,MEHIND,MEHIND,ANANTNAG,NEAR MASJID SHARIEF,JAMMU AND KASHMIR,9622649222
587,JAMMU AND KASHMIR BANK LIMITED,JAKA0MEHJUR,MEHJOOR NAGAR,"MEHJOOR NAGAR,DISTRICT SRINAGAR 190010",SRINAGAR,MEHJOOR NAGAR,JAMMU AND KASHMIR,9419066364
588,JAMMU AND KASHMIR BANK LIMITED,JAKA0MEHTAB,BAGH E MEHTAB SRINAGAR,BAGH-E-MEHTAB,SRINAGAR,"BAGH-E-MEHTAB, SRINAGAR",JAMMU AND KASHMIR,2440493
589,JAMMU AND KASHMIR BANK LIMITED,JAKA0MENDER,MENDHER,"TEH. MENDHAR POONCH,",POONCH,MENDHER POONCH,JAMMU AND KASHMIR,226141
590,JAMMU AND KASHMIR BANK LIMITED,JAKA0MGRANT,GOLE MARKET UDHAMPUR,CHABUTRA BAZAR,UDHAMPUR,GOLE MARKET,JAMMU AND KASHMIR,9419216399
591,JAMMU AND KASHMIR BANK LIMITED,JAKA0MHMDPR,MOHAMMAD PORA,MOHAMMAD PORA KULGAM,KULGAM,MOHAMMAD PORA KULGAM,JAMMU AND KASHMIR,9906500610
592,JAMMU AND KASHMIR BANK LIMITED,JAKA0MIGRNT,MIGRANT COLONY HAAL,"NEAR SHEIKH-UL- ALAM PUBLIC HGH SCHOOL, MIGRANT COLONY HAAL, PULWAMA, J&K-192302",PULWAMA,HAWL,JAMMU AND KASHMIR,9906841894
593,JAMMU AND KASHMIR BANK LIMITED,JAKA0MINKIS,"MINI-SECRETARIAT, KISHTWAR","HALL NO 6, NEW MINI-SECRETARIAT, DC OFFICE COMPLEX, KISHTWAR, PIN 182204",KISHTWAR,KISHTWAR,JAMMU AND KASHMIR,8082145985
594,JAMMU AND KASHMIR BANK LIMITED,JAKA0MIRAAN,MIRAN SAHIB,R.S.PORA ROAD,JAMMU,MIRAN SAAHIB,JAMMU AND KASHMIR,263245
595,JAMMU AND KASHMIR BANK LIMITED,JAKA0MIRARD,MIRA ROAD MUMBAI,"JEHANGIR COMPLEX, MTNL ROAD,NEAR SILVER PARK, MIRA ROAD, MUMBAI",GREATER BOMBAY,MIRA ROAD,MAHARASHTRA,28104499
596,JAMMU AND KASHMIR BANK LIMITED,JAKA0MIRBZR,MIR BAZAR ANANTNAG,MIR BAZAR QAZIGUND,ANANTNAG,MIR BAZAR,JAMMU AND KASHMIR,231400
597,JAMMU AND KASHMIR BANK LIMITED,JAKA0MIRGNB,MIRGUND BUDGAM,"MIRGUND, BLOCK/TEHSIL & DISTRICT - BUDGAM, PIN- 191111",BUDGAM,BADGAM,JAMMU AND KASHMIR,9419014806
598,JAMMU AND KASHMIR BANK LIMITED,JAKA0MIRGUD,MIRGUND,"MIRGUND,TEHSIL PATTAN,DISTRICT BARAMULLA,J AND K PIN CODE 193121",BARAMULLA,"MIRGUND, TEHSIL-PATTAN",JAMMU AND KASHMIR,9419008395
599,JAMMU AND KASHMIR BANK LIMITED,JAKA0MISHRI,MISHRIWALA,AKHNOOR ROAD MISHRIWALA,JAMMU,MISHRIWALA JAMMU,JAMMU AND KASHMIR,9419731224
600,JAMMU AND KASHMIR BANK LIMITED,JAKA0MJALTA,MAJALTA,DISTRICT - UDHAMPUR,UDHAMPUR,MAJALTA,JAMMU AND KASHMIR,221261
601,JAMMU AND KASHMIR BANK LIMITED,JAKA0MMSUMB,MAIN MARKET SUMBAL,"MAIN MARKET SUMBAL,DISTRICT BANDIPORA,J AND K PIN 193501",BANDIPORA,MAIN MARKET SUMBAL,JAMMU AND KASHMIR,9906631781
602,JAMMU AND KASHMIR BANK LIMITED,JAKA0MMYDAN,MUGHAL MAIDAN,"MUGHAL MAIDAN,DISTRICT KISHTWAR,PIN CODE 182205",KISHTWAR,MUGHAL MAIDAN,JAMMU AND KASHMIR,9697586520
603,JAMMU AND KASHMIR BANK LIMITED,JAKA0MNZGAM,MANZGAM,"OPP JAMIA MASJID MANZGAM,TESHIL DAMHAL HANJI PORA",KULGAM,MANZGAM KULGAM,JAMMU AND KASHMIR,212915
604,JAMMU AND KASHMIR BANK LIMITED,JAKA0MOGAPB,MOGA,COURT ROAD,MOGA,MOGA,PUNJAB,229155
605,JAMMU AND KASHMIR BANK LIMITED,JAKA0MOGHUL,AGRA,"8/213, HING KI MANDI",AGRA,AGRA,UTTAR PRADESH,2460281
606,JAMMU AND KASHMIR BANK LIMITED,JAKA0MOHALI,MOHALI,"OPPOSITE BASSI THEATHER, SEC-54,PHASE-II",RUPNAGAR,MOHALI PUNJAB,PUNJAB,2228938
607,JAMMU AND KASHMIR BANK LIMITED,JAKA0MONGER,MOUNGRI,"MOUNGRI,TEHSIL AND DISTRICT UDHAMPUR,J AND K PIN 182125",UDHAMPUR,MOUNGRI,JAMMU AND KASHMIR,9419870650
608,JAMMU AND KASHMIR BANK LIMITED,JAKA0MOTTII,MOTI MARKET LEH,"LBA COMPLEX, MOTI MARKET, NEAR OLD BUS STAND, LEH  LADAKH, J&K-194101",LEH,LEH,JAMMU AND KASHMIR,252551
609,JAMMU AND KASHMIR BANK LIMITED,JAKA0MOVING,MOVING SECRETARIAT,CIVIL SECRETRAIT,SRINAGAR,MOVING SECRETRAIT,JAMMU AND KASHMIR,2455235
610,JAMMU AND KASHMIR BANK LIMITED,JAKA0MUJGUN,MUJIGUND,"CHEK MUJIGUND,DISTRICT SRINAGAR,J AND K PIN CODE 190017",SRINAGAR,CHECK MUJIGUND,JAMMU AND KASHMIR,9419778506
611,JAMMU AND KASHMIR BANK LIMITED,JAKA0MULBIK,MULBEK,"VILLAGE MULBEK, BLOCK SHARGOLE KARGIL PIN CODE 194109",KARGIL,MULBEK,JAMMU AND KASHMIR,9419887250
612,JAMMU AND KASHMIR BANK LIMITED,JAKA0MUNAND,MUNAND GUFFAN,MUNAND GUFFAN,KULGAM,NEAR SUMO STAND,JAMMU AND KASHMIR,9622601050
613,JAMMU AND KASHMIR BANK LIMITED,JAKA0MURABD,MURADABAD,"4F, IST FLOOR, CHADDA COMPLEX,GMD ROAD",MORADABAD,MORADABAD,UTTAR PRADESH,2315263
614,JAMMU AND KASHMIR BANK LIMITED,JAKA0MURDPR,MURADPUR RAJOURI,"MURADPUR, RAJOURI, J&K-185131",RAJOURI,RAJOURI,JAMMU AND KASHMIR,9419171016
615,JAMMU AND KASHMIR BANK LIMITED,JAKA0MURNPL,MURRAN PULWAMA,"NEAR ANIMAL HUSBANDARY DEPARTMENT, MURRAN, PULWAMA, J&K-192301",PULWAMA,MORAN,JAMMU AND KASHMIR,9419055172
616,JAMMU AND KASHMIR BANK LIMITED,JAKA0MURRAN,MURRAN ADDA,"NEAR DISTRICT HOSPITAL,NEWA ROAD MURRAN ADDA",PULWAMA,MURRAN ADDA PULWAMA,JAMMU AND KASHMIR,240424
617,JAMMU AND KASHMIR BANK LIMITED,JAKA0MUTHII,MUTHI GOAN,POST OFFICE-MUTHI,JAMMU,VILLAGE-MUTHI GAON,JAMMU AND KASHMIR,2598869
618,JAMMU AND KASHMIR BANK LIMITED,JAKA0MVIHAR,MAYUR VIHAR DELHI,"A-6, AACHARYA NIKETAN",DELHI,MAYUR VIHAR,DELHI,22751694
619,JAMMU AND KASHMIR BANK LIMITED,JAKA0MYSORE,MYSORE,"DOOR NO.1137,NARAYAN SHASTRI ROAD,DEVRAJ URS MOHALLAH, MYSORE",MYSORE,MYSORE,KARNATAKA,2428468
620,JAMMU AND KASHMIR BANK LIMITED,JAKA0NAALLA,NALLAMAR ROAD SRINAGAR,"NALLAMAR ROAD, BOHRI KADAL",SRINAGAR,NALLAMAR,JAMMU AND KASHMIR,2479308
621,JAMMU AND KASHMIR BANK LIMITED,JAKA0NAASIK,NASIK,"SHOP NO.13-14,VIRAJ CORNER COMPLEX,NEAR TELEPHONE EX.",NASIK,NASIK,MAHARASHTRA,2316294
622,JAMMU AND KASHMIR BANK LIMITED,JAKA0NABERA,JEHANGIR CHOWK (NABERA COMPLEX),"JEHANGIR CHOWK ,H.S.H.STREET",SRINAGAR,NABEERA COMPLEX,JAMMU AND KASHMIR,2458359
623,JAMMU AND KASHMIR BANK LIMITED,JAKA0NADHAL,NADIHAL BANDIPORA,"NADIHAL, BANDIPORA, J&K-193502",BANDIPORA,BANDIPORA,JAMMU AND KASHMIR,7298959907
624,JAMMU AND KASHMIR BANK LIMITED,JAKA0NAGGAM,NAGAM,TEHSIL CHADURA,BUDGAM,"NAGGAM, CHADURA",JAMMU AND KASHMIR,9622449832
625,JAMMU AND KASHMIR BANK LIMITED,JAKA0NAGPUR,NAGPUR,"22/30 WARD NO. 38, NEW RESIDENCY ROAD, SADAR, NAGAPUR.",NAGPUR,NAGPUR,MAHARASHTRA,2520148
626,JAMMU AND KASHMIR BANK LIMITED,JAKA0NAGREE,NAGRI,"NAGRI,DISTRICT DODA,J AND K PIN CODE 182202",DODA,NAGRI,JAMMU AND KASHMIR,9419291993
627,JAMMU AND KASHMIR BANK LIMITED,JAKA0NAGROT,NAGROTA (TOLL POST),KANDOLI NAGROTA,JAMMU,"NAGROTA, JAMMU",JAMMU AND KASHMIR,2673823
628,JAMMU AND KASHMIR BANK LIMITED,JAKA0NAGSEN,NAGSENI,"B.U.NAGSENI,P.O. GULHAR THE",KISHTWAR,NAGSENI,JAMMU AND KASHMIR,9419147217
629,JAMMU AND KASHMIR BANK LIMITED,JAKA0NAGSHO,NAGABAL,"NAGABAL,DISTRICT SHOPIAN,J AND K PIN CODE 192305",SHOPIAN,NAGBAL,JAMMU AND KASHMIR,9697031927
630,JAMMU AND KASHMIR BANK LIMITED,JAKA0NALANG,NANIL,NANIL,ANANTNAG,"NANIL, ANANTNAG",JAMMU AND KASHMIR,240173
631,JAMMU AND KASHMIR BANK LIMITED,JAKA0NANDAN,NANDANI HILLS SAMBA,"D.C.OFFICE COMPLEX,NANDANI HILLS DIST.SAMBA PIN 184121",SAMBA,"NANDANI HILLS , SAMBA",JAMMU AND KASHMIR,9419139387
632,JAMMU AND KASHMIR BANK LIMITED,JAKA0NANNAK,NANAK NAGAR JAMMU,NANAK NAGAR,JAMMU,NANAK NAGAR,JAMMU AND KASHMIR,2430880
633,JAMMU AND KASHMIR BANK LIMITED,JAKA0NARAIN,NARAINA DELHI,C-42 COMMUNITY CENTER,DELHI,NARIANA,DELHI,25793451
634,JAMMU AND KASHMIR BANK LIMITED,JAKA0NARBAL,NARBAL,NARBAL,BUDGAM,NARBAL,JAMMU AND KASHMIR,260232
635,JAMMU AND KASHMIR BANK LIMITED,JAKA0NARDAN,NARDANI RAIPUR,"POST OFFICE RAIPUR,TEHSIL AND DISTRICT JAMMU, PIN-181123",JAMMU,JAMMU,JAMMU AND KASHMIR,9596656880
636,JAMMU AND KASHMIR BANK LIMITED,JAKA0NASEEM,UNIVERSITY CAMPUS HAZRATBAL(NANDPORA),OPP. UNIVERSITY OF KASHMIR,SRINAGAR,HAZRATBAL,JAMMU AND KASHMIR,2426557
637,JAMMU AND KASHMIR BANK LIMITED,JAKA0NASRUL,NASRULLAHPORA,"NASRULLAH PORA BUDGAM,",BUDGAM,"NASRULLAH PORA,BUDGAM",JAMMU AND KASHMIR,256476
638,JAMMU AND KASHMIR BANK LIMITED,JAKA0NATIPR,NATIPORA SRINAGAR,"NEAR OLD R.T.O OFFICE,BUDSHAH NAGAR, NATIPORA",SRINAGAR,NATIPORA,JAMMU AND KASHMIR,2133428
639,JAMMU AND KASHMIR BANK LIMITED,JAKA0NDKHAI,NAID KHAI,"NAIDKHAI, SONAWARI",BANDIPORA,"NAIDKHAI, SONAWARI, DISTT. BAND",JAMMU AND KASHMIR,7298004479
640,JAMMU AND KASHMIR BANK LIMITED,JAKA0NEEWAH,NEWA,MAIN CHOWK NEWA,PULWAMA,NEWA PULWAMA,JAMMU AND KASHMIR,9697086122
641,JAMMU AND KASHMIR BANK LIMITED,JAKA0NEGRIM,NEGRIMALPORA KUPAWRA,"NAGRIMALPORA, KUPWARA, J&K-193222├╜├╜├╜├╜",KUPWARA,KUPWARA,JAMMU AND KASHMIR,9697357507
642,JAMMU AND KASHMIR BANK LIMITED,JAKA0NEHAAL,NEHALPORA,PATTAN,BARAMULLA,NEHALPORA,JAMMU AND KASHMIR,9622440007
643,JAMMU AND KASHMIR BANK LIMITED,JAKA0NEHOME,NEHAMA PULWAMA,"BLOCK & TEHSIL-KAKPORA, DISTRICT-PULWAMA, PIN-192121",PULWAMA,KAKAPORA,JAMMU AND KASHMIR,9018880008
644,JAMMU AND KASHMIR BANK LIMITED,JAKA0NEHROO,NEHRU MARKET JAMMU,NEHRU MARKET,JAMMU,NEHRU MARKET,JAMMU AND KASHMIR,2435273
645,JAMMU AND KASHMIR BANK LIMITED,JAKA0NEWPLT,NEW PLOT JAMMU,DREAM LAND PUBLIC SCHOOL,JAMMU,NEW PLOT,JAMMU AND KASHMIR,2563172
646,JAMMU AND KASHMIR BANK LIMITED,JAKA0NGSHAN,NOWGAM SHANGUS,NOWGAM SHANGUS,ANANTNAG,MAIN MARKET,JAMMU AND KASHMIR,9906916969
647,JAMMU AND KASHMIR BANK LIMITED,JAKA0NIDYAR,NAIDYAR,"NAIDYAR, RAINAWARI",SRINAGAR,NAIDYAR,JAMMU AND KASHMIR,2471009
648,JAMMU AND KASHMIR BANK LIMITED,JAKA0NIHAMA,NIHAMA,"NIHAMA, KULGAM TEHSIL: D.H. PORA",KULGAM,"NIHAMA, KULGAM KASHMIR",JAMMU AND KASHMIR,212707
649,JAMMU AND KASHMIR BANK LIMITED,JAKA0NILLOW,NILLOW,"NILLOW,DISTRICT KULGAM,KASHMIR,J AND K,PIN 192231",KULGAM,NILWA,JAMMU AND KASHMIR,9906674899
650,JAMMU AND KASHMIR BANK LIMITED,JAKA0NIMMOO,NIMMOO,NIMMOO LEH LADAKH,LEH,NIMMOO LEH LADAKH,JAMMU AND KASHMIR,225225
651,JAMMU AND KASHMIR BANK LIMITED,JAKA0NIPARK,NISHAT PARK BANDIPORA,"NISHAT PARK,DISTRICT BANDIPORA,KASHMIR,J AND K PIN 193502",BANDIPORA,BANDIPORA,JAMMU AND KASHMIR,7298959907
652,JAMMU AND KASHMIR BANK LIMITED,JAKA0NISHAT,BREIN NISHAT,"BREIN, NISHAT",SRINAGAR,BREIN,JAMMU AND KASHMIR,2461742
653,JAMMU AND KASHMIR BANK LIMITED,JAKA0NOHATA,NOWHATTA SRINAGAR,NOWHATTA,SRINAGAR,NOWHATTA SRINAGAR KASHMIR,JAMMU AND KASHMIR,24553147
654,JAMMU AND KASHMIR BANK LIMITED,JAKA0NOORBG,NOORBAGH SRINAGAR,NOORBAGH MAIN CHOWK,SRINAGAR,"NOORBAGH MAIN CHOWK, SRINAGAR",JAMMU AND KASHMIR,2412555
655,JAMMU AND KASHMIR BANK LIMITED,JAKA0NOSHER,NOWSHERA,"NOWSHERA, RAJOURI",RAJOURI,"NOWSHERA,RAJOURI",JAMMU AND KASHMIR,230244
656,JAMMU AND KASHMIR BANK LIMITED,JAKA0NOWBAD,NOWABAD(SUNJAWAN),NOWABAD SUNJAWAN,JAMMU,B.N COLLEGE OF EDUCATIUON,JAMMU AND KASHMIR,9419642410
657,JAMMU AND KASHMIR BANK LIMITED,JAKA0NOWBUD,NOWPORA,CHADORA,BUDGAM,NOWPORA,JAMMU AND KASHMIR,9419408989
658,JAMMU AND KASHMIR BANK LIMITED,JAKA0NOWGAM,NOWGAM,"BYE PASS, NOWGAM",SRINAGAR,NOWGAM,JAMMU AND KASHMIR,2436178
659,JAMMU AND KASHMIR BANK LIMITED,JAKA0NOWSHE,NOWSHEHRA URI,NOWSHEHRA BONIYAR URI 193122,BARAMULLA,BARAMULLA,JAMMU AND KASHMIR,7006770207
660,JAMMU AND KASHMIR BANK LIMITED,JAKA0NUNNAR,NUNNER,NUNNER GANDERBAL,GANDERBAL,NUNNER,JAMMU AND KASHMIR,2416858
661,JAMMU AND KASHMIR BANK LIMITED,JAKA0NWKLAN,NOWPORA KALAN,TEHSIL-SOPORE,BARAMULLA,NOWPORA KLAN,JAMMU AND KASHMIR,9419056666
662,JAMMU AND KASHMIR BANK LIMITED,JAKA0NYOOMA,NYOMA,NYOMA CHANGTHANG,LEH,NYOOMA LEH,JAMMU AND KASHMIR,222032
663,JAMMU AND KASHMIR BANK LIMITED,JAKA0OCTROI,LAKHANPUR,"LAKHANPUR, KATHUA",KATHUA,"LAKHANPUR, KATHUA",JAMMU AND KASHMIR,285027
664,JAMMU AND KASHMIR BANK LIMITED,JAKA0OKHLAA,OKHLA DELHI,"1-LOCAL SHOPPING COMPLEX, INDUSTRIAL AREA,PHASE II, OKHLA",DELHI,OKHLA,DELHI,27352353
665,JAMMU AND KASHMIR BANK LIMITED,JAKA0OLDBUS,OLD BUS STAND PARLIWAND,NEAR OLD BUS STAND,KATHUA,"PARLIWAND, KATHUA",JAMMU AND KASHMIR,237189
666,JAMMU AND KASHMIR BANK LIMITED,JAKA0OLDCHK,OLD CHOWK  KUPWARA,OLD CHOWK KUPWARA,KUPWARA,OLD CHOWK KUPWARA,JAMMU AND KASHMIR,253142
667,JAMMU AND KASHMIR BANK LIMITED,JAKA0OMPORA,OMPORA,OMPORA BUDGAM,BUDGAM,OMPORA BUDGAM,JAMMU AND KASHMIR,255863
668,JAMMU AND KASHMIR BANK LIMITED,JAKA0OTCBNG,OTC BANGALORE,OTC ROAD,BANGALORE URBAN,"OTC ROAD,BANGALORE",KARNATAKA,41143120
669,JAMMU AND KASHMIR BANK LIMITED,JAKA0OTLIGA,OTLIGAM,"PO-OTLIGAM, TEHSIL-BEERWAH, DISTRICT-BUDGAM, PIN-193411",BUDGAM,BADGAM,JAMMU AND KASHMIR,9697456420
670,JAMMU AND KASHMIR BANK LIMITED,JAKA0PADDAM,PADAM ZANASKAR,"PADUM, ZANGSKAR, KARGIL",KARGIL,"PADUM, ZANGSKAR,",JAMMU AND KASHMIR,245014
671,JAMMU AND KASHMIR BANK LIMITED,JAKA0PADDAR,PADDAR,PADDAR,KISHTWAR,KISHTWAR,JAMMU AND KASHMIR,257344
672,JAMMU AND KASHMIR BANK LIMITED,JAKA0PAGWAR,PHAGWARA,"OPP. HANUMAN GARHI,",KAPURTHALA,PHAGWARA,PUNJAB,264648
673,JAMMU AND KASHMIR BANK LIMITED,JAKA0PAHROO,PAHROO,"VILLAGE-PAHROO, TEHSIL & BLOCK-B K PORA, DISRICT-BUDGAM, JK, PIN-192121",BUDGAM,BAGATI KANIPORA,JAMMU AND KASHMIR,9906803334
674,JAMMU AND KASHMIR BANK LIMITED,JAKA0PAKHER,PAKHERPORA,"PAKHERPORA, BUDGAM",BUDGAM,"PAKHERPORA, BUDGAM",JAMMU AND KASHMIR,247175
675,JAMMU AND KASHMIR BANK LIMITED,JAKA0PALACE,RAJINDRA PLACE DELHI,"26/34, PAL MOHAN MANSION,EAST PATEL NAGAR, RAJINDERA PLACE",DELHI,RAJINDERA PLACE,DELHI,25710667
676,JAMMU AND KASHMIR BANK LIMITED,JAKA0PALHAL,PALHALAN,PATTAN,BARAMULLA,KHIPORA PALHALLAN,JAMMU AND KASHMIR,9419059670
677,JAMMU AND KASHMIR BANK LIMITED,JAKA0PALMAA,PALMA,"POST OFFICE - PALMA , TEHSIL & DISTRICT - RAJOURI , PIN-185131",RAJOURI,PALAM,JAMMU AND KASHMIR,9419197166
678,JAMMU AND KASHMIR BANK LIMITED,JAKA0PALMAR,PALMAR,PALMAR,KISHTWAR,KUNDGWARI,JAMMU AND KASHMIR,9858576415
679,JAMMU AND KASHMIR BANK LIMITED,JAKA0PALMOR,PALLI MORH,"PALLI MORH, PO PALLI , BISHNAH , JAMMU , JK PIN 181132",JAMMU,BISHNA,JAMMU AND KASHMIR,9419139447
680,JAMMU AND KASHMIR BANK LIMITED,JAKA0PALPOR,PALPORA,"PALPORA,( NEAR BSNL TOWER) , TEHSIL & DISTRICT-SRINAGAR, PIN-190017",SRINAGAR,PALAPORA,JAMMU AND KASHMIR,9906941224
681,JAMMU AND KASHMIR BANK LIMITED,JAKA0PANAJI,PANAJI GOA,"ATMA RAM COMERICAL COMPLEX,DR. A.B. ROAD, OPP HOTEL NAWA GOA",NORTH GOA,PANAJI,GOA,2435215
682,JAMMU AND KASHMIR BANK LIMITED,JAKA0PANCHK,PANCHKULA,"SCO 240, SECTOR 20",PANCHKULA,PANCKULA,HARYANA,2538121
683,JAMMU AND KASHMIR BANK LIMITED,JAKA0PANMIK,PANAMIK,"PANAMIK, BLOCK PANAMIK NUBRA, LEH J AND K PIN 194401",LEH,LEH,JAMMU AND KASHMIR,9419655143
684,JAMMU AND KASHMIR BANK LIMITED,JAKA0PANPAT,PANIPAT,G.T.ROAD,PANIPAT,G.T.ROAD PANIPAT,HARYANA,2664997
685,JAMMU AND KASHMIR BANK LIMITED,JAKA0PANTHA,PANTHA CHOWK SRINAGAR,BEHIND PETROL PUMP,SRINAGAR,PANTHA CHOWK,JAMMU AND KASHMIR,222164
686,JAMMU AND KASHMIR BANK LIMITED,JAKA0PANZAN,PANZAN,CHADORA,BUDGAM,PANZAN,JAMMU AND KASHMIR,9858984376
687,JAMMU AND KASHMIR BANK LIMITED,JAKA0PANZAT,PANZATH,"PANZATH WANPORA,DISTRICT ANANTNAG,J AND K PIN CODE 192221",ANANTNAG,PANZATH WANPORA,JAMMU AND KASHMIR,9419412739
688,JAMMU AND KASHMIR BANK LIMITED,JAKA0PANZGM,PANZGAM PULWAMA,"NEAR JAMIA MASJID, PANZGAM, PULWAMA, J&K-192124",PULWAMA,PULWAMA,JAMMU AND KASHMIR,9596206347
689,JAMMU AND KASHMIR BANK LIMITED,JAKA0PANZOO,HARD PANZOO,KHANSAHIB,BUDGAM,HARD PANZOO,JAMMU AND KASHMIR,9419007715
690,JAMMU AND KASHMIR BANK LIMITED,JAKA0PARGAM,PARIGAM,"VILLAGE-PARIGAM, BLOCK- KAKPORA, DISTRICT-PULWAMA, JK, PIN-192301",PULWAMA,KAKAPORA,JAMMU AND KASHMIR,9796907868
691,JAMMU AND KASHMIR BANK LIMITED,JAKA0PARLDP,PARLADHPUR,"POST OFFICE-MANDAL, (JAMMU CANTT)",JAMMU,VILLAGE-PARLADHPUR,JAMMU AND KASHMIR,9419129833
692,JAMMU AND KASHMIR BANK LIMITED,JAKA0PARNEW,PARNEWA,"PARNEWA, BUDGAM, JK PIN 191111",BUDGAM,BADGAM,JAMMU AND KASHMIR,9419406024
693,JAMMU AND KASHMIR BANK LIMITED,JAKA0PAROLE,PAROLE,PAROLE KATHUA,KATHUA,PAROLE KATHUA,JAMMU AND KASHMIR,281032
694,JAMMU AND KASHMIR BANK LIMITED,JAKA0PARRYS,PARRYS CHENNAI,"52, ARMENIAN STREET",CHENNAI,PARRYS CHENNAI,TAMIL NADU,25330478
695,JAMMU AND KASHMIR BANK LIMITED,JAKA0PATHAN,PATHANKOTE,GURDASPUR ROAD,GURDASPUR,"PATHANKOT,PUNJAB",PUNJAB,2220917
696,JAMMU AND KASHMIR BANK LIMITED,JAKA0PATHER,BP BATMALOO,BATMALOO,SRINAGAR,BATMALOO,JAMMU AND KASHMIR,2476045
697,JAMMU AND KASHMIR BANK LIMITED,JAKA0PATHWA,PATHWAL,"POST OFFICE-DAYALACHAK, TEHSIL-HIRANAGAR",KATHUA,VILLAGE-PATHWAL,JAMMU AND KASHMIR,9697510501
698,JAMMU AND KASHMIR BANK LIMITED,JAKA0PATIAL,PATIALA,"SCO-4, OPP INCOME TAX OFFICE, CANTT ROAD, PATIALA, PUNJAB -147001",PATIALA,PATIALA,PUNJAB,2202283
699,JAMMU AND KASHMIR BANK LIMITED,JAKA0PATLIM,PATLI MORH SAMBA,POST OFFICE ROAD PARORE,SAMBA,PATLIMORH SAMBA,JAMMU AND KASHMIR,210149
700,JAMMU AND KASHMIR BANK LIMITED,JAKA0PATTAN,PATTAN,MAIN BAZAR PATTAN,BARAMULLA,PATTAN,JAMMU AND KASHMIR,231221
701,JAMMU AND KASHMIR BANK LIMITED,JAKA0PATTEL,PATEL NAGAR JAMMU,"AKHNOOR ROAD, NEAR PETROL PUMP",JAMMU,PATEL NAGAR,JAMMU AND KASHMIR,2501090
702,JAMMU AND KASHMIR BANK LIMITED,JAKA0PAZAAL,PAZALPORA,"PAZALPORA,DISTRICT BANDIPORA,PIN CODE 193502",BANDIPORA,PAZALPORA,JAMMU AND KASHMIR,7298684129
703,JAMMU AND KASHMIR BANK LIMITED,JAKA0PCDEPO,PC DEPOT SRINAGAR,"P C DEPOT (SHALTENG), TEHSIL & DISTRICT-SRINAGAR, PIN-190010",SRINAGAR,SRINAGAR,JAMMU AND KASHMIR,9419014934
704,JAMMU AND KASHMIR BANK LIMITED,JAKA0PCKATU,KATHUA CITY,TEHSIL-KATHUA,KATHUA,I. T. I. ROAD,JAMMU AND KASHMIR,234160
705,JAMMU AND KASHMIR BANK LIMITED,JAKA0PCKSTW,TP KISHTWAR,D.C. OFFICE COMPLEX,KISHTWAR,OPPOSITE SBI OLD,JAMMU AND KASHMIR,9419154736
706,JAMMU AND KASHMIR BANK LIMITED,JAKA0PEERII,PEERI,TEHSIL-KOTRANKA,RAJOURI,PEERI,JAMMU AND KASHMIR,9622079986
707,JAMMU AND KASHMIR BANK LIMITED,JAKA0PEHLOO,PEHLOO,PEHLOO KULGAM,KULGAM,"PEHLOO, KULGAM",JAMMU AND KASHMIR,9797728999
708,JAMMU AND KASHMIR BANK LIMITED,JAKA0PERTAK,PEER TAKIYA ANANTNAG,"TAKIA BAHIE, KOKERNAG, ANANTNAG, J&K-192202",ANANTNAG,KOKERNAG,JAMMU AND KASHMIR,9596196610
709,JAMMU AND KASHMIR BANK LIMITED,JAKA0PHALIA,PHALIANA,"POST OFFICE MURADPUR, RAJOURI, JK PIN 185131",RAJOURI,RAJOURI,JAMMU AND KASHMIR,9419111105
710,JAMMU AND KASHMIR BANK LIMITED,JAKA0PHLGAM,PAHALGAM,"MAIN MARKET, PAHALGAM",ANANTNAG,PAHALGAM,JAMMU AND KASHMIR,243248
711,JAMMU AND KASHMIR BANK LIMITED,JAKA0PHNTER,PHINTER,PHINTER KATHUA,KATHUA,"PHINTER, KATHUA",JAMMU AND KASHMIR,266662
712,JAMMU AND KASHMIR BANK LIMITED,JAKA0PINGLE,PINGLIN,PINGLENA,PULWAMA,NEAR PLYWOOD FACTORY,JAMMU AND KASHMIR,9697384219
713,JAMMU AND KASHMIR BANK LIMITED,JAKA0PINJOR,PINJOORA,PINJORA SHOPIAN,SHOPIAN,PINJORA SHOPIAN,JAMMU AND KASHMIR,260784
714,JAMMU AND KASHMIR BANK LIMITED,JAKA0PIRCHO,FRUIT MANDI PRICHOO,"Fruit Mandi Prichoo,District Pulwama,J AND K Pin code 192301",PULWAMA,FRUIT MANDI PRICHO,JAMMU AND KASHMIR,0
715,JAMMU AND KASHMIR BANK LIMITED,JAKA0PIRPUR,PEERPUR CHOWK,"PEERPORA CHOWK,DISTRICT GANDERBAL,PIN CODE 191131",GANDERBAL,PEERPUR CHOWK,JAMMU AND KASHMIR,956441477
716,JAMMU AND KASHMIR BANK LIMITED,JAKA0PKATRA,NIHARIKA,KATRA,REASI,NIHARIKA KATRA,JAMMU AND KASHMIR,9906025325
717,JAMMU AND KASHMIR BANK LIMITED,JAKA0PLOURA,PALOURA JAMMU,NEAR B.S.F CAMP PLOURA TOP,JAMMU,PLOURA JAMMU,JAMMU AND KASHMIR,2591171
718,JAMMU AND KASHMIR BANK LIMITED,JAKA0PNTHAL,PANTHAL,PANTHAL UDHAMPUR,REASI,"PANTHAL, UDHAMPUR",JAMMU AND KASHMIR,285503
719,JAMMU AND KASHMIR BANK LIMITED,JAKA0POLICE,CHANNI HIMMAT JAMMU,"SEC-5, OPP MONICA SUPER MARKET",JAMMU,CHANNI HIMAT,JAMMU AND KASHMIR,2466558
720,JAMMU AND KASHMIR BANK LIMITED,JAKA0POLOVW,POLO VIEW SRINAGAR,"THE BUND, M A ROAD",SRINAGAR,POLOVIEW,JAMMU AND KASHMIR,2470594
721,JAMMU AND KASHMIR BANK LIMITED,JAKA0PONGAL,POGAL PARISTAN(NEEL),"POGAL PARISTAN TEHSIL BANIHAL,",RAMBAN,"NEEL POGAL PARISTAN ,",JAMMU AND KASHMIR,7298004734
722,JAMMU AND KASHMIR BANK LIMITED,JAKA0POONAH,PUNE,"RADIANT RAHEJA MILLINIUM COMPLEX,IST FLOOR, 284 MG ROAD, PUNE",PUNE,PUNE,MAHARASHTRA,26341952
723,JAMMU AND KASHMIR BANK LIMITED,JAKA0POSHKR,POSHKAR,TEHSIL-KHAG,BUDGAM,POSHKAR,JAMMU AND KASHMIR,9697732223
724,JAMMU AND KASHMIR BANK LIMITED,JAKA0POUNIE,POUNIE,"POUNIE,DISTIRCT REASI",REASI,POUNIE,JAMMU AND KASHMIR,256779
725,JAMMU AND KASHMIR BANK LIMITED,JAKA0POWERG,"POWER HOUSE ROAD, GANDERBAL","POWER HOUSE ROAD , GANDERBAL TEHSIL & DISTRICT - GANDERBAL , PIN - 191201",GANDERBAL,GUND,JAMMU AND KASHMIR,9906962309
726,JAMMU AND KASHMIR BANK LIMITED,JAKA0PRANOO,PRANOO,"PRANO, BLOCK-GHAT, TEHSIL & DISTRICT-DODA, PIN-182201",DODA,DODA,JAMMU AND KASHMIR,9419895175
727,JAMMU AND KASHMIR BANK LIMITED,JAKA0PRIEST,LEH,MAIN BRANCH LEH,LEH,LEH MAIN,JAMMU AND KASHMIR,252087
728,JAMMU AND KASHMIR BANK LIMITED,JAKA0PRITAM,PITAMPURA DELHI,"B-161, LOK VIHAR, ROAD NO 44",DELHI,PRITAM PURA,DELHI,27352353
729,JAMMU AND KASHMIR BANK LIMITED,JAKA0PRMNGR,PREM NAGAR,MAIN ROAD PREM NAGAR THATRI DODA,DODA,PREM NAGAR THATRI DODA,JAMMU AND KASHMIR,9622126943
730,JAMMU AND KASHMIR BANK LIMITED,JAKA0PROMPT,NEW SECTT ROAD SRINAGAR,"NEAR NEELAM CINEMA, NEW SECTT. ROAD",SRINAGAR,NEW SECRETRAIT ROAD,JAMMU AND KASHMIR,2485762
731,JAMMU AND KASHMIR BANK LIMITED,JAKA0PRROAD,PRITHVIRAJ ROAD,5-PRITHVIRAJ ROAD,DELHI,PRITHVIRAJ ROAD,DELHI,24644744
732,JAMMU AND KASHMIR BANK LIMITED,JAKA0PUSKUM,PUSKYUM,"FAROOL PUSKYUM, NEAR PHC PRIMARY HEALTH CENTRE, PUSKYUM, KARGIL, J&K-194103",KARGIL,KARGIL,JAMMU AND KASHMIR,9469773321
733,JAMMU AND KASHMIR BANK LIMITED,JAKA0QADEEM,JAMIA QADEEM SOPORE,"NEAR KHAN KHAHI MOHALLA,JAMIA QADEEM SOPORE",BARAMULLA,JAMIA QADEEM,JAMMU AND KASHMIR,7298004572
734,JAMMU AND KASHMIR BANK LIMITED,JAKA0QAMMAR,PARIMPORA SRINAGAR,"QAMMAWARI CHOWK,",SRINAGAR,PARIMPORA,JAMMU AND KASHMIR,2491599
735,JAMMU AND KASHMIR BANK LIMITED,JAKA0QAZIGD,QAZIGUND,"QAZIGUND, ANANTNAG",ANANTNAG,QAZIGUND,JAMMU AND KASHMIR,235188
736,JAMMU AND KASHMIR BANK LIMITED,JAKA0QLMCHK,QALAM CHAKLA,"TEHSIL, HANDWARA",KUPWARA,"QALAMCHAKLA, QALAMABAD",JAMMU AND KASHMIR,9697011395
737,JAMMU AND KASHMIR BANK LIMITED,JAKA0RADISH,RAJOURI (MAIN),MAIN BAZAR,RAJOURI,RAJOURI MAIN,JAMMU AND KASHMIR,262237
738,JAMMU AND KASHMIR BANK LIMITED,JAKA0RADIUS,RCC MUMBAI,"5TH FLOOR, MERCHANT CHAMBERS, 41 NEW MARINE LINES",MUMBAI,MUMBAI,MAHARASHTRA,261559200
739,JAMMU AND KASHMIR BANK LIMITED,JAKA0RAHYAA,RAHYA,"RAHYA, TEHSILVIJAYPUR, DISTRICT-SAMBA, PIN-181143",SAMBA,SAMBA,JAMMU AND KASHMIR,249988
740,JAMMU AND KASHMIR BANK LIMITED,JAKA0RAIKAB,RAKIBAN,RAKIBAN RAJOURI,RAJOURI,"RAKIBAN, RAJOURI",JAMMU AND KASHMIR,242005
741,JAMMU AND KASHMIR BANK LIMITED,JAKA0RAIPUR,RAIPUR,"LAL GANGA SHOPPING MALL,G.E ROAD",RAIPUR,RAIPUR,CHANDIGARH,2236467
742,JAMMU AND KASHMIR BANK LIMITED,JAKA0RAITHN,RAITHAN,"RAITHAN,DISTRICT BUDGAM,J AND K",BUDGAM,RAITHAN KHANSAHIB,JAMMU AND KASHMIR,9797022687
743,JAMMU AND KASHMIR BANK LIMITED,JAKA0RAJBAG,RAJBAGH,"RAJBAGH,DISTRICT KATHUA",KATHUA,VPO RAJBAGH,JAMMU AND KASHMIR,9419618857
744,JAMMU AND KASHMIR BANK LIMITED,JAKA0RAJPJM,RAJPURA,VILLAGE & P.O.RAJPORA TEHSIL SAMBHA,SAMBA,"RAJPURA, SAMBA",JAMMU AND KASHMIR,248017
745,JAMMU AND KASHMIR BANK LIMITED,JAKA0RAJPUR,RAJPORA,"RAJPORA, PULWAMA",PULWAMA,"RAJPORA, PULWAMA",JAMMU AND KASHMIR,278271
746,JAMMU AND KASHMIR BANK LIMITED,JAKA0RAMBAN,RAMBAN,RAMBAN MAIN BRANCH,RAMBAN,RAMBAN MAIN BRANCH,JAMMU AND KASHMIR,266631
747,JAMMU AND KASHMIR BANK LIMITED,JAKA0RAMGAR,RAMGARH,RAMGARH SAMBA,SAMBA,"RAMGARH, SAMBA",JAMMU AND KASHMIR,234965
748,JAMMU AND KASHMIR BANK LIMITED,JAKA0RAMKOT,RAMKOT,POSTOFFICE RAMKOT TEHSIL BILAWAR,KATHUA,"RAMKOT, BILLAWAR,",JAMMU AND KASHMIR,206064
749,JAMMU AND KASHMIR BANK LIMITED,JAKA0RAMNAG,RAMNAGAR,THE JAMMU & KASHMIR BANK LTD,UDHAMPUR,RAMNAGAR,JAMMU AND KASHMIR,270008
750,JAMMU AND KASHMIR BANK LIMITED,JAKA0RAMNAM,SMM RAMNAGAR,"KULWANT ROAD, TEHSIL-RAMNAGAR",UDHAMPUR,NEAR SHEETLA MATA MANDIR,JAMMU AND KASHMIR,9858144331
751,JAMMU AND KASHMIR BANK LIMITED,JAKA0RANCHI,RANCHI,"DR. FETEH-ULLAH ROAD,LOWER BAZAR",RANCHI,RANCHI,JHARKHAND,2202865
752,JAMMU AND KASHMIR BANK LIMITED,JAKA0RANGER,RANGER,TEHSIL CHADURA,BUDGAM,RANGER,JAMMU AND KASHMIR,9086511175
753,JAMMU AND KASHMIR BANK LIMITED,JAKA0RANGRE,RANGRETH SRINAGAR,RANGRETH BUDGAM,SRINAGAR,RANGRETH BUDGAM KASHMIR,JAMMU AND KASHMIR,2300279
754,JAMMU AND KASHMIR BANK LIMITED,JAKA0RANIPR,RANIPORA,P.O BRAH RANIPORA TEHSIL SHANGUS,ANANTNAG,"RANIPORA , ANANTNAG",JAMMU AND KASHMIR,9906963957
755,JAMMU AND KASHMIR BANK LIMITED,JAKA0RANITA,RANI TALAB,"RANI TALAB,DIGIANA,DISTRICT JAMMU,J AND K PIN 180010",JAMMU,JAMMU,JAMMU AND KASHMIR,8492094553
756,JAMMU AND KASHMIR BANK LIMITED,JAKA0RANRSI,RANSOO,"RANSOO SHIV KHORI DISTRICT REASI,PIN CODE 185203",REASI,RANSOO,JAMMU AND KASHMIR,9797327311
757,JAMMU AND KASHMIR BANK LIMITED,JAKA0RATNIE,RATNIPORA,RATNIPORA,PULWAMA,RATNIPORA,JAMMU AND KASHMIR,265083
758,JAMMU AND KASHMIR BANK LIMITED,JAKA0RATSHP,RATNIPORA SHOPIAN,"RATNIPORA,DISTRICT SHOPIAN,J AND K PIN CODE 192303",SHOPIAN,RATNIPORA,JAMMU AND KASHMIR,9697957675
759,JAMMU AND KASHMIR BANK LIMITED,JAKA0RATSUN,RATSUN,"RATSUN,DISTRICT BUDGAM,J AND K PIN 193401",BUDGAM,RATSUN,JAMMU AND KASHMIR,9906478843
760,JAMMU AND KASHMIR BANK LIMITED,JAKA0RAWKHA,RAWALPORA KHANSAHIB,"RAWALPORA KHANSAHIB,DISTRICT BUDGAM,BLOCK AND TEHSIL KHANSAHIB,KASHMIR,J AND K PIN 193411",BUDGAM,RAALPORA BERUA,JAMMU AND KASHMIR,9797892394
761,JAMMU AND KASHMIR BANK LIMITED,JAKA0RAWWAL,RAWALPORA SRINAGAR,RAWALPORA,SRINAGAR,RAWALPORA,JAMMU AND KASHMIR,2434297
762,JAMMU AND KASHMIR BANK LIMITED,JAKA0RCCANG,RCC ANANTNAG,RCC ANANTNAG OPP. NEW MARKET BR,ANANTNAG,ANANTNAG,JAMMU AND KASHMIR,210862
763,JAMMU AND KASHMIR BANK LIMITED,JAKA0RCCSOP,RCC SOPORE,TEHSIL PREMISES SOPORE,BARAMULLA,SOPORE,JAMMU AND KASHMIR,220008
764,JAMMU AND KASHMIR BANK LIMITED,JAKA0RCHNAI,RCC CHENNAI,"60 RAINBOW ARCADE, SIR THEAGARAYAR ROAD, T NAGAR, PONDY BAZAR, CHENNAI , TAMIL NADU, PIN 600017",CHENNAI,CHENNAI,TAMIL NADU,9940074651
765,JAMMU AND KASHMIR BANK LIMITED,JAKA0REASSI,REASI,"BUS STAND, REASI",REASI,REASI,JAMMU AND KASHMIR,244136
766,JAMMU AND KASHMIR BANK LIMITED,JAKA0RECSGR,REC SRINAGAR,NIT PREMISES,SRINAGAR,"REC, SRINAGAR",JAMMU AND KASHMIR,2415770
767,JAMMU AND KASHMIR BANK LIMITED,JAKA0REGION,RCC JAMMU,"REGIONAL COLLECTION CR,SMGS HOSPITAL COMPLEX",JAMMU,JAMMU,JAMMU AND KASHMIR,2546786
768,JAMMU AND KASHMIR BANK LIMITED,JAKA0REGPUR,REGIPORA,"COLLEGE ROAD REGIPORA,DISTRICT KUPWARA,J AND K PIN 193222",KUPWARA,COLLEGE ROAD REGIPORA,JAMMU AND KASHMIR,9796527773
769,JAMMU AND KASHMIR BANK LIMITED,JAKA0REHAAL,REHAL DHAMALIAN,"REHAL DHAMALIAN, TEHSIL-BISHNAH, DISTRICT-JAMMU, J&K, PIN-181132",JAMMU,RIHAL DHAMALIAN,JAMMU AND KASHMIR,248210
770,JAMMU AND KASHMIR BANK LIMITED,JAKA0REHARI,REHARI JAMMU,REHARI,JAMMU,REHARI,JAMMU AND KASHMIR,2573764
771,JAMMU AND KASHMIR BANK LIMITED,JAKA0REVENU,PATEL NAGAR  KATHUA,"PATEL NAGAR, KALI BARI",KATHUA,"PATEL NAGAR, KATHUA",JAMMU AND KASHMIR,1922
772,JAMMU AND KASHMIR BANK LIMITED,JAKA0RHMBAL,REHAMBAL,NEAR FILLING STATION CHOPRA SHOP,UDHAMPUR,REHAMBAL UDHAMPUR,JAMMU AND KASHMIR,7298004667
773,JAMMU AND KASHMIR BANK LIMITED,JAKA0ROHAMA,ROHAMA,ROHAMA RAFIABD,BARAMULLA,ROHAMA BARAMULLA,JAMMU AND KASHMIR,7298004556
774,JAMMU AND KASHMIR BANK LIMITED,JAKA0ROHINI,ROHINI DELHI,"BN PLAZA, A-103/2, SECTOR 3",DELHI,ROHINI,DELHI,27511170
775,JAMMU AND KASHMIR BANK LIMITED,JAKA0ROHMOO,ROHMOO,MAIN CHOWK PULWAMA,PULWAMA,ROHMOO,JAMMU AND KASHMIR,215636
776,JAMMU AND KASHMIR BANK LIMITED,JAKA0ROHTAK,ROHTAK,BHIWANI STAND,ROHTAK,ROHTAK,HARYANA,269212
777,JAMMU AND KASHMIR BANK LIMITED,JAKA0ROOPNA,ROOP NAGAR,"1A, SECTOR 2, LOWER ROOP NAGAR, NEAR GREEN LAND PALACE, PO ROOP NAGAR, JAMMU, JK PIN 180013",JAMMU,JAMMU,JAMMU AND KASHMIR,9697244824
778,JAMMU AND KASHMIR BANK LIMITED,JAKA0ROORKE,ROORKEE,"J&K BANK 799/1, WEST AMBER TALAO, NEAR CIVIL HOSPITAL, DEHRADUN ROAD, ROORKEE, UTTARAKHAND-247667",HARIDWAR,ROORKEE,UTTARAKHAND,9419159292
779,JAMMU AND KASHMIR BANK LIMITED,JAKA0RSPORA,R S PURA,"NEAR MAIN GATE, SKUAST",JAMMU,R.S.PORA,JAMMU AND KASHMIR,250236
780,JAMMU AND KASHMIR BANK LIMITED,JAKA0RTNAGR,RT NAGAR,"1ST FLOR,NO 2,80 FEET ROAD, GANGA NAGAR, R T NAGAR MAIN ROAD, BENGALURU 560032",BENGALURU,BANGALORE,KARNATAKA,23431016
781,JAMMU AND KASHMIR BANK LIMITED,JAKA0RTOSGR,OLD SECRETARIAT SRINAGAR,OLD SECRETRAIT R.T.O,SRINAGAR,OLD SECRETRAIT,JAMMU AND KASHMIR,2478658
782,JAMMU AND KASHMIR BANK LIMITED,JAKA0SAADIQ,SADIQABAD,"NEAR G.P.O SAADIQABAD,K.P.ROAD",ANANTNAG,SAADIQABAD,JAMMU AND KASHMIR,223625
783,JAMMU AND KASHMIR BANK LIMITED,JAKA0SAALIA,SALIA,SAALIA,ANANTNAG,NEAR MASJID SHARIEF,JAMMU AND KASHMIR,9906609881
784,JAMMU AND KASHMIR BANK LIMITED,JAKA0SACRED,ZAINA KADAL SRINAGAR,ZAINA KADAL,SRINAGAR,ZAINA KADAL,JAMMU AND KASHMIR,2484414
785,JAMMU AND KASHMIR BANK LIMITED,JAKA0SADDAR,SADDAR BAZAR DELHI,2121/2122 BHADURGARH ROAD,DELHI,SADDAR BAZAR,DELHI,23683603
786,JAMMU AND KASHMIR BANK LIMITED,JAKA0SADERK,SADERKOTE BALA,"BLOCK-HAJIN, TEHSIL-SUMBAL, DISTRICT-BANDIPORA, KASHMIR, PIN-193502",BANDIPORA,BANDIPORA,JAMMU AND KASHMIR,9622805067
787,JAMMU AND KASHMIR BANK LIMITED,JAKA0SAFAPO,SAFAPORA,MAIN MARKET SAFAPORA,GANDERBAL,SAFAPORA GANDERBAL,JAMMU AND KASHMIR,215222
788,JAMMU AND KASHMIR BANK LIMITED,JAKA0SAFRON,PAMPORE,"DRANGBAL, PAMPORE",PULWAMA,"PAMPORE, PULWAMA",JAMMU AND KASHMIR,222202
789,JAMMU AND KASHMIR BANK LIMITED,JAKA0SAINIK,SAINIK COLONY,SAINIK COLONY PLOT NO 335 SECTOR E JAMMU JK PIN 180011,JAMMU,JAMMU,JAMMU AND KASHMIR,9419204895
790,JAMMU AND KASHMIR BANK LIMITED,JAKA0SAJRAJ,SAJ RAJOURI,TEHSIL-RAJOURI,RAJOURI,SAJ,JAMMU AND KASHMIR,9419130677
791,JAMMU AND KASHMIR BANK LIMITED,JAKA0SAJWAL,SAJWAL,"POST OFFICE-PARGWAL, TEHSIL-AKHNOOR",JAMMU,VILLAGE-SAJWAL,JAMMU AND KASHMIR,9469679760
792,JAMMU AND KASHMIR BANK LIMITED,JAKA0SAKHIE,ASHMUQAM,"J & K BANK, AUQAF BUILDING AISHMUQAM",ANANTNAG,ASHMUQAM,JAMMU AND KASHMIR,242272
793,JAMMU AND KASHMIR BANK LIMITED,JAKA0SAKHII,SAKHIMAIDAN,"TEHSIL-MENDHAR, DISTRICT-POONCH, J&K, PIN-185211",POONCH,MENDHAR,JAMMU AND KASHMIR,9697156900
794,JAMMU AND KASHMIR BANK LIMITED,JAKA0SALAMA,SALAMABAD URI,TEHISL-URI,BARAMULLA,SALAMABAD,JAMMU AND KASHMIR,9797903842
795,JAMMU AND KASHMIR BANK LIMITED,JAKA0SALHER,SALHER,"BUS ADDA SALHER VILLAGE,POST OFFICE SALHER,",JAMMU,SALHER JAMMU,JAMMU AND KASHMIR,247104
796,JAMMU AND KASHMIR BANK LIMITED,JAKA0SALIMR,SHALIMAR GARDEN GHAZIABAD,"PLOT NO.C18, SPACE NO.04, EXTENSION-2, SHALIMAR GARDEN, GHAZIABAD, UTTAR PRADESH-201005",GHAZIABAD,GHAZIABAD,UTTAR PRADESH,9906690555
797,JAMMU AND KASHMIR BANK LIMITED,JAKA0SALMAR,SHALIMAR,"NEAR SAKOON RESTURANT,MERAK ABAD",SRINAGAR,SHALIMAR,JAMMU AND KASHMIR,2463542
798,JAMMU AND KASHMIR BANK LIMITED,JAKA0SAMBHA,SAMBA (MAIN),BUS STAND,SAMBA,SAMBA,JAMMU AND KASHMIR,243211
799,JAMMU AND KASHMIR BANK LIMITED,JAKA0SAMBOR,SAMBOORA PULWAMA,"SAMBOORA , KAKPORA PULWAMA J AND K 192304",PULWAMA,PULWAMA,JAMMU AND KASHMIR,7006568296
800,JAMMU AND KASHMIR BANK LIMITED,JAKA0SAMOOR,SAMOOR,SUMOOR NOBRA LEH,LEH,"SAMOOR, LEH",JAMMU AND KASHMIR,223575
801,JAMMU AND KASHMIR BANK LIMITED,JAKA0SAMOTE,SAMOTE,"POST OFFICE-SURANKOTE , TEHSIL - SURANKOTE , DISTRICT - POONCH , PIN -185121",POONCH,SURANKOTE,JAMMU AND KASHMIR,8803160164
802,JAMMU AND KASHMIR BANK LIMITED,JAKA0SANGAL,SANGALDAN,SANGALDAN,RAMBAN,SANGALDAN,JAMMU AND KASHMIR,7298004763
803,JAMMU AND KASHMIR BANK LIMITED,JAKA0SANGAM,SANGAM,SANGAM,ANANTNAG,MAIN CHOWK NATIONAL HIGHWAY,JAMMU AND KASHMIR,9419026397
804,JAMMU AND KASHMIR BANK LIMITED,JAKA0SANGLA,SANGLA CHOWK,"POST OFFICE-MENDHAR, TEHSIL-MENDHAR, DISTRICT-POONCH, , PIN-185211",POONCH,MENDHAR,JAMMU AND KASHMIR,9596627746
805,JAMMU AND KASHMIR BANK LIMITED,JAKA0SANGUS,SHANGUS,"SHANGUS, NOWGAM",ANANTNAG,"SHANGUS, NOWGAM, ANANTNAG",JAMMU AND KASHMIR,292299
806,JAMMU AND KASHMIR BANK LIMITED,JAKA0SANJAY,SANJAY PALACE,"SHOPS NO 5,6,8 AND 10, BLOCK NO 38/4A,SANJAY PLACE COMMERCIAL COMPLEX,AGRA UP.",AGRA,AGRA,UTTAR PRADESH,5622850144
807,JAMMU AND KASHMIR BANK LIMITED,JAKA0SANKOO,SANKOO,MAIN BAZAAR SANKOO,KARGIL,"SANKOO, KARGIL",JAMMU AND KASHMIR,258014
808,JAMMU AND KASHMIR BANK LIMITED,JAKA0SANTAC,SANTA CRUZ WEST,SHOP NO 6 GROUND FLOOR KAMLA SPACES SV ROAD KHIRA NAGAR SANTA CRUZ W MUMBAI MAHARASHTRA 400054,GREATER MUMBAI,MUMBAI,MAHARASHTRA,26602820
809,JAMMU AND KASHMIR BANK LIMITED,JAKA0SARITA,SARITA VIHAR DELHI,"8-LSC, H-BLOCK MARKET",DELHI,SARITA VIHAR,DELHI,26971966
810,JAMMU AND KASHMIR BANK LIMITED,JAKA0SARTAL,SARTHAL(AGRAL),"BPO SARTHAL MANDIR,DISTRICT KISHTWAR JANDK",KISHTWAR,BPO SARTHAL MANDIR,JAMMU AND KASHMIR,9419155350
811,JAMMU AND KASHMIR BANK LIMITED,JAKA0SARWAL,SARWAL,SARWAL,JAMMU,MAIN CHOWK,JAMMU AND KASHMIR,9419237229
812,JAMMU AND KASHMIR BANK LIMITED,JAKA0SATHOO,UPPER SATHOO SRINAGAR,"UPPER SATHU, BARBARSHAH",SRINAGAR,UPPER SATHU,JAMMU AND KASHMIR,2478019
813,JAMMU AND KASHMIR BANK LIMITED,JAKA0SATHRA,SATHRA,"VILLAGE & POST OFFICE- SATHRA, TEHSIL-MANDI, DISTRICT-POONCH, J&K, PIN-185102",POONCH,MANDI,JAMMU AND KASHMIR,9697241403
814,JAMMU AND KASHMIR BANK LIMITED,JAKA0SATLIT,SATELLITE AHMEDABAD,"SHOP NO.108-113, SAMAAN COMPLEX,OPP.NALANDA, PREM CHAND NAGAR ROAD",AHMADABAD,SATTELLITE AHMADABAD,GUJARAT,26742573
815,JAMMU AND KASHMIR BANK LIMITED,JAKA0SATWAR,RAIPUR SATWARI,"RAIPUR SATWARI, NEAR GURUDWARA SAHIB, PO SATWARI,TEHSIL JAMMU, JAMMU AND KASHMIR PIN 180003",JAMMU,JAMMU,JAMMU AND KASHMIR,2227946
816,JAMMU AND KASHMIR BANK LIMITED,JAKA0SBOARD,LAL MANDI SRINAGAR,NEAR AGRICULTURAL COMPLEX,SRINAGAR,LAL MANDI,JAMMU AND KASHMIR,2310238
817,JAMMU AND KASHMIR BANK LIMITED,JAKA0SEABAD,SECUNDERABAD,"LPF HOUSE, R.P ROAD, SECUNDERABAD",HYDERABAD,RANIGUNJ. 5-3-338/3,ANDHRA PRADESH,9908847260
818,JAMMU AND KASHMIR BANK LIMITED,JAKA0SECBAN,MINI SECRETARIAT BANDIPORA,"D.C OFFICE COMPLEX, DISTRICT-BANDIPORA, KASHMIR, PIN-193502",BANDIPORA,BANDIPORA,JAMMU AND KASHMIR,9906712434
819,JAMMU AND KASHMIR BANK LIMITED,JAKA0SECTOR,CHANDIGARH,"THE JAMMU AND KASHMIR BANK LTD, SCO 803-804, SECTOR 22A,CHANDIGARH,PIN CODE 160022",CHANDIGARH,CHANDIGARH,CHANDIGARH,2776394
820,JAMMU AND KASHMIR BANK LIMITED,JAKA0SEDODA,SERI DODA,TEHSIL-BADERWAH,DODA,SERI,JAMMU AND KASHMIR,9419214320
821,JAMMU AND KASHMIR BANK LIMITED,JAKA0SEELOO,SEELO,SELOO,BARAMULLA,"SELOO, SOPORE KASHMIR",JAMMU AND KASHMIR,9906965488
822,JAMMU AND KASHMIR BANK LIMITED,JAKA0SEERIE,SERI,NOWSHERA,RAJOURI,NOWSHERA,JAMMU AND KASHMIR,230244
823,JAMMU AND KASHMIR BANK LIMITED,JAKA0SEXTEN,SOUTH EXTENSION DELHI,"E-9, SOUTH EXTENSION II",DELHI,SOUTH EX,DELHI,26262332
824,JAMMU AND KASHMIR BANK LIMITED,JAKA0SHADIM,SHADIMARG,PULWAMA,PULWAMA,"SHADIMARG, PULWAMA",JAMMU AND KASHMIR,278288
825,JAMMU AND KASHMIR BANK LIMITED,JAKA0SHADPR,SHADIPORA,"VILLAGE-SHADIPORA, DISRICT-BANDIPORA, JK, PIN-193502",BANDIPORA,BANDIPORA,JAMMU AND KASHMIR,9469035436
826,JAMMU AND KASHMIR BANK LIMITED,JAKA0SHADRA,NAVIN SHADRA DELHI,"BABARPUR ROAD, ROHTAS NAGAR",DELHI,NAVNEEN SHADRA,DELHI,22321305
827,JAMMU AND KASHMIR BANK LIMITED,JAKA0SHADSH,SHAHDRA SHARIEF,"THANNAMANDI, RAJOURI,PIN-185212",RAJOURI,RAJOURI,JAMMU AND KASHMIR,9796240331
828,JAMMU AND KASHMIR BANK LIMITED,JAKA0SHAKTI,SHAKTI NAGAR UDHAMPUR,SHAKTI NAGAR UDAMPHUR,UDHAMPUR,SHAKTI NAGAR,JAMMU AND KASHMIR,7298004625
829,JAMMU AND KASHMIR BANK LIMITED,JAKA0SHANKE,SHANKERPORA,"SHANKERPORA , PO DIALGAM, ANANTNAG , JK PIN 192213",ANANTNAG,DIALGAM,JAMMU AND KASHMIR,9906910286
830,JAMMU AND KASHMIR BANK LIMITED,JAKA0SHARAN,SAHARANPUR,UNIT 1 PARNEVOT PLAZA COURT ROAD,SAHARANPUR,SAHARANPUR,UTTAR PRADESH,2711517
831,JAMMU AND KASHMIR BANK LIMITED,JAKA0SHARIF,PATNA,HAROON NAGAR PHULWARI SHARIEF,PATNA,PATNA,BIHAR,2555450
832,JAMMU AND KASHMIR BANK LIMITED,JAKA0SHEERI,SHEERI,MAIN BAZAAR SHEERI SHEERINABAD,BARAMULLA,SHEERI BARAMULLA,JAMMU AND KASHMIR,9906602729
833,JAMMU AND KASHMIR BANK LIMITED,JAKA0SHELEH,SHEY,BLOCK CHUCHOT├╜JK PIN 194104,LEH,LEH,JAMMU AND KASHMIR,9906991898
834,JAMMU AND KASHMIR BANK LIMITED,JAKA0SHERRA,SHERABAD,SHERABAD PATTAN,BARAMULLA,"SHERABAD,PATTAN",JAMMU AND KASHMIR,7298004086
835,JAMMU AND KASHMIR BANK LIMITED,JAKA0SHGUND,SHAHGUND,SHAHGUND SONAWARI BANDIPORA 193501,BANDIPORA,BANDIPORA,JAMMU AND KASHMIR,9070808092
836,JAMMU AND KASHMIR BANK LIMITED,JAKA0SHIMLA,SHIMLA,15 THE MALL,SHIMLA,SHIMLA,HIMACHAL PRADESH,2657790
837,JAMMU AND KASHMIR BANK LIMITED,JAKA0SHIRAZ,KHANYAR SRINAGAR,NEAR SHIRAZ CINEMA,SRINAGAR,KHANYAR,JAMMU AND KASHMIR,2458969
838,JAMMU AND KASHMIR BANK LIMITED,JAKA0SHIVJI,SHIV NAGAR UDHAMPUR,"SHIVNAGAR,NATIONAL HIGHWAY 1A,",UDHAMPUR,"SHIVNAGAR,UDHAMPUR",JAMMU AND KASHMIR,7298004689
839,JAMMU AND KASHMIR BANK LIMITED,JAKA0SHIVNG,"SHIV NAGAR, DHARBADAN","SHIV NAGAR, POST OFFICE SHIV NAGAR, THAKRAI, KISHTWAR, PIN182205",KISHTWAR,KISHTWAR,JAMMU AND KASHMIR,9906177528
840,JAMMU AND KASHMIR BANK LIMITED,JAKA0SHOOLI,SHOOLIPORA,"SHOOLIPORA,DISTRICT BUDGAM PIN 191111",BUDGAM,SHOOLIPORA,JAMMU AND KASHMIR,9419007245
841,JAMMU AND KASHMIR BANK LIMITED,JAKA0SHOPAN,SHOPIAN (MAIN),NEAR TAK MASJID,SHOPIAN,SHOPIAN MAIN,JAMMU AND KASHMIR,260008
842,JAMMU AND KASHMIR BANK LIMITED,JAKA0SHRINE,TULMULLAH,TULMULLA GANDERBAL,GANDERBAL,TULMULLA,JAMMU AND KASHMIR,2416523
843,JAMMU AND KASHMIR BANK LIMITED,JAKA0SHSTRI,SHASTRI NAGAR JAMMU,"371-372 TREASURY PREMISES,",JAMMU,E/C SHASTRI NAGAR,JAMMU AND KASHMIR,2435691
844,JAMMU AND KASHMIR BANK LIMITED,JAKA0SHUHAM,SHUHAMA ALUSTENG,"SHUHAMA ALUSTENG, SRINAGAR, JK PIN 190006",SRINAGAR,SRINAGAR,JAMMU AND KASHMIR,2262012
845,JAMMU AND KASHMIR BANK LIMITED,JAKA0SIDHRA,SIDHRA JAMMU,BYPASS SIDHRA JAMMU,JAMMU,SIDHRA,JAMMU AND KASHMIR,2662254
846,JAMMU AND KASHMIR BANK LIMITED,JAKA0SILIGM,SILIGAM,PAHALGAM ROAD,ANANTNAG,MAIN MARKET SILIGAM,JAMMU AND KASHMIR,9797942786
847,JAMMU AND KASHMIR BANK LIMITED,JAKA0SILVER,CHANDNI CHOWK DELHI,"384-390, LOK NATH BUILDING",DELHI,CHANDNI CHOWK,DELHI,23923936
848,JAMMU AND KASHMIR BANK LIMITED,JAKA0SIMPLE,HIRA NAGAR MORH,HIRANAGAR MORH,KATHUA,HIRANAGAR MORH KATHUA,JAMMU AND KASHMIR,1922
849,JAMMU AND KASHMIR BANK LIMITED,JAKA0SIMTRA,SOIMOH TRAL,NEAR SINGH SABHA GURDWARA,PULWAMA,SOIMOH TRAL,JAMMU AND KASHMIR,9419022251
850,JAMMU AND KASHMIR BANK LIMITED,JAKA0SINGPO,SINGHPORA PATTAN,SINGHPORA PATTAN BARAM,BARAMULLA,"SINGHPORA,BARAMULLA",JAMMU AND KASHMIR,7298004603
851,JAMMU AND KASHMIR BANK LIMITED,JAKA0SIRHAM,SIRHAMA,"SIRHAMA DISTRICT ANANTNAG,J AND K PIN CODE 192401",ANANTNAG,SIRHAMA,JAMMU AND KASHMIR,9858408215
852,JAMMU AND KASHMIR BANK LIMITED,JAKA0SKADAL,SAIDA KADAL,"SAIDA KADAL MAIN CHOWK, SRINAGAR, KASHMIR JK PIN 190003",SRINAGAR,SRINAGAR,JAMMU AND KASHMIR,9018779779
853,JAMMU AND KASHMIR BANK LIMITED,JAKA0SKALZA,SKALZANGLING,AIRPORT ROAD SKALZANGING,LEH,SKALZANGING LEH,JAMMU AND KASHMIR,253118
854,JAMMU AND KASHMIR BANK LIMITED,JAKA0SKANIL,SEER HAMDAN,ANANTNAG,ANANTNAG,SEER HAMDAN,JAMMU AND KASHMIR,9797284849
855,JAMMU AND KASHMIR BANK LIMITED,JAKA0SKBRIG,SHERI-KASHMIR BRIDGE,"SHERI KASHMIR BRIDGE,DISTRICT POONCH,PIN CODE 185101",POONCH,SHER-I-KASHMIR BRIDGE,JAMMU AND KASHMIR,9797005799
856,JAMMU AND KASHMIR BANK LIMITED,JAKA0SKETCH,ZONAL OFFICE MUMBAI,NATIONAL BUSINESS CENTRE BANDRA KURLA COMPLEX BANDRA EAST MUMBAI MAHARASHTRA 400051,MUMBAI,MUMBAI,MAHARASHTRA,26384126
857,JAMMU AND KASHMIR BANK LIMITED,JAKA0SKIMSS,SKIMSS SRINAGAR,"SKIMS, SOURA",SRINAGAR,SKIMS,JAMMU AND KASHMIR,2403548
858,JAMMU AND KASHMIR BANK LIMITED,JAKA0SKUAST,SKUAST SRINAGAR,SKUAST SHALIMAR,SRINAGAR,SKUAST,JAMMU AND KASHMIR,2462078
859,JAMMU AND KASHMIR BANK LIMITED,JAKA0SMBAGH,SHALIMAR BAGH DELHI,"U&V, DDA MARKET, IST FLOOR, BLOCK-B,OPP.RBI STAFF COLONY, SHALIMAR BAGH",DELHI,SHALIMAR BAGH,DELHI,27488364
860,JAMMU AND KASHMIR BANK LIMITED,JAKA0SMOOTH,MAGAM  HANDWARA,MAIN CHOWK MAGAM,KUPWARA,"MAGAM, HANDWARA",JAMMU AND KASHMIR,7298004574
861,JAMMU AND KASHMIR BANK LIMITED,JAKA0SMVDUN,MATA VAISHNO DEVI UNIVERSITY KAKRIYAL,KAKARYAL PANTHAL ROAD,REASI,MATA VAISHNU DEVI UNIVERSITY,JAMMU AND KASHMIR,285730
862,JAMMU AND KASHMIR BANK LIMITED,JAKA0SNMLEH,SNM HOSPITAL LEH,"OPPOSITE SNM HOSPITAL LEH,DISTRICT LEH,J AND K PIN 194101",LEH,OPPOSITE SNM HOSPITAL,JAMMU AND KASHMIR,9419218657
863,JAMMU AND KASHMIR BANK LIMITED,JAKA0SOGAAM,SOGAM,SOGAAM LOLAB KUPWARA,KUPWARA,SOGAM KUPWARA,JAMMU AND KASHMIR,233224
864,JAMMU AND KASHMIR BANK LIMITED,JAKA0SOHAAL,SOHAL,"SOHAL, AKHNOOR",JAMMU,SOHAL,JAMMU AND KASHMIR,241057
865,JAMMU AND KASHMIR BANK LIMITED,JAKA0SOIBUG,SOIBUGH,"SOIBUGH,DISTRICT,BUDGAM,JANDK PIN 191111",BUDGAM,"SOIBUGH, BUDGAM",JAMMU AND KASHMIR,7298004366
866,JAMMU AND KASHMIR BANK LIMITED,JAKA0SOLAAN,SOLAN,"BHASIN COMPLEX, RAJGARH ROAD, SOLAN (HIMACHAL PRADESH)-173212",SOLAN,SOLAN,HIMACHAL PRADESH,9419663440
867,JAMMU AND KASHMIR BANK LIMITED,JAKA0SOLINA,SOLINA,SILK FACTORY ROAD,SRINAGAR,SOLINA,JAMMU AND KASHMIR,2433251
868,JAMMU AND KASHMIR BANK LIMITED,JAKA0SONIUM,SONIUM,"SONIUM,DISTRICT BARAMULLA,BLOCK KUNZER,KASHMIR,PIN 193404",BARAMULLA,SONIM,JAMMU AND KASHMIR,9697421012
869,JAMMU AND KASHMIR BANK LIMITED,JAKA0SONWAR,SONWAR SRINAGAR,OPP. AMAR SINGH CLUB,SRINAGAR,SONWAR,JAMMU AND KASHMIR,2501348
870,JAMMU AND KASHMIR BANK LIMITED,JAKA0SOORAT,SURAT,"SUPETEX TOWER, NEAR KINNERY CINEMA,RING ROAD, SURAT",SURAT,SURAT,GUJARAT,2325657
871,JAMMU AND KASHMIR BANK LIMITED,JAKA0SOOURA,SOURA SRINAGAR,"OPP BUS STOP, SOURA",SRINAGAR,SOURA,JAMMU AND KASHMIR,2406626
872,JAMMU AND KASHMIR BANK LIMITED,JAKA0SOPORE,SOPORE TOWN,"SOPORE,DISTRICT BARAMULLA,PIN CODE 193201",BARAMULLA,SOPORE,JAMMU AND KASHMIR,9906609881
873,JAMMU AND KASHMIR BANK LIMITED,JAKA0SPRING,TANGMARG,NEAR JAMIA MASJID TANGMARG,BARAMULLA,TANGMARG BARAMULLA,JAMMU AND KASHMIR,7298004580
874,JAMMU AND KASHMIR BANK LIMITED,JAKA0SQUARE,AMIRA KADAL SRINAGAR,"NEAR KMD BUS STAND, AMIRA KADAL",SRINAGAR,AMIRA KADAL,JAMMU AND KASHMIR,2481701
875,JAMMU AND KASHMIR BANK LIMITED,JAKA0SRIGUP,SRIGUPHWARA,TEHSIL BIJBEHARA SRIGUPWARA,ANANTNAG,SRIGUPWARA ANANTNAG,JAMMU AND KASHMIR,979779946
876,JAMMU AND KASHMIR BANK LIMITED,JAKA0SSISGR,SSI LAL CHOWK SRINAGR,NEAR GANTA GHAR,SRINAGAR,SSI LALCHOWK,JAMMU AND KASHMIR,2459279
877,JAMMU AND KASHMIR BANK LIMITED,JAKA0STREET,HARI SINGH  HIGH STREET SRINAGAR,HARI SINGH HIGH STREET,SRINAGAR,HARI SINGH HIGH STREET,JAMMU AND KASHMIR,2474760
878,JAMMU AND KASHMIR BANK LIMITED,JAKA0SUMBAL,SUMBAL,TEHSIL SUMBAL SONAWARI,BANDIPORA,SUMBAL SONAWARI,JAMMU AND KASHMIR,230224
879,JAMMU AND KASHMIR BANK LIMITED,JAKA0SUMERB,SUMERBUGH,"SUMERBUGH LASJAN, BUDGAM, KASHMIR, JK PIN 191101",BADGAM,LASJAN,JAMMU AND KASHMIR,9858449537
880,JAMMU AND KASHMIR BANK LIMITED,JAKA0SUNDER,SUNDER BANI,"MAIN MARKET ,SUNDERBANI",RAJOURI,SUNDERBANI,JAMMU AND KASHMIR,234435
881,JAMMU AND KASHMIR BANK LIMITED,JAKA0SURAAS,SURASYAR,CHADORA,BUDGAM,SURASYAR,JAMMU AND KASHMIR,9858948028
882,JAMMU AND KASHMIR BANK LIMITED,JAKA0SURARA,SURARA,"VPO SURARA,DIST SAMBA PIN CODE 184141",SAMBA,VPO SURARA,JAMMU AND KASHMIR,9906268998
883,JAMMU AND KASHMIR BANK LIMITED,JAKA0SURRAN,SURANKOTE,TEH. SURANKOTE,POONCH,SURAN KOTE POONCH,JAMMU AND KASHMIR,230040
884,JAMMU AND KASHMIR BANK LIMITED,JAKA0SWITCH,ATM SWITCH DEPARTMENT CHQ,"HRD, CORPORATE HEADQUARTERS, M A ROAD",SRINAGAR,SRINAGAR,JAMMU AND KASHMIR,2481958
885,JAMMU AND KASHMIR BANK LIMITED,JAKA0TAHAAB,TAHAB,TAHAB,PULWAMA,MAIN MARKET,JAMMU AND KASHMIR,9797772851
886,JAMMU AND KASHMIR BANK LIMITED,JAKA0TANDWA,TANDWAL,"POST OFFICE-TANDWAL TEHSIL & DISTRICT - RAJOURI , PIN - 185131",RAJOURI,RAJOURI,JAMMU AND KASHMIR,9906171639
887,JAMMU AND KASHMIR BANK LIMITED,JAKA0TANGAN,KHAITANGAN,"KHAITANGAN,DISTRICT BARAMULLA,PIN CODE 193101",BARAMULLA,KHAITANGAN,JAMMU AND KASHMIR,9906460177
888,JAMMU AND KASHMIR BANK LIMITED,JAKA0TANKEE,TANKIPORA SRINAGAR,DC OFFICE COMPLEX,SRINAGAR,TANKIPORA,JAMMU AND KASHMIR,2472294
889,JAMMU AND KASHMIR BANK LIMITED,JAKA0TARATH,TARATHPORA,"TARATHPORA,DISTRICT KUPWARA,BLOCK RAMHAL,KASHMIR,J AND K PIN 193224",KUPWARA,TARAT PORA,JAMMU AND KASHMIR,0
890,JAMMU AND KASHMIR BANK LIMITED,JAKA0TARGET,CHANDNAGAR JAMMU,"SANT MARKET, JEWEL CHOWK",JAMMU,CHAND NAGAR,JAMMU AND KASHMIR,2579583
891,JAMMU AND KASHMIR BANK LIMITED,JAKA0TARIGA,TARIGAM,"BLOCK QAIMOH, DISTRICT KULGAM, KASHMIR, PIN- 192232",KULGAM,KULGAM,JAMMU AND KASHMIR,9906645399
892,JAMMU AND KASHMIR BANK LIMITED,JAKA0TARZUA,TARZUA,"J&K BANK, TARZUA SOPORE",BARAMULLA,TARZUA SOPORE,JAMMU AND KASHMIR,7298004593
893,JAMMU AND KASHMIR BANK LIMITED,JAKA0TCHNAI,T NAGAR CHENNAI,"60-RAINBOW ARCHAD,FIRTHEAGARAYA ROAD,PONDY BAZAR",CHENNAI,T-NAGAR CHENNAI,TAMIL NADU,24313851
894,JAMMU AND KASHMIR BANK LIMITED,JAKA0TEELWA,TEELWANI,NEAR JAMIA MASJID,ANANTNAG,TEELWANI,JAMMU AND KASHMIR,9596140100
895,JAMMU AND KASHMIR BANK LIMITED,JAKA0TEHSIL,T P BARAMULLA,"TASHKANT CHOWK, BARAMULLA",BARAMULLA,T P BARAMULLA,JAMMU AND KASHMIR,7298004559
896,JAMMU AND KASHMIR BANK LIMITED,JAKA0TEMGAM,TEMISGAM,BLOCK-KHALTSI,LEH,VILLAGE-TEMISGAM,JAMMU AND KASHMIR,9419814477
897,JAMMU AND KASHMIR BANK LIMITED,JAKA0TEMPLE,MAJITH MANDI AMRITSAR,NEAR TUNDA TALAB,AMRITSAR,M.M.AMRITSAR,PUNJAB,2556925
898,JAMMU AND KASHMIR BANK LIMITED,JAKA0TENGAL,SARTINGAL,"VIILAGE SARTINGAL,TEHSIL BADERWAH",DODA,"SARTINGAL, TEHSIL BHAD",JAMMU AND KASHMIR,7298004744
899,JAMMU AND KASHMIR BANK LIMITED,JAKA0TETHAR,TETHAR,NATIONAL HIGHWAY,RAMBAN,IDDGAH ROAD,JAMMU AND KASHMIR,9419175655
900,JAMMU AND KASHMIR BANK LIMITED,JAKA0THANAM,THANA MANDI,MAIN BAZAR THANA MANDI,RAJOURI,THANA MANDI RAJOURI,JAMMU AND KASHMIR,251038
901,JAMMU AND KASHMIR BANK LIMITED,JAKA0THATRI,THATRI,"THATRI, DODA, JAMMU",DODA,"THATRI, DODA",JAMMU AND KASHMIR,7298004632
902,JAMMU AND KASHMIR BANK LIMITED,JAKA0TIKENB,TIKEN BATAPORA,"TIKEN, BATAPORA, PULWAMA, KASHMIR PIN-192301",PULWAMA,PULWAMA,JAMMU AND KASHMIR,7006617503
903,JAMMU AND KASHMIR BANK LIMITED,JAKA0TIKRIE,TIKRI,J&K BANK  B/U TIKRI UDHAMPUR,UDHAMPUR,TIKRIE,JAMMU AND KASHMIR,7298004699
904,JAMMU AND KASHMIR BANK LIMITED,JAKA0TIYARI,TIYARI KISHTWAR,TIYARI TEHSIL PADDAR KISHTWAR 182204,KISHTWAR,KISHTWAR,JAMMU AND KASHMIR,9469564297
905,JAMMU AND KASHMIR BANK LIMITED,JAKA0TNGDAR,TANGDAR,KUPWARA,KUPWARA,TANGDAR,JAMMU AND KASHMIR,245230
906,JAMMU AND KASHMIR BANK LIMITED,JAKA0TNHALL,TOWN HALL JAMMU,TOWN HALL,JAMMU,TOWN HALL,JAMMU AND KASHMIR,2546609
907,JAMMU AND KASHMIR BANK LIMITED,JAKA0TOKUNA,"TOKUNA, PULWAMA","GULZARPORA, TOKUNA, PULWAMA, KASHMIR PIN-192124",PULWAMA,PULWAMA,JAMMU AND KASHMIR,9906859940
908,JAMMU AND KASHMIR BANK LIMITED,JAKA0TOLMAR,OLD JANIPUR TALIMOR JAMMU,"OLD JANIPUR,TALIMOR",JAMMU,JANIPUR,JAMMU AND KASHMIR,2532327
909,JAMMU AND KASHMIR BANK LIMITED,JAKA0TOOTAN,TOTAN DI KHUI JAMMU,"TOTAN DI KHUI,P.O BAIN BAJALTA",JAMMU,"TOTAN DI KHUI,JAMMU",JAMMU AND KASHMIR,2130088
910,JAMMU AND KASHMIR BANK LIMITED,JAKA0TOPSHR,TOP SHERKHANIAN JAMMU,"TOPH SHERKHANIA,SUBHASH NAGAR",JAMMU,TOPH SHERKHANIA JAMMU,JAMMU AND KASHMIR,2580578
911,JAMMU AND KASHMIR BANK LIMITED,JAKA0TPBAND,T P BANDIPUR,OPP SPORTS STADIUM TEHSIL PREMISES,BANDIPORA,TP BANDIOORA,JAMMU AND KASHMIR,226319
912,JAMMU AND KASHMIR BANK LIMITED,JAKA0TPKGAM,T P KULGAM,CENTRAL MARKET KULGAM,KULGAM,KULGAM CENTRAL,JAMMU AND KASHMIR,0
913,JAMMU AND KASHMIR BANK LIMITED,JAKA0TPURAM,THIRUVANANTHAPURAM,"T.C NO.28/2222(4),M.G ROAD",THIRUVANANTHAPURAM,THIRUVANANTHAPURAM,KERALA,2468337
914,JAMMU AND KASHMIR BANK LIMITED,JAKA0TRCSGR,TRC SRINAGR,"TRC, EXTENSION, OPPOSITE SBI BANK,RAJBAGH",SRINAGAR,TRC SRINAGAR,JAMMU AND KASHMIR,2450012
915,JAMMU AND KASHMIR BANK LIMITED,JAKA0TRENZZ,TRENZ,OPPOSITE JAMIA MASJID,SHOPIAN,TRENZ,JAMMU AND KASHMIR,0
916,JAMMU AND KASHMIR BANK LIMITED,JAKA0TRHGAM,TREHGAM,KUPWARA,KUPWARA,TREHGAM,JAMMU AND KASHMIR,244644
917,JAMMU AND KASHMIR BANK LIMITED,JAKA0TRIKOT,TRIKUTA NAGAR JAMMU,"KRISHNA COMPLEX,SECTOR 3-EXT.",JAMMU,TRIKUTA NAGAR JAMMU,JAMMU AND KASHMIR,2472718
918,JAMMU AND KASHMIR BANK LIMITED,JAKA0TRINAG,MARBLE MARKET,"MARBLE MARKET, TRIKURA NAGAR, JAMMU, JK, PIN 180020",JAMMU,JAMMU,JAMMU AND KASHMIR,9469370050
919,JAMMU AND KASHMIR BANK LIMITED,JAKA0TRSPON,TRESPONE,TRESPONE KARGIL,KARGIL,TRESPONE KARGIL,JAMMU AND KASHMIR,9469221477
920,JAMMU AND KASHMIR BANK LIMITED,JAKA0TRUSTE,T P SOPORE,NEAR POLICE STATION,BARAMULLA,T.P.SOPORE,JAMMU AND KASHMIR,7298004450
921,JAMMU AND KASHMIR BANK LIMITED,JAKA0TSUROO,TAI-SURU,"TSURU KARGIL,J AND K",KARGIL,TSURU KARGIL,JAMMU AND KASHMIR,259075
922,JAMMU AND KASHMIR BANK LIMITED,JAKA0TTALAB,TIRATH NAGAR JAMMU,"OPPOSITE TREASURY,TALAB TILLO",JAMMU,TIRATH NAGAR JAMMU,JAMMU AND KASHMIR,2554984
923,JAMMU AND KASHMIR BANK LIMITED,JAKA0TTALOO,TALAB TILLO JAMMU,TALAB TILLOO,JAMMU,TALAB TILLO,JAMMU AND KASHMIR,2505294
924,JAMMU AND KASHMIR BANK LIMITED,JAKA0TTILOO,TALAB TILLO,JAMMU AND KASHMIR BANK LTD  TALAB TILLO JAMMU 180002,JAMMU,JAMMU,JAMMU AND KASHMIR,0
925,JAMMU AND KASHMIR BANK LIMITED,JAKA0TUJJAR,TUJJAR SHARIEF,SOPORE,BARAMULLA,TUJJAR SHARIEF,JAMMU AND KASHMIR,9419003586
926,JAMMU AND KASHMIR BANK LIMITED,JAKA0TULAIL,BADUGAM TULAIL,TEHSIL GUREZ,BANDIPORA,BADUGAM TULAIL,JAMMU AND KASHMIR,9469785996
927,JAMMU AND KASHMIR BANK LIMITED,JAKA0TUMHAL,TUMLAHAL PULWAMA,"TUMLAHAL, PULWAMA, KASHMIR PIN-192301",PULWAMA,PULWAMA,JAMMU AND KASHMIR,8826006551
928,JAMMU AND KASHMIR BANK LIMITED,JAKA0TUNNEL,BANIHAL,"DIST, RAMBAN",RAMBAN,BANIHAL,JAMMU AND KASHMIR,255044
929,JAMMU AND KASHMIR BANK LIMITED,JAKA0TURKWN,TURKWANGAN,NEAR NEW SUMO STAND,SHOPIAN,"TURKWANGAN , SHOPIAN",JAMMU AND KASHMIR,9797505666
930,JAMMU AND KASHMIR BANK LIMITED,JAKA0TURTUK,TURTUK,BLOCK-DISTIK,LEH,VILLAGE-TURTUK,JAMMU AND KASHMIR,949300747
931,JAMMU AND KASHMIR BANK LIMITED,JAKA0UCIVIL,URI CIVIL,GINGLE POST OFFICE MOHURA,BARAMULLA,URI CIVIL,JAMMU AND KASHMIR,9419052228
932,JAMMU AND KASHMIR BANK LIMITED,JAKA0UDHWAL,UDHEYWALA,UDHEYWALA DISTRICT JAMMU PIN CODE 180018,JAMMU,UDHEYWALA,JAMMU AND KASHMIR,2555766
933,JAMMU AND KASHMIR BANK LIMITED,JAKA0UDMPUR,UDHAMPUR (MAIN),"MAIN BRANCH, COURT PREMISES",UDHAMPUR,UDHAMPUR MAIN,JAMMU AND KASHMIR,7298004703
934,JAMMU AND KASHMIR BANK LIMITED,JAKA0UDRANA,UDRANA,TEHSIL BADERWAH,DODA,UDRANA,JAMMU AND KASHMIR,9419831993
935,JAMMU AND KASHMIR BANK LIMITED,JAKA0UKHRAL,PANCHAL UKHRAL,BLOCK RAMSOO TEHSIL BANIHAL,RAMBAN,PANCHAL UKHRAL,JAMMU AND KASHMIR,7298004743
936,JAMMU AND KASHMIR BANK LIMITED,JAKA0UNITED,ZONAL OFFICE KASHMIR CENTRAL,M A ROAD SRINAGAR JAMMU AND KASHMIR 190001,SRINAGAR,SRINAGAR,JAMMU AND KASHMIR,2471402
937,JAMMU AND KASHMIR BANK LIMITED,JAKA0UPSHEE,UPSHI LEH,MAIN MARKET UPSHI JAMMU AND KASHMIR PIN 194201,LEH,LEH,JAMMU AND KASHMIR,9419214248
938,JAMMU AND KASHMIR BANK LIMITED,JAKA0USHKAR,USHKARA,"USHKURA,DISTRICT BARAMULLA,J AND K PIN CODE 193103",BARAMULLA,USHKURA,JAMMU AND KASHMIR,9906600605
939,JAMMU AND KASHMIR BANK LIMITED,JAKA0VAILOO,VAILOO,"VAILOO,DISTRICT ANANTNAG,JANDK",ANANTNAG,VAILOO,JAMMU AND KASHMIR,9906593049
940,JAMMU AND KASHMIR BANK LIMITED,JAKA0VARNAS,VARANASI,"D 427-49, NEAR MEHMOOD MARKET",VARANASI,VARANASI,UTTAR PRADESH,2451552
941,JAMMU AND KASHMIR BANK LIMITED,JAKA0VARSUA,VERSOVA MUMBAI,"15/24, SAMARTH VAIBHAV, NEW LINK ROAD,ANDHERI WEST",MUMBAI,VERSUA,MAHARASHTRA,66931093
942,JAMMU AND KASHMIR BANK LIMITED,JAKA0VASANT,VASANT VIHAR DELHI,"63-D,BASANT LOK",DELHI,"VASANT VIHAR, NEW DELHI",DELHI,26154058
943,JAMMU AND KASHMIR BANK LIMITED,JAKA0VASHEE,VASHI  MUMBAI,"A1/1 GROMA BUILDING, PLOT NO 140,SECTOR 19, VASHI, NAI MUMBAI THANA",GREATER BOMBAY,VASHI,MAHARASHTRA,27354517
944,JAMMU AND KASHMIR BANK LIMITED,JAKA0VASHNO,VAISHNO DEVI,KATTRA,REASI,B.U.VAISHNO DEVI,JAMMU AND KASHMIR,282228
945,JAMMU AND KASHMIR BANK LIMITED,JAKA0VEERII,VEERI,"BLOCK &TEHSIL - BIJBEHARA, DISTRICT- ANANTNAG, J&K PIN-192124",ANANTNAG,ANANTNAG,JAMMU AND KASHMIR,9469125020
946,JAMMU AND KASHMIR BANK LIMITED,JAKA0VEHEEL,VEHIL,VEHIL,SHOPIAN,MAIN CHOWK,JAMMU AND KASHMIR,9797903334
947,JAMMU AND KASHMIR BANK LIMITED,JAKA0VERNAG,VERINAG,"VERINAG, ANANTNAG",ANANTNAG,"VERINAG, ANANTNAG",JAMMU AND KASHMIR,213020
948,JAMMU AND KASHMIR BANK LIMITED,JAKA0VESSOO,VESSU,VESSU,ANANTNAG,JAMMU-SRINAGAR HIGHWAY,JAMMU AND KASHMIR,9419573553
949,JAMMU AND KASHMIR BANK LIMITED,JAKA0VIJAYP,VIJAYPUR KOTHEY,POST OFFICE-VIJAYPUR,SAMBA,"VIJAYPUR KOTHEI, RAMGARH ROAD",JAMMU AND KASHMIR,9419142952
950,JAMMU AND KASHMIR BANK LIMITED,JAKA0VIJJAY,VIJAYPUR,RAILWAY ROAD VIJAYPUR,SAMBA,VIJAYPUR,JAMMU AND KASHMIR,231029
951,JAMMU AND KASHMIR BANK LIMITED,JAKA0VIKAAS,VIKAS MARG DELHI,36-DEFENCE ENCLAVE,DELHI,VIKAS MARG,DELHI,22467499
952,JAMMU AND KASHMIR BANK LIMITED,JAKA0VILGAM,VILGAM,"VILGAM, TEHSIL HANDWAR",KUPWARA,VILGAM KUPWARA,JAMMU AND KASHMIR,7298004456
953,JAMMU AND KASHMIR BANK LIMITED,JAKA0WACHII,WACHI,"NEAR ZIYARAT SHAH HAMDAN WACHI,DISTRICT SHOPIAN,J AND K PIN 192305",SHOPIAN,NEAR ZIYARAT SHAREEF SHAHI-HAMDAN WACHI,JAMMU AND KASHMIR,9419051994
954,JAMMU AND KASHMIR BANK LIMITED,JAKA0WADURA,WADURA,"SKUAST WADOORA, SOPORE, J&K-193201",BARAMULLA,WADURA,JAMMU AND KASHMIR,9697522827
955,JAMMU AND KASHMIR BANK LIMITED,JAKA0WADWAN,WADWAN(INSHAN),"WADWANINSHAN0 DISTRICT KISHTWAR,J AND K",KISHTWAR,KISHTWAR,JAMMU AND KASHMIR,0
956,JAMMU AND KASHMIR BANK LIMITED,JAKA0WAGORA,WAGOORA,NEAR MAIN MARKET,BARAMULLA,WAGOORA,JAMMU AND KASHMIR,257187
957,JAMMU AND KASHMIR BANK LIMITED,JAKA0WAHBUG,WAHIBUGH PULWAMA,"WAHIBUG, PULWAMA J AND K 192301",PULWAMA,PULWAMA,JAMMU AND KASHMIR,9906400039
958,JAMMU AND KASHMIR BANK LIMITED,JAKA0WALWAR,WALIWAR,"WALIWAR,DISTRICT GANDERBAL,J AND K",GANDERBAL,WALIWAR,JAMMU AND KASHMIR,9906805000
959,JAMMU AND KASHMIR BANK LIMITED,JAKA0WANDAL,WANDEVELGAM,"Wandevelgam,Distrcit Anantnag,J AND K Pin code 192202",ANANTNAG,WANDEVALGAM,JAMMU AND KASHMIR,9906616669
960,JAMMU AND KASHMIR BANK LIMITED,JAKA0WANGAT,WANGAT,TEHSIL-KANGAN,GANDERBAL,WANGAT,JAMMU AND KASHMIR,9906609593
961,JAMMU AND KASHMIR BANK LIMITED,JAKA0WANPOH,WANPOH,"WANPOH, ANANTNAG",ANANTNAG,WANPOH,JAMMU AND KASHMIR,222965
962,JAMMU AND KASHMIR BANK LIMITED,JAKA0WASHBG,"WASHBUG, PULWAMA","TAHAB ROAD, NEAR GIRLS HIGHER SECONDARY SCHOOL, WASHBUGH, PULWAMA, J&K-192301",PULWAMA,PULWAMA,JAMMU AND KASHMIR,7006650238
963,JAMMU AND KASHMIR BANK LIMITED,JAKA0WATHAL,WATERHAL,OPP. JAMIA MASJID WATERHAL,BUDGAM,MAIN MARKET,JAMMU AND KASHMIR,9419009459
964,JAMMU AND KASHMIR BANK LIMITED,JAKA0WATHAR,WATHOORA,"MAIN CHOWK WATHOORA,DISTRICT BUDGAM,J AND K PIN 191113",BUDGAM,MAIN CHOWK WATHOORA,JAMMU AND KASHMIR,9419061844
965,JAMMU AND KASHMIR BANK LIMITED,JAKA0WATLAR,LAAR,MAIN MARKET,GANDERBAL,"LAR , GANDERBAL",JAMMU AND KASHMIR,2419700
966,JAMMU AND KASHMIR BANK LIMITED,JAKA0WAWOOR,WAVOORA,BLOCK WAWOORA TEHSIL KUPWARA,KUPWARA,WAWOORA KUPWARA,JAMMU AND KASHMIR,7298004497
967,JAMMU AND KASHMIR BANK LIMITED,JAKA0WOORLI,BKC BRANCH,"1ST FLOOR, BANDRA KURLA COMPLEX, BANDRA (EAST)",GREATER BOMBAY,NATIONAL BUSINESS CENTRE,MAHARASHTRA,26384220
968,JAMMU AND KASHMIR BANK LIMITED,JAKA0WTRGAM,WATERGAM,ROHAMA,BARAMULLA,"WATERGAM, ROHAMA BARAM",JAMMU AND KASHMIR,7298004497
969,JAMMU AND KASHMIR BANK LIMITED,JAKA0WULLAR,BANDIPORA,BANDIPORA MAIN,BANDIPORA,BANDIPORA MAIN,JAMMU AND KASHMIR,7298004506
970,JAMMU AND KASHMIR BANK LIMITED,JAKA0WUYANN,WUYAN,"WUYAN BLOCK TEHSIL - PAMPORE , DISTRICT - PULWAMA , PIN - 191102",PULWAMA,PAMPORE,JAMMU AND KASHMIR,9086027404
971,JAMMU AND KASHMIR BANK LIMITED,JAKA0YAMUNA,YAMUNA NAGAR,"38-39, SHIVAJI PARK, NEHRU PARK ROAD, NEAR MELA SINGH CHOWK, MODEL TOWN, YAMUNA NAGAR, HARYANA-135001",YAMUNA NAGAR,YAMUNANAGAR,HARYANA,260198
972,JAMMU AND KASHMIR BANK LIMITED,JAKA0YARPUR,YARIPORA,"YARIPORA,KULGAM ANANTNAG J AND K",KULGAM,YARIPORA,JAMMU AND KASHMIR,9697883131
973,JAMMU AND KASHMIR BANK LIMITED,JAKA0YOUNUS,YOUNUS WAHIPORA,TEHSIL-HANDWARA,KUPWARA,YOUNUS WOHIPORA,JAMMU AND KASHMIR,9596396682
974,JAMMU AND KASHMIR BANK LIMITED,JAKA0ZAAKIR,ZAKIR NAGAR,"OPP. MCD SCHOOL, ZAKIR NAGAR",DELHI,"A-29, BATLA HOUSE",DELHI,9871096315
975,JAMMU AND KASHMIR BANK LIMITED,JAKA0ZABLIP,ZABLIPORA,BIJBEHARA DISTRICT ANANTNAG,ANANTNAG,"ZABLIPORA, BIJBEHARA",JAMMU AND KASHMIR,234280
976,JAMMU AND KASHMIR BANK LIMITED,JAKA0ZACHAL,ZACHALDARA,HANDWARA,KUPWARA,ZACHALDARA,JAMMU AND KASHMIR,9906801321
977,JAMMU AND KASHMIR BANK LIMITED,JAKA0ZAKURA,ZAKURA,ZAKURA,SRINAGAR,ZAKURA,JAMMU AND KASHMIR,2427461
978,JAMMU AND KASHMIR BANK LIMITED,JAKA0ZALDAG,ZALDAGAR SRINAGAR,ZALDAGAR,SRINAGAR,ZALDAGAR,JAMMU AND KASHMIR,2504442
979,JAMMU AND KASHMIR BANK LIMITED,JAKA0ZAMPAA,ZAMPA,ZAMPAA LEH,LEH,ZAMPAA LEH,JAMMU AND KASHMIR,265526
980,JAMMU AND KASHMIR BANK LIMITED,JAKA0ZANKOT,ZAINAKOTE SRINAGAR,NEAR HMT WATCH FACTORY,SRINAGAR,ZAINAKOT,JAMMU AND KASHMIR,2496239
981,JAMMU AND KASHMIR BANK LIMITED,JAKA0ZANPUR,ZAINPURA,ZAINAPORA SHOPIAN,SHOPIAN,ZAINAPORA,JAMMU AND KASHMIR,264338
982,JAMMU AND KASHMIR BANK LIMITED,JAKA0ZEERAK,ZIRAKPUR,"JKBANK, SCF 4-5 , TULIP PLAZA, GF , ADJOINING SAVITRY TOWERS , VIP ROAD , LOHGARH , ZIRAKPUR , PUNJAB-140603.",SAHIBZADA AJIT SINGH NAGAR,SAHIBZADA AJIT SINGH NAGAR,PUNJAB,9814799191
983,JAMMU AND KASHMIR BANK LIMITED,JAKA0ZOBANG,ZONAL OFFICE (SOUTH) BANGALORE,"4TH FLOOR, PRESTIGE TERRACES, 5/1 UNION STREET, OFF INFANTRY ROAD",BANGALORE,BANGLORE,KARNATAKA,22860016
984,JAMMU AND KASHMIR BANK LIMITED,JAKA0ZOBARA,ZONAL OFFICE BARAMULLA,AMARGARH SOPORE NEAR RAILWAY BRIDGE BARAMULLA JAMMU AND KASHMIR 193201,BARAMULLA,SOPORE,JAMMU AND KASHMIR,7298004421
985,JAMMU AND KASHMIR BANK LIMITED,JAKA0ZOJNOR,ZONAL OFFICE JAMMU NORTH TWO,ADASRH COLONY UDHAMPUR 182101,UDHAMPUR,UDHAMPUR,JAMMU AND KASHMIR,7298004751
986,JAMMU AND KASHMIR BANK LIMITED,JAKA0ZOJTWO,ZONAL OFFICE JAMMU CENTRAL TWO,NEAR FOREST PROTECTION FORCE OFFICE NATIONAL HIGHWAY HATLI MORH KATHUA 184102,KATHUA,KATHUA,JAMMU AND KASHMIR,9858241992
987,JAMMU AND KASHMIR BANK LIMITED,JAKA0ZOKSOU,ZONAL OFFICE KASHMIR SOUTH TWO,INDUSTRIAL AREA BAKSHIABAD BEHIND GPO ANANTNAG 192101,ANANTNAG,ANANTNAG,JAMMU AND KASHMIR,227340
988,JAMMU AND KASHMIR BANK LIMITED,JAKA0ZOKTWO,ZONAL OFFICE KASHMIR CENTRAL TWO,NH-1A BEMINA SRINAGAR (NEAR SKIMS MEDICAL COLLEGE) 190018,SRINAGAR,SRINAGAR,JAMMU AND KASHMIR,7298004300
989,JAMMU AND KASHMIR BANK LIMITED,JAKA0ZOONIE,ZOONIMAR SRINAGAR,SAIDAPORA ZOONIMAR,SRINAGAR,ZOONIMAR,JAMMU AND KASHMIR,2424556
990,JAMMU AND KASHMIR BANK LIMITED,JAKA0ZOPULL,ZONAL OFFICE SOUTH PULWAMA,NEAR SSP OFFICE PULWAMA JAMMU AND KASHMIR 192301,PULWAMA,PULWAMA,JAMMU AND KASHMIR,242226
991,JAMMU AND KASHMIR BANK LIMITED,JAKA0ZORAJO,ZONAL OFFICE JAMMU WEST RAJOURI,MAIN BAZAR RAJOURI OPPOSITE THESIL OFFICE RAJOURI JAMMU AND KASHMIR 185131,RAJOURI,RAJOURI,JAMMU AND KASHMIR,262454
992,JAMMU AND KASHMIR BANK LIMITED,JAKA0ZOUDAM,ZONAL OFFICE JAMMU NORTH DODA,KHAN PLAZA DAG BUG DODA JAMMU AND KASHMIR 182202,DODA,DODA,JAMMU AND KASHMIR,233589
