,BANK NAME,IFSC,OFFICE,ADDRESS,DISTRICT,CITY,STATE,PHONE
0,LAXMI VILAS BANK,LAVB0000101,CHENNAI ZO,"189,IST FLOOR,AARTHI CHAMBERS, ANNASALAI,CHENNAI 600 006 TAMILNADU",CHENNAI,CHENNAI,TAMIL NADU,0
1,LAXMI VILAS BANK,LAVB0000102,ACCOUNTS DEPT,"ADMINISTRATIVE OFFICE,NO2,SALEM MAIN ROAD,KATHAPARAI,KARUR 639006",KARUR,KARUR,TAMIL NADU,0
2,LAXMI VILAS BANK,LAVB0000103,ADONI,12 BY 510 MUNICIPAL MAIN ROAD P B NO 17ADONI 518301KARNOOL DT A P,KURNOOL,ADONI,ANDHRA PRADESH,252427
3,LAXMI VILAS BANK,LAVB0000104,AMBUR,"NO 87, BROAD BAZAARP B NO 35 AMBUR635802 VELLORE",VELLORE,AMBUR,TAMIL NADU,242126
4,LAXMI VILAS BANK,LAVB0000105,ANBIL,"2 BY 237,MAIN ROAD MANGAMMALPURAM,ANBIL 621 702,TRICHY DT,",TIRUCHIRAPALLI,LALGUDI,TAMIL NADU,2541287
5,LAXMI VILAS BANK,LAVB0000106,ARAKANDANALLUR,"138, KAMARAJ ROAD ARAKANDANALLUR 605 752 VILLUPURAM",VILLUPURAM,ARAKANDANALR,TAMIL NADU,224244
6,LAXMI VILAS BANK,LAVB0000107,ARANTANGI,"61, TALUK OFFICE ROAD, ARANTANGI 614 616 PUDUKKOTTAI DT , TAMIL NADU",PUDUKKOTTAI,ARANTANGI,TAMIL NADU,220571
7,LAXMI VILAS BANK,LAVB0000108,ARIYALUR,"17 D, VILANGARA STREETP B NO 1 ARIYALUR 621 704 PERAMBALUR DT ,TAMIL N",VILLUPURAM,ARIYALUR,TAMIL NADU,222040
8,LAXMI VILAS BANK,LAVB0000109,ARNI,"M C COMPLEX THATCHUR ROAD P B NO 20ARNI 632 301 VELLORE DT , TAMIL NA",TIRUVANNAMALAI,ARNI,TAMIL NADU,226018
9,LAXMI VILAS BANK,LAVB0000110,ATTUR,"339 L FIRST FLOOR RANIPET, P B NO 19 CUDDALORE, MAIN ROAD ATTUR 636 10",SALEM,ATTUR,TAMIL NADU,2240731
10,LAXMI VILAS BANK,LAVB0000111,AVALPOONDURAI,"47 A, FIRST FLOOR EASWARAN KOIL STREET P B NO 20 AVALPOONDURAI 638 115",ERODE,AVALPOONDURAI,TAMIL NADU,2331260
11,LAXMI VILAS BANK,LAVB0000112,ALATHUR,R S NO 143 BY 5 B 1MAIN ROAD ALATHUR 614901 THANJAVUR,THANJAVUR,ALATHUR,TAMIL NADU,226011
12,LAXMI VILAS BANK,LAVB0000113,AMBILIKKAI,"4 BY 295, DHARAPURAM ROAD AMBILIKKAI 624 612 DINDIGUL DT , TAMIL NADU",DINDIGUL,AMBILIKKAI,TAMIL NADU,249010
13,LAXMI VILAS BANK,LAVB0000114,AHMADABAD,I FLOOR NAVRANGPURA AHMEDABAD 380 014 GUJARAT,AHMADABAD,AHMEDABAD,GUJARAT,26430787
14,LAXMI VILAS BANK,LAVB0000115,ANAND,KAPASIA BAZAAR P B NO 155 NEAR ASHOK STHUMBH ANAND 388 001 KHEDA DT,ANAND,ANAND,GUJARAT,244239
15,LAXMI VILAS BANK,LAVB0000116,AMBAGARATHUR,"67, MAIN ROAD AMBAGARATHUR 609 601PONDICHERRY",KARAIKAL,AMBAGARATHUR,PUDUCHERRY,252800
16,LAXMI VILAS BANK,LAVB0000117,ADILABAD,"3229 BY 25,B,CANDD,NATIONAL HIGHWAY,ADILABAD504 001ANDHRAPRADESH",ADILABAD,ADILABAD,ANDHRA PRADESH,232606
17,LAXMI VILAS BANK,LAVB0000118,ANANTHAPUR,"15 BY 284,SAILOX COMPLEX,KAMALA NAGAR,ANANTHAPUR515 001ANDHRA PRADESH",ANANTAPUR,ANANTAPUR,ANDHRA PRADESH,274477
18,LAXMI VILAS BANK,LAVB0000119,AYOTHIAPATTINAM,"68 B,HARUR MAIN ROAD,AYOTHIAPATTINAM,636 103 SALEM DT,TAMIL NADU",SALEM,AYODHYAPATINAM,TAMIL NADU,2290052
19,LAXMI VILAS BANK,LAVB0000120,ASIFABAD,"NO.6 58 BY 10,BESIDE CHAITANYA DEGREE  COLLEGE,MAIN ROAD,ASIFABAD 504",ADILABAD,ASIFABAD,ANDHRA PRADESH,868288
20,LAXMI VILAS BANK,LAVB0000121,SIGN BRN AMEERPET,SHOW ROOM NO2 ADITYA TRADE CENTRE AMEERPET HYDERABAD 500038,HYDERABAD,AMEERPET,ANDHRA PRADESH,23734333
21,LAXMI VILAS BANK,LAVB0000122,ANGALAKUDURU,9 DASH 15 DASH 1 NEAR J H J COLLEGEANGALAKUDURU TENALI,GUNTUR,ANGALAKUDURU TENALI,ANDHRA PRADESH,233033
22,LAXMI VILAS BANK,LAVB0000123,ANNA NAGAR,DOOR NO HIG 38 80 FEET ROADANNA NAGAR,MADURAI,MADURAI,TAMIL NADU,0
23,LAXMI VILAS BANK,LAVB0000124,ARASAPPAPILLAIPATTI,ARASAPPAPILLAIPATTI ARASAPPAPILLAIPATTI POST ODDANCHATRAM TALUK,DINDIGUL,ODDANCHATRAM,TAMIL NADU,240289
24,LAXMI VILAS BANK,LAVB0000125,NEW ALIPUR KOLKATA II,"63,NALINI RANJAN AVENUE,NEW ALIPUR,KOLKATA 700 053",KOLKATA,KOLKATA,WEST BENGAL,4820900
25,LAXMI VILAS BANK,LAVB0000126,AMALAPURAM,"GULLEGUDAM BYEPASS ROAD, AMALAPURAM",AMALAPURAM,AMALAPURAM,ANDHRA PRADESH,0
26,LAXMI VILAS BANK,LAVB0000127,ANAKAPALLE,"D NO 11-1-35 MAIN ROAD, ANAKAPALLE, ANAKAPALLE DIST",VIZAG,HYDERABAD,ANDHRA PRADESH,0
27,LAXMI VILAS BANK,LAVB0000128,ANANTHAVARAPPADU,"D NO 1-86,BUDAMPADU ROAD, ANANTHAVARAPPADU,VATTICHERUKURU",GUNTUR,ANANTHAVARAPPADU,ANDHRA PRADESH,0
28,LAXMI VILAS BANK,LAVB0000129,ANNUR,"NO 25G & 25G2 AVINASHI ROAD, ANNUR,COIMBATORE DIST",COIMBATORE,COIMBATORE,TAMIL NADU,0
29,LAXMI VILAS BANK,LAVB0000130,ALAPPUZHA,"26/262 K,CITY CENTER BUILDING, PALACE ROAD,GH JUNCTION,ALAPPUZHA",ALAPPUZHA,ALAPPUZHA,KERALA,0
30,LAXMI VILAS BANK,LAVB0000131,AMBATTUR,"NO 17A,OLD TOWNSHIP ROAD,AMBATTUR OT,CHENNAI-600058",CHENNAI,CHENNAI,TAMIL NADU,0
31,LAXMI VILAS BANK,LAVB0000132,ASHTA,"KANNOD ROAD,OPP TO MUKATI PETROL BUNK",ASHTA,ASHTA,MADHYA PRADESH,0
32,LAXMI VILAS BANK,LAVB0000133,ARUPPUKOTTAI,NO 130 B THIRUCHULI ROAD ARUPPUKOTTAI VIRUDHUNAGAR,VIRUDHUNAGAR,VIRUDHUNAGAR,TAMIL NADU,0
33,LAXMI VILAS BANK,LAVB0000134,AMMAPET,NO 431 A TVK ROAD AMMAPET SALEM,SALEM,SALEM,TAMIL NADU,0
34,LAXMI VILAS BANK,LAVB0000135,ADAMBAKKAM,OLD NO 9 NEW NO 26 MAHALAKSHMI NAGAR 2ND MAIN ROAD ADAMBAKKAM CHENNAI 600088,KANCHEEPURAM,CHENNAI,TAMIL NADU,0
35,LAXMI VILAS BANK,LAVB0000136,A S RAO NAGAR,NO 1-1-262/5 A S RAO NAGAR ECIL HYDERABAD TELANGANA 500062,HYDERABAD,HYDERABAD,TELANGANA,0
36,LAXMI VILAS BANK,LAVB0000137,AMBASAMUDRAM,14 NETTAPULI NORTH STREET AMBASAMUDRAM 627401,TIRUNELVELI,TIRUNELVELI,TAMIL NADU,0
37,LAXMI VILAS BANK,LAVB0000138,ASHOK VIHAR,C 3 118 ASHOK VIHAR PHASE 2 NEW DELHI 110052,NEW DELHI,DELHI,DELHI,0
38,LAXMI VILAS BANK,LAVB0000139,ALWAL,NO 1 56 PLOT NO 25 LOYOLA COLLEGE ROAD OLD ALWAL SECUNDERABAD TELANGANA 500010,SECUNDERABAD,SECUNDERABAD,TELANGANA,0
39,LAXMI VILAS BANK,LAVB0000140,ATHVELLY,NO 3 72 A ATHVELLY MEDCHAL TELANGANA 501401,MEDCHAL,ATHVELLY,TELANGANA,0
40,LAXMI VILAS BANK,LAVB0000141,BHUPALPALLE,NO 17 315 17 316 JAWAHAR NAGAR COLONY,JAYASHANKAR,BHULPALPALLE,TELANGANA,7097525955
41,LAXMI VILAS BANK,LAVB0000142,BANNERGHATTA,NO 108 7 BG ROAD DORESANIPALAYA BANNERGHATTA MAIN ROAD AREKERE BENGALURU 560076,BENGALURU,BENGALURU,KARNATAKA,0
42,LAXMI VILAS BANK,LAVB0000143,BIBIKULAM,56 A PT RAJAN MAIN ROAD NARIMEDU,MADURAI,MADURAI,TAMIL NADU,0
43,LAXMI VILAS BANK,LAVB0000144,BASAWESHWARA NAGAR,NO 27 80 FEET ROAD KHB COLONY BASAWESHWARA NAGAR BANGALORE KARNATAKA 560079,BANGALORE,BANGALORE,KARNATAKA,0
44,LAXMI VILAS BANK,LAVB0000145,BODINAYAKANUR,NO 4 JEEVA COMPLEX DEVARAM ROAD BODINAYAKANUR THENI 625513,THENI,THENI,TAMIL NADU,0
45,LAXMI VILAS BANK,LAVB0000146,BOISAR,NO 384 EKTA ENCLAVE NAVAPUR NAKA BOISAR MAHARASHTRA 401501,PALGHAR,BOISAR,MAHARASHTRA,0
46,LAXMI VILAS BANK,LAVB0000147,BHARUCH,NO 30 SILVER SQUARE LINK ROAD BHARUCH GUJARAT,BHARUCH,BHARUCH,GUJARAT,0
47,LAXMI VILAS BANK,LAVB0000148,BHAVANIPURAM,NO 76 8 SWATHI THEATRE CENTRE KRAMBAZ ROAD BHAVANIPURAM VIJAYAWADA,KRISHNA,VIJAYAWADA,ANDHRA PRADESH,0
48,LAXMI VILAS BANK,LAVB0000149,BODUPPAL,NO 14 EAST HANUMAN NAGAR BODUPPAL MAIN ROAD GHATKESAR MANDAL RANGA REDDY HYDERABAD,RANGAREDDY,HYDERABAD,TELANGANA,0
49,LAXMI VILAS BANK,LAVB0000150,BHOPAL,"KWALITY BUSINESS CENTER, PLOT NO 7, ZONE II",BHOPAL,BHOPAL,MADHYA PRADESH,0
50,LAXMI VILAS BANK,LAVB0000151,BOMMANAHALLI,"NO 62/1,BOMMANAHALLI INDUSTRIAL AREA,KODICHIKKANAHALLI, BEGUR",BANGALORE,BANGALORE,KARNATAKA,0
51,LAXMI VILAS BANK,LAVB0000152,BTM LAYOUT,"NO 281,7TH MAIN,MICO EHBCOS LAYOUT,BTM II STAGE,BANGALORE 560 076",BANGALORE RURAL,BANGALORE,KARNATAKA,0
52,LAXMI VILAS BANK,LAVB0000153,BANJARA HILLS,"PLOT NO 2,8 2 682,BY B BY 2A,ROAD NUMBER 12,BANJARA HILLS,HYDERABAD 500 034",HYDERABAD,HYDERABAD,ANDHRA PRADESH,23734333
53,LAXMI VILAS BANK,LAVB0000154,BELGAUM,"10669,NEHRU NAGAR,MAIN ROAD,BELGAUM 590 010",BELGAUM,BELGAUM,KARNATAKA,0
54,LAXMI VILAS BANK,LAVB0000155,BASAVANGUDI,R S R BUILDING NO 70GANDHI BAZAAR MAIN ROAD,BANGALORE URBAN,BANGALORE,KARNATAKA,26620338
55,LAXMI VILAS BANK,LAVB0000156,BANGARPET,MASJID ROAD ADJACENT TO TALUK OFFICE,KOLAR,BANGARPET,KARNATAKA,255591
56,LAXMI VILAS BANK,LAVB0000157,BATLAGUNDU,14 DASH 13 DASH 16 BY 1RAJAMANI SERVAIBUILDING MELAMANDHAI,DINDIGUL,BATLAGUNDU,TAMIL NADU,262636
57,LAXMI VILAS BANK,LAVB0000158,BARGUR,"KRISHNAGIRI MAIN ROAD,OPP TO LIC,NEAR SANJEEVI THEATRE,BARGUR  635108,",KRISHNAGIRI,BARGUR,TAMIL NADU,265242
58,LAXMI VILAS BANK,LAVB0000159,BHILWARA,"SHOP NO3 AND 4,BHANDARI PLAZA,OPPNAGARPARISHAD,BHILWARA311001RAJASTHAN",BHILWARA,BHILWARA,RAJASTHAN,9351967771
59,LAXMI VILAS BANK,LAVB0000160,BHUBANESHWAR,"PLOT NO622B,JANPATH,SAHEED NAGAR,BHUBANESHWAR 751 007,ORISSA",KHURDA,BHUBANESWAR,ODISHA,9338362236
60,LAXMI VILAS BANK,LAVB0000161,BANGALORE MAIN,"19 B, 1ST FLOOR P B NO 9568 BVK IYENGAR ROAD NEAR ABHINAY THEATRE BANG",BANGALORE URBAN,BANGALORE,KARNATAKA,22118537
61,LAXMI VILAS BANK,LAVB0000162,CANTONMENT BANGALORE,"141 BY 1, 1ST FLOOR DHARMARAJA KOILSTREET CANTONMENT BANGALORE 560 00",BANGALORE URBAN,BANGALORE,KARNATAKA,22865433
62,LAXMI VILAS BANK,LAVB0000163,JAYANAGAR BANGALORE,"460 BY 2, 8TH B MAIN ROAD, PTK COMPLEX IVTH BLOCK, JAYANAGAR BANGALORE",BANGALORE URBAN,BANGALORE,KARNATAKA,26645152
63,LAXMI VILAS BANK,LAVB0000164,CITY MARKET BANGALOR,"1091, OTC ROAD NAGARATHPET, CITY MARKET BANGALORE 560 002 KARNATAKA",BANGALORE URBAN,BANGALORE,KARNATAKA,22226917
64,LAXMI VILAS BANK,LAVB0000165,ULSOOR BANGALORE,"153, OLD MADRAS ROAD P B NO 819 ULSOOR BANGALORE 560 008 KARNATAKA",BANGALORE URBAN,BANGALORE,KARNATAKA,25300371
65,LAXMI VILAS BANK,LAVB0000166,JALAHALLI BANGALORE,"907, M E S ROAD MATHIKERE, P O 1STFLOOR SREE COMPLEX, JALAHALLI BANGA",BANGALORE URBAN,BANGALORE,KARNATAKA,23451836
66,LAXMI VILAS BANK,LAVB0000167,KORAMANGALA BANGALOR,"68, KORAMANGALA IND LAYOUT 5TH BLOCK, KORAMANGALA BANGALORE 560 095",BANGALORE URBAN,BANGALORE,KARNATAKA,25630749
67,LAXMI VILAS BANK,LAVB0000168,BHIMAVARAM,"NO.2717 BY 6,J.P.RAOD,BHIMAVARAM,WEST GODAVARI DT.534 202",WEST GODAVARI,BHIMAVARAM,ANDHRA PRADESH,225299
68,LAXMI VILAS BANK,LAVB0000169,CITY MARKET EXTENSIO,STANNS EDUCATIONAL SOCIETY 73840 DRRAJKUMAR ROAD RAJAJI NAGARBAN,BANGALORE URBAN,BANGALORE,KARNATAKA,22226917
69,LAXMI VILAS BANK,LAVB0000170,BHUVANAGIRI,"16, MOHAMADIYAR STREET BHUVANAGIRIMAIN ROAD,BHUVANAGIRI 608 601 CUDDA",CUDDALORE,BHUVANAGIRI,TAMIL NADU,241379
70,LAXMI VILAS BANK,LAVB0000171,BELLARY,"16, 1ST FLOOR, AMBLI BAGH CROSS, PB NO 59 BANGALORE ROADBELLARY 583 1",BELLARY,BELLARY,KARNATAKA,273704
71,LAXMI VILAS BANK,LAVB0000172,BALASAMUDRAM,"8 BY 5 D1 AND 8 BY 5 EI MAIN ROAD,1ST FLOOR BALASAMUDRAM 621 203 TRIC",TIRUCHIRAPALLI,BALASAMUDRAM,TAMIL NADU,254353
72,LAXMI VILAS BANK,LAVB0000173,BAGALKOT,D NO 32 AND 33 MELLIGERI TOWERS D BLOCK RAILWAY STATION ROAD BAGALKOT KARNATAKA 587101,BAGALKOT,BAGALKOT,KARNATAKA,0
73,LAXMI VILAS BANK,LAVB0000174,MUMBAI FORT,64 V B GANDHI MARG  KALAGODA FORT MUMBAI 400001,GREATER BOMBAY,MUMBAI,MAHARASHTRA,22672255
74,LAXMI VILAS BANK,LAVB0000175,MATUNGA MUMBAI,4 BY 209 B P B NO 26603 MATUNGA EAST MUMBAI 400 019GREAT MUMBAI DT MAH,GREATER BOMBAY,MUMBAI,MAHARASHTRA,24070417
75,LAXMI VILAS BANK,LAVB0000176,ANDHERI MUMBAI,SWAPNA SADAN P B NO 18708 ANDHERI EAST MUMBAI 400 069,GREATER BOMBAY,MUMBAI,MAHARASHTRA,26844262
76,LAXMI VILAS BANK,LAVB0000177,VASHI  MUMBAI,SHOPNO 12 13  14  SHIRIN APARTMENTSPLOTNO. 15 SECTORNO 29 VASHI NAVI,GREATER BOMBAY,MUMBAI,MAHARASHTRA,27662533
77,LAXMI VILAS BANK,LAVB0000178,BORIVILI MUMBAI,SHOPNO 8 KAPOOR APARTMENTS CHANDAVARKAR ROAD BORIVLI,GREATER BOMBAY,MUMBAI,MAHARASHTRA,28908783
78,LAXMI VILAS BANK,LAVB0000179,GHATKOPAR MUMBAI,SHOPNO 3 AND 4 SIDDHI APARTMENTS OPP GURUKHUL SCHOOL TILAK ROAD GHATKO,GREATER BOMBAY,MUMBAI,MAHARASHTRA,25163010
79,LAXMI VILAS BANK,LAVB0000180,BANASHANKARI,NO 2465 24TH CROSSBANASHNAKARI II STAGE WARD NO 56,BANGALORE URBAN,BANGALORE,KARNATAKA,26717001
80,LAXMI VILAS BANK,LAVB0000181,CALICUT KOZHIKODE,9 562 KHADEEJA BUILDINGS 1ST FLOORP B NO 188 CHEROOTY ROAD KOZHIKODE,KOZHIKODE,CALICUT,KERALA,2366268
81,LAXMI VILAS BANK,LAVB0000182,CHINNADARAPURAM,10 182 MAIN ROAD CHINNADHARAPURAM 639 202 KARUR DT TAMIL NADU,KARUR,CHINNADHARAPUR,TAMIL NADU,232247
82,LAXMI VILAS BANK,LAVB0000183,CHITTODE,"117, BHAVANI MAIN ROAD P B NO 1 CHITTODE 638 102 ERODE",ERODE,CHITTODE,TAMIL NADU,2533288
83,LAXMI VILAS BANK,LAVB0000184,CHITTOOR,"11 446, O T K ROAD P B NO 44 CHITTOOR 517 001 ANDHRA PRADESH",CHITTOOR,CHITTOOR,ANDHRA PRADESH,232182
84,LAXMI VILAS BANK,LAVB0000185,COIMBATORE MAIN,"COIMBATORE,68 OPPANAKKARA STREET GROUND FLOOR NEXT TO GIRLS SCHOOL COI",COIMBATORE,COIMBATORE,TAMIL NADU,2397439
85,LAXMI VILAS BANK,LAVB0000186,GANAPATHY COIMBATORE,GOPAL BUILDING 1157 SATHY ROAD NEART N BUS STOP GANAPATHY COIMBATORE,COIMBATORE,COIMBATORE,TAMIL NADU,2331983
86,LAXMI VILAS BANK,LAVB0000187,GANDHIPURAM COIMBATO,KLG COMPLEX 226 1ST FLOOR 5TH STREET GANDHIPURAM COIMBATORE 641 012,COIMBATORE,COIMBATORE,TAMIL NADU,2232123
87,LAXMI VILAS BANK,LAVB0000188,KOVAIPUDUR COIMBATOR,T 25 P B NO 2 KOVAIPUDUR COIMBATORE641 042 TAMIL NADU,COIMBATORE,COIMBATORE,TAMIL NADU,2607542
88,LAXMI VILAS BANK,LAVB0000189,RAMANATHAPURAM,RN MALLIGA COMPLEX 750 A TRICHY ROAD 1ST FLOOR RAMANATHAPURAM COIMBATO,COIMBATORE,COIMBATORE,TAMIL NADU,2313584
89,LAXMI VILAS BANK,LAVB0000190,R S PURAM COIMBATORE,121 THIRUVENKATAM ROAD WEST R S PURAM COIMBATORE 641002 TAMILNADU,COIMBATORE,COIMBATORE,TAMIL NADU,2543482
90,LAXMI VILAS BANK,LAVB0000191,UPPILIPALAYAM COIMBA,NO 1 HEAD QUARTERS ROAD 1ST FLOOR UPPILIPALAYAM COIMBATORE 641 018 TAM,COIMBATORE,COIMBATORE,TAMIL NADU,2300630
91,LAXMI VILAS BANK,LAVB0000192,KOUNDAMPALAYAM,"SITE NO.4, GANDHI NAGAR, METTUPALAYAM ROAD, KOUNDAMPALAYAM,COIMBATORE",COIMBATORE,COIMBATORE,TAMIL NADU,2448540
92,LAXMI VILAS BANK,LAVB0000193,EACHANARY,"226E, POLLACHI MAIN ROAD, ECHANARI,UPPLIPALAYAM 641021 COIMBATORE DT.",COIMBATORE,EACHANARY,TAMIL NADU,2676027
93,LAXMI VILAS BANK,LAVB0000194,KOVAIPUDUR EXTENSION,"SRI KRISHNA COLLEGE OF ENGINEERINGAND TECHNOLOGY, SUGUNAPURAM,KUNIAMU",COIMBATORE,COIMBATORE,TAMIL NADU,0
94,LAXMI VILAS BANK,LAVB0000195,ECHANARI EXTENSION C,"THE KARPAGAM COLLEGE OF ENGINEERING,MYLERIPALAYAM,POLLACHI MAIN ROAD,E",COIMBATORE,COIMBATORE,TAMIL NADU,2619292
95,LAXMI VILAS BANK,LAVB0000196,C G NAGAR MADURAI,"D NO 70,MEENA COMPLEX,CHANDRA GANDHI NAGAR,BYE PASS ROAD,MADURAI 16",MADURAI,MADURAI,TAMIL NADU,0
96,LAXMI VILAS BANK,LAVB0000201,COCHIN ERNAKULAM,XXXIX 818CHITTOOR ROAD KARTHIKA 1STFLOOR ERANAKULAM COCHIN 682 016,ERNAKULAM,KOCHI,KERALA,2376578
97,LAXMI VILAS BANK,LAVB0000202,CUDDALORE,"23, VEDA VINAYAGAR COMPLEX LAWRENCEROAD, 1ST FLOOR CUDDALORE 607 002",CUDDALORE,CUDDALORE,TAMIL NADU,235943
98,LAXMI VILAS BANK,LAVB0000203,CUMBUM,"64 65, VELAPPAR KOIL STREET 1ST FLOOR, P B NO 5 CUMBUM 625 516 THENI",THENI,CUMBUM,TAMIL NADU,271320
99,LAXMI VILAS BANK,LAVB0000204,KOLKATTA,3 RED CROSS PLACE P B NO 2050 KOLKATA 700 001 WEST BENGAL,KOLKATA,KOLKATA,WEST BENGAL,22480287
100,LAXMI VILAS BANK,LAVB0000205,CHITRADURGA,S R E COMPLEX HEAD POST OFFICE ROADP B NO 63 CHITRADURGA 577 501,CHITRADURGA,CHITRADURGA,KARNATAKA,223561
101,LAXMI VILAS BANK,LAVB0000206,CUDDAPAH,"D.NO: 5 526,527 OLD,TRUNK ROAD,  CUDDAPPAH 516001",CUDDAPAH,CUDDAPAH,ANDHRA PRADESH,244918
102,LAXMI VILAS BANK,LAVB0000207,CHEMBUR,RUNWAL CLASSIC PLOT NO 257 NEARDIAMOND GARDEN CHEMBUR EAST MUMBAI,GREATER BOMBAY,EAST MUMBAI,MAHARASHTRA,25261188
103,LAXMI VILAS BANK,LAVB0000208,CHENGALPET,"NO 37 BY 1,EKAMBARANAR STREET,VEDHACHALAM NAGAR,CHENGALPET",KANCHEEPURAM,CHENGALPATTU,TAMIL NADU,222091
104,LAXMI VILAS BANK,LAVB0000209,CHANDIGARH,SCO 316 SECTOR 40 D CHANDIGARH PUNJAB 160036,CHANDIGARH,CHANDIGARH,PUNJAB,0
105,LAXMI VILAS BANK,LAVB0000210,CHELLAPILLAIKUTTAI,LAND ADJACENT TO NO 4 363 MALLAGOUNDANOOR OMALUR TALUK,SALEM,CHELLAPILLAIKUTTAI POST,TAMIL NADU,0
106,LAXMI VILAS BANK,LAVB0000211,CHROMPET,"PLOT NO 17,CLC WORKS ROAD, NAGAPPA NAGAR,CHROMPET,CHENNAI-600044",CHENNAI,CHENNAI,TAMIL NADU,0
107,LAXMI VILAS BANK,LAVB0000212,CUTTACK,"GROUND FLOOR, KAILASH PLAZA, LINK ROAD",CUTTACK,CUTTACK,ODISHA,0
108,LAXMI VILAS BANK,LAVB0000213,CHANNARAYAPATNA,659 616 PRABHATH COMPLEX BM ROAD CHANNARAYAPATNA HASSAN,HASSAN,HASSAN,KARNATAKA,0
109,LAXMI VILAS BANK,LAVB0000214,CHALAKUDY,CHEMBANS BUILDING D NO X 478A NORTH BUS STAND JUNCTION MAIN ROAD CHALAKUDY THRISSUR KERALA 680307,THRISSUR,THRISSUR,KERALA,0
110,LAXMI VILAS BANK,LAVB0000215,CHIDAMBARAM,NO 39 NORTH CAR STREET CHIDAMBARAM CUDDALORE 608001,CUDDALORE,CHIDAMBARAM,TAMIL NADU,0
111,LAXMI VILAS BANK,LAVB0000216,CHIKBALLAPUR,NO 1128 950 10 VENKATESWARA COMPLEX LAKSHMAYYA LAYOUT,CHIKBALLAPUR,CHIKBALLAPUR,KARNATAKA,0
112,LAXMI VILAS BANK,LAVB0000217,CHEYYAR,D.NO. 23/2 KASIKARA STREET BARITHIPURAM,TIRUVANNAMALAI,CHEYYAR,TAMIL NADU,0
113,LAXMI VILAS BANK,LAVB0000220,DHAMTARI,"DOOR NO 10, OPPOSITE TO MAHAVIR DHARMASTALA, RAIPUR ROAD,DHAMTARI",MUMBAI,MUMBAI,MAHARASHTRA,0
114,LAXMI VILAS BANK,LAVB0000221,DHARMAPURI,"88 C D, BYE PASS ROAD DHARMAPURI 636 701 TAMIL NADU",DHARMAPURI,DHARMAPURI,TAMIL NADU,260843
115,LAXMI VILAS BANK,LAVB0000222,DINDIGUL,"P N TOWERS, 47 BY 2 1ST FLOOR, PENSIONER STREET P B NO 40DINDIGUL 624",DINDIGUL,DINDIGUL,TAMIL NADU,2434018
116,LAXMI VILAS BANK,LAVB0000223,DAVANGERE,"323 10, CHIGATERI COMPLEX 1ST FLOOR, CHAMARAJAPET P B NO 91DAVANGERE",DAVANGERE,DAVANGERE,KARNATAKA,257980
117,LAXMI VILAS BANK,LAVB0000224,DODDAVARAM,"DODDAVARAM VILLAGE,MADDIPADU MANDAL,PRAKASAM DT 523263 ANDHRAPRADESH",PRAKASAM,DODDAVARAM,ANDHRA PRADESH,271122
118,LAXMI VILAS BANK,LAVB0000225,DEVANAHALLI,"NO.842 BY 205,NEAR OLD BUS STAND,BBROAD,DEVANAHALLI TOWN,BANGALORE DT",BANGALORE RURAL,DEVANAHALLI,KARNATAKA,27681511
119,LAXMI VILAS BANK,LAVB0000226,DHARAPURAM,"SAP COMPLEX,BLOCK NO.21,WARD NO.6,UDUMALAI ROAD,1ST STREET,DHARAPURAM",ERODE,DHARAPURAM,TAMIL NADU,0
120,LAXMI VILAS BANK,LAVB0000227,DOMBIVALI EAST,TULASI VIHAR BUILDING NEAR GANESH COLD DRINKS CHIPLUNKAR ROAD RAMNAGAR ROAD DOMBIVALI EAST DOMBIVALI THANE MAHARASHTRA,THANE,DOMBIVALI,MAHARASHTRA,0
121,LAXMI VILAS BANK,LAVB0000228,DENKANIKOTTAI,11 A THERPET ROAD DENKANIKOTTAI KRISHNAGIRI 635107,KRISHNAGIRI,DENKANIKOTTAI,TAMIL NADU,0
122,LAXMI VILAS BANK,LAVB0000230,DOMMARA NANDYALA,"6/34 KAPU STREET,DOMMARA NANDYALA, MYLAVARAMMANDAL CUDDAPAH",CUDAPPAH,CUDDAPAH,ANDHRA PRADESH,0
123,LAXMI VILAS BANK,LAVB0000231,DONDAPADU,"DONDAPADU VILLAGE, GUNTUR",GUNTUR,GUNTUR,ANDHRA PRADESH,0
124,LAXMI VILAS BANK,LAVB0000232,DURG,NO 1179 28 DHANRAJ COMPOUND STATION ROAD DURG CHATTISGARH 491001,DURG,DURG,CHHATTISGARH,0
125,LAXMI VILAS BANK,LAVB0000233,DHARWAD,NO 3 94 MF MARATHA COLONY ROAD KOPPADKERI DHARWAD KARNATAKA 580008,DHARWAD,DHARWAD,KARNATAKA,0
126,LAXMI VILAS BANK,LAVB0000234,DEVAKOTTAI,"SF.NO. WARD A, BLOCK 22, T.S. NO.9, TIRUPATTHUR ROAD,DEVAKOTTAI,SIVAGANGA,TAMILNADU 630302",SIVAGANGA,DEVAKOTTAI,TAMIL NADU,0
127,LAXMI VILAS BANK,LAVB0000240,MOOLAPALAYAM,NO 116 310 NEHRUJI STREET NADAR MEDU ERODE 638002,ERODE,ERODE,TAMIL NADU,0
128,LAXMI VILAS BANK,LAVB0000241,ERODE,"77, 1ST FLOOR THIRUVENKADASAMY STREET ERODE 638 001 TAMIL NADU",ERODE,ERODE,TAMIL NADU,2214368
129,LAXMI VILAS BANK,LAVB0000242,ELURU,23B 4 67 SRINIVASA TALKIES ROAD R RPETELURU 534 002 WEST GODAVARI,WEST GODAVARI,ELURU,ANDHRA PRADESH,220640
130,LAXMI VILAS BANK,LAVB0000243,FARIDABAD,"1 E BY 17 B.P, NEW INDUSTRIAL TOWN,FARIDABAD, HARYANA 121001",FARIDABAD,FARIDABAD,HARYANA,2420018
131,LAXMI VILAS BANK,LAVB0000273,GURUNANAK COLONY,PLOT NO. 60 KANAKADURGA GAZETTED OFFICERS COLONY OPPOSITE SILVER SPOON RESTAURANT GURUNANAK COLONY,VIJAYAWADA,VIJAYAWADA,ANDHRA PRADESH,0
132,LAXMI VILAS BANK,LAVB0000274,GANDHIGRAMAM KARUR,"54,BHARATHI COMPLEX,TRICHY MAIN ROAD,GANDHIGRAMAM,KARUR 639 004",KARUR,KARUR,TAMIL NADU,0
133,LAXMI VILAS BANK,LAVB0000275,GANDHIDHAM,"PLOTNO 283 WARD 12 B, MAIN MARKET GANDHIDHAM, KUTCH DT GUJARAT 370 021",KACHCHH,GANDHIDHAM,GUJARAT,225617
134,LAXMI VILAS BANK,LAVB0000276,GOPALPATTI,8 120 MAIN ROAD GOPALPATTI 624 308VEMBARPATTI P O DINDIGUL DT TAMIL N,DINDIGUL,VEMBARPATTI,TAMIL NADU,4512559241
135,LAXMI VILAS BANK,LAVB0000277,GUNTUR,"23 1 97, MAIN ROAD1ST FLOOR, FLOWERBAZAAR GUNTUR 522 003 GUNTUR",GUNTUR,GUNTUR,ANDHRA PRADESH,2224940
136,LAXMI VILAS BANK,LAVB0000278,GOBICHETTIPALAYAM,"NO 79, RAM COMPLEX 1ST FLOOR, KUTCHERY ROAD GOBICHETTIPALAYAM 638 452",ERODE,GOBICHETTIPAL,TAMIL NADU,222002
137,LAXMI VILAS BANK,LAVB0000279,GAJUWAKA VISHAKAPATN,NO 17 40 6 MAIN ROAD 1ST FLOOR GAJUWAKA VISHAKAPATNAM 530 026 AP,VISHAKHAPATNAM,GAJUWAKA,ANDHRA PRADESH,2517565
138,LAXMI VILAS BANK,LAVB0000280,GANDHINAGAR,"ROADNO 5, NEAR GH 5 SECTOR 16, P BNO 5 SIDDHARTH LAW COLLEGE GANDHINA",GANDHINAGAR,GANDHINAGAR,GUJARAT,23230220
139,LAXMI VILAS BANK,LAVB0000281,GOPALAPATNAM  VISHAK,"7 278, MAIN ROAD1ST FLOOR,  OPP.SUKANYA THEATRE, GOPALAPATNAM, VISHAKA",VISHAKHAPATNAM,VISHAKAPATNAM,ANDHRA PRADESH,2521182
140,LAXMI VILAS BANK,LAVB0000282,GURGAON,"M 35, OLD DLF, SECTOR 14, GURGAON 122001 HARIYANA",GURGAON,GURGAON,HARYANA,2225800
141,LAXMI VILAS BANK,LAVB0000283,GHAZIABAD,"IIF166167,GOOD LUCK TOWERS,NEHRU NAGAR,AMBEDKAR ROAD,GHAZIABAD 201001,",GHAZIABAD,GHAZIABAD,UTTAR PRADESH,2793368
142,LAXMI VILAS BANK,LAVB0000285,GARIA,225BY22 N S C BOSE ROADNAKTALA,SOUTH 24 PARGANAS,GARIA,WEST BENGAL,24710064
143,LAXMI VILAS BANK,LAVB0000286,GADAG,PRAGATI 6690IB 3APMC YARDNEAR SBI,GADAG,GADAG,KARNATAKA,250122
144,LAXMI VILAS BANK,LAVB0000287,GUDUVANCHERI,DOOR NO 35 GST ROADNANDIVARAM GUDUVANCHERRY,KANCHEEPURAM,CHENNAI,TAMIL NADU,27467144
145,LAXMI VILAS BANK,LAVB0000288,GURUVAYOOR,10 BY 83A RS 114 BY 20GURUVAYOOR,THRISSUR,GURUVAYOOR,KERALA,2558160
146,LAXMI VILAS BANK,LAVB0000289,GOVERNERPET,"D NO 29-6-15/3,NAKKALA ROAD,VIJAYAWADA",VIJAYAWADA,VIJAYAWADA,ANDHRA PRADESH,0
147,LAXMI VILAS BANK,LAVB0000290,GINGEE,NO 216 217 TIRUVANNAMALAI ROAD GINGEE VILLUPURAM DT 604202,VILLUPURAM,TINDIVANAM,TAMIL NADU,0
148,LAXMI VILAS BANK,LAVB0000291,HBR LAYOUT,NO 205 BLOCK II HBR LAYOUT I STAGE EXTENSION BENGALURU 560043,BENGALURU,BENGALURU,KARNATAKA,0
149,LAXMI VILAS BANK,LAVB0000292,HANUMAKONDA,"D.NO.1 8 274,MAIN ROAD,BALASAMUDRAM,HANUMAKONDA,WARRANGAL",WARRANGAL,HANAMKONDA,ANDHRA PRADESH,23734333
150,LAXMI VILAS BANK,LAVB0000293,HASAN,"SHARANYA ARCADE,NO.72,HARSHAMAHAL ROAD,HASAN 573 201",HASSAN,HASSAN,KARNATAKA,0
151,LAXMI VILAS BANK,LAVB0000294,HSR LAYOUT,"NO 435,27TH MAIN ROAD,SECTOR I,HOSUR SARJAPUR LAYOUT HSR LAYOUT,BANGALORE 560 078",BANGALORE RURAL,BANGALORE,KARNATAKA,22631300
152,LAXMI VILAS BANK,LAVB0000295,HOSUR,"GANESH COMPLEX, 1ST FLOOR 77 BY C 11, P B NO 61 HOSUR 635 109KRISHNAGI",KRISHNAGIRI,HOSUR,TAMIL NADU,241210
153,LAXMI VILAS BANK,LAVB0000296,HUBLI,UMACHIGI COMPLEX1ST FLOORP B NO 102KOPPIKAR ROAD HUBLI 580 020 DHARWA,DHARWAD,HUBLI,KARNATAKA,2362561
154,LAXMI VILAS BANK,LAVB0000297,HYDERABAD MAIN,5 1 716 BY 11ST FLOOR BANK STREET PB NO 537 KOTI HYDERABAD 500 195 AN,HYDERABAD,HYDERABAD,ANDHRA PRADESH,24761599
155,LAXMI VILAS BANK,LAVB0000298,HOSPET,"SHARADA COMPLEX, 1ST FLOOR489 495,PATTEL NAGAR NEAR SHANBAG CIRCLE HO",BELLARY,HOSPET,KARNATAKA,228885
156,LAXMI VILAS BANK,LAVB0000299,HUBSIGUDA  HYDERABAD,"NO. 7 149 2, 1ST FLOOR RAGHAVENDRACOMPLEX HABSIGUDA CROSS RD HABSIGUD",RANGAREDDY,HYDERABAD,ANDHRA PRADESH,27150491
157,LAXMI VILAS BANK,LAVB0000300,HONNASANDRA,NO 127 13 1 DHARMANAYAKA THANDA HONNASANDRA NELAMANGALA TALUK BANGALORE KARNATAKA,HONNSANDRA,BANGALORE,KARNATAKA,0
158,LAXMI VILAS BANK,LAVB0000301,HASTHAMPATTI,13 B RAJAMANICKAM STREET SUBBARAYAN LAYOUT HASTHAMPATTI SALEM TAMILNADU 636007,SALEM,SALEM,TAMIL NADU,0
159,LAXMI VILAS BANK,LAVB0000316,IYYAMPALAYAM,2 BY 18 CHETTIAR STREET IYYAMPALAYAM 624 204 DINDIGUL DT TAMIL NADU,DINDIGUL,AYYAMPALAYAM,TAMIL NADU,267212
160,LAXMI VILAS BANK,LAVB0000317,IDAYAKOTTAI,"10 BY 190, PALANI ROAD IDAYAKOTTAI624704 DINDIGUL DT TAMIL NADU",DINDIGUL,IDAYAKOTTAI,TAMIL NADU,250224
161,LAXMI VILAS BANK,LAVB0000318,INDORE,"7 8, R N T MARG SILVER CASTLE BUILDING P B NO 503 INDORE 452 001 MADHY",INDORE,INDORE,MADHYA PRADESH,2529102
162,LAXMI VILAS BANK,LAVB0000321,KARWAR,D NO 1423 NEAR MARUTHI TEMPLE MAIN ROAD SS AUDITORIUM KARWAR 581301,UTTARA KANNADA,KARWAR,KARNATAKA,0
163,LAXMI VILAS BANK,LAVB0000322,KANDIVALI,NO 31 32 33 CENTRUM PREMISES CO OP SOCITIES LTD LOKHANDWALA TOWNSHIP AKURLI ROAD MUMBAI 400101,MUMBAI,MUMBAI,MAHARASHTRA,0
164,LAXMI VILAS BANK,LAVB0000323,KHAR,SHOP NO 2 DARVESH GRAND FOURTH ROAD KHAR WEST,MUMBAI,MUMBAI,MAHARASHTRA,0
165,LAXMI VILAS BANK,LAVB0000324,KANAKAPURA MAIN ROAD,NO.1 NAVARATHNA GARDENS KANAKAPURA MAIN ROAD DODDAKAILASANDRA,BENGALURU,BENGALURU,KARNATAKA,0
166,LAXMI VILAS BANK,LAVB0000325,KOLATHUR,NO.26 7 1 FIRST MAIN ROAD SRINIVASA NAGAR KOLATHUR,CHENNAI,CHENNAI,TAMIL NADU,0
167,LAXMI VILAS BANK,LAVB0000326,KHARMANGHAT,NO 10 1 96 1 MN 1 DURGA NAGAR SAGAR ROAD LINGOJIGUDA,RANGAREDDY,KHARMANGHAT,TELANGANA,8977778812
168,LAXMI VILAS BANK,LAVB0000327,KOVVURU,NO 9 3 13 LIBRARY ROAD KOVVURU,WEST GODAVARI,KOVVURU,ANDHRA PRADESH,0
169,LAXMI VILAS BANK,LAVB0000328,JANGAON,NO 2 8 1 10 B 2 8 1 10 B1 2 8 1 10B2 HYDERABAD ROAD,WARANGAL,WARANGAL,TELANGANA,0
170,LAXMI VILAS BANK,LAVB0000329,JAGTIAL,NO 2 1 40 LAKSHMI NIVASAM OPPOSITE HEAD POST OFFICE SRIRAM NAGAR,JAGTIAL,JAGTIAL,TELANGANA,9246931999
171,LAXMI VILAS BANK,LAVB0000330,JHARSUGUDA,PLOT NO 724 2063 KHATA NO 406 TOWN UNIT NO 7 JHARSUGUDA ODISHA 768201,JHARSUGUDA,JHARSUGUDA,ODISHA,0
172,LAXMI VILAS BANK,LAVB0000331,JAGGAIAHPET,NO 6 836 4 KODADA ROAD OPPOSITE SRI RAMA HOSPITALZ,JAGGAIAHPET,JAGGAIAHPET,ANDHRA PRADESH,0
173,LAXMI VILAS BANK,LAVB0000333,JAMMIKUNTA,SURVEY NO 723 BESIDE SRIRAMA MULTI SPECIALITY HOSPITAL JAMMIKUNTA KARIMNAGAR TELANGANA,KARIMNAGAR,JAMMIKUNTA,TELANGANA,0
174,LAXMI VILAS BANK,LAVB0000336,JALAKANDAPURAM,58 VANDIMEDUP B NO 3 JALAKANDAPURAM636 501 SALEM DT TAMIL NADU,SALEM,JALAKANTAPURAM,TAMIL NADU,260472
175,LAXMI VILAS BANK,LAVB0000337,JAMNAGAR,"HOTEL STAY BUILDING NEAR AMBER CINEMA PLOTNO 34 G, PANDIT NEHRY MARG J",JAMNAGAR,JAMNAGAR,GUJARAT,2661762
176,LAXMI VILAS BANK,LAVB0000338,JAMSHEDPUR,"G 1,ELEVATED GROUND FLOOR,SULATMALA COMPLEX,H NO 66,PENAR ROAD,SAKCHI,JAMSHEDPUR,JHARKHAND",PURBI SINGHBHUM,JAMSHEDPUR,JHARKHAND,4820900
177,LAXMI VILAS BANK,LAVB0000340,JEGADABI,"NO 4/45 MANNAPARAI MAIN ROAD, JEGADABI, KARUR,KARUR DIST - 639118.",KARUR,KARUR,TAMIL NADU,0
178,LAXMI VILAS BANK,LAVB0000341,JAIPUR,"G1 AND G1A, SANGAM TOWER CHURCH ROAD",JAIPUR,JAIPUR,RAJASTHAN,0
179,LAXMI VILAS BANK,LAVB0000342,JABALPUR,"PLOT NO 6, LAJPAT KUNJ,NAPIER TOWN",JABALPUR,JABALPUR,MADHYA PRADESH,0
180,LAXMI VILAS BANK,LAVB0000343,J VEERANAM,NO 7 121 A CHINNA VEERANAM POST SALEM,SALEM,SALEM,TAMIL NADU,0
181,LAXMI VILAS BANK,LAVB0000344,JADCHERLA,NO 1 2 3  12 224 12 225 B NO 12 SIGNLGADDA ROAD BADEPALLY JADCHERLA TELANGANA 509301,JADCHERLA,JADCHERLA,TELANGANA,0
182,LAXMI VILAS BANK,LAVB0000345,JAMUKOLI,BNRG SEVA KENDRA BUILDING JAMUKOLI KHURDA ORISSA,KHURDA,ORISSA,ODISHA,0
183,LAXMI VILAS BANK,LAVB0000346,K VADAMADURAI,NO 29 METTUPALAYAM MAIN ROAD COIMBATORE 641017,COIMBATORE,COIMBATORE,TAMIL NADU,0
184,LAXMI VILAS BANK,LAVB0000347,KOLHAPUR,NO 14436 WARD C SUBASH ROAD LAKSHMIPURI KOLHAPUR MAHARASHTRA 416002,KOLHAPUR,KOLHAPUR,MAHARASHTRA,0
185,LAXMI VILAS BANK,LAVB0000348,KALLALANGUDY,"MEYYAPPA COMPLEX,PATTUKKOTTAI MAIN ROAD,KALLALANGUDY,ALANGUDI TK,PUDUKOTTAI 622 301",PUDUKKOTTAI,ALANGUDI,TAMIL NADU,2224445
186,LAXMI VILAS BANK,LAVB0000349,KANMAI SOORANGUDI,"DOOR NO 9 BY 33,SATTUR TO ELAYIRAMPANNAI MAIN ROAD,KANMAI SOORANGUDI,SORRANGUDI 626 203,SATTUR TK",VIRUDHUNAGAR,SATTUR,TAMIL NADU,260360
187,LAXMI VILAS BANK,LAVB0000350,K K PUDUR,"OLD NO 4, NEW NO 7,BALASUBRAMANIAM STREET,STATE BANK COLONY,K K PUDUR",COIMBATORE,COIMBATORE,TAMIL NADU,0
188,LAXMI VILAS BANK,LAVB0000351,KADIYAM,4 DASH 36 PANCHAYATI STREETKADIYAM EAST GODAVARI DISTRICT,EAST GODAVARI,KADIYAM,ANDHRA PRADESH,2452099
189,LAXMI VILAS BANK,LAVB0000352,KALANGANI,NO 6 BY 3 SALEM MAIN ROADMAHALAKSHMI NAGAR,NAMAKKAL,KALANGANI,TAMIL NADU,244463
190,LAXMI VILAS BANK,LAVB0000353,KAMBARASAMPETTAI,SF NO 98 BY 5 TRICHY KARUR ROAD,TIRUCHIRAPALLI,KAMBARASAMPETTAI,TAMIL NADU,2902731
191,LAXMI VILAS BANK,LAVB0000354,KALYAN,"SHOP NO 2AND3,MAHAVEER COMPLEX II,SANTHOSHI MATHA MANDIR ROAD,KALYAN42",THANE,KALYAN,MAHARASHTRA,9372093339
192,LAXMI VILAS BANK,LAVB0000355,CHINNASALEM,"MS. VYSYA MODERN RICE MILL, CHURCHCOMPLEX STREET, CHINNASALEM 606201,",VILLUPURAM,CHINNASALEM,TAMIL NADU,257455
193,LAXMI VILAS BANK,LAVB0000356,KADAMBULIYUR,"NO 106,KUMBAKONAM ROAD,KADAMBULIYUR",CUDDALORE,PANRUTI,TAMIL NADU,249223
194,LAXMI VILAS BANK,LAVB0000357,KALLAKURICHI,"D NO 19, SALEM MAIN ROAD KALLAKURICHI 606 202 VILLUPURAM DT TAMIL NADU",VILLUPURAM,KALLAKURICHI,TAMIL NADU,222455
195,LAXMI VILAS BANK,LAVB0000358,KANCHEEPURAM,511 GANDHI ROAD P B NO 11 KANCHEEPURAM 631 501 TAMIL NADU,KANCHEEPURAM,KANCHIPURAM,TAMIL NADU,222839
196,LAXMI VILAS BANK,LAVB0000359,KANDILI,"1 21, CHAVADI STREET KANDILI 635 901 VELLORE DT TAMIL NADU",VELLORE,KANDILI,TAMIL NADU,248205
197,LAXMI VILAS BANK,LAVB0000360,KANGAYAM,45 P S G BUILDINGS CHENNIMALAI ROADP B NO 12 KANGAYAM 638 701 ERODE DT,ERODE,KANGEYAM,TAMIL NADU,220658
198,LAXMI VILAS BANK,LAVB0000361,KARAIKAL,"107, IST FLOOR BHARATHIYAR ROAD, PB NO 34 KARAIKAL 609 602 PONDICHERR",KARAIKAL,KARAIKAL,PUDUCHERRY,222410
199,LAXMI VILAS BANK,LAVB0000362,KARUR MAIN,693 JAWAHAR BAZAAR P B NO 36 KARUR639 001 TAMIL NADU,KARUR,KARUR,TAMIL NADU,260021
200,LAXMI VILAS BANK,LAVB0000363,KARUR WEST,118 119 JAWAHAR BAZZAR KARUR 639 001 TAMIL NADU,KARUR,KARUR,TAMIL NADU,262241
201,LAXMI VILAS BANK,LAVB0000364,KATTUPUTHUR,"179, ANDAPURAM ROAD KATTUPUTHUR 621207 TRICHY DT TAMIL NADU",TIRUCHIRAPALLI,KATTUPUTHUR,TAMIL NADU,250225
202,LAXMI VILAS BANK,LAVB0000365,KOVILPATTI,"897, MAIN ROAD P B NO 17 KOVILPATTI628 501 TIRUNELVELI",TOOTHUKUDI,KOVILPATTI,TAMIL NADU,220402
203,LAXMI VILAS BANK,LAVB0000366,KRISHNAGIRI,"25 B, COLONY ROADP B NO 9 KRISHNAGIRI 635 001 KRISHNAGIRI DT TAMIL NAD",KRISHNAGIRI,KRISHNAGIRI,TAMIL NADU,236213
204,LAXMI VILAS BANK,LAVB0000367,KUMBAKONAM,"NO 13, 1ST FLOOR SOMESWARAR SANNADHI STREET KUMBAKONAM 612 001 THANJAV",THANJAVUR,KUMBAKONAM,TAMIL NADU,2420345
205,LAXMI VILAS BANK,LAVB0000368,KARAIKUDI,"24, KALLUKATTINORTH 1ST FLOOR, P BNO 30 KARAIKUDI 630 001 SIVAGANGAI",SIVAGANGA,KARAIKUDI,TAMIL NADU,237489
206,LAXMI VILAS BANK,LAVB0000369,KATTUGUDALUR,"PTR BUILDING,ANNA SALAI MAIN ROAD,KATTUGUDALUR 607805,CUDDALORE DT,TAM",CUDDALORE,CUDDALORE,TAMIL NADU,266204
207,LAXMI VILAS BANK,LAVB0000370,KURUMBAPATTI,"1 BY 83 A, MAIN ROAD PALLAPATTI VIAKURUMBAPATTI 639205 KARUR DT TAMIL",KARUR,KURUMBAPATTI,TAMIL NADU,248273
208,LAXMI VILAS BANK,LAVB0000371,KANJAMPATTI,WARDNO 1VINAYAGAR KOVIL STREET KANJAMPATTI 642 003 COIMBATORE DT TAMIL,COIMBATORE,KANJAMPATTY,TAMIL NADU,284261
209,LAXMI VILAS BANK,LAVB0000372,KATHAPARAI KARUR,116 BY H 2 SALEM MAIN ROAD VENNAMALAI P O KATHAPARAI 639 006 KARUR DT,KARUR,KATHAPARAI,TAMIL NADU,220691
210,LAXMI VILAS BANK,LAVB0000373,KUKATPALLY HYDERABAD,NO 11 TO 16 1ST FLOOR PLOTNOS 148 TO 151 KUKATPALLY HYDERABAD 500 872,RANGAREDDY,KUKATPALLY,ANDHRA PRADESH,23067430
211,LAXMI VILAS BANK,LAVB0000374,KOTHAPETA,POTLURY HOUSE PLOT NO 24 KOTHAPETACROSS RD SAROOR NAGAR 500035 AP,EAST GODAVARI,HYDERABAD,ANDHRA PRADESH,24042809
212,LAXMI VILAS BANK,LAVB0000375,KAKINADA,"28 7 14, CHITTORYVARI STREET OPP SAI TEMPLE ADJ MAIN ROAD KAKINADA",EAST GODAVARI,KAKINADA,ANDHRA PRADESH,2379712
213,LAXMI VILAS BANK,LAVB0000376,KARIMNAGAR,"D.NO.4 5 334, SHIVALAYAM ROAD, NEARRAJIV CHOWK, FATHEPURA, KARIM NAGA",KARIMNAGAR,KARIMNAGAR,ANDHRA PRADESH,2233445
214,LAXMI VILAS BANK,LAVB0000377,KULITHALAI,"NO.5, CAUVERY NAGAR, KULITHALAI 639104 KARUR DT. TAMIL NADU",KARUR,KULITHALAI,TAMIL NADU,223074
215,LAXMI VILAS BANK,LAVB0000378,KHARGHAR,"SHOP NO 42 AND 43, PATEL HERITAGE,SECTOR 7,KHARGHARNAVI MUMBAI-410 210",GREATER BOMBAY,RAIGARH,MAHARASHTRA,9320011899
216,LAXMI VILAS BANK,LAVB0000379,KHAMMAM,"23231,SUNDAR TALKIES ROAD,GANDHI CHOWK,KHAMMAM507 003 ANDHRA PRADESH",KHAMMAM,KHAMMAM,ANDHRA PRADESH,9390466866
217,LAXMI VILAS BANK,LAVB0000380,KARANODAI,"SRI DHANALAKSHMI COMPLEX,KARANODAIBAZAAR,GNT ROAD,KARANODAI,CHENNAI60",THIRUVALLUR,KARANODAI,TAMIL NADU,26330520
218,LAXMI VILAS BANK,LAVB0000381,KAVERIPATNAM,"NH7 SALEM MAIN ROAD,OPPOSITE LIC OFINDIA,KAVERIPATNAM635112,KRISHNAGIR",KRISHNAGIRI,KAVERIPATNAM,TAMIL NADU,236213
219,LAXMI VILAS BANK,LAVB0000382,KRISHNAPATNAM,"2 72,GOLLA VEEDHI,KRISHNAPATNAM, S.P.S.R. NELLORE DT.",NELLORE,NELLORE,ANDHRA PRADESH,2377552
220,LAXMI VILAS BANK,LAVB0000383,KRISHNANAGAR,"F 3 BY 21, KRISHNANAGAR, OPP. PUNJAB NATIONAL BANK, NEW DELHI EAST 110",DELHI,NEW DELHI,DELHI,22099738
221,LAXMI VILAS BANK,LAVB0000384,KOTTAYAM,"K.M.C.XVI BY 131 E,NEAR YWCA,M.C.ROAD,KOTTAYAM",KOTTAYAM,KOTTAYAM,KERALA,2376578
222,LAXMI VILAS BANK,LAVB0000385,KOLAPAKKAM,"NO.140 BY 1A,KELAMBAKKAM,VANDALUR MAIN ROAD,KOLAPPAKKAM,CHENNAI 600048",CHENNAI,CHENNAI,TAMIL NADU,22260359
223,LAXMI VILAS BANK,LAVB0000386,KOLLEGAL,7452 CSR HARDWARE COMPLEX BUS STAND ROAD,MYSORE,KOLLEGAL,KARNATAKA,252548
224,LAXMI VILAS BANK,LAVB0000387,K K NAGAR,NO 3 PLOT 780 NO 3MUNUSWAMY ROAD,CHENNAI,CHENNAI,TAMIL NADU,23660169
225,LAXMI VILAS BANK,LAVB0000388,KENGERI,GROUND FLOOR NO 35 AND 36I MAIN ROAD KENGERI SATELLITE,BANGALORE URBAN,BANGALORE,KARNATAKA,28484743
226,LAXMI VILAS BANK,LAVB0000389,KOTHAPETA CHIRALA,60 BY 120 MAIN ROADKOTHAPETA CHIRALA,EAST GODAVARI,KOTHAPETA CHIRALA,ANDHRA PRADESH,231423
227,LAXMI VILAS BANK,LAVB0000390,KOTTIVAKKAM,"1 BY 165,ECR ROAD,KOTTIVAKKAM,CHENNAI 600 041",CHENNAI,CHENNAI,TAMIL NADU,28548726
228,LAXMI VILAS BANK,LAVB0000391,KOMPALLY,PLOT NO 9 ANURADHA COMPLEXCENTRAL PARK KOMPALLY,NALGONDA,KOMPALLY HYDERABAD,ANDHRA PRADESH,0
229,LAXMI VILAS BANK,LAVB0000392,KONDAMANAICKENPATTI,1 BY 57 PUDANCHANTHAI ROADKONDAMANAICKENPATTY,NAMAKKAL,KONDAMANAICKENPATTI,TAMIL NADU,278096
230,LAXMI VILAS BANK,LAVB0000393,KONDIKULAM,MAIN ROAD KONDIKULAMKALUGAPULIKADU PATTUKOTTAI TK,THANJAVUR,KONDIKULAM,TAMIL NADU,224888
231,LAXMI VILAS BANK,LAVB0000394,KURNOOL,"D.NO.40 BY 301 19,MCM COMPLEX,BELLARY ROAD,KURNOOL 518 001",KURNOOL,KURNOOL,ANDHRA PRADESH,23734333
232,LAXMI VILAS BANK,LAVB0000395,KUNIYUR,"NO 4/162,OLD SALARI STREET, KUNIYUR VILLAGE,AMBASAMUTHIRAM TALUK",TIRUNELVELI,TIRUNELVELI,TAMIL NADU,0
233,LAXMI VILAS BANK,LAVB0000396,KARNAL,"SCO 112, OLD TESHIL MARKET, OLD GT ROAD",KARNAL,KARNAL,HARYANA,0
234,LAXMI VILAS BANK,LAVB0000397,KALKAJI,"L-11,KALKAJI, NEW DELHI",DELHI,NEW DELHI,DELHI,0
235,LAXMI VILAS BANK,LAVB0000398,KADALANGUDI,NO 2 276 VINAYAGAR STREET THIRUMENIYAR KOIL POST NAGAPATTINAM 609204,NAGAPATTINAM,KADALANGUDI,TAMIL NADU,0
236,LAXMI VILAS BANK,LAVB0000399,KOLLAM,NARAYANAN BUSINESS CENTRE KADAPPAKADA JUNCTION KOLLAM 691008,KOLLAM,KOLLAM,KERALA,0
237,LAXMI VILAS BANK,LAVB0000401,KAVARAIPETTAI,NO 175 A GNT ROAD KAVARAIPETTAI THIRUVALLUR 601206,THIRUVALLUR,CHENNAI,TAMIL NADU,0
238,LAXMI VILAS BANK,LAVB0000402,KALABURAGI,NO 38 SWAGAT COMPLEX JAIL GARDEN SUPER MARKET KALABURAGI KARNATAKA 585101,GULBARGA,GULBARGA,KARNATAKA,0
239,LAXMI VILAS BANK,LAVB0000403,KOMBAI,NO 6 186A KOMBAI MAIN ROAD KOMBAI DINDIGUL DT,DINDIGUL,DINDIGUL,TAMIL NADU,0
240,LAXMI VILAS BANK,LAVB0000404,KAPAVARAM,8 122 A KAPAVARAM ROAD KAPAVARAM EAST GODAVARI DT,EAST GODAVARI,GODAVARI,ANDHRA PRADESH,0
241,LAXMI VILAS BANK,LAVB0000405,LA GUDALUR,NO 45 KOMALUR MAIN ROAD LALAPET LA GUDALUR SANKARAPURAM VILLUPURAM DT,VILLUPURAM,PUDUCHERRY,TAMIL NADU,0
242,LAXMI VILAS BANK,LAVB0000406,LALGUDI,"SRG BUILDING, 2 SIRUDAIYUR AGRAHARAM LALGUDI 621 601 TRICHY",TIRUCHIRAPALLI,LALGUDI,TAMIL NADU,2541236
243,LAXMI VILAS BANK,LAVB0000407,LAKKAPURAM,"BY 269, MAIN ROAD LAKKAPURAM 638 002 ERODE DT TAMIL NADU",ERODE,LAKKAPURAM,TAMIL NADU,2401767
244,LAXMI VILAS BANK,LAVB0000408,LAKSHMIPURM GUNTUR II,"D.NO.5 87 27,LAKSHMIPURAM MAIN ROAD,GUNTUR 522 007",GUNTUR,GUNTUR,ANDHRA PRADESH,0
245,LAXMI VILAS BANK,LAVB0000409,LAM,"H.NO 3-56/B1, LAM 522034, TADIKONDA MANDALAM, GUNTUR",GUNTUR,GUNTUR,ANDHRA PRADESH,0
246,LAXMI VILAS BANK,LAVB0000410,LAWSPET,NO 198 LAWSPET MAIN ROAD LAWSPET PUDUCHERRY,PUDUCHERRY,PUDUCHERRY,PUDUCHERRY,0
247,LAXMI VILAS BANK,LAVB0000411,LUXETTIPET,D NO 6 74 GHANDHI CHOWK MAIN ROAD LUXETTIPET ADILABAD TELANGANA 504215,ADILABAD,LUXETTIPET,ANDHRA PRADESH,0
248,LAXMI VILAS BANK,LAVB0000412,MATHUR,NO.368 NEW STREET ANTHIYUR TK,ERODE,ERODE,TAMIL NADU,0
249,LAXMI VILAS BANK,LAVB0000414,MALLEMADUGU,NO 1 298 RAMANNAPETA MALLEMADUGU KHAMMAM TELANGANA 507003,KHAMMAM,KHAMMAM,TELANGANA,0
250,LAXMI VILAS BANK,LAVB0000415,MARAKOTTAI,NO 142 CHENNAI TIRUPATHI ROAD MARAKOTTAI KADAYAMPATTI SALEM DT,SALEM,SALEM,TAMIL NADU,0
251,LAXMI VILAS BANK,LAVB0000416,MUDBIDRI,LAKSHMI VILAS BANK LTD MUDBIDRI DAKSHINA KANNADA DISTRICT,DAKSHINA KANNADA,MANGALORE,KARNATAKA,0
252,LAXMI VILAS BANK,LAVB0000417,MADIPAKKAM,NO 5 570 SABARI SALAI MADIPAKKAM CHENNAI,KANCHEEPURAM,CHENNAI,TAMIL NADU,0
253,LAXMI VILAS BANK,LAVB0000418,MOHANUR,NO 192 NAMAKKAL MAIN ROAD THANGAM HOSPITAL BUILDING MOHANUR,NAMAKKAL,NAMAKKAL,TAMIL NADU,0
254,LAXMI VILAS BANK,LAVB0000419,MARICHETLAPALEM,NO 4 77 KURNOOL ROAD MARICHETLAPALEM BHUDAWADA MANDAL PRAKASAM,PRAKASAM,BHUDAWADA MANDAL,ANDHRA PRADESH,0
255,LAXMI VILAS BANK,LAVB0000420,MAJHIHARA,BNRG SEVA KENDRA BUILDING MAJHIHARA BALIPATNA KHURDA ODISHA,KHURDA,MAJHIHARA,ODISHA,0
256,LAXMI VILAS BANK,LAVB0000421,VIJAYANAGAR,NO 837 GENERAL THIMMAIAH ROAD NEAR YOGANARASHIMHASWAMY TEMPLE VIJAYANAGAR MYSURU 570017,MYSURU,MYSURU,KARNATAKA,0
257,LAXMI VILAS BANK,LAVB0000422,MALAD WEST,"MANAS BUILDING, KHANDELWAL LAYOUT, PLOT NO - 12",MUMBAI,MUMBAI,MAHARASHTRA,0
258,LAXMI VILAS BANK,LAVB0000423,MAHASAMUND,"SHOP NO 84/42, S NO 46 NEAR NEW KALABAI SCHOOL,MAIN RAIPUR ROAD, MAHASAMUND",MAHASAMUND,MAHASAMUND,MAHARASHTRA,0
259,LAXMI VILAS BANK,LAVB0000424,HYDERABAD,FLATNO 2A II FLOOR SAMRAT COMPLEX SAIFABAD 500 004 HYDERABADANDHRA PRA,HYDERABAD,HYDERABAD,ANDHRA PRADESH,0
260,LAXMI VILAS BANK,LAVB0000425,CHENNAI SERVICE BRAN,SAKTHI TOWERS 4TH FLOOR F BLOCK 766ANNA SALAI CHENNAI 600 002TAMIL NA,CHENNAI,CHENNAI,TAMIL NADU,0
261,LAXMI VILAS BANK,LAVB0000426,CHENNAI MAIN,275 THAMBU CHETTY STREET CHENNAI 600 001 TAMIL NADU,CHENNAI,CHENNAI,TAMIL NADU,25227240
262,LAXMI VILAS BANK,LAVB0000427,GN STREET CHENNAI,244 IST FLOOR GOVINDAPPA NAICKEN STREET P B NO 1633 CHENNAI 600 001 TA,CHENNAI,CHENNAI,TAMIL NADU,25369370
263,LAXMI VILAS BANK,LAVB0000428,KODAMBAKKAM CHENNAI,323 ARCOT ROAD 1ST FLOOR CHENNAI 600 024 TAMIL NADU,CHENNAI,CHENNAI,TAMIL NADU,24837903
264,LAXMI VILAS BANK,LAVB0000429,MOUNT ROAD CHENNAI,636 ANNA SALAI 1ST FLOOR MOUNT ROADCHENNAI 600 006 TAMIL NADU,CHENNAI,CHENNAI,TAMIL NADU,28293909
265,LAXMI VILAS BANK,LAVB0000430,MYLAPORE CHENNAI,38 NORTH MADA STREET MYLAPORE CHENNAI 600 004 TAMIL NADU,CHENNAI,CHENNAI,TAMIL NADU,4940736
266,LAXMI VILAS BANK,LAVB0000431,NUNGAMBAKKAM CHENNAI,175 VALLUVAR KOTTAM HIGH ROAD P B NO 1258 1ST FLOOR NUNGAMBAKKAMCHENNA,CHENNAI,CHENNAI,TAMIL NADU,28271349
267,LAXMI VILAS BANK,LAVB0000432,PURASAIWALKAM CHENNA,25 1ST FLOOR PURASAWALKAM HIGH ROADPURASAWALKAM CHENNAI 600 007 TAMIL,CHENNAI,CHENNAI,TAMIL NADU,26426739
268,LAXMI VILAS BANK,LAVB0000433,ROYAPURAM CHENNAI,130 SURYA NARAYANA CHETTY STREET ROYAPURAM CHENNAI 600 013 TAMIL NADU,CHENNAI,CHENNAI,TAMIL NADU,25952244
269,LAXMI VILAS BANK,LAVB0000434,CATHEDRAL ROAD CHENN,62 CATHEDRAL ROAD P B NO 4903 CHENNAI 600 086 TAMIL NADU,CHENNAI,CHENNAI,TAMIL NADU,28112266
270,LAXMI VILAS BANK,LAVB0000435,TRIPLICANE CHENNAI,NO 2/3 I ST FLOOR TRIPLICANE HIGH ROAD TRIPLICANE CHENNAI  600005,CHENNAI,CHENNAI,TAMIL NADU,28591727
271,LAXMI VILAS BANK,LAVB0000436,VALASARAVAKKAM CHENN,126 A ARCOT ROAD 1ST FLOOR VALASARAWAKKAM CHENNAI 600 087 KANCHEEPURAM,THIRUVALLUR,VALASARAVAKKAM,TAMIL NADU,24869291
272,LAXMI VILAS BANK,LAVB0000437,WEST TAMBARAM CHENNA,27 RAJAJI ROAD 1ST FLOOR WEST TAMBARAM CHENNAI 600 045 KANCHEEPURAM,KANCHEEPURAM,TAMBARAM,TAMIL NADU,22260359
273,LAXMI VILAS BANK,LAVB0000438,SELAIYUR CHENNAI,ZION MATRICULATION HIGHER SECONDARYSCHOOL SELAIYUR CHENNAI KANCHEEPUR,KANCHEEPURAM,SELAIYUR,TAMIL NADU,22293460
274,LAXMI VILAS BANK,LAVB0000439,ANNA NAGAR CHENNAI,AB 5 II AVENUE ANNA NAGAR CHENNAI 600 040 THIRUVALLUR RICT TAMILNADU,CHENNAI,CHENNAI,TAMIL NADU,26200745
275,LAXMI VILAS BANK,LAVB0000440,T NAGAR,NO.29 GOVINDA STREET T.NAGAR CHENNAI 600 017 TAMILNADU,CHENNAI,CHENNAI,TAMIL NADU,28155499
276,LAXMI VILAS BANK,LAVB0000441,ADYAR CHENNAI,NO 124 BY A LATTICE BRIDGE ROAD K RBUILDINGS ADYAR CHENNAI 600 020 TA,CHENNAI,CHENNAI,TAMIL NADU,24404336
277,LAXMI VILAS BANK,LAVB0000442,VELACHERY,"NO.37F,VELACHERRY MAIN ROAD,VIJAYANAGAR VELACHERRY 600 042 TAMILNADU",CHENNAI,CHENNAI,TAMIL NADU,22436065
278,LAXMI VILAS BANK,LAVB0000443,ROYAPURAM EXTENSION,"M V HOSPITAL DIABETES RESEARCH CENTRE FOUNDATION,WEST MADA CHURCH STRE",CHENNAI,CHENNAI,TAMIL NADU,0
279,LAXMI VILAS BANK,LAVB0000444,TALLAKULAM MADURAI,PLOTNO 4 DOORNO 49 BHARATHI ULA ROAD RACE COURSE P B NO 47 MADURAI 625,MADURAI,MADURAI,TAMIL NADU,2569633
280,LAXMI VILAS BANK,LAVB0000445,MADURAI MAIN,BALA SASI NIVAS 97EAST MARRET STREET PALACE ROAD P B NO 177 MADURAI 6,MADURAI,MADURAI,TAMIL NADU,2339158
281,LAXMI VILAS BANK,LAVB0000446,MANDYA,"1127,1ST FLOOR  P.B.NO. 24 IST CROSS ASHOK NAGAR MANDYA 571 401 MANDYA",MANDYA,MANDYA,KARNATAKA,220693
282,LAXMI VILAS BANK,LAVB0000447,MANNARGUDI,"54, BIG BAZAAR STREET MANNARGUDI 614 001 TIRUVARUR DT TAMIL NADU",THIRUVARUR,MANNARGUDI,TAMIL NADU,253208
283,LAXMI VILAS BANK,LAVB0000448,MARANDAHALLI,KRISHNA COMPLEX HIGH SCHOOL ROAD MARANDAHALLI 636 806 DHARMAPURI,DHARMAPURI,MARANDAHALLI,TAMIL NADU,233332
284,LAXMI VILAS BANK,LAVB0000449,MELUR,"195, ALAGAR KOVIL ROAD P B NO 7 MELUR 625 106MADURAI",MADURAI,MELUR,TAMIL NADU,2415421
285,LAXMI VILAS BANK,LAVB0000450,METTUPALAYAM,"79A, NVC BUILDING, 1ST FLOOR OOTY MAIN ROAD METTUPALAYAM 641 301 COIMB",COIMBATORE,METTUPALAYAM,TAMIL NADU,222182
286,LAXMI VILAS BANK,LAVB0000451,MOOLANGUDI,"1 BY 216, MAIN ROAD MOOLANGUDI 610102 KAMALAPURAM POST TIRUVARUR",PUDUKKOTTAI,MOOLANGUDI,TAMIL NADU,245444
287,LAXMI VILAS BANK,LAVB0000452,MUTHUPET,"NO 50, 1ST FLOORKUMARAN BAZAAR MUTHUPET 614 704 TIRUVARUR DT TAMIL NAD",THIRUVARUR,MUTHUPET,TAMIL NADU,260463
288,LAXMI VILAS BANK,LAVB0000453,MUTHUR,"A R COMPLEX, 99 T VELLAKOIL ROAD MUTHUR 638 105 ERODE DT TAMIL NADU",ERODE,MUTHUR,TAMIL NADU,254362
289,LAXMI VILAS BANK,LAVB0000454,MANAMEDU,"4 BY 273, SALEM MAIN ROAD MANAMEDU621 209 TRICHY DT TAMIL NADU",TIRUCHIRAPALLI,MANAMEDU,TAMIL NADU,271367
290,LAXMI VILAS BANK,LAVB0000455,MYSORE,SRINIVASA PLAZA 1ST FLOORNO 33 BYA D DEVARAJ URS ROAD MYSORE 570 001,MYSORE,MYSORE,KARNATAKA,2423262
291,LAXMI VILAS BANK,LAVB0000456,MAYILADUTHURAI,27 B TOWN EXTENSION ROAD P B NO 78MAYILADUTHURAI 609 001 NAGAPATTINAM,NAGAPATTINAM,MAYURAM,TAMIL NADU,223296
292,LAXMI VILAS BANK,LAVB0000457,MADUKKUR TOWN,43 D BAJANAI MUTT STREET MADUKKUR TOWN 614 903 THANJAVUR DT TAMIL NADU,THANJAVUR,MADUKKUR,TAMIL NADU,260233
293,LAXMI VILAS BANK,LAVB0000458,MATHUR,1 BY 49 E MATHUR 635 203 KRISHNAGIRI DT TAMIL NADU,KRISHNAGIRI,MATHUR,TAMIL NADU,256221
294,LAXMI VILAS BANK,LAVB0000459,MAHADHANAPURAM,"1 2 85 BY A, EAST AGRAHARAM MAHADHANAPURAM 639 106 KARUR",KARUR,MAHADHANAPUR,TAMIL NADU,242235
295,LAXMI VILAS BANK,LAVB0000460,MUTHUGAPATTY,6 BY 41 MAIN ROAD MUTHUGAPATTY 637405 NAMAKKAL DT TAMIL NADU,NAMAKKAL,MUTHUGAPATTI,TAMIL NADU,578366
296,LAXMI VILAS BANK,LAVB0000461,MALKAJGIRI HYDERABAD,NO 292 AND 293 1ST FLOOR RADHAKRISHNA MALKAJGIRI HYDERABAD,RANGAREDDY,MALKAJGIRI,ANDHRA PRADESH,27245572
297,LAXMI VILAS BANK,LAVB0000462,METTUR DAM,8 BY 13 SQUARE MARKET ROAD 1ST FLOOR METTUR DAM 636 401 SALEM,SALEM,METTUR,TAMIL NADU,244738
298,LAXMI VILAS BANK,LAVB0000463,MN PALAYAM EXTENSION,"THE LAKSHMI VILAS BANK LTD,MC MAINROAD,VASAVI COLLEGE POST, SURIYAMPA",ERODE,ERODE,TAMIL NADU,2230560
299,LAXMI VILAS BANK,LAVB0000464,MIRYALGUDA,"SHOP NO.105,BLUE WHALE PALACE,SAGARROAD,MIRYALGUDA 508 207,ANDHRA PRA",NALGONDA,MIRYALGUDA,ANDHRA PRADESH,232255
300,LAXMI VILAS BANK,LAVB0000465,MOWLIVAKKAM,DOOR NO 2 BAJANAI KOIL STREETMOWLIVAKKAM CHENNAI 600116,KANCHEEPURAM,CHENNAI,TAMIL NADU,23820043
301,LAXMI VILAS BANK,LAVB0000466,MADHAPUR,PLOT NO 2 KRITHIKA LAYOUTMADHAPUR HYDERABAD 500081,HYDERABAD,HYDERABAD,ANDHRA PRADESH,23119531
302,LAXMI VILAS BANK,LAVB0000467,MARKAMPATTI,3 BY 192 DINDIGUL MAIN ROADMARKKAMPATTI VILLAGE,DINDIGUL,MARKAMPATTI,TAMIL NADU,0
303,LAXMI VILAS BANK,LAVB0000468,MECHERI,"SF NO.230 BY 2,WARD NO.16,DHARMAPURI MAIN ROAD,MECHERI",SALEM,MECHERY,TAMIL NADU,2267202
304,LAXMI VILAS BANK,LAVB0000469,MEIKALPATTI,MEIKALPATTI,TANJORE,MEIKALPATTI,TAMIL NADU,0
305,LAXMI VILAS BANK,LAVB0000470,SIRUMAYANGUDI,4 BY 5 A SIRUMAYANGUDI EASTSIRUMAYANGUDI,TIRUCHIRAPALLI,SIRUMAYANGUDI,TAMIL NADU,0
306,LAXMI VILAS BANK,LAVB0000471,CHENNAI MOGAPPAIR,"1 BY 235,VALAYAPATHI SALAI,MOGAPPAIR,CHENNAI 600 037",CHENNAI,CHENNAI,TAMIL NADU,0
307,LAXMI VILAS BANK,LAVB0000472,MANGARAI,"4 BY 322,MANGARAI VILLAGE AND POST,PENNAGARAM,DHARMAPURI",DHARMAPURI,PENNAGARAM,TAMIL NADU,255643
308,LAXMI VILAS BANK,LAVB0000473,MANGALORE,"14 1 741 BY 6,SHOP NOS 1 TO 8,23 TO 27,MAY FAIR CITY,KRR ROAD,KARANGALPADY,MANGALORE 575 003",DAKSHIN KANNAD,MANGALORE,KARNATAKA,22631300
309,LAXMI VILAS BANK,LAVB0000474,MALLESHWARAM,"NO 1,9TH CROSS,MALLESHWARAM,BANGALORE 560 003",BANGALORE RURAL,BANGALORE,KARNATAKA,22631300
310,LAXMI VILAS BANK,LAVB0000475,MUDHUGAMPATTI,"NAGANOOR POST,PENNAGARAM TALUK,DHARMAPURI DT",DHARMAPURI,PENNAGARAM,TAMIL NADU,255643
311,LAXMI VILAS BANK,LAVB0000476,MANGALAGIRI,"DOOR NO 7-380/A, PSR BAVAN, MANGALAGIRI MAIN ROAD,MANGALAGIRI",GUNTUR,MANGALAGIRI,ANDHRA PRADESH,0
312,LAXMI VILAS BANK,LAVB0000477,MEHDIPATNAM,"D NO 13 6 , 434 A 33, MARUTHI NAGAR,MEHDIPATNAM",HYDERABAD,MEHDIPATNAM,TELANGANA,0
313,LAXMI VILAS BANK,LAVB0000478,MAHAVIR NAGAR,"WZ-GS, MAHAVIR NAGAR, NEW DELHI",NEW DELHI,NEW DELHI,DELHI,0
314,LAXMI VILAS BANK,LAVB0000479,MYLAMBADI,NO 2 96 VELLI TIRUPPUR MAIN ROAD NARAYANAPURAM MYLAMBADI ERODE,ERODE,ERODE,TAMIL NADU,0
315,LAXMI VILAS BANK,LAVB0000480,MULUND WEST,NO 8 MARATHON MAX LINK ROAD MULUND WEST MUMBAI MAHARASHTRA,MULUND,MUMBAI,MAHARASHTRA,0
316,LAXMI VILAS BANK,LAVB0000481,NALGONDA,NO 6 5 12 NEAR BEAT MARKET HYDERABAD ROAD NALGONDA TELANGANA,NALGONDA,NALGONDA,ANDHRA PRADESH,0
317,LAXMI VILAS BANK,LAVB0000482,NANDIGAMA,THE NANDIGAMA EDUCATIONAL SOCIETY CHANDARLAPADU ROAD NANDIGAMA,KRISHNA,NANDIGAMA,ANDHRA PRADESH,0
318,LAXMI VILAS BANK,LAVB0000483,NAICKER NEW STREET,"NO 247, NAICKER NEW STREET,MADURAI",MADURAI,MADURAI,TAMIL NADU,0
319,LAXMI VILAS BANK,LAVB0000484,NATHAMEDU,"NO.39,VADAKKU THERU,NATHAMEDU,KOTHAVACHERY PO,CHIDAMBARAM TK,PIN 608 601",CUDDALORE,BHUVANAGIRI,TAMIL NADU,241379
320,LAXMI VILAS BANK,LAVB0000485,NAVSARI,"GROUND FLOOR,CHINMAY ARCADE,OPP.SATTAPIR,SAYJI ROAD,MOTA BAZAR,NAVSARI",NAVSARI,NAVSARI,GUJARAT,244243
321,LAXMI VILAS BANK,LAVB0000486,NAGAPATTINAM,"41, NEELA SOUTH STREET P B NO 37 NAGAPATTINAM 611 001 TAMIL NADU",NAGAPATTINAM,NAGAPATTINAM,TAMIL NADU,242356
322,LAXMI VILAS BANK,LAVB0000487,NAGERCOIL,"NO 36 BY 8 3, IST FLOOR SOUTH CAR STREETNAGERCOIL 629 001 KANYAKUMARI",KANYAKUMARI,NAGERCOIL,TAMIL NADU,232048
323,LAXMI VILAS BANK,LAVB0000488,NAMAKKAL,"14, 1ST FLOOR, SALEM ROAD P B NO 3NAMAKKAL 637 001 TAMIL NADU",NAMAKKAL,NAMAKKAL,TAMIL NADU,276022
324,LAXMI VILAS BANK,LAVB0000489,NEYVELI,NO 198 CUDDALORE MAIN ROAD NEYVELI607 802 CUDDALORE,CUDDALORE,NEYVELI,TAMIL NADU,262326
325,LAXMI VILAS BANK,LAVB0000490,NATHAKADAIYUR,"2 BY 302, MUTHUR ROAD NATHAKADAIYUR638 108 ERODE DT TAMIL NADU",ERODE,NATHAKADAIYUR,TAMIL NADU,241032
326,LAXMI VILAS BANK,LAVB0000491,NAGPUR,"PLOT 93 94, BHARARI CENTRAL AVENUENAGPUR 440 018 MAHARASHTRA",NAGPUR,NAGPUR,MAHARASHTRA,2724774
327,LAXMI VILAS BANK,LAVB0000492,NERINJIPETTAI,"110 A, BHAVANI METTUR MAIN ROAD NERINJIPETTAI 638 311 ERODE",ERODE,NERINJIPETTAI,TAMIL NADU,227041
328,LAXMI VILAS BANK,LAVB0000493,NARASARAOPET,6 DASH 3 DASH  269OPP KANYAKA PARAMESWARI TEMPLE,GUNTUR,NARASARAOPET,ANDHRA PRADESH,223224
329,LAXMI VILAS BANK,LAVB0000494,NASIK,"RUSHIRAJ REGENCY,SHOP NO.6B,OPP.TO MAMMUNGI KARYALAYA GANGAPUR ROAD,NASIK",NASIK,NASIK,MAHARASHTRA,0
330,LAXMI VILAS BANK,LAVB0000495,NIDUR,"4 BY 110F,MAIN ROAD,NIDUR",NAGAPATTINAM,NIDUR,TAMIL NADU,254227
331,LAXMI VILAS BANK,LAVB0000496,NIZAMABAD,NO 7 1 61 RAMGOPAL STREET NIZAMABAD TELANGANA 503001,NIZAMABAD,NIZAMABAD,TELANGANA,0
332,LAXMI VILAS BANK,LAVB0000497,NEDUMPULI,NO 221 107 E ROAD STREET PUDUPET NEDUMPULI VILLAGE PANAPAKKAM POST ARAKONAM TAMILNADU 631052,VELLORE,ARAKONAM,TAMIL NADU,0
333,LAXMI VILAS BANK,LAVB0000498,NAVANDIGI,D NO 4134 OPP GOVT GUEST HOUSE BASHEERABAD,VIKARABAD,NAVANDIGI,TELANGANA,0
334,LAXMI VILAS BANK,LAVB0000499,JANPATH  NEW DELHI,"G 8 9 10 TOLSTOY HOUSE 15 17 TOLSTOY MARG, P.B.NO. 93 JANPATH  110 001",DELHI,NEW DELHI,DELHI,23730530
335,LAXMI VILAS BANK,LAVB0000500,NAGANAKULAM,D NO  24 1 H C WARD 49 SHREE NITHI TOWER NATHAM MAIN ROAD NAGANAKULAM  NARAYANAPURAM MADURAI TAMIL NADU 625014,MADURAI,MADURAI,TAMIL NADU,0
336,LAXMI VILAS BANK,LAVB0000501,KAROLBAGH  NEW DELHI,"16 BY 17, W.E.A, KAROL BAGH STREET,OPP. TO SATBHARRAWAN SCHOOL, KAROL",DELHI,NEW DELHI,DELHI,2573736
337,LAXMI VILAS BANK,LAVB0000502,NELLORE,"9 BY 744 745,GVR TOWERS , SANTHAPETTRUNK ROAD RANGANAYAKALUPET NELLOR",NELLORE,NELLORE,ANDHRA PRADESH,2331875
338,LAXMI VILAS BANK,LAVB0000503,NANDYAL,25 BY 509 SRINIVASA NAGAR NANDYAL 518 501 ANDHRAPRADESH,KURNOOL,NANDYAL,ANDHRA PRADESH,221249
339,LAXMI VILAS BANK,LAVB0000504,NOIDA,"B12, SECTOR 16, NOIDA, GAUTHAM BUDDHA NAGAR DT. UTTAR PRADESH  201 301",GAUTAM BUDDHA NAGAR,NOIDA,UTTAR PRADESH,2510530
340,LAXMI VILAS BANK,LAVB0000505,SIGNATURE BRANCH CBE,PULIYAKULAM MAIN ROAD NEW DHAMU DHAMU NAGAR NEAR,COIMBATORE,COIMBATORE,TAMIL NADU,2323221
341,LAXMI VILAS BANK,LAVB0000506,ODDANCHATRAM,"DOORNO 285 M 2A BY 9 KRS COMPLEX, MAIN ROAD 1ST FLOOR, P B NO 2 ODDANC",DINDIGUL,ODDANCHATRAM,TAMIL NADU,240289
342,LAXMI VILAS BANK,LAVB0000507,OLAPALAYAM,"14 BY 51, UTHAMAPALAYAM ROAD KANGAYAM VIA OLAPALAYAM 638 701 ERODE",ERODE,OLAPALAYAM,TAMIL NADU,256243
343,LAXMI VILAS BANK,LAVB0000508,ONGOLE,"37 1 171, 1ST FLOOR KURNOOL ROAD ONGOLE 523 002 PRAKASAM DT ANDHRA PRA",PRAKASAM,ONGOLE,ANDHRA PRADESH,234648
344,LAXMI VILAS BANK,LAVB0000509,ONDIPUDUR,NO 92 93 TRICHY ROAD ONDIPUDUR COIMBATORE 641016,COIMBATORE,COIMBATORE,TAMIL NADU,0
345,LAXMI VILAS BANK,LAVB0000528,P AYEEPALAYAM,"1 BY 6,P AYEEPALAYAM,RASIPURAM TK",NAMAKKAL,RASIPURAM,KARNATAKA,222838
346,LAXMI VILAS BANK,LAVB0000529,PALACODE,"S.F.NO.1243 BY 4,HOSUR ROAD,PALACODE 636068",DHARMAPURI,PALACODE,TAMIL NADU,223544
347,LAXMI VILAS BANK,LAVB0000530,PANIPAT,"SONALI ROAD,OPPOSITE HYDERABADI HOSPITAL,PANIPET132 103 HARYANA",PANIPAT,PANIPAT,HARYANA,9354520222
348,LAXMI VILAS BANK,LAVB0000531,PALLIPALAYAM,"76, 1ST FLOOR TIRUCHENGODE ROAD PALLIPAYALAM 638 006 NAMAKAL",ERODE,PALLIPALAYAM,TAMIL NADU,240384
349,LAXMI VILAS BANK,LAVB0000532,PALANI,"40, NEW DHARAPURAM ROAD PALANI 624601 DINDIGUL DT TAMIL NADU",DINDIGUL,PALANI,TAMIL NADU,242252
350,LAXMI VILAS BANK,LAVB0000533,PANRUTI,"26 BY D 1, 1ST FLOOR KUMBAKONAM ROAD P B NO 11PANRUTI 607 106 CUDDALOR",CUDDALORE,PANRUTI,TAMIL NADU,242032
351,LAXMI VILAS BANK,LAVB0000534,PAPANAD,4 BY 80 B 1 EAST STREETPAPANAD 614626 THANJAVUR DT TAMIL NADU,THANJAVUR,PAPPANADU,TAMIL NADU,258429
352,LAXMI VILAS BANK,LAVB0000535,PAPANASAM,"45 D, 1ST FLOOR BAZAAR STREETPAPANASAM 614 205THANJAVUR DT TAMIL NADU",THANJAVUR,PAPANASAM,TAMIL NADU,222427
353,LAXMI VILAS BANK,LAVB0000536,PATTUKOTTAI,"150, PALANIAPPAN STREET PATTUKOTTAI614 601 THANJAVUR DT TAMIL NADU",THANJAVUR,PATTUKOTTAI,TAMIL NADU,252025
354,LAXMI VILAS BANK,LAVB0000537,PENNAGARAM,"27 A, VANIAR STEET PENNAGARAM 636 810 DHARMAPURI DT TAMIL NADU",DHARMAPURI,PENNAGARAM,TAMIL NADU,255643
355,LAXMI VILAS BANK,LAVB0000538,PERAVURANI,"42, C V LODGE BUILDING SETHU ROAD,P B NO 2 PERAVURANI 614 804 THANJAV",THANJAVUR,PERAVURANI,TAMIL NADU,232447
356,LAXMI VILAS BANK,LAVB0000539,PERIYAKULAM,"68, BAZAAR STREET THENKARAI P B NO7 PERIYAKULAM 625 601 THENI DT TAMI",THENI,PERIYAKULAM,TAMIL NADU,231377
357,LAXMI VILAS BANK,LAVB0000540,PODAKODY,B BAZAAR MAIN ROAD PODAKUDY 614 103 TIRUVARUR DT TAMIL NADU,THIRUVARUR,SEKARAI,TAMIL NADU,232234
358,LAXMI VILAS BANK,LAVB0000541,POLLACHI,"57, BALAGOPALAPURAM STREET P B NO 44 POLLACHI 642 001 COIMBATORE",COIMBATORE,POLLACHI,TAMIL NADU,224357
359,LAXMI VILAS BANK,LAVB0000542,PONDICHERRY,232 234 JAWAHARLAL NEHRU STREET PUDUCHERRY 605 001,PONDICHERRY,PONDICHERRY,PUDUCHERRY,2336400
360,LAXMI VILAS BANK,LAVB0000543,PUNE,"658, NEW NARAYANPETH 1ST FLOOR APPABALWANT CHOWKPUNE 411 030 MAHARASH",PUNE,PUNE,MAHARASHTRA,24458690
361,LAXMI VILAS BANK,LAVB0000544,CPUDUPATTI,"NO.21 BY WARD NO.14,MADURAI CUMBUMMAIN ROAD,C.PUDUPATTI 625 556 THENI",THENI,CUMBUM,TAMIL NADU,271423
362,LAXMI VILAS BANK,LAVB0000545,R PUDUPATTI,10 BY 22 A NORTH STREET BUNGALOW ROAD R PUDUPATTI 637 407 NAMAKKAL DT,NAMAKKAL,PUDUPATTI,TAMIL NADU,244223
363,LAXMI VILAS BANK,LAVB0000546,PALAKAD,11 BY 1339 MARKET ROADFIRST FLOOR PB NO 307 PALAKKAD 678 014PALAKKAD,PALAKKAD,PALAKKAD,KERALA,2502231
364,LAXMI VILAS BANK,LAVB0000547,PRODDATUR,NO 22 BY 437 GANDHI ROAD PRODDATUR516 360 CUDDAPAH DT ANDHRA PRADESH,CUDDAPAH,PRODDATUR,ANDHRA PRADESH,255904
365,LAXMI VILAS BANK,LAVB0000548,PUGALUR,EID PARRY INDIA LTD.SUGAR FACTORY PUGALUR 639113 KARUR DT.TAMIL NADU,KARUR,PUGALUR,TAMIL NADU,272044
366,LAXMI VILAS BANK,LAVB0000549,PERAMBALUR,"DOOR NO 111 A1,VENKATESAPURAM COLONY MAIN ROAD,PERAMBALUR621212",PERAMBALUR,PERAMBALUR,TAMIL NADU,225566
367,LAXMI VILAS BANK,LAVB0000550,PERUNGALATHUR,"D.NO.14,KAMARAJAR HIGH ROAD, NEW PERUNGALATHUR,CHENNAI 63",KANCHEEPURAM,PERUNGALATHUR,TAMIL NADU,0
368,LAXMI VILAS BANK,LAVB0000551,PUNJAGUTTA,"D.NO 83248 BY 1 BY 7 BY 778,NAGARJUNA HILLS MAIN ROAD,PUNJAGUTTA,HYDER",HYDERABAD,HYDERABAD,ANDHRA PRADESH,23355355
369,LAXMI VILAS BANK,LAVB0000552,PERAMBALUR EC,THANTHAI HANS ROEVER COLLEGE NATIONAL HIGHWAY ELAMBUR VILLAGE,PERAMBALUR,PERAMBALUR,TAMIL NADU,291188
370,LAXMI VILAS BANK,LAVB0000553,PUTTUR,V963 COURT ROAD PUTTUR TALUKDAKSHIN KANNAD KARNATAKA 574201,DAKSHIN KANNAD,PUTTUR,KARNATAKA,236640
371,LAXMI VILAS BANK,LAVB0000554,PONNUR,14 DASH 1 DASH 19G B C ROAD PONNURU GUNTUR DT,GUNTUR,PONNUR,ANDHRA PRADESH,241456
372,LAXMI VILAS BANK,LAVB0000555,PERAMBUR,86 SUNDARARAJA PERUMALKOIL ST SOUTHPERAVALLUR,CHENNAI,CHENNAI,TAMIL NADU,0
373,LAXMI VILAS BANK,LAVB0000556,PUDUKOTTAI,"T S NO 5537,5538,SOUTH 4THSTREET,PUDUKOTTAI 622 001,PUDUKOTTAI DT",PUDUKKOTTAI,PUDUKKOTTAI,TAMIL NADU,0
374,LAXMI VILAS BANK,LAVB0000557,M PUTHUR,"3 BY 24,CHATHIRAM STREET,M.PUTHUR POST,M.PUTHUR",KARUR,KARUR,TAMIL NADU,0
375,LAXMI VILAS BANK,LAVB0000558,PALAYAMKOTTAI,"NO 261A,TIRUCHENDUR ROAD,PALAYAMKOTTAI,TIRUNELVELI",TIRUNELVELI,TIRUNELVELI,TAMIL NADU,0
376,LAXMI VILAS BANK,LAVB0000559,PERUVANCHA,"NO 1-393,PERUVANCHA VILLAGE,KALLUR MANDAL,KHAMMAM",KHAMMAM,KHAMMAM,ANDHRA PRADESH,0
377,LAXMI VILAS BANK,LAVB0000560,PERUMBAVOOR,NO 372 A DARSHANAM CHAMBERS MC ROAD PERUMBAVOOR ERNAKULAM KERALA 683542,ERNAKULAM,PERUMBAVOOR,KERALA,0
378,LAXMI VILAS BANK,LAVB0000561,PUNAVASAL,LAKSHMI VILAS BANK LTD 2/193 SCHOOL ROAD PUNAVASAL(PO) PATTUKOTTAI(TK) THANJAVUR DT 614803,PATTUKOTTAI,PATTUKOTTAI,TAMIL NADU,0
379,LAXMI VILAS BANK,LAVB0000562,PANVEL,GROUND FLOOR CROWN PLAZA URAN NAKA CIRCLE PANVEL NAVI MUMBAI MAHARASHTRA 410206,RAIGAD,MUMBAI,MAHARASHTRA,0
380,LAXMI VILAS BANK,LAVB0000563,PONNAL,SIDDIPET MYTHRIVANAM PONNAL TELANGANA,RANGAREDDY,SECUNDERABAD,TELANGANA,0
381,LAXMI VILAS BANK,LAVB0000564,GANDHIMANAGAR PEELAMEDU,E7 SASTHA NAGAR GANDHIMANAGAR PEELAMEDU,COIMBATORE,COIMBATORE,TAMIL NADU,0
382,LAXMI VILAS BANK,LAVB0000566,PALASA KASSIBUGGA,NO 20 1 257 K T ROAD PALASA KASSIBUGGA SRIKAKULAM 532221,SRIKAKULAM,SRIKAKULAM,ANDHRA PRADESH,0
383,LAXMI VILAS BANK,LAVB0000568,PIDUGURALLA,NO 7 406 BESIDE UBI MAIN ROAD GUNTUR VIJAYAWADA 522413,GUNTUR,PIDUGURALLA,ANDHRA PRADESH,0
384,LAXMI VILAS BANK,LAVB0000569,PEDAPULIPAKA,NO 3 58 RAMALAYAM STREET KRISHNA ANDHRA PRADESH,KRISHNA,PEDAPULIPAKA,ANDHRA PRADESH,0
385,LAXMI VILAS BANK,LAVB0000570,PEELAMEDU,OLD NO 85 AND NEW NO 122 THIRD STREET BHARATHI COLONY PEELAMEDU COIMBATORE 641001,COIMBATORE,COIMBATORE,TAMIL NADU,0
386,LAXMI VILAS BANK,LAVB0000571,PEDDAPURAM,D NO 6 1 15 VARJULAVARI STREET PEDDAPURAM ANDHRA PRADESH 533437,PEDDAPURAM,PEDDAPURAM,ANDHRA PRADESH,0
387,LAXMI VILAS BANK,LAVB0000572,P G ROAD,D NO  1 8 303 27 PLOT NO 26 SINDHI COLONY PREDERGHAST ROAD SECUNDERABAD HYDERABAD TELANGANA,HYDERABAD,SECUNDERABAD,TELANGANA,0
388,LAXMI VILAS BANK,LAVB0000573,PARVATHIPURAM,DNO 27 28F SRILEKHA COMPLEX MAIN ROAD PARVATHIPURAM 535501,VIZIANAGARAM,PARVATHIPURAM,ANDHRA PRADESH,0
389,LAXMI VILAS BANK,LAVB0000574,POTHURAVUTHANPATTY,D.NO 15/18 THERKU KULITHALAI TK,KARUR,POTHURAVUTHANPATTY,TAMIL NADU,0
390,LAXMI VILAS BANK,LAVB0000598,RAMACHANDRAPURAM,D NO 1 211 CHODAVARAM POST EAST GODAVARI 533255,EAST GODAVARI,RAMCHANDRAPURAM,ANDHRA PRADESH,0
391,LAXMI VILAS BANK,LAVB0000599,RAVULAPALEM,S NO 263 3A1 NH ROAD OPPOSITE KVB RAVULAPALEM EAST GODAVARI ANDHRA PRADESH 533238,EAST GODAVARI,EAST GODAVARI,TELANGANA,0
392,LAXMI VILAS BANK,LAVB0000601,RAICHUR,3 9 37 AND 3 9 37 BY 1 1ST FLOOR MRV ESTATE P B NO 35RAICHUR 584 101,RAICHUR,RAICHUR,KARNATAKA,231898
393,LAXMI VILAS BANK,LAVB0000602,RAJAPALAYAM,418 TENKASI ROAD RAJAPALAYAM 626 117 VIRUDHUNAGAR DT TAMIL NADU,VIRUDHUNAGAR,RAJAPALAIYAM,TAMIL NADU,222756
394,LAXMI VILAS BANK,LAVB0000603,RASIPURAM,"48 E, KAVARAI STREETP B NO 25 RASIPURAM 637 408 NAMAKKAL DT TAMIL NADU",NAMAKKAL,RASIPURAM,TAMIL NADU,222838
395,LAXMI VILAS BANK,LAVB0000604,RAJENDRAM,"5 BY 658, AGRAHARAM RAJENDRAM 639 107 KULITHALAI KARUR DT TAMIL NADU",KARUR,RAJENDRAM,TAMIL NADU,222074
396,LAXMI VILAS BANK,LAVB0000605,RAJAHMUNDRY,"1ST FLOOR 7 28 5, VIGRAM ROAD P B NO 28 T NAGARRAJAHMUNDRY 533 101 EAS",EAST GODAVARI,RAJAHMUNDRY,ANDHRA PRADESH,2476929
397,LAXMI VILAS BANK,LAVB0000606,RANEBENNUR,"CTS NO 1972 BY A GUPTA BUILDING, ASHOK CIRCLE P B NO 26 RANEBENNUR 581",HAVERI,RANEBENNUR,KARNATAKA,267353
398,LAXMI VILAS BANK,LAVB0000607,RAJKOT,SHOPNO 101 TO 104 RONAK COMPLEX GONDAL ROAD RAJKOT 360 002 GUJARAT,RAJKOT,RAJKOT,GUJARAT,2461608
399,LAXMI VILAS BANK,LAVB0000608,RANCHI,"NO5,MAIN ROAD,ASHIRWAD MANSION,NEAROVERBRIDGE,RANCHI834 001JHARKHAND",RANCHI,RANCHI,JHARKHAND,2332231
400,LAXMI VILAS BANK,LAVB0000609,ROHINI,"E 1 BY 5,SECTOR 7,ROHINI,NEW DELHI110 085",DELHI,DELHI,DELHI,9313089689
401,LAXMI VILAS BANK,LAVB0000610,RAIPUR,"B 43 48,PANDRI CLOTH MARKET,DEVENDRA NAGAR,RAIPUR",RAIPUR,RAIPUR,CHHATTISGARH,2582110
402,LAXMI VILAS BANK,LAVB0000611,RAMAPURAM,"NO.4 BY 323,VALLUVAR SALAI, RAMAPURAM CHENNAI 89 TAMIL NADU.",KANCHEEPURAM,RAMAPURAM,TAMIL NADU,22491212
403,LAXMI VILAS BANK,LAVB0000612,RAMACHANDRAPURAM,25 35  PUSHPANAGESH LANDMARK  RAMACHANDRAPURAM REDDY NAGAR HYDERABAD,EAST GODAVARI,EAST GODAVARI,ANDHRA PRADESH,281299
404,LAXMI VILAS BANK,LAVB0000613,RT NAGAR,"NO 7,III CROSS,WARD NO 95,GANESH BLOCK,KAVALBYRASANDRA ROAD,R T NAGAR,BANGALORE 560032",BANGALORE RURAL,BANGALORE,KARNATAKA,22631300
405,LAXMI VILAS BANK,LAVB0000614,RAYAKOTTA,"1 BY 826,SOOLAGIRI MAIN ROAD,RAYAKOTTA,KRISHNAGIRI DT.PIN 635 116",KRISHNAGIRI,ROYAKOTTAH,TAMIL NADU,236213
406,LAXMI VILAS BANK,LAVB0000615,RAMANATHAPURAM,NO 59/1 AGILKIDANGU STREET NEAR AGRAHARAM ROAD RAMANATHAPURAM TAMILNADU 625301,THENI,THENI,TAMIL NADU,0
407,LAXMI VILAS BANK,LAVB0000616,RAJA RAJESHWARI NAGAR,NO 878 4TH STAGE BEML RAJA RAJESHWARI NAGAR BANGALORE 560098,BANGALORE,BANGALORE,KARNATAKA,0
408,LAXMI VILAS BANK,LAVB0000617,REDDIYARPALAYAM,96 VILLIANUR ROAD AZIZ NAGAR REDDIYARPALAYAM PUDUCHERRY 605010,PUDUCHERRY,PUDUCHERRY,PUDUCHERRY,0
409,LAXMI VILAS BANK,LAVB0000650,SATHYAMANGALAM,"343,FIRST FLOOR,MYSORE TRUNK ROAD EXTN,ANNAPOORNA COMPLEX,SATHYAMANGALAM 638 402 ERODE DT",ERODE,SATHYAMANGALAM,TAMIL NADU,2304997
410,LAXMI VILAS BANK,LAVB0000657,SIDDHAPUDUR,"379,380,SAROJINI STREET,AVARAMPALAYAM ROAD,NEW SIDDHAPUDUR,COIMBATORE 641 044",COIMBATORE,COIMBATORE,TAMIL NADU,2232123
411,LAXMI VILAS BANK,LAVB0000658,SIKKAL,"3 BY 50,NORTH STREET,SIKKAL,NAGAPATTINAM 611108",NAGAPATTINAM,SIKKAL,TAMIL NADU,223296
412,LAXMI VILAS BANK,LAVB0000659,KONDALAMPATTI  SALEM,"M S.JARI KONDALAMPATTTI 180,CALICUTMAIN ROAD, KONDALAMPATTI, SALEM 63",SALEM,SALEM,TAMIL NADU,2270048
413,LAXMI VILAS BANK,LAVB0000660,SWARNAPURI SALEM,4 BY 36 BHARATHI STREET SWARNAPURI636 004SALEM DT TAMIL NADU,SALEM,SALEM,TAMIL NADU,2443934
414,LAXMI VILAS BANK,LAVB0000661,SALEM TOWN,62 63 BAZAAR STREET P B NO 111 SALEM TOWN 636 001 SALEM DT TAMIL NADU,SALEM,SALEM,TAMIL NADU,2267678
415,LAXMI VILAS BANK,LAVB0000662,C K STREET SALEM,175 177 II AGRAHARAM P B NO 13 C KSTREET SALEM 636 001 SALEM DT TAMIL,SALEM,SALEM,TAMIL NADU,2260333
416,LAXMI VILAS BANK,LAVB0000663,GUGAI SALEM,12 B PULIKUTHI MAIN ROAD 1ST FLOORP B NO 611 GUGAI SALEM 636 006SALEM,SALEM,SALEM,TAMIL NADU,2469469
417,LAXMI VILAS BANK,LAVB0000664,SHEVAPET SALEM,60 ANDAL STREET P B NO 298 SHEVAPETSALEM 636 002 SALEM DT TAMIL NADU,SALEM,SALEM,TAMIL NADU,2223222
418,LAXMI VILAS BANK,LAVB0000665,SANKARAPURAM,"J K COMPLEX, 3 BAZAAR STREET SANKARAPURAM 606 401 VILLUPURAM DT TAMIL",VILLUPURAM,SANKARAPURAM,TAMIL NADU,235666
419,LAXMI VILAS BANK,LAVB0000667,SANKARI,SFNO 261 BY 1A BY 1A WARDNO 4 DOORNO 1 15 17 JI NEW EDAPPADI ROAD SANK,SALEM,SANKARI,TAMIL NADU,243885
420,LAXMI VILAS BANK,LAVB0000671,SATTUR,"100,NORTH CAR STREETP B NO 8 SATTUR626 203 VIRUDHUNAGAR",VIRUDHUNAGAR,SATTUR,TAMIL NADU,260360
421,LAXMI VILAS BANK,LAVB0000672,SHIMOGA,"NEHRU ROAD, 1ST FLOOR VIJAYA BUILDING SHIMOGA 577 201 KARNATAKA",SHIMOGA,SHIMOGA,KARNATAKA,222818
422,LAXMI VILAS BANK,LAVB0000673,SIVAKASI,"29 E, PSR ROAD P B NO 165 SIVAKASI626 123 VIRUDHUNAGAR DT TAMIL NADU",VIRUDHUNAGAR,SIVAKASI,TAMIL NADU,224106
423,LAXMI VILAS BANK,LAVB0000674,SUNDARAPANDIAM,"6 1 120, AGRAHARAM STREET SUNDARAPANDIAM 626 126 VIRUDHUNAGAR DT TAMIL",VIRUDHUNAGAR,SUNDARAPANDI,TAMIL NADU,283080
424,LAXMI VILAS BANK,LAVB0000675,M N PALAYAM,"M.N.PALAYAM,1309, BHAVANI MAIN ROAD, LAKSHMI NAGAR,M.N.PALAYAM  638316",ERODE,M N PALAYAM,TAMIL NADU,2533561
425,LAXMI VILAS BANK,LAVB0000676,SENDARAPATTI,25 SOUTH CHATHIRAM STREET SENDARAPATTI 636 110 ATTUR TALUK SALEM,SALEM,SENDARAPATTY,TAMIL NADU,226261
426,LAXMI VILAS BANK,LAVB0000677,SECUNDERABAD  HYDERA,"4 3 189 M.K STREET IST FLOOR, RANIGUNJ SECUNDERABAD 500003 HYDERABAD A",HYDERABAD,HYDERABAD,ANDHRA PRADESH,27703173
427,LAXMI VILAS BANK,LAVB0000679,SURAT,"NO 1 13, P B NO 404 BELGIUM TOWERSSILVER PLAZA COMPLEX",SURAT,SURAT,GUJARAT,2425200
428,LAXMI VILAS BANK,LAVB0000680,SURYAPET,NO 1 2 270 BY 45 BY 1P B NO 12 KUDAKUDA ROAD SURYAPET 508 213 ANDHRA,NALGONDA,SURYAPET,ANDHRA PRADESH,224111
429,LAXMI VILAS BANK,LAVB0000681,SECUNDERABAD EXTENSI,"SHREE GUJARATHI SEVA MANDAL,1ST FLOOR, 1141, RASHTRAPATHI ROAD, SECUND",HYDERABAD,SECUNDERABAD,ANDHRA PRADESH,27536535
430,LAXMI VILAS BANK,LAVB0000682,SRIPERUMBUDUR,"BANGALORE HIGH WAY ROAD,NEAR SUMATHI THEATRE,SRIPERUMBUDHUR 602 105",KANCHEEPURAM,SRIPERUMBUDUR,TAMIL NADU,27162433
431,LAXMI VILAS BANK,LAVB0000683,SURAT2,"GR FLOOR,AVADH BUILDING,  OPP RAJHANS POINT,VARACHHA ROAD, SURAT 39500",SURAT,SURAT,GUJARAT,2550400
432,LAXMI VILAS BANK,LAVB0000684,SIRSI,CTS NO 247 BY A HOSPET ROADSIRSI 584101,UTTAR KANNAD,SIRSI,KARNATAKA,223320
433,LAXMI VILAS BANK,LAVB0000685,CHINTHALAVADI,D NO1 BY 1 MAIN ROAD CHINTHALAVADILALAPET POST KRISHNARAYAPURAM TALUK,KARUR,CHINTHALAVADI,TAMIL NADU,242044
434,LAXMI VILAS BANK,LAVB0000686,SRIVILLIPUTHUR,32 PERIYA PERUMAL EAST MADA STREETVIRUDHNAGAR DISTRICT,VIRUDHUNAGAR,SRIVILLIPUTHUR,TAMIL NADU,261839
435,LAXMI VILAS BANK,LAVB0000688,SAIDAPET,DNO 36 BY 77 MOSQUE STREETSAIDAPET,CHENNAI,CHENNAI,TAMIL NADU,0
436,LAXMI VILAS BANK,LAVB0000689,SINTHALAPATTI,"SF NO.145 BY 1,MAIN ROAD,SINDALAPATTI,SAKKAMPATTI PO,DINDIGUL DT.624 612",DINDIGUL,DINDIGUL,TAMIL NADU,249010
437,LAXMI VILAS BANK,LAVB0000690,SRIKAKULAM,NO 2 25 45 KONNA STREET SRIKAKULAM ANDHRA PRADESH,SRIKAKULAM,SRIKAKULAM,ANDHRA PRADESH,0
438,LAXMI VILAS BANK,LAVB0000691,SAMBANKULAM,NO 4 221 GOVINDAPERI ROAD ALWARKURICHI AMBASAMUDRAM TIRUVNELVELI,TIRUNELVELI,TIRUNELVELI,TAMIL NADU,0
439,LAXMI VILAS BANK,LAVB0000692,SOUTH MASI STREET,NO 221 SOUTH MASI STREET MADURAI 625001,MADURAI,MADURAI,TAMIL NADU,0
440,LAXMI VILAS BANK,LAVB0000693,SHALIMARBAGH,AG 46 SHALIMARBAGH NEW DELHI,NEW DELHI,NEW DELHI,DELHI,0
441,LAXMI VILAS BANK,LAVB0000694,SIVAKODU,NO 2 92 MAIN ROAD OPP TO ZILL PARISHAD HIGH SCHOOL SIVAKODU RAZOLE TK EAST GODAVARI 533244,EAST GODAVARI,GODAVARI,ANDHRA PRADESH,0
442,LAXMI VILAS BANK,LAVB0000695,SURAMANGALAM,ARS AVENUE NO 22 9 JUNCTION TO LEIGH BAZAAR ROAD SURAMANGALAM SALEM 636005 TAMIL NADU,SALEM,SURAMANGALAM,TAMIL NADU,9865067556
443,LAXMI VILAS BANK,LAVB0000696,SULTANNAGARAM GOLLAPALEM,NO 4 179 MAIN ROAD SULTANNAGARAM GOLLAPALEM,KRISHNA,VIJAYAWADA,ANDHRA PRADESH,0
444,LAXMI VILAS BANK,LAVB0000697,SANAND,SHOP NO. 103 FIRST FLOOR AAKAR ARCADE SANAND AHAMEDABAD GUJARAT MUMBAI 382110,AHAMEDABAD,SANAND,GUJARAT,0
445,LAXMI VILAS BANK,LAVB0000698,SATTENAPALLE,D NO 18 18 1 TO 5 PHAVIRISETTY VARI STREET SATTENAPALLE GUNTUR ANDHRA PRADESH 522056502,GUNTUR,SATTENAPALLE,ANDHRA PRADESH,0
446,LAXMI VILAS BANK,LAVB0000699,SURANDAI,D NO 206 9 7 TH STREET SENDAMARAM ROAD SIVASURANTHAPURAM SURANDAI TIRUNELVELI,TIRUNELVELI,TIRUNELVELI,TAMIL NADU,0
447,LAXMI VILAS BANK,LAVB0000701,SENTHAMANGALAM,SF NO 241/10 B WEST BAZAAR STREET,NAMAKKAL,SENTHAMANGALAM,TAMIL NADU,0
448,LAXMI VILAS BANK,LAVB0000702,SALT LAKE,GROUND FLOOR AC 16 SECTOR I SALT LAKE KOLKATTA WEST BENGAL 700064,KOLKATTA,KOLKATTA,WEST BENGAL,0
449,LAXMI VILAS BANK,LAVB0000703,SALUR,"D NO 28-6-338,389 MAIN ROAD",VIZIANAGARAM,SALUR,ANDHRA PRADESH,0
450,LAXMI VILAS BANK,LAVB0000704,SALIGRAMAM,OLD NO. 62 NEW NO. 82 PLOT NO. 14 ARCOT TOAD CHENNAI 600093 TAMILNADU,CHENNAI,CHENNAI,TAMIL NADU,0
451,LAXMI VILAS BANK,LAVB0000705,SEETAPALMANDI,12 11 159 NAMALAGUNDU SEETHAPALMANDI SECUNDERABAD,HYDERABAD,SECUNDERABAD,TELANGANA,0
452,LAXMI VILAS BANK,LAVB0000707,SIRCILLA,H NO. 6-2-94 MARKANDEYA STREET SIRCILLA 505310,RAJANNA SIRCIALLA,SIRCILLA,TELANGANA,0
453,LAXMI VILAS BANK,LAVB0000708,SADASIVAPET,SY. NO. 508 & 509 PLOT NO.1,SANGAREDDY,SADASIVAPET,TELANGANA,0
454,LAXMI VILAS BANK,LAVB0000717,THORAIPAKKAM,D NO 27 CUSTOMS COLONY THORAIPAKKAM OMR CHENNAI 600097,CHENNAI,CHENNAI,TAMIL NADU,0
455,LAXMI VILAS BANK,LAVB0000718,TADEPALLIGUDEM,NO 2 1 32 K N ROAD OPP ZILLA PARISHAD SCHOOL TADEPALLIGUDEM WEST GODAVARI 534101,WEST GODAVARI,TADEPALLIGUDEM,ANDHRA PRADESH,0
456,LAXMI VILAS BANK,LAVB0000719,TENALI,NO 22 21 ANDHRA RATNA ROAD RAMALINGESWARAPET TENALI ANDHRA PRADESH,TENALI,TENALI,ANDHRA PRADESH,0
457,LAXMI VILAS BANK,LAVB0000720,THAYANUR,"SF NO 216/3, PLOT NO 25, RAMCHAND VIP CITY,THOGAMALAI MAIN ROAD, THAYANUR",TRICHY,TRICHY,TAMIL NADU,0
458,LAXMI VILAS BANK,LAVB0000721,THANJAVUR,"1665 66, SOUTH MAIN STREET P B NO 313 THANJAVUR 613 009 THANJAVUR DT T",THANJAVUR,THANJAVUR,TAMIL NADU,237371
459,LAXMI VILAS BANK,LAVB0000722,THIRUVAIYARU,129 BY 33 ODATHURAI STREET THIRUVAIYARU 613 204 THANJAVUR DT TAMIL NAD,THANJAVUR,TIRUVAIARU,TAMIL NADU,260245
460,LAXMI VILAS BANK,LAVB0000723,THITTAGUDI,"30 30 A, 1ST FLOOR MAIN ROAD, P B NO 2 THITTAGUDI 606106 CUDDALORE DT",CUDDALORE,THITTAGUDI,TAMIL NADU,255351
461,LAXMI VILAS BANK,LAVB0000724,THOTTIYAM,K R S COMPLEX 246 BY B SALEM MAIN ROAD THOTTIYAM 621 215 MUSIRI TALUKT,TIRUCHIRAPALLI,THOTTIAM,TAMIL NADU,254227
462,LAXMI VILAS BANK,LAVB0000725,TINDIVANAM,"128, NEHRU STREET TINDIVANAM 604 001 VILLUPURAM DT TAMIL NADU",VILLUPURAM,TINDIVANAM,TAMIL NADU,222091
463,LAXMI VILAS BANK,LAVB0000726,TIRUCHENGODE,104 THEPPAKULAM STREET SANKARI MAINROAD 1ST FLOOR TIRUCHENGODE 637 21,NAMAKKAL,TIRUCHENGODU,TAMIL NADU,254262
464,LAXMI VILAS BANK,LAVB0000727,TIRUVARUR,"81 D, 1ST FLOOR, NAGAI ROAD P B NO35 VIJAYAPURAM TIRUVARUR 610 001 TA",THIRUVARUR,TIRUVARUR,TAMIL NADU,221167
465,LAXMI VILAS BANK,LAVB0000728,THURPUTALLU,NO 1 270  MAIN ROAD THURPUTALLU KP PALEM NORTH NARASAPURAM MANDAL THURPUTALLU,WEST GODAVARI,NARASAPURAM MANDAL,ANDHRA PRADESH,0
466,LAXMI VILAS BANK,LAVB0000729,CANTONMENT,NO 1 FIRST FLOOR ALEXANDRIA ROAD CANTONMENT TRICHY,TRICHY,TRICHY,TAMIL NADU,0
467,LAXMI VILAS BANK,LAVB0000730,TRICHY MAIN EC UDV,"UDV HR.SEC.SCHOOL,TOWN STATION,TRICHY 620002",TIRUCHIRAPALLI,TIRUCHIRAPALLI,TAMIL NADU,2702204
468,LAXMI VILAS BANK,LAVB0000731,TRICHY MAIN,220 221 1ST FLOOR BIG BAZAAR STREETP B NO 550TRICHY MAIN 620 008 TAMI,TIRUCHIRAPALLI,TIRUCHIRAPPALLI,TAMIL NADU,2702204
469,LAXMI VILAS BANK,LAVB0000732,SRIRANGAM TRICHY,100 BY A GANDHI ROAD SRIRANGAM 620006 TRICHY DT TAMIL NADU,TIRUCHIRAPALLI,TIRUCHIRAPPALLI,TAMIL NADU,2432319
470,LAXMI VILAS BANK,LAVB0000733,THILLAINAGAR TRICHY,SVV COMPLEX I BUILDING NO 55 IVTH CROSS P B NO 939 THILLAINAGAR 620 01,TIRUCHIRAPALLI,TIRUCHIRAPPALLI,TAMIL NADU,2765112
471,LAXMI VILAS BANK,LAVB0000735,TIRUVALLUR,"JAWAHARLOA NEHRU ROAD, OPPOSITE TOCHURCH, TIRUVALLORE 602 001",THIRUVALLUR,TIRUVALLUR,TAMIL NADU,27664454
472,LAXMI VILAS BANK,LAVB0000736,TIRUKKATTUPALLI,76 50TH ROAD TIRUKKATTUPALLI 613 104 THANJAVUR DT TAMIL NADU,THANJAVUR,TIRUKATTUPALLI,TAMIL NADU,280421
473,LAXMI VILAS BANK,LAVB0000737,TIRUKOILUR,"NEWNO 104, OLDNO 86NORTH STREET TIRUKOILUR 605757 VILLUPURAM DT TAMIL",VILLUPURAM,TIRUKOILUR,TAMIL NADU,252338
474,LAXMI VILAS BANK,LAVB0000738,TIRUNELVELI TOWN,112 EAST CAR STREET P B NO 20 TIRUNELVELI 627 006 TIRUNELVELI DT TAMIL,TIRUNELVALI,TIRUNELVELI,TAMIL NADU,2333173
475,LAXMI VILAS BANK,LAVB0000739,TIRUPUR,"A P K TOWERS, 243 KUMARAN ROAD, P BNO 40 TIRUPUR 641 601 COIMBATORE D",COIMBATORE,TIRUPUR,TAMIL NADU,2202727
476,LAXMI VILAS BANK,LAVB0000740,TIRUTHARIPOONDI,CHURCH COMPLEX 1ST FLOOR 12 TIRUTHURAIPOONDI 614 713 TIRUVARUR,THIRUVARUR,TIRUTURAIPUNDI,TAMIL NADU,222539
477,LAXMI VILAS BANK,LAVB0000741,THIRUVANNAMALAI,88 THIRUMANJANAGOPURAM STREET P B NO 6 TIRUVANNAMALAI 606 601 TAMIL NA,TIRUVANNAMALAI,TIRUVANNAMALAI,TAMIL NADU,222400
478,LAXMI VILAS BANK,LAVB0000742,TURAIYUR,"268, TRICHY ROADP B NO 12TURAIYUR 621 010 TRICHY DT TAMIL NADU",TIRUCHIRAPALLI,TURAIYUR,TAMIL NADU,222742
479,LAXMI VILAS BANK,LAVB0000743,TUTICORIN,"31, EMPEROR STREET P B NO 80 TUTICORIN 628 001 TAMIL NADU",TOOTHUKUDI,TUTICORIN,TAMIL NADU,2321866
480,LAXMI VILAS BANK,LAVB0000744,THRISSOOR,XXVII BY 476 1ST FLOOR POTTEKKATT BUILDINGS ROUND EASTTHRISSUR 680 001,THRISSUR,THRISSUR,KERALA,2331053
481,LAXMI VILAS BANK,LAVB0000745,TIRUKKADAIYUR,"421 BY 1, SANNATHI STREET TIRUKKADAIYUR 609 311 NAGAPATTINAM DT TAMIL",NAGAPATTINAM,TIRUKKADAIYUR,TAMIL NADU,287444
482,LAXMI VILAS BANK,LAVB0000746,TANUKU,"NO 28 14 25, VASU PLAZA ACHARYA RANGA ROADP B NO 28 TANUKU 534 211WEST",WEST GODAVARI,TANUKU,ANDHRA PRADESH,222952
483,LAXMI VILAS BANK,LAVB0000747,THENI,"NO 45 A, 1ST FLOOR KALIAMMAN KOIL STREET P B NO 7, PERIYAKULAM ROAD TH",THENI,THENI,TAMIL NADU,254024
484,LAXMI VILAS BANK,LAVB0000748,TIRUPATHI,15 1 45 G CAR STREET TIRUPATHI 517501 CHITTOOR DT ANDHRA PRADESH,CHITTOOR,TIRUPATI,ANDHRA PRADESH,2250324
485,LAXMI VILAS BANK,LAVB0000749,THIRUVANANTHAPURAM,"T C 9 BY 885, VELLAYAMBALAM SASTHAMANGALAM ROAD THIRUVANANTHAPURAM PIN",THIRUVANANTHAPURAM,TRIVENDRUM,KERALA,2724818
486,LAXMI VILAS BANK,LAVB0000750,TENKASI,"15, KANNI MARIAMMAN KOIL STREET, KOOLAKADAI BAZAAR P B NO 37 TENKASI 6",TIRUNELVALI,TENKASI,TAMIL NADU,227127
487,LAXMI VILAS BANK,LAVB0000751,THOKKAVADI,K.S. RANGASAMY INSTITUTE OF TECHNOLOGY CAMPUS TIRUCHENGODE 637 215 NAM,NAMAKKAL,THOKKAVADI,TAMIL NADU,274493
488,LAXMI VILAS BANK,LAVB0000752,THANE,"SHOP NO.1,YESHWANT BUILDING,GOKHALEROAD,NEAR MALHAR TALKIES NAUPADA T",THANE,THANE,MAHARASHTRA,25378577
489,LAXMI VILAS BANK,LAVB0000753,THIPPASANDRA,11BY1 NEW THIPPASANDRA MAIN ROADHAL III STAGE BANGALORE 560075,BANGALORE URBAN,BANGALORE,KARNATAKA,25207415
490,LAXMI VILAS BANK,LAVB0000754,TADEPALLI,D NO 1 DASH 50 KOTTURU TADEPALLI POVIA KAMAKOTI NAGAR VIJAYAWADA RURAL,GUNTUR,TADEPALLI,ANDHRA PRADESH,2812255
491,LAXMI VILAS BANK,LAVB0000755,THIRUMANGALAM,RSNO140 B4 MAIN ROAD THIRUMANGALAMNAGAPATTINAM DISTRICT,NAGAPATTINAM,THIRUMANGALAM,TAMIL NADU,236900
492,LAXMI VILAS BANK,LAVB0000756,THINDAL ERODE II,"SENGODAMPALAYAM PALLAM,OPP TO SURABHI NURSERY,PERUNDURAI ROAD,THINDAL,ERODE",ERODE,ERODE,TAMIL NADU,0
493,LAXMI VILAS BANK,LAVB0000757,TUMKUR,"BALAJI TOWERS,NEXT TO TGMC BANK HO,NEAR TUMKUR UNIVERSITY,ASHOK NAGAR,B H ROAD,TUMKUR 572 103",TUMKUR,TUMKUR,KARNATAKA,0
494,LAXMI VILAS BANK,LAVB0000758,TIRUVIDAIKAZHI,"55 OLD NO 3 BY 22,SOUTH STREET,MAIN ROAD,THIRUVIDAIKAZHI POST,THARANGAMPADI TK,NAGAPATINAM DT",NAGAPATTINAM,THARANGAMBADI,TAMIL NADU,287444
495,LAXMI VILAS BANK,LAVB0000759,THIMMANANDAL,"15 BY 14,MAIN ROAD,THIMMANANDAL,SANKARAPURAM 606 402",VILLUPURAM,SANKARAPURAM,TAMIL NADU,235666
496,LAXMI VILAS BANK,LAVB0000760,THIMMAPURAM,"DOOR NO 4-3, MAIN ROAD, NEAR WATER PLANT, THIMMAPURAM, EDALAPADU MANDALAM",GUNTUR,GUNTUR,ANDHRA PRADESH,0
497,LAXMI VILAS BANK,LAVB0000761,TIRUVOTTIYUR,D NO 394 T H ROAD TIRUVOTTRIYUR CHENNAI 600019,CHENNAI,CHENNAI,TAMIL NADU,0
498,LAXMI VILAS BANK,LAVB0000762,KANGAYAM ROAD TIRUPPUR,D NO AMARJOTHI A S NAGAR KANGAYAM MAIN ROAD TIRUPPUR TAMILNADU 641604,TIRUPPUR,TIRUPPUR,TAMIL NADU,0
499,LAXMI VILAS BANK,LAVB0000775,UDUPI,D NO 1 4 51 B DHARANI COMPLEX GUNDIBAIL KUNJIBETTU POST KUNDAPURA MAIN ROAD UDUPI KARNATAKA 576102,UDUPI,UDUPI,KARNATAKA,0
500,LAXMI VILAS BANK,LAVB0000776,UDHAYAMARTHANDAPURAM,"RRS COMPLEX, ECR MAIN ROAD,UDHAYAMARTHANDAPURAM,THIRUTHURAIPOONDI TAULK,TIRUVARUR- 614706",TIRUVARUR,THIRUTHURAIPOONDI,TAMIL NADU,0
501,LAXMI VILAS BANK,LAVB0000778,ULAIBETTU,SHIVA RAO NOOYI FOUNDATION PO ULAIBETTU VIA GURPUR DAKSHINA KANNADA DT MANGALORE,DAKSHINA KANNADA,ULAIBETTU,KARNATAKA,0
502,LAXMI VILAS BANK,LAVB0000779,URANGANPATTI,"NO 1/368, MAIN ROAD, URANGANPATTI,MELUR TALUK",MADURAI,MADURAI,TAMIL NADU,0
503,LAXMI VILAS BANK,LAVB0000781,UNJALUR,"44, PANCHAYAT OFFICE ROAD UNJALUR 638 152 ERODE",ERODE,UNJALUR,TAMIL NADU,266564
504,LAXMI VILAS BANK,LAVB0000782,ULIPURAM,"3 BY 95, BAZAAR STREET ULIPURAM 636118ATTUR TALUK SALEM DT TAMIL NADU",SALEM,ULIPURAM,TAMIL NADU,226274
505,LAXMI VILAS BANK,LAVB0000783,UDUMALPET,"100, PALANI ROAD, P B NO 31 UDUMALPET 642 126 COIMBATORE DT TAMIL NADU",COIMBATORE,UDUMALPET,TAMIL NADU,224168
506,LAXMI VILAS BANK,LAVB0000784,UTHAMARKOIL,"BIKCHANDAR KOVIL PANCHAYAT,UTHAMARKOIL,NO.1,TOLLGATE,MANACHALANNUR TK,",TIRUCHIRAPALLI,MANACHANALLUR,TAMIL NADU,9566556863
507,LAXMI VILAS BANK,LAVB0000785,VISHAKAPATNAM EXTENS,"PORT TRUST EMPLOYEES UNION,26 15, 204,MAIN ROAD,VISHAKAPATNAM",VISHAKHAPATNAM,VISHAKAPATNAM,ANDHRA PRADESH,2560027
508,LAXMI VILAS BANK,LAVB0000786,VELLAKOVIL,"91,93,95,73,75,77, VELAYUTHASAMY COMPLEX MUTHUR ROADVELLAKOIL 638 111",ERODE,VELLAKOVIL,TAMIL NADU,263046
509,LAXMI VILAS BANK,LAVB0000787,VISHAKAPATNAM,"9 1 248, 1ST FLOORCBM COMPOUNDASSILIMETTA  VISHAKAPATNAM 530 003 A.",VISHAKHAPATNAM,VISHAKAPATNAM,ANDHRA PRADESH,2704870
510,LAXMI VILAS BANK,LAVB0000788,VADODARA,"85 B, AMIN CHAMBERS P B NO 3760 PRODUCTIVITY ROAD ALKAPURI VADODARA",GANDHINAGAR,VADODARA,GUJARAT,2343692
511,LAXMI VILAS BANK,LAVB0000789,VILANGUDI,JAYAMKONDAM MAIN ROAD V KAIKATTITHELUR P OVILANGUDI 621 704 PERAMBALUR,PERAMBALUR,VILANGUDI,TAMIL NADU,249257
512,LAXMI VILAS BANK,LAVB0000790,VENGAMEDU KARUR,533 SALEM MAIN ROAD VENGAMEDU 639 006 KARUR DT TAMIL NADU,KARUR,VENGAMEDU,TAMIL NADU,220208
513,LAXMI VILAS BANK,LAVB0000791,VELLIYANAI,"G, MAIN ROAD VELLIYANAI 639 118 KARUR DT TAMIL NADU",KARUR,VELLIYANAI,TAMIL NADU,281221
514,LAXMI VILAS BANK,LAVB0000792,VELLORE,"34 C,1ST FLOOR KATPADI ROAD, P B NO417 VELLORE 632 004 VELLORE",VELLORE,VELLORE,TAMIL NADU,2220378
515,LAXMI VILAS BANK,LAVB0000793,VELUR SALEM,2 C THIRUVALLUVAR SALAI VELUR SALEM638 182 NAMAKKAL DT TAMIL NADU,NAMAKKAL,VELUR,TAMIL NADU,220246
516,LAXMI VILAS BANK,LAVB0000794,VETTAVALAM,"22 C, VILLUPURAM ROAD VETTAVALAM 606 754 TIRUVANNAMALAI DT TAMIL NADU",TIRUVANNAMALAI,VETTAVALAM,TAMIL NADU,244221
517,LAXMI VILAS BANK,LAVB0000795,VIJAYAWADA,12 12 4 AND 12 2 268PADI STREET P BNO 12 NEAR BODEMMA HOTEL VIJAYAWAD,KRISHNA,VIJAYAWADA,ANDHRA PRADESH,2567118
518,LAXMI VILAS BANK,LAVB0000796,VILLUPURAM,"186 BY 6 BY 158 BY E, 1ST FLOOR MAHATMA GANDHI ROAD P B NO 13 VILLUPUR",VILLUPURAM,VILLUPURAM,TAMIL NADU,222510
519,LAXMI VILAS BANK,LAVB0000797,VIRUDHUNAGAR,"50 D, KATCHERI ROAD P B NO 46 VIRUDHUNAGAR 626 001 VIRUDHUNAGAR DT TAM",VIRUDHUNAGAR,VIRUDHUNAGAR,TAMIL NADU,243103
520,LAXMI VILAS BANK,LAVB0000798,VRIDHACHALAM,"OLDNO 105, 231 BAZAAR STREET, P B NO 11 VRIDHACHALAM 606 001 CUDDALORE",CUDDALORE,VRIDHACHALAM,TAMIL NADU,230291
521,LAXMI VILAS BANK,LAVB0000799,A VADUGAPALAYAM,4 175 1 PAWADI STREET A VADUGAPALAYAM 641 654 AVINASHI TALUKCOIMBATORE,COIMBATORE,VADUGAPALAYAM,TAMIL NADU,273875
522,LAXMI VILAS BANK,LAVB0000801,VIJAYAWADA II,59 14 2 RING ROAD VIJAYAWADA 520 008 KRISHNA DT ANDHRAPRADESH,KRISHNA,VIJAYAWADA,ANDHRA PRADESH,2490110
523,LAXMI VILAS BANK,LAVB0000802,VINUKONDA,"30 BY 214,KEERTHI TALKIES ROAD, VINUKONDA 522647,GUNTUR DT,ANDRAPRADES",GUNTUR,VINUKONDA,ANDHRA PRADESH,272769
524,LAXMI VILAS BANK,LAVB0000803,VISHVESHWARAPURA,"VISHWESHWARAPURA,BANAUANAHALLI,DODDABALLAPURA ROAD,NELAMANGALA 562113",BANGALORE RURAL,NELAMANGALA,KARNATAKA,27723188
525,LAXMI VILAS BANK,LAVB0000804,VALLIKAVU,NEAR TO IBY8AKULASEKHARAPURAM GRAMA PANCHAYAT,KOLLAM,KOLLAM,KERALA,2641777
526,LAXMI VILAS BANK,LAVB0000805,VENGAIVASAL,"2 BY 152,VENGAIVASAL MAIN ROAD,SANTHOSAPURAM,VENGAIVASAL,CHENNAI",CHENNAI,CHENNAI,TAMIL NADU,22293460
527,LAXMI VILAS BANK,LAVB0000806,VENKATAKRISHNAPURAM,"1 BY 96,VENKATAKRISHNAPURAM VILLAGE,ARIYALUR",KARUR,KARUR,TAMIL NADU,222040
528,LAXMI VILAS BANK,LAVB0000807,VADAVALLI,"VISHAL TOWERS,SF NO.114 BY 2,MARUTHAMALAI MAIN ROAD,VADAVALLI,COIMBATORE 641041",COIMBATORE,VADAVALLI,TAMIL NADU,2232123
529,LAXMI VILAS BANK,LAVB0000808,KACHIRAPALAYAM,"NO 66, KAMARAJ SALAI, KACHIRAPALAYAM, KALLAKURICHI TALUK",VILLUPURAM,VILLUPURAM,TAMIL NADU,0
530,LAXMI VILAS BANK,LAVB0000809,VIZIANAGARAM,"D NO 19-10-11/1, MATAM STREET,VIZIANAGARAM",VIZIANAGARAM,HYDERABAD,ANDHRA PRADESH,0
531,LAXMI VILAS BANK,LAVB0000810,WARRANGAL,DOORNO 8 1 88 OLD BEET BAZAAR STREET WARRANGAL 506 002 WARRANGAL AP,WARANGAL,WARANGAL,ANDHRA PRADESH,2425548
532,LAXMI VILAS BANK,LAVB0000811,VASAI,"GODS GIFT, MARRY VILLA, VASAI ROAD WEST,",VASAI,VASAI,MAHARASHTRA,0
533,LAXMI VILAS BANK,LAVB0000812,VENJUVANCHERI,VANDALUR WALAJABAD HIGH ROAD VENJUVANCHERI KANCHIPURAM DT,KANCHIPURAM,CHENNAI,TAMIL NADU,0
534,LAXMI VILAS BANK,LAVB0000813,VILLAPURAM,NO 248 A ARUPUKKOTTAI MAIN ROAD VILLAPURAM TAMILNADU,MADURAI,MADURAI,TAMIL NADU,0
535,LAXMI VILAS BANK,LAVB0000814,MVP COLONY,NO 33 SECTOR 3 MVP DOUBLE ROAD VISHAKAPATNAM ANDHRA PRADESH,VIZAG,VISHAKAPATNAM,ANDHRA PRADESH,0
536,LAXMI VILAS BANK,LAVB0000815,WEST MARREDPALLI,"D NO 3 9 242,MAIN ROAD,WEST MAREDPALLY,SECUNDERABAD 500 026",HYDERABAD,CONTONMENT,ANDHRA PRADESH,23734333
537,LAXMI VILAS BANK,LAVB0000816,WEST MAMBALAM,NO 31 JAISHANKAR STREET WEST MAMBALAM CHENNAI,CHENNAI,CHENNAI,TAMIL NADU,0
538,LAXMI VILAS BANK,LAVB0000817,VAPI,NO 37 TIRUPATI PLAZA VAPI DAMAN ROAD VALSAD DT GUJARAT 396195,VALSAD,VAPI,GUJARAT,0
539,LAXMI VILAS BANK,LAVB0000818,VILLIVAKKAM,NO 1 NEW AVADI ROAD VILLIVAKKAM CHENNAI,CHENNAI,CHENNAI,TAMIL NADU,0
540,LAXMI VILAS BANK,LAVB0000819,VICHOOR,NO 6 98 PONNERI HIGH ROAD MANALI NEW TOWN VICHOOR CHENNAI 600103,CHENNAI,CHENNAI,TAMIL NADU,0
541,LAXMI VILAS BANK,LAVB0000820,VANASTHALIPURAM,NO C 164 BEHIND SBI AND NEAR GANESH TEMPLE VANASTHALIPURAM 500070,RANGAREDDY,VANASTHALIPURAM,TELANGANA,9985444968
542,LAXMI VILAS BANK,LAVB0000821,VIJAYAPURA,D NO 950 A 2 GROUND FLOOR OPPOSITE TO SIDDESHWARA TEMPLE FRONT DOOR VIJAYAPURA KARNATAKA 586101,VIJAYAPURA,VIJAYAPURA,KARNATAKA,0
543,LAXMI VILAS BANK,LAVB0000822,VIKRAMPURI,"NO 1-6 PLOT NO 6, HYDERABAD ASBESTOS COLONY VIKRAMPURI GUNROCK 500009",HYDERABAD,SECUNDERABAD,TELANGANA,0
544,LAXMI VILAS BANK,LAVB0000823,VIKARABAD,"D NO 4-6-89,90&91,RAILYWAY STATION ROAD",VIKARABAD,VIKARABAD,TELANGANA,0
545,LAXMI VILAS BANK,LAVB0000850,SALEM SERVICE BRANCH,12 B PULIKUTHI MAIN ROAD P B NO 657GUGAI SALEM 636 006 SALEM DT TAMIL,SALEM,SALEM,TAMIL NADU,0
546,LAXMI VILAS BANK,LAVB0000851,COIMBATORE,2ND FLOOR NO 1 HEAD QUARTERS ROAD UPPILIPALAYAM COIMBATORE 641 018,COIMBATORE,COIMBATORE,TAMIL NADU,0
547,LAXMI VILAS BANK,LAVB0000852,MUMBAI SERVICE BRANC,64 DR V B GANDHI MARG P B NO 1783 KALAGHODA FORT MUMBAI 400 001MAHARAS,GREATER BOMBAY,MUMBAI,MAHARASHTRA,0
548,LAXMI VILAS BANK,LAVB0000853,BANGALORE SERVICE,19 B 1ST FLOOR NEAR ABINAY THEATREB V K IYENGAR ROADP B NO 9568 BANGA,BANGALORE URBAN,BANGALORE,KARNATAKA,0
549,LAXMI VILAS BANK,LAVB0000854,ANNAMAYYA CIRCLE TIRUPATHI,NO 19 8 85 4B R C ROAD ANNAMAYYA CIRCLE TIRUPATHI,CHITTOOR,TIRUPATHI,ANDHRA PRADESH,0
550,LAXMI VILAS BANK,LAVB0000874,YELAHANKA,NO 971 1ST CROSS 3RD PHASE YELAHANKA BANGALORE 560064,BANGALORE,BANGALORE,KARNATAKA,0
551,LAXMI VILAS BANK,LAVB0000875,Y OTHAKKADAI,"SRI ESWARI AMMAN TOWERS,MADURAI MELUR MAIN ROAD,Y.OTHAKKADAI,MADURAI DT.625 107",MADURAI,MADURAI,TAMIL NADU,2545900
552,LAXMI VILAS BANK,LAVB0000880,YADGIR,PLOT NO 4 SY NO 147/1 2 NEAR SUBHAM PETROL BUNK,GULBURGA,YADGIR,KARNATAKA,0
553,LAXMI VILAS BANK,LAVB0000881,YETHAPUR,"94, BAZAAR STREET YETHAPUR 636 117SALEM DT TAMIL NADU",SALEM,YETHAPUR,TAMIL NADU,0
554,LAXMI VILAS BANK,LAVB0000882,RTGS CELL,"25-31, ABAN HOUSE, 4TH FLOOR, SRI SAIBABA MARG. KALAGHODA FORT MUMBAI",GREATER BOMBAY,MUMBAI,MAHARASHTRA,0
555,LAXMI VILAS BANK,LAVB0000885,D O BANGALORE,568 38TH CROSS 11TH MAIN 1ST FLOOR5TH BLOCK JAYANAGAR BANGALORE 560 0,BANGALORE URBAN,BANGALORE,KARNATAKA,0
556,LAXMI VILAS BANK,LAVB0000886,D O COIMBATORE,LVB PLATINUM JUBILEE BUILDING 68 OPPANAKARA STREETIIND FLOOR COIMBATOR,COIMBATORE,COIMBATORE,TAMIL NADU,0
557,LAXMI VILAS BANK,LAVB0000887,KARUR RO,SALEM MAIN ROADKATHAPARAI,KARUR,KARUR,TAMIL NADU,0
558,LAXMI VILAS BANK,LAVB0000888,INTERNATIONAL DIVISION,25 31 ABAN HOUSE 4TH FLOOR SRI SAIBABA MARG KALAGHODA FORT MUMBAI,MUMBAI,MUMBAI,MAHARASHTRA,0
559,LAXMI VILAS BANK,LAVB0000889,R O MADURAI,DOOR NO 49A BHARATHI ULA ROAD RACE COURSE,MADURAI,MADURAI,TAMIL NADU,0
560,LAXMI VILAS BANK,LAVB0000891,HYDERABAD RO,SHOW ROOM NO 2  ADITYA TRADE CENTRE  AMEERPET  HYDERABAD500038,HYDERABAD,HYDERABAD,ANDHRA PRADESH,0
561,LAXMI VILAS BANK,LAVB0000892,D O MUMBAI,STERLING CENTRE 2ND FLOOR ANDHERI KURLA ROAD CHAKALA ANDHERI MUMBAI,GREATER BOMBAY,MUMBAI,MAHARASHTRA,0
562,LAXMI VILAS BANK,LAVB0000896,ED OFFICE GURGAON,217 2ND FLOOR TIME TOWERMG ROAD GURGAON HARYANA 122009,GURGAON,GURGAON,HARYANA,0
563,LAXMI VILAS BANK,LAVB0000911,ARAKONAM,D NO H66 TNHB ARAKONAM TIRUTHANI HIGHWAY JOTHI NAGAR,CHENNAI,ARAKONAM,TAMIL NADU,0
564,LAXMI VILAS BANK,LAVB0000912,ADDANKI,NO 30 - 122 AND  123 BUNGALOW ROAD ADDANKI ANDHRAPRADESH,PRAKASM,ADDANKI,ANDHRA PRADESH,0
565,LAXMI VILAS BANK,LAVB0000913,AVADI,265 MTH ROAD GANDHI ROAD AVADI,CHENNAI,CHENNAI,TAMIL NADU,0
566,LAXMI VILAS BANK,LAVB0000914,ARCOT,DNO 2C 1 VELLORE MAIN ROAD ARCOT CHENNAI,CHENNAI,ARCOT,TAMIL NADU,0
567,LAXMI VILAS BANK,LAVB0000915,A.P.NADANUR,APN VILLAGE S.NO.275/1 KADAYAM TIRUNELVELI ROAD ANANAIDA PERUMAL AANDANUR,TIRUNEVELI,KADAYAM,TAMIL NADU,0
568,LAXMI VILAS BANK,LAVB0000926,BELLANDUR,57 1 A DEVARABISENAHALLI BELLANDUR PO,BANGALORE,BELLANDUR,KARNATAKA,9148620777
569,LAXMI VILAS BANK,LAVB0000927,BYDAGI,NO 742 B1 BASAVESHWAR NAGAR GUMMANAHALLI ROAD APMC OUTGATE BYDAGI RANEBENNUR 581106,RANNEBENNUR,BYDAGI,KARNATAKA,0
570,LAXMI VILAS BANK,LAVB0000941,KOODAL NAGAR,D NO. 1-1/26 ANJAL NAGAR THIRD STREET PALAMEDU MAIN ROAD,MADURAI,MADURAI,TAMIL NADU,0
571,LAXMI VILAS BANK,LAVB0000942,KESAMADURAM,NO.5-4-101/2 THORRUR ROAD,MAHABUBABAD,KESAMADURAM,TELANGANA,0
572,LAXMI VILAS BANK,LAVB0000944,FOUR ROAD KUMBAKONAM,"D.NO. 34 B,THIRUVIDAIMARUTHUR MAIN ROAD MAYILADUTHURAI ROAD NEAR RAJMAHAL KALYANA MANDAPAM",THANJAVUR,KUMBAKONAM,TAMIL NADU,0
573,LAXMI VILAS BANK,LAVB0000951,LUDHIANA,MODERN TOWER B 27 LA 2 MODEL TOWN EXTN LUDHIANA PUNJAB,LUDHIANA,LUDHIANA,PUNJAB,0
574,LAXMI VILAS BANK,LAVB0000961,MANAPPARAI,NO 107 DINDIGUL MAIN ROAD OPP LIC OFFICE,TRICHY,TRICHY,TAMIL NADU,0
575,LAXMI VILAS BANK,LAVB0000962,MAHABUBNAGAR,H NO 1 10 14914 NEW TOWN,MABABUNAGAR,MABABUBNAGAR,TELANGANA,0
576,LAXMI VILAS BANK,LAVB0000963,MARKAPUR,"D.NO. 7,310 CUMBUM ROAD MARKAPUR",PRAKASAM,MARKAPUR,ANDHRA PRADESH,0
577,LAXMI VILAS BANK,LAVB0000964,MALIPURAM,D NO 5 60 THIRUMALAGIRI TO THORUR ROAD MALIPURAM VILLAGE THIRUMALAGIRI MANDALAM,SURYAPET,MALIPURAM,TELANGANA,9550900441
578,LAXMI VILAS BANK,LAVB0000965,MANCHERIAL,NO 6 10 MAIN MARKET ROAD NEAR GIRLS HIGH SCHOOL LABOUR OFFICE ROAD MANCHERIAL TELANGANA 504208,MANCHERIAL,MANCHERIAL,TELANGANA,9989147002
579,LAXMI VILAS BANK,LAVB0000966,MALAPPURAM,ALMANARA COMPLEX DOWNHILL TIRUR ROAD,TRISSUR,MALAPPURAM,KERALA,0
580,LAXMI VILAS BANK,LAVB0000967,MACHILIPATNAM,D NO 25 303 BUTTAIPET,KRISHNA,MACHILIPATNAM,ANDHRA PRADESH,0
581,LAXMI VILAS BANK,LAVB0000971,GADDIANNARAM,D NO 13 10 95 NEW GADDIANNARAM HYDERABAD TELANGANA 500060,HYDERABAD,HYDERABAD,TELANGANA,0
582,LAXMI VILAS BANK,LAVB0000972,NERUL,SHOP NO.6 & 7 GROUND FLOOR LAXCON PLAZA PLOT NO.20 & 21 SECTOR 29 NERUL EAST,THANE,NAVI MUMBAI,MAHARASHTRA,0
583,LAXMI VILAS BANK,LAVB0000973,NARSIPATNAM,D NO 34 143 VELAGA BALAYYA COMPLEX FIRST FLOOR RAMARAOPET MAIN ROAD 9 TH WARD NARSIPATNAM VISAKHAPATNAM ANDHRA 531116,VISAKHAPATNAM,NARSIPATNAM,ANDHRA PRADESH,0
584,LAXMI VILAS BANK,LAVB0000974,NEELAGIRI TANJORE,SRI LAKSHMI COMPLEX D.NO.11 & 12 KALANJIAM GARDENS NEAR NEW BUS STAND TRICHY ROAD,THANJAVUR,THANJAVUR,TAMIL NADU,0
585,LAXMI VILAS BANK,LAVB0000989,COMMERCIAL BANKING BRANCH DELHI,M 47 OUTER CIRCLE CONNAUGHT PLACE JANPATH,DELHI,NEW DELHI,DELHI,0
586,LAXMI VILAS BANK,LAVB0000990,COMMERCIAL BANKING BRANCH HYDERABAD,PLOT NO 2 8 2 682 B 2A ROAD NO 12 BANJARA HILLS HYDERABAD TELANGANA 500034,HYDERABAD,HYDERABAD,TELANGANA,0
587,LAXMI VILAS BANK,LAVB0000991,COMMERCIAL BANKING BRANCH BENGALURU,GLOBAL TECH PARK NO 11 GROUND FLOOR O SHAUGHNESSY ROAD LANGFORD TOWN BENGALURU 560025,BENGALURU,BENGALURU,KARNATAKA,0
588,LAXMI VILAS BANK,LAVB0000992,COMMERCIAL BANKING BRANCH KARUR,NO 207 5 V V TOWERS COVAI ROAD KARUR 639002 TAMILNADU,KARUR,KARUR,TAMIL NADU,0
589,LAXMI VILAS BANK,LAVB0000993,COMMERCIAL BANKING BRANCH COIMBATORE,NO 737 1 AL VE AL TOWERS PUILYAKULAM MAIN ROAD NEW DAMU NAGAR COIMBATORE TAMILNADU 641045,COIMBATORE,COIMBATORE,TAMIL NADU,0
590,LAXMI VILAS BANK,LAVB0000994,COMMERCIAL BANKING BRANCH MUMBAI,BHARAT HOUSE 104 BS MARG FORT MUMBAI MAHARASTRA 400001,MUMBAI,MUMBAI,MAHARASHTRA,26273435
591,LAXMI VILAS BANK,LAVB0000995,PERSONAL BANKING BRANCH ABHIRAMAPURAM,NO 4 ABHIRAMAPURAM FOURTH STREET ALWARPET CHENNAI 600018,CHENNAI,CHENNAI,TAMIL NADU,0
592,LAXMI VILAS BANK,LAVB0000996,"COMMERCIAL BANKING BRANCH,CHENNAI",SRINIVAS TOWERS NO.5 CENOTAPH ROAD TEYNAMPET CHENNAI 600018,CHENNAI,CHENNAI,TAMIL NADU,0
593,LAXMI VILAS BANK,LAVB0000997,PERSONAL BANKING BRANCH LANGFORD,GROUND FLOOR GLOBAL TECH PARK NO 11 O SHAUGHNESSY ROAD LANGFORD TOWN BENGALURU 560056028,BENGALURU,BENGALURU,KARNATAKA,0
594,LAXMI VILAS BANK,LAVB0000998,DPCELL,NO 776 SAKTHI TOWERS 4TH FLOORANNASALAI CHENNAI 600002,CHENNAI,CHENNAI,TAMIL NADU,0
595,LAXMI VILAS BANK,LAVB0000999,ATM CELL CHENNAI,189 IST FLOOR AARTHI CHAMBERS ANNASALAI CHENNAI 600 006 TAMILNADU,CHENNAI,CHENNAI,TAMIL NADU,0
