,BANK NAME,IFSC,OFFICE,ADDRESS,DISTRICT,CITY,STATE,PHONE
0,FEDERAL BANK,FDRL0000001,ATM POOL BRANCH,FEDERAL TOWERS ALUVA,ERNAKULAM,ALUVA,KERALA,0
1,FEDERAL BANK,FDRL0000008,CURRENCY CHEST NEW DELHI,"FEDERAL TOWERS, ZONAL OFFICE 2/2, WEST PATEL NAGAR, 110008",NEW DELHI,NEW DELHI,NAGALAND,25885485
2,FEDERAL BANK,FDRL0000016,TREASURY DEPT,TREASURY DEPARTMENT THE FEDERAL BANK LTD LAXMI TOWERS BKC MUMBAI,MUMBAI,MUMBAI,MAHARASHTRA,2525161
3,FEDERAL BANK,FDRL0000035,HEAD OFFICE (HAS),P.B.NO. 103 HEAD OFFICE ALUVA  KL,ERNAKULAM,ALUVA,KERALA,0
4,FEDERAL BANK,FDRL0000037,INFORMATION TECHNOLOGY DEPARTMENT,"P B NO 103,HEAD OFFICE,ALUVA 683 101,KERALA",ERNAKULAM,ALUVA,KERALA,0
5,FEDERAL BANK,FDRL0000111,MUMBAI / ZONAL OFFICE,ZONAL OFFICE 9 LAKSHMI TOWERS GRD FL BANDRA(EAST) MUMBAI,MUMBAI SUBURBAN,MUMBAI,MAHARASHTRA,26506959
6,FEDERAL BANK,FDRL0000121,BANGALORE ZONAL OFFICE,P B NO.  8226  BLDG NO:123/107 1ST FLR 7 BLOCK 2 MAIN RD 27CROSS JAYA NG BAN,BANGALORE,BANGALORE,KARNATAKA,26640563
7,FEDERAL BANK,FDRL0000131,KOLKATA ZONAL OFFICE,ZONAL OFFICE REGENCY-2ND FL 6 HUNGERFORD ST KOLKATA-17,KOLKATA,KOLKATA,WEST BENGAL,22830840
8,FEDERAL BANK,FDRL0000141,ERNAKULAM ZONAL OFFICE,ZONAL OFFICE 6TH FL FEDERAL TOWERS MARINE DRIVE ERNAKULAM,ERNAKULAM,ERNAKULAM,KERALA,2385520
9,FEDERAL BANK,FDRL0000151,KOZHIKODE ZONAL OFFICE,2ND FLOOR FEDERAL TOWER 27/97G MAVOOR RD ARAYIDATHPALAM,KOZHIKODE,KOZHIKODE,KERALA,2741100
10,FEDERAL BANK,FDRL0000171,CHENNAI ZONAL OFFICE,BHATTAD TOWER  IST FLOOR 30 WEST COTT ROAD ROYAPETTAH CHENNAI,CHENNAI,CHENNAI,TAMIL NADU,0
11,FEDERAL BANK,FDRL0000181,NEWDELHI ZONAL OFFICE,ZONAL OFFICE  1/7  FIRST FLOOR PATEL ROAD NEW DELHI,NEW DELHI,NEW DELHI,DELHI,25885485
12,FEDERAL BANK,FDRL0000211,THIRUVANANTHAPURAM ZONALOFFICE,ZONAL OFFICE P.B.NO.303 FEDERAL TOWERS THIRUVANANTHAPURAM,THIRUVANANTHAPURAM,THIRUVANANTHAPURAM,KERALA,2331365
13,FEDERAL BANK,FDRL0000301,THIRUVANANTHAPURAM CREDIT HUB,"CREDIT HUB-SME/RETAIL PB NO.303, FEDERAL TOWERS, M.G.ROAD, STATUE",THIRUVANANTHAPURAM,THIRUVANANTHAPURAM,KERALA,0
14,FEDERAL BANK,FDRL0000303,KOTTAM CREDIT HUB,"KOTTAYAM REGIOANL OFFICE,PB NO 80,THEKKUMKAL BUILDING,T B ROAD , KOTTAYAM 686001",KOTTAYAM,KOTTAYAM,KERALA,2566950
15,FEDERAL BANK,FDRL0000308,CHENNAI CREDIT HUB,"30, WEST COTT ROAD BHATTAD TOWERS, ROYAPETTAH",CHENNAI,CHENNAI,TAMIL NADU,0
16,FEDERAL BANK,FDRL0000311,KOLHAPUR CREDIT HUB,"SHRUSHTI MAHABARAT APARTMENTS,NEAR COLLECTOR OFFICE, MAHALA COLLEGE ROAD, NAGALA PARK, KOLHAPUR, MAHARASHTRA",KOLHAPUR,KOLHAPUR,MAHARASHTRA,2657973
17,FEDERAL BANK,FDRL0000314,COIMBATORE CREDIT HUB,"REGIONAL CREDIT HUB, 1ST FLOOR, DR. NANJAPPA BUILDING, 330, VARIETY HALL, COIMBATORE - 641001",COIMBATORE,COIMBATORE,TAMIL NADU,2305988
18,FEDERAL BANK,FDRL0000315,AHMEDABAD RCH,"401 RBS OPP HK COLLEGE, ASHRAM ROAD , AHMEDABAD, GUJARAT",AHMEDABAD,AHMEDABAD,GUJARAT,26582585
19,FEDERAL BANK,FDRL0000317,PUNE CREDIT HUB,"THE FEDERAL BANK LTD.,, 1STFLOOR, SAIKRUPA BL OPP. SPENCERS,BHANDARKAR ROAD,DECCAN",PUNE,PUNE,MAHARASHTRA,0
20,FEDERAL BANK,FDRL0000319,CRCH CHENNAI,"THIRD FLOOR TRINITY TOWER NEW NO 30 CONRON SMITH ROAD, GOPALAPURAM,TAMILNADU",CHENNAI,CHENNAI,TAMIL NADU,28351141
21,FEDERAL BANK,FDRL0000320,GOVERNMENT BUSINESS DEPARTMENT,"2ND FLOOR, C WING, LAXMI TOWER, BANDRA KURLA COMPLEX, MUMBAI 400051",MUMBAI,MUMBAI,MAHARASHTRA,61748727
22,FEDERAL BANK,FDRL0000401,DPS DIVISON ERNAKULAM,"DEPOSITORY SERVICE DIVISION, FEDERAL TOWERS MARINE DRIVE ERNAKULAM , KOCHI 682031",ERNAKULAM,ERNAKULAM,KERALA,2367101
23,FEDERAL BANK,FDRL0000501,ERNAKULAM/SERVICE,"SERVICE BRANCH, GROUND FLOOR FEDERAL TOWERS, ERNAKULAM",ERNAKULAM,ERNAKULAM,KERALA,0
24,FEDERAL BANK,FDRL0000502,CHENNAI / FUNDS & INVESTMENT,"W -121, FIRM TOWERS,I FLOOR 3RD AVENUE,ANNA NAGAR,",CHENNAI,CHENNAI,TAMIL NADU,0
25,FEDERAL BANK,FDRL0000503,NEWDELHI / FUNDS & INVESTMENT,FUNDS AND INVESTMENT BRANCH M-74  CONNAUGHT CIRCUS NEW DELHI,NEW DELHI,NEW DELHI,DELHI,23415434
26,FEDERAL BANK,FDRL0000504,MUMBAI / FUNDS & INVESTMENTS,"1ST FLOOR,NARIMAN BHAVAN, NARIMAN POINT",MUMBAI,MUMBAI,MAHARASHTRA,0
27,FEDERAL BANK,FDRL0000505,KOLKATA / FUNDS & INVESTMENT,FUNDS & INVESTMENT BRANCH 1/1  CAMAC STREET KOLKATA,KOLKATA,KOLKATA,WEST BENGAL,22171743
28,FEDERAL BANK,FDRL0000506,BANGALORE /  F & I BRANCH,"FUNDS & INVESTMENT BRANCH, NO.24, MEAZZANINE FLOOR, 2ND CROSS, GANDHINAGAR",BANGALORE,BANGALORE,KARNATAKA,22201998
29,FEDERAL BANK,FDRL0000507,THIRUVANANTHAPURAM/SERVICE,"FIRST FLOOR SAMRUDHI ANUPAM TC27/517(2) PATTOOR,VANCHIYOOR",THIRUVANANTHAPURAM,THIRUVANANTHAPURAM,KERALA,0
30,FEDERAL BANK,FDRL0000508,KOZHIKODE / SERVICE,FIRST FLOOR  FEDERAL TOWERS 27/97G  MAVOOR ROAD KOZHIKODE,KOZHIKODE,KOZHIKODE,KERALA,2744569
31,FEDERAL BANK,FDRL0000509,THRISSUR / SERVICE,SERVICE BRANCH  DOOR NO.28/637 ANJALI COMMERCIAL COMPLEX THRISSUR,THRISSUR,THRISSUR,KERALA,2321182
32,FEDERAL BANK,FDRL0000510,ALAPUZHA / SERVICE,421 N 2ND FLOOR  CHANDRA SQUARE CULLEN ROAD ALAPUZHA,ALAPUZHA,ALAPUZHA,KERALA,2230636
33,FEDERAL BANK,FDRL0000511,KOLLAM / SERVICE,MAH BUILDING BEACH ROAD KOLLAM,KOLLAM,KOLLAM,KERALA,2766952
34,FEDERAL BANK,FDRL0000512,KOTTAYAM / SERVICE,THEKKUMKAL BUILDINGS T.B. ROAD  KOTTAYAM,KOTTAYAM,KOTTAYAM,KERALA,2583322
35,FEDERAL BANK,FDRL0000513,PATHANAMTHITTA/SERVICE,SERVICE BRANCH 1ST FLOOR PATHANAMTHITTA,PATHANAMTHITTA,PATHANAMTHITTA,KERALA,2322026
36,FEDERAL BANK,FDRL0000514,PALAKKAD / SERVICE,2ND FLOOR SANJO TOWERS 2ND FLOOR SANJO TOWERS PALAKKAD,PALAKKAD,PALAKKAD,KERALA,0
37,FEDERAL BANK,FDRL0000515,KANNUR / SERVICE,NO. CW 35/1647 - 1650 JUBILY COMPLEX ONDEN ROAD  KANNUR,KANNUR,KANNUR,KERALA,2707701
38,FEDERAL BANK,FDRL0000516,HYDERABAD / SERVICE BRANCH,"UNIT NO.301, III FLOOR DEGA TOWERS,RAJBHAVAN SOMAJIGUDA, BEGMPET, HYDERABAD",HYDERABAD,HYDERABAD,ANDHRA PRADESH,0
39,FEDERAL BANK,FDRL0000FMC,TREASURY FMC,"C8, LAKSHMI TOWERS, BKC MUMBAI",MUMBAI,MUMBAI,MAHARASHTRA,26566644
40,FEDERAL BANK,FDRL0000TSY,TREASURY DEPT,"C-8, FIRST FLOOR, LAXMI TOWERS, BKC MUMBAI 400051",MUMBAI,MUMBAI,MAHARASHTRA,26566632
41,FEDERAL BANK,FDRL0001001,ALUVA / BANK JUNCTION,I ST FLOOR  FEDERAL HEIGHTS BYE PASS JUNCTION ALUVA,ERNAKULAM,ALUVA,KERALA,0
42,FEDERAL BANK,FDRL0001002,ANGAMALY,P B NO. 10 ANGAMALLY ANGAMALY,ERNAKULAM,ANGAMALY,KERALA,0
43,FEDERAL BANK,FDRL0001003,PERUMBAVOOR,P B NO. 6 FEDERAL CHAMBERS PERUMBAVOOR,ERNAKULAM,PERUMBAVOOR,KERALA,0
44,FEDERAL BANK,FDRL0001004,ERNAKULAM/NORTH,P B NO. 1927 BANERJI ROAD ERNAKULAM NORTH  KOCHI,ERNAKULAM,ERNAKULAM,KERALA,0
45,FEDERAL BANK,FDRL0001005,CHALAKUDY,P B NO. 20 CHALAKUDY CHALAKUDY,THRISSUR,CHALAKUDY,KERALA,0
46,FEDERAL BANK,FDRL0001006,KOOTHATTUKULAM,P B NO. 3 M C ROAD KOOTHATUKULAM,ERNAKULAM,KOOTHATTUKULAM,KERALA,2252026
47,FEDERAL BANK,FDRL0001007,EDVANAKKAD,ILLATHUPADI EDAVANAKKAD EDAVANAKKAD,ERNAKULAM,EDVANAKKAD,KERALA,2505327
48,FEDERAL BANK,FDRL0001008,KOTHAMANGALAM,P B NO. 4 KOTHAMANGALAM KOTHAMANGALAM,ERNAKULAM,KOTHAMANGALAM,KERALA,2862247
49,FEDERAL BANK,FDRL0001009,MUVATTUPUZHA,P B NO. 8 MUVATTUPUZHA MUVATTUPUZHA,ERNAKULAM,MUVATTUPUZHA,KERALA,2832906
50,FEDERAL BANK,FDRL0001010,MUNNAR,P B NO. 15 MUNNAR MUNNAR,IDUKKI,MUNNAR,KERALA,0
51,FEDERAL BANK,FDRL0001011,KOLENCHERRY,P B NO. 3 KOLENCHERY KOLENCHERY,ERNAKULAM,KOLENCHERRY,KERALA,0
52,FEDERAL BANK,FDRL0001012,KALAMASSERY,P B NO. 18 PREMIER JUNCTION KALAMASSERY,ERNAKULAM,KALAMASSERY,KERALA,0
53,FEDERAL BANK,FDRL0001013,THALAYOLAPARAMBU,THALAYOLAPARAMBU THALAYOLAPARAMBU THALAYOLAPARAMBU,KOTTAYAM,THALAYOLAPARAMBU,KERALA,236125
54,FEDERAL BANK,FDRL0001014,THRISSUR / MAIN,ANJALI  COMPLEX ROUND NORTH THRISSUR,THRISSUR,THRISSUR,KERALA,0
55,FEDERAL BANK,FDRL0001015,ALAPUZHA,"SREE RAJARAJESWARY BUILDING, CHURCH ROAD MULLACKAL, ALAPUZHA DIST.",ALAPUZHA,ALAPUZHA,KERALA,2261732
56,FEDERAL BANK,FDRL0001016,VARAPUZHA,VARAPUZHA VARAPUZHA VARAPUZHA,ERNAKULAM,VARAPUZHA,KERALA,2513021
57,FEDERAL BANK,FDRL0001017,KALLETTUMKARA,KALLETTUMKARA KALLETTUMKARA KALLETTUMKARA,THRISSUR,THRISSUR,KERALA,2881856
58,FEDERAL BANK,FDRL0001018,NEDUMKANDAM,"CENTRAL JUNCTION NEDUMKANDAM ,IDUKKI DISTRICT",IDUKKI,NEDUMKANDAM,KERALA,232021
59,FEDERAL BANK,FDRL0001019,KOLLAM,RAVI S ARCADE NEAR IRON BRIDGE KOLLAM,KOLLAM,KOLLAM,KERALA,2796088
60,FEDERAL BANK,FDRL0001020,NARAKKAL,MANJOORANS BUILDINGS NARAKKAL NARAKKAL,ERNAKULAM,NARAKKAL,KERALA,2492348
61,FEDERAL BANK,FDRL0001021,THIRUVANANTHAPURAM/PALAYAM,P B NO. 5406 PALAYAM THIRUVANANTHAPURAM,THIRUVANANTHAPURAM,THIRUVANANTHAPURAM,KERALA,0
62,FEDERAL BANK,FDRL0001022,VIZHINJAM,"KMS COMPLEX, VIZHINJAM JUNCTION THIRUVANANTHAPURAM  DISTRICT",THIRUVANANTHAPURAM,VIZHINJAM,KERALA,2480823
63,FEDERAL BANK,FDRL0001023,MOOLAMATTOM,"KALAPURAYIL BUILDING, IDUKKI  DISTRICT",IDUKKI,MOOLAMATTOM,KERALA,252047
64,FEDERAL BANK,FDRL0001024,CHENGANNUR,P B NO. 1 ENGG. COLLEGE ROAD CHENGANNUR,ALAPUZHA,CHENGANNUR,KERALA,0
65,FEDERAL BANK,FDRL0001025,KOTTAYAM,P B NO. 269 T B ROAD KOTTAYAM,KOTTAYAM,KOTTAYAM,KERALA,0
66,FEDERAL BANK,FDRL0001026,KOZHENCHERRY,P B NO. 6 KOZHENCHERRY PIN-689641,PATHANAMTHITTA,KOZHENCHERRY,KERALA,0
67,FEDERAL BANK,FDRL0001027,PARASSALA,PARASSALA PARASSALA PARASSALA,THIRUVANANTHAPURAM,PARASSALA,KERALA,2202031
68,FEDERAL BANK,FDRL0001028,PUNALUR,P B NO. 8 PUNALUR PUNALUR,KOLLAM,PUNALUR,KERALA,0
69,FEDERAL BANK,FDRL0001029,TIRUVALLA,P B NO. 19 M C ROAD TIRUVALLA,PATHANAMTHITTA,TIRUVALLA,KERALA,2630468
70,FEDERAL BANK,FDRL0001030,THIRUVANANTHAPURAM/STATUE,P B NO. 2 1ST FLOOR  FEDERAL TOWERS THIRUVANANTHAPURAM,THIRUVANANTHAPURAM,THIRUVANANTHAPURAM,KERALA,2329543
71,FEDERAL BANK,FDRL0001031,KANJIRAPPALLY,"SAMANVAYA COMPLEX THAMBALAKKAD ROAD, KANJIRAPPALLY",KOTTAYAM,KOTTAYAM,KERALA,482203109
72,FEDERAL BANK,FDRL0001032,ANCHAL,P B NO. 2 R.O. JUNCTION ANCHAL,KOLLAM,ANCHAL,KERALA,0
73,FEDERAL BANK,FDRL0001033,KOCHI,P B NO. 334 PARVANA JUNCTION MATTANCHERRY  KOCHI,ERNAKULAM,KOCHI,KERALA,2224134
74,FEDERAL BANK,FDRL0001034,THRIKKAKKARA,CHEMBUMUKKU THRIKKAKARA KOCHI,ERNAKULAM,THRIKKAKKARA,KERALA,2427156
75,FEDERAL BANK,FDRL0001035,KIZHAKKAMBALAM,KIZHAKKAMBALAM KIZHAKKAMBALAM KIZHAKKAMBALAM,ERNAKULAM,KIZHAKKAMBALAM,KERALA,2682700
76,FEDERAL BANK,FDRL0001036,KOTTARAKKARA,P B NO. 1 PULAMON P O KOTTARAKKARA,KOLLAM,KOTTARAKKARA,KERALA,0
77,FEDERAL BANK,FDRL0001037,CHANGANASSERY,P B NO. 24 CHANGANASSERY CHANGANASSERY,KOTTAYAM,CHANGANASSERY,KERALA,2420463
78,FEDERAL BANK,FDRL0001038,THALAVADY,"ANAPRAMPAL NORTH PO THALAVADY, ALAPUZHA DIST.",ALAPUZHA,THALAVADY,KERALA,0
79,FEDERAL BANK,FDRL0001039,PATHANAMTHITTA,P B NO. 14 PATHANAMTHITTA PATHANAMTHITTA,PATHANAMTHITTA,PATHANAMTHITTA,KERALA,2224360
80,FEDERAL BANK,FDRL0001040,PAZHAVANGADY,P B NO. 1 PAZHAVANGADY RANNI RANNI,PATHANAMTHITTA,PAZHAVANGADY,KERALA,0
81,FEDERAL BANK,FDRL0001041,MAVELIKARA,P B NO. 3 PUTHIYACAVU MAVELIKKARA,ALAPUZHA,MAVELIKARA,KERALA,2300322
82,FEDERAL BANK,FDRL0001042,ADOOR,P B NO. 3 M.C.ROAD,PATHANAMTHITTA,ADOOR,KERALA,0
83,FEDERAL BANK,FDRL0001043,MANJAPRA,MANJAPRA ANGAMALLY(VIA) ANGAMALLY(VIA),ERNAKULAM,MANJAPRA,KERALA,2690253
84,FEDERAL BANK,FDRL0001044,ETTUMANOOR,P B NO. 5 ETTUMANOOR ETTUMANOOR,KOTTAYAM,ETTUMANOOR,KERALA,0
85,FEDERAL BANK,FDRL0001045,NEDUMKUNNAM,NEDUMKUNNAM NEDUMKUNNAM NEDUMKUNNAM,KOTTAYAM,NEDUMKUNNAM,KERALA,2415175
86,FEDERAL BANK,FDRL0001046,PAPPANAMCODE,T.C NO.51/234 (1) MUSTAFFA TOWERS THIRUVANANTHAPURAM,THIRUVANANTHAPURAM,THIRUVANANTHAPURAM,KERALA,0
87,FEDERAL BANK,FDRL0001047,MOOKKANNOOR,MOOKKANNOOR ANGAMALLY (VIA) ANGAMALLY (VIA),ERNAKULAM,MOOKKANNOOR,KERALA,2615229
88,FEDERAL BANK,FDRL0001048,NEDUMBASSERY,NEDUMBASSERY VAPPALASSERY P O ANGAMALLY,ERNAKULAM,NEDUMBASSERY,KERALA,0
89,FEDERAL BANK,FDRL0001049,POOVATHUSSERY,POOVATHUSSERY PARAKKADAVU P O PARAKKADAVU P O,ERNAKULAM,POOVATHUSSERY,KERALA,2471398
90,FEDERAL BANK,FDRL0001050,KANJOOR,KANJOOR KANJOOR KANJOOR,ERNAKULAM,KANJOOR,KERALA,2465193
91,FEDERAL BANK,FDRL0001051,POOCHAKKAL,POOCHAKKAL POOCHAKKAL POOCHAKKAL,ALAPUZHA,POOCHAKKAL,KERALA,2532268
92,FEDERAL BANK,FDRL0001052,PATHANAPURAM,PATHANAPURAM PATHANAPURAM PATHANAPURAM,KOLLAM,PATHANAPURAM,KERALA,2354288
93,FEDERAL BANK,FDRL0001053,KAVALAM,KAVALAM KAVALAM KAVALAM,ALAPUZHA,KAVALAM,KERALA,2747221
94,FEDERAL BANK,FDRL0001054,KAYAMKULAM,P B NO. 19 K P ROAD KAYAMKULAM,ALAPUZHA,KAYAMKULAM,KERALA,2442413
95,FEDERAL BANK,FDRL0001055,VAZHITHALA,GROUND FLOOR BUILDING NO.IV/97 VAZHITHALA,IDUKKI,VAZHITHALA,KERALA,273458
96,FEDERAL BANK,FDRL0001056,KOZHIKODE,P B NO. 1114 CHEROOTY ROAD KOZHIKODE,KOZHIKODE,KOZHIKODE,KERALA,2360967
97,FEDERAL BANK,FDRL0001057,KADAKKAL,P B NO 2 KADAKKAL KADAKKAL,KOLLAM,KADAKKAL,KERALA,2423980
98,FEDERAL BANK,FDRL0001058,GIRINAGAR,GIRINAGAR ELAMKULAM KADAVANTHRA P O  KOCHI,ERNAKULAM,ERNAKULAM,KERALA,2203162
99,FEDERAL BANK,FDRL0001059,KODUVALLY,FAROOQUE COMMERCIAL ARCADE KODUVALLY KODUVALLY,KOZHIKODE,KODUVALLY,KERALA,2210266
100,FEDERAL BANK,FDRL0001060,PIRAVOM,THODUPUZHA ROAD PIRAVOM PIRAVOM,ERNAKULAM,PIRAVOM,KERALA,2243551
101,FEDERAL BANK,FDRL0001061,KUMPLAMPOIKA,KUMPLAMPOIKA KUMPLAMPOIKA KUMPLAMPOIKA,PATHANAMTHITTA,KUMPLAMPOIKA,KERALA,252038
102,FEDERAL BANK,FDRL0001062,VENGOOR,VENGOOR VENGOOR VENGOOR,ERNAKULAM,VENGOOR,KERALA,0
103,FEDERAL BANK,FDRL0001063,EDAVA,P B NO. 503 EDAVA EDAVA,THIRUVANANTHAPURAM,EDAVA,KERALA,2660431
104,FEDERAL BANK,FDRL0001064,AROOR,ST.AUGUSTINE S CHURCH BUILDING BYE PASS JN. AROOR,PATHANAMTHITTA,AROOR,KERALA,2872001
105,FEDERAL BANK,FDRL0001065,KONNI,OPP. PRIVATE BUS STAND PATHANAMTHITTA,PATHANAMTHITTA,KONNI,KERALA,0
106,FEDERAL BANK,FDRL0001066,CHIRAYINKEEZHU,P B NO 406 MEDAYIL TOWERS CHIRAYINKEEZHU,THIRUVANANTHAPURAM,CHIRAYINKEEZHU,KERALA,2640263
107,FEDERAL BANK,FDRL0001067,GANDHINAGAR,P B NO. 2 GANDHINAGAR KOTTAYAM,KOTTAYAM,GANDHINAGAR,KERALA,0
108,FEDERAL BANK,FDRL0001068,VALAKUZHY,VALAKUZHY VENNIKULAM VENNIKULAM,PATHANAMTHITTA,VALAKUZHY,KERALA,2654688
109,FEDERAL BANK,FDRL0001069,SULTHANBATHERY,MULLAM POTTACKAL BUILDINGS P B NO. 5 SULTHANBATHERY,WAYANAD,SULTHANBATHERY,KERALA,226159
110,FEDERAL BANK,FDRL0001070,NILESHWAR,CITY CENTRE RAJA ROAD NILESHWAR,KASARAGODE,NILESHWAR,KERALA,2281080
111,FEDERAL BANK,FDRL0001071,VADAKARA,"FEDERAL BANK LTD APPUS COMPLEX,VADAKARA",KOZHIKODE,VADAKARA,KERALA,2517898
112,FEDERAL BANK,FDRL0001072,NEDUMANGADU,P B NO. 2 P S H MEMORIAL SHOPPING COMPLEX NEDUMANGAD,THIRUVANANTHAPURAM,NEDUMANGADU,KERALA,2803006
113,FEDERAL BANK,FDRL0001073,PUTTADI,PUTTADI VANDANMEDU VANDANMEDU,PUTTADI,PUTTADI,KERALA,277040
114,FEDERAL BANK,FDRL0001074,THAKAZHY,WARRIER BUILDING THAKAZHY THAKAZHY,ALAPUZHA,THAKAZHY,KERALA,0
115,FEDERAL BANK,FDRL0001075,PACHALAM,BAGYODAYA BUILDINGS PACHALAM KOCHI,ERNAKULAM,PACHALAM,KERALA,0
116,FEDERAL BANK,FDRL0001076,KOORACHUNDA,KOORACHUNDU ATHIYODI ATHIYODI,KOORACHUNDA,KOORACHUNDA,KERALA,2660227
117,FEDERAL BANK,FDRL0001077,AREACODE,MUKKOM ROAD MUKKOM ROAD AREACODE,MALAPPURAM,AREACODE,KERALA,2850239
118,FEDERAL BANK,FDRL0001078,MUTTOM (IDUKKI),MUTTOM MUTTOM MUTTOM,IDUKKI,MUTTOM (IDUKKI),KERALA,255026
119,FEDERAL BANK,FDRL0001079,BEEMANODI,BEEMANODI NILESHWAR (VIA) NILESHWAR (VIA),KASARAGODE,BEEMANODI,KERALA,2241326
120,FEDERAL BANK,FDRL0001080,RAJAPURAM,RAJAPURAM KASARGODE DIST,KASARAGODE,RAJAPURAM,KERALA,2224021
121,FEDERAL BANK,FDRL0001081,PALAKKAD,"SAI KRISHNA RESIDENCY,KUNNATHURMEDU,  PALAKKAD 678013",PALAKKAD,PALAKKAD,KERALA,2534281
122,FEDERAL BANK,FDRL0001082,KULANADA,M C ROAD KULANADA KULANADA,PATHANAMTHITTA,KULANADA,KERALA,260154
123,FEDERAL BANK,FDRL0001083,KALLADA WEST,KALLADA WEST KARALI JUNCTION P O KARALI JUNCTION P O,KOLLAM,KALLADA WEST,KERALA,2830252
124,FEDERAL BANK,FDRL0001084,OYOOR,OYOOR OYOOR OYOOR,KOLLAM,OYOOR,KERALA,2466547
125,FEDERAL BANK,FDRL0001085,ELANTHOOR,ELANTHOOR ELANTHOOR ELANTHOOR,PATHANAMTHITTA,ELANTHOOR,KERALA,2361050
126,FEDERAL BANK,FDRL0001086,MUTHALAMADA,MUTHALAMADA MUTHALAMADA MUTHALAMADA,PALAKKAD,MUTHALAMADA,KERALA,275573
127,FEDERAL BANK,FDRL0001087,KAKKATHURUTHY,KAKKATHURUTHY EDATHIRINJI P O IRINJALAKUDA,THRISSUR,KAKKATHURUTHY,KERALA,2845251
128,FEDERAL BANK,FDRL0001088,THALASSERY,"PB NO.3 45/73A, LOGANS ROAD,",KANNUR,THALASSERY,KERALA,0
129,FEDERAL BANK,FDRL0001089,KALLADIKODE,HAREKRISHNA BUILDINGS T B JUNCTION KALLADIKODE,PALAKKAD,KALLADIKODE,KERALA,246222
130,FEDERAL BANK,FDRL0001090,MUKKOM,P C ROAD MUKKOM KOZHIKODE ROAD,KOZHIKODE,MUKKOM,KERALA,0
131,FEDERAL BANK,FDRL0001091,IDUKKI,IDUKKI COLONY  P O IDUKKI COLONY P O IDUKKI COLONY P O,IDUKKI,IDUKKI,KERALA,2235334
132,FEDERAL BANK,FDRL0001092,COIMBATORE,P B NO.545 21 VARIETY HALL ROAD COIMBATORE,COIMBATORE,COIMBATORE,TAMIL NADU,0
133,FEDERAL BANK,FDRL0001093,MANAMBOOR,MANAMBOOR KAVALAYOOR B O MOONGODE P O,THIRUVANANTHAPURAM,MANAMBOOR,KERALA,2688036
134,FEDERAL BANK,FDRL0001094,TRIPUNITHURA,P B NO. 4 FEDERAL BHAVAN TRIPUNITHURA,ERNAKULAM,TRIPUNITHURA,KERALA,2777438
135,FEDERAL BANK,FDRL0001095,CHERTHALA,P B NO. 22 MUTTOM BAZAR CHERTHALA,ALAPUZHA,CHERTHALA,KERALA,2813039
136,FEDERAL BANK,FDRL0001096,VAIKOM,P B NO. 7 WEST GATE VAIKOM,KOTTAYAM,VAIKOM,KERALA,0
137,FEDERAL BANK,FDRL0001097,PALA,"KATTAKKAYAM ROAD, KOTTAYAM DIST.",KOTTAYAM,PALAI,KERALA,0
138,FEDERAL BANK,FDRL0001098,KANNUR,"GRAND PLAZA, FORT ROAD, KANNUR CNN@FEDERALBANK.CO.IN, SWIFT: FDRLINBBCNN",KANNUR,KANNUR,KERALA,0
139,FEDERAL BANK,FDRL0001099,MUMBAI / FORT,"32/34, Church Gate House,Veer Nariman Road, Fort, Mumbai",MUMBAI,MUMBAI,MAHARASHTRA,22680011
140,FEDERAL BANK,FDRL0001100,CHENNAI / MOUNT ROAD,S V S CLUB BUILDING 61  ANNA SALAI CHENNAI,CHENNAI,CHENNAI,TAMIL NADU,28549280
141,FEDERAL BANK,FDRL0001101,KARAKONAM,KARAKONAM P O KUNNATHUKAL KUNNATHUKAL,THIRUVANANTHAPURAM,KARAKONAM,KERALA,2251721
142,FEDERAL BANK,FDRL0001102,MALAPPURAM,P B NO. 218 DOWN HILL P O MALAPPURAM,MALAPPURAM,MALAPPURAM,KERALA,2734877
143,FEDERAL BANK,FDRL0001103,KOLKATA / C.R.AVENUE,8 CHITTARANJAN AVENUE KOLKATA KOLKATA,KOLKATA,KOLKATA,WEST BENGAL,22126352
144,FEDERAL BANK,FDRL0001104,BANGALORE / ST MARKS ROAD,"NO. 9, HALCYON COMPLEX ST. MARKS ROAD",BANGALORE,BANGALORE,KARNATAKA,0
145,FEDERAL BANK,FDRL0001105,NEW DELHI / CONNAUGHT CIRCUS,M-17CONNAUGHT CIRCUS NEW DELHI NEW DELHI,NEW DELHI,NEW DELHI,DELHI,0
146,FEDERAL BANK,FDRL0001106,KOLLAPPALLY,KOLLAPPALLY ANTHINADU ANTHINADU,KOTTAYAM,KOLLAPPALLY,KERALA,246349
147,FEDERAL BANK,FDRL0001107,KARUNAGAPPALLY,P B NO. 5 KARUNAGAPPALLY KARUNAGAPPALLY,KOLLAM,KARUNAGAPPALLY,KERALA,2620161
148,FEDERAL BANK,FDRL0001108,NAGERCOIL,GROUND FLOOR 110  COURT ROAD NAGERCOIL,NAGERCOIL,NAGERCOIL,TAMIL NADU,232760
149,FEDERAL BANK,FDRL0001109,PERUVA,PERUVA PERUVA PERUVA,KOTTAYAM,PERUVA,KERALA,251174
150,FEDERAL BANK,FDRL0001110,CHERUVANNOOR,P. B. NO.35 CHERUVANNUR FEROKE,KOZHIKODE,CHERUVANNOOR,KERALA,0
151,FEDERAL BANK,FDRL0001111,BEYPORE,MATHOTTAM ARAKKINAR  BEYPORE ARAKKINAR  BEYPORE,KOZHIKODE,BEYPORE,KERALA,2414227
152,FEDERAL BANK,FDRL0001112,KUTTIPURAM,KUTTIPPURAM KUTTIPPURAM KUTTIPPURAM,MALAPPURAM,KUTTIPURAM,KERALA,2608361
153,FEDERAL BANK,FDRL0001113,MEVALLOOR,PUNCHAYIL BUILDINGS MEVALLOOR MEVALLOOR,KOTTAYAM,MEVALLOOR,KERALA,257131
154,FEDERAL BANK,FDRL0001114,PANANGAD,MADAVANA PANANGAD PANANGAD,ERNAKULAM,ERNAKULAM,KERALA,2700268
155,FEDERAL BANK,FDRL0001115,POOVARANI,PAIKA JUNCTION POOVARANI POOVARANI,KOTTAYAM,POOVARANI,KERALA,2225339
156,FEDERAL BANK,FDRL0001116,CHEMBERI,CHEMBERI CHEMBERI CHEMBERI,KANNUR,CHEMBERI,KERALA,2213633
157,FEDERAL BANK,FDRL0001117,KALOOR,KALOOR KALLOORKAD (VIA) KALLOORKAD (VIA),ERNAKULAM,KALOOR,KERALA,2267234
158,FEDERAL BANK,FDRL0001118,PAMPADY,P B NO. 3 PAMPADY PAMPADY,KOTTAYAM,PAMPADY,KERALA,2505751
159,FEDERAL BANK,FDRL0001119,CHALIYAM,APCO ANNEX CHALIYAM P O,KOZHIKODE,KOZHIKODE,KERALA,0
160,FEDERAL BANK,FDRL0001120,PANDIKAD,MANJERY ROAD PANDIKAD PANDIKAD,MALAPPURAM,PANDIKAD,KERALA,2783744
161,FEDERAL BANK,FDRL0001121,THODUPUZHA,PULIMOOTTIL ROY ROJER TOWERS AMBALAM BYE PASS ROAD IDUKKI DIST.,IDUKKI,THODUPUZHA,KERALA,0
162,FEDERAL BANK,FDRL0001122,EDAVANNA,A S COMPLEX EDAVANNA EDAVANNA,MALAPPURAM,EDAVANNA,KERALA,2700253
163,FEDERAL BANK,FDRL0001123,KILIMANOOR,"FEDERAL BANK,V K GRAND AVENUE,NEAR TOWNHALL,KILIMANOOR",THIRUVANANTHAPURAM,KILIMANOOR,KERALA,2672519
164,FEDERAL BANK,FDRL0001124,HYDERABAD,"P O BOX 230, BLDG NO-4-3-389 TO 392,411,422 OPPOSITE SURABHI COMPLEX, BANK STREET",HYDERABAD,HYDERABAD,ANDHRA PRADESH,0
165,FEDERAL BANK,FDRL0001125,NORTH PARAVUR,P B NO. 9 NORTH PARAVUR NORTH PARAVUR,ERNAKULAM,NORTH PARAVUR,KERALA,2447794
166,FEDERAL BANK,FDRL0001126,PAYYANNUR,P B NO. 20 MAIN ROAD PAYYANNUR,KANNUR,PAYYANNUR,KERALA,206243
167,FEDERAL BANK,FDRL0001127,TALIPARAMBA,"AJRU TOWERS, BANK STREET TALIPARAMBA",KANNUR,KANNUR,KERALA,0
168,FEDERAL BANK,FDRL0001128,ANGADIPURAM,P B NO. 1 ANGADIPURAM ANGADIPURAM,MALAPPURAM,ANGADIPURAM,KERALA,226672
169,FEDERAL BANK,FDRL0001129,VARKALA,P B NO. 1423 PERUMKUDY SHOPPING COMPLEX VARKALA,THIRUVANTHAPURAM,VARKALA,KERALA,0
170,FEDERAL BANK,FDRL0001130,PATTAZHI,PATTAZHI KOTTARAKKARA KOTTARAKKARA,KOLLAM,PATTAZHI,KERALA,2399447
171,FEDERAL BANK,FDRL0001131,MANNAR,P B NO. 4 MANNAR MANNAR,ALAPUZHA,MANNAR,KERALA,2315962
172,FEDERAL BANK,FDRL0001132,ALUVA / RSS,"P.B.NO.80,NO.XII/125, CSI DIAMOND ARCADE, PUMP JUNCTION, ALUVA",ERNAKULAM,ALUVA,KERALA,0
173,FEDERAL BANK,FDRL0001133,PONKUNNAM,P B NO. 4 K K ROAD PONKUNNAM,KOTTAYAM,PONKUNNAM,KERALA,222560
174,FEDERAL BANK,FDRL0001134,ERAVIPEROOR,P B NO. 5 ERAVIPEROOR ERAVIPEROOR,PATHANAMTHITTA,ERAVIPEROOR,KERALA,2666203
175,FEDERAL BANK,FDRL0001135,CHITTAR,KODOORUZHATHIL BUILDINGS KODOORUZHATHIL BUILDINGS CHITTAR,PATHANAMTHITTA,CHITTAR,KERALA,0
176,FEDERAL BANK,FDRL0001136,PARAKODE,P B NO. 2 PARAKODE PARAKODE,PATHANAMTHITTA,PARAKODE,KERALA,216438
177,FEDERAL BANK,FDRL0001137,ERATTAYAR,ERATTAYAR KATTAPPANA KATTAPPANA,IDUKKI,ERATTAYAR,KERALA,276006
178,FEDERAL BANK,FDRL0001138,VALAPATTANAM,VALAPATANAM HIGHWAY JN PUTHIYATHERU,VALAPATTANAM,VALAPATTANAM,KERALA,0
179,FEDERAL BANK,FDRL0001139,TIRUNELVELI,"MURUGANKURICHI, TIRUCHENDUR ROAD PALAYAMKOTTAI , TIRUNELVELI",TIRUNELVELI,TIRUNELVELI,TAMIL NADU,0
180,FEDERAL BANK,FDRL0001140,ERUMELY,BUS STAND  ROAD ERUMELI ERUMELI,ERUMELY,ERUMELY,KERALA,210261
181,FEDERAL BANK,FDRL0001141,MULANTHURUTHY,MULANTHURUTHY MULANTHURUTHY MULANTHURUTHY,ERNAKULAM,MULANTHURUTHY,KERALA,2740241
182,FEDERAL BANK,FDRL0001142,PARAVOOR,P B  NO. 3 PARAVOOR PARAVOOR,KOLLAM,PARAVOOR,KERALA,2512313
183,FEDERAL BANK,FDRL0001143,CHAVARA,CHAVARA CHAVARA CHAVARA,KOLLAM,CHAVARA,KERALA,2682833
184,FEDERAL BANK,FDRL0001144,ARUVITHURA,ARUVITHURA ERATTUPETTAH P O ERATTUPETTAH P O,KOTTAYAM,ARUVITHURA,KERALA,2275306
185,FEDERAL BANK,FDRL0001145,KURAVILANGAD,P B NO. 2 KURAVILANGAD KURAVILANGAD,KOTTAYAM,KURAVILANGAD,KERALA,230252
186,FEDERAL BANK,FDRL0001146,MATHUR,CHUNKAMANNAM CHUNKAMANNAM MATHUR,PALAKKAD,MATHUR,KERALA,2214428
187,FEDERAL BANK,FDRL0001147,ALANALLUR,FATHIMA COMPLEX PALAKKAD DISTRICT,PALAKKAD,ALANALLUR,KERALA,263492
188,FEDERAL BANK,FDRL0001148,AMBALAPUZHA,"GROUND FLOOR,SREEVALSOM COMPLEX EAST OF KACHERY JUNCTION AMBALAPUZHA",ALAPUZHA,AMBALAPUZHA,KERALA,0
189,FEDERAL BANK,FDRL0001149,LUCKNOW,"P B NO. 178, 37-A, CANTT ROAD BURLINGTON CROSSING,LUCKNOW",LUCKNOW,LUCKNOW,UTTAR PRADESH,0
190,FEDERAL BANK,FDRL0001150,MADURAI,170 EAST VELI STREET OPP. CHRISTIAN MISSION HOSPITAL,MADURAI,MADURAI,TAMIL NADU,0
191,FEDERAL BANK,FDRL0001151,TIRUCHIRAPALLY,"NO.75 E/1, SALAI ROAD, THILLAI NAGAR",TIRUCHIRAPALLY,TIRUCHIRAPALLY,TAMIL NADU,0
192,FEDERAL BANK,FDRL0001152,VIJAYAWADA,PRAKASAM ROAD PRAKASAM ROAD VIJAYAWADA,VIJAYAWADA,VIJAYAWADA,ANDHRA PRADESH,2436163
193,FEDERAL BANK,FDRL0001153,ERNAKULAM/SOUTH,P B NO.1731 M G ROAD (SOUTH) KOCHI,ERNAKULAM,ERNAKULAM,KERALA,2378710
194,FEDERAL BANK,FDRL0001154,NEDUMUDY / THEKKEKARA,THEKKEKKARA  P O NEDUMUDY NEDUMUDY,ALAPUZHA,NEDUMUDY / THEKKEKARA,KERALA,2702317
195,FEDERAL BANK,FDRL0001156,NILAMBUR,NILAMBUR - 679329 MALAPPURAM DIST. KERALA,MALAPPURAM,NILAMBUR,KERALA,221867
196,FEDERAL BANK,FDRL0001157,KOLKATA / BURRA BAZAR,33A TARA CHAND DUTTA STREET BURRA BAZAR KOLKATA,KOLKATA,KOLKATA,WEST BENGAL,22715091
197,FEDERAL BANK,FDRL0001158,AHMEDABAD,P B NO. 4073 ASHRAM ROAD AHMEDABAD,AHMEDABAD,AHMEDABAD,GUJARAT,0
198,FEDERAL BANK,FDRL0001159,ALA,NEDUVARAMCODE P O ALA ALA,ALAPUZHA,ALA,KERALA,2360244
199,FEDERAL BANK,FDRL0001160,CHERUPUZHA,"GROUND FLOOR,THE LANDMARK BUILDING KANNUR DIST",KANNUR,CHERUPUZHA,KERALA,5242830
200,FEDERAL BANK,FDRL0001161,CHUNAKKARA,"BR.CHUNKKARA , PB NO.1,  CHARUMOOD PO 690505, ALAPUZHA DIST, KERALA STATE",ALAPUZHA,CHUNAKKARA,KERALA,0
201,FEDERAL BANK,FDRL0001162,KATTANAM,KATTANAM PALLICKAL PALLICKAL,ALAPUZHA,KATTANAM,KERALA,2332227
202,FEDERAL BANK,FDRL0001163,KELAKAM,ABOO ARCADE KELAKOM KELAKOM,KANNUR,KELAKAM,KERALA,0
203,FEDERAL BANK,FDRL0001164,KOTTAPPADY,KOTTAPPADY KOTHAMANGALAM (VIA) KOTHAMANGALAM (VIA),ERNAKULAM,KOTTAPPADY,KERALA,2843225
204,FEDERAL BANK,FDRL0001165,MAMKAMKUZHY,MAMKAMKUZHY MAMKAMKUZHY MAMKAMKUZHY,ALAPUZHA,MAMKAMKUZHY,KERALA,2356846
205,FEDERAL BANK,FDRL0001166,MONGAM,MONGAM MONGAM MONGAM,MALAPPURAM,MONGAM,KERALA,2772052
206,FEDERAL BANK,FDRL0001167,MULAKUZHA,MULAKUZHA P O CHENGANNUR,ALAPUZHA,MULAKUZHA,KERALA,0
207,FEDERAL BANK,FDRL0001168,POOVATHOOR,POOVATHOOR KOIPURAM KOIPURAM,PATHANAMTHITTA,POOVATHOOR,KERALA,2660656
208,FEDERAL BANK,FDRL0001169,PURAMATTOM,PURAMATTOM PURAMATTOM PURAMATTOM,PATHANAMTHITTA,PURAMATTOM,KERALA,2766214
209,FEDERAL BANK,FDRL0001170,THALAKKADATHUR,THALAKKADATHUR TIRUR TIRUR,MALAPPURAM,THALAKKADATHUR,KERALA,2588140
210,FEDERAL BANK,FDRL0001171,THAVANUR,THAVANUR THAVANUR THAVANUR,MALAPPURAM,THAVANUR,KERALA,2686222
211,FEDERAL BANK,FDRL0001172,THOTTILPALAM,THOTTILPALAM KAVILUMPARA P O KOZHIKODE DIST.,KOZHIKODE,THOTTILPALAM,KERALA,2565822
212,FEDERAL BANK,FDRL0001173,ULIKKAL,ULIKKAL ULIKKAL ULIKKAL,KANNUR,ULIKKAL,KERALA,2228124
213,FEDERAL BANK,FDRL0001174,VALLITHODE,VALLITHODE KILIYANTHARA P O KILIYANTHARA P O,KANNUR,VALLITHODE,KERALA,2420421
214,FEDERAL BANK,FDRL0001175,MANGALORE,"P.B.NO 775, MANASA TOWERS  M.G.ROAD, MANGALORE",MANGALORE,MANGALORE,KARNATAKA,0
215,FEDERAL BANK,FDRL0001176,MUMBAI / ANDHERI,P B NO. 17387 8 9 10 LARAM CEN S.V.RD ANDHERI(WEST) MUMBAI,MUMBAI SUBURBAN,MUMBAI,MAHARASHTRA,26288115
216,FEDERAL BANK,FDRL0001177,ERODE,NO.22 PALANIAPPA STREET PERUNDURAI ROAD ERODE,ERODE,ERODE,TAMIL NADU,2253298
217,FEDERAL BANK,FDRL0001179,POLLACHI,THE RP TOWRES NO.88  COIMBATORE ROAD POLLACHI,POLLACHI,POLLACHI,TAMIL NADU,221753
218,FEDERAL BANK,FDRL0001180,KUNCHITHANNY,KUNCHITHANNY KUNCHITHANNY KUNCHITHANNY,IDUKKI,KUNCHITHANNY,KERALA,265234
219,FEDERAL BANK,FDRL0001181,CHENNAI / GEORGE TOWN,VOLTAS INTERNATIONAL CENTRE 52(NEW NO 107) ARMENIAN ST GEORGE TOWN CHN,CHENNAI,CHENNAI,TAMIL NADU,25342327
220,FEDERAL BANK,FDRL0001182,GUWAHATI,"ARHAM PLAZA,FIRST FLOOR,FANCY BAZAR, MG ROAD,GUWAHATI ASSAM,781001",GUWAHATI,GUWAHATI,ASSAM,0
221,FEDERAL BANK,FDRL0001183,PALLURUTHY,PALLURUTHY INDUSTRIAL ESTATE P O PALLURUTHY KOCHI,ERNAKULAM,KOCHI,KERALA,2233258
222,FEDERAL BANK,FDRL0001184,EDAPPALLY,ST.GEORGE S CHURCH BUILDING EDAPPALLY EDAPPALLY,ERNAKULAM,ERNAKULAM,KERALA,0
223,FEDERAL BANK,FDRL0001185,PULAMANTHOLE,PULAMANTHOLE PULAMANTHOLE PULAMANTHOLE,MALAPPURAM,PULAMANTHOLE,KERALA,267474
224,FEDERAL BANK,FDRL0001186,MARGAO,P B NO. 361 MABAI BUILDING MARGAO,MARGAO,MARGAO,GOA,2703313
225,FEDERAL BANK,FDRL0001187,TEZPUR,P B NO. 32 K C ROAD TEZPUR,TEZPUR,TEZPUR,ASSAM,221633
226,FEDERAL BANK,FDRL0001188,DIMAPUR,NYAMOLOTHA ROAD (OLD CHURCH ROAD) DIMAPUR,DIMAPUR,DIMAPUR,NAGALAND,225725
227,FEDERAL BANK,FDRL0001189,BANGALORE / GANDHI NAGAR,"NO.24, 2ND CROSS, GANDHI NAGAR BANGALORE",BANGALORE,BANGALORE,KARNATAKA,22253222
228,FEDERAL BANK,FDRL0001190,SHILLONG,P B NO. 25 POLICE BAZAAR G S ROAD SHILLONG,EAST KHASI HILLS,SHILLONG,MEGHALAYA,2225339
229,FEDERAL BANK,FDRL0001191,TUTICORIN,"45, PALAYAMKOTTAI ROAD OPP. CRUZ FERNANDEZ STATUE, TUTICORIN-628 002",TOOTHUKUDI,TUTICORIN,TAMIL NADU,0
230,FEDERAL BANK,FDRL0001192,VELLORE,P B NO. 199 NO.1 OFFICERS LINE VELLORE,VELLORE,VELLORE,TAMIL NADU,2222963
231,FEDERAL BANK,FDRL0001193,JORHAT,P B NO. 33 GAR - ALI JORHAT,JORHAT,JORHAT,ASSAM,2323767
232,FEDERAL BANK,FDRL0001194,NEW DELHI / WEST END,1-4 CONVENIENT SHOPPING CENTRE WESTEND NEW DELHI,NEW DELHI,NEW DELHI,DELHI,0
233,FEDERAL BANK,FDRL0001195,THANJAVUR,2766SOUTH RAMPART THANJAVUR THANJAVUR,THANJAVUR,THANJAVUR,TAMIL NADU,231312
234,FEDERAL BANK,FDRL0001196,HOWRAH,"NW- 101, BELILIOUS PARK EAST WEST BYE PASS ROAD, HOWRAH",HAORA,KOLKATA,WEST BENGAL,0
235,FEDERAL BANK,FDRL0001197,JAMSHEDPUR,P B NO. 169 AWTARBUILDING MAINROAD BISTUPUR JAMSHEDPUR,JAMSHEDPUR,JAMSHEDPUR,JHARKHAND,2423699
236,FEDERAL BANK,FDRL0001198,TINSUKIA,P B NO. 52 CHIRWAPPATTY ROAD TINSUKIA,TINSUKIA,TINSUKIA,ASSAM,2330960
237,FEDERAL BANK,FDRL0001199,MUMBAI / DADAR EAST,"RAJGIR COURT DADAR(EAST), MUMBAI",MUMBAI,MUMBAI,MAHARASHTRA,0
238,FEDERAL BANK,FDRL0001200,KOLKATA / RN MUKHERJEE ROAD,MARTIN BURN HOUSE 1  R.N. MUKHERJEE ROAD KOLKATA,KOLKATA,KOLKATA,WEST BENGAL,0
239,FEDERAL BANK,FDRL0001201,CHANDANAPPALLY,CHANDANAPPALLY KAIPATTOOR (VIA),PATHANAMTHITTA,CHANDANAPPALLY,KERALA,2351296
240,FEDERAL BANK,FDRL0001202,KODUKULANJI,KODUKULANJI KODUKULANJI KODUKULANJI,ALAPUZHA,KODUKULANJI,KERALA,2369261
241,FEDERAL BANK,FDRL0001203,KUNNAMTHANAM,THOPPIL BUILDING KUNNAMTHANAM KUNNAMTHANAM,PATHANAMTHITTA,KUNNAMTHANAM,KERALA,2692266
242,FEDERAL BANK,FDRL0001204,KIDANGANNUR,KIDANGANNUR,PATHANAMTHITTA,KIDANGANNUR,KERALA,0
243,FEDERAL BANK,FDRL0001205,THIRUVANVANDOOR,SREEPADAM BUILDINGS P B NO. 1 THIRUVANVANDOOR,ALAPUZHA,THIRUVANVANDOOR,KERALA,2427969
244,FEDERAL BANK,FDRL0001206,KOODAL,"SNEHADHARA PLAZA, PUNALUR MUVATTUPUZHA ROAD, KOODAL",PATHANAMTHITTA,PATHANAMTHITTA,KERALA,0
245,FEDERAL BANK,FDRL0001207,VADASSERIKARA,P B NO. 2 VADASSERIKKARA,PATHANAMTHITTA,VADASSERIKARA,KERALA,0
246,FEDERAL BANK,FDRL0001208,ARATTUPUZHA,ARATTUPUZHA PUTHENCAVU (VIA) CHENGANNUR,PATHANAMTHITTA,ARATTUPUZHA,KERALA,2317487
247,FEDERAL BANK,FDRL0001209,MUTTAR,MUTTAR MUTTAR MUTTAR,ALAPUZHA,MUTTAR,KERALA,2219313
248,FEDERAL BANK,FDRL0001210,VELLIAMATTOM,VELLIAMATTOM VELLIAMATTOM VELLIAMATTOM,IDUKKI,VELLIAMATTOM,KERALA,276242
249,FEDERAL BANK,FDRL0001211,KUZHIKALA,KUZHIKALA KUZHIKALA KUZHIKALA,PATHANAMTHITTA,KUZHIKALA,KERALA,2212058
250,FEDERAL BANK,FDRL0001212,AGRA,6  RAGHUNATH NAGAR (LITTLE WING CAMPUS) AGRA,AGRA,AGRA,UTTAR PRADESH,2523303
251,FEDERAL BANK,FDRL0001213,MANEED,MANEED MANEED PIRAVOM (VIA),ERNAKULAM,MANEED,KERALA,2246321
252,FEDERAL BANK,FDRL0001214,KANJIRAMKULAM,KANJIRAMKULAM KANJIRAMKULAM KANJIRAMKULAM,KANJIRAMKULAM,KANJIRAMKULAM,KERALA,2260027
253,FEDERAL BANK,FDRL0001215,PULICKAL KAVALA,VADAKKEKKARA BUILDING PULICKAL KAVALA PULICKAL KAVALA,KOTTAYAM,PULICKAL KAVALA,KERALA,2458881
254,FEDERAL BANK,FDRL0001216,MOONNILAVU,MOONNILAVU MOONNILAVU MOONNILAVU,KOTTAYAM,MOONNILAVU,KERALA,286238
255,FEDERAL BANK,FDRL0001217,PERUMATHURA,PERUMATHURA PERUMATHURA PUTHENKURICHI P O,KOTTAYAM,PERUMATHURA,KERALA,2428545
256,FEDERAL BANK,FDRL0001218,CHUNKAPPARA,CHUNKAPPARA CHUNKAPPARA CHUNKAPPARA,PATHANAMTHITTA,CHUNKAPPARA,KERALA,2697563
257,FEDERAL BANK,FDRL0001219,POONITHURA,PALATHINKAL BUILDING P B NO. 2 PETTA JUNCTION  POONITHURA,POONITHURA,POONITHURA,KERALA,0
258,FEDERAL BANK,FDRL0001220,PATNA,P B NO. 164 NEW DAK BUNGLOW ROAD PATNA,PATNA,PATNA,BIHAR,2236045
259,FEDERAL BANK,FDRL0001221,THOTTAKKATTUKARA,"PARACKAL TOWERS, GROUND FLOOR,PARUR JUNCTION, UC COLLEGE POST",ERNAKULAM,THOTTAKKATTUKARA,KERALA,0
260,FEDERAL BANK,FDRL0001222,KEEZHILLAM,KADAMBELIL BUILDING M C ROAD KEEZHILLAM,ERNAKULAM,KEEZHILLAM,KERALA,2654461
261,FEDERAL BANK,FDRL0001223,PUTHENCRUZ,KARTHEDATH BUILDINGS PUTHENCRUZ PUTHENCRUZ,ERNAKULAM,PUTHENCRUZ,KERALA,2733159
262,FEDERAL BANK,FDRL0001224,ODANAVATTOM,P B NO. 1 ODANAVATTOM ODANAVATTOM,KOLLAM,ODANAVATTOM,KERALA,2462091
263,FEDERAL BANK,FDRL0001225,VALAKOM,VALAKOM VALAKOM KOTTARAKKARA,KOLLAM,VALAKOM,KERALA,2471315
264,FEDERAL BANK,FDRL0001226,THANKEY,THANKEY THANKEY KADAKKARAPALLY,ALAPUZHA,THANKEY,KERALA,2813086
265,FEDERAL BANK,FDRL0001227,MUTTUCHIRA,KURISUMKAL BUILDING KOTTAYAM  DIST,KOTTAYAM,MUTTUCHIRA,KERALA,282362
266,FEDERAL BANK,FDRL0001228,UPPUTHARA,UPPUTHARA UPPUTHARA UPPUTHARA,IDUKKI,UPPUTHARA,KERALA,244227
267,FEDERAL BANK,FDRL0001229,AMBOORI,AMBOORI  P.O. AMBOORI P.O. VELLARADA (VIA),THIRUVANTHAPURAM,AMBOORI,KERALA,2245389
268,FEDERAL BANK,FDRL0001230,KANPUR,24/11  THE MALL POST BOX NO. 484 KANPUR,KANPUR,KANPUR,UTTAR PRADESH,2317045
269,FEDERAL BANK,FDRL0001231,RAJKOT,P B NO. 141  7  PANCHNATH PLOT OPP.SHASTRI MAIDAN RAJKOT,RAJKOT,RAJKOT,GUJARAT,2232601
270,FEDERAL BANK,FDRL0001232,BHUBANESWAR,14 B 1ST FLOOR JANAPATH BHUBANESWAR,BHUBANESWAR,BHUBANESWAR,ODISHA,0
271,FEDERAL BANK,FDRL0001233,CHENNAI / RM NAGAR,"E5 & E6,NELSON CHAMBERS 115,NELSON MANICKAM ROAD RAJARAM MEHTA NAGAR",CHENNAI,CHENNAI,TAMIL NADU,0
272,FEDERAL BANK,FDRL0001234,INDORE,"21/4, RATLAM KOTHI, SAKAR BHAWAN,",INDORE,INDORE,MADHYA PRADESH,0
273,FEDERAL BANK,FDRL0001235,VISAKHAPATANAM,P.B.NO.2014 DABA GARDENS VISAKHAPATANAM,VISAKHAPATANAM,VISAKHAPATANAM,ANDHRA PRADESH,2564693
274,FEDERAL BANK,FDRL0001236,SILCHAR,P B NO. 33 67 SHYAMA PRASAD ROAD SILCHAR,SILCHAR,SILCHAR,ASSAM,230512
275,FEDERAL BANK,FDRL0001237,KOLKATA/TANGRA,52 D RADHANATH CHOWDHURY ROAD TANGRA KOLKATA,KOLKATA,KOLKATA,WEST BENGAL,0
276,FEDERAL BANK,FDRL0001238,ERNAKULAM/MG ROAD,KANDAMKULATHY TOWERS OPP.MAHARAJAS COLLEGE GROUND MG RD ERNAKULAM,ERNAKULAM,ERNAKULAM,KERALA,2372397
277,FEDERAL BANK,FDRL0001239,KIDANGARA,"SWAMY'S BUILDING, CHANGANACHERRY-KIDANGARA RD ALAPUZHA DISTRICT",ALAPUZHA,KIDANGARA,KERALA,2753529
278,FEDERAL BANK,FDRL0001240,"OLARIKKARA, THRISSUR","OLARIKKARA, THRISSUR PULLAZHI PULLAZHI",THRISSUR,OLARIKKARA,KERALA,2360973
279,FEDERAL BANK,FDRL0001241,PUTHUVYPE,OCHANTHURUTHU P O OCHANTHURUTHU P O KOCHI,ERNAKULAM,OCHANTHURUTH,KERALA,2492402
280,FEDERAL BANK,FDRL0001242,NEDUMPURAM,NEDUMPURAM NEDUMPURAM NEDUMPURAM,PATHANAMTHITTA,NEDUMPURAM,KERALA,2732370
281,FEDERAL BANK,FDRL0001243,KUNDARA,P B NO. 18 HOSPITAL JUNCTION KUNDARA,KOLLAM,KUNDARA,KERALA,0
282,FEDERAL BANK,FDRL0001244,NELLAYI,"ST.MARY S CHURCH BUILDING NELLAYI, THRISSUR",THRISSUR,NELLAYI,KERALA,0
283,FEDERAL BANK,FDRL0001245,MANNAMARUTHY,MANNAMARUTHY MAKKAPUZHA MAKKAPUZHA,PATHANAMTHITTA,MANNAMARUTHY,KERALA,262611
284,FEDERAL BANK,FDRL0001246,KADAMINETTA,KADAMINETTA KADAMINETTA KADAMINETTA,PATHANAMTHITTA,KADAMINETTA,KERALA,5245271
285,FEDERAL BANK,FDRL0001247,ATHIKKAYAM,ATHIKKAYAM NARANAMMUZHI P O RANNI-PERUNADU (VIA),PATHANAMTHITTA,ATHIKKAYAM,KERALA,270258
286,FEDERAL BANK,FDRL0001248,NELLICKAMON,RANNI (VIA) NELLICKAMON NELLICKAMON,PATHANAMTHITTA,NELLICKAMON,KERALA,200261
287,FEDERAL BANK,FDRL0001249,VAKKOM,P B NO. 1302 VAKKOM VAKKOM,THIRUVANANTHAPURAM,VAKKOM,KERALA,2653655
288,FEDERAL BANK,FDRL0001250,OONNUKAL,OONNUKAL OONNUKAL OMALLUR (VIA),PATHANAMTHITTA,OONNUKAL,KERALA,2350317
289,FEDERAL BANK,FDRL0001251,MANNANCHERRY,MANNAMCHERRY MANNAMCHERRY MANNAMCHERRY,ALAPUZHA,MANNANCHERRY,KERALA,2292403
290,FEDERAL BANK,FDRL0001252,POKKULANGARA,ENGANDIYUR P O ENGANDIYUR P O POKKULANGARA,THRISSUR,THRISSUR,KERALA,2292477
291,FEDERAL BANK,FDRL0001253,KAVUMBHAGOM,KAVUMBHAGOM KAVUMBHAGOM TIRUVALLA (VIA),PATHANAMTHITTA,KAVUMBHAGOM,KERALA,2605774
292,FEDERAL BANK,FDRL0001254,KADAPLAMATTOM,KADAPLAMATTOM KADAPLAMATTOM KADAPLAMATTOM,KOTTAYAM,KADAPLAMATTOM,KERALA,2251053
293,FEDERAL BANK,FDRL0001255,MANNAMPETTA,MANNAMPETTA VARAKKARA VARAKKARA,THRISSUR,THRISSUR,KERALA,2751421
294,FEDERAL BANK,FDRL0001256,CHOWALLURPADY,CHOWALLURPADY THAIKAD P O GURUVAYOOR,THRISSUR,CHOWALLURPADY,KERALA,2556310
295,FEDERAL BANK,FDRL0001257,PUDUNAGARAM,OPP. TO POLICE STATION PUDUNAGARAM PUDUNAGARAM,PALAKKAD,PUDUNAGARAM,KERALA,3252201
296,FEDERAL BANK,FDRL0001258,EDATHURUTHY,MAIN  ROAD EDATHURUTHY EDATHURUTHY,THRISSUR,THRISSUR,KERALA,2877311
297,FEDERAL BANK,FDRL0001259,KALLUVATHUKKAL,KALLUVATHUKKAL KALLUVATHUKKAL KALLUVATHUKKAL,KOLLAM,KALLUVATHUKKAL,KERALA,2572043
298,FEDERAL BANK,FDRL0001260,KOTTATHUR,NELEAMPLAVU JN. AYIROOR (VIA) KOTTATHUR,PATHANAMTHITTA,KOTTATHUR,KERALA,231909
299,FEDERAL BANK,FDRL0001261,THANNITHODE,THANNITHODE THANNITHODE KONNI,PATHANAMTHITTA,THANNITHODE,KERALA,2382224
300,FEDERAL BANK,FDRL0001262,NEW DELHI / CHANDNI CHOWK,64  KATRA BARYAN CHANDNI CHOWK FATEHPUPRIDELHI,NEW DELHI,NEW DELHI,DELHI,0
301,FEDERAL BANK,FDRL0001263,EDAMON,EDAMON EDAMON PUNALUR (VIA),KOLLAM,EDAMON,KERALA,2335526
302,FEDERAL BANK,FDRL0001264,NEENDAKARA,ST. SEBASTIAN COMPLEX NEENDAKARA,KOLLAM,NEENDAKARA,KERALA,0
303,FEDERAL BANK,FDRL0001265,NEDUNGADAPPALLY,NEDUNGADAPPALLY NEDUNGADAPPALLY MALLAPPALLY WEST P O,PATHANAMTHITTA,NEDUNGADAPPALLY,KERALA,2680409
304,FEDERAL BANK,FDRL0001266,AZHIYIDATHUCHIRA,AZHIYIDATHUCHIRA AZHIYIDATHUCHIRA THIRUVALLA (VIA),PATHANAMTHITTA,AZHIYIDATHUCHIRA,KERALA,2700784
305,FEDERAL BANK,FDRL0001267,THUMPOLLY,CHANNAR MEMORIAL BUILDING THUMPOLLY JUNCTION ALLEPPEY DIST.,ALAPUZHA,THUMPOLLY,KERALA,2245504
306,FEDERAL BANK,FDRL0001268,BUDHANOOR,N S S KARAYOGAM BUILDING BUDHANOOR PULIYOOR (VIA),ALAPUZHA,BUDHANOOR,KERALA,2465261
307,FEDERAL BANK,FDRL0001269,KALARCODE,KALARCODE KALARCODE SANATHANAPURAM P O,ALAPUZHA,KALARCODE,KERALA,2266396
308,FEDERAL BANK,FDRL0001270,ILAMBAL,ILAMBAL ILAMBAL PUNALUR (VIA),KOLLAM,ILAMBAL,KERALA,2222360
309,FEDERAL BANK,FDRL0001271,VADANAPPALLY,P B NO. 2 VADANAPPALLY VADANAPPALLY,THRISSUR,VADANAPPALLY,KERALA,2600956
310,FEDERAL BANK,FDRL0001272,THRISSUR EAST FORT,THRISSUR EAST FORT DOOR NO.8/107/6  GROUND FLOOR THRISSUR,THRISSUR,THRISSUR,KERALA,2420169
311,FEDERAL BANK,FDRL0001273,UMAYANALLOOR,UMAYANALLOOR UMAYANALLOOR UMAYANALLOOR,KOLLAM,UMAYANALLOOR,KERALA,0
312,FEDERAL BANK,FDRL0001274,PUTHUPPALLY,PUTHUPPALLY PUTHUPPALLY PUTHUPPALLY,ALAPUZHA,PUTHUPPALLY,KERALA,2352431
313,FEDERAL BANK,FDRL0001275,MARARIKULAM,IX/122-C  KALITHATTU JN. S.L. PURAM (P.O) MARARIKULAM,ALAPUZHA,MARARIKULAM,KERALA,2862408
314,FEDERAL BANK,FDRL0001276,CHAMPAKULAM,ST.MARY'S THEOLOGICAL  CENTRE BUILDING CHAMPAKULAM,ALAPUZHA,CHAMPAKULAM,KERALA,0
315,FEDERAL BANK,FDRL0001277,SEETHATHODE,"BUILDING NO: X/854 ASHA COMPLEX PALACKATHARAYIL, PATHANAMTHITTA",PATHANAMTHITTA,SEETHATHODE,KERALA,258045
316,FEDERAL BANK,FDRL0001278,CHATHANNOOR,P B NO. 3 CHATHANOOR CHATHANOOR,KOLLAM,CHATHANNOOR,KERALA,2593395
317,FEDERAL BANK,FDRL0001279,IRINJALAKUDA,P B NO. 31 C K K COMPLEX IRINJALAKUDA,THRISSUR,IRINJALAKUDA,KERALA,0
318,FEDERAL BANK,FDRL0001280,THRISSUR / S. T. NAGAR,FEDERAL  TOWERS S T NAGAR THRISSUR,THRISSUR,THRISSUR,KERALA,2423116
319,FEDERAL BANK,FDRL0001281,MYSORE,IST FLOOR  VISHWA TOWERS OPP. CLOCK TOWERS  MYSORE,MYSORE,MYSORE,KARNATAKA,2433995
320,FEDERAL BANK,FDRL0001282,CHENNAI / ROYAPETTAH,P B NO. 5569 NO.1  BEEMASENA GARDEN MYLAPORE CHENNAI,CHENNAI,CHENNAI,TAMIL NADU,24993441
321,FEDERAL BANK,FDRL0001283,ERNAKULAM/BROADWAY,CATHOLIC CENTRE BROADWAY KOCHI,ERNAKULAM,ERNAKULAM,KERALA,0
322,FEDERAL BANK,FDRL0001284,KOLKATA / BALLYGUNGE,1/DMANDIVILLE GARDENS BALLYGUNGE KOLKATA,KOLKATA,KOLKATA,WEST BENGAL,24407978
323,FEDERAL BANK,FDRL0001285,MUMBAI / CRAWFORD MARKET,92  MIMSON HOUSE L T MARG CRAWFORD MARKET  MUMBAI,MUMBAI,MUMBAI,MAHARASHTRA,23453204
324,FEDERAL BANK,FDRL0001286,NASIK CITY,P B NO. 16 SURGANA HOUSE COMPOUND NASIK,NASIK,NASIK,MAHARASHTRA,2592727
325,FEDERAL BANK,FDRL0001287,SALEM,"20, RAMAKRISHNA ROAD,",SALEM,SALEM,TAMIL NADU,0
326,FEDERAL BANK,FDRL0001288,ELANJI,ELANJI ELANJI ELANJI,ERNAKULAM,ELANJI,KERALA,2257358
327,FEDERAL BANK,FDRL0001289,THODIYOOR,THODIYOOR NORTH P O THAZHAVA THAZHAVA,KOLLAM,THODIYOOR,KERALA,0
328,FEDERAL BANK,FDRL0001290,VALLIKKAVU,VALLIKAVU CLAPPANA P O KARUNAGAPALLY,KOLLAM,VALLIKKAVU,KERALA,2897530
329,FEDERAL BANK,FDRL0001291,KURUPPAMPADY,BUILDING NO III/685 A KOCHERIL BUIDING  A M ROAD KURUPPAMPADY,ERNAKULAM,KURUPPAMPADY,KERALA,2524460
330,FEDERAL BANK,FDRL0001292,KOMBANAD,KOMBANAD KOMBANAD KOMBANAD,ERNAKULAM,KOMBANAD,KERALA,2648241
331,FEDERAL BANK,FDRL0001293,POONJAR,POONJAR POONJAR POONJAR SOUTH P O,KOTTAYAM,POONJAR,KERALA,273014
332,FEDERAL BANK,FDRL0001294,OORAKAM,P B NO. 18 OORAKAM VENGARA,MALAPPURAM,OORAKAM,KERALA,2450270
333,FEDERAL BANK,FDRL0001295,CHERANALLOOR,CHURCH JUNCTION CHERANELLOOR KOCHI,ERNAKULAM,CHERANALLOOR,KERALA,2431309
334,FEDERAL BANK,FDRL0001296,KIZHUVILAM,KIZHUVILAM MUDAPURAM CHIRAYINKEEZHU (VIA),THIRUVANANTHAPURAM,KIZHUVILAM,KERALA,2640273
335,FEDERAL BANK,FDRL0001297,THONIPUZHA,THONIPUZHA KURIANOOR P O TIRUVALLA,PATHANAMTHITTA,THONIPUZHA,KERALA,2672254
336,FEDERAL BANK,FDRL0001298,KALLIKKAD,THOPPIL BUILDING KALLIKKAD MYLAKKARA PO,THIRUVANANTHAPURAM,KALLIKKAD,KERALA,2272433
337,FEDERAL BANK,FDRL0001299,CHINGAVANAM,"NANTHIATTU BUILDINGS, M C ROAD, CHINGAVANAM P O KOTTAYAM DIST",KOTTAYAM,CHINGAVANAM,KERALA,2430433
338,FEDERAL BANK,FDRL0001300,NADAKKAVU WEST,"P B NO. 1016 ELITE ARCADE, NADAKKAVU  WEST",KOZHIKODE,KOZHIKODE,KERALA,2366115
339,FEDERAL BANK,FDRL0001301,ILLUPILI,ILLUPPILI ILLUPPILI ELACHIPALAYAM (VIA),NAMAKKAL,ILLUPILI,TAMIL NADU,231148
340,FEDERAL BANK,FDRL0001302,NEW DELHI / NEHRU PLACE,G.I-6 SATKAR BUILDING 79-80 NEHRU PLACE NEW DELHI,NEW DELHI,NEW DELHI,DELHI,0
341,FEDERAL BANK,FDRL0001303,KIDANGOOR,KIDANGOOR KIDANGOOR KIDANGOOR,KOTTAYAM,KIDANGOOR,KERALA,254191
342,FEDERAL BANK,FDRL0001304,KOLKATA / BHOWANIPORE,4/1 ELGIN ROAD BHOWANIPORE KOLKATA,KOLKATA,KOLKATA,WEST BENGAL,22832452
343,FEDERAL BANK,FDRL0001305,MUTTADA,MUTTADA MUTTADA MUTTADA,THIRUVANANTHAPURAM,THIRUVANANTHAPURAM,KERALA,2541056
344,FEDERAL BANK,FDRL0001306,PUTHIYARA,"1ST FLOOR, SPACE MALL JAFARKHAN COLONY ROAD",KOZHIKODE,KOZHIKODE,KERALA,2725234
345,FEDERAL BANK,FDRL0001307,PONGUMOODU,MEDICAL COLLEGE P O PONGUMOODU PONGUMOODU,THIRUVANANTHAPURAM,THIRUVANANTHAPURAM,KERALA,2442230
346,FEDERAL BANK,FDRL0001308,KALAYAPURAM,MEDAYIL BUILDINGS KALAYAPURAM KALAYAPURAM,KOLLAM,KALAYAPURAM,KERALA,0
347,FEDERAL BANK,FDRL0001309,KANCHIYAR,THOPPIPALA KANCHIYAR KANCHIYAR,IDUKKI,KANCHIYAR,KERALA,271306
348,FEDERAL BANK,FDRL0001310,MUTTOM (ALAPUZHA),MUTTOM HARIPPAD (VIA) MUTTOM,ALAPUZHA,MUTTOM (ALAPUZHA),KERALA,2401848
349,FEDERAL BANK,FDRL0001311,VENGODE,VENGODE KUDAVOOR P O KUDAVOOR P O,THIRUVANTHAPURAM,VENGODE,KERALA,2429747
350,FEDERAL BANK,FDRL0001312,PAZHAMTHOTTAM,PAZHAMTHOTTAM PAZHAMTHOTTAM KUMARAPURAM,ERNAKULAM,PAZHAMTHOTTAM,KERALA,2688378
351,FEDERAL BANK,FDRL0001313,KOLKATA / NEW MARKET,"8, SUDDER STREET",KOLKATA,KOLKATA,WEST BENGAL,3322529272
352,FEDERAL BANK,FDRL0001314,KOLKATA / BEHALA,514 DIAMOND HARBOUR ROAD BEHALA KOLKATA,KOLKATA,KOLKATA,WEST BENGAL,0
353,FEDERAL BANK,FDRL0001315,KULUKKALLUR,MULAYAMKAVU PATTAMBI (VIA) KULUKKALLUR,PALAKKAD,KULUKKALLUR,KERALA,2215247
354,FEDERAL BANK,FDRL0001316,ERNAKULAM/PANAMPILLY NAGAR,28/105 A OPP:HOUSING BOARD BLDG PANAMPILLY NAGAR KOCHI,ERNAKULAM,ERNAKULAM,KERALA,0
355,FEDERAL BANK,FDRL0001317,NANTHENCODE,P B NO. 830 DEVASWOM BOARD JN NANTHENCODE,THIRUVANANTHAPURAM,NANTHENCODE,KERALA,2314802
356,FEDERAL BANK,FDRL0001318,BANGALORE / BASAVANAGUDI,"20/1, GROUND FLOOR,SHRI MALLIKARJUNA NILAYA PROF.B S MADHAVA RAO CIRCLE,BASAVANAGUDI",BANGALORE,BANGALORE,KARNATAKA,26565323
357,FEDERAL BANK,FDRL0001319,DEVIKULANGARA,DEVIKULANGARA PUTHUPPALLY P O KAYAMKULAM (VIA),ALAPUZHA,DEVIKULANGARA,KERALA,2442604
358,FEDERAL BANK,FDRL0001320,TEEKOY,GROUND FLOOR 575  KURUSUMOOTTIL BUILDINGS TEEKOY P O,KOTTAYAM,TEEKOY,KERALA,281015
359,FEDERAL BANK,FDRL0001321,ARAKUNNAM,"ST. GEORGE CHURCH BUILDING, ERNAKULAM DIST.",ERNAKULAM,ARAKUNNAM,KERALA,2747800
360,FEDERAL BANK,FDRL0001322,PUTHENANGADI,VARANAM P O ALAPPUZHA DIST,ALAPUZHA,PUTHENANGADI,KERALA,0
361,FEDERAL BANK,FDRL0001323,MOTTANTHARA,KAYANNA BAZAR P O PERAMBRA (VIA) PERAMBRA (VIA),KOZHIKODE,MOTTANTHARA,KERALA,2659029
362,FEDERAL BANK,FDRL0001324,CHENNAI / ANNA NAGAR,"C48, TNHB COMPLEX 2ND AVENUE ANNA NAGAR,PHONE 044-26280413",CHENNAI,CHENNAI,TAMIL NADU,26283610
363,FEDERAL BANK,FDRL0001325,CHEMBUR,OTTASEKHARAMANGALAM P O CHEMBUR CHEMBUR,THIRUVANANTHAPURAM,CHEMBUR,KERALA,2255249
364,FEDERAL BANK,FDRL0001326,KUREEPALLY,KUREEPALLY NEDUMPANA NEDUMPANA,KOLLAM,KUREEPALLY,KERALA,0
365,FEDERAL BANK,FDRL0001327,KOKKADU,KOKKADU VETTIKAVALA (VIA) KOTTARAKKARA,KOLLAM,KOKKADU,KERALA,2409343
366,FEDERAL BANK,FDRL0001328,ERIAM,ERIAM EDAKKOME P O CHAPPARAPPADAVU (VIA),KANNUR,ERIAM,KERALA,2270219
367,FEDERAL BANK,FDRL0001329,KUTTAMPUZHA,KOTHAMANGALAM  (VIA) KUTTAMPUZHA KUTTAMPUZHA,ERNAKULAM,KUTTAMPUZHA,KERALA,2588212
368,FEDERAL BANK,FDRL0001330,KARIMPAN,KARIMPAN MANIPPARA MANIPPARA,IDUKKI,KARIMPAN,KERALA,230326
369,FEDERAL BANK,FDRL0001331,ALAPUZHA / CONVENT SQUARE,"P B NO 184 ACJ MANSION,CCNB ROAD",ALAPUZHA,ALAPUZHA,KERALA,0
370,FEDERAL BANK,FDRL0001332,HYDERABAD LAKADI KA PUL,"6-2-981, MARUTHI PLAZA,BESIDE SHAHDAN COLLEGE KHAIRATABAD, LAKDIKAPUL",HYDERABAD,HYDERABAD,ANDHRA PRADESH,4023322755
371,FEDERAL BANK,FDRL0001333,THOPRAMKUDI,THOPRAMKUDY P O KATTAPPANA SOUTH KATTAPPANA SOUTH,IDUKKI,THOPRAMKUDI,KERALA,8264224
372,FEDERAL BANK,FDRL0001334,BANGALORE / RAJAJI NAGAR,NO. 60/60  RAJ CHAMBERS DR.RAJKUMAR RD 2ND BLOCK RAJAJI NG BANGALORE,BANGALORE,BANGALORE,KARNATAKA,0
373,FEDERAL BANK,FDRL0001335,BARODA,"GROUND FLOOR, GOKULESH II RC DUTT ROAD",BARODA,BARODA,GUJARAT,2350721
374,FEDERAL BANK,FDRL0001338,HUBLI,"REVANKAR COMFORTS, S.V. ROAD, COURT CIRCLE, HUBLI-29, KARNATAKA",HUBLI,HUBLI,KARNATAKA,2368449
375,FEDERAL BANK,FDRL0001339,NAGPUR,LOWER GROUND FLOOR PUSHP KUNJ COMPLEX 20 CENTRAL BAZAAR ROAD,NAGPUR,NAGPUR,MAHARASHTRA,0
376,FEDERAL BANK,FDRL0001340,NOIDA,FEDERAL TOWERS FEDERAL TOWERS SECTOR 22  NOIDA,GAUTAM BUDDHA NAGAR,NOIDA,UTTAR PRADESH,0
377,FEDERAL BANK,FDRL0001341,RAJAHMUNDRY,DOOR NO: 60506 MAIN ROAD RAJAMUNDRY,RAJAHMUNDRY,RAJAHMUNDRY,ANDHRA PRADESH,2461457
378,FEDERAL BANK,FDRL0001342,KUNNAMKULAM,P B NO 47 WADAKKANCHERRY ROAD KUNNAMKULAM,THRISSUR,KUNNAMKULAM,KERALA,222733
379,FEDERAL BANK,FDRL0001343,SURAT,P B NO.  443 VANKAR SANGH BUILDING SURAT,SURAT,SURAT,GUJARAT,0
380,FEDERAL BANK,FDRL0001344,JAIPUR,P B NO. 412 SANGHI UPASANA TOWER C-98 SUBHASH MARG JAIPUR,JAIPUR,JAIPUR,RAJASTHAN,2360925
381,FEDERAL BANK,FDRL0001345,KALPETTA,P B NO. 20 UJALA COMPLEX GUDALAI  KALPETTA,WAYANAD,KALPETTA,KERALA,202058
382,FEDERAL BANK,FDRL0001346,KANHANGAD,P B NO. 53 KALLATRA COMPLEX KANHANGAD,KASARAGODE,KANHANGAD,KERALA,2208286
383,FEDERAL BANK,FDRL0001347,COIMBATORE/SSI,"NO. 309, RAJ KAMAL TOWERS, AVINASHI ROAD, PEELAMEDU",COIMBATORE,COIMBATORE,TAMIL NADU,0
384,FEDERAL BANK,FDRL0001348,PUNE,P B NO. 821 ARIHANT NEAR BALGANDHARVA SQUARE,PUNE,PUNE,MAHARASHTRA,0
385,FEDERAL BANK,FDRL0001349,KUMBANAD,P B NO. 28 KUMBANAD KUMBANAD,PATHANAMTHITTA,KUMBANAD,KERALA,2665364
386,FEDERAL BANK,FDRL0001350,BHOPAL,BR.BHOPAL PLOT NO.6  ZONE II BHOPAL DIST  BHOPAL  M.P,BHOPAL,BHOPAL,MADHYA PRADESH,2769364
387,FEDERAL BANK,FDRL0001351,ONGOLE,D NO. 37-1-173  1ST FLOOR KURNOOL ROAD ONGOLE,ONGOLE,ONGOLE,ANDHRA PRADESH,234776
388,FEDERAL BANK,FDRL0001352,PANAJI,"DAYANAND SMRUTI, SWAMI VIVEKANANDA ROAD, PANAJI GOA 403001",PANAJI,PANAJI,GOA,2228262
389,FEDERAL BANK,FDRL0001353,ANAKAPALLE,P B NO. 23 12-4-7  UPSTAIRS OPP. R T C COMPLEX ANAKAPPALLE,ANAKAPALLE,ANAKAPALLE,ANDHRA PRADESH,222910
390,FEDERAL BANK,FDRL0001354,HASSAN,P B NO 175 SUVARNA ARCADE B M ROAD  HASSAN,HASSAN,HASSAN,KARNATAKA,267848
391,FEDERAL BANK,FDRL0001355,GURGAON,483/16 CHANDAN PALACE JAIL ROAD CIVIL LINES  GURGAON,GURGAON,GURGAON,HARYANA,2331681
392,FEDERAL BANK,FDRL0001356,CHIKMAGALUR,P B NO 157 INDIRA GANDHI ROAD CHIKMAGALUR,CHIKMAGALUR,CHIKMAGALUR,KARNATAKA,233024
393,FEDERAL BANK,FDRL0001357,COIMBATORE/KAVUNDAM PALAYAM,5/1  J 3  GANDHI NAGAR METTUPPALAYAMROAD KAVUNDAMPALAYAM COIMBATORE,COIMBATORE,COIMBATORE,TAMIL NADU,2440922
394,FEDERAL BANK,FDRL0001358,MUMBAI / DOMBIVLI,101-105 KASTURI PLAZA  COMPLEX MANPADA RD TILAK NAGAR DOMBIVLI(EAST) MUMBAI,MUMBAI,MUMBAI,MAHARASHTRA,2862177
395,FEDERAL BANK,FDRL0001359,TIRUPUR INDUSTRIAL FINANCE,P B NO.  419 INDUSTRIAL FINANCE BR. TIRUPUR,TIRUPUR,TIRUPUR,TAMIL NADU,2200563
396,FEDERAL BANK,FDRL0001360,NEW DELHI/GREATER KAILASH II,S-571  GREATER KAILASH-II NEW DELHI NEW DELHI,NEW DELHI,NEW DELHI,DELHI,29212094
397,FEDERAL BANK,FDRL0001361,HOSUR,76/10 HOTEL SHA INTER.BLD KRISHNAGIRI DIST.,KRISHNAGIRI,HOSUR,TAMIL NADU,246789
398,FEDERAL BANK,FDRL0001363,PONNANI,P B NO.  23 CHAMRAVATTOM JUNCTION PONNANI,MALAPPURAM,PONNANI,KERALA,2667262
399,FEDERAL BANK,FDRL0001364,ADIMALY,P B NO 14 ADIMALY ADIMALY,IDUKKI,ADIMALY,KERALA,222289
400,FEDERAL BANK,FDRL0001365,MANJERI,"1ST FLOOR,KORAMBAYIL CORPORATE MALL CENTRAL JUNCTION,MANJERI",MALAPPURAM,MALAPPURAM,KERALA,0
401,FEDERAL BANK,FDRL0001367,RATNAGIRI,"D Y S PLAZA, GROUND FLOOR MARUTI MANDIR",RATNAGIRI,RATNAGIRI,MAHARASHTRA,0
402,FEDERAL BANK,FDRL0001368,THRISSUR / M.O. ROAD,M O ROAD BRANCH THRISSUR THRISSUR,THRISSUR,THRISSUR,KERALA,2427721
403,FEDERAL BANK,FDRL0001369,MUMBAI / VASHI,P B NO. 172 NO.51 APSARA APARTMENTS NAVI MUMBAI,THANE,MUMBAI,MAHARASHTRA,0
404,FEDERAL BANK,FDRL0001370,KASARAGODE,M G ROAD KASARGODE KASARGODE,KASARAGODE,KASARAGODE,KERALA,226946
405,FEDERAL BANK,FDRL0001371,KALADY,"CRYSTAL TOWERS M C ROAD, ERNAKULAM DIST",ERNAKULAM,KALADY,KERALA,2462871
406,FEDERAL BANK,FDRL0001372,LUDHIANA,IST FL NEW SHOPPING CEN GHUMAR MANDI RD KRISHNA NG CIVIL LINES LUDHIANA,LUDHIANA,LUDHIANA,PUNJAB,2404249
407,FEDERAL BANK,FDRL0001373,CHANDIGARH,SCO 139-140 SECTOR 8 C MADHYA MARG  CHANDIGARH,CHANDIGARH,CHANDIGARH,CHANDIGARH,2549410
408,FEDERAL BANK,FDRL0001374,THIRUVANANTHAPURAM/PATTOM,PERSONAL BANKING BRANCH JEEVANPRAKASH THIRUVANANTHAPURAM,THIRUVANANTHAPURAM,THIRUVANANTHAPURAM,KERALA,2542370
409,FEDERAL BANK,FDRL0001375,ERNAKULAM/MARINE DRIVE,GROUND FLOOR FEDERAL TOWERS ERNAKULAM,ERNAKULAM,ERNAKULAM,KERALA,0
410,FEDERAL BANK,FDRL0001376,KOTTAYAM / KANJIKUZHY,KANJIKUZHY MUTTAMBALAM P O KOTTAYAM,KOTTAYAM,KOTTAYAM,KERALA,2573688
411,FEDERAL BANK,FDRL0001377,CUTTACK,BAJRAKABATI ROAD BESIDE PETROL PUMP CUTTACK,CUTTACK,CUTTACK,ODISHA,2312038
412,FEDERAL BANK,FDRL0001378,KOLKATA / OVERSEAS,OVERSEAS BRANCH 21A  SHAKESPEARE SARANI KOLKATA,KOLKATA,KOLKATA,WEST BENGAL,22826674
413,FEDERAL BANK,FDRL0001380,ERNAKULAM/PALARIVATTOM,35/37A PALARIVATTAM ERNAKULAM,ERNAKULAM,ERNAKULAM,KERALA,2338230
414,FEDERAL BANK,FDRL0001381,FARIDABAD,5 D/6 B P NEELAM RAILWAY ROAD  NIT FARIDABAD,FARIDABAD,FARIDABAD,HARYANA,2420783
415,FEDERAL BANK,FDRL0001382,NEW DELHI / KAROL BAGH,1001  FAIZ ROAD ARYASAMAJROADCROSSING KAROLBAGH NEWDELHI,NEW DELHI,NEW DELHI,DELHI,25811984
416,FEDERAL BANK,FDRL0001383,MUMBAI / THANE,"SHOP NO 5 & 6, GIRIDARSHAN BUILDING, VEER SAW THEEN PETROL PUMP JUNCTION THANE(WEST), MAHAR",THANE,MUMBAI,MAHARASHTRA,25339373
417,FEDERAL BANK,FDRL0001385,MUMBAI / CORPORATE BANKING,"CORPORATE BANKING BRANCH, GROUND FLOOR EXPRESS TOWERS, NARIMAN POINT",MUMBAI,MUMBAI,MAHARASHTRA,0
418,FEDERAL BANK,FDRL0001386,CHENNAI / T NAGAR,"NO. 29, DR. NAIR ROAD, T NAGAR,",CHENNAI,CHENNAI,TAMIL NADU,0
419,FEDERAL BANK,FDRL0001387,BANGALORE/JAYANAGAR,K M PLAZA KANAKAPURA MAIN RD 30TH CROSS 7TH BLOCK  JAYANAGAR BANGALORE,BANGALORE,BANGALORE,KARNATAKA,26655558
420,FEDERAL BANK,FDRL0001388,KODUNGALLUR,NEAR MEGA MALL NORTH NADA  KODUNGALLUR,THRISSUR,KODUNGALLUR,KERALA,2806828
421,FEDERAL BANK,FDRL0001389,KOZHIKODE / S M STREET,S M STREET BRANCH PARCO TOWERS P M TAJ ROAD  KOZHIKODE,KOZHIKODE,KOZHIKODE,KERALA,2723411
422,FEDERAL BANK,FDRL0001390,NEW DELHI/CORPORATE BANKING BR,"E-13-29 , HARSHA BHAVAN, MIDDLE CIRCLE CONNAUGHT PLACE",NEW DELHI,NEW DELHI,DELHI,0
423,FEDERAL BANK,FDRL0001391,MUMBAI / BORIVILI,"BUILDING NO 1, SUMER NAGAR, S. V. ROAD, BORIVILI - WEST,",MUMBAI SUBURBAN,MUMBAI,MAHARASHTRA,0
424,FEDERAL BANK,FDRL0001392,ALLAHABAD,N P A ARCADE 23  M. G. ROAD ALLAHABAD,ALLAHABAD,ALLAHABAD,UTTAR PRADESH,2560019
425,FEDERAL BANK,FDRL0001393,MUMBAI / VILE PARLE,`WEMBLY` GROUND FLOOR OFF NEHRU ROAD VILE PARLE EAST,MUMBAI SUBURBAN,MUMBAI,MAHARASHTRA,26154635
426,FEDERAL BANK,FDRL0001394,PONDICHERRY,315  MARAIMALAI ADIGAL SALAI NELLITHOPE PONDICHERRY,PONDICHERRY,PONDICHERRY,PUDUCHERRY,2200235
427,FEDERAL BANK,FDRL0001395,SECUNDERABAD,1ST FLOOR  VASAVI TOWERS 1-1-40/1  OPP. MANJU THEATRE SECUNDRABAD,SECUNDERABAD,SECUNDERABAD,ANDHRA PRADESH,27895133
428,FEDERAL BANK,FDRL0001396,HARIPAD,P B NO. 40 GOVT. HOSPITAL JN. HARIPAD,ALAPUZHA,HARIPAD,KERALA,2416614
429,FEDERAL BANK,FDRL0001397,MUNDAKAYAM,C S I  BUILDING P B NO. 17 MUNDAKAYAM,KOTTAYAM,MUNDAKAYAM,KERALA,273356
430,FEDERAL BANK,FDRL0001398,MUMBAI / BANDRA (WEST),B-989 CASA ADRIANA 15 ST.JOHNBAPTISTROAD BANDRA(WEST MUMBAI,MUMBAI SUBURBAN,MUMBAI,MAHARASHTRA,0
431,FEDERAL BANK,FDRL0001399,MUMBAI / CHEMBUR,SHOP NO.1 ED-EL PLOT NO.208  CHEMBUR  MUMBAI,MUMBAI SUBURBAN,MUMBAI,MAHARASHTRA,25298105
432,FEDERAL BANK,FDRL0001400,KOLKATA / SHAKESPERE SARANI,IST FLOOR 21A  SHAKESPERE SARANI KOLKATA,KOLKATA,KOLKATA,WEST BENGAL,22828292
433,FEDERAL BANK,FDRL0001401,ATTINGAL,OPP. K S R T C  BUS STAND ATTINGAL ATTINGAL,THIRUVANANTHAPURAM,ATTINGAL,KERALA,2625760
434,FEDERAL BANK,FDRL0001402,PERUNNA,"NSS BUILDING, PERUNNA PO, CHANGANASSERY, KOTTAYAM DIST.",KOTTAYAM,PERUNNA,KERALA,0
435,FEDERAL BANK,FDRL0001403,MUMBAI / ASSET RECOVERY,134  JOLLY MAKER CHAMBER NO.2 NARIMAN POINT MUMBAI,MUMBAI,MUMBAI,MAHARASHTRA,22846676
436,FEDERAL BANK,FDRL0001407,QUILANDY,P B NO. 22 TOWN CENTRE QUILANDY,KOZHIKODE,QUILANDY,KERALA,2631157
437,FEDERAL BANK,FDRL0001408,CHENNAI / ASSET RECOVERY,ASSET RECOVERY BRANCH 1ST FL NO.57 ROYAPETTAH HG RD ROYAPETTAH CHN,CHENNAI,CHENNAI,TAMIL NADU,28130988
438,FEDERAL BANK,FDRL0001409,MANNARKKAD,CHILAMBUKADAN BUILDINGS KODATHIPADY MANNARKKAD,PALAKKAD,MANNARKKAD,KERALA,224065
439,FEDERAL BANK,FDRL0001410,ERNAKULAM/VYTTILA,31/758  THAMMANAM ROAD VYTTILA JUNCTION KOCHI,ERNAKULAM,ERNAKULAM,KERALA,2389309
440,FEDERAL BANK,FDRL0001412,PATTAMBI,PRANAVAM BUILDINGS PALAKKAD ROAD PATTAMBI,PALAKKAD,PATTAMBI,KERALA,2213966
441,FEDERAL BANK,FDRL0001413,KOZHIKODE / MAVOOR ROAD,GROUND FLOOR FEDERAL TOWER 27/97G MAVOOR RD ARAYIDATHPALAM,KOZHIKODE,KOZHIKODE,KERALA,2744177
442,FEDERAL BANK,FDRL0001414,THAMARASSERY,"MAHARANI SHOPPING COMPLEX KARADI, WYNAD ROADTHAMARASSERY",KOZHIKODE,THAMARASSERY,KERALA,0
443,FEDERAL BANK,FDRL0001415,PERAMBRA,ALANKAR ARCADE KOZHIKODE,KOZHIKODE,PERAMBRA,KERALA,2612777
444,FEDERAL BANK,FDRL0001416,THIRUVANANTHAPURAM/PEROORKADA,THE FEDERAL BANK LIMITED 1STFLOOR VASANTHAMTOWERS THIRUVANANTHAPURAM,THIRUVANANTHAPURAM,THIRUVANANTHAPURAM,KERALA,2439933
445,FEDERAL BANK,FDRL0001417,PANDALAM,P B NO. 46  OOTHIKALIL COMPLEX OPPOSITE POST OFFICE PANDALAM,PATHANAMTHITTA,PANDALAM,KERALA,251133
446,FEDERAL BANK,FDRL0001418,COIMBATORE/ARB,DOOR NO 21 VARIETY HALL ROAD COIMBATORE,COIMBATORE,COIMBATORE,TAMIL NADU,2302992
447,FEDERAL BANK,FDRL0001421,ERNAKULAM/KALOOR,"SYDA BUILDING,  OPPOSITE TO IGNOU KALOOR KADAVANTHARA ROAD, KALOOR",ERNAKULAM,KOCHI,KERALA,2336900
448,FEDERAL BANK,FDRL0001422,VENJARAMOODU,NEAR KSEB MAJOR SECTION OFFICE PB NO. 5  M.C. ROAD  THIRUVANANTHAPURAM,THIRUVANANTHAPURAM,VENJARAMOODU,KERALA,2875999
449,FEDERAL BANK,FDRL0001423,UZHAVOOR,THE FEDERAL BANK LTD UZHAVOOR UZHAVOOR,KOTTAYAM,UZHAVOOR,KERALA,241746
450,FEDERAL BANK,FDRL0001424,ERNAKULAM / CMS BRANCH,FEDERAL TOWERS MARINE DRIVE ERNAKULAM,ERNAKULAM,ERNAKULAM,KERALA,2385514
451,FEDERAL BANK,FDRL0001425,TRIPRAYAR,GROUND FLOOR KAKKANAT COMPLEX TRIPRAYARNATTIKA P O,THRISSUR,THRISSUR,KERALA,0
452,FEDERAL BANK,FDRL0001426,KATTAPPANA,HILLSON PLAZA IDUKKI KAVALA KATTAPPANA  KL,IDUKKI,KATTAPPANA,KERALA,274555
453,FEDERAL BANK,FDRL0001427,KOTTAKKAL,VEE PEE TOWER KOTTAKKAL (P.O) MALAPPURAM DIST  KL,MALAPPURAM,KOTTAKKAL,KERALA,2740900
454,FEDERAL BANK,FDRL0001429,THIRUVANANTHAPURAM/COTTONHILL,"T.C. 15/356-4, EDAPPAZHANJI MAIN ROAD, COTTON HILL,VAZHUTHACAUD,",THIRUVANANTHAPURAM,THIRUVANANTHAPURAM,KERALA,0
455,FEDERAL BANK,FDRL0001430,VAZHAKULAM,CHAKKUMPEEDIKA ARCADE VAZHAKULAM (P.O) ERNAKULAM DIST.,ERNAKULAM,VAZHAKULAM,KERALA,2262277
456,FEDERAL BANK,FDRL0001431,OTTAPPALAM,GROUND FLOOR NARAYANA TOWERS OTTAPPALAM,PALAKKAD,OTTAPPALAM,KERALA,2249520
457,FEDERAL BANK,FDRL0001432,CHAVAKKAD,LIMA TOWER OPP. POLICE STATION MAIN ROAD  CHAVAKKAD,THRISSUR,CHAVAKKAD,KERALA,2503120
458,FEDERAL BANK,FDRL0001433,MALA,XII/1379 A POST OFFICE ROAD MALA  THRISSUR DISTRICT,THRISSUR,THRISSUR,KERALA,2897770
459,FEDERAL BANK,FDRL0001435,ERNAKULAM/ASSET RECOVERY,FEDERAL TOWERS 8TH FLOOR MARINE DRIVE  ERNAKULAM,ERNAKULAM,ERNAKULAM,KERALA,2385598
460,FEDERAL BANK,FDRL0001437,BANGALORE  KORAMANGALA,NO.820  20TH MAIN GOLDEN HOUSE 8TH BLOCK 80 FT.ROAD KORAMANGALA,BANGALORE,BANGALORE,KARNATAKA,0
461,FEDERAL BANK,FDRL0001438,SILIGURI,"LOWER GROUND FLOOR, SATURNS BESIDES UBI SEVOKE ROAD BRANCH, SEVOKE ROAD",DARJILING,SILIGURI,WEST BENGAL,0
462,FEDERAL BANK,FDRL0001439,POTHENCODE,REBEKKA SHOPPING COMPLEX THIRUVANANTHAPURAM,THIRUVANANTHAPURAM,POTHENCODE,KERALA,2717269
463,FEDERAL BANK,FDRL0001440,NEYYATINKARA,THE FEDERAL BANK LTD SWADESABHIMANI COMPLEX NEYYATTINKARA,NEYYATINKARA,NEYYATINKARA,KERALA,0
464,FEDERAL BANK,FDRL0001441,CHENNAI / ADYAR,"NO 10, 4TH MAIN ROAD, GANDHI NAGAR, (NEAR FORTIS MALAR HOSPITAL),ADYAR, CHENNAI",CHENNAI,CHENNAI,TAMIL NADU,24404058
465,FEDERAL BANK,FDRL0001442,MANANTHAVADY,THE FEDERAL BANK LTD ONATTUTHOTTATHIL BLDG MANANTHAVADY,WAYANAD,MANANTHAVADY,KERALA,246444
466,FEDERAL BANK,FDRL0001443,MALLAPPALLY WEST,THE FEDERAL BANK LTD GROUND FLOOR MALLAPPALLY,PATHANAMTHITTA,MALLAPPALLY WEST,KERALA,2683232
467,FEDERAL BANK,FDRL0001444,CHENNAI / VADAPALANI,"NO. 64 , J N SALAI, OPP.HOTEL VIJAY PARK 100 FEET ROAD, ARUMBAKKAM",CHENNAI,CHENNAI,TAMIL NADU,0
468,FEDERAL BANK,FDRL0001445,RAIPUR,GF  LALGANGA SHOPPING MALL GE ROAD,RAIPUR,RAIPUR,CHANDIGARH,2236276
469,FEDERAL BANK,FDRL0001447,RANCHI,"GROUND FLOOR HERO HOUSE , MAIN ROAD",RANCHI,RANCHI,JHARKHAND,2211483
470,FEDERAL BANK,FDRL0001448,THIRUVANKULAM,BLDG. NO.VII/602 A PULIMOOTTIL BUILDING ERNAKULAM DIST,ERNAKULAM,THIRUVANKULAM,KERALA,2786886
471,FEDERAL BANK,FDRL0001449,VADAKKENCHERY,THE FEDERAL BANK LTD SHA TOWERS  VADAKKENCHERY,PALAKKAD,VADAKKENCHERY,KERALA,254243
472,FEDERAL BANK,FDRL0001450,DEHRADUN,447  RAJPUR ROAD OPPOSITE HOTEL GREAT VALUE,DEHRADUN,DEHRADUN,UTTARAKHAND,0
473,FEDERAL BANK,FDRL0001451,NEW DELHI/ NIRMAN VIHAR,E - 372 GROUND FLOOR NIRMAN VIHAR  NEW DELHI,NEW DELHI,NEW DELHI,DELHI,22440956
474,FEDERAL BANK,FDRL0001452,CHENNAI / CMS BRANCH,61  ANNA SALAI CHENNAI  TAMILNADU STATE,CHENNAI,CHENNAI,TAMIL NADU,28510645
475,FEDERAL BANK,FDRL0001453,NEW DELHI / PITAMPURA,GROUND FLOOR B-156  LOK VIHAR ROAD NO.44  PITAMPURA,NEW DELHI,NEW DELHI,DELHI,27354333
476,FEDERAL BANK,FDRL0001454,BANGALORE / MARATHAHALLI,86/80  1ST FLOOR MAIN ROAD  MARATHAHALLI BANGALORE,BANGALORE,BANGALORE,KARNATAKA,0
477,FEDERAL BANK,FDRL0001455,KOLHAPUR,C.S. NO.1425 C WARD FORD CORNER LAXMIPURI SAMANT TOWER KOLHAPUR,KOLHAPUR,KOLHAPUR,MAHARASHTRA,2642692
478,FEDERAL BANK,FDRL0001456,AURANGABAD,GROUND FLOOR ALAKANANDA AURANGABAD,AURANGABAD,AURANGABAD,MAHARASHTRA,2356434
479,FEDERAL BANK,FDRL0001457,CHENNAI/PURASAWALKAM,DOOR NO.47 GANGADEESWARAR KOIL ST PURASAWALKAM CHENNAI,CHENNAI,CHENNAI,TAMIL NADU,26651129
480,FEDERAL BANK,FDRL0001458,IRITTY,KCP/13/1831 SAKTHICOMPLEX MAINROAD IRITTY KANNURDIST.,KANNUR,IRITTY,KERALA,2492700
481,FEDERAL BANK,FDRL0001459,KOLLAM / POLAYATHODE,KURUMPELIL AVENUE POLAYATHODE KOLLAM - DIST.,KOLLAM,KOLLAM,KERALA,2767701
482,FEDERAL BANK,FDRL0001460,VIJAYAWADA / PATAMATA,NTR CIRCLE PATAMATA VIJAYAWADA,VIJAYAWADA,VIJAYAWADA,ANDHRA PRADESH,2477547
483,FEDERAL BANK,FDRL0001461,KANNUR/SOUTH BAZAR,P B NO 488 FIRST FLOOR SOUTH BAZAR  KANNUR,KANNUR,KANNUR,KERALA,2711986
484,FEDERAL BANK,FDRL0001462,THENI,139 & 140 MADURAI ROAD TAMILNADU,THENI,THENI,TAMIL NADU,255666
485,FEDERAL BANK,FDRL0001463,EDAMUTTAM,STAR PLAZA COMPLEX NH 17 EDAMUTTAM CENTRE EDAMUTTAM,THRISSUR,THRISSUR,KERALA,2835286
486,FEDERAL BANK,FDRL0001464,INFOPARK / KAKKANAD,GROUND FLOOR VISMAYA INFOPARK  KUSUMAGIRI P O  KAKKANAD,ERNAKULAM,KAKKANAD,KERALA,2415050
487,FEDERAL BANK,FDRL0001465,RAMANATTUKARA,V/488A  FIRST FLOOR REGENT PLAZA KOZHIKODE DISTRICT,KOZHIKODE,RAMANATTUKARA,KERALA,2442620
488,FEDERAL BANK,FDRL0001466,WILLINGDON ISLAND,"5TH CROSS ROAD, DHARRAGH SMAIL HOUSE, WILLINGDON ISLAND, KOCHI 682 003",ERNAKULAM,KOCHI,KERALA,0
489,FEDERAL BANK,FDRL0001467,THRISSUR / KOORKENCHERY,SUNCITY COMMERCIAL COMPLEX KOORKENCHERY THRISSUR,THRISSUR,THRISSUR,KERALA,2427810
490,FEDERAL BANK,FDRL0001468,VALANCHERY,PTP TOWER OPP.PANCHAYATH OFFICE VALANCHERY,MALAPPURAM,VALANCHERY,KERALA,0
491,FEDERAL BANK,FDRL0001469,KAKKANAD/SEAPORT-AIRPORT ROAD,K & T TOWERS NEAR POST OFFICE KAKKANAD,ERNAKULAM,KAKKANAD,KERALA,2421940
492,FEDERAL BANK,FDRL0001470,BHARUCH,UPPER GROUND FLOOR B-WING M/S CAPITAL BUSINESS CENTRE BHARUCH,BHARUCH,BHARUCH,GUJARAT,243213
493,FEDERAL BANK,FDRL0001471,BANGALORE / BANASWADI,NO.7  WARD NO.88 BANASWADI MAIN ROAD BANGALORE,BANGALORE,BANGALORE,KARNATAKA,25420700
494,FEDERAL BANK,FDRL0001472,BANGALORE/RT NAGAR,NO.20  IST MAIN ROAD 108 'B' BUS ST GANGA NG RT NAGAR PO BANGALORE,BANGALORE,BANGALORE,KARNATAKA,0
495,FEDERAL BANK,FDRL0001473,HYDERABAD/PUNJAGUTTA,6-3-456/C1 & C2  GROUND FLOOR MGR ESTATES PUNJAGUTTA  HYDERABAD,HYDERABAD,HYDERABAD,ANDHRA PRADESH,23357575
496,FEDERAL BANK,FDRL0001474,NEW DELHI / ROHINI,IST FLOOR  SGL PLAZA  PLOT NO.10 COMMUNITY CENTRE  SECTOR IX DELHI,NEW DELHI,NEW DELHI,DELHI,27556500
497,FEDERAL BANK,FDRL0001475,PANVEL,"GROUND FLOOR  ""SULOCHANA"" PLOT NO.1  SECTOR 19 NEW PANVEL  NAVI MUMBAI",RAIGAD,PANVEL,MAHARASHTRA,27453610
498,FEDERAL BANK,FDRL0001476,KAYAMKULAM/COLLEGE JUNCTION,MSM COLLEGE KAYAMKULAM,ALAPUZHA,KAYAMKULAM,KERALA,2442031
499,FEDERAL BANK,FDRL0001477,PACHA/CHEKKIDIKKAD,CHEKKIDIKKADU P O CHEKKIDIKKADU P O CHEKKIDIKKADU P O,ALAPUZHA,PACHA/CHEKKIDIKKAD,KERALA,0
500,FEDERAL BANK,FDRL0001478,NEW DELHI / MAYUR VIHAR,"UTTARA GURUVAYURAPPAN TEMPLE COMPLEX EAST GATE, KRISHA MARG, POCKET3, MAUR VIHAR1",NEW DELHI,NEW DELHI,DELHI,0
501,FEDERAL BANK,FDRL0001479,KURUNDWAD,SHIROL TALUK KOHLAPUR( DIST) MAHARASHTRA,KOLHAPUR,KURUNDWAD,MAHARASHTRA,0
502,FEDERAL BANK,FDRL0001480,KAGWAD,ATHANI TALUK BELGAUM DIST KARNATAKA,BELGAUM,KAGWAD,KARNATAKA,0
503,FEDERAL BANK,FDRL0001481,ICHALKARINJI,"DHANYA LANE HATKANAGALE TALUK, MAHARASHTRA",KOLHAPUR,ICHALKARANJI,MAHARASHTRA,0
504,FEDERAL BANK,FDRL0001482,NARSOBAWADI,"SHIROL TALUK KOLHAPUR DISTRICT,MAHARASHTRA",KOLHAPUR,NARSOBAWADI,MAHARASHTRA,0
505,FEDERAL BANK,FDRL0001483,GANESHWADI,"SHIROL TALUK KOLHAPUR DIST, MAHARASHTRA",KOLHAPUR,GANESHWADI,MAHARASHTRA,0
506,FEDERAL BANK,FDRL0001484,KOTHALI,"NANDRE BUILDING, KUPADE GALLI, MAIN ROAD KOTHALI , KOLHAPUR DIST, MAHARASHTRA",KOLHAPUR,KOTHALI,MAHARASHTRA,0
507,FEDERAL BANK,FDRL0001485,SHIROL,"SHIROL TALUK KOHLAPUR,MAHARASHTRA",KOLHAPUR,SHIROL,MAHARASHTRA,0
508,FEDERAL BANK,FDRL0001490,TOAP,"HATKANANGLE TALUK KOLHAPUR DIST, MAHARASHTRA",KOLHAPUR,TOAP,MAHARASHTRA,0
509,FEDERAL BANK,FDRL0001491,JAYSINGPUR,"SHIROL TALUK,NEAR ST STAND KOLHAPUR DIST, MAHARASHTRA",KOLHAPUR,JAYASINGPUR,MAHARASHTRA,0
510,FEDERAL BANK,FDRL0001492,KOHLAPUR/AZAD CHOWK,"KARVEER TALUK KOLHAPUR DIST, MAHARASHTRA",KOLHAPUR,KOLHAPUR,MAHARASHTRA,0
511,FEDERAL BANK,FDRL0001493,MIRAJ,"SHANIWARPETH,NEAR MAIDAN DATTA MANDIR SANGLI DIST,MAHARASHTRA",SANGLI,MIRAJ,MAHARASHTRA,0
512,FEDERAL BANK,FDRL0001494,SANGLI/ S.T COLONY,"S T COLONY,SANGLI, KESAR BHAVAN,100 FT ROAD, NR. GANESH MANDIR, VISHRAMBAG, SANGLI-416415",SANGLI,SANGLI,MAHARASHTRA,0
513,FEDERAL BANK,FDRL0001495,GANESHPUR,"PLOT NO. 19, NEAR MILITARY HOSPITAL, GANESHPUR MAIN ROAD,",BELGAUM,BELGAUM,KARNATAKA,0
514,FEDERAL BANK,FDRL0001496,KOHLAPUR/ R.R TAKALA,"Upper Ground Floor Grand Signet Building, Rajaram Road, Kolhapur 416 008",KOLHAPUR,KOLHAPUR,MAHARASHTRA,0
515,FEDERAL BANK,FDRL0001497,AINAPUR,ATHANI TALUK BELGAUM DIST.,BELGAUM,AINAPUR,KARNATAKA,0
516,FEDERAL BANK,FDRL0001498,KARAD,"KARAD TALUK, SATARA DIST.",SATARA,KARAD,MAHARASHTRA,0
517,FEDERAL BANK,FDRL0001499,UGAR KHURD,ATHANI TALUK BELGAUM DIST.,BELGAUM,UGAR KHURD,KARNATAKA,0
518,FEDERAL BANK,FDRL0001500,PUNE/KOTHRUD,"NIRMAL PLAZA, GROUND FLOOR OPP. VANAZ INDUSTRIES,PAUD ROAD, KOTHRUD",PUNE,PUNE,MAHARASHTRA,0
519,FEDERAL BANK,FDRL0001501,ISLAMPUR,HOLKAR COMPLEX S.T.STAND ROAD ISLAMPUR MAHARASHTRA,SANGLI,PUNE,MAHARASHTRA,0
520,FEDERAL BANK,FDRL0001502,PUNE/DHANKAVADI,"RAVIKIRAN HEIGHTS, SR NO. 20/2, PUNE - SATARA ROAD, BALAJI NAGAR, DHANKAVADI,",PUNE,PUNE,MAHARASHTRA,0
521,FEDERAL BANK,FDRL0001503,SANGLI CITY,"SIDDHIVINAYAK FORUM,OPP. ZILLA PARISHAD SANGLI  ---  416 416",SANGLI,SANGLI,MAHARASHTRA,0
522,FEDERAL BANK,FDRL0001505,MUMBAI / DADAR WEST,"FINAL PLOT NO.350,NEMINATH APARTMENT, OPP.BHAINDAKAR MKT.,DADAR(WEST),MUMBAI-400028",MUMBAI,MUMBAI,MAHARASHTRA,0
523,FEDERAL BANK,FDRL0001506,PUNE/WARJE-MALWADI,"ARYAPRATHAM APARTMENTSNEAR  WARJE CHOWK  N D A ROADWARJE/MALWADI, PUNE",PUNE,PUNE,MAHARASHTRA,0
524,FEDERAL BANK,FDRL0001507,ATHANI (BELGAUM),"NEAR HPO,NEAR GANESH MANDIR, A/P ATHANI,ATHANI TALUK,BELGAUM DIST.",BELGAUM,"ATHANI, KARNATAKA",KARNATAKA,0
525,FEDERAL BANK,FDRL0001508,NIPANI,"TIFFCO PLAZA, GALA NO.1, NIPANI",NIPANI,NIPANI,KARNATAKA,0
526,FEDERAL BANK,FDRL0001509,BELGAUM CITY,"VENKATESH ANUGRAH COMPLEX, H. NO.1414, BASWAN GALLI, BELGAUM",BELGAUM,BELGAUM,KARNATAKA,0
527,FEDERAL BANK,FDRL0001510,PUNE/SINHAGAD ROAD,"S NO.39/38,SUNDAR PARK,MANIK BAG,SINHAGAD RD. VADGAON(BK), PUNE-411051",PUNE,PUNE,MAHARASHTRA,0
528,FEDERAL BANK,FDRL0001511,KONDOTTY,"KODITHODI TOWER,146/8, WARD NO.3, BYE PASS JN.,KONDOTTY",MALAPPURAM,KONDOTTY,KERALA,0
529,FEDERAL BANK,FDRL0001512,THAIKKATTUKARA,"N H - 47 NEAR FIT SHOW ROOM THAIKKATTUKARA  P.O, ALUVA",ERNAKULAM,ALUVA,KERALA,0
530,FEDERAL BANK,FDRL0001513,BHUBANESHWAR/KALPANA SQUARE,"BHUBANESWAR/KALPANA SQUARE, 62, BUDHA NAGAR, KALPANA SQUARE ,CUTTAK ROAD.",BHUBANESWAR,BHUBANESWAR,ODISHA,0
531,FEDERAL BANK,FDRL0001514,KOLKATA / PARK CIRCUS,DON BOSCO SCHOOL CAMPUS PARK CIRCUS,KOLKATA,KOLKATA,WEST BENGAL,0
532,FEDERAL BANK,FDRL0001515,VARIAPURAM,KOLLANPADY ELANTHOOR EAST P O,PATHANAMTHITTA,PATHANAMTHITTA,KERALA,0
533,FEDERAL BANK,FDRL0001516,JAMSHEDPUR / SAKCHI,KERALA SAMAJAM SCHOOL JAMSHADPUR,JAMSHEDPUR,JAMSHEDPUR,JHARKHAND,0
534,FEDERAL BANK,FDRL0001517,MOONUPEEDIAKA,"M A MCOMPLEX,  NH 17 KAIPAMANGALAM  P O",THRISSUR,THRISSUR,KERALA,0
535,FEDERAL BANK,FDRL0001518,KOTHAMANGALAM EXT COUNTER,KOTHAMANGALAM KOTHAMANGALAM,ERNAKULAM,KOTHAMANGALAM,KERALA,0
536,FEDERAL BANK,FDRL0001519,THEKKEMALA,"416A, KAITHAVANAMALA COMPLEX, THEKKEMALA JUNCTION, KOZHENCHERRY, PATHANAMTHITTA DIST.",PATHANAMTHITTA,THEKKEMALA,KERALA,0
537,FEDERAL BANK,FDRL0001520,LUDHIANA EXTN COUNTER,LUDHIANA CHHRISTIAN MEDICAL COLLEGE LUDHIANA,LUDHIANA,LUDHIANA,PUNJAB,0
538,FEDERAL BANK,FDRL0001521,CHENNAI / GREAMS ROAD,"COCHIN HOUSE, NO.1, ANDERSON ROAD",CHENNAI,CHENNAI,TAMIL NADU,0
539,FEDERAL BANK,FDRL0001522,NEDUMBASSERY EXTN COUNTER,CIAL NEDUMBASSEY,ERNAKULAM,NEDUMBASSERY,KERALA,0
540,FEDERAL BANK,FDRL0001523,NEW DELHI CON CIRCUS EXTN,NDLA EXT COUNTER NDLA EXT COUNTER,NEW DELHI,NEW DELHI,DELHI,0
541,FEDERAL BANK,FDRL0001524,KANJIKODE,"XV/1019, K.M.S. COMPLEX CHEDAYANKALAI,  KANJIKODE (WEST)  PALAKKAD",PALAKKAD,PALGHAT,KERALA,0
542,FEDERAL BANK,FDRL0001525,CHERUTHURUTHY EXT. COUNTER,"JYOTHI ENGG. COLLEGE, CHERUTHURUTHY",THRISSUR,CHERUTHURUTHY,KERALA,0
543,FEDERAL BANK,FDRL0001527,SALEM / ALAGAPURAM,"ST.JOHNS MATRICULATION HS SCHOOL CAMPUS CONVENT ROAD, ALAGAPURAM",SALEM,SALEM,TAMIL NADU,0
544,FEDERAL BANK,FDRL0001528,GURGAON DLF,"B-247, UPPER GRND FLOOR, SUPERMART COMM COMP1 DLF,QUTUB ENCLAVE, PHASE-IV GURGAON",GURGAON,GURGAON,HARYANA,0
545,FEDERAL BANK,FDRL0001529,DEVANAHALLI,"135/9, CHECK POST JUNCTION, DB CROSS DEVANAHALLI, BANGALORE RURAL DT, KARANATAKA",BANGALORE,BANGALORE,KARNATAKA,0
546,FEDERAL BANK,FDRL0001530,BELGAUM / TILAKWADI,"NO:14, SUNFLOWER APART, NEAR 3RD RLY GATE KHANAPUR ROAD, TILAKWADI,",BELGAUM,BELGAUM,KARNATAKA,0
547,FEDERAL BANK,FDRL0001531,KUMILY,"MASS BUILDINGS, THEKKADI JUNCTION KUMILY, IDUKKI",IDUKKI,KUMILY,KERALA,0
548,FEDERAL BANK,FDRL0001532,CHERPULASSERY,"FATHIMA COMPLEX, PATTAMBI ROAD,",PALAKKAD,PALAKKAD,KERALA,0
549,FEDERAL BANK,FDRL0001533,AMRITSAR,"39,COURT ROAD, AMRITSAR",AMRITSAR,AMRITSAR,PUNJAB,0
550,FEDERAL BANK,FDRL0001534,PANCHAKULA,"SCO 63, SECTOR -11 PANCHKULA",PANCHKULA,CHANDIGARH,HARYANA,0
551,FEDERAL BANK,FDRL0001535,BANGALORE / INDIRANAGAR,"315/1, 100 FEET ROAD, INDIRA NAGAR BANGALORE",BANGALORE,BANGALORE,KARNATAKA,0
552,FEDERAL BANK,FDRL0001536,CHENNAI/TAMBARAM,"NEW NO.58 (OLD NO.26), KAKKAN STREET, WEST THAMBARAM, CHENNAI - 600045",CHENNAI,CHENNAI,TAMIL NADU,0
553,FEDERAL BANK,FDRL0001537,PERINTALMANNA,"FATHIMA TOWERS, PATTAMBI ROAD PERINTALMANNA , MALAPPURAM  DIST.",MALAPPURAM,PERINTALMANNA,KERALA,0
554,FEDERAL BANK,FDRL0001538,MUMBAI/GOREGAON,"GROUND FLOOR, ONYX BUILDING, S V ROAD GOREGAON WEST, MUMBAI",MUMBAI SUBURBAN,MUMBAI,MAHARASHTRA,0
555,FEDERAL BANK,FDRL0001539,MUMBAI/MULUND,"MARATHON CHAMBERS, SH NO 8, PK RD & RRT RD JN PANCH RASTHA, MULUND,  WEST MUMBAI",MUMBAI SUBURBAN,MUMBAI,MAHARASHTRA,0
556,FEDERAL BANK,FDRL0001540,JALGAON,"DAULAT PLAZA, NEAR TOWER CHOWK MG ROAD, JALGAON - 425001, MAHARASHTRA",JALGAON,JALGAON,MAHARASHTRA,0
557,FEDERAL BANK,FDRL0001541,BHAVNAGAR,"1ST FLOOR THAKHESHWAR PLOTS, OPP. TO SAHAKARI HATT,WAGHAVADI ROAD",BHAVNAGAR,BHAVNAGAR,GUJARAT,0
558,FEDERAL BANK,FDRL0001542,KALYAN,"CHANDULAL J JOSHI COMPLEX, VASANTH VIHAAR, V P ROAD , KALYAN (WEST) 421301, THANE DIST",THANE,MUMBAI,MAHARASHTRA,0
559,FEDERAL BANK,FDRL0001543,PUTHANATHANI,"TAUFEEQUE TOWERS, 3/514-515, NH17 PUTHANATHANI, MALAPPURAM DIST. 676552",MALAPPURAM,PUTHANATHANI,KERALA,0
560,FEDERAL BANK,FDRL0001544,VASAI ROAD,"VASAI ROAD BRANCH, MARY GREG BUILDING , MANICKPUR, VASAI ROAD WEST, THANE DIST MUMBAI",THANE,VASAI ROAD,MAHARASHTRA,0
561,FEDERAL BANK,FDRL0001545,DWARAKA / NEW DELHI,"MANISH ABHINAV PLAZA, PLOT 5, SECTOR-5 (ASHIRWAD CHOWK) ,  DWARKA,  NEW DELHI",NEW DELHI,NEW DELHI,DELHI,0
562,FEDERAL BANK,FDRL0001546,PANIPAT,"HARPREET PLAZA, BATAK CHOWK, PANIPAT",PANIPAT,PANIPAT,HARYANA,0
563,FEDERAL BANK,FDRL0001547,EDAPPAL,"GOLDEN TOWERS, PONNANI ROAD EDAPPAL , MALAPPURAM DIST",MALAPPURAM,EDAPPAL,KERALA,0
564,FEDERAL BANK,FDRL0001548,PATTIMATTOM,"MECKAMKUNNEL SHOPPING COMPLEX, PP ROAD PATTIMATTOM, ERNAKULAM DIST.",ERNAKULAM,PATTIMATTOM,KERALA,0
565,FEDERAL BANK,FDRL0001549,KATTAKADA,"COLLEGE ROAD, KATTAKADA THIRUVANATHAPURAM DIST.",THIRUVANANTHAPURAM,KATTAKADA,KERALA,0
566,FEDERAL BANK,FDRL0001550,KARUR,"32, OLD BYPASS ROAD,",KARUR,KARUR,TAMIL NADU,0
567,FEDERAL BANK,FDRL0001551,VIRAR,"UNIQUE PLAZA, OPP.SCIENCE GARDEN AGASHI ROAD, VIRAR (WEST), MUMBAI",THANE,VIRAR,MAHARASHTRA,0
568,FEDERAL BANK,FDRL0001552,UDAIPUR,"3-C, MADHUBAN,",UDAIPUR,UDAIPUR,RAJASTHAN,0
569,FEDERAL BANK,FDRL0001553,NELAMANGALA,"SITE NO:2667/3388 ,PARAMANNA LAYOUT B H ROAD BANGALORE RURAL",BANGALORE,NELAMANGALA,KARNATAKA,0
570,FEDERAL BANK,FDRL0001554,JODHPUR,"RANVEER BHAVAN, 9TH CHOPASANI ROAD JODHPUR, RAJASTHAN",JODHPUR,JODHPUR,RAJASTHAN,0
571,FEDERAL BANK,FDRL0001555,HYDERABAD / MADHAPUR,"ACCESS , ARUNODAYA COLONY, NEAR IMAGE GARDENS MADHAPUR ,HYDERABAD",HYDERABAD,HYDERABAD,ANDHRA PRADESH,0
572,FEDERAL BANK,FDRL0001556,CHANGARAMKULAM,"SHABANA COMMERCIAL COMPLEX, NH17, KOZHIKODE R CHANGARAMKULAM",MALAPPURAM,CHANGARAMKULAM,KERALA,0
573,FEDERAL BANK,FDRL0001557,EDAKKARA,"JOHNS TOWER, OOTTY ROAD EDAKKARA",MALAPPURAM,EDAKKARA,KERALA,0
574,FEDERAL BANK,FDRL0001558,NEMMARA,"7/782, LAKSHMI COMPLEX, OPP TO BUS STAND NEMMARA PO",PALAKKAD,NEMMARA,KERALA,0
575,FEDERAL BANK,FDRL0001559,WANDOOR,"PRIYANKA AVENUE, NILAMBOOR ROAD WANDOOR",MALAPPURAM,WANDOOR,KERALA,245960
576,FEDERAL BANK,FDRL0001560,TIRUR,"KALADY COMPLEX, POONGOTTUKULAM TIRUR",MALAPPURAM,TIRUR,KERALA,0
577,FEDERAL BANK,FDRL0001561,BANGALORE / K R PURAM,"VSR COMPLEX, OLD MADRAS ROAD, KRISHNARAJAPURAM, BANGALORE",BANGALORE,BANGALORE,KARNATAKA,0
578,FEDERAL BANK,FDRL0001562,AVADI,"199, NEHRU BAZAR, AVADI CHENNAI",THIRUVALLUR,AVADI,TAMIL NADU,0
579,FEDERAL BANK,FDRL0001563,POONAMALLEE,"40, TRUNK ROAD, POONAMALLEE CHENNAI",THIRUVALLUR,POONAMALLEE,TAMIL NADU,0
580,FEDERAL BANK,FDRL0001564,PORUR,"4/70, ARCOT ROAD, PORUR KARAMBAKKOM, CHENNAI",THIRUVALLUR,PORUR,TAMIL NADU,0
581,FEDERAL BANK,FDRL0001565,WADAKKANCHERRY,"VMC COMPLEX, THRISSUR-SHORNOOR ROAD,",WADAKKANCHERRY,WADAKKANCHERRY,KERALA,0
582,FEDERAL BANK,FDRL0001566,AMBATTUR,"NO.84 MTH ROAD VENKITAPURAM, AMBATTUR CHENNAI",THIRUVALLUR,CHENNAI,TAMIL NADU,0
583,FEDERAL BANK,FDRL0001567,VANDANAM,"DEVI ARCADE,  MEDICAL COLLEGE HOSPITAL JUNCTION, AMC PO",ALAPUZHA,VANDANAM,KERALA,0
584,FEDERAL BANK,FDRL0001568,NADAPURAM,"CROWN BUILDING, MAIN ROAD NADAPURAM , KOZHIKODE DIST.",KOZHIKODE,NADAPURAM,KERALA,0
585,FEDERAL BANK,FDRL0001569,KUKATPALLY,"PHASE I & II, KPHB COLONY,J N T U POST OFFICE RANGAREDDY (DIST).",RANGAREDDY,KUKATPALLY,ANDHRA PRADESH,0
586,FEDERAL BANK,FDRL0001570,CHERPU,"MALITHU TOWERS, MAIN ROAD, CHERPU, THRISSUR",THRISSUR,CHERPU,KERALA,0
587,FEDERAL BANK,FDRL0001571,BANNERGHATTA,"LIMRA TOWERS NO.53/3,4,5 KEMNAIKANA HALLI BANNERGHATTA, BANGALORE",BANGALORE,BANGALORE,KARNATAKA,0
588,FEDERAL BANK,FDRL0001572,CHEMMAD,"MAJESTIC TOWERS, PARAPPANAGADI ROAD TIRURANGADI (P O) , CHEMMAD",MALAPPURAM,CHEMMAD,KERALA,0
589,FEDERAL BANK,FDRL0001573,RAICHUR,"ASWINI COMPLEX, AMBEDKAR CIRCLE RAICHUR, KARNATAKA",RAICHUR,RAICHUR,KARNATAKA,0
590,FEDERAL BANK,FDRL0001574,UDIPI,"MAHALASA TOWERS, COURT ROAD OPP. TALUK OFFICE, UIDIPI",UDIPI,UDIPI,KARNATAKA,0
591,FEDERAL BANK,FDRL0001575,WALIV,"OMKAR BUILDING, WALIV, VASAI EAST, TANE DIST.",THANE,MUMBAI,MAHARASHTRA,0
592,FEDERAL BANK,FDRL0001576,PONDA,"PB NO.55, MENINO TRADE CENTRE, PONDA -403401 GOA STATE",PONDA,PONDA,GOA,0
593,FEDERAL BANK,FDRL0001577,PARAPPANANGADI,"XI/1576, KADALUNDI ROAD PARAPPANANGADI P O, MALAPPURAM DIST",MALAPPURAM,PARAPPANANGADI,KERALA,0
594,FEDERAL BANK,FDRL0001578,PAIPAD,"THYPARAMBIL BUILDINGS,  PALLICACHIRA P O PAIPAD",KOTTAYAM,PAIPAD,KERALA,0
595,FEDERAL BANK,FDRL0001579,ATHANI (ERNAKULAM),"ATHANI P O, NEDUMBASSERRY ERNAKULAM DIST.",ERNAKULAM,ATHANI (ERNAKULAM),KERALA,0
596,FEDERAL BANK,FDRL0001580,RAJOURI GARDENS/ NEW DELHI,"J-199, RAJOURI GARDENS, NEW DELHI",NEW DELHI,NEW DELHI,DELHI,0
597,FEDERAL BANK,FDRL0001581,PIMPRI-CHINCHWAD,"K 20, 21 & 22,  EMPIRE ESTATE PUNE- MUMBAI ROAD, PIMPRI-CHINCHWAD, PUNE",PUNE,PIMPRI-CHINCHWAD,MAHARASHTRA,0
598,FEDERAL BANK,FDRL0001582,BANGALORE / JALAHALLI,"17/1 SAVITHRI, SM ROAD,JALAHALLI WEST BANGALORE",BANGALORE,BANGALORE,KARNATAKA,0
599,FEDERAL BANK,FDRL0001583,UPPAL KALAN,"NO.2-3-16&17, MAIN ROAD, UPPAL, HYDERABAD",RANGAREDDY,UPPAL KALAN,ANDHRA PRADESH,0
600,FEDERAL BANK,FDRL0001584,SATARA,"MALHAR PLAZA, PLOT NO.15/3, RADHIKA ROAD SATARA",SATARA,SATARA,MAHARASHTRA,0
601,FEDERAL BANK,FDRL0001585,HOSKOTE,"GANGAMMA GUDI ROAD , M V EXTENSION, HOSKOTE, BANGALORE RURAL",HOSKOTE,HOSKOTE,KARNATAKA,0
602,FEDERAL BANK,FDRL0001586,ENATHU,"ENATHU, PATHANAMTHITTA DIST.",PATHANAMTHITTA,ENATHU,KERALA,0
603,FEDERAL BANK,FDRL0001587,BAHADURGARH,"BHAGWANI COMPLEX, NAJAHGARH  ROAD, MAIN BAZAR BAHADURGARH , JHAJJAR DIST, HARYANA",BAHADURGARH,BAHADURGARH,HARYANA,0
604,FEDERAL BANK,FDRL0001588,AHMEDNAGAR,"KAMDA HOUSE, SAVEDI ROAD, AHMEDNAGAR, MAHARASHTRA",AHMEDNAGAR,AHMEDNAGAR,MAHARASHTRA,0
605,FEDERAL BANK,FDRL0001589,BELLARY,"MODI CHAMBERS, 2ND CROSS, GANDHINAGAR, BELLARY",BELLARY,BELLARY,KARNATAKA,0
606,FEDERAL BANK,FDRL0001590,SHIMOGA,"SRI LAXMI COMPLEX, NEHRU ROAD, SHIMOGA , KARNATAKA",SHIMOGA,SHIMOGA,KARNATAKA,0
607,FEDERAL BANK,FDRL0001591,MEERUT,"37, CHIPPI TANK, BEGUM BRIDGE ROAD, MEERUT, UTTAR PRADESH",MEERUT,MEERUT,UTTAR PRADESH,0
608,FEDERAL BANK,FDRL0001592,KALIKAVU,"VAYALIL SQUARE, NILAMBUR ROAD, KALIKAVU P O",MALAPPURAM,KALIKAVU,KERALA,0
609,FEDERAL BANK,FDRL0001593,SOLAPUR,"CTS NO.8378/1/1-BM 151, RAILWAY LINES, SOLAPUR",SOLAPUR,SOLAPUR,MAHARASHTRA,0
610,FEDERAL BANK,FDRL0001594,CHITRADURGA,"OPP. VASAVI MAHAL, BASAVESHWARA TALKIES ROAD CHITRADURGA , CHITRADURGA DIST, KARNATAKA",CHITRADURGA,CHITRADURGA,KARNATAKA,0
611,FEDERAL BANK,FDRL0001595,VARANASI,"D-63/12, GROUND FLOOOR, VIRAT AISHWARYA COMPLEX, MAHMOOR GANJ, VARANASI , UP",VARANASI,VARANASI,UTTAR PRADESH,0
612,FEDERAL BANK,FDRL0001596,PASCHIM VIHAR / NEW DELHI,"B- 465,GROUND FLOOR,MEERA BAGH, PASCHIM VIHAR",NEW DELHI,NEW DELHI,DELHI,0
613,FEDERAL BANK,FDRL0001597,PULLAD,"VADAKKETHIL BUILDINGS, PB NO.6, PULLAD PO PATHANAMTHITTA DIST, KERALA",PATHANAMTHITTA,PULLAD,KERALA,0
614,FEDERAL BANK,FDRL0001598,MELATTUR,"PALAKKAD ROAD, MELATTUR MALAPPURAM DIST",MALAPPURAM,MELATTUR,KERALA,0
615,FEDERAL BANK,FDRL0001599,PUZHAKKAL,"SREE DHARMA SASTHA SHOPPING COMPLEX, MAIN ROAD, PUZHAKKAL,  THRISSUR DIST",THRISSUR,PUZHAKKAL,KERALA,0
616,FEDERAL BANK,FDRL0001600,EDAVANNAPPARA,"CITY GATE, OPP. PRIVATE BUS STAND EDAVANNAPPARA, CHERUVAYOOR PO , MALAPPURAM",MALAPPURAM,EDAVANNAPPARA,KERALA,0
617,FEDERAL BANK,FDRL0001601,CHELAKKARA,"KULAPPURATH MALL, OPP.LFGHS, THRISSUR DIST",THRISSUR,CHELAKKARA,KERALA,0
618,FEDERAL BANK,FDRL0001602,ECIL CROSS ROADS,"225, 226, 231 & 232 . ECIL ROAD KAPRA, HYDERABAD, RANGAREDDY DIST. AP",RANGAREDDY,ECIL CROSS ROADS,ANDHRA PRADESH,0
619,FEDERAL BANK,FDRL0001603,TUMKUR,"NEAR DWARAKA HOTEL, MG ROAD, TUMKUR, TUMKUR DIST, KARNATAKA",TUMKUR,TUMKUR,KARNATAKA,0
620,FEDERAL BANK,FDRL0001604,GULBARGA,"PLOT NO.7, FIRST FLOOR, SUPER MARKET MAIN ROAD, GULBARGA , GULBARGA DIST, KA",GULBARGA,GULBARGA,KARNATAKA,0
621,FEDERAL BANK,FDRL0001605,RAMACHANDRAPURAM,"25/35/1/G, PLOT NO.14 & 15 , MEDAK DIST,",MEDAK,RAMACHANDRAPURAM,ANDHRA PRADESH,0
622,FEDERAL BANK,FDRL0001606,ASANSOL,"PARBATI SHOPPING ARCADE, BLOCK C , ASHRAM MORE, GT ROAD (EAST) ASASOL, BARDDAMAN , WB",BARDDHAMAN,ASANSOL,WEST BENGAL,0
623,FEDERAL BANK,FDRL0001607,GARIA,"591, SREENAGAR, GARIA, KOLKATA 24 PARGANAS (S) DIST. WEST BENGAL",SOUTH 24 PARGANAS,GARIA,WEST BENGAL,0
624,FEDERAL BANK,FDRL0001608,ERNAKULAM BYE PASS,"SG BUILDING, NH BYE PASS, NEAR EMC ERNAKULAM, KOCHI, ERNAKULAM DIST, KERALA",ERNAKULAM,ERNAKULAM,KERALA,0
625,FEDERAL BANK,FDRL0001609,RAJAPALAYAM,"23-25, SRI HARI KRISHNA COMPLEX, MUDANGIYAR ROAD, RAJAPALAYAM, VIRUDHNAGAR , TAMIL NADU",VIRUDHUNAGAR,RAJAPALAYAM,TAMIL NADU,0
626,FEDERAL BANK,FDRL0001610,SRIPERUMBUDUR,"2, KAMBER STREET, SRIPERUMBUDUR KANCHEEPURAM DIST , TAMIL NADU",KANCHEEPURAM,SRIPERUMBUDUR,TAMIL NADU,0
627,FEDERAL BANK,FDRL0001611,THIRUPORUR,"2/5, IYYEMPET STREET, OLD MAHABALIPURAM  ROAD THIRUPORUR, KANCHEEPURAM DIST",KANCHEEPURAM,THIRUPORUR,TAMIL NADU,0
628,FEDERAL BANK,FDRL0001612,PERUNGUDI,"58, OLD MAHABALIPURAM ROAD SEEVARAM, PERUNGUDI",KANCHEEPURAM,PERUNGUDI,TAMIL NADU,0
629,FEDERAL BANK,FDRL0001613,DEWAS,"SEASON 1 BUILDING, A-5 KALANI BAUGH. AB ROAD DEWAS, DEWAS DIST., MADHYA PRADESH",DEWAS,DEWAS,MADHYA PRADESH,0
630,FEDERAL BANK,FDRL0001614,GHAZIABAD,"B-7, RDC, RAJ NAGAR, GHAZIABAD GHAZIABAD DIST., UTTAR PRADESH",GHAZIABAD,GHAZIABAD,UTTAR PRADESH,0
631,FEDERAL BANK,FDRL0001615,JALANDHAR,"1A/545, NEW JAWAHAR NAGAR MARKET",JALANDHAR,JALANDHAR,PUNJAB,0
632,FEDERAL BANK,FDRL0001616,ULHASNAGAR,"SHOP NO. 15A, 15B &16, GEETHA COMPLEX, ULHASNAGAR- THANE DIST., MAHARASHTRA.",THANE,ULHASNAGAR,MAHARASHTRA,0
633,FEDERAL BANK,FDRL0001617,KAZHAKUTTAM,"PADMANABHAM, KAZHAKUTTAM, THIRUVANATHAPURAM, KERALA",THIRUVANANTHAPURAM,KAZHAKUTTAM,KERALA,0
634,FEDERAL BANK,FDRL0001618,MAPUSA,"BOSHAM HOMES BUILDING, BODGESWAR TEMPLE, MAPUSA, BARDEZ, GOA, UTTAR GOA DIST.",MAPUSA,MAPUSA,GOA,0
635,FEDERAL BANK,FDRL0001619,MUMBAI SAKINAKA,"SAGAR PALLAZIO, SHOP NO.8 & 19, ANDHERI KURLA ROAD, SAKINAKA JUNCTION, MUMBAI .",MUMBAI SUBURBAN,MUMBAI,MAHARASHTRA,0
636,FEDERAL BANK,FDRL0001620,KANKAVLI,"324, NEAR KANKAVLI POST OFFICE, ACHARYA ROAD, KANKAVLI, MAHARASHTRA",SINDHUDURG,KANKAVLI,MAHARASHTRA,0
637,FEDERAL BANK,FDRL0001621,"SHOLINGANALLUR,","215, OLD MAHABALIPURAM ROAD, SHOLINGANALLUR, KANCHEEPURAM DIST , TAMILNADU",KANCHEEPURAM,SHOLINGANALLUR,TAMIL NADU,0
638,FEDERAL BANK,FDRL0001622,MUMBAI / KANDIVILI,"93, 94 & 95 VENUS CHS LTD,EVERSHINE MILLENNIUM PARADISE, KANDIVILI EAST",MUMBAI SUBURBAN,MUMBAI,MAHARASHTRA,0
639,FEDERAL BANK,FDRL0001623,KOLKATA / RABINDRA SARANI,"GROUND FLOOR,GATE NO: 2,PODDAR COURT, 18,RABINDRA SARANI,KOLKATA-700001",KOLKATA,KOLKATA,WEST BENGAL,0
640,FEDERAL BANK,FDRL0001624,DHANBAD,"IST FLOOR, GOODWILL PROPERTIES, BANK MORE",DHANBAD,DHANBAD,JHARKHAND,0
641,FEDERAL BANK,FDRL0001625,MORADABAD,"A-22, GROUND FLOOR, GANDHINAGAR, RAMPUR ROAD MORADABAD, UTTAR PRADESH",MORADABAD,MORADABAD,UTTAR PRADESH,0
642,FEDERAL BANK,FDRL0001626,KAKINADA,"GROUND FLOOR, AYYAPPA TOWERS-PHASE II D NO.5-1-76, MAIN ROAD, EAST GODAVARI DIST,",KAKINADA,KAKINADA,ANDHRA PRADESH,0
643,FEDERAL BANK,FDRL0001627,THURAVOOR,"GROUND FLOOR, DEVAKI TOWER, N H 47,THURAVOOR 688532, ALLEPPEY DT.",ALAPUZHA,THURAVOOR,KERALA,0
644,FEDERAL BANK,FDRL0001628,KARWAR,"451/G-1, SUPRABHA, GREEN STREET, UTTAR KANNAD DIST,",UTTAR KANNADA,KARWAR,KARNATAKA,0
645,FEDERAL BANK,FDRL0001629,BANGALORE VIGNANA NAGAR,"NO.2 & 5, SANDS PLAZA, VIGNANA NAGAR, MAIN ROAD, BANGALORE URBAN DIST.",BANGALORE,BANGALORE,KARNATAKA,0
646,FEDERAL BANK,FDRL0001630,KARUVARAKUNDU,"NEDUMPALLIL BUILDING, KIZHAKKETHALA, THARISH P O, MALAPPURAM DIST",MALAPPURAM,KARUVARAKUNDU,KERALA,0
647,FEDERAL BANK,FDRL0001631,DOD BALLAPUR,"D CROSS ROAD, DODBALLAPURA TOWN DOD BALLAPUR - 561023, BANGALORE RURAL DIST.",DOD BALLAPUR,DOD BALLAPUR,KARNATAKA,0
648,FEDERAL BANK,FDRL0001632,MANKADA,"P T COMPLEX, MANKADA - 679324 MALAPPURAM DIST",MALAPPURAM,MANKADA,KERALA,0
649,FEDERAL BANK,FDRL0001633,VELLANGALLUR,"GLAMOUR COMPLEX, MAIN ROAD, VADAKKUMKARA VILLAGE, VELLANGALLUR P O THRISSUR DIST.",THRISSUR,VELLANGALLUR,KERALA,0
650,FEDERAL BANK,FDRL0001634,MATTANNUR,"MATTANNUR PLAZA, KANNUR ROAD MATTANNUR, KANNUR DIST.",KANNUR,MATTANNUR,KERALA,0
651,FEDERAL BANK,FDRL0001635,MANGALAM DAM,"KR COMPLEX, MAIN ROAD, MANGALAM DAM PALAKKAD DIST",PALAKKAD,MANGALAM DAM,KERALA,0
652,FEDERAL BANK,FDRL0001636,BARSHI,"OPP.BARSHI TEXTILE MILL, AGALGAON ROAD DIST.SOLAPUR, MAHARASHTRA",SOLAPUR,BARSHI,MAHARASHTRA,0
653,FEDERAL BANK,FDRL0001637,MUNDUR,"SAM'S TOWER, THRISSUR E.MAIL:MDR@FEDERALBANK.CO.IN",THRISSUR,MUNDUR,KERALA,0
654,FEDERAL BANK,FDRL0001638,DHARWAD,"VISWA LAXMI ARCADE COURT CIRCLE, KARNATAKA STATE",DHARWAD,DHARWAD,KARNATAKA,0
655,FEDERAL BANK,FDRL0001639,KECHERI,"THEKEKKARA BUILDING, OPP RAJIV GANDHI BUS STAND,ERANELLUR P O, KECHERI THRISSUR 680501",THRISSUR,KECHERI,KERALA,0
656,FEDERAL BANK,FDRL0001640,ERANIEL,"ROUNDANA JUNCTION NAGARCOIL ROAD, MONDAY MARKET",KANYAKUMARI,ERANIEL,TAMIL NADU,0
657,FEDERAL BANK,FDRL0001641,KULASEKHARAM,"DOOR NO.6-26/2, ""NELLIMOOTTIL PLAZA"", ARASAMOODU JUNCTION,KK DISTRICT",KANYAKUMARI,KULASEKHARAM,TAMIL NADU,0
658,FEDERAL BANK,FDRL0001642,KANCHEEPURAM,"NO.42AB, KAMARAJAR STREET, KANCHEEPURAM DIST.",KANCHEEPURAM,KANCHEEPURAM,TAMIL NADU,0
659,FEDERAL BANK,FDRL0001643,BANGALORE / VIJAYA NAGAR,"#21,17TH CROSS, CHORD ROAD, NEAR MARUTHI MANDIR, VIJAYA NAGAR, BANGALORE URBAN DIST.",BANGALORE,BANGALORE,KARNATAKA,0
660,FEDERAL BANK,FDRL0001644,NELLYADI,"ELITE PLAZA, NH48, NEAR ST.GEORGE P U COLLEGE DAKSHIN KANNAD DIST",DAKSHINA KANNADA,NELLYADI,KARNATAKA,0
661,FEDERAL BANK,FDRL0001645,PERUMPILAVU,"MAIN ROAD, KARIAKAD THRISSUR DIST",THRISSUR,PERUMPILAVU,KERALA,0
662,FEDERAL BANK,FDRL0001646,CHITTUR,GOVT.HOSPITAL JUNCTION PALAKKAD DIST,PALAKKAD,CHITTUR,KERALA,0
663,FEDERAL BANK,FDRL0001647,THENHIPALAM,"4H AVENUE IX/20 E, CHELARI MALAPPURAM DIST",MALAPPURAM,THENHIPALAM,KERALA,0
664,FEDERAL BANK,FDRL0001648,CHANNAPATNA,"ANUGRAHA TOWERS, NO.2108/3A-4/1, 8TH CROSS KUVEMPU NAGARA, B M ROAD,",BANGALORE,BANGALORE,KARNATAKA,0
665,FEDERAL BANK,FDRL0001649,KARNAL,"SCO-101, COMMERCIAL CENTRE, SECTOR 7 KARNAL DIST.",KARNAL,KARNAL,HARYANA,0
666,FEDERAL BANK,FDRL0001650,KORATTY,"DHANYA CPMPLEX, OPP. M A M HIGH SCHOOL THRISSUR DIST",THRISSUR,KORATTY,KERALA,0
667,FEDERAL BANK,FDRL0001651,GANDHINAGAR(KOLHAPUR),"GANESH TALKIES, GADMUDSINGI P O, GANDHINAGAR",KOLHAPUR,GANDHINAGAR(KOLHAPUR),MAHARASHTRA,0
668,FEDERAL BANK,FDRL0001652,MAHE,"AZADHI BUILDING,STATUE JUNCTION, MAHE",MAHE,MAHE,PUDUCHERRY,0
669,FEDERAL BANK,FDRL0001653,KUTHUPARAMBA,"E J TOWER, KANNUR ROAD KANNUR DIST",KANNUR,KUTHUPARAMBA,KERALA,0
670,FEDERAL BANK,FDRL0001654,ROHTAK,"OPP.ALL INDIA RADIO, 5,SUBASH ROAD ROHTAK PO",ROHTAK,ROHTAK,HARYANA,0
671,FEDERAL BANK,FDRL0001655,SAWANTWADI,"9A, B VAISHYA BHAVAN GAVALI TITTHA, SHIVAJI CHOWK, SINDHUDURG DIST",SINDHUDURG,SAWANTWADI,MAHARASHTRA,0
672,FEDERAL BANK,FDRL0001656,GADHINGLAJ,"VIMAL PLAZA, AJARA SANKESHWAR MAIN ROAD, KOLHAPUR DIST",KOLHAPUR,GADHINGLAJ,MAHARASHTRA,0
673,FEDERAL BANK,FDRL0001657,CHENGALPATTU,"113 A, G.S.T.ROAD, OPP.SARADHA LODGE KANCHEEPURAM DIST",KANCHEEPURAM,CHENGALPATTU,TAMIL NADU,0
674,FEDERAL BANK,FDRL0001658,PERINGOTTUKARA,"KAKKERY BUILDING, NO.246/X, 3 WAY JUNCTION CHERPU - TRIPRAYAR ROAD  TRISSUR  DIST.",THRISSUR,PERINGOTTUKARA,KERALA,0
675,FEDERAL BANK,FDRL0001659,TAVEREKERE,"NO 104/1,GROUND FLOOR 1ST MAIN , TAVEREKERE, BANGALORE",BANGALORE,TAVEREKERE,KARNATAKA,0
676,FEDERAL BANK,FDRL0001660,KARINKALLATHANI,"GROUND FLOOR, A K BLDG, THAZHEKODE P O PERINTALMANNA VIA, MALAPPURAM DT,",MALAPPURAM,KARINKALLATHANI,KERALA,0
677,FEDERAL BANK,FDRL0001661,PATIALA,"36-37, NEW LEELA BHAWAN PATIALA DISTRICT",PATIALA,PATIALA,PUNJAB,0
678,FEDERAL BANK,FDRL0001662,BOKARO STEEL CITY,"B 12, CITY CENTRE, SECTOR IV, BOKARO DIST",BOKARO,BOKARO STEEL CITY,JHARKHAND,0
679,FEDERAL BANK,FDRL0001663,PUNE AUNDH,"GROUND FLOOR , SUPREME SQUARE, NEAR SHIV SAGAR HOTEL, DP ROAD, PARIHARCHOWK, AUNDH",PUNE,PUNE,MAHARASHTRA,0
680,FEDERAL BANK,FDRL0001664,VAPI,"G01 AND G02, GROUND FLOOR, STATUS , PLOT NO CM 8/8, NH8,GUNJAN , GIDC, VAPI 396195",VALSAD,VAPI,GUJARAT,0
681,FEDERAL BANK,FDRL0001665,ANAND,"SHOP NO.G3 & G4, MARUTI SUMIRAN, OPP.NAND BHOOMI, VIDYANAGAR ROAD, ANAND DIST.",ANAND,ANAND,GUJARAT,0
682,FEDERAL BANK,FDRL0001666,BILASPUR,"GURUKRIPA BUILDING, VYAPAR VIHAR MAIN ROAD, BILASPUR DIST",BILASPUR,BILASPUR,CHANDIGARH,0
683,FEDERAL BANK,FDRL0001667,MALKAJGIRI,"H NO.1/29/1/2/1A, 6, SANJAY NAGAR COLONY HYDERABAD, RANGAREDDY DIST",RANGAREDDY,MALKAJGIRI,ANDHRA PRADESH,0
684,FEDERAL BANK,FDRL0001668,NELLORE,"16-2-230, ISKA ANILKUMAR REDDY KAIZAN HEIGHTS GANDHI NAGAR(NEAR SUNDAY MARKET ,POGATHOTTA,",NELLORE,NELLORE,ANDHRA PRADESH,0
685,FEDERAL BANK,FDRL0001669,RAMANAGARAM,"OPP. ROTARY HOSPITALS, BANGALORE -MYSORE ROAD BANGALORE RURAL DIST",BANGALORE,RAMANAGARAM,KARNATAKA,0
686,FEDERAL BANK,FDRL0001670,BIDADI,"SITE NO.342/370, NELLIGUDDA ROAD, BANGALORE RURAL DIST",BANGALORE,BIDADI,KARNATAKA,0
687,FEDERAL BANK,FDRL0001671,GUNTUR,"6-14-36, 14TH LANE, ARUNDELPET, GUNTUR DIST",GUNTUR,GUNTUR,ANDHRA PRADESH,0
688,FEDERAL BANK,FDRL0001672,L B NAGAR,"PLOT NO.142/A, SBH COLONY , VENTURE 2, NEAR L B NAGAR RING ROAD, RANGAREDDY DIST.",RANGAREDDY,L B NAGAR,ANDHRA PRADESH,0
689,FEDERAL BANK,FDRL0001673,CHITTOOR (ANDHRA PRADESH),"BALAJI COMPLEX, OPP. RAGHAVA THEATRE JAILKHANA ROAD, CHITTOOR DIST.",CHITTOOR,CHITTOOR (ANDHRA PRADESH),ANDHRA PRADESH,0
690,FEDERAL BANK,FDRL0001674,GUWAHATI / G S ROAD,"DEKA PREMISES, CHRISTIAN BASTI G S ROAD, KAMARUP DIST.",KAMARUP,GUWAHATI,ASSAM,0
691,FEDERAL BANK,FDRL0001675,MANSA,"GAUSHALA MARKET, GAUSHALA ROAD MANSA DIST.",MANSA,MANSA,PUNJAB,0
692,FEDERAL BANK,FDRL0001676,MOHALI,"SCO 672, SECTOR 70 RUPNAGAR DIST",RUPNAGAR,MOHALI,PUNJAB,0
693,FEDERAL BANK,FDRL0001677,NEW DELHI/ SHIVALIK,"A-12, NEAR SRI AUROBINDO COLLEGE SHIVALIK",NEW DELHI,NEW DELHI,DELHI,0
694,FEDERAL BANK,FDRL0001678,NEW DELHI / PUNJABI BAGH,"46, NORTH AVENUE, PUNJABI BAGH DELHI",NEW DELHI,NEW DELHI,DELHI,0
695,FEDERAL BANK,FDRL0001679,LUCKNOW / GOMTI NAGAR,"2/8, VIVEK KHAND, GOMTI NAGAR, LUCKNOW DIST.",LUCKNOW,LUCKNOW,UTTAR PRADESH,0
696,FEDERAL BANK,FDRL0001680,NEW DELHI SHALIMAR BAGH,"BN-57 E, GROUND FLOOR, EAST SHALIMAR BAGH DELHI",NEW DELHI,NEW DELHI,DELHI,0
697,FEDERAL BANK,FDRL0001681,MANPADA,"SHOP NO.1A, COSMOS MART, OPP. HAPPY VALLEY TIKUJINI WADI ROAD, THANE (W),",THANE,MANPADA,MAHARASHTRA,0
698,FEDERAL BANK,FDRL0001682,MUMBAI / KALINA,"AISWARYA TOWERS, C S T ROAD, SANTACRUZ EAST, MAHARASTRA",MUMBAI SUBURBAN,MUMBAI,MAHARASHTRA,0
699,FEDERAL BANK,FDRL0001683,TIRUPATI,"D NO., 6-7-587, A.K.NILAYAM, SRIPURAM COLONY ISKON ROAD, CHITTOR DIST,",TIRUPATI,TIRUPATI,ANDHRA PRADESH,0
700,FEDERAL BANK,FDRL0001684,MARTHANDAM,"CHAIRMAN P P MUNUSAMY MEMORIAL SHOPPING COMPLEX, VETTUVENNI JN., KANYAKUMARI DIST",KANYAKUMARI,MARTHANDAM,TAMIL NADU,0
701,FEDERAL BANK,FDRL0001685,GANGAWATI,"BUILDING NO 2-12-81,82,83,MALLESWARA COMPLEX, KOPPAL ROAD",GANGAWATI,GANGAWATI,KARNATAKA,0
702,FEDERAL BANK,FDRL0001686,ERNAKULAM / KATHRUKADAVU,"PARIYATH BUILDING, KUMARANASAN JUNCTION KALOOR- KADAVANTHRA ROAD",ERNAKULAM,ERNAKULAM,KERALA,0
703,FEDERAL BANK,FDRL0001687,GAJUWAKA,"D NO.10-8-27, BESIDE MANGALGIRI COMPLEX, VISHAKHAPATNAM",VISHAKHAPATNAM,GAJUWAKA,ANDHRA PRADESH,0
704,FEDERAL BANK,FDRL0001688,SERI LINGAMPALLY,"VIJAYA HEALTH CENTRE, MADEENAGUDA, SERI LINGAMPALLY CIRCLE II , HYDERABAD",RANGAREDDY,SERI LINGAMPALLY,ANDHRA PRADESH,0
705,FEDERAL BANK,FDRL0001689,MYSORE / JAYALAXMIPURAM,"NO. D 3, LEO MADHURYA, ADI PAMPA ROAD NEAR MATHRUMANDALI CIRCLE, VANIVILAS MOHALLA",MYSORE,MYSORE,KARNATAKA,0
706,FEDERAL BANK,FDRL0001690,KOLATHUR,"1ST FLOOR, K P BUILDING, OPP.KSEB OFFICE MALAPPURAM DIST",MALAPPURAM,KOLATHUR,KERALA,0
707,FEDERAL BANK,FDRL0001691,KUMBALANGI,"7/IID, E , BERCHMANS ARCADE ERNAKULAM DIST",ERNAKULAM,KUMBALANGI,KERALA,0
708,FEDERAL BANK,FDRL0001692,CHUNANGAMVELI,"IV / 27G,  GROUND FLOOR, ERUMATHALA PO,  ERNAKULAM DIST",ERNAKULAM,CHUNANGAMVELI,KERALA,0
709,FEDERAL BANK,FDRL0001693,VAKATHANAM,"BLDG NO.VII/59B, 59C, ERAVUCHIRA BUILDING THENGANA-MANARCAD ROAD, NJALIAKUZHY",KOTTAYAM,VAKATHANAM,KERALA,0
710,FEDERAL BANK,FDRL0001694,THODUPUZHA WEST,"KALLEL SHOPPING COMPLEX , OPP. PRIVATE BUS STAND, THODUPUZHA WEST",IDUKKI,THODUPUZHA,KERALA,0
711,FEDERAL BANK,FDRL0001695,MANAKALA,"EP 1/176, 176 C,  MANAKALA, ADOOR  PATHANAMTHITTA DISTRICT",PATHANAMTHITTA,MANAKALA,KERALA,0
712,FEDERAL BANK,FDRL0001696,MATHILAKAM,"J J PLAZA, NEAR POLICE QUARTERS MATHILAKAM PO",THRISSUR,THRISSUR,KERALA,0
713,FEDERAL BANK,FDRL0001697,KOOTTANAD,"BLDG NO.1/1326, SHIFA TOWER GURUVAYOOR ROAD",PALAKKAD,KOOTTANAD,KERALA,0
714,FEDERAL BANK,FDRL0001698,PAVARATTY,"MARY MATHA COMPLEX, MAIN ROAD,THRISSUR DIST, PVT@FEDERALBANK.CO.IN, FDRL0001698",THRISSUR,PAVARATTY,KERALA,0
715,FEDERAL BANK,FDRL0001699,CHERUTHURUTHY,"GROUND FLOOR, KONIKKAL COMPLEX CHUNGAM JUNCTION, CHERUTHURUTHY",THRISSUR,CHERUTHURUTHY,KERALA,0
716,FEDERAL BANK,FDRL0001700,KODALY,"CHILAMBUTHSSERY C C TOWERS P O PADY, THRISSUR DIST",THRISSUR,KODALY,KERALA,0
717,FEDERAL BANK,FDRL0001701,POOKKOTTUMPADAM,"THE FEDERAL BANK LTD, SUNCITY BUILDING POOKKOTTUMPADAM, MALAPPURAM DT",MALAPPURAM,POOKKOTTUMPADAM,KERALA,0
718,FEDERAL BANK,FDRL0001702,SREEKRISHNAPURAM,"GROUND FLOOR, BLDG. NO.946&947, WARD NO.10, SOCIETYPADY, PALAKKAD DIST.",PALAKKAD,SREEKRISHNAPURAM,KERALA,0
719,FEDERAL BANK,FDRL0001703,ANNAMANADA,"KRISHNA MENON SQUARE, OPP PRIVATE BUS STAND THRISSUR DIST",THRISSUR,ANNAMANADA,KERALA,0
720,FEDERAL BANK,FDRL0001704,AMBALLUR,"BUILDING NO.508, PUDUKKAD PO MERRY LAND COMPLEX. THRISSUR DIST",THRISSUR,AMBALLUR,KERALA,0
721,FEDERAL BANK,FDRL0001705,THRITHALA,"V K ROAD,THRITHALA PALAKKAD DIST",PALAKKAD,THRITHALA,KERALA,0
722,FEDERAL BANK,FDRL0001706,MARANCHERRY,"THANNIR PANDAL BUILDING MARANCHERY  P O, MALAPPURAM DIST",MALAPPURAM,MARANCHERRY,KERALA,0
723,FEDERAL BANK,FDRL0001707,KODAKARA,"BUILDING NO.137, NEAR SHANTI HOSPITAL, THRISSUR DIST",THRISSUR,KODAKARA,KERALA,0
724,FEDERAL BANK,FDRL0001708,POTTA,"LITTLE FLOWER  COMPLEX CHALAKKUDI, THRISSUR DIST",ERNAKULAM,POTTA,KERALA,0
725,FEDERAL BANK,FDRL0001709,PERAVOOR,"V/523 A TO K, KK PLAZA NEDUMPOIL ROAD, KANNUR DIST",KANNUR,PERAVOOR,KERALA,0
726,FEDERAL BANK,FDRL0001710,ATHOLI,"STAR MANSION, ATHOLI ATHANI KOZHIKODE DIST",KOZHIKODE,ATHOLI,KERALA,0
727,FEDERAL BANK,FDRL0001711,ALAKODE,"NJAVALLIL SHOPPING COMPLEX ALAKODE POST, KANNUR DIST",ALAPUZHA,ALAKODE,KERALA,0
728,FEDERAL BANK,FDRL0001712,CHENNITHALA,MOONNAMVILAYIL BUILDING ALAPUZHA DIST.,CHENNITHALA,CHENNITHALA,KERALA,0
729,FEDERAL BANK,FDRL0001713,THENGANA,"BUILDING NO.1/265F, CHANGANACHERRY-VAZHOOR RO PERUMPANACHY P O, CHANGANACHERRY",KOTTAYAM,THENGANA,KERALA,0
730,FEDERAL BANK,FDRL0001714,HORMIS NAGAR ( MOOKKANNOOR ),"XI/250, HORMIS NAGAR MOOKKANNOOR P O",ERNAKULAM,HORMIS NAGAR (MOOKKANNOOR),KERALA,0
731,FEDERAL BANK,FDRL0001715,KALATHIPADY,"KODATH ARCADE, BUILDING NO.XI/114A VADAVATHOOR P O KOTTAYAM",KOTTAYAM,KALATHIPADY,KERALA,0
732,FEDERAL BANK,FDRL0001716,KARIMANNOOR,"THOTTUPATTU BUILDINGS, II/566  KARIMANNOOR P.O, IDUKKI DIST.",IDUKKI,KARIMANNOOR,KERALA,0
733,FEDERAL BANK,FDRL0001717,KARIMKUNNAM,"THODUPUZHA - PALA ROAD, KARIMKUNNAM P.O.,IDUKKI DIST.",IDUKKI,KARIMKUNNAM,KERALA,0
734,FEDERAL BANK,FDRL0001718,NEENDOOR,"KALLADANTHYIL BUILDING NEENDOOR PO , KOTTAYAM DIST",KOTTAYAM,NEENDOOR,KERALA,0
735,FEDERAL BANK,FDRL0001719,IRINJALAKUDA / NADA,"MENON ANNEX, PATTAMALI ROAD THRISSUR DIST. IFS CODE FDRL0001719",THRISSUR,IRINJALAKUDA,KERALA,0
736,FEDERAL BANK,FDRL0001720,KURATHIKAD,"KAVILAYIL BUILDING THEKKEKKARA P O, ALAPPUZHA DIST",ALAPUZHA,KURATHIKAD,KERALA,0
737,FEDERAL BANK,FDRL0001721,KALLISSERRY,"VIII/521/14, M C ROAD ALAPPUZHA DSIT",ALAPUZHA,KALLISSERRY,KERALA,0
738,FEDERAL BANK,FDRL0001722,KARUKACHAL,"NADUVILEDATHU ARCADE, MERCY HOSPITAL ROAD  KOTTAYAM DIST",KOTTAYAM,KARUKACHAL,KERALA,0
739,FEDERAL BANK,FDRL0001723,PUNNAMOOD,"PUTHENPARAMBIL BUILDING, XIII/3845, LAHA JUNCTION, MAVELIKKARA , ALLEPPEY DIST",ALAPUZHA,PUNNAMOOD,KERALA,0
740,FEDERAL BANK,FDRL0001724,PUKKATTUPADY,"KEERAMKUZHY BUILDING EDATHALA P O, ERNAKULAM DIST",ERNAKULAM,PUKKATTUPADY,KERALA,0
741,FEDERAL BANK,FDRL0001725,UDAYAMPEROOR,"GROUND FLOOR, PUTHENPURACKEL ARCADE, ERNAKULAM DIST",ERNAKULAM,UDAYAMPEROOR,KERALA,0
742,FEDERAL BANK,FDRL0001726,CHERAI,"PUNNAKAYIL HOUSE, DEVASWOM NADA, CHERAI, ERNAKULAM DIST",ERNAKULAM,CHERAI,KERALA,0
743,FEDERAL BANK,FDRL0001727,KAMBISSERY,"V/561, FIRST FLOOR, RAJADHANI COMPLEX KAMBISSERY JN, VALLIKUNNAM, ALLEPPEY DIST",ALAPUZHA,KAMBISSERY,KERALA,0
744,FEDERAL BANK,FDRL0001728,NEDUMONKAVU,"GEETHANJALI, VANCHIMUKKU KOLLAM DIST",KOLLAM,NEDUMONKAVU,KERALA,0
745,FEDERAL BANK,FDRL0001729,OTHERA,ALTHARA JUNCTION PATHANAMTHITTA DIST,PATHANAMTHITTA,OTHERA,KERALA,0
746,FEDERAL BANK,FDRL0001730,VITHURA,"GF, MUTHOOTTU ROYAL SQUARE, KALUNGU JN, THIRUVANATHAPURAM DIST",THIRUVANANTHAPURAM,VITHURA,KERALA,0
747,FEDERAL BANK,FDRL0001731,AYUR,"OPPO. IOC PETROL PUMP, AMBADI BUILDING, AYUR PO, KOLLAM DIST.",KOLLAM,AYUR,KERALA,0
748,FEDERAL BANK,FDRL0001732,OACHIRA,"BLDG NO.OP II/478, 479, 480, ADJ TO HOTEL ROYALE REGENCY, KOLLAM DIST",KOLLAM,OACHIRA,KERALA,0
749,FEDERAL BANK,FDRL0001733,BALARAMAPURAM,"BP 617, KATTAKADA ROAD, THIRUVANATHAPURAM DIST",THIRUVANANTHAPURAM,BALARAMAPURAM,KERALA,0
750,FEDERAL BANK,FDRL0001734,KALLAMBALAM,"NEAR JAGEE AUDITORIUM, N H MAIN ROAD THIRUVANATHAPURAM DIST",THIRUVANANTHAPURAM,KALLAMBALAM,KERALA,0
751,FEDERAL BANK,FDRL0001735,KALLARA,"1 ST FLOOR, P M PLAZA, OPP.KALLARA VHSS THIRUVANATHAPURAM DIST",THIRUVANANTHAPURAM,KALLARA,KERALA,0
752,FEDERAL BANK,FDRL0001736,KANIYAPURAM,"AP - 11/452, SHIFA, ALUMMOODU JN THIRUVANATHAPURAM DIST",THIRUVANANTHAPURAM,KANIYAPURAM,KERALA,0
753,FEDERAL BANK,FDRL0001737,THALAVOOR,"SIBU BLDG , RANDALUMMOOD KOLLAM DIST",KOLLAM,THALAVOOR,KERALA,0
754,FEDERAL BANK,FDRL0001738,ANGAMALY SOUTH,"1 ST FLOOR , EMJAY BUILDING RAILWAY STATION JUNCTION, ERNAKULAM DIST",ERNAKULAM,ANGAMALY,KERALA,0
755,FEDERAL BANK,FDRL0001739,KUZHIMATHICADU,"KP-XVII 297 B, C , D KOTTARAKKARA",KOLLAM,KUZHIMATHICADU,KERALA,0
756,FEDERAL BANK,FDRL0001740,PUTHOOR,"BUILDING NO.552, WARD 1, NEDUVATHOOR VILLAGE KOTTARAKKARA",KOLLAM,PUTHOOR,KERALA,0
757,FEDERAL BANK,FDRL0001741,SATTUR,"BLDG NO. 40, GROUND FLOOR, NEW COLONY OPP. FIRE SERVICE STATION, SATTUR  PO",VIRUDHUNAGAR,SATTUR,TAMIL NADU,0
758,FEDERAL BANK,FDRL0001742,PERIAKULAM,"DOOR NO.60/18, GROUND FLOOR, BAZAAR STREET RASTHA , THENKARAI",THENI,PERIAKULAM,TAMIL NADU,0
759,FEDERAL BANK,FDRL0001743,PERUMBAVOOR/ MC ROAD,"BUILDING NO.VI/372 A, 3&4, M C ROAD PERUMBAVOOR P O, ERNAKULAM DIST",ERNAKULAM,PERUMBAVOOR,KERALA,0
760,FEDERAL BANK,FDRL0001744,ENGAPUZHA,"9/240 A & B, GROUND FLOOR PUDUPADY",KOZHIKODE,ENGAPUZHA,KERALA,0
761,FEDERAL BANK,FDRL0001745,VATTAPPARA,ROSE BUILDING MARUTHOOR,THIRUVANANTHAPURAM,VATTAPPARA,KERALA,0
762,FEDERAL BANK,FDRL0001746,RAJAKKAD,"PATHIPPALLIL BUILDING, MAIN ROAD RAJAKKAD, IDUKKI DIST",IDUKKI,RAJAKKAD,KERALA,0
763,FEDERAL BANK,FDRL0001747,SENGOTTAI,"NO.16/30, MELARATHA VEETHI SENGOTTAI POST, TIRUNELVELI DISTRICT",TIRUNELVELI,SENGOTTAI,TAMIL NADU,0
764,FEDERAL BANK,FDRL0001748,SURANDAI,"NO.14 -1 -252, AZHAGAPURIPATTANAM, NEAR ALAGU PARVATHI AMMAN TEMPLE TIRUNELVELI ROAD",TIRUNELVALI,SURANDAI,TAMIL NADU,0
765,FEDERAL BANK,FDRL0001749,KARUMALLOOR,"KARUMALLOOR,NSS KARAYOGAM SHOPPING COMPLEX THATTAMPADY,  KARUMALLOOR PO,  PARUR TALUK",ERNAKULAM,KARUMALLOOR,KERALA,0
766,FEDERAL BANK,FDRL0001750,KHARGHAR,"SHOP NOS.4, 5 & 6, GROUND FLOOR, ANANT PLOT NO.31, SECTOR 4, NAVI MUMBAI",RAIGAD,KHARGHAR,MAHARASHTRA,0
767,FEDERAL BANK,FDRL0001751,CHERTHALA SOUTH,"132/8, NSS KARAYOGAM BLDG, AREEPARAMPU CHERTHALA SOUTH PO , ALLEPPEY DIST",ALAPUZHA,CHERTHALA,KERALA,0
768,FEDERAL BANK,FDRL0001752,KOLAZHY,MAIN ROAD THRISSUR DIST,THRISSUR,KOLAZHY,KERALA,0
769,FEDERAL BANK,FDRL0001753,S H COLLEGE THEVARA EXTN COUNT,"SACRED HEART COLLEGE , THEVARA KOCHI",ERNAKULAM,ERNAKULAM,KERALA,0
770,FEDERAL BANK,FDRL0001754,INFOPARK KORATTY EXTN COUNTER,"INFOPARK, NALUKETTU ROAD THRISSUR DIST",THRISSUR,KORATTY,KERALA,0
771,FEDERAL BANK,FDRL0001755,BADLAPUR,"SHOP NO.S1,2,3 & 5, GROUND FLOOR,PRIYA MANAY APARTMENTS, KATRAP ROAD, BADLAPUR EAST,THANE",THANE,BADLAPUR,MAHARASHTRA,0
772,FEDERAL BANK,FDRL0001756,WARANGAL,"11-25-131, SSS PLAZA, M G ROAD",WARANGAL,WARANGAL,ANDHRA PRADESH,0
773,FEDERAL BANK,FDRL0001757,AIROLI,"SHOP NO. F-21, 1ST FLOOR, RIPPLEZ MALL, PLOT SECTOR-7, AIROLI ,NAVI MUMBAI",THANE,MUMBAI,MAHARASHTRA,0
774,FEDERAL BANK,FDRL0001758,NERUL,"GROUND FLOOR, CENTURION SHOPPING & OFFICE COMPLEX, PLOT NO.88TO91, SECTOR 19A, NERUL(E)",THANE,MUMBAI,MAHARASHTRA,0
775,FEDERAL BANK,FDRL0001759,UDAIPUR/HIRAN MAGRI SECTOR 14,"PLOT NO.1, SHOPPING CENTRE, 100 FEET ROAD SECTOR14 OF HIRAN MAGRI.RAJASTHAN STATE",UDAIPUR,UDAIPUR,RAJASTHAN,0
776,FEDERAL BANK,FDRL0001760,JAMMU,"PLOT NO.63, SECTOR B, BLOCK D, GANDHI NAGAR EXTN",JAMMU,JAMMU,JAMMU AND KASHMIR,0
777,FEDERAL BANK,FDRL0001761,THRIKKADAVOOR,"GOWRI SANKAR HOSPITAL BUILDING OPP: HOTEL LAKE PALACE, PERINADU PO",KOLLAM,KOLLAM,KERALA,0
778,FEDERAL BANK,FDRL0001762,THURUTHY- VENGOOR WEST,"ESHEL COMPLEX BUILDING,VENGOOR WEST THURUTHY PO , EKM DIST",ERNAKULAM,THURUTHY- VENGOOR WEST,KERALA,0
779,FEDERAL BANK,FDRL0001763,BANGALORE / ASSET RECOVERY,"NO.4, 2ND CROSS, CSI COMPOUND MISSION ROAD",BANGALORE,BANGALORE,KARNATAKA,0
780,FEDERAL BANK,FDRL0001764,ALATHUR,"A R MALL, SWATI NAGAR, COURT ROAD ALATHUR, PALAKKAD DIST",PALAKKAD,ALATHUR,KERALA,0
781,FEDERAL BANK,FDRL0001765,VENMONY,"BLDG NO.VP/1/88,NEAR MARTHOMA HIGHER SEC. SCHOOL,KALLIYATHARA JUNCTION, ALAPUZHA DIST.",ALAPUZHA,VENMONY,KERALA,0
782,FEDERAL BANK,FDRL0001766,NADAYARA,"KALLUVILAKAM BUILDING, VARKALA P O CHEMMARUTHY VILLAGE, NADAYARA, TVM DIST",THIRUVANANTHAPURAM,NADAYARA,KERALA,0
783,FEDERAL BANK,FDRL0001767,PUNE - SHIVANE,"GROUND FLOOR,HARI VITHAL PLAZA SURVEY NO 14/1A,SHIVANE PO,HAVELI TALUK",PUNE,PUNE,MAHARASHTRA,0
784,FEDERAL BANK,FDRL0001768,MANARCADU,"MANATHALA ISONS ARCADE, MANARCADU P.O PERUMANOORKULAM, KOTTAYAM",KOTTAYAM,MANARCADU,KERALA,0
785,FEDERAL BANK,FDRL0001769,BANGALORE-HSR LAYOUT,"NO.19, 15TH CROSS, 15TH MAIN, SECTOR IV HSR LAYOUT",BANGALORE,BANGALORE,KARNATAKA,0
786,FEDERAL BANK,FDRL0001770,MANGALORE-KANKANADY,"GROUND FLOOR, PRESIDENCY VINTAGE, KANKANADY JUNCTION",MANGALORE,MANGALORE,KARNATAKA,0
787,FEDERAL BANK,FDRL0001771,MEENANGADI,"M P 12/983, P B M BUILDING WAYANAD",WAYANAD,MEENANGADI,KERALA,0
788,FEDERAL BANK,FDRL0001772,OONNUKAL(ERNAKULAM),KAKKADASSERIL BUILDING ERNAKULAM DIST,ERNAKULAM,OONNUKAL,KERALA,0
789,FEDERAL BANK,FDRL0001773,PAYYOLI,"SUNSHINE COMPLEX, OPP. TELEHONE EXCHANGE PAYYOLI P. O, KOZHIKODE DIST",KOZHIKODE,PAYYOLI,KERALA,0
790,FEDERAL BANK,FDRL0001774,AIZAWL,"B/8, MAIN ROAD  NEAR TRAFFIC POINT CANDMARI",AIZAWL,AIZAWL,MIZORAM,0
791,FEDERAL BANK,FDRL0001775,THANE LOUISWADI,"SHOP NO: 7 & 8, SUN MAGNETICA SERVICE ROAD, NR LIC BUILDING ,THANE (W)",THANE,MUMBAI,MAHARASHTRA,0
792,FEDERAL BANK,FDRL0001776,KUMARAKAM,ILLIKALAM BUILDINGS KUMARAKAM,KOTTAYAM,KOTTAYAM,KERALA,0
793,FEDERAL BANK,FDRL0001777,RAJKOT BHUPENDRA ROAD,"RAJKOT BHUPENDRA ROAD, SHOP NO.13 & C, GROUND MONARCH, BHUPENDRA ROAD, OPP.RAJASHREE CINEMA",RAJKOT,RAJKOT,GUJARAT,0
794,FEDERAL BANK,FDRL0001778,RAJKOT KALAWAD ROAD,"KINGS BUILDING, OPP. KARNATAKA BANK IN MANGAL BUILDING, KALAWAD ROAD,",RAJKOT,RAJKOT,GUJARAT,0
795,FEDERAL BANK,FDRL0001779,SHILLONG/LAITUMKHRAH,"BEAT HOUSE , LAITUMKHRAH",EAST KHASI HILLS,SHILLONG,MEGHALAYA,0
796,FEDERAL BANK,FDRL0001780,KOTHANALLOOR,"JOHN K ANTONY ARCADE, ETTUMANOOR ERNAKULAM ROAD, KOTHANALLOOR P.O.",KOTTAYAM,KOTTAYAM,KERALA,0
797,FEDERAL BANK,FDRL0001781,BANGALORE / BANASHANKARI,"SUDHAMA, NO.299, 100 FEET RING ROAD, 4TH PHASE, 7TH BLOCK, BANASHANKARI 3RD STAGE,",BANGALORE,BANGALORE,KARNATAKA,0
798,FEDERAL BANK,FDRL0001782,RAJKOT BHAKTI NAGAR,"GF,UNIT NO.2C,SHIVALIK-5 GONDAL ROAD,BHAKTI NAGAR",RAJKOT,RAJKOT,GUJARAT,0
799,FEDERAL BANK,FDRL0001783,RAMAPURAM,"MAMPARAMPIL TOWERS, PALA ROAD RAMAPURAM BAZAR P O, KOTTAYAM DIST",KOTTAYAM,RAMAPURAM,KERALA,0
800,FEDERAL BANK,FDRL0001784,CHAKKARAKKAL,"AMBADY BUILDINGS, THALASSERY ROAD MOWANCHERY P O, KANNUR",KANNUR,CHAKKARAKKAL,KERALA,0
801,FEDERAL BANK,FDRL0001785,PUNE - PHURSUNGI,"DESHMUKH ESTATES, OPP. INFOCITY , PUNE SASWAD ROAD, PHURSUNGI",PUNE,PUNE,MAHARASHTRA,0
802,FEDERAL BANK,FDRL0001786,CHAKAN-NANEKARWADI,"CHAKAN, HRISHIKESH CHAMBERS,  SHIVAJI CHOWK CHAKAN TALEGAON ROAD  , CHAKAN",PUNE,PUNE,MAHARASHTRA,0
803,FEDERAL BANK,FDRL0001787,KALINGARAYAN PALAYAM,"5/72, PRANAVA LINGAM ENCLAVE BHAVANI MAIN ROAD",ERODE,ERODE,TAMIL NADU,0
804,FEDERAL BANK,FDRL0001788,THISAYANVILAI,474-GANDHIJI MAIN ROAD TIRUNELVELI DIST,TIRUNELVELI,THISAYANVILAI,TAMIL NADU,0
805,FEDERAL BANK,FDRL0001789,PALLADAM,"SF 388/3, CHETTIPALAYAM ROAD, PALLADAM, TIRUPUR DISTRICT",TIRUPUR,PALLADAM,TAMIL NADU,0
806,FEDERAL BANK,FDRL0001790,SARAVANAMPATTI,"3-B, SATHY MAIN ROAD NEAR KALAPATTI PIRIVU",COIMBATORE,SARAVANAMPATTI,TAMIL NADU,0
807,FEDERAL BANK,FDRL0001791,VADAVALLI,"SF 114/1,SITE NO.26-22 PART I MARUTHAMALAI MAIN ROAD",COIMBATORE,VADAVALLI,TAMIL NADU,0
808,FEDERAL BANK,FDRL0001792,KANGEYAM,S NO 432/7  TIRUPPUR ROAD TIRUPPUR,TIRUPUR,KANGEYAM,TAMIL NADU,0
809,FEDERAL BANK,FDRL0001793,KARUVEPPAMPATTI,"S NO 323/2, SANKARI - TIRUCHENGODE HIGHWAY NAMAKKAL DISTRICT",NAMAKKAL,KARUVEPPAMPATTI,TAMIL NADU,0
810,FEDERAL BANK,FDRL0001794,ATTIYAM PATTI,"1 /500, RASIPURAM MAIN ROAD, S. PAPPAARAPATTI SALEM",SALEM,ATTIYAM PATTI,TAMIL NADU,0
811,FEDERAL BANK,FDRL0001795,KURISUMMOODU,"XII/18A, MARETTE BUILDING, CHETHIPUZHA VILLAGE, KURISUMMOODU , KOTTAYAM DISTRICT",KOTTAYAM,CHANGANASSERY,KERALA,0
812,FEDERAL BANK,FDRL0001796,PADINJARATHARA,"DIMA COMPLEX MAIN ROAD, WYANAD",WAYANAD,PADINJARATHARA,KERALA,0
813,FEDERAL BANK,FDRL0001797,NAMAKKAL,"74, RANGAR SANNATHI STREET,SENDAMANGALAM MAIN ROAD",NAMAKKAL,NAMAKKAL,TAMIL NADU,0
814,FEDERAL BANK,FDRL0001798,SURAT-ADAJAN,"SHOP NO 1 & 2, GF, RIDDHI SHOPPERS, OPP. IMPERIAL SQUARE, ADJAN HAZIRA ROAD , ADJAN",SURAT,SURAT,GUJARAT,0
815,FEDERAL BANK,FDRL0001799,AHMEDABAD-IITCHANDKHEDA AREA,"GROUND FLOOR SUN SQUARE,NEAR DEV BUSINESS HUB VISAT-GANDHI NAGAR HIGHWAY, MOTERA,CHANDKHEDA",AHMEDABAD,AHMEDABAD,GUJARAT,0
816,FEDERAL BANK,FDRL0001800,AHMEDABAD-SATELLITE(NEAR ISRO),"SIGMA ICON II, UNITS 1&2,132 FT.,RING ROAD, SHYAMAL CROSS,SATELLITE,",AHMEDABAD,AHMEDABAD,GUJARAT,0
817,FEDERAL BANK,FDRL0001801,SHAPER-VERAVAL,"SHOP NOS.1,2,3,4,59,60,61&62,IST FLOOR, SHAPHIRE TOWER,NEAR SHAPAR BUS STOP,NH-8B",RAJKOT,RAJKOT,GUJARAT,0
818,FEDERAL BANK,FDRL0001802,COIMBATORE-SAIBABA COLONY,"S.NO 12/158PT, S F NO 391/1,  N.S.R. ROAD, SANGANUR VILLAGE, SAIBABA COLONY",COIMBATORE,COIMBATORE,TAMIL NADU,0
819,FEDERAL BANK,FDRL0001803,PERUNDURAI,"S.NO: 509/9B,  COIMBATORE MAIN ROAD ERODE, TAMILNADU",ERODE,PERUNDURAI,TAMIL NADU,0
820,FEDERAL BANK,FDRL0001804,VELLAKOVIL,"43,T.C.MAIN ROAD,VELLAKOIL ERODE",ERODE,VELLAKOVIL,TAMIL NADU,0
821,FEDERAL BANK,FDRL0001805,MUMBAI/GHATKOPAR,"SHOP NOS.1 & 2,GROUND FLOOR,TRIKAL CHS LTD BLDG NO.310,90 FEET ROAD,GHATKOPAR EAST",MUMBAI SUBURBAN,MUMBAI,MAHARASHTRA,0
822,FEDERAL BANK,FDRL0001806,VADODARA/ MAKARPURA,"SHOP NOS. 8 TO 13, GR. FLR.PARTH AVENUE, OPP. RUTURAJ COMPLEX, MANJALPUR",VADODARA,VADODARA,GUJARAT,0
823,FEDERAL BANK,FDRL0001807,GANDHIDHAM,"SHOP NOS. 3 TO 8, GR. FLOOR , KAILASH - MANAS BUILDING, PLOT NO 340, WARD NO 12B,KUTCH DIST",KUTCH,GANDHIDHAM,GUJARAT,0
824,FEDERAL BANK,FDRL0001808,BHUJ,"K D  CHAMBERS, GR FLOOR, OPP. ALFRED HIGH SCHOOL, KUTCH DIST",KUTCH,BHUJ,GUJARAT,0
825,FEDERAL BANK,FDRL0001809,VADODARA SAMA,"GROUND FLOOR,VISMAY,GIPCL CIRCLE,SAMA VADODARA",BARODA,BARODA,GUJARAT,0
826,FEDERAL BANK,FDRL0001810,VADODARA WAGHODIA ROAD,"SHOP NOS 1 TO 6,GROUND FLOOR,SUNRISE COMPLEX, NEAR VRUNDAVAN CROSSING,WAGODIYA ROAD",BARODA,BARODA,GUJARAT,0
827,FEDERAL BANK,FDRL0001811,SATHYAMANGALAM,"NO.347, GOBI MAIN ROAD ERODE DIST.",ERODE,SATHYAMANGALAM,TAMIL NADU,0
828,FEDERAL BANK,FDRL0001812,MANESAR,"SHOP NO 48  , GROUND FLOOR, AMRAPALI TOWER J SECTOR - 2, MANESAR",GURGAON,GURGAON,HARYANA,0
829,FEDERAL BANK,FDRL0001813,MECHERI,"DOOR NO 11/5-29B,P.B COMPLEX,ANGAMUTHU GOUNDE NAGAR,METTUR MAIN ROAD,MECHERI",SALEM,SALEM,TAMIL NADU,0
830,FEDERAL BANK,FDRL0001814,TIRUPPUR/ AVINASHI ROAD,"NO.247, AVINASHI ROAD NEAR BUNGALOW STOP",TIRUPUR,TIRUPUR,TAMIL NADU,0
831,FEDERAL BANK,FDRL0001815,KUNIYAMUTHUR,"510/11, PALAKKAD MAIN ROAD, KUNIYAMUTHUR",COIMBATORE,COIMBATORE,TAMIL NADU,0
832,FEDERAL BANK,FDRL0001816,KONGANAPURAM,"NO.2/1/58A, OMALUR MAIN ROAD KONGANAPURAM",SALEM,SALEM,TAMIL NADU,0
833,FEDERAL BANK,FDRL0001817,ORAGADAM,"TEMPLE GREEN PLAZA,SINGAPERUMAL, SRIPERUMBUDUR ROAD,MATHUR",KANCHEEPURAM,ORAGADAM,TAMIL NADU,0
834,FEDERAL BANK,FDRL0001818,PUNE/PIMPLE SAUDAGAR,SHOP NO 1 GROUND FLOOR PRIME SQUARE S NO 125/5 ANUDH ANNEXE,PUNE,PUNE,MAHARASHTRA,0
835,FEDERAL BANK,FDRL0001819,PUNE/BIBVEWADI,UNIT NO 3 UPPER GRND FLOOR CRU MALL S NO 588/ MAIN GANGADHAM ROAD OPP GAGAN VIHAR COLONY,PUNE,PUNE,MAHARASHTRA,0
836,FEDERAL BANK,FDRL0001820,NEWDELHI / KIRTI NAGAR,"B-4, TAGORE MARKET, KIRTI NAGAR,",NEW DELHI,NEW DELHI,DELHI,0
837,FEDERAL BANK,FDRL0001821,GUWAHATI / BELTOLA,"52, DR. B.N.SAIKIA ROAD, BELTOLA SURVEY,",GUWAHATI,GUWAHATI,ASSAM,0
838,FEDERAL BANK,FDRL0001822,KARAYAMPARAMBU,"NH-47,  KARAYAMPARAMBU JUNCTION, KARUKUTTY P O",ERNAKULAM,KARAYAMPARAMBU,KERALA,0
839,FEDERAL BANK,FDRL0001823,THELLAKOM,"CHEMBOLA COMPLEX , CARITAS , THELLAKOM P O , ATHIRAMPUZHA VILLAGE",KOTTAYAM,KOTTAYAM,KERALA,0
840,FEDERAL BANK,FDRL0001824,VENGOLA,"GUARDIAN ANGEL CARE CHARITABLE SOCIETY BEDSEDA ,  ARAKKAPADI VILLAGE, ERNAKULAM DIST",ERNAKULAM,VENGOLA,KERALA,2592332
841,FEDERAL BANK,FDRL0001825,THRISSUR OLLUR,"ARACKAL TOWERS CHRISTOPHER NAGAR, OLLUR",THRISSUR,THRISSUR,KERALA,0
842,FEDERAL BANK,FDRL0001826,HYDERABAD / MALAKPET,"D.NO 16-11-20/6/6/1/1, BESIDE MARUTHI SHOW ROOM,  GAFOOR BAGH, SALEEM NAGAR COLONY",HYDERABAD,HYDERABAD,ANDHRA PRADESH,0
843,FEDERAL BANK,FDRL0001827,BANGALORE J P NAGAR,"U.D.N.ALTIUS,NO.13,15TH CROSS,100 FT. RING ROAD,J.P.NAGAR,6TH PHASE,",BANGALORE,BANGALORE,KARNATAKA,0
844,FEDERAL BANK,FDRL0001828,BILIMORA,"GROUND FLOOR,  LABDHI SQUARE, OPP. HONEST TRADING CO., GOHARBAUG, NAVSARI DIST",NAVSARI,BILIMORA,GUJARAT,0
845,FEDERAL BANK,FDRL0001829,MUMBAI ANDHERI EAST,"GF,MARIAM APMT,PLOT NO.36,OPP.GURUDWARA,SHER- E PUNJAB SOC.,MAHAKALI CAVES ROAD,ANDHERI -E",MUMBAI SUBURBAN,MUMBAI,MAHARASHTRA,0
846,FEDERAL BANK,FDRL0001830,PORVORIM,"GROUND FLOOR, COSTA COSME NUCLEUS NH17, OPPOSITE TO HOLY FAMILY CHURCH, BARDEZ",GOA,PORVORIM,GOA,0
847,FEDERAL BANK,FDRL0001831,JAIPUR/ VIDHYADHAR NAGAR,"GROUND FLOOR, SUN N MOON,MAIN SIKAR ROAD, VIDHYADHAR NAGAR",JAIPUR,JAIPUR,RAJASTHAN,0
848,FEDERAL BANK,FDRL0001832,JAIPUR / MALVIYA NAGAR,"40,41  MOJI  COLONY, KAILGIRI ROAD, MALVIYA NAGAR",JAIPUR,JAIPUR,RAJASTHAN,0
849,FEDERAL BANK,FDRL0001833,RANIPET,"NO.136,SKT COMPLEX, MBT ROAD MUTHUKADAI",VELLORE,RANIPET,TAMIL NADU,0
850,FEDERAL BANK,FDRL0001834,TIRUVERUMBUR,"NO.27, NO.51/1 B2, KUMARAN NAGAR THIRUVERUMBUR",TIRUCHIRAPALLY,TIRUCHIRAPALLY,TAMIL NADU,0
851,FEDERAL BANK,FDRL0001835,VANNAPPURAM,RESHMI ARCADE VANNAPPURAM,IDUKKI,VANNAPPURAM,KERALA,0
852,FEDERAL BANK,FDRL0001836,MUMBAI/MALAD WEST,"SHOP NOS.1& 2,GRND FLOOR,LINK HOUSE,GOREGAON MALAD LINK ROAD,CHINCHOLI BUNDER,MALAD WEST",MUMBAI SUBURBAN,MUMBAI,MAHARASHTRA,0
853,FEDERAL BANK,FDRL0001837,CHALAKUDI NORTH,"CHAKKALAMATTATTAH TOWER , CCMK  JUNCTION CHALAKUDY",THRISSUR,THRISSUR,KERALA,0
854,FEDERAL BANK,FDRL0001838,THIRUVALLUR,"47, D S R VISHNU PLAZA, J N ROAD,",THIRUVALLUR,THIRUVALLUR,TAMIL NADU,0
855,FEDERAL BANK,FDRL0001839,KOZHIKODE / KALLAI ROAD,"N V TOWER, KALLAI ROAD,",KOZHIKODE,KOZHIKODE,KERALA,0
856,FEDERAL BANK,FDRL0001840,PALLICKATHODU,"BLDG NO 176/ B, VELLAPALLY BUILDINGS, PALA ROAD, PALLICKATHODU",KOTTAYAM,KOTTAYAM,KERALA,0
857,FEDERAL BANK,FDRL0001841,MUPPATHADAM,"BLDG NO V/264B, MUPPATHADAM JN MUPPATHADAM,",ERNAKULAM,ERNAKULAM,KERALA,0
858,FEDERAL BANK,FDRL0001842,ELENTHIKKARA,MALIAKAL BUILDINGS NEAR ELENTHIKKARA JN ELENTHIKKARA MALA ROAD,ERNAKULAM,ELENTHIKKARA,KERALA,0
859,FEDERAL BANK,FDRL0001843,HYDERABAD BANJARA HILLS,"NO.8-293/82/564-A43, PRASANTHI, ROAD NO.92, BANJARA HILLS,",HYDERABAD,HYDERABAD,ANDHRA PRADESH,0
860,FEDERAL BANK,FDRL0001844,THODUPUZHA / MANGATTUKAVALA,KUNNAPPILLIL BUILDING THODUPUZHA EAST P O,IDUKKI,IDUKKI,KERALA,0
861,FEDERAL BANK,FDRL0001845,NEW DELHI / PATEL NAGAR,"1/6, OPPOSITE METRO PILLAR NO-178 EAST PATEL NAGAR, PATEL ROAD",NEW DELHI,NEW DELHI,DELHI,0
862,FEDERAL BANK,FDRL0001846,SANAND,"NO 31, 32 GROUND FLOOR , OPP KALUPUR BANK SANAND VIRAMGAM HIGH WAY,SANAND",AHMEDABAD,AHMEDABAD,GUJARAT,0
863,FEDERAL BANK,FDRL0001847,KAMREJ,"SHOP NO# 30,31,GROUND FLOOR,SHRUSHTI COMPLEX, NH 8, KAMREJ,CHARRASTA",CHARRASTA,SURAT,GUJARAT,0
864,FEDERAL BANK,FDRL0001848,WADI,"SHOP NO 5,6,7 & 8 ,TOWER 6, LAKE VIEW ENCLAVE ATOMIC ENERGY ROAD, AMRAVATI ROAD, WADI",NAGPUR,NAGPUR,MAHARASHTRA,0
865,FEDERAL BANK,FDRL0001849,PAMPAKUDA,OOTHUKUZHIYIL BUILDINGS PALLITHAZHAM JUNCTION,ERNAKULAM,PAMPAKUDA,KERALA,0
866,FEDERAL BANK,FDRL0001850,GOVINDPUR,"KHALSA COMPLEX, OPP. GOBINDPUR P.S G.T.ROAD, GOVINDPUR",DHANBAD,DHANBAD,JHARKHAND,0
867,FEDERAL BANK,FDRL0001851,CHIRKUNDA,"KUMAR DUBI, SARSA PAHARI BESIDE GURUNANAK MISSION SCHOOL",DHANBAD,CHIRKUNDA,JHARKHAND,0
868,FEDERAL BANK,FDRL0001852,SORO,"ANAM SHOPPING COMPLEX NEW CINEMA ROAD, BALASORE (DIST)",BALESHWAR,SORO,ODISHA,0
869,FEDERAL BANK,FDRL0001853,REMUNA,"REMUNA GOLAI, JANUGANJ, GANESWARPUR PO, BALASORE,",BALESHWAR,REMUNA,ODISHA,0
870,FEDERAL BANK,FDRL0001854,DERABASSI,"LOWER GROUND FLOOR, CHOPRA TOWER MAIN AMBALA-CHANDIGARH ROAD, DERABASSI MOHALI",CHANDIGARH,MOHALI,PUNJAB,0
871,FEDERAL BANK,FDRL0001855,RUPNAGAR,"GROUND FLOOR SCO-40, BEANT SINGH AMAN NAGAR BELA ROAD RUPNAGAR, RUPNAGAR (DIST)",RUPNAGAR,ROOPNAGAR,PUNJAB,0
872,FEDERAL BANK,FDRL0001856,CHANDIGARH /SECTOR 22 C,"SCO 2471-72, SECTOR 22C",CHANDIGARH,CHANDIGARH,CHANDIGARH,0
873,FEDERAL BANK,FDRL0001857,KALKA,"GROUND FLOOR SHOP NO.713,LOWER BAZAR, N H 22, KALKA PANCHKULA (DIST)",PANCHKULA,PANCHKULA,HARYANA,0
874,FEDERAL BANK,FDRL0001858,LUDHIANA / URBAN ESTATE,"SCO 18, SECT 32A, URBAN ESTATE, CHANDIGARH ROAD,",LUDHIANA,LUDHIANA,PUNJAB,0
875,FEDERAL BANK,FDRL0001859,KHARAR,"DESU MAJRA, NH 21 SANT WARYAM SINGH NAGAR WARD NO. 4,KHARAR",MOGA,MOHALI,PUNJAB,0
876,FEDERAL BANK,FDRL0001860,CHEPPAD,"NAKKALAKKAL, CHEPPAD,",ALAPUZHA,ALAPUZHA,KERALA,0
877,FEDERAL BANK,FDRL0001861,CHERUTHANA,"SAMEENA BUILDING NEAR H.S.SCHOOL AYAPARAMBU CHERUTHANA,ALAPUZHA DISTRICT",ALAPUZHA,CHERUTHANA,KERALA,0
878,FEDERAL BANK,FDRL0001862,THIRUVANANTHAPURAM /CHALAI,"SALMA COMPLEX, T C 39/459-1 TO 6, KOTHUVAL STREET, CHALAI P.O.,",THIRUVANANTHAPURAM,THIRUVANANTHAPURAM,KERALA,0
879,FEDERAL BANK,FDRL0001863,CHETTIKULANGARA,"DHARSHANA SHOPPING COMPLEX, OPPOSITE VAYANASA CHETTIKULANGARA",ALAPUZHA,ALAPUZHA,KERALA,2349401
880,FEDERAL BANK,FDRL0001864,KADODARA,"CORPORATE HOUSE, NEAR BUS STAND SURAT-KADODARA ROAD, KADODRA",SURAT,SURAT,GUJARAT,0
881,FEDERAL BANK,FDRL0001865,SURAT/ VARACHA,"SHOP NO.2, GROUND FLOOR,MANGALDEEP COMPLEX HIRABAUG CIRCLE, VARACHA",SURAT,SURAT,GUJARAT,0
882,FEDERAL BANK,FDRL0001866,PALSANA,"SHOP NOS 23 TO 31, GROUND FLOOR, RAJ COMPLEX PALSANA CHOKDI",SURAT,PALSANA,GUJARAT,0
883,FEDERAL BANK,FDRL0001867,KANJANI,"INDIRA ARCADE, ANTHIKAD ROAD KANJANI",THRISSUR,THRISSUR,KERALA,0
884,FEDERAL BANK,FDRL0001868,PADANILAM,"BLDG NO VIII/588-1, NOORANADU-PADANILAM ROAD PADANILAM",ALAPUZHA,ALAPUZHA,KERALA,0
885,FEDERAL BANK,FDRL0001869,KARUVATTA,"SHAHANAS BUILDING, KARUVATTA P.O",ALAPUZHA,ALAPUZHA,KERALA,0
886,FEDERAL BANK,FDRL0001870,THAMARAKKULAM,"HAMDAN TOWERS, OPP. PETROL PUMP THAMARAKKULAM",ALAPUZHA,ALAPUZHA,KERALA,0
887,FEDERAL BANK,FDRL0001871,ERAMALLUR,"GRAND FURNITURE MART, SURVEY NO 141/1 ERAMALLOOR",ALAPUZHA,ALAPUZHA,KERALA,0
888,FEDERAL BANK,FDRL0001872,PATHIYOOR,"M N BUILDING, PATHIYOOR JN, KEERIKKAD,",ALAPUZHA,ALAPUZHA,KERALA,0
889,FEDERAL BANK,FDRL0001873,DENKANIKOTTAI,"NO 89,90, NEHRU STREET, DENKANIKOTTAI",KRISHNAGIRI,KRISHNAGIRI,TAMIL NADU,0
890,FEDERAL BANK,FDRL0001874,NAMBIYUR,"DOOR NO 492/3, KOVAI MAIN ROAD, NAMBIYUR ERODE DISTRICT",ERODE,NAMBIYUR,TAMIL NADU,0
891,FEDERAL BANK,FDRL0001875,KODUMUDI,"NO. 258/2, BYPASS, ERODE MAIN ROAD,  KODUMUDI",ERODE,ERODE,TAMIL NADU,0
892,FEDERAL BANK,FDRL0001876,KOTAGIRI,"27/131 L, JOHNSTONE SHOPS JOHNSTONE SQUARE(KAMRAJ SQUARE), NILGRIS DIST",NILGRIS,KOTAGIRI,TAMIL NADU,0
893,FEDERAL BANK,FDRL0001877,NIRSA,AMRIT COMPLEX PLOT NO 1360,DHANBAD,DHANBAD,JHARKHAND,0
894,FEDERAL BANK,FDRL0001878,SHAHAPUR,"SHOP NOS 4 TO 7, S K SHRUSHTI COMPLEX OLD AGRA ROAD, NEAR GOVT REST HOUSE, THANE",THANE,SHAHAPUR,MAHARASHTRA,0
895,FEDERAL BANK,FDRL0001879,AHMEDABAD/ MANINAGAR,"GROUND FLR., ELEGANCE ARCADE, NEAR BANK OF IN STATION ROAD, MANINAGAR",AHMEDABAD,AHMEDABAD,GUJARAT,0
896,FEDERAL BANK,FDRL0001880,AYARKUNNAM,"GROUND FLOOR, THOPPIL BUILDING AYARKUNNAM, KOTTAYAM",KOTTAYAM,AYARKUNNAM,KERALA,0
897,FEDERAL BANK,FDRL0001881,ATHIRAMPUZHA,ST MARYS FORANE CHURCH OFFICE BUILDING ATHIRAMPUZHA,KOTTAYAM,KOTTAYAM,KERALA,0
898,FEDERAL BANK,FDRL0001882,NILAMEL,"MB TOWER MARKET ROAD, NILAMEL",KOLLAM,KOLLAM,KERALA,0
899,FEDERAL BANK,FDRL0001883,AADIKATTUKULANGARA,"MOOTHANNAN SHOPPING COMPLEX, K P ROAD OPP MASJID, ADIKATTUKULANGARA",ALAPUZHA,ALAPUZHA,KERALA,0
900,FEDERAL BANK,FDRL0001884,KOTTARAKKARA / GANAPATHIKOIL,"KALPAKA BLDG, RLY STN ROAD, KKA NO X/529 A OF KOTTARAKKARA PANCHAYATH ,KOLLAM DISTRICT",KOLLAM,KOTTARAKKARA,KERALA,0
901,FEDERAL BANK,FDRL0001885,KODUVAYUR,"AMBADI TOWERS, PALAKKAD ROAD NEAR KODUVAYUR GOVT HOSPITAL, KODUVAYUR",PALAKKAD,PALAKKAD,KERALA,0
902,FEDERAL BANK,FDRL0001886,PATHIRIPPALA,"PULACHERY COMPLEX, NAGARIPURAM P.O PATHIRIPPALA,",PALAKKAD,PALAKKAD,KERALA,0
903,FEDERAL BANK,FDRL0001887,VALLAPUZHA,"BULIDING NO IV/423, 424 ,  NEAR RAILWAY GATE",PALAKKAD,PALAKKAD,KERALA,0
904,FEDERAL BANK,FDRL0001888,GURUVAYOOR,"DOOR NO-XXVII/422 (1), VENUS ENCLAVE EAST NADA, NEAR MANJULAL, THRISSUR ROAD",THRISSUR,GURUVAYOOR,KERALA,0
905,FEDERAL BANK,FDRL0001889,VADAKKEKKAD,"OM BROTHERS BUILDING NALAMKALLU, VADAKKEKAD",THRISSUR,THRISSUR,KERALA,0
906,FEDERAL BANK,FDRL0001890,KOLLENGODE,"ST JOHN COMPLEX, NEAR VINAYAKA TEMPLE POLLACHI ROAD, KOLLENGODE",PALAKKAD,PALAKKAD,KERALA,0
907,FEDERAL BANK,FDRL0001891,UDUMA,"MAIN ROAD, NEAR UDUMA RAILWAY GATE UDUMA",KASARAGODE,KASARAGODE,KERALA,0
908,FEDERAL BANK,FDRL0001892,SREEKANDAPURAM,"KVA COMPLEX, MAIN ROAD SREEKANDAPURAM",KANNUR,KANNUR,KERALA,0
909,FEDERAL BANK,FDRL0001893,KADUR,"ASSESSMENT NO.7339,SRI RAM COMPLEX,B.H.ROAD",KADUR,KADUR,KARNATAKA,0
910,FEDERAL BANK,FDRL0001894,PUTTUR,"AMRUTHA SOUDHA (RADHIKA PLAZA) COURT ROAD PUTTUR,",DAKSHINA KANNADA,DAKSHINA KANNADA,KARNATAKA,0
911,FEDERAL BANK,FDRL0001895,NARASIMHARAJAPURA,"ASSESSMENT NO.794,NEAR TO IOC PETROL PUMP NAGALAPURA VILLAGE,B H KAIMARA",NARASIMHARAJAPURA,NARASIMHARAJAPURA,KARNATAKA,0
912,FEDERAL BANK,FDRL0001896,HEBRI,"GROUND FLOOR,SHAKU MANSION MAIN ROAD",HEBRI,HEBRI,KARNATAKA,0
913,FEDERAL BANK,FDRL0001897,CHALLAKERE,GOMMATTA NILAYA BANGALORE ROAD CHITRADURGA DISTRICT,CHITRADURGA,CHALLAKERE,KARNATAKA,0
914,FEDERAL BANK,FDRL0001898,BUTIBORI,"PLOT NO X 262, MIDC WARDHA ROAD BUTIBORI",NAGPUR,NAGPUR,MAHARASHTRA,0
915,FEDERAL BANK,FDRL0001899,NANDELAV,"A 15,26, GROUND FLOOR, ABHISHEK COLONY, DEHEJ BYPASS ROAD, NANDELAV",BHARUCH,BHARUCH,GUJARAT,0
916,FEDERAL BANK,FDRL0001900,SULLYA,"SHREYAS COMPLEX, MAIN ROAD, SULLYA D. KANNADA",SULLYA,SULLYA,KARNATAKA,0
917,FEDERAL BANK,FDRL0001901,BELTHANGADI,"SUVARNA ARCADE, DOOR NO 8/4B 1(2), BELTHANGADI,",DAKSHINA KANNADA,DAKSHINA KANNADA,KARNATAKA,0
918,FEDERAL BANK,FDRL0001902,ULLIYERI,"KUMMAYAPURATH BUILDING EAST MUKKU, KOZHIKODE",KOZHIKODE,ULLIYERI,KERALA,0
919,FEDERAL BANK,FDRL0001903,ANAKAPUTHUR,"PLOT NO.16, 4TH STREET BALAJI NAGAR, CHENNAI",CHENNAI,ANAKAPUTHUR,TAMIL NADU,0
920,FEDERAL BANK,FDRL0001904,HARUR,"10/243/1, THIRU VI KA NAGAR, BYPASS ROAD DHARMAPURI DIST",DHARMAPURI,HARUR,TAMIL NADU,0
921,FEDERAL BANK,FDRL0001905,KALLAKURICHI,"DOOR NO.10, RAJAMMAL NAGAR SALEM MAIN ROAD, VILLUPURAM DISTRICT",VILLUPURAM,KALLAKURICHI,TAMIL NADU,0
922,FEDERAL BANK,FDRL0001906,KOLLENCODE,"OPP. TO BSNL OFFICE, KANNANAGAM JUNCTION, NITHIRAVILAI ROAD,KANYAKUMARI DIST",KANYAKUMARI,KOLLENCODE,TAMIL NADU,0
923,FEDERAL BANK,FDRL0001907,MELUR,"GOLDEN COMPLEX, NO 126, SIVAGANGAI ROAD MELUR, MADURAI",MADURAI,MADURAI,TAMIL NADU,0
924,FEDERAL BANK,FDRL0001908,METODA,"GROUND FLOOR, FORTUNE SQUARE PLOT NO.C-1004/A, KISHAN GATE ROAD",RAJKOT,METODA,GUJARAT,0
925,FEDERAL BANK,FDRL0001909,ANNUR,"DOOR NO. 3/173, KOVAI MAIN ROAD,",COIMBATORE,ANNUR,TAMIL NADU,0
926,FEDERAL BANK,FDRL0001910,BHARANANGANAM,"KOKKATT BUILDING,OPP. ST.MARYS FORANE CHURCH BHARANANGANAM",KOTTAYAM,KOTTAYAM,KERALA,0
927,FEDERAL BANK,FDRL0001911,NEW DELHI / GREEN PARK,"S-21, OPPOSITE UPHAR CINEMA, GREE PARK EXTENSION",NEW DELHI,NEW DELHI,DELHI,0
928,FEDERAL BANK,FDRL0001912,VALLARPADAM,"NEAR FIRST GATE TRANSHIPMENT TERMINAL PWD ROAD, VALLARPADAM",ERNAKULAM,KOCHI,KERALA,0
929,FEDERAL BANK,FDRL0001913,PARAPPA,"GROUND FLOOR, AREEKUZHIYIL TOWERS, MAIN ROAD PARAPPA, KASARGOD DISTRICT,",KANNUR,PARAPPA,KERALA,0
930,FEDERAL BANK,FDRL0001914,FARIDABAD/SECTOR 16,"SCO -5, GROUND FLOOR SECTOR 16, HUDA MARKET",FARIDABAD,FARIDABAD,HARYANA,0
931,FEDERAL BANK,FDRL0001915,MORINDA,"WARD NO.4,SHOWROOM NO 133 G.T ROAD, OPP. PREET DHABA, MORINDA, DIST- ROOPNAGAR",ROOPNAGAR,ROOPNAGAR,PUNJAB,0
932,FEDERAL BANK,FDRL0001916,LUDHIANA / G.T ROAD,"B21/1425, DHOLEWAL, KALSI NAGAR, G T ROAD, LUDHIANA",LUDHIANA,LUDHIANA,PUNJAB,0
933,FEDERAL BANK,FDRL0001917,NOIDA / BOTANICAL GARDEN,"GROUND FLOOR, NEAR GATE NO 1, NOIDA BOTANICAL GARDEN METRO STATION  , GAUTAM BUDH NAGAR",GAUTAM BUDDHA NAGAR,NOIDA,UTTAR PRADESH,0
934,FEDERAL BANK,FDRL0001918,ZIRAKPUR,"HITPRIYA SQUARE OPPOSITE LUCKY DHABA, PATIALA ROAD ZIRAKPUR, MOHALI (DIST)",MOHALI,MOHALI,PUNJAB,0
935,FEDERAL BANK,FDRL0001919,LUDHIANA / FEROZPUR ROAD,"MAHAL HOTEL COMPLEX,B35-39/6, FEROZEPUR ROAD OPP VERKA MILK PLANT",LUDHIANA,LUDHIANA,PUNJAB,0
936,FEDERAL BANK,FDRL0001920,RASIPURAM,"DOOR NO. 6, ZAHIR HUSSAIN ROAD, NAMAKKAL DISTRICT,",NAMAKKAL,RASIPURAM,TAMIL NADU,0
937,FEDERAL BANK,FDRL0001921,CHINNAMANNUR,"NO.176/10, APK COMPLEX CUMBUM MAIN ROAD, THENI DIST",THENI,CHINNAMANNUR,TAMIL NADU,0
938,FEDERAL BANK,FDRL0001922,BHAGAWANPUR,"GOPAL MARKET COMPLEX, BHAGWANPUR CHATTI, REWA ROAD, MUZAFFARPUR (DIST)",MUZAFFARPUR,BHAGAWANPUR,BIHAR,0
939,FEDERAL BANK,FDRL0001923,PATNA / RAJA BAZAR,"LEGEND PLAZA, ASHIYANA DIGHA MAIN ROAD,",PATNA,PATNA,BIHAR,0
940,FEDERAL BANK,FDRL0001924,GUWAHATI / PALTAN BAZAR,"RAMANAND TOWER,  G.S.ROAD,  PALTAN BAZAR KAMRUP DISTRICT",KAMRUP,GUWAHATI,ASSAM,0
941,FEDERAL BANK,FDRL0001925,SILCHAR / SONAI ROAD,"BISHOPS HOUSE COMPLEX, SONAI ROAD SILCHARG DT, CACHER",SILCHAR,SILCHAR,ASSAM,0
942,FEDERAL BANK,FDRL0001926,PANNITHADAM,"6/6, A H SHOPPING POINT, KUNNAMKULAM - WADAKKANCHERY ROAD, CHIRAMANANGAD P O",THRISSUR,THRISSUR,KERALA,0
943,FEDERAL BANK,FDRL0001927,PATTIKKAD,"DREAM CITY COMPLEX,  PEECHI ROAD JUNCTION, THRISSUR",THRISSUR,PATTIKKAD,KERALA,0
944,FEDERAL BANK,FDRL0001928,KOTTEKKAD,"FATHIMANATHA BUILDINGS KOTTEKKAD , KUTTUR  P O",THRISSUR,THRISSUR,KERALA,0
945,FEDERAL BANK,FDRL0001929,JAJPUR ROAD,"T C PLAZA, CHORDA BYPASS SQUARE JAJPUR ROAD P O, JAJPUR (DIST)",JAIPUR,JAJPUR ROAD,ODISHA,0
946,FEDERAL BANK,FDRL0001930,TALCHER,"SIDDHARTH REGENCY, BY-PASS ROAD ANGUL (DIST)",ANGUL,TALCHER,ODISHA,0
947,FEDERAL BANK,FDRL0001931,KUSHAL NAGAR,"MIST FLOWER COMPLEX, MADIKERI ROAD COORG DISTRICT",COORG,KUSHAL NAGAR,KARNATAKA,0
948,FEDERAL BANK,FDRL0001932,PALA / KOTTARAMATTOM,"MUNDATHANATH BUILDING, ARUNAPURAM P O, PALA",KOTTAYAM,KOTTAYAM,KERALA,0
949,FEDERAL BANK,FDRL0001933,CHENNAI/ PERAMBUR,"NO.39,SRP KOIL STREET, NORTH STREET TVK NAGAR, PERAMBUR WEST",CHENNAI,CHENNAI,TAMIL NADU,0
950,FEDERAL BANK,FDRL0001934,KUMBAZHA,KAKKANATTU BUILDING KUMBAZHA,PATHANAMTHITTA,PATHANAMTHITTA,KERALA,0
951,FEDERAL BANK,FDRL0001935,ARYANAD,"GOKULAM BUILDING, NO AP III 563/2,3,4 ALUMMOODU JUNCTION, THIRUVANANTHAPURAM",THIRUVANANTHAPURAM,ARYANAD,KERALA,0
952,FEDERAL BANK,FDRL0001936,KARAKULAM,"PANCHAMI BUILDING, PANCHAYATH JUNCTION, KARAKULAM P O",THIRUVANANTHAPURAM,THIRUVANANTHAPURAM,KERALA,0
953,FEDERAL BANK,FDRL0001937,VEMBAYAM,"BUILDING NO.MP IX / 696 D, MANIKKAL VILLAGE M C ROAD,VEMBAYAM",THRIUVANANTHAPURAM,VEMBAYAM,KERALA,0
954,FEDERAL BANK,FDRL0001938,KOLKATA / ULTADANGA,"MERLIN WARDEN TF LAKEVIEW, BLOCK-SUPERIOR, 104, BIDHANNAGAR ROAD,",KOLKATA,KOLKATA,WEST BENGAL,0
955,FEDERAL BANK,FDRL0001939,CHIKODI,"HOUSE NO.3450, SADGURU PREMNIVAS,,INDIRANAGAR BELGAUM DISTRICT",BELGAUM,CHIKODI,KARNATAKA,0
956,FEDERAL BANK,FDRL0001940,VASCO,"GROUND FLOOR, ANGEL HEIGHTS OPP. TO PAI NURSING HOME, VADEM,VASCO-DA-GAMA",GOA,VASCO,GOA,0
957,FEDERAL BANK,FDRL0001941,MUVATTUPUZHA (EAST),"ONE WAY JUNCTION MARKET P.O, MUVATTUPUZHA",ERNAKULAM,MUVATTUPUZHA,KERALA,0
958,FEDERAL BANK,FDRL0001942,PARIYARAM,"ST PETER S CHURCH BUILDING POOVATHUNGAL, PARIYARAM P O , CHALAKUDY (VIA)",THRISSUR,THRISSUR,KERALA,0
959,FEDERAL BANK,FDRL0001943,HYDERABAD / VANASTHALIPURAM,"D NO 5-5-148/P4,PLOT NO 4,VANASTHALI HILLS, NEAR PANAMA GODOWN,VANASTHALIPURAM",HYDERABAD,HYDERABAD,ANDHRA PRADESH,0
960,FEDERAL BANK,FDRL0001944,CHANDIGARH / SECTOR 38 D,"SCO 310, SECTOR 38D,",CHANDIGARH,CHANDIGARH,CHANDIGARH,0
961,FEDERAL BANK,FDRL0001945,RAIPUR/ SHANKAR NAGAR,"18/1421, NEW SHANTI NAGAR, SHANKAR NAGAR P O,",RAIPUR,RAIPUR,CHANDIGARH,0
962,FEDERAL BANK,FDRL0001946,PUNE / TILAK ROAD,"GROUND FLOOR, SHREE KRISHNA COMPLEX, 1026 SHUKRAWAR PETH, TILAK ROAD",PUNE,PUNE,MAHARASHTRA,0
963,FEDERAL BANK,FDRL0001947,PATHADIPPALAM,"GROUND FLOOR,  ELLICKAL ESTATE BUILDING N H 47, EDAPPALLY P O, PATHADIPPALAM",ERNAKULAM,ERNAKULAM,KERALA,0
964,FEDERAL BANK,FDRL0001948,MARAMPALLY,"PUTHUMANAKUDY BUILDING MARAMPALLY P O, ALUVA",ERNAKULAM,MARAMPILLY,KERALA,0
965,FEDERAL BANK,FDRL0001949,ERNAKULAM / ELAMAKKARA,"BLDG NO.337-J, PERANDOOR VAYANASALA,  ELAMAKKARA, ELAMAKKARA PO,",ERNAKULAM,ERNAKULAM,KERALA,0
966,FEDERAL BANK,FDRL0001950,MANIMALA,"PADINJAREMURIYIL BUILDINGS, MOONGANI, MANIMALA  P. O",KOTTAYAM,KOTTAYAM,KERALA,0
967,FEDERAL BANK,FDRL0001951,BHARANIKKAVU,"GROUND FLOOR, TAJMAHAL SHOPPING COMPLEX KOLLAM",KOLLAM,BHARANIKAVU,KERALA,0
968,FEDERAL BANK,FDRL0001952,KURICHY,"ARACKATHARA BUILDINGS NEAR OUT POST JUNCTION, KURICHY",KOTTAYAM,KOTTAYAM,KERALA,0
969,FEDERAL BANK,FDRL0001953,TRIKARIPUR,"CITY SQUARE, RAILWAY STATION ROAD, TRIKARIPUR",KASARAGODE,KASARAGODE,KERALA,0
970,FEDERAL BANK,FDRL0001954,THIRUVAMBADY,"K.J.T SHOPPING COMPLEX, KOODARANHI ROAD KOZHIKODE DIST",KOZHIKODE,THIRUVAMBADI,KERALA,0
971,FEDERAL BANK,FDRL0001955,BALUSSERY,"THRIPURA BULDING, OPPOSITE PWD REST HOUSE NEAR PANCHAYATH OFFICE  , KOZHIKODE DIST",KOZHIKODE,BALUSSERY,KERALA,0
972,FEDERAL BANK,FDRL0001956,TINDIVANAM,"NO.23A, RAJAJI STREET, TINDIVANAM VILLUPURAM (DIST)",VILLUPURAM,VILLUPURAM,TAMIL NADU,0
973,FEDERAL BANK,FDRL0001957,KINATHUKADAVU,"DOOR NO.119, COIMBATORE-POLLACHI MAIN ROAD COIMBATORE DISTRICT",COIMBATORE,KINATHUKADAVU,TAMIL NADU,0
974,FEDERAL BANK,FDRL0001958,BHIWADI,"SHOP NOS.A-12 & 13, BHAGAT SING COLONY ALWAR BYPASS ROAD, BHIWADI, ALWAR (DIST)",ALWAR,BHIWADI,RAJASTHAN,0
975,FEDERAL BANK,FDRL0001959,CHIPLUN,"GROUND FLOOR,JEEVAN JYOTHI BUILDING SHIVAJI NAGAR,MUMBAI-GOA HIGHWAY",RATNAGIRI,CHIPLUN,MAHARASHTRA,0
976,FEDERAL BANK,FDRL0001960,KHANAPUR,"ROOM NO. A4, MANGIRISH BUILDING OPP. MUNICIPAL BUS STAND  , BELGAUM DISTRICT",BELGAUM,KHANAPUR,KARNATAKA,0
977,FEDERAL BANK,FDRL0001961,GONIKOPAL,"SUDHARMA BUILDING, NEAR MASJID PONNAMPET ROAD JN., MAIN ROAD, KODAGU DIST",KODAGU,GONIKOPPAL,KARNATAKA,0
978,FEDERAL BANK,FDRL0001962,MOODABIDRI,NEXT TO HOTEL PANCHARATNA BUILDING D. KANNADA DISTRICT,KANNADA,MOODABIDRI,KARNATAKA,0
979,FEDERAL BANK,FDRL0001963,KARKALA,OPP. BUNDIMATT  BUS STAND UDUPI (DIST),UDUPI,KARKALA,KARNATAKA,0
980,FEDERAL BANK,FDRL0001964,KENGERI,"D.NO.NO.737,KOMMAGHATTA MAIN ROAD, KENGERI SATELLITE TOWN, BANGALORE,",KENGERI,KENGERI,KARNATAKA,0
981,FEDERAL BANK,FDRL0001965,AGARTALA,"PREMISES NO.824,JAGANNATH BARI ROAD, BEHIND JAGANNATH TEMPLE",WEST TRIPURA,AGARTALA,TRIPURA,0
982,FEDERAL BANK,FDRL0001966,GUWAHATI/SILPUKHURI,"GOGOI TOWER, OPPOSITE TO GUWAHATI CLUB G.N.B. ROAD, SILPUKHURI, KAMRUP(DIST)",KAMRUP,GUWAHATI,ASSAM,0
983,FEDERAL BANK,FDRL0001967,KOHIMA,"KROS PLAZA, T.C.P.GATE NAGALAND",ADILABAD,KOHIMA,NAGALAND,0
984,FEDERAL BANK,FDRL0001968,PANRUTI,"11A/2, CUDDALORE MAIN ROAD CUDDALORE (DIST)",CUDDALORE,PANRUTI,TAMIL NADU,0
985,FEDERAL BANK,FDRL0001969,ARUPPUKOTTAI,"DOOR NO.187 D, MADURAI ROAD, ARUPPUKOTTAI,VIRUDHNAGAR DISTRICT",VIRUDHUNAGAR,ARUPPUKOTTAI,TAMIL NADU,0
986,FEDERAL BANK,FDRL0001970,KULAPPULLY,"PATTAMBI ROAD SHORANUR, PALAKKAD DISTRICT",PALAKKAD,KOLAPPULLY,KERALA,0
987,FEDERAL BANK,FDRL0001971,KUNNAMANGALAM,"SREELAKSHMI COMPLEX, KOZHIKODE",KOZHIKODE,KUNNAMANGALAM,KERALA,0
988,FEDERAL BANK,FDRL0001972,CHITTILAPPILLY,"IES COMPLEX CHITTILAPPILLY, THRISSUR (DIST)",THRISSUR,CHITTILAPPILLY,KERALA,0
989,FEDERAL BANK,FDRL0001973,SGMC EXTN COUNTER,"SREE GOKULAM MEDICAL COLLEGE AND RESEARCH FOUNDATION, MC ROAD VENJARAMOODU, THIRUVANANTHAPURAM, 695607",THIRUVANANTHAPURAM,VENJARAMOODU,KERALA,2875999
990,FEDERAL BANK,FDRL0001974,KAPURTHALA,"SULTHANPUR ROAD,KAPURTHALA P O , KAPURTHALA DISTRICT, PUNJAB 144601",KAPURTHALA,KAPURTHALA,PUNJAB,230307
991,FEDERAL BANK,FDRL0001975,SUNAM,"B / II-10-12, MATA MODI ROAD SANGRUR DISTRICT",SANGRUR,SUNAM,PUNJAB,0
992,FEDERAL BANK,FDRL0001976,SANGRUR,"MAIN GAUSHALA ROAD, OPPOSITE NEW GRAIN MARKET SANGRUR DIST",SANGRUR,SANGRUR,PUNJAB,0
993,FEDERAL BANK,FDRL0001977,BARABANKI,"SHRI SAI PLAZA, 509, MINOBRI, FAIZABAD ROAD,",BARABANKI,BARABANKI,UTTAR PRADESH,0
994,FEDERAL BANK,FDRL0001978,MURADNAGAR,"GROUND FLOOR, SHREE BALAJI TRADERS DELHI MEERUT ROAD, NEAR 32ND MILESTONE,",GHAZIABAD,MURADNAGAR,UTTAR PRADESH,0
995,FEDERAL BANK,FDRL0001979,MUMBAI/ IC COLONY BORIVILI,"SHOP NOS. 4 & 5, GROUND FLR., POONAM RESIDENC HOLY CROSS ROAD EXTN,I.C COLONY,BORIVILI WEST",MUMBAI SUBURBAN,MUMBAI,MAHARASHTRA,0
996,FEDERAL BANK,FDRL0001980,NEW DELHI/HAUZ KHAS,"E-48,HAUZ KHAS MARKET",NEW DELHI,NEW DELHI,DELHI,0
997,FEDERAL BANK,FDRL0001981,LUCKNOW / VIKAS NAGAR,"C 2/78, VIKAS NAGAR, MAMA CHOURAHA, VIKAS NAGAR,",LUCKNOW,LUCKNOW,UTTAR PRADESH,0
998,FEDERAL BANK,FDRL0001982,COIMBATORE/ PAPANAIKAN PALAYAM,KATTOOR STREET PAPPANAICKENPALAYAM,COIMBATORE,COIMBATORE,TAMIL NADU,0
999,FEDERAL BANK,FDRL0001983,MANDI GOBINDGARH,"GROUND FLOOR,G.T.ROAD, OPP BUS STAND,MANDI GOBINDGARH",MANDI,MANDI GOBIND GARH,PUNJAB,0
1000,FEDERAL BANK,FDRL0001984,KOMBODINJAMAKKAL,"M.A.M. BUILDING,BUILDING NO.14/823-B JUMA MASJID ROAD,P. O. THAZHEKKAD",THRISSUR,THRISSUR,KERALA,0
1001,FEDERAL BANK,FDRL0001985,KOLKATA / VIP ROAD,"SIDDHI APARTMENTS, 71, TEGHORIA, VIP ROAD, P.S. RAJARHAT,",KOLKATA,KOLKATA,WEST BENGAL,0
1002,FEDERAL BANK,FDRL0001986,BHATKAL,"MISBAH CHAMBERS, RANGINKATTA, NH 17 UTTAR KANNADA ( DIST)",UTTAR KANNADA,BHATKAL,KARNATAKA,0
1003,FEDERAL BANK,FDRL0001987,CHANNARAYAPATNA,"GROUND FLOOR,MADHU COMPLEX, MYSORE ROAD, HASSAN DIST.",HASSAN,CHANNARAYAPATNA,KARNATAKA,0
1004,FEDERAL BANK,FDRL0001988,HIRIYUR,"PRASHANTHA NILAYA MAIN ROAD, HIRIYUR",CHITRADURGA,CHITRADURGA,KARNATAKA,0
1005,FEDERAL BANK,FDRL0001989,HUNSUR,"BM ROAD, OPP. VIJAYA BANK, MYSORE DIST.",MYSORE,HUNSUR,KARNATAKA,0
1006,FEDERAL BANK,FDRL0001990,TIPTUR,"156 & 157 , OPP JANATA DELUXE LODGE VINAYAKA NAGARA,OFF B H ROAD,TIPTUR",TUMKUR,TUMKUR,KARNATAKA,0
1007,FEDERAL BANK,FDRL0001991,DHARAPURAM,"NO.163-A, MUTHU COMPLEX,  NACHIMUTHUPUDUR TIRUPUR",TIRUPUR,DHARAPURAM,TAMIL NADU,0
1008,FEDERAL BANK,FDRL0001992,BONGAIGAON,"BOC GATE,CHAPAGURI PWD ROAD",BONGAIGAON,BONGAIGAON,ASSAM,0
1009,FEDERAL BANK,FDRL0001993,KRISHNAGIRI,"DOOR NO 76/4, GROUND FLOOR, 2ND CROSS STREET, CO-OPERATIVE COLONY, KRISHNAGIRI DIST.",KRISHNAGIRI,KRISHNAGIRI,TAMIL NADU,0
1010,FEDERAL BANK,FDRL0001994,NAWANSHAHR,"CORPORATE PARK, GROUND FLOOR, BANGA ROAD,",NAWANSHAHR,NAWANSHAHR,PUNJAB,0
1011,FEDERAL BANK,FDRL0001995,MUNDRA,"SHAHI COMPLEX, OPP.HOTEL BANSIDHAR PALACE MIRZA CORNER,PORT ROAD",KUTCH,KUTCH,GUJARAT,0
1012,FEDERAL BANK,FDRL0001996,THRICHATTUKULAM,"K.N THANKAPPAN NAIR MEMORIAL BLDG, CHERTHALA- AROOKUTTY ROAD ,ALAPPUZHA DISTRICT",ALAPUZHA,THRICHATTUKULAM,KERALA,0
1013,FEDERAL BANK,FDRL0001997,KANNUR/TALAP,"R M APARTMENTS, NH 17,CIVIL STATION POST NEAR MAKKANI,TALAP",KANNUR,KANNUR,KERALA,0
1014,FEDERAL BANK,FDRL0001998,PADAPPANAL,"GLOBAL BUILDING, PADAPPANAL THEVALAKKARA P O",KOLLAM,KOLLAM,KERALA,0
1015,FEDERAL BANK,FDRL0001999,KOTHAMANGALAM TOWN,"C P BAWA TOWER, MUVATTUPUZHA ROAD,",ERNAKULAM,KOTHAMANGALAM,KERALA,2822249
1016,FEDERAL BANK,FDRL0002000,PARADIP,"GROUND FLOOR, OCEAN CASTLE, UDAYBATTA, NEAR PPL CHHAK, PARADIP PORT (PO) , JAGATSINGHPUR",ADILABAD,PARADIP,ODISHA,0
1017,FEDERAL BANK,FDRL0002001,JATANI,"JAGADAMBA COMPLEX, NEAR DAMANUEI TEMPLE, KHURDA ROAD, KHURDA (DIST.)",KHURDA,JATANI,ODISHA,0
1018,FEDERAL BANK,FDRL0002002,DIBRUGARH,NEAR RAJIV BHAVAN MANCOTTA ROAD,DIBRUGARH,DIBRUGARH,ASSAM,0
1019,FEDERAL BANK,FDRL0002003,KUNDANNOOR,"GROUND FLOOR, AMV TOWERS, NH-47 BYEPASS KUNDANNOOR, MARADU,",ERNAKULAM,ERNAKULAM,KERALA,0
1020,FEDERAL BANK,FDRL0002004,EROOR,"VENDRAPPILLY BUILDING ,  NEAR POTTAYIL TEMPLE EROOR SOUTH PO, TRIPUNITHURA",ERNAKULAM,ERNAKULAM,KERALA,0
1021,FEDERAL BANK,FDRL0002005,KOONAMMAVU,"JOYS ARCADE OPP CHAVARA DARSHAN CMI PUBLIC SCHOOL,KOONAMAVU,ERNAKULAM,683518",ERNAKULAM,ERNAKULAM,KERALA,0
1022,FEDERAL BANK,FDRL0002006,THIRUVALLA/MUTHOOR,"GROUND FLOOR, FUSION CENTRE,M C ROAD, MUTHOOR,THIRUVALLA, PATHANAMTHITTA",PATHANAMTHITTA,TIRUVALLA,KERALA,0
1023,FEDERAL BANK,FDRL0002007,KINNIGOLI,"C4 AND C5,PRINTOS GOLDEN CASTLE,TALIPADY ROAD, NEXT TO BSNL OFFICE,KINNIGOLI,DAKSHIN KANNAD 574150",DAKSHIN KANNAD,KINNIGOLI,KARNATAKA,82271998
1024,FEDERAL BANK,FDRL0002008,GUDIYATHAM,"DOOR NO.54, KOSA ANNAMALAI STREET, AMBAPURAM,GUDIYATTAM,VELLORE DISTRICT",VELLORE,GUDIYATHAM,TAMIL NADU,0
1025,FEDERAL BANK,FDRL0002009,AMBUR,"DOOR NO.88/6 , GROUND FLOOR, BYE PASS ROAD, VELLORE DISTRICT,",VELLORE,AMBUR,TAMIL NADU,0
1026,FEDERAL BANK,FDRL0002010,VIRUDHUNAGAR,"DOOR NO.74,SUKADI COMPLEX, RAILWAY FEEDER ROAD",VIRUDHUNAGAR,VIRUDHUNAGAR,TAMIL NADU,0
1027,FEDERAL BANK,FDRL0002011,KOVILPATTI,"NO.62/1, NEW ROAD NEAR RAILWAY STATION, KOVILPATTI",TOOTHUKUDI,TUTICORIN,TAMIL NADU,0
1028,FEDERAL BANK,FDRL0002012,KADABA,"GROUND FLOOR, ANUGRAHA COMPLEX MAIN ROAD, DAKSHINA KANNADA DISTRICT",DAKSHINA KANNADA,KADABA,KARNATAKA,0
1029,FEDERAL BANK,FDRL0002013,THOKOTTU,"OPP. THOKOTTU BUS STAND, NH 17, PERMANNUR PO, THOKOTTU JN.",THOKOTTU,THOKOTTU,KARNATAKA,0
1030,FEDERAL BANK,FDRL0002014,KUNDAPURA,"MUNICIPAL MAIN ROAD, NEAR OLD BUS STAND,",KUNDAPURA,KUNDAPURA,KARNATAKA,0
1031,FEDERAL BANK,FDRL0002015,MEMARI,"HOSPITAL MORE, WARD NO.08 BURDWAN DIST,",BARDDHAMAN,MEMARI,WEST BENGAL,0
1032,FEDERAL BANK,FDRL0002016,DHARMAPURI,"NO: 22 A, P R SUNDARAM IYER STREET DHARMAPURI DIST, TAMIL NADU",DHARMAPURI,DHARMAPURI,TAMIL NADU,0
1033,FEDERAL BANK,FDRL0002017,KULATHUPUZHA,CHIRAYATHU BUILDING KULATHUPUZHA  P O,KOLLAM,KOLLAM,KERALA,0
1034,FEDERAL BANK,FDRL0002018,POOVAR,NEAR BHASURAM FUELS THIRUVANANTHAPURAM,THIRUVANANTHAPURAM,POOVAR,KERALA,0
1035,FEDERAL BANK,FDRL0002019,ARIYALUR,"NO 34 MVM COMPLEX, PONNUSWAMY ARANMANAI STREET, ARIYALUR P O , ARIYALUR",ARIYALUR,ARIYALUR,TAMIL NADU,221111
1036,FEDERAL BANK,FDRL0002020,VILLUPURAM,"DOOR NO.25 D, K.K. ROAD,",VILLUPURAM,VILLUPURAM,TAMIL NADU,0
1037,FEDERAL BANK,FDRL0002021,CHIKKABALLAPUR,"NO 1153/3, BB ROAD CHIKKABALLAPUR",CHIKKABALLAPUR,CHIKKABALLAPUR,KARNATAKA,0
1038,FEDERAL BANK,FDRL0002022,ANGUL,"SHANKAR CINEMA ROAD, ANGUL TOWN",ANGUL,ANGUL,ODISHA,0
1039,FEDERAL BANK,FDRL0002023,BHADRAKH,"GROUND FLOOR, ADITI COMMERCIAL COMPLEX, GOPABANDHUNAGAR,  CHARAMPA(PO),",BHADRAKH,BHADRAKH,ODISHA,0
1040,FEDERAL BANK,FDRL0002024,GHOR DAUR CHOTI,"SRIPALLY(PO), BURDWAN",BARDDHAMAN,GHOR DOUR CHATI,WEST BENGAL,0
1041,FEDERAL BANK,FDRL0002025,DAMAN,"SHOP NO 6 TO 11, MANCHHA EMPIRE, MASHAL CHOWK, KATHIRIA VILLAGE, NANI DAMAN ,",DAMAN,DAMAN,DAMAN AND DIU,0
1042,FEDERAL BANK,FDRL0002026,PANOOR,PUTHOOR ROAD PANOOR,KANNUR,KANNUR,KERALA,0
1043,FEDERAL BANK,FDRL0002027,PAYYAVOOR,"DOOR NO. 3433, BEMBUA JUNCTION, HILL HIGHWAY PAYYAVUR",KANNUR,KANNUR,KERALA,0
1044,FEDERAL BANK,FDRL0002028,CHITTUMALA,"CHANDRAVIL  BUILDING EAST KALLADA  P.O,",KOLLAM,KOLLAM,KERALA,0
1045,FEDERAL BANK,FDRL0002029,KOLAKKAD,"CHEMBARATHY BUILDING, KOLAKKAD P O, KANNUR DIST.,",KANNUR,KOLAKKAD,KERALA,0
1046,FEDERAL BANK,FDRL0002030,ARSIKERE,"NEAR LIC OFFICE BH ROAD, ARSIKERE",HASSAN,HASSAN,KARNATAKA,0
1047,FEDERAL BANK,FDRL0002031,LULU MALL - KOCHI,"S 65,LULU INTERNATIONAL SHOPPING MALL PVT LTD DOOR NO. 34/1000,NH 47, EDAPPALLY",ERNAKULAM,KOCHI,KERALA,0
1048,FEDERAL BANK,FDRL0002032,KONGAD,"GALAXY COMPLEX, NEAR KONGAD BUS STAND PATHIRIPPALA ROAD, KONGAD, PALAKKAD - 678631",PALAKKAD,KONGAD,KERALA,0
1049,FEDERAL BANK,FDRL0002033,VANIAMKULAM,"THOMSON TRADERS BUILDING, PALAKKAD MAIN ROAD, VANIYAMKULAM, PALAKKAD",PALAKKAD,VANIYAMKULAM,KERALA,0
1050,FEDERAL BANK,FDRL0002034,MAYYANAD,"GROUND FLOOR, CHETTIAR BUILDING, XIV/255 MAYYANAD",KOLLAM,KOLLAM,KERALA,0
1051,FEDERAL BANK,FDRL0002035,POOYAPPALLY,"CHAMAVILA ALENCY PLAZA, POOYAPPALLY PO",KOLLAM,KOLLAM,KERALA,0
1052,FEDERAL BANK,FDRL0002036,MANGALAPURAM,"SHANMUGHA VILASOM MANGALAPURAM,  THONNAKKAL P O",THIRUVANANTHAPURAM,THIRUVANANTHAPURAM,KERALA,0
1053,FEDERAL BANK,FDRL0002037,THODUPUZHA / VENGALLOOR,"BUILDING NO.80 F,  ANIMOOTTIL BUILDINGS VENGALLOOR P  O,  THODUPUZHA",IDUKKI,IDUKKI,KERALA,0
1054,FEDERAL BANK,FDRL0002038,ALAMCODE,"GROUND FLOOR,  AKM BUILDINGS, OPP:ALAMCODE JUMA MASJID,ALAMCODE PO,ATTINGAL",THIRUVANANTHAPURAM,THIRUVANANTHAPURAM,KERALA,0
1055,FEDERAL BANK,FDRL0002039,PEYAD,NEDUGANAL PEYAD  P O,THIRUVANANTHAPURAM,THIRUVANANTHAPURAM,KERALA,0
1056,FEDERAL BANK,FDRL0002040,KADAMPANAD,"D NO 137- A & B, OPP. ST THOMAS ORTHODOX CATHEDRAL, PATHANAMTHITTA,",PATHANAMTHITTA,KADAMPANAD,KERALA,0
1057,FEDERAL BANK,FDRL0002041,SADAR EXTENSION COUNTER,"THE NAGPUR LEARNING CENTER , 177 KAMPTEE ROAD, OPP SFS CHURCH ROAD, MOHANNAGAR, NAGPUR, 440001",NAGPUR,NAGPUR,MAHARASHTRA,2527388
1058,FEDERAL BANK,FDRL0002042,SILVASSA,"GROUND FLOOR,VIJAY BHAVAN COMPLEX NAROLI-SILVASSA MAIN ROAD",DADRA AND NAGAR HAVELI,SILVASSA,DADRA AND NAGAR HAVELI,0
1059,FEDERAL BANK,FDRL0002043,HAVERI,"C PLOT NO 30A, VIDYA NAGAR P B ROAD",HAVERI,HAVERI,KARNATAKA,0
1060,FEDERAL BANK,FDRL0002044,KURALI,"7-8, OPPOSITE KHALSA SCHOOL, NH-21, KURALI, DIST. S.A.S. NAGAR, PUNJAB - 140103",MOGA,KURALI,PUNJAB,0
1061,FEDERAL BANK,FDRL0002045,PANDANAD,"NSS KARAYOGA MANDIRAM BUILDING NEAR PANCHAYATH OFFICE,KEEZHVANMAZHI,APY DIST",ALAPUZHA,PANDANAD,KERALA,0
1062,FEDERAL BANK,FDRL0002046,UDUMALPETT,"CM TOWER , NO 67, KALYANI NAGAR, PALANI ROAD , UDUMALPETT P O ,TAMIL NADU , PIN CODE 642154",UDUMALPETT,UDUMALPETT,TAMIL NADU,220331
1063,FEDERAL BANK,FDRL0002047,KUTTIADY,"SIMAX TOWER, MARUTHONKARA ROAD, KUTTIADY",KOZHIKODE,KOZHIKODE,KERALA,0
1064,FEDERAL BANK,FDRL0002048,PUTHUR,"KINGINI BUILDINGS,OPP ST THOMAS FORANE CHURCH PUTHUR",THRISSUR,THRISSUR,KERALA,0
1065,FEDERAL BANK,FDRL0002049,MEPPAYUR,"T K SHOPPING MALL, PAYYOLI ROAD MEPPAYUR (P.O), KOZHIKODE DISTRICT",KOZHIKODE,MEPPAYUR,KERALA,0
1066,FEDERAL BANK,FDRL0002051,BARNALA,OPP RAM BAGH GATE NO 2 GRAIN MARKET ROAD,BARNALA,BARNALA,PUNJAB,0
1067,FEDERAL BANK,FDRL0002052,KOLLAKADAVU,"THAIVILAYIL BUILDING KIZHAKKEMUKKU,  ALAPUZHA DIST",ALAPUZHA,KOLLAKADAVU,KERALA,0
1068,FEDERAL BANK,FDRL0002053,GONDAL,"SHOP NO 1 TO 6, C.M. PALACE, PALACE ROAD RADHAKRISHNA NAGAR",RAJKOT,GONDAL,GUJARAT,0
1069,FEDERAL BANK,FDRL0002054,NANDANI,"OPP. NALAVADE BUILDING,SPORTS CORNER, NEAR GRAMPANCHAYAT OFFICE,KOLHAPUR",KOLHAPUR,NANDANI,MAHARASHTRA,0
1070,FEDERAL BANK,FDRL0002055,MIRGANJ,"MAIN ROAD, NEAR HATHUA MORE, MIRGANJ, GOPALGANJ (DIST)",GOPALGANJ,MIRGANJ,BIHAR,0
1071,FEDERAL BANK,FDRL0002056,GOPALGANJ,NEAR AMBEDKAR CHOWK CINEMA ROAD,GOPALGANJ,GOPALGANJ,BIHAR,0
1072,FEDERAL BANK,FDRL0002057,KODENCHERI,"J& B PLAZA, KODENCHERI, KOZHIKODE, KERALA 673580",KOZHIKODE,KOZHIKODE,KERALA,2236600
1073,FEDERAL BANK,FDRL0002058,SAMRALA,"NO.223, WARD NO.10 CHANDIGARH ROAD, SAMRALA",LUDHIANA,LUDHIANA,PUNJAB,0
1074,FEDERAL BANK,FDRL0002059,NAKODAR,"VISHAL TOWER, NOORMAHAL ROAD JALANDHAR (DIST)",JALANDHAR,NAKODAR,PUNJAB,0
1075,FEDERAL BANK,FDRL0002060,SIRHIND,"WARD NO.10,  BABA FATEH SINGH NAGAR NEAR AAM KHAS BHAG,FATEHGARH SAHIB,",FATEHGARH SAHIB,SIRHIND,PUNJAB,0
1076,FEDERAL BANK,FDRL0002061,FEROZEPUR,"GOLDEN SUN RISE TOWER THE MALL, FEROZEPUR CITY,",FEROZPUR,FEROZPUR,PUNJAB,0
1077,FEDERAL BANK,FDRL0002062,LASKANA,"23,24, GROUND FLOOR, MAHIDA NAGAR, SURAT- KAMREJ ROAD,LASKANA, SURAT",LASKANA,LASKANA,GUJARAT,0
1078,FEDERAL BANK,FDRL0002063,KUMBARIYA,"2/B, GR. FLOOR, SARTHY RESIDENCY SURAT - KADODARA ROAD",SURAT,KUMBARIYA,GUJARAT,0
1079,FEDERAL BANK,FDRL0002064,MIDC KAGAL,"PLOT P-43, FROSTEE ICE CREAM CHOWK FIVE STAR MIDC, KAGAL",KOLHAPUR,KOLHAPUR,MAHARASHTRA,0
1080,FEDERAL BANK,FDRL0002065,KHED,"BAHAR COMMERCIAL COMPLEX, BHARNE NAKA MUMBAI - GOA HIGHWAY, KHED, RATNAGIRI",RATNAGIRI,KHED,MAHARASHTRA,0
1081,FEDERAL BANK,FDRL0002066,THOTTABHAGOM,"GROUND FLOOR, MELAKAYIL BUILDING THOTTABHAGOM  P O , KAVIYOOR, TIRUVALLA",PATHANAMTHITTA,PATHANAMTHITTA,KERALA,0
1082,FEDERAL BANK,FDRL0002067,PULIKKAL,"CAPITAL TOWER,ALINGAL, PULIKKAL, MALAPPURAM DISTRICT",MALAPPURAM,MALAPPURAM,KERALA,0
1083,FEDERAL BANK,FDRL0002068,GHARAUNDA,"SHOP NO. 130-131, OPPOSITE RAILWAY ROAD G.T ROAD, GHARAUNDA",KARNAL,KARNAL,HARYANA,0
1084,FEDERAL BANK,FDRL0002069,TIRUPATHUR,"BLOCK NO.18, WARD NO.1,THIRUMAGAL THEATRE LANE, KRISHNAGIRI ROAD, RAMAKAPETTAI,",VELLORE,TIRUPATTUR,TAMIL NADU,0
1085,FEDERAL BANK,FDRL0002070,KUNIGAL,"KRS AGRAHARA, BM ROAD TUMKUR DISTRICT",TUMKUR,KUNIGAL,KARNATAKA,0
1086,FEDERAL BANK,FDRL0002071,B C ROAD (BANTWAL CROSS ROAD),"GROUND FLOOR,HISDUSTHAN TOWERS,OPP LIC OFFICE SANTHI ANGADI KAIKAMBA,B C ROAD (BANTWAL CROSS ROAD)",DAKSHINA KANNADA,B C ROAD (BANTWAL CROSS ROAD),KARNATAKA,0
1087,FEDERAL BANK,FDRL0002072,KULASEKHARA MANGALAM,"HRISHABHAM TOWERS, TOLL JUNCTION, KULASEKHARAMANGALAM P O,VAIKOM",KOTTAYAM,KOTTAYAM,KERALA,0
1088,FEDERAL BANK,FDRL0002073,MAKKARAPARAMBA,KAY TEE PLAZA MAKKARAPARAMBA P  O,MALAPPURAM,MALAPPURAM,KERALA,0
1089,FEDERAL BANK,FDRL0002074,MELOOR,"HAT COMPLEX, MELOOR JUNCTION MELOOR PO",THRISSUR,THRISSUR,KERALA,0
1090,FEDERAL BANK,FDRL0002075,KARUVANNUR,"SREE LAKSHMI COMPLEX,CHERIAPALAM, THRISSUR DIST",THRISSUR,KARUVANNUR,KERALA,0
1091,FEDERAL BANK,FDRL0002076,PULLUT,"THIRUTHOLI COMPLEX, NEAR V K RAJAN MEMORIAL S PULLUT, KODUNGALLORE",THRISSUR,THRISSUR,KERALA,0
1092,FEDERAL BANK,FDRL0002077,CHITTARIKKAL,ST. THOMAS CHRUCH BUILDING OPPOSITE NEW BUS STAND CHITTARIKKAL - 671326 KASARAGODE (DIST) KERALA,KASARAGODE,KASARAGODE,KERALA,0
1093,FEDERAL BANK,FDRL0002078,MAYYIL,"KRIPA COMPLEX,MAIN ROAD, MAYYIL P O",KANNUR,KANNUR,KERALA,2274227
1094,FEDERAL BANK,FDRL0002079,IRIKKUR,"FIRST FLOOR, BUS STAND BUILDING IRIKKUR, KANNUR(DIST.)",KANNUR,KANNUR,KERALA,0
1095,FEDERAL BANK,FDRL0002080,UPPALA,"CITY HEIGHTS,KAIKAMBA UPPALA",KASARAGODE,KASARAGODE,KERALA,0
1096,FEDERAL BANK,FDRL0002081,PARIPPALLY,"M S BUILDING, MAIN ROAD, PARIPPALLY, KOLLAM ( DIST.)",KOLLAM,PARIPPALLY,KERALA,0
1097,FEDERAL BANK,FDRL0002082,KOTTIYAM,"AMMA TOWERS,KOTTIYAM.P.O KOLLAM DIST,",KOLLAM,KOTTIYAM,KERALA,0
1098,FEDERAL BANK,FDRL0002083,PULIYOOR,"MARUTHOTHU BUILDINGS,KIZHAKKENADA, PULIYOOR P.O,CHENGANNUR",ALAPUZHA,ALAPUZHA,KERALA,2464632
1099,FEDERAL BANK,FDRL0002084,THALANAD,NELLUVELIL BUILDING THALANADU  P O,KOTTAYAM,KOTTAYAM,KERALA,0
1100,FEDERAL BANK,FDRL0002085,KALAVOOR,AISWARYA BUILDING KALAVOOR JUNCTION,ALAPUZHA,ALAPUZHA,KERALA,0
1101,FEDERAL BANK,FDRL0002086,CHIKKAJALA,"SHREE BYRAVESHWARA COMPLEX,NO 82/3,CHIKKAJALA BIAL ROAD,B LORE NORTH TALUK,BLORE RURAL DIST",BANGALORE,CHIKKAJALA,KARNATAKA,0
1102,FEDERAL BANK,FDRL0002088,PAZHAYANGADI,"FIRST FLOOR, SHOPPING COMPLEX, NEAR BUS STAND, MAIN ROAD,PAZHAYANGADI",KANNUR,KANNUR,KERALA,0
1103,FEDERAL BANK,FDRL0002089,PATTANAM,"NO.4/1, NEAR PATTANAM BUS STOP, PATTANAM MAIN ROAD,COIMBATORE",COIMBATORE,PATTANAM,TAMIL NADU,2270375
1104,FEDERAL BANK,FDRL0002090,PULI KUTHI,"D.NO.103, WARD NO.5, PANNAIPURAM VIA MAIN ROAD, THENI",THENI,PULI KUTHI,TAMIL NADU,0
1105,FEDERAL BANK,FDRL0002091,CHINNAOVULAPURAM,"D.NO.2,WARD.NO.6,MIDDLE STREET, THENI",THENI,CHINNAOVULAPURAM,TAMIL NADU,0
1106,FEDERAL BANK,FDRL0002092,ALAGAPURI,"WARD NO.1,RAJKUMAR COMPLEX,CUMBUM MAIN ROAD THENI",THENI,ALAGAPURI,TAMIL NADU,0
1107,FEDERAL BANK,FDRL0002093,GOKILAPURAM,"WARD NO.1, SURALI MAIN ROAD GOKILAPURAM, THENI",THENI,GOKILAPURAM,TAMIL NADU,0
1108,FEDERAL BANK,FDRL0002094,THUVARIMAN,"D.NO. 1/241, EAST STREET, THUVARIMAN",MADURAI,MADURAI,TAMIL NADU,0
1109,FEDERAL BANK,FDRL0002095,TIRUMALAIGIRI,"SY.NO.26/12, PLOT NO.10,SIVADAPURAM ROUTE NEAR CHEMMANTHITTU BUS STOP, TIRUMALAIGIRI PO",SALEM,SALEM,TAMIL NADU,0
1110,FEDERAL BANK,FDRL0002096,NILAVARAPATTI,"D.NO.5/538,THIRUMURUGAN COMPLEX, OPP. GOVT. H DASANAICKANPATTI P.O, SALEM",SALEM,NILAVARAPATTI,TAMIL NADU,0
1111,FEDERAL BANK,FDRL0002097,SOLAPALAYAM,"D.NO. 2/130, PALANIAMMAL LAYOUT UDUMALPET ROAD, POLLACHI, COIMBATORE",COIMBATORE,SOLAPALAYAM,TAMIL NADU,0
1112,FEDERAL BANK,FDRL0002098,VALUKKUPARAI,"DOOR NO2/3B OPP TO BSNL EXCHANGE,VALUKKUPARAI POST, OTHAKALMANDAPAM VIA",COIMBATORE,COIMBATORE,TAMIL NADU,0
1113,FEDERAL BANK,FDRL0002099,KIDARIPATTI,"D.NO.135 & 136, ALAGKOVIL MAIN ROAD KIDARPATTI P.O. MADURAI",MADURAI,KIDARIPATTI,TAMIL NADU,0
1114,FEDERAL BANK,FDRL0002100,MELAKKAL,"D.NO.3/93, THIRUMANGALAM MAIN ROAD MELAKKAL, VADIPATTI TK, MADURAI",MADURAI,MELAKKAL,TAMIL NADU,0
1115,FEDERAL BANK,FDRL0002101,PALATHURAI,"2/83,MURUGAN KOVIL STREET NACHIPALAYAM MAIN ROAD,COIMBATORE DIST.",COIMBATORE,PALATHURAI,TAMIL NADU,2622303
1116,FEDERAL BANK,FDRL0002102,ACHIPATTI,"DOOR NO.1/A2B,KOVAI MAIN ROAD POLLACHI,COIMBATORE",COIMBATORE,ACHIPATTI,TAMIL NADU,0
1117,FEDERAL BANK,FDRL0002103,ESANTHIMANGALAM,"BUILDING NO.4/1/3, NAVAL NAGAR COMPLEX NAVALKADU, ESANTHIMANGALAM, KANYAKUMARI",KANYAKUMARI,ESANTHIMANGALAM,TAMIL NADU,0
1118,FEDERAL BANK,FDRL0002104,SWAMITHOPE,"D. NO 104, OPP. SWAMITHOPE TEMPLE MELETHEURUVU,  KANYAKUMARI",KANYAKUMARI,SWAMITHOPE,TAMIL NADU,0
1119,FEDERAL BANK,FDRL0002105,THIRUPATHISARAM,"D.NO.3/11, KEEZHOOR ROAD KANYAKUMARI",KANYAKUMARI,THIRUPATHISARAM,TAMIL NADU,0
1120,FEDERAL BANK,FDRL0002106,DEVANAMPALAYAM,"D.NO.2/127, MULLUPADI KAPPALANKARAI ROAD DEVANAMPALAYAM, COIMBATORE",COIMBATORE,DEVANAMPALAYAM,TAMIL NADU,0
1121,FEDERAL BANK,FDRL0002107,KANNARPALAYAM,"D.NO. 1/336, ANNUR ROAD, KANNARPALAYAM, KARAMADAI, COIMBATORE",COIMBATORE,KANNARPALAYAM,TAMIL NADU,0
1122,FEDERAL BANK,FDRL0002108,SULAKKAL,"D.NO.1/147, EAST CAR STREET, SULAKKAL KINATHUKADAVU TK",COIMBATORE,COIMBATORE,TAMIL NADU,0
1123,FEDERAL BANK,FDRL0002109,RAMAPURAM,"D.NO.1/12, THIROOR VILLAGE VELLAMADAM P.O, KANYAKUMARI",KANYAKUMARI,RAMAPURAM,TAMIL NADU,0
1124,FEDERAL BANK,FDRL0002110,ODDANCHATRAM,"NO 2, THENDRAI NAGAR, DINDUGAL MAIN ROAD, ODDANCHATRAM P O , TAMIL NADU, 624919",MADURAI,MADURAI,TAMIL NADU,241020
1125,FEDERAL BANK,FDRL0002111,RANIBENNUR,"GUNGADATTI BUILDING,  OPP.KEB OFFICE PB ROAD, RANIBENNUR",HAVERI,HAVERI,KARNATAKA,0
1126,FEDERAL BANK,FDRL0002112,THIRUPALYA,"NEAR ELECTRONIC CITY,HEBGODI POST ANEKAL TALUK,BANGALORE URBAN DIST",BANGALORE,THIRUPALYA,KARNATAKA,0
1127,FEDERAL BANK,FDRL0002113,PALOOR,"DOOR NO:V/179, VETTUKKATTUVILAI PALOOR VILLAGE, KARINGAL P O,KANYAKUMARI DIST",KANYAKUMARI,PALOOR,TAMIL NADU,0
1128,FEDERAL BANK,FDRL0002114,CHOWARA,"THE FEDERAL BANK LTD,BUILDING NO: II/256E ST.MARYS BLDG,NEAR POST OFFICE,CHOWARA PO",ERNAKULAM,ERNAKULAM,KERALA,0
1129,FEDERAL BANK,FDRL0002115,THELLIYOOR,"VENNIKULAM VIA,THELLIYOOR P.O PATHANAMTHITTA DIST.",PATHANAMTHITTA,THELLIYOOR,KERALA,0
1130,FEDERAL BANK,FDRL0002116,KUNDLI,"SHOP NO 1 & 2, TDI MALL, KUNDLI",SONIPAT,SONEPAT,HARYANA,0
1131,FEDERAL BANK,FDRL0002117,KOPPAL,"KODANDAPPA COMPLEX,NEAR KIRAN PAINTS JAWAHAR ROAD,KOPPAL DIST",KOPPAL,KOPPAL,KARNATAKA,0
1132,FEDERAL BANK,FDRL0002118,PALAKKAL,"ANTONY PLAZA,PALAKKAL, PALISSERY P O,THRISSUR DIST",THRISSUR,THRISSUR,KERALA,0
1133,FEDERAL BANK,FDRL0002119,ANDATHODE,"NH17,KADIKKAD VILLAGE, PUNAYOORKULAM,THRISUR,KERALA,679854",THRISSUR,THRISSUR,KERALA,2545100
1134,FEDERAL BANK,FDRL0002120,MARATHAKKARA,"CJ ARCADE, SIGNAL JUNCTION, KUNJANAMPARA, MARATHAKARA P O, THRISSUR KERALA, 680306",THRISSUR,THRISSUR,KERALA,2353445
1135,FEDERAL BANK,FDRL0002121,EZHUMATTOOR,"BUILDING NO EP XIV 127A THANNICKAL BUILDINGS MULLAPALLY RANNI ROAD EZHUMATOOR PO,PATHANAMTHITTA KERALA",PATHANAMTHITTA,PATHANAMTHITTA,KERALA,0
1136,FEDERAL BANK,FDRL0002122,CHOMU,"THE FEDERAL BANK LTD, NEAR GOPAL TRACTOR JAIPUR ROAD , CHOMU , JAIPUR RAJASTHAN",JAIPUR,JAIPUR,RAJASTHAN,2360279
1137,FEDERAL BANK,FDRL0002123,AMBADI,"SHOP NO19-23, GROUND FLOOR, OM SAI,PARADISE,  BHIWANDI WADA ROAD, AMBADI,PO DIGHASI",THANA,THANA,MAHARASHTRA,0
1138,FEDERAL BANK,FDRL0002124,MIRA ROAD,"PENT HOUSE NO.2, EVERSHINING CLAVE,JAY SATYAM CHS LTD, BEHIND RASAZZ CINEMA,MIRA ROAD (E)",THANE,MUMBAI,MAHARASHTRA,0
1139,FEDERAL BANK,FDRL0002125,YETTACODE,"SHEBIN COMPLEX (GROUND FLOOR ), CHEVRACODE JU YETTACODE,VEEYANNOOR P O KANYAKUMARI DIST",KANYAKUMARI,YETTACODE,TAMIL NADU,0
1140,FEDERAL BANK,FDRL0002126,BORSAD,"SHOP NO. 55, 56,MAHATMA GANDHI GANJ BORSAD",ANAND,ANAND,GUJARAT,0
1141,FEDERAL BANK,FDRL0002127,JAMNAGAR,"OPP ST.ANN S SCHOOL,PATEL COLONY SUB POST OFFICE,JAMNAGAR 361008",JAMNAGAR,JAMNAGAR,GUJARAT,2555174
1142,FEDERAL BANK,FDRL0002128,PETLAD,"J  RAM HOUSE STATION ROAD, PETLAD",ANAND,ANAND,GUJARAT,0
1143,FEDERAL BANK,FDRL0002129,KAMOTHE,"SHOP NO.8-13,PREM AMBER BUILDING, PLOT NO.5 SECTOR-16,  NAVI MUMBAI",RAIGAD,KAMOTHE,MAHARASHTRA,0
1144,FEDERAL BANK,FDRL0002130,BARAMATI,"PLOT NO 1&2, BUILDING NO E, SANGHAVI TOWNSHIP,BHIGWAN ROAD,BARAMATI",PUNE,PUNE,MAHARASHTRA,0
1145,FEDERAL BANK,FDRL0002131,ERIPATTI,"BUILDING NO: 217, ERIPATTI P O, POLLACHI TALU COIMBATORE DIST",COIMBATORE,ERIPATTI,TAMIL NADU,0
1146,FEDERAL BANK,FDRL0002132,ARAKONAM,"SY NO 203 2 A4,BLOCK NO 14 ,WARD B,SHOLINGUR ROAD,ARAKONAM, VELLORE DISTRICT, RAMILNADU 631001",VELLORE,CHENNAI,TAMIL NADU,4963835
1147,FEDERAL BANK,FDRL0002133,BATHINDA,"GOYAL COMPLEX,BUILDING NO.3029, G.T.ROAD,BATHINDA DIST",BHATHINDA,BHATHINDA,PUNJAB,0
1148,FEDERAL BANK,FDRL0002134,KHANNA,"SCO 39-40, GROUND FLOOR,KHANNA CITY CENTRE G.T.ROAD, KHANNA,LUDHIANA DISTRICT",LUDHIANA,KHANNA,PUNJAB,0
1149,FEDERAL BANK,FDRL0002135,MUKTSAR CITY,"MAIN KKP ROAD,KHEWAT NO.1608, SRI.MUKTSAR SAHIB,",MUKTSAR,MUKTSAR,PUNJAB,0
1150,FEDERAL BANK,FDRL0002136,OMASSERY,C V COMPLEX OMASSERY,KOZHIKODE,KOZHIKODE,KERALA,0
1151,FEDERAL BANK,FDRL0002137,KARUKAPUTHUR,"THULASI DHALAM BUILDING, MAIN ROAD, NEAR NARASIMHAMOORTHY TEMPLE, CHAZHIYATTIRI PO",PALAKKAD,PALAKKAD,KERALA,0
1152,FEDERAL BANK,FDRL0002138,ALATHIYUR,"21/119, PURATHUR ROAD ALATHIYUR P.O,MALAPPURAM DISTRICT",MALAPPURAM,ALATHIYUR,KERALA,2106060
1153,FEDERAL BANK,FDRL0002139,KOZHIKODE/MEDICAL COLLEGE,"DOOR NO.30/721,HILL VIEW COMPLEX NEAR GOVT. MEDICAL COLLEGE",KOZHIKODE,KOZHIKODE,KERALA,0
1154,FEDERAL BANK,FDRL0002140,INDORE VIJAYANAGAR,"SHAGUN G1 & G2,PLOT NO.7,PU 4, SCHEME 54, AB ROAD,INDORE",INDORE,INDORE,MADHYA PRADESH,0
1155,FEDERAL BANK,FDRL0002141,ATHANI (THRISSUR),"SASTHA SHOPPING COMPLEX BYE PASS JUNCTION, ATHANI",THRISSUR,THRISSUR,KERALA,0
1156,FEDERAL BANK,FDRL0002142,INDORE PIPLIYAHANA,"C-3,BRAGESWARI EXTENSION,MAIN ROAD, IDA SCHEME NO.140,NEAR PIPLIYAHANA CHOURAHA,",INDORE,INDORE,MADHYA PRADESH,0
1157,FEDERAL BANK,FDRL0002143,UJJAIN,"GOPAL PLAZA,11 VARRUCHI MARG, NEAR SHAHEED PARK,FREEGANJ",UJJAIN,UJJAIN,MADHYA PRADESH,0
1158,FEDERAL BANK,FDRL0002144,MANDYA,"# 1119/B, KAMBALI BUILDING, ASHOKA NAGAR, M C ROAD",MANDYA,MANDYA,KARNATAKA,0
1159,FEDERAL BANK,FDRL0002145,KOZHIKODE ASSET RECOVERY,"4TH FLOOR,  DOOR NO. 11/416 M SONS ARCADE, CHEROOTY ROAD",KOZHIKODE,KOZHIKODE,KERALA,0
1160,FEDERAL BANK,FDRL0002146,THIRUVANANTHAPURAM/ ASSET RECO,"5TH FLOOR, FEDERAL TOWERS MG ROAD",THIRUVANANTHAPURAM,THIRUVANANTHAPURAM,KERALA,0
1161,FEDERAL BANK,FDRL0002147,NEW DELHI/ASSET RECOVERY,"1/7, FIRST FLOOR, PATEL ROAD, EAST PATEL NAGA  EAST PATEL NAGAR , NEW DELHI",NEW DELHI,NEW DELHI,DELHI,0
1162,FEDERAL BANK,FDRL0002148,KOLKATA/ASSET RECOVERY,"1ST FLOOR, REGENCY, 6, HUNGERFORD STREET, KOLKATA",KOLKATA,KOLKATA,WEST BENGAL,0
1163,FEDERAL BANK,FDRL0002149,DURGAPUR,"2/2 , NACHAN ROAD BENACHITY, DURGAPUR",DURGAPUR,KOLKATA,WEST BENGAL,0
1164,FEDERAL BANK,FDRL0002150,GHAZIABAD/VAISHALI,"EXPRESS GREENS,PLOT NO.GH 1/1, SECTOR  1,VAISHALI",GHAZIABAD,GHAZIABAD,UTTAR PRADESH,0
1165,FEDERAL BANK,FDRL0002151,GHAZIABAD VASUNDHRA,"GROUND FLOOR,C2,SECTOR 15,VASUNDHARA,VASUNDHARA PO,GHAZIABAD,U.P,PINCODE 201012",GHAZIABAD,SAHIBABAD,UTTAR PRADESH,5885486
1166,FEDERAL BANK,FDRL0002152,KOPPAM,"FIRST FLOOR,SEVANA BUILDING, OPP:PRIMARY HEALTH CENTRE,KOPPAM, PULASSERY P",PALAKKAD,PALAKKAD,KERALA,0
1167,FEDERAL BANK,FDRL0002153,KOLKATA BBD BAGH,"OLISA HOUSE,4,GOVERNMENT PLACE NORTH,GPO GENERAL POST OFFICE KOLKATA 700001",KOLKATA,KOLKATA,WEST BENGAL,2223076
1168,FEDERAL BANK,FDRL0002154,AGRA KAMALANAGAR,"D 525,KAMALA NAGAR,AGRA,KARAM YOGI ENCLAVE.P.O PINCODE 282005,U.P",AGRA,DAYAL BAGH,UTTAR PRADESH,2522955
1169,FEDERAL BANK,FDRL0002155,BALASORE,"GROUND FLOOR,CITY PLAZA, VIVEKANANDA MARG, BALESWAR P O",BALASORE,BALASORE,ODISHA,0
1170,FEDERAL BANK,FDRL0002156,NALLILA,"THE FEDERAL BANK LTD, GROUND FLOOR, KALLUVILAYIL BUILDING, NALLILA ,KOLLAM",KOLLAM,KOLLAM,KERALA,63633
1171,FEDERAL BANK,FDRL0002157,SIWAN,"CHAPRA ROAD, SHIWAN P O , SHIWAN,BIHAR",SIWAN,SIWAN,BIHAR,8507945641
1172,FEDERAL BANK,FDRL0002158,MUZAFFARPUR,"CHAKIA HOUSE,IMLI CHATTI MUZAFFARPUR.MUZAFFARPUR HEAD PO.BIHAR PIN 842001",MUZAFFARPUR,MUZAFFARPUR,BIHAR,2223076
1173,FEDERAL BANK,FDRL0002159,PATTAMUNDAI,"AGFC16& DRGC-17.GAJANAN BAZAR PATTAMUNDAI PO, KENDRAPARA DIST ODISHA",KENDRAPARA,PATTAMUNDAI,ODISHA,0
1174,FEDERAL BANK,FDRL0002160,DHENKANAL,"NEAR DISTRICT HQ HOSPITAL,CHANDAN BAZAR, DHENKANAL DT ODISHA PIN 759001",DHENKANAL,DHENKANAL,ODISHA,0
1175,FEDERAL BANK,FDRL0002161,THIRUVANANTHAPURAM/ PATTOOR,"SAMRUDHI ANUPAM,GROUND FLOOR, PATTOOR,VANCHIYOOR P O",THIRUVANANTHAPURAM,THIRUVANANTHAPURAM,KERALA,0
1176,FEDERAL BANK,FDRL0002162,KOLKATA RASHBEHARI AVENUE,"152,SP MUKHERJEE ROAD,KALIGHAT P O,KOLKATA DISTRICT,WEST BENGAL",KOLKATA,KOLKATA,WEST BENGAL,23990235
1177,FEDERAL BANK,FDRL0002163,HIRANDAHALLI,"SY. NO.81/1, HIRANDAHALLI MAIN ROAD OPP. ASWATHAKATTE,VIRGONAGAR P O",BANGALORE,BANGALORE,KARNATAKA,0
1178,FEDERAL BANK,FDRL0002164,CHAMBENAHALLI,"SY. NO.82/4C (PAPPANA COMPLEX), CHAMBENAHALLI SARJAPUR ROAD, BANGALORE",BANGALORE,BANGALORE,KARNATAKA,0
1179,FEDERAL BANK,FDRL0002165,DOMMASANDRA (BANGALORE EAST),"KHATA NO. 13 - GRAMATHANA, BIDARAHALLI HOBLI DOMMASANDRA (BANGALORE EAST), VIRGONAGAR P O",BANGALORE,BANGALORE,KARNATAKA,0
1180,FEDERAL BANK,FDRL0002166,BILLAPURA,"SY. NO.20, THYVAKANAHALLY SARJAPUR - ATTIBELE ROAD",BANGALORE,BANGALORE,KARNATAKA,0
1181,FEDERAL BANK,FDRL0002167,VISWESWARAYA LAYOUT,"VISWESWARAYA LAYOUT,SITE NO.2, SY. NO.68/3 (R MANGANAHALLI VILLAGE, KODIGEHALLI",BANGALORE,BANGALORE,KARNATAKA,0
1182,FEDERAL BANK,FDRL0002168,SURYA NAGAR,"SURYA NAGAR, B.NANJAPPA LAYOUT K.H.NO.168 & 169, BANAHALLI",BANGALORE,BANGALORE,KARNATAKA,0
1183,FEDERAL BANK,FDRL0002169,JANGAMAKOTE CROSS,"NO. 295, HOSAPET VILLAGE JANGAMAKOTE CROSS, SHIDLAGHTTA TALUK",CHIKKABALLAPUR,CHIKKABALLAPUR,KARNATAKA,0
1184,FEDERAL BANK,FDRL0002170,BALAGARANAHALLI,"SY. NO. 33/2, BALAGARANAHALLI, ATTIBELE HOBLI,ANEKAL TALUK",BANGALORE,BANGALORE,KARNATAKA,0
1185,FEDERAL BANK,FDRL0002171,KODATHI GATE,"ST. PATRICK ACADEMY CAMPUS, SARJAPUR ROAD,CARMELARAM P O",BANGALORE,BANGALORE,KARNATAKA,0
1186,FEDERAL BANK,FDRL0002172,HANDPOST,"SY. NO. 34/1A, YERAHALLI H.D.KOTE TALUK",MYSORE,MYSORE,KARNATAKA,0
1187,FEDERAL BANK,FDRL0002173,DASHAARI,"RATHORE PLAZA, NEAR DASHAARI CROSSING, OPP HYAT HOSPITAL, KAKORI PO",LUCKNOW,LUCKNOW,UTTAR PRADESH,0
1188,FEDERAL BANK,FDRL0002174,ANGAMALY EXTN COUNTER,"EXTENSION COUNTER, GROUND FLOOR, MOTHER & CHI LITTLE FLOWER HOSPITAL, M.C ROAD",ERNAKULAM,ANGAMALY,KERALA,0
1189,FEDERAL BANK,FDRL0002175,NABHA,"THE FEDERAL BANK LTD, BRANCH NABHA, SCF 6,7,8,DR AMBEDKAR MARKET, PATIALA GATE, NABHA",PATIALA,NABHA,PUNJAB,2300972
1190,FEDERAL BANK,FDRL0002176,SHIRATI,"H.NO. 304. HASUR ROAD, SHIRATI, TAL SHIROL,DIST. KOLHAPUR",KOLHAPUR,KOLHAPUR,MAHARASHTRA,0
1191,FEDERAL BANK,FDRL0002177,PANPOSH,"CIVIL TOWNSHIP,PANPOSH ROAD,ROURKELA 769004",SUNDARGARH,PANPOSH,ODISHA,0
1192,FEDERAL BANK,FDRL0002178,TRIVANDRUM SASTHAMANGALAM,"MPG MAPLE NEAR RKD NSS HSS, SASTHAMANGALAM P O , THIRUVANANTHAPURAM 695010",THIRUVANANTHAPURAM,THIRUVANANTHAPURAM,KERALA,2319191
1193,FEDERAL BANK,FDRL0002179,THIRUVANANTHAPURAM KURAVANKON,"KURAVANKON FEDERAL BANK , KURAVANKON 695003",THIRUVANANTHAPURAM,THIRUVANANTHAPURAM,KERALA,2311643
1194,FEDERAL BANK,FDRL0002180,THRISSUR POONKUNNAM,"POTTAKKAL VINCENT TOWER,POONKUNAM P O, THRISSUR 680002",THRISSUR,THRISSUR,KERALA,2384700
1195,FEDERAL BANK,FDRL0002181,VASNA,"UMA INDUSTRIAL ESTATE,NEAR BHAGYODYA HOTEL SANAND PO,  AHMEDABAD DT, GUJARAT-382110",AHMEDABAD,AHMEDABAD,GUJARAT,0
1196,FEDERAL BANK,FDRL0002182,MANKOL,"KARMABHUMI PETROLEUM, MANKOL CHOKADI AT POST TALUK SANAND, AHMEDABAD DT, GUJARAT- 3",AHMEDABAD,AHMEDABAD,GUJARAT,0
1197,FEDERAL BANK,FDRL0002183,SHAFIPUR RANHOLA,"SYNDICATE BANK,ATOHAN,P.O ASAWATA,TEHSIL AND DISTRICT PALWAL,DISTRICT PALWAL,HARYANA,121102",DELHI,DELHI,DELHI,25931866
1198,FEDERAL BANK,FDRL0002184,BHAIROPUR,"11TH MILE TIRAHA,VILLAGE BHAIROPUR,BHOPAL DISTRICT,MADHYA PRADESH,462047",BHOPAL,BHOPAL,MADHYA PRADESH,0
1199,FEDERAL BANK,FDRL0002185,KALYANI,"B 9 BY 14 CA,KALYANI P.O,NADIA DISTRICT,PINCODE 741235",NADIA,KALYANI,WEST BENGAL,0
1200,FEDERAL BANK,FDRL0002186,BARDHAMAN,"74 BC ROAD KALITALA,BARDHAMAN, WEST BENGAL,713101",BARDHAMAN,BARDHAMAN,WEST BENGAL,422140
1201,FEDERAL BANK,FDRL0002187,JALESHWAR,"HOUSE NO.174,NEW BUSSTAND ROAD,JHADESWARPUR PO,JALESWAR,BALESWAR,ODISHA 756032",BALESHWAR,JALESWAR,ODISHA,0
1202,FEDERAL BANK,FDRL0002188,MADURAI ANNA NAGAR,"FLAT NO 320, 80 FEET ROAD, ANNANAGAR P O , MADURAI, TAMIL NADU , 625020",MADURAI,MADURAI,TAMIL NADU,2525161
1203,FEDERAL BANK,FDRL0002189,KANKARBAGH,"B 146 KANKARBAHGH HOUSING COLONY,NLOHIYA NAGAR,NEAR PANCH SHIV MANDIR, PATNA 800020",PA,PATNA,WEST BENGAL,22384800
1204,FEDERAL BANK,FDRL0002190,HOSHIARPUR,"SCO2, CITY CENTRE, ROSHAN ROAD, NEAR BUS STAND, HOSHIARPUR, 146001, PUNJAB",HOSHIARPUR,HOSHIARPUR,PUNJAB,222853
1205,FEDERAL BANK,FDRL0002191,KANTABANJI,"ROAD NO 3,KANTABANJI,BOLANGIR DIST,ODHISHA 767039",BALANGIR,KANTABANJI,ODISHA,2314445
1206,FEDERAL BANK,FDRL0002192,BHAWANIPATNA,"JAGANNATH TEMPLE ROAD,BHAWANIPATNA,KALAHANDI,ODISHA,PINCODE 766001",KALAHANDI,BHAWANIPATNA,ODISHA,242111
1207,FEDERAL BANK,FDRL0002193,SHINGANAPUR,"GR FLOOR BUILDING NO.332, SHRI RAM VIVIDH KARYAKARI SAHAKARI SEVA SANSTHA MARYADIT,SHIN",KOLHAPUR,KOLHAPUR,MAHARASHTRA,0
1208,FEDERAL BANK,FDRL0002194,MOTA BORSARA,"SHREE LAXMI COMPLEX,NAVAPURA PATIA,MOTA BORSARA,DIST SURAT,GUJARAT,PINCODE 394110",KIM,KIM,GUJARAT,2243214
1209,FEDERAL BANK,FDRL0002195,PIPODARA,"SHOP NO 1,2,3,FORTUNE PLAZA,VISHAKARMA NAGAR,PIPODRA GIDC,PIPODRA,DIST SURAT,PINCODE 396002",KIM,KIM,GUJARAT,2355344
1210,FEDERAL BANK,FDRL0002196,BAGALKOT,"PREMA ARCADE,NERA ENGINEERING COLLEGE VIDYAGIRI P O ,BAGALKOT DISTRICT KARNATAKA,587102",BAGALKOT,BAGALKOT,KARNATAKA,451439
1211,FEDERAL BANK,FDRL0002197,BHARWARA,"NEAR RAILWAY CROSSING,BARA BHARWARA,CHINHAT,LUCKNOW,GOMTI NAGAR.S.O.P.O,U.P,226010",MAHOBA,BHARWARA,UTTAR PRADESH,2391868
1212,FEDERAL BANK,FDRL0002198,BANGALORE SADASHIVANAGAR,"NO 88 ,KEERTHI , 2ND MAIN, PALACE GUTTAHALLI P O , BANGALORE , KARNATAKA",BANGALORE,BANGALORE,KARNATAKA,9916352599
1213,FEDERAL BANK,FDRL0002199,"WIPRO PARK, KORAMANGALA","ANNAPOORNA COMPLEX, OPP WIPRO PARK,NO 6TH 7TH MAIN,80 FEET ROAD 3RD BLOCK,KORAMANGALA PO, BANGALORE",BANGALORE,KORAMANGALA,KARNATAKA,25504450
1214,FEDERAL BANK,FDRL0002200,BARGARH,"DAMODER BHAVAN,1 BY F OF RTO OFFICE,NH6 ROAD,BARGARH,ODHISHA 768028",BARGARH,BARGARH,ODISHA,2588170
1215,FEDERAL BANK,FDRL0002201,BANGALORE,"GARDEN CITY COLLEGE,16TH KM OLD MADRAS ROAD,VIRGONAGAR POST,BANGALORE URBAN DIST,BANGALORE 560049",BANGALORE URBAN,BANGALORE,KARNATAKA,66487637
1216,FEDERAL BANK,FDRL0002202,KOTTAYAM NAGAMPADAM,"THEKKANAT ARCADE, MC ROAD, SH MOUNT P O, KOTTAYAM 686006",KOTTAYAM,KOTTAYAM,KERALA,258631
1217,FEDERAL BANK,FDRL0002204,THIRUVANANTHAPURAM  VATTIYOORKAVU,"SWASTHIKA, KANJIRAMPARA P O ,VATTIYOORKAVU, THIRUVANANTHAPURAM, KERALA",THIRUVANANTHAPURAM,THIRUVANANTHAPURAM,KERALA,2366642
1218,FEDERAL BANK,FDRL0002205,THIRUVANANTHAPURAM  SREEKARIYAM,"SUMAJ COMPLEX, CHAVADIMUKKU, SREEKARYAM P O , THRUVANANTHAPURAM DIST, 695017",THIRUVANANTHAPURAM,THIRUVANANTHAPURAM,KERALA,2598859
1219,FEDERAL BANK,FDRL0002207,KASIDHARMAM,"NO 4 BY 64 KADAYANALLUR MAIN ROAD,KASIDHARMAM,TIRUNELVELI DISTRICT,TAMIL NADU,PIN 627 751",TIRUNELVALI,KADAYANALLUR,TAMIL NADU,3260222
1220,FEDERAL BANK,FDRL0002208,CHINCHWAD,"BUILDING NO.6 BY 1,R.S.NO.383 MUSLIM LANE MAIN ROAD,CHINCHWAD TALUKA KARVEER,PINCODE 416119",KOLHAPUR,GANDHINAGAR,MAHARASHTRA,227407
1221,FEDERAL BANK,FDRL0002209,VADATHORASALUR,"NO.B 13,THIRUKOVILUR RD,RAJESWARI NAGAR,VADATHORASALUR,THIYAGADURGAM,VILLUPURAM,TN 606206",VILLUPURAM,THIYAGADURGAM,TAMIL NADU,1222076
1222,FEDERAL BANK,FDRL0002210,SEHORE,"PLOT NO.583,BLOCK NO.3,NEAR BUS STAND,CHOWNI AREA,SEHOE.P.O,SEHORE DISTRICT,M.P,466001",SEHORE,SEHORE,MADHYA PRADESH,2704217
1223,FEDERAL BANK,FDRL0002211,VADDI,"HOUSE NO.315,GAT NO.579 MIRAJ KAGWAD ROAD A BY P VADDI TALUKA MIRAJ PINCODE 416410",SANGLI,MIRAJ,MAHARASHTRA,2301636
1224,FEDERAL BANK,FDRL0002212,TARAKESHWAR,"MATAJEE BHAVAN,T.C.ROAD,TARAKESHWAR,NEAR HDFC BANK,PINCODE 712410",HUGLI,ARAMBAGH,WEST BENGAL,22830842
1225,FEDERAL BANK,FDRL0002213,ARAMBAGH,"MOUZA PASCHIMKRISHNAPUR,J L NO.37 WARD NO 3,P S ARAMBAGH HOOGHLY,WEST BENGAL 712601",HUGLI,ARAMBAGH,WEST BENGAL,22830842
1226,FEDERAL BANK,FDRL0002214,IVELI,"IVELI VILLAGE,SALEM SANKARI MAIN ROAD,AKKAMMAPETTAI POST OFFICE,TAMIL NADU,PINCODE 637301",SALEM,SANKARI,TAMIL NADU,226336
1227,FEDERAL BANK,FDRL0002215,GORHE BUDRUK,"SHIVRAM GARDEN MANGAL KARYALAY,HOLDING NO.409,A BY P GORHE BUDRUK PO,HAVELI TALUK,PUNE 412108",PUNE,WARJE,MAHARASHTRA,25512194
1228,FEDERAL BANK,FDRL0002216,BHUKUM,"SHOP NO.3 AND 4,GROUND FLOOR,O2 PLAZA,BHUKUM PO,PUNE 412115",PUNE,WARJE,MAHARASHTRA,25512194
1229,FEDERAL BANK,FDRL0002217,THIPPAMPATTI,"POLLACHI UDUMALPET ROAD,THIPPAMPATTI,POLLACHI TALUK,THIPPAMPATTI PO.TAMIL NADU,PINCODE 642107",COIMBATORE,POLLACHI,TAMIL NADU,28587516
1230,FEDERAL BANK,FDRL0002218,MANKULAM,"POOVAPPALLY BLD,NO.MP BY 10 BY 29B1 A,B,C PALLICITY,MANKULAM,PO.IDUKKI DISTRICT,KERALA 685565",IDUKKI,MUNNAR,KERALA,270258
1231,FEDERAL BANK,FDRL0002219,PATLUR,"NO 417/6 JEEVA COMPLEX, METTUR MAIN ROAD, PATLUR P O , ANTHIYUR TALUK , ERODE DISTRICT, 638314, TAMIL NADU",SALEM,METTUR,TAMIL NADU,28587516
1232,FEDERAL BANK,FDRL0002220,BARIPADA,"A1 DEULASAHI PO,BARIPADA,W.NO 8,MAYRBHANJ,BARIPADA MAIN PO,ODISHA PINCODE 758001",MAYURBHANJ,BARIPADA,ODISHA,2532057
1233,FEDERAL BANK,FDRL0002221,HOSHANGABAD,"OPP TO P AND T COLONY,SADAR BAZAR,MAIN ROAD,HOSHANGABAD PO,MADHYA PRADESH,461001",HOSHANGABAD,HOSHANGABAD,MADHYA PRADESH,2704217
1234,FEDERAL BANK,FDRL0002222,ITARSI,"GROUND FLOOR,11TH LINE,ITARSI,HOSHANGABAD DT,MADHYA PRADESH.PINCODE 461111",HOSHANGABAD,ITARSI,MADHYA PRADESH,25885485
1235,FEDERAL BANK,FDRL0002223,VRINDAVAN,"SHOP NO 11, UG GLOOR, OPP BAN MAHARAJ COLLEGE,RAMAN RETI, UTTARPRADESH",VRINDAVAN,VRINDAVAN,UTTAR PRADESH,25885485
1236,FEDERAL BANK,FDRL0002224,BAJIDPUR,"GURUKRIPA COMPLEX, VILALGE BAJIDPUR, GAUTAM BUDHA NAGAR, UTAR PRADESH, 201304",BAJIDPUR,UTTAR PRADESH,UTTAR PRADESH,2411255
1237,FEDERAL BANK,FDRL0002225,BADNAGAR,"20, Shivaji Path, Opp Jain Mandir, Badnagar Ujjain 456771,Madhya Pradesh",UJJAIN,UJJAIN,MADHYA PRADESH,225101
1238,FEDERAL BANK,FDRL0002227,KOTTAYAM ASSET RECOVERY,"KOTTAYAM ZONAL OFFICE,FEDERAL BANK,KOTTAYAM , KERALA",KOTTAYAM,KOTTAYAM,KERALA,2569154
1239,FEDERAL BANK,FDRL0002228,PALLIPPAD,"KODUKOICKAL TOWERS, YMCA JN, PALLIPPAD P O, ALAPUZHA DIST 690512",ALAPPUZHA,ALAPPUZHA,KERALA,2408099
1240,FEDERAL BANK,FDRL0002229,KOTTAYAM SANKRANTHI,"SANKRANTHI MC ROAD, NEAR NEELIMANGALAM BRIDGE, PERUMBAIKADA P O , KOTTAYAM KERALA, 686016",KOTTAYAM,KOTTAYAM,KERALA,2272241
1241,FEDERAL BANK,FDRL0002230,GUDHA,"VPO GUDHA, TEHSIL GHARAUNDA, KARNAL, HARYANA",HARYANA,KARNAL,DELHI,2648551
1242,FEDERAL BANK,FDRL0002231,KALRON,"VPO KALRON, GHARAUNDA TEHSIL, KARNAL, HARYANA 132114",KARNAL,HARYANA,HARYANA,25229514
1243,FEDERAL BANK,FDRL0002232,PUNDRI,"VPO PUNDRI, HARAUNDA TEHSIL,KARNAL , HARYANA, 132114",HARYANA,HARYANA,DELHI,258300
1244,FEDERAL BANK,FDRL0002233,TIKLI,"GROUND FLOOR, KHASRA NO 463, TEEKLI PO , GUGAON HARYANA",GURGAON,GURGAON,HARYANA,2331681
1245,FEDERAL BANK,FDRL0002235,SHEIKHOPURA,"VPO SHEIKHOPURA, TEHSIL GHARAUNDA, KARNAL  HARYANA 132114",KARNAL,KARNAL,HARYANA,2014349
1246,FEDERAL BANK,FDRL0002236,PALRA,"SECTOR 70 A,  POST PALRA, GURGAON, HARYANA, 122103",GURGAON,GURGAON,HARYANA,2014349
1247,FEDERAL BANK,FDRL0002237,KALIBELE,"KALIBELE BAZRA, KALIBELE , MEMARI, BURDWAN , WEST BENGAL , 713146,",BURDWAN,BURDWAN,WEST BENGAL,2265111
1248,FEDERAL BANK,FDRL0002238,TRILOCHANPUR,"TRILOCHANPUR, DHINKIA P O , JAGATSINGHPUR, ORRISA, 754141",JAGATSINGHPUR,TRILOCHANPUR,ODISHA,6975465
1249,FEDERAL BANK,FDRL0002239,NIDHIPANDA CHAKA,"NIDHIPANDA CHAKA, AT/PO NIDHIPANDA CHAKA  BALASORE, BHUBANESWAR ORISSA 756027",BALASORE,BHUBANESWAR,ODISHA,222100
1250,FEDERAL BANK,FDRL0002240,GATACHIWADI,"INDUSTRIAL ESTATE NO 3, GATACHWADI CANCER HOSPITAL ROAD, BARSHI SOLAPUR ROAD, MAHARASHTRA",BARSHI,SOLAPUR,MAHARASHTRA,84220345
1251,FEDERAL BANK,FDRL0002241,TANDULWADI,"A/P TANDULWADI, TALUKA WALWA, SANGLI MAHARASHTRA",SANGLI,SANGLI,MAHARASHTRA,2223159
1252,FEDERAL BANK,FDRL0002242,JOGVAD,"MADAV PALZA, NEAR RELIANCE TOWNSHIP, OPP RELIANCE REFINERY, JAMNAGAR KHAMBALIA HIGHWAY, ,EGHPAR, TAL LALPUR, DIST JAMNAGAR, GUJARAT  361280",JAMNAGAR,JAMNAGAR,GUJARAT,2555174
1253,FEDERAL BANK,FDRL0002243,BHANEGAON,"NEW BINA WARD NO 2 BAHNEGAON P O , KHAPERKEDA, TALUKA SAONER, NAGPUR MAHARASHTRA 441102",NAGPUR,NAGPUR,MAHARASHTRA,22428751
1254,FEDERAL BANK,FDRL0002244,PIPLA,"431, ADARSHA COLONY, PIPLA MAHARASHTRA 440034",PIPLA,PIPLA,MAHARASHTRA,26566715
1255,FEDERAL BANK,FDRL0002245,ICHGAON,"INCHGAON POST,MOHOL TALUK , SOLAPUR, MAHARASHTRA 413253",SOLAPUR,INCHGAON,MAHARASHTRA,89259231
1256,FEDERAL BANK,FDRL0002246,TEN,"SHOP NO 2 and 3, R C COMPLEX, NEAR NAVU TEN FALIYU, TEN ROAD, TEN VILLAGE, BARDOLI TALUKA, DISTRICT SURAT, GUJARAT 394602",SURAT,SURAT,GUJARAT,2329364
1257,FEDERAL BANK,FDRL0002247,KARNAL SANGLI,"MANE GALI, POST KARNAL, MIRAJ TALUK, SANGLI , MAHARASHTRA 416416",SANGLI,SANGLI,MAHARASHTRA,2454411
1258,FEDERAL BANK,FDRL0002248,BUDAMPADU,"DOOR NO 1-98, NEAR LORD GANESHA TEMPLE, BUDAMPADU, GUNTUR RURAL DISTRICT,ANDHRA PRADESH, 522007",GUNTUR,GUNTUR,ANDHRA PRADESH,2332277
1259,FEDERAL BANK,FDRL0002249,LINGAYAPALEM,"D NO 7-85,TANNIRU SIVA KOTESWARA RAO BUILDING, LINGAYAPALEM ROAD, LALPURAM VILLAGE AND POST,GUNTUR, ANDRA PRADESH , 522017",GUNTUR,GUNTUR,ANDHRA PRADESH,23303306
1260,FEDERAL BANK,FDRL0002250,ATMAKUR,"SHOP NO 4, ATMAKUR VILLAGE ROAD, ATMAKUR, MANGALAKIRI MANDAL, GUNTUR DISTRICT ANDHRA PRADESH 522503",GUNTUR,GUNTUR,ANDHRA PRADESH,2332277
1261,FEDERAL BANK,FDRL0002251,DHAMAS,"DHAMAS, CHOTDHAMA VILLAGE, DEBIPUR P O , BURDWAN WEST BENGAL , 713146",BRDWAN,BURDWAN,WEST BENGAL,2263100
1262,FEDERAL BANK,FDRL0002252,BAMUNIA,"MANTESWAR P O , PIPLAN GRAM PANCHAYAT, BARDWAN , WEST BENGAL",BARDWAN,BARDWAN,WEST BENGAL,2715074
1263,FEDERAL BANK,FDRL0002253,NOORPUR,"VILLAGE AND POST NOORPUR, DIS  GURGAON, HARYANA, 122001",GURGAON,GURGAON,DELHI,2014234
1264,FEDERAL BANK,FDRL0002254,FAZILPUR,"WARD NO 26, FAZILPUR P O ,GURGAON,HARYANA 122001",GURGAON,NEW DELHI,HARYANA,2222967
1265,FEDERAL BANK,FDRL0002255,MOHAMMADPUR JHARSA,"NARSINGHPUR POST, OLD KHANDSA ROAD, MOHAMMADPUR , GURGAON , HARYANA",GURGAON,GURGAON,HARYANA,2372045
1266,FEDERAL BANK,FDRL0002256,CARMEL EXTENSION COUTER PUNNAPRA,"CARMEL POLYTECHNIC COLLEGE,PUNNAPRA POST , ALAPPUZHA DISTRICT,688004",ALAPPUZHA,ALAPPUZHA,KERALA,2288511
1267,FEDERAL BANK,FDRL0002257,THIRUVANANTHAPURAM KUMARAPURAM,"GROUND FLOOR LOTUS TOWERS, MEDICAL COLLEGE P O , KUMARAPURAM, THRIUVANANTHAPURAM KERALA 695011",THIRUVANANTHAPURAM,THIRUVANANTHAPURAM,KERALA,2306167
1268,FEDERAL BANK,FDRL0002258,PATHANAMTHITTA ST PETERS JUNCTION,"ST PETERS JUNCITON PATHANAMTHITTA, KERALA 689645",PATHANAMTHITTA,PATHANAMTHITTA,KERALA,2229911
1269,FEDERAL BANK,FDRL0002259,KHOKHADAD,"SHOP NO 1 AND 2 , GROUND FLOOR,PRANAMAI NIVAS, KHOKHADAD , RAJKOT DISTRICT, GUJARAT 360022",RAJKOUT,RAJKOT,GUJARAT,2231239
1270,FEDERAL BANK,FDRL0002260,ACHHEJA,"GROUND FLOOR , KHASRA NO 334, G T ROAD, VILLAGE ACHHEJA, GAUTHAM BUDH NAGAR DISTRICT , UTTAR PRADESH 203207",GAUTHAM BUDH NAGAR,GAUTHAM BUDH NAGAR,UTTAR PRADESH,2618949
1271,FEDERAL BANK,FDRL0002261,ARUNDAVAPURAM,"FEDERAL BANK LTD, 4/1336, ARUNDAVAPURAM, THANJAVUR, TAMIL NADU 614401",THANJAVUR,THANJAVUR,TAMIL NADU,4233200
1272,FEDERAL BANK,FDRL0002262,THIRUMALASETTYHALLI,"SY NO 84,THIRUMALASETTYHALLI VILLAGE, BANGALORE RURAL DISTRICT, KARNATAKA 560066",BANGALORE,BANGALORE,KARNATAKA,39047736
1273,FEDERAL BANK,FDRL0002263,GOSALA,"DOOR NO 3-31,GROUND FLOOR, OPPOSITE CHANDRA THEATRE, GOSALA, KRISHNA DISTRICT, ANDHRA PRADESH 521151",KRISHNA,KRISHNA DISTRICT,ANDHRA PRADESH,9985973729
1274,FEDERAL BANK,FDRL0002264,HABIBPUR,"GROUND FLOOR , SHOP NO 1 AND 2, HABIBPUR VILLAGE, GREATER NOIDA, GAUTHAM BUDHA NAGAR DISTRICT, UTTAR PRADESH, 201306",GAUTHAM BUDH NAGAR,GAUTHAM BUDH NAGAR,UTTAR PRADESH,2411256
1275,FEDERAL BANK,FDRL0002265,TAKRARWADI,"SHOP NO 10, GRAMPANCHAYAT BUILDING, TAKRARWADI, INDAPUR TALUK, PUNE DISTRICT, MAHARASHTRA,413130",PUNE,PUNE,MAHARASHTRA,25236212
1276,FEDERAL BANK,FDRL0002266,KULATHUKADU,"SREE SARVAM BUSINESS PARK, DOOR NO 2/322-5, SALEM MAIN ROAD, KULATHUKADU, KOMARAPALAYAM, NAMAKKAL, TAMIL NADU, 638183",NAMAKKAL,NAMAKKAL,TAMIL NADU,261330
1277,FEDERAL BANK,FDRL0002267,NADIGAON,"NADIGAON, KUDEI POST, SORO , BALASORE, ORISSA, 756045",BUBANESHWAR,BUBANESHWAR,ODISHA,3043338
1278,FEDERAL BANK,FDRL0002269,SANKHAPUR,"VIA IPS BANTALA, SANKHAPUR POST, ANGUL BLOCK , ANGUL , ORRISA, 759129",ANGUL,ANGUL,ODISHA,122187
1279,FEDERAL BANK,FDRL0002270,TULASIPAL,AT PO TULASIPAL TS BANARPALA ANGUL ORRISA 759128,ANGUL,ANGUL,ODISHA,4284200
1280,FEDERAL BANK,FDRL0002271,THADANGAM,"DOOR NO 3/107 A,THADANGAM VILLAGE AND PANCHAYAT, NALLAMPALI UNION , DHARMAPURI TAMILNADU 636705",DHARMAPURI,SALEM,TAMIL NADU,2233388
1281,FEDERAL BANK,FDRL0002272,RAMNAGAR,"OFFICE NO 1 OPPOSITE KAMNATH TEMPLE, KHMABALIYA PORBANDAR ROAD, RAMNAGAR, TALUKIYA KHAMBALIA, DEVBHUMI DWARAKA",DWARAKA,AHMEDABAD,GUJARAT,3232945
1282,FEDERAL BANK,FDRL0002273,AHMEDABAD SG HIGHWAY,"SHOWROOM NO 11,ZODIAC SQUARE, OPP GURUDWARA, S G HIGHWAY, AHMEDABAD 380054GUJARAT",AHMEDABAD,AHMEDABAD,GUJARAT,26855939
1283,FEDERAL BANK,FDRL0002274,KHARKHARI NAHAR,"GROUND FLOOR MAIN ROAD BUS STAND, KHAIRA P O , SOUTH WEST DELHI , NEW DELHI, 110043",GURGAON,GURGAON,PUNJAB,222853
1284,FEDERAL BANK,FDRL0002275,KAIR,"GROUDN FLOOR, VILLAGE AND PO  KAIR, GURGAON,NEW DELHI , SOUTH WEST DELHI DISTRICT, NEW DELHI 110043",GURGAON,GURGAON,DELHI,65419113
1285,FEDERAL BANK,FDRL0002276,REWLA KHAM PUR,"GROUDN FLOOR , VILLAGE AND PO REWLA KHAMPUR, SOUTH WEST DELHI DISTRICT, NEW DELHI",SOUTH WEST DELHI,DELHI,DELHI,29216615
1286,FEDERAL BANK,FDRL0002277,KALAVI KATTI,"H NO 451 , HATTARAGI ROAD, KALAVI KATE TALUK GADHINGLAJ, KOHLAPUR, MAHARASHTRA, 416506",KOLHAPUR,KOHLAPUR,MAHARASHTRA,2437944
1287,FEDERAL BANK,FDRL0002278,ANANTHAVARAM,"SIRI TOWERS,ANANTHAVARAM VILLAGE, THULLUR MUNDAL, GUNTUR, ANDHRA PRADESH, 522236",GUNTUR,GUNTUR,ANDHRA PRADESH,453026
1288,FEDERAL BANK,FDRL0002279,BHIMAVARAM,"FIRST FLOOR, D NO 1-1-11, VAMSI KRISHNA NAGAR, JUVALAPALEM ROAD, BHIMAVARAM WEST GODAVARI, ANDHRA PRADESH",WEST GODAVARI,WEST GODAVARI,ANDHRA PRADESH,42343622
1289,FEDERAL BANK,FDRL0002280,DAULATPUR,"GROUND FLOOR , PLOT NO 40 , OPP HANUMAN MANDIR, DAULAT PUR PO , SOUTH WEST DELHI DISTRICT, NEW DELHI  110043",SOUTH WEST DELHI,SOUTH WEST DELHI,DELHI,5885488
1290,FEDERAL BANK,FDRL0002281,KADAPPAKADA,"SAJI ARCADE, PRETHEKSHA NAGAR, OPP XAVIERS RESIDENCY, TOWN LIMIT JUNCTION, KILLIKOLLOR  P O, KOLLAM 691004",KOLLAM,KOLLAM,KERALA,2766952
1291,FEDERAL BANK,FDRL0002282,ALAPUZHA  THATHAMPALLY,"SS AVENUE, DC ROAD, THODANKULANGARA, THATHAMPALLY PO ALAPPUZHA 688013",ALAPPUZHA,ALAPPUZHA,KERALA,2231344
1292,FEDERAL BANK,FDRL0002283,NOORANAD,"KRISHNAS GOWRI NARAYAN BUILDING, NEAR TENTH MILE JUNCTION,PALAMEL NOORANAD P O, ALAPPUZHA KERALA 690504",ALAPPUZHA,ALAPPUZHA,KERALA,2387964
1293,FEDERAL BANK,FDRL0002284,NARUKULLAPADU,"DOOR NO 1-38, BESIDES MEE SEVA COUNTER, OPP KRISHNA TEMPLE, NARUKULLAPADU, AMARAVATI GUNTUR DISTRICT",GUNTUR,GUNTUR,ANDHRA PRADESH,27896208
1294,FEDERAL BANK,FDRL0002285,KOPPURAVURU,"D NO 2-102,KOPPURAVURU VILLAGE, PEDAKKANI MANDAL, GUNTUR, ANDHRA PRADESH 522505",GUNTUR,GUNTUR,ANDHRA PRADESH,2293100
1295,FEDERAL BANK,FDRL0002286,KRISHNAYAPALEM,"DOOR NO 1-17,OPP SIVALAYAM, KRISHNAYAPALEM, MANGALAGIRI, GUNTUR, ANDHRA 522503",GUNTUR,GUNTUR,ANDHRA PRADESH,2009239
1296,FEDERAL BANK,FDRL0002287,NIDUMUKKALA,"6-212, BESIDE ANJANEYA TEMPLE, NIDUMUKKALA, TADIKONDA MANDAL, GUNTUR, ANDHRA PRADESH 522016",GUNTUR,GUNTUR,ANDHRA PRADESH,9849335031
1297,FEDERAL BANK,FDRL0002288,TRAVANCORE MEDICITY EXTN COUNTER,"NH BY PASS, THATAMMALLA P O , KOLLAM 691020",KOLLAM,KOLLAM,KERALA,9526166576
1298,FEDERAL BANK,FDRL0002289,PALAKKAD OLAVAKODE,KPD BUILDING MAIN ROAD OLAVAKODE,PALAKKAD,PALAKKAD,KERALA,2552900
1299,FEDERAL BANK,FDRL0002290,KOZHIKODE MALAPARAMBA,"33/4598E, OPP EVERYTHING SUPERMARKET, MALAPARAMBA HOUSING COLONY STOP, MALAPARAMBA 673009",KOZHIKODE,KOZHIKODE,KERALA,8714313739
1300,FEDERAL BANK,FDRL0002291,THE GURUKUL NILOKHERI EXTN BRANCH,"VILLAGE KHWAZA, AHMEDPUR, NILOKHERI, KARNAL, HARYANA",KARNAL,KARNAL,HARYANA,8700521488
1301,FEDERAL BANK,FDRL0002292,LULU CYBER PARK EXTN COUNTER,"FEDERAL EXPERIENCE CENTRE, GROUND FLOOR, LULU CYBER TOWER II, INFOPARK, KAKANAD",ERNAKULAM,ERNAKULAM,KERALA,2415050
1302,FEDERAL BANK,FDRL0009993,INFORMATION TECHNOLOGY DEPARTMENT,"INFORMATION TECHNOLOGY DEPARTMENT, FEDERAL TOWERS, HO , THE FEDERAL BANK  LTD, BANK JUNCTION ALUVA",ERNAKULAM,ALUVA,KERALA,2634185
1303,FEDERAL BANK,FDRL0009994,INTERNATIONAL BANKING DIVISION,FIRST FLOOR MARINE DRIVE ERNAKULAM,ERNAKULAM,ERNAKULAM,KERALA,2385511
1304,FEDERAL BANK,FDRL0009995,IBD,"INTERNATIONAL BANKING DIVISION, FIRST FLOOR, FEDERAL TOWERS MARINE DRIVE, ERNAKULAM 682031",ERNAKULAM,ERNAKULAM,KERALA,2201701
1305,FEDERAL BANK,FDRL0009996,INTERNATIONAL BANKING DEPARTMENT,FEDERAL TOWERS MARINE DRIVE ERNAKULAM 682031,ERNAKULAM,KOCHI,KERALA,0
1306,FEDERAL BANK,FDRL0009997,INTERNATIONAL BANKING DEPT.,"INTERNATIONAL BANKING DIVISION, 1ST FLOOR, FEDERAL TOWERS , MARINE DRIVE,",ERNAKULAM,ERNAKULAM,KERALA,2385511
1307,FEDERAL BANK,FDRL0009998,CPC OPERATIONS,"THE FEDERAL BANK LTD,CENTRAL PROCESSING CENTER,OPERATIONS DEPARTMENT PARAVURKAVALA ALUVA",ERNAKULAM,KOCHI,KERALA,2385552
1308,FEDERAL BANK,FDRL0009999,TREASURY DEPARTMENT,TREASURY DEPARTMENT MUMBAI,MUMBAI SUBURBAN,MUMBAI,MAHARASHTRA,2385511
1309,FEDERAL BANK,FDRL012FCUB,THE FEROKE CO-OPERATIVE URBAN,"THE FEROKE CO-OPERATIVE URBAN BANK LTD BUS STAND BUILDING, FEROKE PO,",KOZHIKODE,KOZHIKODE,KERALA,0
1310,FEDERAL BANK,FDRL01BMCOB,BHUJ MERCHANTILE BANK,"VYAPAR BHAVAN , MITHAKHALI SIX ROAD,AHMEDABAD",AHMEDABAD,AHMEDABAD,GUJARAT,2226300
1311,FEDERAL BANK,FDRL01MEUCB,THE MEENACHIL EAST URBAN CO OP BANK,"POONJAR,POONJAR,THEKEKARA P O, PIN 686582,KOTTAYAM, KERALA",KOTTAYAM,POONJAR,KERALA,2304877
1312,FEDERAL BANK,FDRL0AUCB02,ALWAYE URBAN CO-OP MAIN,"MAIN BRANCH, HEAD OFFICE BUILDING, MARKET ROAD ALUVA",ERNAKULAM,ALUVA,KERALA,0
1313,FEDERAL BANK,FDRL0AUCB03,ALWAYE URBAN CO-OP  EVENING,"EVENING BRANCH HAROON PLAZA M. O. ROAD, ALUVA",ERNAKULAM,ALUVA,KERALA,0
1314,FEDERAL BANK,FDRL0AUCB04,ALWAYE URBAN CO-OP CHENGAMANAD,"CHENGAMANAD BRANCH, ANK BUILDINGS, CHENGAMANA",ERNAKULAM,ALUVA,KERALA,0
1315,FEDERAL BANK,FDRL0AUCB05,ALWAYE URBAN CO-OP  KALADY,"CITY TOWER, MALAYATTOOR ROAD, OPP. SANSCRIT U KALADY",ERNAKULAM,KALADY,KERALA,0
1316,FEDERAL BANK,FDRL0AUCB06,AUCB BR CHUNANGAMVELI,"MUTTANTHOTTIL BUILDINGS, CHUNANGAMVELI, ERUMA ALUVA",ERNAKULAM,ALUVA,KERALA,0
1317,FEDERAL BANK,FDRL0AUCB07,AUCB BR ALENGAD,"RAMANIKA COMPLEX, THATTAMPADY, KARUMALLOOR ALUVA",ERNAKULAM,ALUVA,KERALA,0
1318,FEDERAL BANK,FDRL0CCUB01,THE CALICUT CO-OPERATIVE URBAN,"THE CALICUT CO-OPERATIVE URBAN  BANK LTD KALLAI ROAD, KOZHIKODE 673002",KOZHIKODE,KOZHIKODE,KERALA,0
1319,FEDERAL BANK,FDRL0NCUB01,THE NILAMBUR CO-OPERATIVE URBA,"THE NILAMBUR CO-OPERATIVE URBAN  BANK LTD P.B NO 10, NILAMBUR P.O MALAPPURAM DT",MALAPPURAM,MALAPPURAM,KERALA,0
1320,FEDERAL BANK,FDRL0PNNCUB,PONNANI,"HEAD OFFICE,K K JUNCTION,PONANI 679577",MALAPPURAM,PONNANI,KERALA,0
1321,FEDERAL BANK,FDRL0SAWANT,SAWANTWADI URBAN COPERATIVE BANK,"SAWANTWADI URBAN COPERATIVE BANK, HEAD OFFICE, UBHA BAZAR, SAWANTWADI, MAHARASHTRA",SAWANTWADI,SAWANTWADI,MAHARASHTRA,2201715
1322,FEDERAL BANK,FDRL0SME001,SME BUSINESS DEPARTMENT,"SME BUSINESS DEPARTMENT , FEDERAL TOWERS, MARINE DRIVE, ERNAKULAM",ERNAKULAM,ERNAKULAM,KERALA,2201619
1323,FEDERAL BANK,FDRL0SME002,SME BUSINESS DEPARTMENT,"SME BUSINESS DEPARTMENT, MARINE DRIVE, ERNAKULAM",ERNAKULAM,ERNAKULAM,KERALA,2201619
1324,FEDERAL BANK,FDRL0SPCB01,SREENIVASA PADMAVATHI COOPERATIVE BANK,"FEDERAL TOWERS, 6TH FLOOR, MARINE DRIVE, KOCHI ERNAKULAM",ERNAKULAM,ERNAKULAM,KERALA,2201715
1325,FEDERAL BANK,FDRL0WDCB01,THE WAYANAD DIST CO-OP BANK LT,THE WAYANAD DISTRICT CO-OPERATIVE BANK LTD KALPETTANORTH SUB-MEMBER,WAYANAD,KALPETTA,KERALA,0
