,BANK NAME,IFSC,OFFICE,ADDRESS,DISTRICT,CITY,STATE,PHONE
0,PRATHAMA BANK,PRTH0000001,RTGS-HO,"PRATHAMA BHAVAN, RAM GANGA VIHAR, MORADABAD",MORADABAD,MORADABAD,UTTAR PRADESH,2455177
1,PRATHAMA BANK,PRTH0000002,MOBILE BANKING,"PRATHAMA BANK HEAD OFFICE ,PRATHAMA BHAVAN,RAM GANGA VIHAR PHASE-II , MORADABAD , UP-244001",MORADABAD,MORADABAD,UTTAR PRADESH,2455179
2,PRATHAMA BANK,PRTH0011000,RO MORADABAD,"PRATHAMA BHAVAN, RAM GANGA VIHAR, MORADABAD",MORADABAD,MORADABAD,UTTAR PRADESH,9837001680
3,PRATHAMA BANK,PRTH0011009,AGHWANPUR,P.O. AGHWANPUR TEH. MORADABAD DISTT. MORADABAD.,MORADABAD,MORADABAD,UTTAR PRADESH,9756799009
4,PRATHAMA BANK,PRTH0011011,MOONDA PANDAY,P.O. MOONDA PANDAY TEH.MORADABAD DISTT. MORADABAD.,MORADABAD,MORADABAD,UTTAR PRADESH,9756799011
5,PRATHAMA BANK,PRTH0011012,PAKBARA,P.O. PAKBARA TEH.MORADABAD DISTT. MORADABAD.,MORADABAD,MORADABAD,UTTAR PRADESH,9756799012
6,PRATHAMA BANK,PRTH0011015,R. N SAHASPUR,P.O. R.N. SAHASPUR TEH.BILARI DISTT. MORADABAD.,MORADABAD,MORADABAD,UTTAR PRADESH,9756799015
7,PRATHAMA BANK,PRTH0011016,KUNDARKI,P.O. KUNDERKI TEH.BILARI DISTT. MORADABAD.,MORADABAD,MORADABAD,UTTAR PRADESH,9756799016
8,PRATHAMA BANK,PRTH0011025,MORADABAD MAIN,"A-77 GANDHI NAGAR, PRINCE ROAD, P.O. MORADABAD, DISTT MORADABAD",MORADABAD,MORADABAD,UTTAR PRADESH,9756799025
9,PRATHAMA BANK,PRTH0011026,SARKARAKHAS,P.O. SARKARA KHAS TEH.MORADABAD DISTT. MORADABAD,MORADABAD,MORADABAD,UTTAR PRADESH,9756799026
10,PRATHAMA BANK,PRTH0011030,FATEHPUR VISHNOI,P.O. FATHPUR VISHNOI TEHSIL KANTH DISTT. MORADABAD,MORADABAD,MORADABAD,UTTAR PRADESH,9756799030
11,PRATHAMA BANK,PRTH0011042,SEONDARA,"P.O. SEONDARA TEHSIL BILARI, DISTT. MORDABAD",MORADABAD,MORADABAD,UTTAR PRADESH,9756799042
12,PRATHAMA BANK,PRTH0011048,LODHIPUR JAWAHAR NAGAR,P.O. KAZIPURA TEHSIL. MORADABAD DISTT. MORADABAD,MORADABAD,MORADABAD,UTTAR PRADESH,9756799048
13,PRATHAMA BANK,PRTH0011052,HARTHALA,P.O. HARTHALA TEHSIL. & DISTT. MORADABAD,MORADABAD,MORADABAD,UTTAR PRADESH,9756799052
14,PRATHAMA BANK,PRTH0011055,JARGAON,P.O. JARGAON TEHSIL. CHANDAUSI DISTT. MORADABAD,MORADABAD,MORADABAD,UTTAR PRADESH,236244
15,PRATHAMA BANK,PRTH0011058,LALBAGH,P.O. MORDABAD TEHSIL.&DISTT. MORADABAD,MORADABAD,MORADABAD,UTTAR PRADESH,2497077
16,PRATHAMA BANK,PRTH0011059,KATGHAR,P.O. MAQBARA TEHSIL.MORDABAD DISTT. MORADABAD,MORADABAD,MORADABAD,UTTAR PRADESH,2490247
17,PRATHAMA BANK,PRTH0011060,TAJPUR MAAFI,P.O. BHANSIA TEHSIL. & DISTT. MORDABAD,MORADABAD,MORADABAD,UTTAR PRADESH,2390169
18,PRATHAMA BANK,PRTH0011063,SAKTOO NAGLA,P.O. SARKARA KHAS TEHSIL. & DISTT. MORADABAD,MORADABAD,MORADABAD,UTTAR PRADESH,9927030602
19,PRATHAMA BANK,PRTH0011065,AKKA DILARI,P.O. AKKA DILARI TEHSIL.& DISTT. MORADABAD,MORADABAD,MORADABAD,UTTAR PRADESH,5541660
20,PRATHAMA BANK,PRTH0011076,GWAROO,P.O. GWAROO TEHSIL.BILARI DISTT. MORADABAD,MORADABAD,MORADABAD,UTTAR PRADESH,259185
21,PRATHAMA BANK,PRTH0011077,KURADOOMNAGAR,P.O. K.D. NAGAR TEHSIL. BILARI DISTT. MORADABAD,MORADABAD,MORADABAD,UTTAR PRADESH,233253
22,PRATHAMA BANK,PRTH0011078,MAJHOLA LINE PAAR,P.O. MAJHOLA LINEPAR TEHSIL. & DISTT. MORADABAD,MORADABAD,MORADABAD,UTTAR PRADESH,2483032
23,PRATHAMA BANK,PRTH0011086,HUSSAINPUR CHIRAWALI,"GAGAN TIRAHA, P.O. SITAPURI┬á TEHSIL BILARI┬á DISTT. MORADABAD",MORADABAD,MORADABAD,UTTAR PRADESH,2357692
24,PRATHAMA BANK,PRTH0011100,BANGLA GAON,"P.O. KATCHAHRI, TEHSIL & DISTT. MORDABAD",MORADABAD,MORADABAD,UTTAR PRADESH,2420761
25,PRATHAMA BANK,PRTH0011109,KHADAGPUR BAJEY,P.O. MACHHARIYA RLY STATION TEHSIL. & DISTT. MORADABAD,MORADABAD,MORADABAD,UTTAR PRADESH,9927030604
26,PRATHAMA BANK,PRTH0011110,BAHORANPUR NARAULI,P.O. BAHORANPUR NAROLI VIA RAJAKA SAHASPUR TEHSIL.BILARI DISTT. MORADABAD,MORADABAD,MORADABAD,UTTAR PRADESH,9927030584
27,PRATHAMA BANK,PRTH0011138,MOHANPUR,P.O. KUNDERKI TEHSIL-BILARI DISTT. MORADABAD,MORADABAD,MORADABAD,UTTAR PRADESH,9927030572
28,PRATHAMA BANK,PRTH0011140,SANAI,P.O. SANAI TEHSIL-BILARI DISTT. MORADABAD,MORADABAD,MORADABAD,UTTAR PRADESH,9927030605
29,PRATHAMA BANK,PRTH0011146,BHEETKHERA,P.O. HIRAN KHERA TEHSIL & DISTT. MORADABD,MORADABAD,MORADABAD,UTTAR PRADESH,9927030598
30,PRATHAMA BANK,PRTH0011147,LALATEEKAR,P.O. RAONDA VIA KUNDERKI TEHSIL-BILARI DISTT. MORADABAD,MORADABAD,MORADABAD,UTTAR PRADESH,9756799147
31,PRATHAMA BANK,PRTH0011162,DHAKIA NARU,P.O. NIKAT SUGAR MILL BILARI TEHSIL-BILARI DISTT. MORADABAD,MORADABAD,MORADABAD,UTTAR PRADESH,270548
32,PRATHAMA BANK,PRTH0011165,BILLARI,NEAR MANGAL KA BAZAR DISTT. MORDABAD,MORADABAD,MORADABAD,UTTAR PRADESH,270151
33,PRATHAMA BANK,PRTH0011169,RAM GANGA VIHAR,"P.O. RAMGANGA VIHAR, TEHSIL & DISTT.MORADABAD",MORADABAD,MORADABAD,UTTAR PRADESH,2451075
34,PRATHAMA BANK,PRTH0011170,KARULA,"P.O. KARULA, THE & DISTT. MORADABAD",MORADABAD,MORADABAD,UTTAR PRADESH,2358433
35,PRATHAMA BANK,PRTH0011172,RAMPUR ROAD,"RAMPUR ROAD,DISTT:- MORADABAD",MORADABAD,MORADABAD,UTTAR PRADESH,9756799172
36,PRATHAMA BANK,PRTH0011175,TOWN HALL,"TOWN HALL BUDH BAZAR STN. ROAD MORADABAD,DISTT:- MORADABAD",MORADABAD,MORADABAD,UTTAR PRADESH,9756799175
37,PRATHAMA BANK,PRTH0011182,HAKEEMPUR,"VILL. HAKIMPUR, POST FATEHPUR VISHNOI, TEHSIL KANTH, DISTT, MORADABAD",MORADABAD,MORADABAD,UTTAR PRADESH,9756799182
38,PRATHAMA BANK,PRTH0011193,MANGUPURA,"VILL: MANGOOPURA,P.O. PAKBARA,TEHSIL MORADABAD,DISTT: MORADABAD┬á",MORADABAD,MORADABAD,UTTAR PRADESH,9756799193
39,PRATHAMA BANK,PRTH0011198,JALALPUR KHAS,"VILL:JALALPUR KHAS, P.O. KUNDERKI, TEHSIL: BILARI,DISTT: MORADABAD PIN-202413",MORADABAD,MORADABAD,UTTAR PRADESH,9756799198
40,PRATHAMA BANK,PRTH0011207,DEVAPUR MUSTEHKUM,"VILL. & POST DEVAPUR MUSTAKAM,TEHSIL-MORADABAD,DISTT-MORADABAD,",MORADABAD,MORADABAD,UTTAR PRADESH,9756799207
41,PRATHAMA BANK,PRTH0011213,CHHABRA,"VILL & POST CHHABRA,TEHSIL-CHANDAUSI, DISTT-MORADABAD, PIN-202411 (U.P)",MORADABAD,MORADABAD,UTTAR PRADESH,8057911213
42,PRATHAMA BANK,PRTH0011220,REETH,"VILL REETH POST DHARAMPUR RATTA,TEHSIL-CHANDAUSI,DISTT-MORADABAD, PIN-202411 (U.P)",MORADABAD,MORADABAD,UTTAR PRADESH,8449710220
43,PRATHAMA BANK,PRTH0011260,LAKRI FAZAL PUR,LAKRI FAZAL PUR PO LAKRI FAZAL PUR DISTT. MORADABAD-244001,MORADABAD,MORADABAD,UTTAR PRADESH,8191900260
44,PRATHAMA BANK,PRTH0011265,KHUSHAL PUR,"MOH.KHUSHALPUR,MORADABAD 244001",MORADABAD,MORADABAD,UTTAR PRADESH,0
45,PRATHAMA BANK,PRTH0011266,CHANGERI,"PO CHHIJLET,BLOCK CHHIJLET,DISTT MORADABAD 244501",MORADABAD,MORADABAD,UTTAR PRADESH,0
46,PRATHAMA BANK,PRTH0011277,KHANPUR MUZAFFARPUR,"PO AGHWANPUR, BLOCK CHHIJLET,DISTT MORADABAD-244504",MORADABAD,MORADABAD,UTTAR PRADESH,7534016277
47,PRATHAMA BANK,PRTH0011281,CHANDER NAGAR,"CHANDER NAGAR,MORADABAD-244001",MORADABAD,MORADABAD,UTTAR PRADESH,7534016281
48,PRATHAMA BANK,PRTH0011297,MORA MUSTAHKAM,VILL AND PO SONAKPUR BLOCK MORADABAD DISTRICT MORADABAD 244001,MORADABAD,MORADABAD,UTTAR PRADESH,7534016297
49,PRATHAMA BANK,PRTH0011300,SIMLATHER,PO KUNDERKI BLOCK KUNDERKI DISTRICT MORADABAD 244001,MORADABAD,MORADABAD,UTTAR PRADESH,7534016300
50,PRATHAMA BANK,PRTH0011302,DAULARI,PO AKKA DILARI BLOCK MOONDA PANDEYDISTRICT MORADABAD 244104,MORADABAD,MORADABAD,UTTAR PRADESH,7534016302
51,PRATHAMA BANK,PRTH0011303,NAVEEN NAGAR,NAVEEN NAGAR MDA KANTH ROAD MORADABAD,MORADABAD,MORADABAD,UTTAR PRADESH,7354016303
52,PRATHAMA BANK,PRTH0011305,SURYA NAGAR,MOH SURYA NAGAR MAJHOLA LINEPUR BLOCK AND TEHSIL MORADABAD,MORADABAD,MORADABAD,UTTAR PRADESH,7534016305
53,PRATHAMA BANK,PRTH0011319,BIBIPUR,VILL BIBIPUR POST SARAI KHAJOOR 244405 DISTT MORADABAD,MORADABAD,MORADABAD,UTTAR PRADESH,7055715319
54,PRATHAMA BANK,PRTH0011321,THAMWALA,VILL THAMWALA TEHSIL BILARI DISTT MORADABAD,MORADABAD,BILARI,UTTAR PRADESH,7055715321
55,PRATHAMA BANK,PRTH0011325,GOVINDPUR,VILL GOVINDPUR TEHSIL BILARI DISTT MORADABAD,MORADABAD,BILARI,UTTAR PRADESH,7055715325
56,PRATHAMA BANK,PRTH0011326,LAXMIPUR KATTAI,VILL LAXMIPUR KATTAI TEHSIL AND DISTT MORADABAD,MORADABAD,MORADABAD,UTTAR PRADESH,7055715326
57,PRATHAMA BANK,PRTH0011327,SATARAN,VILL SATARAN TEHSIL BILARI DISTT MBD,MORADABAD,BILARI,UTTAR PRADESH,7055715327
58,PRATHAMA BANK,PRTH0011328,KARANPUR,VILL KARANPUR DISTT MORADABAD,MORADABAD,MORADABAD,UTTAR PRADESH,7055715328
59,PRATHAMA BANK,PRTH0011356,SHERUA DHARAMPUR,VILL SHERUA DHARAMPUR DISTT MBD,MORADABAD,MORADABAD,UTTAR PRADESH,7055715356
60,PRATHAMA BANK,PRTH0011370,HASAMPUR CHAURAHA,"VILL.HASAMPUR CHAURAHA, PO PAKBARA, TEHSIL AND DISTT.MORADABAD",MORADABAD,MORADABAD,UTTAR PRADESH,7055715370
61,PRATHAMA BANK,PRTH0011386,SAINJANA,"BLOCK MOONDA PANDEY,TEH& DISTT. MORADABAD",MORADABAD,MORADABAD,UTTAR PRADESH,7055715386
62,PRATHAMA BANK,PRTH0011389,HAMEERPUR,"BLOCK BHOJPUR, P.O GODHI,DISTT.MORADABAD",MORADABAD,MORADABAD,UTTAR PRADESH,7055715389
63,PRATHAMA BANK,PRTH0011406,CHAKKAR KI MILAK,BLOCK TEHSIL DISTT MORADABAD PIN 244001,MORADABAD,MORADABAD,UTTAR PRADESH,7055715406
64,PRATHAMA BANK,PRTH0011407,HANUMAN MURTI,BLOCK KUNDERKI TEHSIL BILARI DISTT MORADABAD PIN 244001,MORADABAD,MORADABAD,UTTAR PRADESH,7055715407
65,PRATHAMA BANK,PRTH0011409,BHOLA SINGH KI MILAK,VILL BHOLA SINGH KI MILAK BLOCK AND TEHSIL MORADABAD DISTT MORADABAD,MORADABAD,MORADABAD,UTTAR PRADESH,7055715409
66,PRATHAMA BANK,PRTH0013000,RO THAKURDWARA,"PRATHAMA BANK RO, THANKURADWARA, MORADBAD",MORADABAD,MORADABAD,UTTAR PRADESH,9837001683
67,PRATHAMA BANK,PRTH0013006,SURJAN NAGAR,"P.O. SURJAN NAGAR,TEH. THAKURDWARA ┬áDISTT. MORADABAD.",MORADABAD,MORADABAD,UTTAR PRADESH,9756799006
68,PRATHAMA BANK,PRTH0013007,DILARI,"P.O. DILARI TEH., TEH.THAKURDWARA┬á,DISTT. MORADABAD.",MORADABAD,MORADABAD,UTTAR PRADESH,9756799007
69,PRATHAMA BANK,PRTH0013021,PEEPAL SANA,P.O. PEEPALSANA TEH.MORADABAD DISTT. MORADABAD.,MORADABAD,MORADABAD,UTTAR PRADESH,9756799021
70,PRATHAMA BANK,PRTH0013024,SULTANPUR DOST,P.O. SULTANPUR DOST TEH THAKURDWARA DISTT.MORADABAD,MORADABAD,MORADABAD,UTTAR PRADESH,9756799024
71,PRATHAMA BANK,PRTH0013045,SHARIF NAGAR,"P.O. SHAREEF NAGAR,TEHSIL THAKURDWARA,DISTT. MORADABAD",MORADABAD,MORADABAD,UTTAR PRADESH,9756799045
72,PRATHAMA BANK,PRTH0013046,JAHANGIRPUR,"P.O. JAHANGIRPUR, TEHSIL THAKURDWARA DISTT. MORADABAD",MORADABAD,MORADABAD,UTTAR PRADESH,9756799046
73,PRATHAMA BANK,PRTH0013050,RATUPURA,P.O. RATUPURA TEHSIL.THAKURDWARA DISTT. MORADABAD,MORADABAD,MORADABAD,UTTAR PRADESH,9756799050
74,PRATHAMA BANK,PRTH0013051,BHAGATPUR TANDA,P.O. BHAGATPUR TANDA TEHSIL.MORDABAD DISTT. MORADABAD,MORADABAD,MORADABAD,UTTAR PRADESH,9756799051
75,PRATHAMA BANK,PRTH0013061,MANPUR,P.O. MANPUR TEHSIL.MORDABAD DISTT. MORADABAD,MORADABAD,MORADABAD,UTTAR PRADESH,2254201
76,PRATHAMA BANK,PRTH0013067,KARANPUR,P.O. ALIABAD VIA DILARI TEHSIL. THAKURDWARA DISTT. MORADABAD,MORADABAD,MORADABAD,UTTAR PRADESH,2249669
77,PRATHAMA BANK,PRTH0013068,KAMALPURI,P.O. KALAJHANDA TEHSIL.THAKURDWARA DISTT. MORADABAD,MORADABAD,MORADABAD,UTTAR PRADESH,2241142
78,PRATHAMA BANK,PRTH0013080,THAKURDWARA,"P.O. & TEHSIL.THAKURDWARA , DISTT. MORADABAD",MORADABAD,MORADABAD,UTTAR PRADESH,2241244
79,PRATHAMA BANK,PRTH0013082,BUDHANPUR ALIGANJ,"P.O. B.P. ALIGANJ, TEHSIL. & DISTT. MORADABAD",MORADABAD,MORADABAD,UTTAR PRADESH,2250083
80,PRATHAMA BANK,PRTH0013085,DHAKIA,P.O. DHAKIA JAT TEHSIL. THAKURDWARA DISTT. MORADBAD,MORADABAD,MORADABAD,UTTAR PRADESH,2249815
81,PRATHAMA BANK,PRTH0013104,NANHOOWALA,P.O. NANHUWALA TEHSIL.THAKURDWARA DISTT. MORADABAD,MORADABAD,MORADABAD,UTTAR PRADESH,9927030643
82,PRATHAMA BANK,PRTH0013105,GOPIWALA,P.O. GOPIWALA TEHSIL. THAKURDWARA DISTT. MORADABAD,MORADABAD,MORADABAD,UTTAR PRADESH,9927030642
83,PRATHAMA BANK,PRTH0013106,MAHESHPUR KHEM,P.O. MANPUR TEHSIL & DISTT. MORADABD,MORADABAD,MORADABAD,UTTAR PRADESH,9927030645
84,PRATHAMA BANK,PRTH0013122,REHTA MAFI,P.O. REHTA MAFI TEHSIL- THAKURDWARA DISTT. MORADABAD,MORADABAD,MORADABAD,UTTAR PRADESH,2249490
85,PRATHAMA BANK,PRTH0013129,BAHERI BRAHAMNAN,P.O. BAHERI BRAHMANAN TEHSIL- THAKURDWARA DISTT. MORADABAD,MORADABAD,MORADABAD,UTTAR PRADESH,2247877
86,PRATHAMA BANK,PRTH0013130,TAGAWALA MANPUR,VIA MANPUR SABIT P.O. DILARI TEHSIL-THAKURDWARA DISTT. MORADABAD,MORADABAD,MORADABAD,UTTAR PRADESH,9927030606
87,PRATHAMA BANK,PRTH0013141,BAHADURNAGAR,P.O. BAHADUR NAGAR TEHSIL-THAKURDWARA DISTT. MORADABAD,MORADABAD,MORADABAD,UTTAR PRADESH,9927030644
88,PRATHAMA BANK,PRTH0013176,DULHAPUR,"P.O. TANDA AFZAL┬á,DISTT:- MORADABAD",MORADABAD,MORADABAD,UTTAR PRADESH,9927030667
89,PRATHAMA BANK,PRTH0013192,JATPURA,"POST OFFICE: RAJPUR KESARIA,TEHSIL THAKURDWARA,┬áDISTT: MORADABAD┬á PIN-244001",MORADABAD,MORADABAD,UTTAR PRADESH,9756799192
90,PRATHAMA BANK,PRTH0013211,CHANDPUR MUSTEHKUM,"VILL & POST CHANDPUR MUSTAKAM,TEHSIL-MORADABAD,DISTT-MORADABAD (U.P),",MORADABAD,MORADABAD,UTTAR PRADESH,8057911211
91,PRATHAMA BANK,PRTH0013214,KAZIPURA,"VILL. KAZIPUR POST DILARI,TEHSIL THAKURDWARA, DISTT-MORADABAD",MORADABAD,MORADABAD,UTTAR PRADESH,8449710214
92,PRATHAMA BANK,PRTH0013237,LONGI KALAN,"VILL. LONGI KALAN,P.O.LONIKALAN,TEHSEEL  THAKURDWARA  244601",MORADABAD,MORADABAD,UTTAR PRADESH,8476010237
93,PRATHAMA BANK,PRTH0013241,SARKARA KHAS (VISHNOI),"VILL.SARKARA KHAS P.O.SARKARAKHAS(VISHNOI) VIA DILARI,MORADABAD",MORADABAD,MORADABAD,UTTAR PRADESH,8476010241
94,PRATHAMA BANK,PRTH0013242,BARKHERA CHAK,"VILL. BARKHERA CHAK P.O.MANPURA,THAKURDWARA,MORADABAD",MORADABAD,MORADABAD,UTTAR PRADESH,8476010242
95,PRATHAMA BANK,PRTH0013244,KUA KHERA KHALSA,"VILL.KUA KHERA KHALSA POST SARIFF NAGAR,TEHSIL THAKURDWARA,MORADABAD",MORADABAD,MORADABAD,UTTAR PRADESH,8476010244
96,PRATHAMA BANK,PRTH0013245,EGRAHA,"VILL & PO EGRAHA, THESIL THAKURDWARA, DIST MORADABAD-244401",MORADABAD,MORADABAD,UTTAR PRADESH,8476010245
97,PRATHAMA BANK,PRTH0013250,RAM NAGAR KHAGGUWALA,"VILL RAM NAGAR KHAGUWALA, PO & BLOCK  THAKURDWARA DIST. MORADABAD-244601",MORADABAD,MORADABAD,UTTAR PRADESH,8191900250
98,PRATHAMA BANK,PRTH0013255,LALAPUR PEEPALSANA,"VILL & PO SHERPUR PATTI, BLOCK & TEHSIL THAKURDWARA DIST MORADABAD-244602",MORADABAD,MORADABAD,UTTAR PRADESH,8191900255
99,PRATHAMA BANK,PRTH0013256,TAH MADAN,"VILL TAH MADAN, PO UDMA WALA BLOCK BHAGATPUR TANDA, DISTT MORADABAD-244925",MORADABAD,MORADABAD,UTTAR PRADESH,8191900256
100,PRATHAMA BANK,PRTH0013257,CHATARPUR NAYAK,"VILL CHATARPUR NAYAK, PO MEVLA KALAN, BLOCK B.P. TANDA, DISTT. MORADABAD-244925",MORADABAD,MORADABAD,UTTAR PRADESH,8191900257
101,PRATHAMA BANK,PRTH0013262,RAGHUWALA,"POST RAGHUWALA,BLOCK THAKURDWARA,DIST MORADABAD 244601",MORADABAD,MORADABAD,UTTAR PRADESH,8191900262
102,PRATHAMA BANK,PRTH0013273,MANPUR DUTTRAM,"PO NANHOOWALA,BLOCK THAKURDWARA,DISTT MORADABAD 244601",MORADABAD,MORADABAD,UTTAR PRADESH,0
103,PRATHAMA BANK,PRTH0013274,MANKUA MAKSOODPUR,"PO SIDLAU NAZARPUR,BLOCK DILARI,DISTT MORADABAD 244402",MORADABAD,MORADABAD,UTTAR PRADESH,0
104,PRATHAMA BANK,PRTH0013275,RAJUPUR MILAK,"PO KISHANPUR GAMADI,BLOCK THAKURDWARA,MORADABAD",MORADABAD,MORADABAD,UTTAR PRADESH,0
105,PRATHAMA BANK,PRTH0013289,RAJUPUR KALAN,"VILL AND PO RAJUPUR KALAN,BLOCK THAKURDWARA,DISTRICT MORADABAD",MORADABAD,MORADABAD,UTTAR PRADESH,7534016289
106,PRATHAMA BANK,PRTH0013311,BAHERI,VILL BAHERI POST MANPUR 244924 DISTT MORADBAD,MORADABAD,MOARADABAD,UTTAR PRADESH,7055715311
107,PRATHAMA BANK,PRTH0013312,GAJRAULA SAID,VILL GAJRAULA SAID POST BAHERI BRAHMNAN 244402 DISTT MORADABAD,MORADABAD,MORADABAD,UTTAR PRADESH,7055715312
108,PRATHAMA BANK,PRTH0013329,ALIYABAD,VILL ALIYABAD TEHSIL THAKURDWARA DISTT MORADABAD,MORADABAD,THAKURDWARA,UTTAR PRADESH,7055715329
109,PRATHAMA BANK,PRTH0013330,SARKARA PARAM,VILL SARKARA PARAM TEHSIL THAKURDWARA DISTT. MORADABAD,MORADABAD,THAKURDWARA,UTTAR PRADESH,7055715330
110,PRATHAMA BANK,PRTH0013331,BHAIPUR,VILL BHAIPUR TEHSIL THAKURDWARA DISTT MORADABAD,MORADABAD,THAKURDWARA,UTTAR PRADESH,7055715331
111,PRATHAMA BANK,PRTH0013332,DHARA KA NAGLA,VILL DHARA KA NAGLA TEHSIL THAKURDWARA DISTT MORADABAD,MORADABAD,THAKURDWARA,UTTAR PRADESH,7055715332
112,PRATHAMA BANK,PRTH0013343,BHORANPUR KALAN,VILL BHORANPUR KALAN TEHSIL AND DISTT MBD,MORADABAD,MORADABAD,UTTAR PRADESH,7055715343
113,PRATHAMA BANK,PRTH0013347,ISLAM NAGAR CHAURAHA,ISLAM NAGAR CHAURAHA VILLAGE TESHIL AND DISTT.MBD,MORADABAD,THAKURDWARA,UTTAR PRADESH,7055715347
114,PRATHAMA BANK,PRTH0013353,MEHMOODPUR TIGRI,VILL MEHMOODPUR TIGRI PO LALUWALA TEHSIL THAKURDWARA DISTT MORADABAD,MORADABAD,THAKURDWARA,UTTAR PRADESH,7055715353
115,PRATHAMA BANK,PRTH0013355,NIWAR KHAS,VILL NIWAR KHAS PO MANPUR TEHSIL ANDDISTT MBD,MORADABAD,MORADABAD,UTTAR PRADESH,7055715355
116,PRATHAMA BANK,PRTH0013368,SARDAR NAGAR,"VILL. AND PO SARDAR NAGAR, BLOCK B.P. TANDA, TEHSIL-THAKURDWARA, DISTT. MORADABAD",MORADABAD,THAKURDWARA,UTTAR PRADESH,7055715368
117,PRATHAMA BANK,PRTH0013369,GAKKHARPUR,"GAKKHARPUR, BLOCK- DILARI, DISTT.MORADABAD",MORADABAD,MORADABAD,UTTAR PRADESH,7055715369
118,PRATHAMA BANK,PRTH0013394,BHOJPUR,VILL AND PO BHOJPUR BLOCK BP TANDA TEHSIL MORADABAD PIN 244402,MORADABAD,MORADABAD,UTTAR PRADESH,7055715394
119,PRATHAMA BANK,PRTH0013411,BITHOOATHER,VILL BITHOOATHER BLOCK DILARI TEHSIL THAKURDWARA DISTT MORADABAD,MORADABAD,MORADABAD,UTTAR PRADESH,7055715411
120,PRATHAMA BANK,PRTH0014010,CHHIJLET,P.O. CHHIJLET TEH.KANTH DISTT. MORADABAD.,MORADABAD,MORADABAD,UTTAR PRADESH,9756799010
121,PRATHAMA BANK,PRTH0014017,GARHEE SALEEMPUR,P.O. GARHI SALEMPUR TEH.KANTH DISTT. MORADABAD.,MORADABAD,MORADABAD,UTTAR PRADESH,9756799017
122,PRATHAMA BANK,PRTH0014018,UMARI KALAN,P.O. UMRI KALAN TEH.KANTH DISTT. MORADABAD.,MORADABAD,MORADABAD,UTTAR PRADESH,9756799018
123,PRATHAMA BANK,PRTH0014047,MADHAN,P.O. MADHAN TEHSIL. SAMBHAL┬áDISTT. MORADABAD,MORADABAD,MORADABAD,UTTAR PRADESH,9756799047
124,PRATHAMA BANK,PRTH0014054,LODHIPUR RAJPOOT,P.O. PAKBARA TEHSIL. & DISTT. MORADABAD,MORADABAD,MORADABAD,UTTAR PRADESH,2360477
125,PRATHAMA BANK,PRTH0014071,PAIGAMBERPUR,P.O. GAJANA TEHSIL. KANTH DISTT. MORADABAD,MORADABAD,MORADABAD,UTTAR PRADESH,275162
126,PRATHAMA BANK,PRTH0014079,MISHRIPUR,P.O. KANTH TEHSIL. KANTH DISTT. MORADABAD,MORADABAD,MORADABAD,UTTAR PRADESH,2221846
127,PRATHAMA BANK,PRTH0014107,MAGHPURI INAYATPURI,P.O. CHHIJLET VIA KANTH TEHSIL. KANTH DISTT. KANTH,MORADABAD,MORADABAD,UTTAR PRADESH,2330688
128,PRATHAMA BANK,PRTH0014132,NEKPUR,P.O. SAGHAN MACHERIA (VIA JOYA) TEHSIL-SAMBHAL DISTT. MORADABD,MORADABAD,MORADABAD,UTTAR PRADESH,9927030635
129,PRATHAMA BANK,PRTH0014145,MANAUTA,P.O. MANAUTA TEHSIL-SAMBHAL DISTT. MORADABAD,MORADABAD,MORADABAD,UTTAR PRADESH,9927030639
130,PRATHAMA BANK,PRTH0014164,KURI RAVANA,P.O. KURI RAWANA TEHSIL-KANTH DISTT.MORADABAD,MORADABAD,MORADABAD,UTTAR PRADESH,2225601
131,PRATHAMA BANK,PRTH0014177,KANTH,"P.O. KANTH,DISTT:- MORADABAD",MORADABAD,MORADABAD,UTTAR PRADESH,9927030559
132,PRATHAMA BANK,PRTH0014181,SAMADPUR,"VILL. SAMADPUR, POST SADARPUR, MATLABPUR, TEHSIL KANTH,DISTT,.MORADABAD",MORADABAD,MORADABAD,UTTAR PRADESH,9756799181
133,PRATHAMA BANK,PRTH0014212,SHAHBAJPUR KALAN,"VILL & POST SHAHBAZPUR KALAN, TEHSIL-SAMBHAL,DISTT-MORADABAD,",MORADABAD,MORADABAD,UTTAR PRADESH,8057911212
134,PRATHAMA BANK,PRTH0014221,GUMSANI,"VILL. & POST GUMSANI,BLOCK ASMOLI, TEHSIL SAMBHAL, DISTT-J.P.NAGAR,PIN-244255,(U.P)",MORADABAD,MORADABAD,UTTAR PRADESH,8449710221
135,PRATHAMA BANK,PRTH0014252,MUNDA KHERI,"VILL.& PO MUNDHA KHERI, BLOCK CHHIJLET, TEHSIL KANTH DIST MORADABAD-244221",MORADABAD,MORADABAD,UTTAR PRADESH,8191900252
136,PRATHAMA BANK,PRTH0014253,KOTHI KHIDMATPUR,"VILL. & PO KOTHI KHIDMATPUR, BLOCK CHHIJLET, TEHSIL KANTH DIST MORADABAD-244501",MORADABAD,MORADABAD,UTTAR PRADESH,8191900253
137,PRATHAMA BANK,PRTH0014259,BHAWALPUR WASLI,"BLOCK ASMOLI TEHSIL SAMBHAL,DISTT. MORADABAD",MORADABAD,MORADABAD,UTTAR PRADESH,8191900259
138,PRATHAMA BANK,PRTH0014313,PALLUPURA GHOSI,VILL PALLUPURA GHOSI PAKWARA 244102 DISTT MORADABAD,MORADABAD,MORADABAD,UTTAR PRADESH,7055715313
139,PRATHAMA BANK,PRTH0014314,MUBARAKPUR BAND,VILL MUBARAKPUR BAND POST KHASPUR 244102 DISTT SAMBHAL,SAMBHAL,SAMBHAL,UTTAR PRADESH,7055715314
140,PRATHAMA BANK,PRTH0014315,CHANDBAR,VILL CHANDBAD POST OBRI 244102 DISTT SAMBHAL,SAMBHAL,SAMBHAL,UTTAR PRADESH,7055715315
141,PRATHAMA BANK,PRTH0014316,MANDAWALI RASOOLPUR,MANDAWALI RASOOLPUR POST ASMOLI 244304 DISTT SAMBHAL,SAMBHAL,SAMBHAL,UTTAR PRADESH,7055715316
142,PRATHAMA BANK,PRTH0014337,NAYA GAON AKBARPUR CHENDRI,VILL NAYA GAON AKBARPUR CHENDRI TEHSIL KANTH DISTT MORADABAD,MORADABAD,MORADABAD,UTTAR PRADESH,7055715337
143,PRATHAMA BANK,PRTH0014339,BAGARPUR KALAN,VILL BAGARPUR KALAN TEHSIL KANTH DISTT MORADABAD,MORADABAD,KANTH,UTTAR PRADESH,7055715339
144,PRATHAMA BANK,PRTH0014361,JAHANGIRPUR CHAK FERI,"VILL AND PO JAHANGIRPUR CHAK FERI,TEHSIL KANTH,DISTT. MORADABAD",MORADABAD,AMROHA,UTTAR PRADESH,7055715361
145,PRATHAMA BANK,PRTH0014376,BABU KHERA,"VILL BABU KHERA.PO SAIDPUR GANGOO, TEHSIL AND DISTT.SAMBHAL",SAMBHAL,AMROHA,UTTAR PRADESH,7055715376
146,PRATHAMA BANK,PRTH0014383,SALEMPUR,"SALEMPUR,BLOCK-CHHIJLET, DISTT.MORADABAD",MORADABAD,MORADABAD,UTTAR PRADESH,7055715383
147,PRATHAMA BANK,PRTH0014410,RATUPUR,VILL RATUPUR BLOCK ASMOLI DISTT SAMBHAL,SAMBHAL,SAMBHAL,UTTAR PRADESH,7055715410
148,PRATHAMA BANK,PRTH0016000,RO SAMBHAL,"PRATHAMA BANK RO, SAMBHAL, NEAR SANKAR COLLEGE, SAMBHAL",MORADABAD,MORADABAD,UTTAR PRADESH,9837001684
149,PRATHAMA BANK,PRTH0016003,SIRSI,"MOH. SADAQ SARAI, P.O. SIRSI,┬áTEH. SAMBHAL DISTT. MORADABAD.",MORADABAD,MORADABAD,UTTAR PRADESH,9756799003
150,PRATHAMA BANK,PRTH0016004,PAWANSA,"VILL. PAWANSA, P.O. PAWANSA, TEH.SAMBHAL, DISTT. MORADABAD.",MORADABAD,MORADABAD,UTTAR PRADESH,9756799004
151,PRATHAMA BANK,PRTH0016014,SARAITAREEN,P.O. SARAI TAREEN P.O. SAMBHAL DISTT. MORADABAD.,MORADABAD,MORADABAD,UTTAR PRADESH,9756799014
152,PRATHAMA BANK,PRTH0016019,ASMOLI,P.O. ASMOLI TEH.SAMBHAL DISTT. MORADABAD.,MORADABAD,MORADABAD,UTTAR PRADESH,9756799019
153,PRATHAMA BANK,PRTH0016027,GUMTHAL,"BAHJOI ROAD, CHANDAUSI , TEHSIL CHANDAUSI DISTT. MORADABAD",MORADABAD,MORADABAD,UTTAR PRADESH,9756799027
154,PRATHAMA BANK,PRTH0016028,DEENGARPUR,"P.O. DINGERPUR TEHSIL BILARI, DISTT. MORADABAD",MORADABAD,MORADABAD,UTTAR PRADESH,9756799028
155,PRATHAMA BANK,PRTH0016031,KAITHAL,P.O. KAITHAL TEHSIL CHANDAUSI DISTT. MORADABAD,MORADABAD,MORADABAD,UTTAR PRADESH,9756799031
156,PRATHAMA BANK,PRTH0016032,MANJHOLA RAJA KA,P.O. MAJHOLA RAJA KA TEHSIL CHANDAUSI DISTT. MORADABAD,MORADABAD,MORADABAD,UTTAR PRADESH,9756799032
157,PRATHAMA BANK,PRTH0016033,PATHAKPUR,P.O. PATHAKPUR TEHSIL CHANDAUSI DISTT. MORADABAD,MORADABAD,MORADABAD,UTTAR PRADESH,9756799033
158,PRATHAMA BANK,PRTH0016035,SINGPUR SAINI,P.O. SINGHPUR SANI TEHSIL SAMBHAL DISTT. MORADABAD,MORADABAD,MORADABAD,UTTAR PRADESH,9756799035
159,PRATHAMA BANK,PRTH0016041,MOHDPUR TANDA,"P.O. MOHDPUR TANDA, TEHSIL SAMBHAL┬á DISTT. MORADABAD",MORADABAD,MORADABAD,UTTAR PRADESH,9756799041
160,PRATHAMA BANK,PRTH0016049,LAKHORI JALALPUR,P.O. LAKHORI JALALPUR TEHSIL.SAMBHAL DISTT. MORADABAD,MORADABAD,MORADABAD,UTTAR PRADESH,9756799049
161,PRATHAMA BANK,PRTH0016053,BHAWANIPUR,P.O. BHAWANIPUR TEHSIL.SAMBHAL DISTT. MORADABAD,MORADABAD,MORADABAD,UTTAR PRADESH,9756799053
162,PRATHAMA BANK,PRTH0016056,BANIAKHERA,P.O. BANIAKHERA TEHSIL.CHANDAUSI DISTT. MORADABAD,MORADABAD,MORADABAD,UTTAR PRADESH,9927030579
163,PRATHAMA BANK,PRTH0016062,MAUKATHER,P.O. MAUKATHER TEHSIL. CHANDAUSI DISTT. MORADABAD,MORADABAD,MORADABAD,UTTAR PRADESH,9927030582
164,PRATHAMA BANK,PRTH0016064,MAINATHER,P.O. MAINATHER┬á TEHSIL.BILARI DISTT. MORADABAD,MORADABAD,MORADABAD,UTTAR PRADESH,9927030567
165,PRATHAMA BANK,PRTH0016074,JANETA,P.O. JANETA TEHSIL.CHANDAUSI DISTT. MORDABAD,MORADABAD,MORADABAD,UTTAR PRADESH,246465
166,PRATHAMA BANK,PRTH0016075,DAROLI AFZALPUR,P.O. ┬ûDAROLI AFZALPUR VIA NAROLI TEHSIL.CHANDAUSI DISTT.MORADABAD,MORADABAD,MORADABAD,UTTAR PRADESH,9927030576
167,PRATHAMA BANK,PRTH0016083,CHANDAUSI,"P.O. & TEHSIL. CHANDAUSI, DISTT. MORADABAD",MORADABAD,MORADABAD,UTTAR PRADESH,250355
168,PRATHAMA BANK,PRTH0016084,AMARPUR KASHI,"P.O. AMARPUR KASHI TEHSIL, BILARI DISTT. MORDABAD",MORADABAD,MORADABAD,UTTAR PRADESH,9927030580
169,PRATHAMA BANK,PRTH0016087,SAUDHAN MOHAMMADPUR,"P.O. SODHAN MOHD.PUR TEHSIL- SAMBHAL, DISTT. MORADABAD",MORADABAD,MORADABAD,UTTAR PRADESH,9927030663
170,PRATHAMA BANK,PRTH0016088,SAMBHAL,"NEAR ROADWAYS BUS STAND P.O. SAMBHAL, TEHSIL. SAMBHAL┬á DISTT. MORADABAD",MORADABAD,MORADABAD,UTTAR PRADESH,230251
171,PRATHAMA BANK,PRTH0016101,BERNI,"P.O. BERNI, TEHSIL- CHANDAUSI DISTT. MORADABAD",MORADABAD,MORADABAD,UTTAR PRADESH,233271
172,PRATHAMA BANK,PRTH0016111,MOHDPUR WABAI,P.O. M.P. WABAI TEHSIL. CHANDAUSI DISTT. MORADABD,MORADABAD,MORADABAD,UTTAR PRADESH,246222
173,PRATHAMA BANK,PRTH0016112,KHIRNI MOINUDDINPUR,P.O. AMAWATI KUTUBPUR TEHSIL. SAMBHAL DISTT. MORADABAD,MORADABAD,MORADABAD,UTTAR PRADESH,9927030664
174,PRATHAMA BANK,PRTH0016113,RAMPUR URF YARPUR,"P.O. RAMPUR URF YARPUR,TEHSIL. SAMBHAL DISTT. MORADABAD",MORADABAD,MORADABAD,UTTAR PRADESH,9927030562
175,PRATHAMA BANK,PRTH0016123,MADALA FATEHPUR,P.O. ASMOLI TEH. SAMBHAL DISTT. MORADABAD,MORADABAD,MORADABAD,UTTAR PRADESH,9927030563
176,PRATHAMA BANK,PRTH0016167,NARAULI,"MAIN MARKET, TEHSIL- CHANDAUSI DISTT. MORDABAD",MORADABAD,MORADABAD,UTTAR PRADESH,246423
177,PRATHAMA BANK,PRTH0016178,BEHJOI,"TEHSIL SAMBHAL,DISTT: MORADABAD.",MORADABAD,MORADABAD,UTTAR PRADESH,243377
178,PRATHAMA BANK,PRTH0016194,ASALATPUR JARAI,"POST OFFICE:ASALATPUR JARAI,TEHSIL CHANDAUSI,┬áDISTT: MORADABAD",MORADABAD,MORADABAD,UTTAR PRADESH,9756799194
179,PRATHAMA BANK,PRTH0016210,MEHMOODPUR MAFI,"VILL-MEHMOODPUR MAFI,POST.-SIRSI,TEHSIL-BILARI,DISTT-MORADABAD,",MORADABAD,MORADABAD,UTTAR PRADESH,8057911210
180,PRATHAMA BANK,PRTH0016224,KHAGUPURA,"VILL.KHABUPURA,P.O.SAMBHAL,BHEEM NAGAR",MORADABAD,MORADABAD,UTTAR PRADESH,8449710224
181,PRATHAMA BANK,PRTH0016227,PATHARA,"VILL. PATHARA P.O. MAI,TEHSIL-CHANDAUSI, DISTT-BHEEM NAGAR",MORADABAD,MORADABAD,UTTAR PRADESH,8449710227
182,PRATHAMA BANK,PRTH0016228,NOORAI SARAI,"VILL. NOORAI SARAI P.O.MEERIYASARAI,TEHSEEL SAMBHAL,BHEEM NAGAR",MORADABAD,MORADABAD,UTTAR PRADESH,8449710228
183,PRATHAMA BANK,PRTH0016229,TANDA KOTHI,"VILL. TANDA KOTHI P.O.KHASPUR,TEHSEEL SAMBHAL,BHEEM NAGAR",MORADABAD,MORADABAD,UTTAR PRADESH,8449710229
184,PRATHAMA BANK,PRTH0016238,BABINA,"VILL. BABINA,P.O.MOHARA RATUPURA,BHEEM NAGAR",MORADABAD,MORADABAD,UTTAR PRADESH,8476010238
185,PRATHAMA BANK,PRTH0016240,JATPURA,"VILL.JATPURA,P.O.FATEHPUR KHAS,TEHSEEL BILARI,MORADABAD",MORADABAD,MORADABAD,UTTAR PRADESH,8476010240
186,PRATHAMA BANK,PRTH0016249,DEHPA,"VILL & PO DEHPA BLOCK SAMBHAL, DIST. MORADABAD-244242",MORADABAD,MORADABAD,UTTAR PRADESH,8191900249
187,PRATHAMA BANK,PRTH0016271,BHAWAN,"PO KASAULI,BLOCK BEHJOI,DISTT MORADABAD 244302",MORADABAD,MORADABAD,UTTAR PRADESH,0
188,PRATHAMA BANK,PRTH0016278,TURTIPUR ILLAHA,"PO SAMBHAL,BLOCK SAMBHAL,DISTRICT SAMBHAL 244302",SAMBHAL,SAMBHAL,UTTAR PRADESH,7534016278
189,PRATHAMA BANK,PRTH0016279,KELA DEVI,"PO THATI,BLOCK PAWANSA,DISTT MORADABAD 244302",MORADABAD,MORADABAD,UTTAR PRADESH,0
190,PRATHAMA BANK,PRTH0016290,LADAM SARAI,"PO SAMBHAL,BLOCK SAMBHAL,DISTRICT SAMBHAL 244302",SAMBHAL,SAMBHAL,UTTAR PRADESH,7534016290
191,PRATHAMA BANK,PRTH0016295,KANETA NIKAT BEHJOI,VILL AND PO RAMPURA BLOCK BEHJOI DISTRICT SAMBHAL 244410,SAMBHAL,SAMBHAL,UTTAR PRADESH,7534016295
192,PRATHAMA BANK,PRTH0016298,FIROZPUR,"VILL AND PO SAMBHAL BLOCK SAMBHAL,DISTRICT SAMBHAL 244302",SAMBHAL,SAMBHAL,UTTAR PRADESH,7534016298
193,PRATHAMA BANK,PRTH0016299,HAZRAT NAGARGADHI,"VILL AND PO HAZRAT NAGAR GARHI,BLOCK SAMBHAL,DISTRICT SAMBHAL 244301",SAMBHAL,SAMBHAL,UTTAR PRADESH,7534016299
194,PRATHAMA BANK,PRTH0016306,ASALAT NAGAR BAGA,VILL. ASALAT NAGAR BAGA POST MAINATHER-244301 DIST MORADABAD,MORADABAD,MORADABAD,UTTAR PRADESH,7055715306
195,PRATHAMA BANK,PRTH0016307,BHATPURA,VILL BHATPURA TEH. SAMBHAL DISTT SAMBHAL,SAMBHAL,SAMBHAL,UTTAR PRADESH,7055715307
196,PRATHAMA BANK,PRTH0016308,PRATHAMA BANK,VILL & POST SADAWATI-244410 DISTT.SAMBHAL,SAMBHAL,SAMBHAL,UTTAR PRADESH,7055715308
197,PRATHAMA BANK,PRTH0016309,PRATHAMA BANK,VILL KHARAGRANI POST SAUDHAN MOHAMMADPUR 244303 DISTT SAMBHAL,SAMBHAL,SAMBHAL,UTTAR PRADESH,7055715309
198,PRATHAMA BANK,PRTH0016310,HISAMPUR,VILL HISAMPUR POST CHAMRAULA 244302 DISTT SAMBHAL,SAMBHAL,SAMBHAL,UTTAR PRADESH,7055715310
199,PRATHAMA BANK,PRTH0016322,SIHAWALI,VILL SIHAWALI POST GAUHAT 244303 SAMBHAL,SAMBHAL,SAMBHAL,UTTAR PRADESH,7055715322
200,PRATHAMA BANK,PRTH0016323,SHAHPUR CHAMARAN,SHAHPUR CHAMARAN VILLAGE TEH .SAMBHAL DISTT SAMBHAL,SAMBHAL,SAMBHAL,UTTAR PRADESH,7055715323
201,PRATHAMA BANK,PRTH0016324,SALAKHANA,VILL SALAKHANA TEHSIL SAMBHAL DISTT SAMBHAL,SAMBHAL,SAMBHAL,UTTAR PRADESH,7055715324
202,PRATHAMA BANK,PRTH0016344,SALARPUR KALAN,VILL SALARPUR KALAN TEHSIL AND DISTT SAMBHAL,SAMBHAL,SAMBHAL,UTTAR PRADESH,7055715344
203,PRATHAMA BANK,PRTH0016345,TAHARPUR,VILL TAHARPUR DISTT MORADABAD,MORADABAD,MORADABAD,UTTAR PRADESH,7055715345
204,PRATHAMA BANK,PRTH0016348,RAMPURA,VILL AND PO RAMPUR TEHSIL SAMBHAL DISTT SAMBHAL,SAMBHAL,SAMBHAL,UTTAR PRADESH,7055715348
205,PRATHAMA BANK,PRTH0016349,BARAULI RUSTAMPUR,VILL AND PO BARAULI RUSTAMPUR TEHSIL AND DISTT SAMBHAL,SAMBHAL,SAMBHAL,UTTAR PRADESH,7055715349
206,PRATHAMA BANK,PRTH0016350,ATTA,VILL ATTA PO MAULA GARH TEHSIL CHANDAUSI DISTT SAMBHAL,SAMBHAL,SAMBHAL,UTTAR PRADESH,7055715350
207,PRATHAMA BANK,PRTH0016352,RATANPUR,RATANPUR VILLAGE PO BAHETA KHAS TEHSIL BILARI DISTT MBD,MORADABAD,BILARI,UTTAR PRADESH,7055715352
208,PRATHAMA BANK,PRTH0016354,BICHETA KAJI,VILL BICHETA KAJI TEHSIL BILARI DISTT MBD,MORADABAD,BILARI,UTTAR PRADESH,7055715354
209,PRATHAMA BANK,PRTH0016362,MAI,"VILL. AND PO MAI,TEHSIL CHANDAUSI,DISTT.SAMBHAL",SAMBHAL,SAMBHAL,UTTAR PRADESH,7055715362
210,PRATHAMA BANK,PRTH0016363,LALWARA,"VILL. LALWARA, PO DINGARPUR, TEHSIL BILARI, DISTT. MORADABAD",MORADABAD,SAMBHAL,UTTAR PRADESH,7055715363
211,PRATHAMA BANK,PRTH0016364,RASOOLPUR ADDA,"VILL.RASOOLPUR HAMIR,PO FATEHPUR,BLOCK-DINGARPUR TEHSIL BILARI,DISTT. MORADABAD",MORADABAD,SAMBHAL,UTTAR PRADESH,7055715364
212,PRATHAMA BANK,PRTH0016365,RUSTAMNAGAR NIYAMALI,"VILL. AND PO RUSTAMPUR NIYAWALI, TEHSIL SAMBHAL, DISTT. SAMBHAL",SAMBHAL,SAMBHAL,UTTAR PRADESH,7055715365
213,PRATHAMA BANK,PRTH0016366,NAI BASTI HATIM SARAI,"VILL.AND PO NAI BASTI HATIM SARAI,TEHSIL SAMBHAL,DISTT.SAMBHAL",SAMBHAL,SAMBHAL,UTTAR PRADESH,7055715366
214,PRATHAMA BANK,PRTH0016377,AMIYAPUR PACHAK,"VILL.AMIYAPUR PACHAK,PO GUMTHAL,TEH-CHANDAUSI,DISTT.SAMBHAL",SAMBHAL,SAMBHAL,UTTAR PRADESH,7055715377
215,PRATHAMA BANK,PRTH0016380,RASOOLPUR DHATRA,"VILL.RASOOLPUR DHATRA,PO SARAI TAREEN, DIST. SAMBHAL",SAMBHAL,SAMBHAL,UTTAR PRADESH,7055715380
216,PRATHAMA BANK,PRTH0016381,AKRAULI,"VILL.AND PO-AKRAULI, TEH- CHANDAUSI,DISTT. SAMBHAL",SAMBHAL,SAMBHAL,UTTAR PRADESH,7055715381
217,PRATHAMA BANK,PRTH0016384,HISAMPUR,"HISAMPUR, BLOCK-DINGARPUR,DISTT.MORADABAD",MORADABAD,MORADABAD,UTTAR PRADESH,7055715384
218,PRATHAMA BANK,PRTH0016390,BARAHI,"BLOCK SAMBHAL, TEHSIL AND DIST. SAMBHAL",SAMBHAL,SAMBHAL,UTTAR PRADESH,7055715390
219,PRATHAMA BANK,PRTH0016399,DHEEMAR KHERI,VILL DHEEMAR KHERI NEAR SIRSI SAMBHAL ROAD SAMBHAL PIN 244302,SAMBHAL,SAMBHAL,UTTAR PRADESH,7055715399
220,PRATHAMA BANK,PRTH0016400,FAREED PUR KAUSHAL,VILL AND PO FAREED PUR KAUSHAL BLOCK BEHJOI TEHSIL SAMBHAL PIN 244410,SAMBHAL,SAMBHAL,UTTAR PRADESH,7055715400
221,PRATHAMA BANK,PRTH0016401,BARIPUR BHAMRAUA,"VILL BARIPUR BHAMRAUA,NEAR SIRSI ROAD,TEHSIL SAMBHAL PIN 244302",SAMBHAL,SAMBHAL,UTTAR PRADESH,7055715401
222,PRATHAMA BANK,PRTH0016402,NARANGPUR,VILL NARANGPUR PO RUDAYAN TEHSIL AND DIST SAMBHAL,SAMBHAL,SAMBHAL,UTTAR PRADESH,7055715402
223,PRATHAMA BANK,PRTH0016412,RAHOLI,VILL RAHOLI BLOCK BANIA KHERA TEHSIL CHANDAUSI DISTT SAMBHAL,SAMBHAL,SAMBHAL,UTTAR PRADESH,8941889412
224,PRATHAMA BANK,PRTH0016413,RAI SATTI,"BLOCK,TEHSIL,DISTT SAMBHAL",SAMBHAL,SAMBHAL,UTTAR PRADESH,8941889413
225,PRATHAMA BANK,PRTH0021163,SARAWA,"P.O. SAID NAGAR┬á,TEHSIL-RAMPUR,DISTT- RAMPUR",RAMPUR,RAMPUR,UTTAR PRADESH,9927030573
226,PRATHAMA BANK,PRTH0022000,RO RAMPUR,"PRATHAMA BANK RO, NAVIN MARKET, RAJDWARA ROAD, RAMPUR",RAMPUR,RAMPUR,UTTAR PRADESH,9837001685
227,PRATHAMA BANK,PRTH0022090,RAMPUR MAIN,"P.O. MESTON GUNJ, RAMPUR,TEHSIL-SADAR,DISTT-RAMPUR",RAMPUR,RAMPUR,UTTAR PRADESH,2325168
228,PRATHAMA BANK,PRTH0022091,BARAGAON,"P.O.BARAGAON,TEHSIL-SHAHABAD,DISTT- RAMPUR PIN-244922",RAMPUR,RAMPUR,UTTAR PRADESH,9927030569
229,PRATHAMA BANK,PRTH0022092,REWARI KALAN,"P.O. REWARI KALAN,TEHSIL-SHAHBAD,DISTT- RAMPUR PIN-244922",RAMPUR,RAMPUR,UTTAR PRADESH,9927030601
230,PRATHAMA BANK,PRTH0022093,PUSHWARA,"P.O. SWAR,TEHSIL-SWAR,DISTT- RAMPUR PIN-244924",RAMPUR,RAMPUR,UTTAR PRADESH,2580035
231,PRATHAMA BANK,PRTH0022094,ANWARIE,"P.O.ANWARIA,TEHSIL-BILASPUR,DISTT- RAMPUR PIN-244921",RAMPUR,RAMPUR,UTTAR PRADESH,2420107
232,PRATHAMA BANK,PRTH0022095,SALAI BARA GAON,"P.O. MILAK,TEHSIL-MILAK,DISTT- RAMPUR PIN-243701",RAMPUR,RAMPUR,UTTAR PRADESH,9756799095
233,PRATHAMA BANK,PRTH0022096,MANPUR OJHA,"P.O. MANPUR OJHA,TEHSIL-BILASPUR,DISTT- RAMPUR PIN-244921",RAMPUR,RAMPUR,UTTAR PRADESH,9927030590
234,PRATHAMA BANK,PRTH0022097,MEERPUR MEERAGUNJ,"P.O. SWAR,TEHSIL-SWAR,DISTT- RAMPUR PIN-244924",RAMPUR,RAMPUR,UTTAR PRADESH,9927030585
235,PRATHAMA BANK,PRTH0022098,BARAKHAS,"P.O. BARA KHAS,TEHSIL-MILAK,DISTT- RAMPUR PIN-244901",RAMPUR,RAMPUR,UTTAR PRADESH,9927030569
236,PRATHAMA BANK,PRTH0022099,KOILA,"P.O. KOILA┬á,TEHSIL-SADAR,DISTT- RAMPUR PIN-244901",RAMPUR,RAMPUR,UTTAR PRADESH,9927030596
237,PRATHAMA BANK,PRTH0022114,SAMODIA,"P.O. SWAR,TEHSIL-SWAR,DISTT- RAMPUR PIN-244924",RAMPUR,RAMPUR,UTTAR PRADESH,9927030574
238,PRATHAMA BANK,PRTH0022117,PARAM,"P.O. PARAM,TEHSIL MILAK,DISTT- RAMPUR PIN-243701",RAMPUR,RAMPUR,UTTAR PRADESH,9927030634
239,PRATHAMA BANK,PRTH0022118,MUBARAKPUR,"P.O. NIPNIYA,TEHSIL MILAK,DISTT- RAMPUR PIN-243701",RAMPUR,RAMPUR,UTTAR PRADESH,9927030556
240,PRATHAMA BANK,PRTH0022124,DHANIAPUR SHANKARPUR,"P.O. DHAMORA,TEHSIL ┬ûSADAR,DISTT-RAMPUR PIN-244901",RAMPUR,RAMPUR,UTTAR PRADESH,228254
241,PRATHAMA BANK,PRTH0022125,AJEETPUR,"P.O. AJEETPUR,TEHSIL-SADAR,DISTT- RAMPUR PIN-244901",RAMPUR,RAMPUR,UTTAR PRADESH,2330761
242,PRATHAMA BANK,PRTH0022126,BAKENIA,"P.O. BAKENIA,TEHSIL-RAMPUR,DISTT- RAMPUR PIN-244901",RAMPUR,RAMPUR,UTTAR PRADESH,9927030594
243,PRATHAMA BANK,PRTH0022127,AJEEM NAGAR,"P.O. AZEEM NAGAR,TEHSILSADAR,DISTT- RAMPUR PIN-244901",RAMPUR,RAMPUR,UTTAR PRADESH,9927030577
244,PRATHAMA BANK,PRTH0022128,RAZA NAGAR,"P.O. SWAR,TEHSIL-SWAR,DISTT- RAMPUR PIN-244924",RAMPUR,RAMPUR,UTTAR PRADESH,2470338
245,PRATHAMA BANK,PRTH0022131,PATTIBASANTPUR,"P.O. PATTI BASANTPUR,TEHSIL-MILAK,DISTT- RAMPUR PIN-243701",RAMPUR,RAMPUR,UTTAR PRADESH,9927030587
246,PRATHAMA BANK,PRTH0022134,MILAK,"P.O. MILAK┬á,TEHSIL-DISTT- RAMPUR PIN-244901",RAMPUR,RAMPUR,UTTAR PRADESH,224129
247,PRATHAMA BANK,PRTH0022137,BILASPUR,"P.O. BILASPUR,TEHSIL-BILASPUR,DISTT- RAMPUR PIN-244921",RAMPUR,RAMPUR,UTTAR PRADESH,2412122
248,PRATHAMA BANK,PRTH0022139,SEVIA KALAN,"P.O. MATHURAPUR KHURD,TEHSIL-SHAHBAD,DISTT- RAMPUR",RAMPUR,RAMPUR,UTTAR PRADESH,9927030603
249,PRATHAMA BANK,PRTH0022150,SWAR,"P.O. SWAR,TEHSIL-SWAR,DISTT- RAMPUR PIN-244924",RAMPUR,RAMPUR,UTTAR PRADESH,5952515134
250,PRATHAMA BANK,PRTH0022151,NAYA SAGARPUR,"P.O. NAYA SAGARPUR,TEHSIL-SHAHBAD,DISTT- RAMPUR PIN-202411",RAMPUR,RAMPUR,UTTAR PRADESH,9927030571
251,PRATHAMA BANK,PRTH0022152,SHAHBAD,"P.O. SHAHBAD,TEHSIL-SHAHBAD,DISTT- RAMPUR PIN-244922",RAMPUR,RAMPUR,UTTAR PRADESH,264132
252,PRATHAMA BANK,PRTH0022153,MADHUKAR,"P.O. MADHUKAR,TEHSIL-SHAHBAD,DISTT- RAMPUR PIN-244922",RAMPUR,RAMPUR,UTTAR PRADESH,9927030583
253,PRATHAMA BANK,PRTH0022155,PUNJAB NAGAR,"P.O. MULLA KHERA┬áTEHSIL-BILASPUR,DISTT- RAMPUR PIN-244921",RAMPUR,RAMPUR,UTTAR PRADESH,2415021
254,PRATHAMA BANK,PRTH0022156,SIMARIA,"VILL. & POST-SIMARIA┬á,TEHSIL-MILAK┬á,DISTT- RAMPUR PIN-243701",RAMPUR,RAMPUR,UTTAR PRADESH,9927030633
255,PRATHAMA BANK,PRTH0022157,RAS DANDIA,"P.O. RASS DANDIYA,TEHSIL-MILAK┬á,DISTT- RAMPUR PIN- 244921",RAMPUR,RAMPUR,UTTAR PRADESH,2457131
256,PRATHAMA BANK,PRTH0022158,LOHAPATTI,"P.O. LOHAPATTI┬á,TEHSIL-MILAK,DISTT- RAMPUR PIN-244901",RAMPUR,RAMPUR,UTTAR PRADESH,9927030557
257,PRATHAMA BANK,PRTH0022161,NARKHEDA,"P.O. NARKHERA TEHSIL-BILASPUR,DISTT- RAMPUR PIN-244921",RAMPUR,RAMPUR,UTTAR PRADESH,2440236
258,PRATHAMA BANK,PRTH0022166,KEMRI,"V-KEMRI BILASPUR RAOD,TEHSIL-BILASPUR,DISTT RAMPUR PIN244921",RAMPUR,RAMPUR,UTTAR PRADESH,2450405
259,PRATHAMA BANK,PRTH0022180,DHANORA,"VILL DHAMORA ,TEHSIL  MILAK,DISTT: RAMPUR",RAMPUR,RAMPUR,UTTAR PRADESH,228233
260,PRATHAMA BANK,PRTH0022183,PANWARIA,"BAREILLY ROAD, PANWARIA RAMPUR,TEHSIL RAMPUT,┬áDISTT. RAMPUR",RAMPUR,RAMPUR,UTTAR PRADESH,2251717
261,PRATHAMA BANK,PRTH0022184,MASWASI,"HOLI CHAURAHA, KASHIPUR ROAD, MASVASI,┬áTEHSIL SWAR,┬áDISTT. RAMPUR",RAMPUR,RAMPUR,UTTAR PRADESH,2555657
262,PRATHAMA BANK,PRTH0022195,BHOT,"VILL & P.O.BHOT,TEH:RAMPUR,DISTT:RAMPUR PIN-244901",RAMPUR,RAMPUR,UTTAR PRADESH,9756799195
263,PRATHAMA BANK,PRTH0022196,MILAK KHANAM,"VILL. MILAK KHANAM,POST OFFICE:MILAK KHANAM,TEH:SWAR,DISTT:RAMPUR PIN-244921",RAMPUR,RAMPUR,UTTAR PRADESH,9756799196
264,PRATHAMA BANK,PRTH0022197,SAIFNI,"VILL & P.O. SAIFNI,TEH:SHAHBADDISTT: RAMPUR PIN-202407",RAMPUR,RAMPUR,UTTAR PRADESH,9756799197
265,PRATHAMA BANK,PRTH0022209,DIBDIBA,"VILL DIBDIBA,POST-BILASPUR,TEHSIL-BILASPUR,DISTT-RAMPUR, PIN-244923(U.P)",RAMPUR,RAMPUR,UTTAR PRADESH,8057911209
266,PRATHAMA BANK,PRTH0022219,GANGAPUR KHADEEM,"VILL.GANGAPUR KHADEEM,POST SIMARIA TESHIL MILAK,DISTT-RAMPUR",RAMPUR,RAMPUR,UTTAR PRADESH,8449710219
267,PRATHAMA BANK,PRTH0022225,HAMEERPUR,"VILL & POST HAMEERPUR,TEHSIL THANDA,DISTT-RAMPUR",RAMPUR,RAMPUR,UTTAR PRADESH,8449710225
268,PRATHAMA BANK,PRTH0022226,AGAPUR,"VILL. & POST AGAPUR, TEHSIL SADAR,DISTT-RAMPUR",RAMPUR,RAMPUR,UTTAR PRADESH,8449710226
269,PRATHAMA BANK,PRTH0022239,NARPAT NAGAR,"VILL NARPAT NAGAR,POST-POONDAWALA,RAMPUR",RAMPUR,RAMPUR,UTTAR PRADESH,8476010239
270,PRATHAMA BANK,PRTH0022246,MURSAINA,"VILL & PO MURSAINA,BLOCK SAID NAGAR, DIST. RAMPUR-244927",RAMPUR,RAMPUR,UTTAR PRADESH,8191900246
271,PRATHAMA BANK,PRTH0022261,LALPUR KALAN,"VILLAGE AND POST LALPUR KALAN,BLOCK SAID NAGAR,DIST RAMPUR 244927",RAMPUR,RAMPUR,UTTAR PRADESH,8191900261
272,PRATHAMA BANK,PRTH0022267,RAIPUR,"PO AJEETPUR,BLOCK CHAMRAWA,DISTT RAMPUR 244901",RAMPUR,RAMPUR,UTTAR PRADESH,0
273,PRATHAMA BANK,PRTH0022268,RATHONDA,"PO KHAMARIA,BLOCK MILAK,DISTT RAMPUR 243701",RAMPUR,RAMPUR,UTTAR PRADESH,0
274,PRATHAMA BANK,PRTH0022269,BAGRAUA,"PO NAGALIA AQUIL,BLOCK SAID NAGAR,DISTT RAMPUR 244927",RAMPUR,RAMPUR,UTTAR PRADESH,0
275,PRATHAMA BANK,PRTH0022270,KAUSHAL GANJ,"PO KAUSHAL GANJ,BLOCK BILASPUR,DISTT RAMPUR 244923",RAMPUR,RAMPUR,UTTAR PRADESH,0
276,PRATHAMA BANK,PRTH0022282,PATWAI,"PATWAI VILL & PO PATWARI, DISTT RAMPUR-244901",RAMPUR,RAMPUR,UTTAR PRADESH,7534016282
277,PRATHAMA BANK,PRTH0022286,BHOT BAQQAL,"VILL AND PO BHOT BAQQAL,BLOCK SWAR,DISTRICTRAMPUR 244924",RAMPUR,RAMPUR,UTTAR PRADESH,7534016286
278,PRATHAMA BANK,PRTH0022291,MATKHERA,"VILL AND PO MATKHERA BLOCK SWAR,DISTRICT RAMPUR 244921",RAMPUR,RAMPUR,UTTAR PRADESH,7534016291
279,PRATHAMA BANK,PRTH0022294,BHAINSIAN JWALAPUR,"VILL AND PO BHAISIYAN JWALAPUR,BLOCK BILASPUR,DISTRICT RAMPUR 244921",RAMPUR,RAMPUR,UTTAR PRADESH,7534016294
280,PRATHAMA BANK,PRTH0022301,MILAK NAUKHARID,VILL MILAK NAUKHARID PO RAHMATGANJ BLOCK SWAR DISTRICT RAMPUR 244924,RAMPUR,RAMPUR,UTTAR PRADESH,7534016301
281,PRATHAMA BANK,PRTH0022304,BILASPUR GATE,MOH BILASPUR GATE BLOCK AND TEHSIL RAMPUR,RAMPUR,RAMPUR,UTTAR PRADESH,7534016304
282,PRATHAMA BANK,PRTH0022320,SONAKPUR,VILL SONAKPUR POST SWAR 244924 DISTT RAMPUR,RAMPUR,RAMPUR,UTTAR PRADESH,7055715320
283,PRATHAMA BANK,PRTH0022334,PIPALIA JAT,VILL PIPALIA JAT TEHSIL SWAR DISTT RAMPUR,RAMPUR,SWAR,UTTAR PRADESH,7055715334
284,PRATHAMA BANK,PRTH0022335,NAGLIA AKIL,VILL NALIA AKIL TEHSIL AND DISTT RAMPUR,RAMPUR,RAMPUR,UTTAR PRADESH,7055715335
285,PRATHAMA BANK,PRTH0022346,KOOP,VILL KOOP TEHSIL MILAK DISTT RAMPUR,RAMPUR,MILAK,UTTAR PRADESH,7055715346
286,PRATHAMA BANK,PRTH0022351,MATWALI,VILL MATWALI PO KIRA TEHSIL SHAHBAD DISTT RAMPUR,RAMPUR,SHAHBAD,UTTAR PRADESH,7055715351
287,PRATHAMA BANK,PRTH0022359,BAZAR NASRULLA KHAN,MOH. BAZAR NASRULLA KHAN POAND TEHSIL RAMPUR DISTT RAMPUR,RAMPUR,RAMPUR,UTTAR PRADESH,7055715359
288,PRATHAMA BANK,PRTH0022360,SHIV PURI,SHIVPURI VILLAGE BLOCK SWAR DIST RAMPUR,RAMPUR,SWAR,UTTAR PRADESH,7055715360
289,PRATHAMA BANK,PRTH0022371,MEHMOODPUR,"VILL. MEHMOODPUR, PO CHIKTI RAM NAGAR, TEHSIL AND DISTT. RAMPUR",RAMPUR,RAMPUR,UTTAR PRADESH,7055715371
290,PRATHAMA BANK,PRTH0022372,RAMPURA,"VILL.RAMPURA,PO AND TEHSIL SHAHBAD,DISTT.RAMPUR",RAMPUR,RAMPUR,UTTAR PRADESH,7055715372
291,PRATHAMA BANK,PRTH0022375,NAYAGAON,"VILL.AND PO BISHARAT NAGAR,TEHSIL BILASPUR,DISTT.RAMPUR",RAMPUR,RAMPUR,UTTAR PRADESH,7055715375
292,PRATHAMA BANK,PRTH0022382,AINJAN KHERA,"AINJAN KHERA, BLOCK-MILAK, DISTT. RAMPUR",RAMPUR,RAMPUR,UTTAR PRADESH,7055715382
293,PRATHAMA BANK,PRTH0022385,NAWAB GANJ,"NAWAB GANJ, BLOCK BILASPUR, DISTT. RAMPUR",RAMPUR,RAMPUR,UTTAR PRADESH,7055715385
294,PRATHAMA BANK,PRTH0022387,DHANELI PURVI,"BLOCK & TEHSIL MILAK,P.O.KYORAR,DISTT.RAMPUR",RAMPUR,RAMPUR,UTTAR PRADESH,7055715387
295,PRATHAMA BANK,PRTH0022388,VIKRAMPUR,"BLOCK & TEHSIL-MILAK,PO. MILAK, DISTT. RAMPUR",RAMPUR,RAMPUR,UTTAR PRADESH,7055715388
296,PRATHAMA BANK,PRTH0022391,BEGUMABAD,"BLOCK AND TEHSIL BILASPUR, PO BEGUMABAD,DISTT.RAMPUR",MORADABAD,MORADABAD,UTTAR PRADESH,7055715391
297,PRATHAMA BANK,PRTH0022392,MAHARAJPUR,"BLOCK & TEHSIL-SWAR, PO MANPUR, DISTT. RAMPUR",RAMPUR,RAMPUR,UTTAR PRADESH,7055715392
298,PRATHAMA BANK,PRTH0023115,PEEPLI NAYAK,"P.O. PEEPLINAYAK VIA TANDA,TEHSIL-SWAR,DISTT- RAMPUR",RAMPUR,RAMPUR,UTTAR PRADESH,2565033
299,PRATHAMA BANK,PRTH0023116,CHANDUPURA SIKAMPUR,"P.O. LAMBA KHERA,TEHSIL-SWAR VIA TANDA,DISTT- RAMPUR",RAMPUR,RAMPUR,UTTAR PRADESH,2549262
300,PRATHAMA BANK,PRTH0023135,RAMNAGAR LATIFPUR,"P.O. RAMNAGAR LATIFPUR,TEHSIL-SWAR,DISTT- RAMPUR PIN-244925",RAMPUR,RAMPUR,UTTAR PRADESH,9927030647
301,PRATHAMA BANK,PRTH0023159,SAINTA KHERA,"P.O. TANDA(BADLI)┬á,TEHSIL-SWAR,DISTT- RAMPUR PIN-244924",RAMPUR,RAMPUR,UTTAR PRADESH,9927030646
302,PRATHAMA BANK,PRTH0023160,CHAUKHANDI,"P.O. CHAUKHANDI ,TEHSIL-SWAR,DISTT- RAMPUR PIN-244713",RAMPUR,RAMPUR,UTTAR PRADESH,2590386
303,PRATHAMA BANK,PRTH0023168,DARIYAL,"P.O. DARIYAL(VIATANDA BADLI)TEHSIL ┬û SWAR,DISTT. RAMPUR",RAMPUR,RAMPUR,UTTAR PRADESH,2564966
304,PRATHAMA BANK,PRTH0023185,TANDA,"OPPOSITE GOVT. INTER COLLEGE RAMPUR ROAD, TANDA,┬áTEHSIL TANDS,┬áDISTT. RAMPUR",RAMPUR,RAMPUR,UTTAR PRADESH,9756799185
305,PRATHAMA BANK,PRTH0023288,BHAUPURA,"VILLAND PO MEWLA KALAN,BLOCK SWAR,DISTRICT RAMPUR 244925",RAMPUR,RAMPUR,UTTAR PRADESH,7534016288
306,PRATHAMA BANK,PRTH0023333,SHEHPURA,VILL SHEHPURA TEHSIL SWAR DISTT RAMPUR,RAMPUR,SWAR,UTTAR PRADESH,7055715333
307,PRATHAMA BANK,PRTH0023395,JALPUR,VILL JAL PUR PO TANDA BLOCK SWAR TEHSIL TANDA PIN 244925,RAMPUR,RAMPUR,UTTAR PRADESH,7055715395
308,PRATHAMA BANK,PRTH0034000,RO AMROHA,"PRATHAMA BANK RO, KOT CHOURHA, OPP MAIN POST OFFICE, AMROHA",JYOTIBA PHULE NAGAR,JYOTIBA PHULE NAGAR,UTTAR PRADESH,9837001681
309,PRATHAMA BANK,PRTH0034001,NAUGAON SADAT,"P.O. NAUGAVA SADAT,TEHSIL-AMROHA,DISTT-J.P.NAGAR",JYOTIBA PHULE NAGAR,JYOTIBA PHULE NAGAR,UTTAR PRADESH,223232
310,PRATHAMA BANK,PRTH0034013,BURHANPUR,"P.O. PATAI KHALSA┬á,TEHSIL- AMROHA,DISTT- J.P.NAGR PIN-244102",JYOTIBA PHULE NAGAR,JYOTIBA PHULE NAGAR,UTTAR PRADESH,2223219
311,PRATHAMA BANK,PRTH0034022,MANAKJURI,"P.O. JALALPUR GHANA,TEHSIL-AMROHA,DISTT--J.P.NAGAR",JYOTIBA PHULE NAGAR,JYOTIBA PHULE NAGAR,UTTAR PRADESH,268548
312,PRATHAMA BANK,PRTH0034023,MAKHDOOMPUR,"P.O. MAKHDOOMPUR,TEHSIL-AMROHA,DISTT- J.P.NAGAR PIN-244251",JYOTIBA PHULE NAGAR,JYOTIBA PHULE NAGAR,UTTAR PRADESH,260620
313,PRATHAMA BANK,PRTH0034036,SARKARA KAMAL,"P.O. SARKARA KAMAL,TEHSIL-AMROHA,DISTT--J.P.NAGAR PIN-244222",JYOTIBA PHULE NAGAR,JYOTIBA PHULE NAGAR,UTTAR PRADESH,298537
314,PRATHAMA BANK,PRTH0034040,KUA KHERA,"P.O. BASIPUR,TEHSIL-DHANAURA,DISST. J.P.NAGAR",JYOTIBA PHULE NAGAR,JYOTIBA PHULE NAGAR,UTTAR PRADESH,275082
315,PRATHAMA BANK,PRTH0034069,IBRAHIMPUR,"P.O. ABBALPUR,TEHSIL-AMROHA,DISTT--J.P.NAGAR PIN-244221",JYOTIBA PHULE NAGAR,JYOTIBA PHULE NAGAR,UTTAR PRADESH,261325
316,PRATHAMA BANK,PRTH0034070,AMROHA,"P.O. AMROHA, CHOWRAHA MUNSAFI,TEHSIL-AMROHA,DISTT--J.P.NAGAR",JYOTIBA PHULE NAGAR,JYOTIBA PHULE NAGAR,UTTAR PRADESH,250346
317,PRATHAMA BANK,PRTH0034081,PAPSARA,"P.O. PAPSARA,TEHSIL-AMROHA,DISTT--J.P.NAGAR PIN-244221",JYOTIBA PHULE NAGAR,JYOTIBA PHULE NAGAR,UTTAR PRADESH,9927030641
318,PRATHAMA BANK,PRTH0034108,MOONDHA KHEDA,"P.O. MOONDAKHERA VIA AMROHA TEHSIL-AMROHA,DISTT--J.P.NAGAR",JYOTIBA PHULE NAGAR,JYOTIBA PHULE NAGAR,UTTAR PRADESH,256161
319,PRATHAMA BANK,PRTH0034119,AIVZABAD,"P.O. AMROHA,TEHSIL- AMROHA,DISTT--J.P.NAGAR PIN-244221",JYOTIBA PHULE NAGAR,JYOTIBA PHULE NAGAR,UTTAR PRADESH,9927030652
320,PRATHAMA BANK,PRTH0034133,DEORI URF HADIPUR,"P.O. DEORI URF HADIPUR( VIA PAKBARA),TEHSIL-AMROHA DISTT- J.P.NAGAR PIN-244201",JYOTIBA PHULE NAGAR,JYOTIBA PHULE NAGAR,UTTAR PRADESH,9927030651
321,PRATHAMA BANK,PRTH0034136,SINURA,"P.O. JOYA,┬áTEHSIL AMROH,DISTT. J.P.NAGAR",JYOTIBA PHULE NAGAR,JYOTIBA PHULE NAGAR,UTTAR PRADESH,246323
322,PRATHAMA BANK,PRTH0034144,CHANDNAGAR,"P.O. CHANDNAGAR VIA RAJABPUR TEHSIL-AMROHA,DISTT--J.P.NAGAR PIN-244236",JYOTIBA PHULE NAGAR,JYOTIBA PHULE NAGAR,UTTAR PRADESH,247073
323,PRATHAMA BANK,PRTH0034154,KAPASI,"P.O. MANOTA VIA JOYA,TEHSIL-AMROHA,DISTT- J. P. NAGAR",JYOTIBA PHULE NAGAR,JYOTIBA PHULE NAGAR,UTTAR PRADESH,246420
324,PRATHAMA BANK,PRTH0034171,MANDI SAMITI AMROHA,"P.O. AMROHA,TEHSIL-AMROHA,DISTT. J.P. NAGAR",JYOTIBA PHULE NAGAR,JYOTIBA PHULE NAGAR,UTTAR PRADESH,9927030654
325,PRATHAMA BANK,PRTH0034174,RAIPUR KHURD,"TEHSIL AMROHA,DISTT. J.P.NAGAR OPP. J.P NAGAR",JYOTIBA PHULE NAGAR,JYOTIBA PHULE NAGAR,UTTAR PRADESH,9756799174
326,PRATHAMA BANK,PRTH0034179,KHANDSAL KALAN,"VILL. KHANDSAL KALAN, POST KORAL,TEHSIL DHANAURA,DISST. J.P . NAGAR",JYOTIBA PHULE NAGAR,JYOTIBA PHULE NAGAR,UTTAR PRADESH,9756799179
327,PRATHAMA BANK,PRTH0034187,JAMNA KHAS,"P.O. JAMNA KHAS,TEHSIL-AMROHA,DISTT-J. P. NAGAR",JYOTIBA PHULE NAGAR,JYOTIBA PHULE NAGAR,UTTAR PRADESH,9927030653
328,PRATHAMA BANK,PRTH0034188,NANHERA,"VILL. & POST NANHERA ALIYARPUR,TEHSIL-AMROHA,DISTT-J. P. NAGAR",JYOTIBA PHULE NAGAR,JYOTIBA PHULE NAGAR,UTTAR PRADESH,9927030649
329,PRATHAMA BANK,PRTH0034199,JABDA,"VILL. JABDA, P.O.ABBALPUR,TEHSIL: AMROHA,DISTT:J.P.NAGAR PIN-244221",JYOTIBA PHULE NAGAR,JYOTIBA PHULE NAGAR,UTTAR PRADESH,9756799199
330,PRATHAMA BANK,PRTH0034201,AAROHI,"VILL.AROHI, P.O.AMROHA,TEHSIL AMROHA,DISTT: J.P.NAGAR PIN 244221",JYOTIBA PHULE NAGAR,JYOTIBA PHULE NAGAR,UTTAR PRADESH,9759799201
331,PRATHAMA BANK,PRTH0034202,NARANGPUR,"VILL: NARANGPUR, P.O.SARKARI AZIZ,TEH:AMROHA,DISTT:J.P.NAGAR",JYOTIBA PHULE NAGAR,JYOTIBA PHULE NAGAR,UTTAR PRADESH,9756799202
332,PRATHAMA BANK,PRTH0034206,KANKAR SARAI,"VILL KAZI SARAI URF KANKAR SARAI,POST-KANKAR SARAI,TEHSIL-AMROHA,DISTT-J.P.NAGAR, PIN-244221,(U.P)",JYOTIBA PHULE NAGAR,JYOTIBA PHULE NAGAR,UTTAR PRADESH,8057911206
333,PRATHAMA BANK,PRTH0034215,PAYANTI KALAN,"VILL.PAYANTI KALAN,POST KHAS,TEHSIL AMROHA,DISTT-J.P.NAGAR,PIN-244255,(U.P)",JYOTIBA PHULE NAGAR,JYOTIBA PHULE NAGAR,UTTAR PRADESH,8057911215
334,PRATHAMA BANK,PRTH0034216,APRAULLA,"VILL.APRAULLA,POST KHERA, TEHSIL-AMROHA,DISTT-J.P.NAGAR",JYOTIBA PHULE NAGAR,JYOTIBA PHULE NAGAR,UTTAR PRADESH,8449710216
335,PRATHAMA BANK,PRTH0034222,PATAI KHALSA,"VILL. & POST PATAI KHALSA, TEHSIL-AMROHA,DISTT-J.P.NAGAR",JYOTIBA PHULE NAGAR,JYOTIBA PHULE NAGAR,UTTAR PRADESH,8449710222
336,PRATHAMA BANK,PRTH0034236,PEEPLI KALAN,"VILL. & POST PEEPLI KALAN, TEHSIL DHANAURA,DISTT-J.P.NAGAR",JYOTIBA PHULE NAGAR,JYOTIBA PHULE NAGAR,UTTAR PRADESH,8476010236
337,PRATHAMA BANK,PRTH0034243,KAILBAKRI,"VILL. & POST KAILBAKRI,TEHSIL-AMROHA,DISTT-J.P.NAGAR",JYOTIBA PHULE NAGAR,JYOTIBA PHULE NAGAR,UTTAR PRADESH,8476010243
338,PRATHAMA BANK,PRTH0034247,BUDERNA,"VILL & PO BUDERNA BLOCK AMROHA, DIST. J P NAGAR-244221",JYOTIBA PHULE NAGAR,JYOTIBA PHULE NAGAR,UTTAR PRADESH,8191900247
339,PRATHAMA BANK,PRTH0034258,LAKRA,"MOH. LAKRA, PO AMROHA, DISTT. JYOTIBA PHULE NAGAR-",JYOTIBA PHULE NAGAR,JYOTIBA PHULE NAGAR,UTTAR PRADESH,8191900258
340,PRATHAMA BANK,PRTH0034272,SIRSA KHUMAR,"PO AMROHA,BLOCK JOYA,DISTT JYOTIBA PHULE NAGAR 244221",JYOTIBA PHULE NAGAR,PHULE NAGAR,UTTAR PRADESH,0
341,PRATHAMA BANK,PRTH0034276,PELI,"PO KAPSUA,BLOCK DHANAURA,DISTT JYOTIBA PHULE NAGAR 244231",JYOTIBA PHULE NAGAR,PHULE NAGAR,UTTAR PRADESH,0
342,PRATHAMA BANK,PRTH0034280,KAURALA,"PO KAURALA,BLOCK DHANAURA,DISTT JYOTIBA PHULE NAGAR 244231",JYOTIBA PHULE NAGAR,PHULE NAGAR,UTTAR PRADESH,0
343,PRATHAMA BANK,PRTH0034287,CHAUDHARPUR,"VILL AND PO CHAUDHARPUR,BLOCK JOYA,DISTRICT.MORADABAD 244102",MORADABAD,MORADABAD,UTTAR PRADESH,7534016287
344,PRATHAMA BANK,PRTH0034296,JATBAZAR,"PO AMROHA,BLOCK AMROHA,DISTRICT J P NAGAR 244221",J P NAGAR,J P NAGAR,UTTAR PRADESH,7534016296
345,PRATHAMA BANK,PRTH0034336,TELIPURA MAFI,VILL TELIPURA MAFI DISTT AMRORA,AMROHA,AMROHA,UTTAR PRADESH,7055715336
346,PRATHAMA BANK,PRTH0034338,HASANPUR KATIYA,VILL HASANPUR KATIYA DISTT AMROHA,AMROHA,AMROHA,UTTAR PRADESH,7055715338
347,PRATHAMA BANK,PRTH0034340,BEEBRA KHURD,VILL BEEBRA KHURD TEHSIL AND DISTT AMROHA,AMROHA,AMROHA,UTTAR PRADESH,7055715340
348,PRATHAMA BANK,PRTH0034367,BAMBOO GARH,VILL BAMBOOGARH JOYA ROAD NEAR BUS STAND AMROHA 244221,AMROHA,AMROHA,UTTAR PRADESH,7055715367
349,PRATHAMA BANK,PRTH0034393,JOYA,"VILL AND PO JOYA,TEHSIL AMROHA PIN 244222",AMROHA,AMROHA,UTTAR PRADESH,7055715393
350,PRATHAMA BANK,PRTH0034403,NAUGAON SADAT BASTI,NAUGAON SADAT BASTI PO NAUGAON SADAT BASTI TEH AND DISTT AMROHA 244251,AMROHA,AMROHA,UTTAR PRADESH,0
351,PRATHAMA BANK,PRTH0034404,KAILSA ROAD AMROHA,BLOCK AMROHA TEHSIL AND DISTT AMROHA,AMROHA,AMROHA,UTTAR PRADESH,7055715404
352,PRATHAMA BANK,PRTH0034405,KAIMUKHIYA,BLOCK TEHSIL AND DISTT AMROHA,AMROHA,AMROHA,UTTAR PRADESH,7055715405
353,PRATHAMA BANK,PRTH0034414,VASUDEV NAGAR,BLOCK AMROHA TEHSIL & DISTRICT AMROHA,AMROHA,AMROHA,UTTAR PRADESH,7055613414
354,PRATHAMA BANK,PRTH0035000,RO ALIPUR CHAUPLA,"PRATHAMA BANK RO, ALIPUR CHOPLA GAJRULA, J.P. NAGAR",JYOTIBA PHULE NAGAR,JYOTIBA PHULE NAGAR,UTTAR PRADESH,9837001682
355,PRATHAMA BANK,PRTH0035002,RAJABPUR,"VILL & POST-RAJABPUR,TEHSIL-AMROHA,DISTT-J.P.NAGAR PIN-244236",JYOTIBA PHULE NAGAR,JYOTIBA PHULE NAGAR,UTTAR PRADESH,245356
356,PRATHAMA BANK,PRTH0035005,SAIDNAGLI,"P.O. SAID NAGLI,TEHSIL-HASANPUR,DISTT--J.P.NAGAR PIN-244242",JYOTIBA PHULE NAGAR,JYOTIBA PHULE NAGAR,UTTAR PRADESH,240387
357,PRATHAMA BANK,PRTH0035008,REHRA,"P.O. REHRA┬áTEHSIL-HASANPUR,DISTT--J.P.NAGAR PIN-244241",JYOTIBA PHULE NAGAR,JYOTIBA PHULE NAGAR,UTTAR PRADESH,243236
358,PRATHAMA BANK,PRTH0035020,CHUCHELAN KALAN,"P.O. CHUCHELA KALAN,TEHSIL-DHANAURA,DISTT--J.P.NAGAR",JYOTIBA PHULE NAGAR,JYOTIBA PHULE NAGAR,UTTAR PRADESH,273773
359,PRATHAMA BANK,PRTH0035029,KAMELPUR,"P.O. KAMELPUR,TEHSIL- DHANAURA,DISTT--J.P.NAGAR PIN-244231",JYOTIBA PHULE NAGAR,JYOTIBA PHULE NAGAR,UTTAR PRADESH,272002
360,PRATHAMA BANK,PRTH0035034,UJHARI,"P.O. UJHARI,TEHSIL-HASANPUR,DISTT- J. P. NAGAR PIN-244242",JYOTIBA PHULE NAGAR,JYOTIBA PHULE NAGAR,UTTAR PRADESH,245130
361,PRATHAMA BANK,PRTH0035037,SHERPUR DEOTI,"P.O. SHERPUR DHEOTI,TEHSIL DHANAURA,DISTT. J.P.NAGAR",JYOTIBA PHULE NAGAR,JYOTIBA PHULE NAGAR,UTTAR PRADESH,9756799037
362,PRATHAMA BANK,PRTH0035038,KHADGUJAR,"P.O. KHAD GUJAR,TEHSIL DHANAURA,DISTT. J.P.NAGAR",JYOTIBA PHULE NAGAR,JYOTIBA PHULE NAGAR,UTTAR PRADESH,230281
363,PRATHAMA BANK,PRTH0035039,FATEHPUR CHHITRA,"P.O. BACHRAUN,TEHSIL DHANAURA,DISTT. J.P.NAGAR",JYOTIBA PHULE NAGAR,JYOTIBA PHULE NAGAR,UTTAR PRADESH,275353
364,PRATHAMA BANK,PRTH0035043,SIHALI JAGEER,"P.O. SIHALI JAGEER,TEHSIL-HASANPUR,DISTT--J.P.NAGAR PIN-244241",JYOTIBA PHULE NAGAR,JYOTIBA PHULE NAGAR,UTTAR PRADESH,252648
365,PRATHAMA BANK,PRTH0035044,DHAWARSI,"P.O. DHAWARSI,TEHSIL-HASANPUR,DISTT--J.P.NAGAR PIN-244242",JYOTIBA PHULE NAGAR,JYOTIBA PHULE NAGAR,UTTAR PRADESH,242181
366,PRATHAMA BANK,PRTH0035057,ALIPUR CHOPLA,"P.O. GAJRAULA,TEHSIL-DHANAURA,DISTT--J.P.NAGAR PIN-244926",JYOTIBA PHULE NAGAR,JYOTIBA PHULE NAGAR,UTTAR PRADESH,252083
367,PRATHAMA BANK,PRTH0035066,TAHARPUR,"P.O. HASANPUR,TEHSIL-HASANPUR,DISTT--J.P.NAGAR PIN-244241",JYOTIBA PHULE NAGAR,JYOTIBA PHULE NAGAR,UTTAR PRADESH,266700
368,PRATHAMA BANK,PRTH0035072,NAGALIA MEV,"P.O. GAJRAULA,TEHSIL-DHANAURA,DISTT--J.P.NAGAR PIN-244235",JYOTIBA PHULE NAGAR,JYOTIBA PHULE NAGAR,UTTAR PRADESH,253886
369,PRATHAMA BANK,PRTH0035073,GANGWAR,"P.O. GANGWAR,TEHSIL-HASANPUR,DISTT--J.P.NAGAR PIN-244241",JYOTIBA PHULE NAGAR,JYOTIBA PHULE NAGAR,UTTAR PRADESH,9927030658
370,PRATHAMA BANK,PRTH0035089,HASANPUR,"P.O. HASANPUR, MAIN MARKET,TEHSIL-HASANPUR,DISTT--J.P.NAGAR",JYOTIBA PHULE NAGAR,JYOTIBA PHULE NAGAR,UTTAR PRADESH,264161
371,PRATHAMA BANK,PRTH0035102,MOHDBAD MUSTAKHAM,"P.O. BIJHORA VIA GAJROLA,TEHSIL-HASANPUR,DISTT- J.P.NAGAR",JYOTIBA PHULE NAGAR,JYOTIBA PHULE NAGAR,UTTAR PRADESH,267475
372,PRATHAMA BANK,PRTH0035103,MANGRAULA,"P.O. MANGRAULA,TEHSIL-HASANPUR,DISTT- J.P.NAGAR PIN-244241",JYOTIBA PHULE NAGAR,JYOTIBA PHULE NAGAR,UTTAR PRADESH,9927030656
373,PRATHAMA BANK,PRTH0035120,PEEPLIDAUD,"P.O. HASANPUR VIA GAJRAULA,TEHSIL-HASANPUR,DISTT--J.P.NAGAR",JYOTIBA PHULE NAGAR,JYOTIBA PHULE NAGAR,UTTAR PRADESH,9927030655
374,PRATHAMA BANK,PRTH0035121,CHAKANWALA,"P.O. CHAKANWALA VIA AJRAULA,TEHSIL-DHANAURA,DISTT--J.P.NAGAR",JYOTIBA PHULE NAGAR,JYOTIBA PHULE NAGAR,UTTAR PRADESH,268090
375,PRATHAMA BANK,PRTH0035142,JAITOLI,"P.O. JAITOLI,TEHSIL-HASANPUR,DISTT--J.P.NAGAR PIN-244241┬á┬á",JYOTIBA PHULE NAGAR,JYOTIBA PHULE NAGAR,UTTAR PRADESH,9927030657
376,PRATHAMA BANK,PRTH0035143,CHHAPNA,"P.O. REHRA,TEHSIL-HASANPUR,DISTT--J.P.NAGAR PIN-244245",JYOTIBA PHULE NAGAR,JYOTIBA PHULE NAGAR,UTTAR PRADESH,9756799143
377,PRATHAMA BANK,PRTH0035148,ADAMPUR,"P.O. ADAMPUR,TEHSIL-HASANPUR,DISTT--J.P.NAGAR PIN-244255",JYOTIBA PHULE NAGAR,JYOTIBA PHULE NAGAR,UTTAR PRADESH,9927030662
378,PRATHAMA BANK,PRTH0035149,DEHRA,"P.O. KUNDERKI BHOOR,TEHSIL-HASANPUR,DISTT--J.P.NAGAR",JYOTIBA PHULE NAGAR,JYOTIBA PHULE NAGAR,UTTAR PRADESH,9927030661
379,PRATHAMA BANK,PRTH0035173,GAJRAULA,"P.O. GAJRAULA,TEHSIL DHANAURA,DISTT. J.P.NAGAR",JYOTIBA PHULE NAGAR,JYOTIBA PHULE NAGAR,UTTAR PRADESH,254752
380,PRATHAMA BANK,PRTH0035186,DHANAURA,"NEAR KALALI CHAUNGI, CHANDPUR ROAD, DHAUNARA,┬áDISTT,. J.P. NAGAR",JYOTIBA PHULE NAGAR,JYOTIBA PHULE NAGAR,UTTAR PRADESH,9756799186
381,PRATHAMA BANK,PRTH0035189,C S M MALESHIA,"VILL. MALASIA POST & TEHSIL DHANAURA,DISTT. J.P.NAGAR (U.P.)",JYOTIBA PHULE NAGAR,JYOTIBA PHULE NAGAR,UTTAR PRADESH,9756799189
382,PRATHAMA BANK,PRTH0035190,MANDI SAMITI HASANPUR,"U.P. AGRI PRODUCTION MANDI SAMITI HASANPUR,DISTT. J.P. NAGAR",JYOTIBA PHULE NAGAR,JYOTIBA PHULE NAGAR,UTTAR PRADESH,264843
383,PRATHAMA BANK,PRTH0035191,KALA KHERA,"VILL & P.O. KALAKHERA,TEHSIL HASANPUR,DISTT J P NAGAR`",JYOTIBA PHULE NAGAR,JYOTIBA PHULE NAGAR,UTTAR PRADESH,9756799191
384,PRATHAMA BANK,PRTH0035203,JHANAKPURI,"P.O.MAHESHRA,TEH:DHANAURA,DISTT:J.P.NAGAR",JYOTIBA PHULE NAGAR,JYOTIBA PHULE NAGAR,UTTAR PRADESH,9756799203
385,PRATHAMA BANK,PRTH0035204,TIGRI,"VILL & POST TIGRI, TEHSIL-DHANAURA, DISTT-J.P.NAGAR, PIN-244235, (U.P)",JYOTIBA PHULE NAGAR,JYOTIBA PHULE NAGAR,UTTAR PRADESH,8057911204
386,PRATHAMA BANK,PRTH0035205,AHRAULA MAFI,"VILL & POST AHROLA MAFI, TEHSIL-DHANAURA, DISTT-J.P.NAGAR PIN-244231,(U.P)",JYOTIBA PHULE NAGAR,JYOTIBA PHULE NAGAR,UTTAR PRADESH,8057911205
387,PRATHAMA BANK,PRTH0035208,DARIYAL (GANESHWARI),"VILL & POST-DARIYAL,TEHSIL-HASANPUR, DISTT-J.P.NAGAR,PIN-244255,(U.P)",JYOTIBA PHULE NAGAR,JYOTIBA PHULE NAGAR,UTTAR PRADESH,8057911208
388,PRATHAMA BANK,PRTH0035217,DHAKKA,"VILL.DHAKKA, POST JANETA,TEHSIL HASANPUR,DISTT-J.P.NAGAR",JYOTIBA PHULE NAGAR,JYOTIBA PHULE NAGAR,UTTAR PRADESH,8449710217
389,PRATHAMA BANK,PRTH0035218,AZAMPUR,"VILL. & POST AZAMPUR,TEHSIL DHANAURA,DISTT-J.P.NAGAR",JYOTIBA PHULE NAGAR,JYOTIBA PHULE NAGAR,UTTAR PRADESH,8449710218
390,PRATHAMA BANK,PRTH0035223,SALEMPUR GOSAI,"VILL. & POST SALEMPUR GOSAI,TEHSIL DHANAURA,DISTT-J.P.NAGAR",JYOTIBA PHULE NAGAR,JYOTIBA PHULE NAGAR,UTTAR PRADESH,8476010223
391,PRATHAMA BANK,PRTH0035230,SHERPUR MUSTKAM,"VILL. & POST SHERPUR MUSTKAM,TEHSIL DHARORA,DISTT-J.P.NAGAR",JYOTIBA PHULE NAGAR,JYOTIBA PHULE NAGAR,UTTAR PRADESH,8476010230
392,PRATHAMA BANK,PRTH0035231,SHABAJPUR DOR,"VILL.SHABAJPUR DOR, POST GAJRAULA,TEHSIL HASANPUR,DISTT-J.P.NAGAR",JYOTIBA PHULE NAGAR,JYOTIBA PHULE NAGAR,UTTAR PRADESH,8476010231
393,PRATHAMA BANK,PRTH0035232,CHANDANPUR KHADAR,"VILL.CHANDANPUR KHADAR POST REHARA,TEHSIL HASANPUR,DISTT-J.P.NAGAR",JYOTIBA PHULE NAGAR,JYOTIBA PHULE NAGAR,UTTAR PRADESH,8476010232
394,PRATHAMA BANK,PRTH0035233,RUKHALLO,"VILL.RUKHALLO, POST JAITOLI TEHSIL HASANPUR,DISTT-J.P.NAGAR",JYOTIBA PHULE NAGAR,JYOTIBA PHULE NAGAR,UTTAR PRADESH,8476010233
395,PRATHAMA BANK,PRTH0035234,SHAHPUR KALAN,"VILL.SHAHPUR KALAN, POST & TEHSIL HASANPUR,DISTT-J.P.NAGAR",JYOTIBA PHULE NAGAR,JYOTIBA PHULE NAGAR,UTTAR PRADESH,8476010234
396,PRATHAMA BANK,PRTH0035235,BURAWALI,"VILL & POST BURAWALI,TEHSIL-HASANPUR, DISTT-J.P.NAGAR,PIN-244255,(U.P)",JYOTIBA PHULE NAGAR,JYOTIBA PHULE NAGAR,UTTAR PRADESH,8476010235
397,PRATHAMA BANK,PRTH0035248,BACHHRAON,"VILL & PO BACHHRAUN, BLOCK DHANRURA, DIST .J.P. NAGAR",JYOTIBA PHULE NAGAR,JYOTIBA PHULE NAGAR,UTTAR PRADESH,8191900248
398,PRATHAMA BANK,PRTH0035251,ATRASI,"VILL & PO ATRASI, BLOCK JOYA,DIST. J P NAGAR",JYOTIBA PHULE NAGAR,JYOTIBA PHULE NAGAR,UTTAR PRADESH,8191900251
399,PRATHAMA BANK,PRTH0035254,GHARONT,VILL GHARONT BLOCK HASANPUR DIST.JYOTIBA PHULE NAGAR-244241,JYOTIBA PHULE NAGAR,JYOTIBA PHULE NAGAR,UTTAR PRADESH,8191900254
400,PRATHAMA BANK,PRTH0035263,MANAUTA,"VILL MANUTA,PO SIHALI JAGEER,BLOCK GAJRAULA,AMROHA 244241",JYOTIBA PHULE NAGAR,J P NAGAR,UTTAR PRADESH,8191900263
401,PRATHAMA BANK,PRTH0035264,YAKBAGRI,"VILL YAKBAGRI,PO MAHESHRA,BLOCK GAJRAULA,AMROHA 244236",JYOTIBA PHULE NAGAR,J P NAGAR,UTTAR PRADESH,8191900264
402,PRATHAMA BANK,PRTH0035283,AUGARPUR,"VILL AUGARPUR,PO SAUDHAN MOH PUR,BLOCK GANESHWARI,TEHSIL HASANPUR,DISTT AMROHA-244233",JYOTIBA PHULE NAGAR,JYOTIBA PHULE NAGAR,UTTAR PRADESH,7534016283
403,PRATHAMA BANK,PRTH0035284,BALDANA HEERA SINGH,"BALDANA HEERA SINGH,PO PEEPLI KALAN,BLOCK GAJRAULA,TEHSIL DHANAURA,DISTT AMROHA-244236",JYOTIBA PHULE NAGAR,JYOTIBA PHULE NAGAR,UTTAR PRADESH,7534016284
404,PRATHAMA BANK,PRTH0035285,HASHAMPUR BHOOD,"HASHAMPUR BHOOD,PO KAURALA,BLOCK GAJRAULA,TEHSIL DHANAURA,DISTT AMROHA-244231",JYOTIBA PHULE NAGAR,JYOTIBA PHULE NAGAR,UTTAR PRADESH,7534016285
405,PRATHAMA BANK,PRTH0035292,SANTHALPUR,"VILL AND PO DHAWARSI,BLOCK GANGESHWARI,DISTRICT J P NAGAR 244242",J P NAGAR,J P NAGAR,UTTAR PRADESH,7534016292
406,PRATHAMA BANK,PRTH0035293,BIJNAURA,"VILL AND PO BIJNAURA,BLOCK HASANPUR,DISTRICT J P NAGAR 244242",J P NAGAR,J P NAGAR,UTTAR PRADESH,7534016293
407,PRATHAMA BANK,PRTH0035317,MAHESHRA,VILL AND POST MAHESHRA 2440236 DISTT JP NAGAR AMROHA,AMROHA,AMROHA,UTTAR PRADESH,7055715317
408,PRATHAMA BANK,PRTH0035318,RAJOHA,VILL RAJOHA POST PATAI BHOOR 244241 DISTT JP NAGAR AMROHA,AMROHA,AMROHA,UTTAR PRADESH,7055715318
409,PRATHAMA BANK,PRTH0035341,KAI MUSTAKAM,VILL KAI MUSTAKAM DISTT AMROHA,AMROHA,AMROHA,UTTAR PRADESH,7055715341
410,PRATHAMA BANK,PRTH0035342,CHAKFERI,VILL CHAKFERI DISTT AMROHA,AMROHA,AMROHA,UTTAR PRADESH,7055715342
411,PRATHAMA BANK,PRTH0035357,KHAD GOOJAR CHAURAHA,KHAD GOOJAR CHAURAHA VILLAGE TEHSIL DHANURA DISTT AMROHA,AMROHA,DHANURA,UTTAR PRADESH,7055715357
412,PRATHAMA BANK,PRTH0035358,FANDERI SADAT,FANDERI SADAT TEHSIL DHANUARA DISTT AMROHA,AMROHA,DHANURA,UTTAR PRADESH,7055715358
413,PRATHAMA BANK,PRTH0035373,BHEEKAMPUR SHARKI,"VILL.BHEEKAMPUR SHARKI,PO UJHARI,TEHSIL HASANPUR,DISTT.AMROHA",AMROHA,HASANPUR,UTTAR PRADESH,7055715373
414,PRATHAMA BANK,PRTH0035374,SOHAT GARHI,"VILL. SOHAT GARHI, PO SOHAT, TEHSIL HASANPUR, DISTT. AMROHA",AMROHA,HASANPUR,UTTAR PRADESH,7055715374
415,PRATHAMA BANK,PRTH0035378,NAWADA,"VILL.NAWADA,POANDBLOCK-GAJRAULA,TEHSIL-HASANPUR, DISTT.AMROHA",AMROHA,HASANPUR,UTTAR PRADESH,7055715378
416,PRATHAMA BANK,PRTH0035379,NAIPURA KHADAR,"VILL.NAIPURA,NH-24, SENTMERRY ROAD,PO-GAJRAULA,DISTT.AMROHA",AMROHA,HASANPUR,UTTAR PRADESH,7055715379
417,PRATHAMA BANK,PRTH0035396,MUNDA KHERA KHADAR,VILL MUNDA KHERA KHADAR PO BACCHARAON BLOCK AND TEHSIL DHANAURA PIN 244225,AMROHA,AMROHA,UTTAR PRADESH,7055715396
418,PRATHAMA BANK,PRTH0035397,BIJORA,VILL BIJORA PO BIJORA TEHSIL HASANPUR PIN 244235,AMROHA,AMROHA,UTTAR PRADESH,7055715397
419,PRATHAMA BANK,PRTH0035398,FAIYAZ NAGAR,VILL FAIYAZ NAGAR PO CHAKUNI BLOCK AND TEHSIL HASANPUR 244242,AMROHA,AMROHA,UTTAR PRADESH,7055715398
420,PRATHAMA BANK,PRTH0035408,MAHADEV CHUNGI,BLOCK AND TEHSIL DHANAURA DISTT AMROHA,AMROHA,DHANAURA,UTTAR PRADESH,7055715408
421,PRATHAMA BANK,PRTH0090203,CTS CLEARING HOUSE MORADABAD,RAMGANGA VIHAR MORADABAD,MORADABAD,MORADABAD,UTTAR PRADESH,7351009204
