,BANK NAME,IFSC,OFFICE,ADDRESS,DISTRICT,CITY,STATE,PHONE
0,KARNATAKA BANK LIMITED,KARB0000001,RTGS-HO,"REGD. & HEAD OFFICE, P.B.NO.599, MAHAVEER CIRCLE, KANKANADY, MANGALORE - 575002",DAKSHINA KANNADA,MANGALORE,KARNATAKA,2228222
1,KARNATAKA BANK LIMITED,KARB0000002,ADYANADKA,"D.NO.492/2A,KEPU VILLAGE,ADYANADKA, PIN - 574260",DAKSHINA KANNADA,ADYANADKA,KARNATAKA,270225
2,KARNATAKA BANK LIMITED,KARB0000003,AIRODY,"NH17 HIGHWAY,AIRODY, PIN - 576226",UDUPI,AIRODY,KARNATAKA,2584120
3,KARNATAKA BANK LIMITED,KARB0000004,AJJAMPURA,"SHRI VENKATESHWARA NILAYA T.H. ROAD,AJJAMPURA PIN - 577547",CHICKMAGALUR,AJJAMPURA,KARNATAKA,245126
4,KARNATAKA BANK LIMITED,KARB0000005,ALMEL,"S S GUNDAGI BUILDING, MAIN ROAD,ALMEL, PIN - 586226",BIJAPUR,ALMEL,KARNATAKA,232007
5,KARNATAKA BANK LIMITED,KARB0000006,ANAVATTI,"IST FLOOR,KAMAKSHI KRIPA ANAVATTI - 577413",SHIMOGA,SORABA,KARNATAKA,267149
6,KARNATAKA BANK LIMITED,KARB0000007,AREHALLI,"FIRST FLOOR,AL-SADIQ COMPLEX,SAKLESHPUR ROAD,AREHALLI.(BELUR TALUK), PIN - 573101",HASSAN,BEGUR,KARNATAKA,221323
7,KARNATAKA BANK LIMITED,KARB0000008,ARKALGUD,"NO.1,IST FLOOR,K ABDUL JABBAR BULIDING,HOLENARASIPUR ROAD ARKALGUD, PIN 573102",HASSAN,ARKALGUD,KARNATAKA,220226
8,KARNATAKA BANK LIMITED,KARB0000009,ARSIKERE,"LAKSHMI,B.H.ROAD,ARSIKERE, PIN 573103",HASSAN,ARSIKERE,KARNATAKA,231796
9,KARNATAKA BANK LIMITED,KARB0000010,AYANUR,"SITE NO.47 & 48,HARNAHALLY ROAD,AYANUR, PIN - 577211",SHIMOGA,AYANUR,KARNATAKA,235627
10,KARNATAKA BANK LIMITED,KARB0000011,AMTADY,"IST FLOOR,LOURDES COMPLEX,AMTADY,LORETTO POST,AMTADY- BANTWAL TALUK., PIN - 574211",DAKSHINA KANNADA,AMTADY,KARNATAKA,233393
11,KARNATAKA BANK LIMITED,KARB0000012,AIKALA,"RAMAKRISHNA NILAYA,POST KINNIGOLI,AIKALA, PIN - 574150",DAKSHINA KANNADA,AIKALA,KARNATAKA,2295118
12,KARNATAKA BANK LIMITED,KARB0000013,AMASEBAIL,"FIRST FLOOR,ABHIRAM BUILDING  AMASEBAIL, PIN - 576227",UDUPI,AMASEBAIL,KARNATAKA,286239
13,KARNATAKA BANK LIMITED,KARB0000014,AGALI,"OPP.PUSHPANJALI TALKIES MADAKASIRA ROAD,AGALI, PIN - 515311.",ANANTHAPUR,AGALI,ANDHRA PRADESH,284827
14,KARNATAKA BANK LIMITED,KARB0000015,ALADANGADY,"1-161,IST FLOOR,NEHRU SANKURNA,MAIN ROAD,ALADANGADY, PIN - 574217",DAKSHINA KANNADA,ALADANGADY,KARNATAKA,272231
15,KARNATAKA BANK LIMITED,KARB0000016,ADI UDUPI,"IST FLOOR,DURGA INTERNATIONAL BUILDING,UDUPI MALPE ROAD,UDUPI, PIN - 576101",UDUPI,UDUPI,KARNATAKA,2524793
16,KARNATAKA BANK LIMITED,KARB0000017,ALTO BETIM GOA,"NO.1(817)PANAJI-MAPUSA ROAD,ALTO PORVORIM,  BARDEZ,NORTH GOA,GOA, PIN - 403521",NORTH GOA,GOA,GOA,2410534
17,KARNATAKA BANK LIMITED,KARB0000018,AMBAGILU UDUPI,"SUJATHA COMPLEXMANIPAL CROSS ROADAMBAGILU, UDUPI, PIN - 576105",UDUPI,UDUPI,KARNATAKA,2580283
18,KARNATAKA BANK LIMITED,KARB0000019,ATHANI,"JAGADALMATH BUILDING,MAIN ROAD,ATHANI, PIN - 591304",BELGAUM,ATHANI,KARNATAKA,251214
19,KARNATAKA BANK LIMITED,KARB0000020,ADONI,"DOOR NO. 19/418-2,I FLOOR RAWJEES COMPLEX,MUNCIPAL MAIN ROAD,ADONI, PIN - 518301",KURNOOL,ADONI,ANDHRA PRADESH,252038
20,KARNATAKA BANK LIMITED,KARB0000021,AHMEDABAD MAIN SARANGPUR,"GROUND FLOOR,SACHET-1  SWASTIK SOCIETY,NAVARANGPURA,  NAVARANGPURA--AHMEDABAD, PIN - 380009",AHMEDABAD,AHMEDABAD,GUJARAT,26460854
21,KARNATAKA BANK LIMITED,KARB0000022,ALAPPUZHA,"D.NO.1660/B R.N.A.COMPLEX CHURCH ROAD,ALAPPUZHA, PIN - 688011",ALEPPY,ALAPPUZHA,KERALA,2261672
22,KARNATAKA BANK LIMITED,KARB0000023,ANAJI,"GRAM PANCHAYAT BLDG.,MAIN ROAD,ANAJI, PIN - 577512",DAVANGERE,ANAJI,KARNATAKA,282323
23,KARNATAKA BANK LIMITED,KARB0000024,ANTHARAGATTE,"TEMPLE ROAD,ANTHARGATTE, PIN - 577547",CHICKMAGALUR,ANTHARAGATTE,KARNATAKA,239022
24,KARNATAKA BANK LIMITED,KARB0000025,ANANTHAPUR,"D.NO.13-3-304,IST FLOOR THAKAI TOWERS,RAILWAY FEEDER ROAD ANANTAPUR, PIN - 515001",ANANTHAPUR,ANANTHAPUR,ANDHRA PRADESH,244226
25,KARNATAKA BANK LIMITED,KARB0000026,MEMNAGAR AHMEDABAD,"SHOP NO.1&2,SHILP CORNER SUBHASH CHOWK,GURUKUL ROAD,MEMNAGAR,AHMEDABAD, PIN - 380052",AHMEDABAD,AHMEDABAD,GUJARAT,27474766
26,KARNATAKA BANK LIMITED,KARB0000027,AMRITSAR,"37A,R K BUILDING,THE MALL ROAD,NEAR NOVELTY CHOWK AMRITSAR, PIN - 143001",AMRITSAR,PUNJAB,PUNJAB,2228597
27,KARNATAKA BANK LIMITED,KARB0000028,ARSIKERE-H.C (E.C),"HOYSALESHWARA COLLEGE,B.H ROAD,ARSIKERE, PIN - 573103",HASSAN,ARSIKERE,KARNATAKA,232160
28,KARNATAKA BANK LIMITED,KARB0000029,ALLAHABAD,"GROUND FLOOR,NO.23,M.G.MARG,CIVIL LINES,ALLAHABAD, PIN - 211001",ALLAHABAD,ALLAHABAD,UTTAR PRADESH,2427501
29,KARNATAKA BANK LIMITED,KARB0000030,AGRA,"NO.76,HERITAGE TOWERS,MAHATMA GANDHI ROAD,NEHRU NAGAR,AGRA, PIN - 282002",AGRA,AGRA,UTTAR PRADESH,2525087
30,KARNATAKA BANK LIMITED,KARB0000031,AURANGABAD,"SHOP NO.4,GROUND FLOOR TAPADIA TERRACES,ADALAT ROAD,AURANGABAD, PIN - 431001",AURANGABAD,AURANGABAD,MAHARASHTRA,2341585
31,KARNATAKA BANK LIMITED,KARB0000032,AMTALA,"DAG. NO. 167,""PITRY ASISH"", N.D. ROAD,AMTALA - 743398.",SOUTH 24 PARGANAS,AMTALA,WEST BENGAL,24809848
32,KARNATAKA BANK LIMITED,KARB0000033,ANGUL,"1ST FLOOR, PLOT NO. 1270, SHANTI BAZAAR, ANGUL - 759122.",ANGUL,ANGUL,ODISHA,231938
33,KARNATAKA BANK LIMITED,KARB0000034,ARAKERE,"GROUND FLOOR, SRI LAXMIRANGANATHA NILAYA, HARIHARA ROAD, ARAKERE - 577217, DAVANGERE DIST.",DAVANGERE,ARAKERE,KARNATAKA,291222
34,KARNATAKA BANK LIMITED,KARB0000035,ASANSOL,"D.NO. 259/62A, G.T.ROAD, EAST MURGASOL, ASANSOL - 713303",BURDWAN,ASANSOL,WEST BENGAL,8001005400
35,KARNATAKA BANK LIMITED,KARB0000036,ALADAKATTI,"GROUND FLOOR, ALADAKATTI GRAMA PANCHAYATH, VILLAGE ALADAKATTI - 581110",HAVERI,HAVERI,KARNATAKA,234036
36,KARNATAKA BANK LIMITED,KARB0000037,ATTAVARA GP,"ATTAVARA GRAMA PANCHAYAT, SOMESHWARA COMPLEX, MAIN ROAD, ATTAVARA - 573118",HASSAN,HASSAN,KARNATAKA,290098
37,KARNATAKA BANK LIMITED,KARB0000038,ALAND,"MAHAVEER COMPLEX,OPP.D I H P SCHOOL,ALAND 585 302",GULBARGA,ALAND,KARNATAKA,9480464678
38,KARNATAKA BANK LIMITED,KARB0000039,ALUVA,"NO.XIX BY 271,MARKET ROAD,BANK JUNCTION,ALUVA 683 101",ERNAKULAM,ERNAKULAM,KERALA,9447044415
39,KARNATAKA BANK LIMITED,KARB0000040,AGRAHARA GP,"NO.28-E,AGRAHARA VILLAGE & GP,ARKALGUD TALUK,HASSAN DISTRICT",HASSAN,MYSURU,KARNATAKA,9740966734
40,KARNATAKA BANK LIMITED,KARB0000041,ADYAPADY VILLAGE,"NO.2-87/4C/D/E/F,NEAR SHRI DURGAPARAMESHWARI TEMPLE,BIBILACHHIL,ADYAPADY VILLAGE,KANDAVARA GP - 574142",DAKSHINA KANNADA,ADYAPADY VILLAGE,KARNATAKA,9148793209
41,KARNATAKA BANK LIMITED,KARB0000042,ARAKERE GP,"NO.113 & 114, CHIKKATHOTLUKERE ROAD,JAIL CROSS ROAD, ARAKERE VILLAGE & GP-572106, TUMAKURU TALUK & DIST.",TUMAKURU,TUMAKURU,KARNATAKA,9482804239
42,KARNATAKA BANK LIMITED,KARB0000043,AJJAVARA GP,"OPP.MAHISHA, MARDINI TEMPLE SULLIA- MANDEKOLU ROAD, AJJAVARA VILLAGE & GP-574239, SULLIA TALUK",D K DISTRICT,MANGALURU,KARNATAKA,0
43,KARNATAKA BANK LIMITED,KARB0000044,AMBERNATH-W,"SHOP NO.1&2, GROUP FLOOR, K.N.PARK NX, AMBERNATH-BADLAPUR MAIN ROAD, AMBERNATH(W)-421505",THANE,MUMBAI,MAHARASHTRA,0
44,KARNATAKA BANK LIMITED,KARB0000045,ALUR GP,"D.NO 38/2, GROUND FLOOR ,HEGGADADEVANAPURA VILLAGE,DASANAPURA HOBLI, ALUR GP-562123,BENGALURU URBAN DISTRICT,KARNATAKA STATE.",BENGALURU URBAN,DASANAPURA HOBLI,KARNATAKA,0
45,KARNATAKA BANK LIMITED,KARB0000051,BAGALKOT,"CTA130/1G/2&130/1G/3A,DURGA VIHAR BUILDING MAHAVEER ROAD,BAGALKOT, PIN - 587101",BAGALKOT,BAGALKOT,KARNATAKA,220226
46,KARNATAKA BANK LIMITED,KARB0000052,BALEHONNUR,"FIRST FLOOR,SOMESHWARA COMPLEX,MAIN ROAD,BALEHONNUR.(NARASIMHARAJAPURA TALUK), PIN - 577112",CHICKMAGALUR,BALEHONNUR,KARNATAKA,250421
47,KARNATAKA BANK LIMITED,KARB0000053,ASHOK NAGAR BANGALORE,"16/2,(OLD NO.13/9) FIRST FLOOR,WOODSTREET, ASHOKNAGAR,BANGALORE, PIN - 560025",BANGALORE,BANGALORE,KARNATAKA,22955838
48,KARNATAKA BANK LIMITED,KARB0000054,INDUSTRIAL FINANCE BRANCH,"INDUSTRIAL FINANCE BRANCH,94/A,INFANTRY ROAD,BANGALORE, PIN - 560001",BANGALORE,BANGALORE,KARNATAKA,22955859
49,KARNATAKA BANK LIMITED,KARB0000055,MALLESHWARAM BANGALORE,"NO.197,SAMPIGE ROAD,BETWEEN 10TH & 11TH CROSS MALLESHWARAM,BANGALORE, PIN - 560003",BANGALORE,BANGALORE,KARNATAKA,22955877
50,KARNATAKA BANK LIMITED,KARB0000056,CHICKPET BANGALORE,"IST FLOOR# 551/552,OTC ROAD,NEAR BALEPET POST OFFICE,O.T.C.ROAD,CHICKPET,BANGALORE, PIN - 560053",BANGALORE,BANGALORE,KARNATAKA,22955852
51,KARNATAKA BANK LIMITED,KARB0000057,CITY MARKET BANGALORE,"IST FLOOR,SRIKRISHNA MANDIR,GUNDOPANTH STREET CITY MARKET,BANGALORE, PIN - 560002",BANGALORE,BANGALORE,KARNATAKA,22955854
52,KARNATAKA BANK LIMITED,KARB0000058,CHAMRAJPET BANGALORE,"8/1,GROUNDFLOOR,""BELVET"",5TH MAIN,CHAMARAJ PET,BANGALORE, PIN - 560018",BANGALORE,BANGALORE,KARNATAKA,22955850
53,KARNATAKA BANK LIMITED,KARB0000059,MURPHY TOWN BANGALORE,"109,OLD MADRAS ROAD,OPP.ADARSHA THEATRE,HALASURU(ULSOOR),BANGALORE, PIN - 560008",BANGALORE,BANGALORE,KARNATAKA,22955881
54,KARNATAKA BANK LIMITED,KARB0000060,K G ROAD BANGALORE,"IST FLOOR,FKCCI BUILDING,KEMPE GOWDA ROAD,BANGALORE, PIN - 560009",BANGALORE,BANGALORE,KARNATAKA,22264216
55,KARNATAKA BANK LIMITED,KARB0000061,JAYANAGAR IX BLOCK BANGALORE,"SHRI KSHETRA COMPLEX,NO.911,39TH CROSS,28TH MAIN,9TH BLOCK,JAYANAGAR,BANGALORE, PIN - 560069",BANGALORE,BANGALORE,KARNATAKA,22955863
56,KARNATAKA BANK LIMITED,KARB0000062,MINERVA CIRCLE BANGALORE,"163,GROUND FLOOR,RAJESHWARI COMPLEX,R.V.ROAD,N V.V.PURAM,BANGALORE, PIN - 560004",BANGALORE,BANGALORE,KARNATAKA,22955879
57,KARNATAKA BANK LIMITED,KARB0000063,NEHRU NAGAR BANGALORE,"NO.45/46,NAGAPPA STREET SHESHADRIPURAM,NEHRUNAGAR,BANGALORE, PIN - 560020",BANGALORE,BANGALORE,KARNATAKA,23561920
58,KARNATAKA BANK LIMITED,KARB0000064,RAJAJI NAGAR BANGALORE,"382,GROUND FLOOR DR.RAJKUMAR ROAD,VI BLOCK,RAJAJINAGAR,BANGALORE, PIN - 560010",BANGALORE,BANGALORE,KARNATAKA,22955888
59,KARNATAKA BANK LIMITED,KARB0000065,SRIRAMPURAM BANGALORE,"NO.37,MAHAKAVI KUVEMPU ROAD,NEAR DEVAIAH PARK,SRIRAMPURAM POST,BANGALORE, PIN - 560021",BANGALORE,BANGALORE,KARNATAKA,22955900
60,KARNATAKA BANK LIMITED,KARB0000066,YESHWANTHPURA BANGALORE,"NO.33,PIPELINE ROAD,BEHIND CORPORATION COMPLEX,IST MAIN,YESHWANTHPUR,BANGALORE, PIN - 560022",BANGALORE,BANGALORE,KARNATAKA,22955910
61,KARNATAKA BANK LIMITED,KARB0000067,WILSON GARDEN BANGALORE,"NO.279,10TH CROSS,WILSON GARDERN,BANGALORE, PIN - 560027",BANGALORE,BANGALORE,KARNATAKA,22955908
62,KARNATAKA BANK LIMITED,KARB0000068,BANHATTI,"IST FLOOR,SRIRAM NIVAS,TAMMANAPPA ROAD,BANHATTI, PIN - 587311",BAGALKOT,BANHATTI,KARNATAKA,230280
63,KARNATAKA BANK LIMITED,KARB0000069,BANKAL,"IFLOOR,PADMASHALI,K.M.ROAD,BANAKAL,MUDIGERE TALUK, PIN - 577113",CHICKMAGALUR,BANAKAL,KARNATAKA,232229
64,KARNATAKA BANK LIMITED,KARB0000070,BANNUR,"S.R.P.ROAD,NEW CAUVERY CIRCLE,BANNUR, PIN - 571101",MYSORE,BANNUR,KARNATAKA,275641
65,KARNATAKA BANK LIMITED,KARB0000071,BC ROAD BANTWAL MUDA,"IST FLOOR,KARTHIK COMPLEX,BANTWAL MUDA,P.O.JODUMARGA,BANTWAL-MUDA,BANTWAL TALUK, PIN - 574219",DAKSHINA KANNADA,BANTWAL,KARNATAKA,234466
66,KARNATAKA BANK LIMITED,KARB0000072,BEGAR,"GOVUNDASHRAYA BUILDING,T.M.ROAD,BEGAR, PIN - 577120",CHICKMAGALUR,BEGAR,KARNATAKA,256536
67,KARNATAKA BANK LIMITED,KARB0000073,BELGAUM MAIN,"IST FLOOR,RADIO COMPLEX,SHIVAJI ROAD,BELGAUM, PIN - 590002.",BELGAUM,BELGAUM,KARNATAKA,2434366
68,KARNATAKA BANK LIMITED,KARB0000074,BELLARY,"IST FLOOR,MEENAKSHI LODGE BUILDING,MEENAKSHI CIRCLE,BANGALORE ROAD,BELLARY, PIN - 583101",BELLARY,BELLARY,KARNATAKA,273620
69,KARNATAKA BANK LIMITED,KARB0000075,BHADRAVATHI,"RADHAKRISHNA COMPLEX,IST FLOOR,B H ROAD,BHADRAVATHI, PIN - 577301.",SHIMOGA,BHADRAVATHI,KARNATAKA,266280
70,KARNATAKA BANK LIMITED,KARB0000076,BIDAR,"INDIRA MARKET COMPLEX,NEAR OLD BUS STAND,BIDAR, 585401",BIDAR,BIDAR,KARNATAKA,222567
71,KARNATAKA BANK LIMITED,KARB0000077,BIJAPUR,"IST FLOOR,MALHAR CHAMBERS,TRIPURASUNDARI TALKIES ROAD,BIJAPUR, PIN - 586101.",BIJAPUR,BIJAPUR,KARNATAKA,256921
72,KARNATAKA BANK LIMITED,KARB0000078,BICCODU,"BELUR-SAKLESHPUR ROAD,BIKKODU VILLAGE AND POST,BIKKODU, PIN - 573215",HASSAN,BICCODU,KARNATAKA,241041
73,KARNATAKA BANK LIMITED,KARB0000079,CORPORATE FINANCE BRANCH,"294-A,""HAROON HOUSE"",PERIN NARIMAN STREET,BEHIND R.B.I,FORT,MUMBAI, PIN - 400001",MUMBAI,MUMBAI,MAHARASHTRA,22632715
74,KARNATAKA BANK LIMITED,KARB0000080,BHATKAL,"M.K.NAYAK BUILDING,NH17 RANGINKATTA,BHATKAL, PIN - 581320",DAKSHINA KANNADA,BHATKAL,KARNATAKA,226502
75,KARNATAKA BANK LIMITED,KARB0000081,BORIVLI WEST MUMBAI,"L I C SHOPPING COMPLEX,JEEVAN BIMA NAGAR,BORIVLI(W),P O MANDAPESHWAR,MUMBAI, PIN - 400103",MUMBAI,MUMBAI,MAHARASHTRA,28906696
76,KARNATAKA BANK LIMITED,KARB0000082,BANTAKAL,"FIRST FLOOR,NISHA COMPLEX,MAIN ROAD,BANTAKAL, PIN - 574115",UDUPI,BANTAKAL,KARNATAKA,2559350
77,KARNATAKA BANK LIMITED,KARB0000083,KASTURBA ROAD BANGALORE,"# 48,MOHAN MANSION,KASTURBA ROAD,BANGALORE, PIN - 560001",BANGALORE,BANGALORE,KARNATAKA,22955930
78,KARNATAKA BANK LIMITED,KARB0000084,JAYANAGAR IV BLOCK BANGALORE,"NO.204/C,6TH MAIN,27TH CROSS,4TH BLOCK,JAYANAGAR,BANGALORE, PIN - 560011",BANGALORE,BANGALORE,KARNATAKA,22955861
79,KARNATAKA BANK LIMITED,KARB0000085,SION EAST MUMBAI,"239-A,NAMDEO PRASAD BUILDING,TAMIL SANGAM ROAD,SION(EAST),MUMBAI, PIN - 400022",MUMBAI,MUMBAI,MAHARASHTRA,24097928
80,KARNATAKA BANK LIMITED,KARB0000086,BANDRA WEST MUMBAI,"GROUND FLOOR ST.ANTHONY,S INSTITUTE ANNEX BUILDING,33RD ROAD BANDRA(W),MUMBAI, PIN - 400050",MUMBAI,MUMBAI,MAHARASHTRA,26042400
81,KARNATAKA BANK LIMITED,KARB0000087,BABRUWADA,"P.S.PRABHU BUILDING,BANDI BAZAR,ANKOLA,BABRUWADA, PIN - 581314",UTTAR KANNADA,BABRUWADA,KARNATAKA,230209
82,KARNATAKA BANK LIMITED,KARB0000088,BELAGODU,"MAIN ROAD,BELAGODU,SAKLESHPUR TALUK, PIN - 573214.",HASSAN,BELAGODU,KARNATAKA,247260
83,KARNATAKA BANK LIMITED,KARB0000089,SUBHASH NAGAR BANGALORE,"R B D G T ROAD,NEAR CITY RAILWAY STATION,SUBHASHNAGAR,BANGALORE, PIN - 560023",BANGALORE,BANGALORE,KARNATAKA,22955901
84,KARNATAKA BANK LIMITED,KARB0000090,B LORE BASAVANAGUDI,"NO.52,GROUND FLOOR,DINESH COMPLEX SUBBARAMA CHETTY ROAD,NETTAKALLAPPA CIRCLE,BASAVANAGUDI,BANGALORE, PIN - 560004",BANGALORE,BANGALORE,KARNATAKA,22955844
85,KARNATAKA BANK LIMITED,KARB0000091,ANDHERI WEST MUMBAI,"FIRST FLOOR,MANISH NAGAR SHOPPING CENTRE,AZAD NAGAR P.O,ANDHERI-W,MUMBAI, PIN - 400053",MUMBAI,MUMBAI,MAHARASHTRA,26371819
86,KARNATAKA BANK LIMITED,KARB0000092,BOMMANHAL,"FIRST FLOOR,BELLARY KANEKAL ROAD,KANEKAL(S.O),BOMMANAHAL POST, PIN - 515871.",ANANTHAPUR,BOMMANHAL,ANDHRA PRADESH,258721
87,KARNATAKA BANK LIMITED,KARB0000093,KANDIVILI WEST MUMBAI,"B/13,""MATRU ASHISH"",NEXT TO BALBHARATI SCHOOL,S V ROAD,KANDIVLI(W),MUMBAI, PIN - 400067",MUMBAI,MUMBAI,MAHARASHTRA,28080950
88,KARNATAKA BANK LIMITED,KARB0000094,KORAMANGALA BANGALORE,"# 652,17TH MAIN,III BLOCK,KORAMANGALA LAYOUT,BANGALORE, 560034",BANGALORE,BANGALORE,KARNATAKA,22955921
89,KARNATAKA BANK LIMITED,KARB0000095,MALA MARUTI EXTENSION BELGAUM,"IST FLOOR,MIG-2,Y.G.GOWDAR BUILDING,MAHANTESH NAGAR,MALMARUTHI EXTENSION,BELGAUM, PIN - 590016",BELGAUM,BELGAUM,KARNATAKA,2453345
90,KARNATAKA BANK LIMITED,KARB0000096,BELAGUTHI,"BELAGUTTI MILK PRODUCERS CO-OP.SOCIETY(BMPCS) BUILDING,NYAMATHI ROAD,BELAGUTTI, PIN - 577223",DAVANGERE,BELAGUTHI,KARNATAKA,261926
91,KARNATAKA BANK LIMITED,KARB0000097,BANASHANKARI III STAGE BANGALORE,"# 650,II MAIN,II PHASE,VII BLOCK,BANASHANKARI III STAGE,HOSAKEREHALLI CROSS,BANGALORE, PIN - 560085",BANGALORE,BANGALORE,KARNATAKA,22955842
92,KARNATAKA BANK LIMITED,KARB0000098,SARAKKI LAYOUT BANGALORE,"452,9TH CROSS,2ND PHASE,SARAKKI LAYOUT,J.P.NAGAR,BANGALORE, PIN - 560078",BANGALORE,BANGALORE,KARNATAKA,26596630
93,KARNATAKA BANK LIMITED,KARB0000099,SRINAGAR BANGALORE,"NO 544,15TH MAIN,IST FLOOR,50 FEET ROAD,SRINAGAR,BANGALORE, PIN - 560050",BANGALORE,BANGALORE,KARNATAKA,22955898
94,KARNATAKA BANK LIMITED,KARB0000100,SERVICE BRANCH BANGALORE,"50/1,PRASANNA GANAPATHI TEMPLE ANNEXE,NEAR HDFC HOUSE,KASTURBA ROAD,BANGALORE, PIN - 560001.",BANGALORE,BANGALORE,KARNATAKA,22955828
95,KARNATAKA BANK LIMITED,KARB0000101,OVERSEAS MUMBAI,"104-106,I FLOOR,EMBASSY CENTRE,JAMNALAL BAJAJ MARG,NARIMAN POINT,MUMBAI, PIN - 400021",MUMBAI,MUMBAI,MAHARASHTRA,22049856
96,KARNATAKA BANK LIMITED,KARB0000104,BASAVESWARNAGAR BANGALORE,"NO.323,IST FLOOR,I CROSS,4TH BLOCK,III STAGE,BASAVESHWARNAGAR,WEST OF CHORD ROAD,BANGALORE, PIN - 560079",BANGALORE,BANGALORE,KARNATAKA,22955846
97,KARNATAKA BANK LIMITED,KARB0000105,VIJAYANAGAR BANGALORE,"MARUTHI ARCADE 13,SERVICE ROADOPP.MARUTHI MANDIR WEST OF CHORD ROAD VIJAYANAGAR,BANGALORE, PIN - 560104",BANGALORE,BANGALORE,KARNATAKA,22955906
98,KARNATAKA BANK LIMITED,KARB0000106,BHAYANDER EAST MUMBAI,"SHOP NO.12,OSTWAL ORNATE BLDG.NO.2,OPP.JAIN MANDIR,JESSAL PARK ROAD,BHAYANDAR(E),MUMBAI, PIN - 401105",THANE,MUMBAI,MAHARASHTRA,28160880
99,KARNATAKA BANK LIMITED,KARB0000107,BANASHANKARI II STAGE BANGALORE,"# 979,IST FLOOR,RANGABHOOMI,13TH CROSS,19TH MAIN,BANASHANKARI IIND STAGE,BANGALORE, PIN - 560070",BANGALORE,BANGALORE,KARNATAKA,22955840
100,KARNATAKA BANK LIMITED,KARB0000108,BHUBANESHWAR ORISSA,"B-63,SAVITHRI TOWERS,IST FLOOR,RUPALI SQUARE,JANAPATH ROAD,SAHEED NAGAR,BHUBANESWAR, PIN - 751007",BANGALORE,BANGALORE,ODISHA,2546674
101,KARNATAKA BANK LIMITED,KARB0000109,INDIRA NAGAR BANGALORE,"#485,FIRST FLOOR,C M H ROAD,INDIRANAGAR,BANGALORE, PIN - 560038",BANGALORE,BANGALORE,KARNATAKA,22955857
102,KARNATAKA BANK LIMITED,KARB0000110,TILAKAWADI BELGAUM,"IST FLOOR,DEV SUDHA BUILDING,I FLOOR, DOOR NO. CCB-3,SHUKRAWARPET,BELGAUM-TILAKWADI, PIN - 590006",BELGAUM,BELGAUM,KARNATAKA,2430205
103,KARNATAKA BANK LIMITED,KARB0000111,B T M LAYOUT BANGALORE,"NO.18,BMR SANKIRANA,6TH MAIN ROAD,IST CROSS,BTM LAYOUT,II STAGE,BANGALORE, PIN - 560076",BANGALORE,BANGALORE,KARNATAKA,22955848
104,KARNATAKA BANK LIMITED,KARB0000112,MAHALAKSHMIPURAM BANGALORE,"NO 271,IST FLOOR,4TH MAIN,12TH CROSS MAHALAKSHMI LAYOUT,BANGALORE, PIN - 560086",BANGALORE,BANGALORE,KARNATAKA,22955875
105,KARNATAKA BANK LIMITED,KARB0000113,SANJAYA NAGAR BANGALORE,"SITE NO.21,50 FEET MAIN ROAD,CORPORATION DIVISION 100,SANJAYNAGAR,BANGALORE, PIN - 560094",BANGALORE,BANGALORE,KARNATAKA,22955894
106,KARNATAKA BANK LIMITED,KARB0000114,K H ROAD BANGALORE,"NO.50, GROUND FLOOR  OPP.BMTC BUS STANDK.H.ROAD  BANGALORE, PIN - 560027",BANGALORE,BANGALORE,KARNATAKA,22955867
107,KARNATAKA BANK LIMITED,KARB0000115,GOKULA BANGALORE,"#IST FLOOR,12 N S BUILDING,M S R MAIN ROAD,GOKUL,BANGALORE, PIN -  560054",BANGALORE,BANGALORE,KARNATAKA,22955918
108,KARNATAKA BANK LIMITED,KARB0000116,UDYAMBAG (GIT EXTN.),"K.L.SOCIETY GOGTE INSTITUTE OF TECHNOLOGY CAMPUS,UDAYAMBHAG,KHANAPUR ROAD,BANGALORE, PIN - 590002",BELGAUM,BELGAUM,KARNATAKA,2440365
109,KARNATAKA BANK LIMITED,KARB0000117,K.G.ROAD (E.C),"CIVIL COURT COMPLEX,BANGALORE, PIN - 560009.",BANGALORE,BANGALORE,KARNATAKA,22955870
110,KARNATAKA BANK LIMITED,KARB0000118,OVERSEAS BANGALORE,"NO.3,MANANDI PLAZA  ST. MARKS ROAD,BANGALORE, PIN - 560001",BANGALORE,BANGALORE,KARNATAKA,65305445
111,KARNATAKA BANK LIMITED,KARB0000119,DATA CENTRE,"NO. 113, FIRST FLOOR, K H ROAD, DATA CENTRE, BANGALORE - 560027",BANGALORE,BANGALORE,KARNATAKA,22021900
112,KARNATAKA BANK LIMITED,KARB0000120,R T NAGAR BANGALORE,"NO6, 80 FEET ROAD (OPP.R.T.NAGAR PLAY GROUND) H.M.T.LAYOUT R.T.NAGAR,BANGALORE, PIN - 560032",BANGALORE,BANGALORE,KARNATAKA,22955889
113,KARNATAKA BANK LIMITED,KARB0000121,SAHKARNAGAR BANGALORE,"NO.2227,'D'BLOCK,KODIGEHALLY MAIN ROAD,SAHAKARA NAGAR,OPP.STERLING APTS,BANGALORE, PIN - 560092",BANGALORE,BANGALORE,KARNATAKA,22955892
114,KARNATAKA BANK LIMITED,KARB0000122,CUSTOMER CARE CENTRE,"NO.50,GROUND FLOOR, OPP.BMTC BUS STAND, K.H.ROAD, BANGALORE, PIN - 560027",BANGALORE,BANGALORE,KARNATAKA,22021501
115,KARNATAKA BANK LIMITED,KARB0000123,VIDYARANYAPURA,"NO.704,HMT LAYOUT,5TH BLOCK,VIDYARANYAPURA MAIN ROAD,VIDYARANYAPURA,BANGALORE, PIN - 560097",BANGALORE,BANGALORE,KARNATAKA,22955904
116,KARNATAKA BANK LIMITED,KARB0000124,AMARJYOTHI NAGAR,"NO1,NAGARBHAVI MAIN ROAD,AMARJYOTHI NAGAR,BANGALORE, PIN - 560040",BANGALORE,BANGALORE,KARNATAKA,22955911
117,KARNATAKA BANK LIMITED,KARB0000125,MAGISTRATE COURT (E.C),"METROPOLITAN MAGISTRATE COURT COMPLEX,NRUPATUNGA ROAD,BANGALORE, PIN - 560001",BANGALORE,BANGALORE,KARNATAKA,22955913
118,KARNATAKA BANK LIMITED,KARB0000126,BANASAWADI,"D.NO.963,6-AC,BANASWADI OUTER RING ROAD,HRBR LAYOUT,BLOCK I,KALYAN NAGAR,BANASWADI,BANGALORE, PIN - 560043",BANGALORE,BANGALORE,KARNATAKA,22955915
119,KARNATAKA BANK LIMITED,KARB0000127,BHOPAL,"GROUND FLOOR,SADANA TOWERS,2A,ZONEII,M.P.NAGAR,BHOPAL, PIN - 462011",BANGALORE,BANGALORE,MADHYA PRADESH,2576298
120,KARNATAKA BANK LIMITED,KARB0000128,HSR LAYOUT,"NO.417,27TH MAIN,SECTOR-1 HSR LAYOUT,BANGALORE, PIN - 560034",BANGALORE,BANGALORE,KARNATAKA,22955917
121,KARNATAKA BANK LIMITED,KARB0000129,BILASPUR,"GROUND FLOOR,MANGAL BHAVAN,LINK ROAD,OPP.HOTEL DEEP,BILASPUR, PIN - 495001",BILASPUR,BILASPUR,CHHATTISGARH,222233
122,KARNATAKA BANK LIMITED,KARB0000130,MARATHAHALLI,"NO.83,ANANDA NAGAR,RING ROAD,MARATHAHALLI,BANGALORE,  PIN - 560037",BANGALORE,BANGALORE,KARNATAKA,22955920
123,KARNATAKA BANK LIMITED,KARB0000131,CHERAMBANE,"KUSHALAPPA'S BUILDING,CHERAMBANE, PIN - 571257",KODAGU,CHERAMBANE,KARNATAKA,235045
124,KARNATAKA BANK LIMITED,KARB0000132,CHEYANDANE,"NARIANDADA VILLAGE,CHEYYANDANE, PIN - 571212",KODAGU,CHEYANDANE,KARNATAKA,259034
125,KARNATAKA BANK LIMITED,KARB0000133,CHIKMAGALUR,"FIRST FLOOR,SARAGODU BUILDING,INDIRA GANDHI ROAD,CHICKMAGALUR, PIN - 577101",CHICKMAGALUR,CHICKMAGALUR,KARNATAKA,232447
126,KARNATAKA BANK LIMITED,KARB0000134,CHILKUNDA,"B.M.ROAD,CHILKUNDA,HUNSUR TALUK, PIN - 571133",MYSORE,MYSORE,KARNATAKA,241028
127,KARNATAKA BANK LIMITED,KARB0000135,CHITGUPPA,"D.NO2-72/A,IST FLOOR,DSG COMPLEX,ARYA SAMAJ ROAD,GANDHI CHOWK,CHITGUPPA, PIN - 585412",BIDAR,CHITGUPPA,KARNATAKA,277124
128,KARNATAKA BANK LIMITED,KARB0000136,CHITRADURGA KARNATAKA,"REDDY JANASANGHA BUILDING,SRI YOGI VEMANA COMPLEX,B D ROAD,CHITRADURGA, PIN - 577501",CHITRADURGA,CHITRADURGA,KARNATAKA,228257
129,KARNATAKA BANK LIMITED,KARB0000137,CHITRAPADY,"FIRST FLOOR,SRINIKETANA COMPLEX,N H 17,CHITRAPADY,UDUPI TALUK, PIN - 576225",UDUPI,CHITRAPADY,KARNATAKA,2564131
130,KARNATAKA BANK LIMITED,KARB0000138,CHODULU SOMWARPET,"STATE BANK OF MYSORE ROAD,SOMWARPET, PIN - 571236",KODAGU,SOMWARPET,KARNATAKA,282078
131,KARNATAKA BANK LIMITED,KARB0000139,OPPANAKARA ST COIMBATORE,"52,GROUND FLOOR OPPANAKARASTREET, COIMBATORE, PIN - 641001",COIMBATORE,COIMBATORE,TAMIL NADU,2391025
132,KARNATAKA BANK LIMITED,KARB0000140,KUNDAPUR MAIN KUNDAPUR,"SRI LATHA MAHAL BUILDING,MAIN ROAD,KUNDAPURA, PIN - 576201",UDUPI,KUNDAPUR,KARNATAKA,232235
133,KARNATAKA BANK LIMITED,KARB0000141,CALICUT KOZHIKODE,"ROOM NO.4,IST FLOOR,JAYANTHI BUILDINGS,PALAYAM,KOZHIKODE, PIN - 673001",KOZHIKODE,KOZHIKODE,KERALA,2721292
134,KARNATAKA BANK LIMITED,KARB0000142,CHINTAMANI,"SRI VIDYA GANAPATHI TEMPLE TRUST BUILDING,IST FLOOR,OPP.OLD CIVIL BUSSTAND,CHINTHAMANI, PIN - 563125",KOLAR,CHINTAMANI,KARNATAKA,252124
135,KARNATAKA BANK LIMITED,KARB0000143,CHANNAPATNA,"GROUND FLOOR SRI GURU KRUPA  NO.2240, IST CROSS  OPP. B.S.N.L. OFFICE B.M.ROAD,CHANNAPATNA, PIN - 571501",BANGALORE-RURAL,CHANNAPATNA,KARNATAKA,27256650
136,KARNATAKA BANK LIMITED,KARB0000144,CANNANORE KANNUR,"53,CW/35/3074,IST FLOOR,KANNAN'S ARCADE,BANK ROAD,KANNUR, PIN - 670001",KANNUR,KANNUR,KERALA,2706334
137,KARNATAKA BANK LIMITED,KARB0000145,CHOWLAHIRIYUR,"SHIVA NILAYA,MAIN ROAD,CHOWLAHIRIYUR,KADUR TALUK, PIN - 577180",CHICKMAGALUR,CHOWLAHIRIYUR,KARNATAKA,249037
138,KARNATAKA BANK LIMITED,KARB0000146,CHANDIGARH PUNJAB,"SCO NO 2917-18,SECTOR 22-C,CHANDIGARH, PIN - 160022",CHANDIGARH,CHANDIGARH,PUNJAB,2712219
139,KARNATAKA BANK LIMITED,KARB0000147,PARK STREET KOLKATA,"I FLOOR,""SHUBHAM"" NO.1,SAROJINI NAIDU SARANI,NEAR MALLICK BAZAR,PARK STREET,KOLKATA, PIN - 700017",KOLKOTA,KOLKOTA,WEST BENGAL,22837903
140,KARNATAKA BANK LIMITED,KARB0000148,R S PURAM COIMBATORE,"346,D B ROAD,II FLOOR,R.S PURAM,COIMBATORE, PIN - 641002",COIMBATORE,COIMBATORE,TAMIL NADU,2472403
141,KARNATAKA BANK LIMITED,KARB0000149,CHANNARAYAPATNA,"IST FLOOR,PRABATH COMPLEX,OPP.K S R T C BUSSTAND,B M ROAD,CHANNARAYAPATNA, PIN - 573116",HASSAN,CHANNARAYAPATNA,KARNATAKA,256034
142,KARNATAKA BANK LIMITED,KARB0000150,R A PURAM CHENNAI,"92 OLD 77,GREENWAYS ROAD,RAJA ANNAMALAIPURAM,CHENNAI, PIN - 600028",CHENNAI,CHENNAI,TAMIL NADU,23453247
143,KARNATAKA BANK LIMITED,KARB0000151,CUDDAPAH A P,"I FLOOR,RAJARAM COMPLEX,3/303,CHRISTIAN LANE,CUDDAPAH, PIN - 516001.",CUDDAPAH,CUDDAPAH,ANDHRA PRADESH,241782
144,KARNATAKA BANK LIMITED,KARB0000152,PORUR CHENNAI,"NO.84.GROUND FLOOR,MOUNT POONAMMALLE HIGH ROAD,PORUR,CHENNAI, PIN - 600116",CHENNAI,CHENNAI,TAMIL NADU,24827050
145,KARNATAKA BANK LIMITED,KARB0000153,RAMANATHAPURAM COIMBATORE,"1174,GROUNDFLOOR,CHINTAMANI, SUNGAM COIMBATORE RAMANATHAPURAM, PIN - 641045",COIMBATORE,COIMBATORE,TAMIL NADU,2315116
146,KARNATAKA BANK LIMITED,KARB0000154,COONOOR TN,"K N M COMPOUND,OOTY ROAD,COONOOR, PIN - 643102",NILGIRIS,COONOOR,TAMIL NADU,2206444
147,KARNATAKA BANK LIMITED,KARB0000155,SERVICE BRANCH CHENNAI,"DOOR NO.351,2ND FLOOR,VADIRAJA BUILDING,AVVAI SHANMUGAM ROAD,GOPALPURAM,CHENNAI, PIN - 600086",CHENNAI,CHENNAI,TAMIL NADU,23453257
148,KARNATAKA BANK LIMITED,KARB0000156,BESANT NAGAR CHENNAI,"NEW NO40,OLD NO T-32,7TH AVENUE,BESANT NAGAR,CHENNAI, PIN - 600090",CHENNAI,CHENNAI,TAMIL NADU,24353260
149,KARNATAKA BANK LIMITED,KARB0000157,K K NAGAR CHENNAI,"D.NO.10,P.T.RAJAN SALAI,K.K.NAGAR,CHENNAI, PIN - 600078",CHENNAI,CHENNAI,TAMIL NADU,23453240
150,KARNATAKA BANK LIMITED,KARB0000158,CHENNAI MOGAPPIAR,"NEW NO.78(OLD NO.402),PANNEER NAGAR,TIRUVALLUVAR ROAD,MOGAPPAIR,CHENNAI, PIN - 600037",CHENNAI,CHENNAI,TAMIL NADU,23453255
151,KARNATAKA BANK LIMITED,KARB0000159,CHENNAI  AYANAVARAM,"OLD NO.22,NEW NO.4,IST FLOOR,3RD CROSS STREET,VENKATESHPURAM COLONY,AYANAVARAM-CHENNAI, PIN - 600023",CHENNAI,CHENNAI,TAMIL NADU,23453256
152,KARNATAKA BANK LIMITED,KARB0000160,CUTTACK,"22&22/1507,RASHMI PLAZA,GROUND & I FLOOR,LINK ROAD,NEXT TO ARUNODAYA MARKET,CUTTAK, 753012",CUTTACK,CUTTACK,ODISHA,2322330
153,KARNATAKA BANK LIMITED,KARB0000161,WEST MAMBALAM,"GROUND FLOOR,NO12(OLD NO.28),GROUND FLOOR,2ND STREET,POSTAL COLONY WEST MAMBALAM,CHENNAI, PIN - 600033",CHENNAI,CHENNAI,TAMIL NADU,23453258
154,KARNATAKA BANK LIMITED,KARB0000162,ANNA NAGAR WEST,"W-582 GROUND FLOORSBOA SCHOOL ROADANNANAGAR WEST  EXTENSION CHENNAI, PIN - 600101",CHENNAI,ANNANAGAR,TAMIL NADU,23453262
155,KARNATAKA BANK LIMITED,KARB0000163,VELACHERY,"D/NO-3, PLOT NO.14, SASHI NAGAR, VELACHERY BYE PASS ROAD, VELACHERY - 600042, GUINDY TALUK, CHENNAI DIST.",CHENNAI,VELACHERY,TAMIL NADU,22593600
156,KARNATAKA BANK LIMITED,KARB0000164,CHIKKABALLAPURA,"GROUND FLOOR NO 483/432/1, WARD NO. 3, CSI HOSPITAL ROAD, CHIKKABALLAPURA - 562101",CHIKKABALLAPURA,CHIKKABALLAPURA,KARNATAKA,271164
157,KARNATAKA BANK LIMITED,KARB0000165,CHINCHALLI GP,"NEAR PRIMARY HEALTH CENTRE, MAIN ROAD, CHINCHALLI - 582117",GADAG,GADAG,KARNATAKA,293010
158,KARNATAKA BANK LIMITED,KARB0000166,VIRUGAMBAKKAM,"KALIAMMAN KOIL STREET, NATESAN NAGAR, VIRUGAMBAKKAM, CHENNAI - 600092",CHENNAI,CHENNAI,TAMIL NADU,24790547
159,KARNATAKA BANK LIMITED,KARB0000167,CHALLAKERE,"BELLARY ROAD, OPP. CHALLAKERE TEMPLE, CHALLAKERE - 577522",CHITRADURGA,CHITRADURGA,KARNATAKA,222048
160,KARNATAKA BANK LIMITED,KARB0000168,CHITTOOR GP,"ALOOR CROSS,VANDSE KOLLUR ROAD,CHITTOOR VILLAGE 7 GP 576 233KUNDAPURA TALUK",UDUPI,UDUPI,KARNATAKA,239335
161,KARNATAKA BANK LIMITED,KARB0000169,CHENNAI KILPAUK,"FIST FLOOR,D.NO.97,NEW AVADI ROAD,KILPAUK CHENNAI.600 010",CHENNAI,CHENNAI,TAMIL NADU,9043699229
162,KARNATAKA BANK LIMITED,KARB0000170,CHENNAI NANGANALLUR,"NEW NO.3 A OLD NO.26 BY 3 2ND MAIN ROAD,NANGANALLUR,CHENNAI 600 001",CHENNAI,CHENNAI,TAMIL NADU,9952829942
163,KARNATAKA BANK LIMITED,KARB0000171,CHANNAGIRI,"SRI MARULASIDDESHWARA COMPLEX N H 13 NEAR BUS STAND, CHITRADURGA ROAD, CHANNAGIRI 577213",DAVANGERE,CHANNAGIRI,KARNATAKA,0
164,KARNATAKA BANK LIMITED,KARB0000172,CHADCHAN,"NO 3 PANDHARPUR CHADCHAN ROAD OPP GRAMA PANCHAYATH OFFICE, CHADCHAN, 586205, INDI TALUK",BIJAPUR,CHADCHAN,KARNATAKA,9902106050
165,KARNATAKA BANK LIMITED,KARB0000173,CHAMNAL G P,"D NO 195, GROUND FLOOR, MAIN ROAD, CHAMNAL VILLAGE & GRAMA PANCHAYAT 585309, SHAHAPUR TALUK",YADGIR,CHAMNAL,KARNATAKA,7829746254
166,KARNATAKA BANK LIMITED,KARB0000174,CHENNAI ARUMBAKKAM,"FIRST FLOOR, NO 7, SBI OFFICERS COLONY, RAZAK GARDEN ROAD, ARUMBAKKAM, CHENNAI 600028",CHENNAI,CHENNAI,TAMIL NADU,0
167,KARNATAKA BANK LIMITED,KARB0000175,CHENNAI JAWAHAR NAGAR,"FIRST FLOOR, D NO 128, OLD NO 51, SRP KOIL STREET, JAWAHAR NAGAR, CHENNAI 600082, CHENNAI DISTRICT, TAMILNADU STATE",CHENNAI,CHENNAI,TAMIL NADU,0
168,KARNATAKA BANK LIMITED,KARB0000176,CHANDIGARH SEC THIRTY EIGHT,"SC0 311, SECTOR 38D, CHANDIGARH 160036, CHANDIGARH UT",CHANDIGARH,CHANDIGARH,CHANDIGARH,0
169,KARNATAKA BANK LIMITED,KARB0000177,CHIKKAMAGALURU-KALYAN NAGARA,"NO.227 & 228,SHIVASHAKTHI ARCADE, HIREMAGALUR BYPASS ROAD,AIT CIRCLE,KALYAN NAGARA",CHIKMAGALUR,CHIKKAMAGALURU,KARNATAKA,8277292398
170,KARNATAKA BANK LIMITED,KARB0000178,CHARA GP,"SRI MATHAJI, MARKET ROAD, NEAR LIONS CIRCLE,VIA HEBRI, CHARA VILLAGE & GP-576112, KARKALA TALUK",UDUPI,CHARA,KARNATAKA,0
171,KARNATAKA BANK LIMITED,KARB0000179,AMBATTUR,"DNO.20,NORTH PARK STREET, VENKATAPURAM,AMBATTUR, CHENNAI-600053",CHENNAI,CHENNAI,TAMIL NADU,7358790179
172,KARNATAKA BANK LIMITED,KARB0000180,CHAMARAJANAGAR,"B.R. HILLS ROAD, NEAR EASTERN SIDE OF KEB OFFICE,CHAMARAJANAGAR-571313",CHAMARAJANAGAR,CHAMARAJANAGAR,KARNATAKA,0
173,KARNATAKA BANK LIMITED,KARB0000181,DANDELI,"IST FLOOR,HIREMATH BUILDING,J N ROAD,DANDELI,HALIYAR TALUK, PIN - 581325",UTTAR KANNADA,DANDELI,KARNATAKA,231274
174,KARNATAKA BANK LIMITED,KARB0000182,DAVANAGERE MAIN,"IST FLOOR,B.H.M.ENCLAVE,D.NO.651,H.M.ROAD,BINNY COMPOUND ROAD,DAVANGERE, PIN - 577001",DAVANGERE,DAVANGERE,KARNATAKA,237598
175,KARNATAKA BANK LIMITED,KARB0000183,VIJAYA ROAD DHARWAD MAIN,"I ST FLOOR,ACHYUT ARCADE NEAR JUBILEE CIRCLEP.B.ROAD,DHARWAD, PIN - 580001",DHARWAD,DHARWAD,KARNATAKA,2742489
176,KARNATAKA BANK LIMITED,KARB0000184,DUDDA,"SANTOSH COMPLEX,MAIN ROAD,DUDDA, PIN - 573118",HASSAN,DUDDA,KARNATAKA,223922
177,KARNATAKA BANK LIMITED,KARB0000185,DEREBAIL MANGALORE,"2-1-90/4,IST FLOOR,VISHWASHREE BILDG.,AIR PORT ROAD,KONCHADY POST,DEREBAIL, MANGALORE, PIN - 575008",DAKSHINA KANNADA,MANGALORE,KARNATAKA,2249550
178,KARNATAKA BANK LIMITED,KARB0000186,DHARESHWARA,"NH 17,DHARESHWAR, PIN - 581442",UTTAR KANNADA,DHARESHWARA,KARNATAKA,254328
179,KARNATAKA BANK LIMITED,KARB0000187,DOMMATHAMARY,"HINDUPUR-PAVAGADA ROAD,DOMMATHAMARI, PIN - 561202",TUMKUR,DOMMATHAMARY,KARNATAKA,248833
180,KARNATAKA BANK LIMITED,KARB0000188,DUBALGUNDI,"BALAJIPRASANNA,CHIKATWAR BUILDING,IST FLOOR 1-32 & 1-34 MAIN ROAD,DUBALGUNDI, PIN - 585418",BIDAR,DUBALGUNDI,KARNATAKA,273621
181,KARNATAKA BANK LIMITED,KARB0000189,CHANDNI CHOWK NEW DELHI,"NO.301-303,HAVELIHIADERKULI,MAIN ROAD,CHANDINI CHOWK-DELHI, PIN - 110006",DELHI,DELHI,DELHI,28833148
182,KARNATAKA BANK LIMITED,KARB0000190,K B EXTENSION DAVANAGERE,"IST FLOOR,SRIMURUGHARAJENDRA COMPLEX,HADADI ROAD,DAVANGERE-K B EXTENSION,DAVANAGERE, PIN - 577002",DAVANGERE,DAVANGERE,KARNATAKA,250093
183,KARNATAKA BANK LIMITED,KARB0000191,SHIVANANDANAGAR DHARWAD,"IST FLOOR,HUGGI BUILDING,NEAR NTTF,P B ROAD,SHIVANANDNAGAR,DHARWAD, PIN - 580001",DHARWAD,DHARWAD,KARNATAKA,2446281
184,KARNATAKA BANK LIMITED,KARB0000192,KUD CIRCLE DHARWAD,"PLOT NO.2,CTS 17A,221-13,HALIYAL ROAD,KUD CIRCLE,SRINAGAR,DHARWAD, PIN - 580003",DHARWAD,DHARWAD,KARNATAKA,2772737
185,KARNATAKA BANK LIMITED,KARB0000193,DOMBIVLI MUMBAI,"SHOP NO 40 TO 43,IST FLOOR,P.P.CHAMBERS,FATHEH ALI ROAD,BHANU NAGAR,DOMBIVLI (EAST), PIN - 421201",MUMBAI,MUMBAI,MAHARASHTRA,2438578
186,KARNATAKA BANK LIMITED,KARB0000194,LAXMI NAGAR NEW DELHI,"D.NO.U-75,GROUND FLOOR,KALRA COMPLEX,MOTHER DAIRY ROAD,SHAKARPUR,LAXMINAGAR,DELHI, PIN - 110092",DELHI,DELHI,DELHI,28822215
187,KARNATAKA BANK LIMITED,KARB0000195,DHARWAD-SDMC (E.C),"S.D.M.COLLEGE OF ENG & TECHNOLOGY CAMPUS,VIJAYA ROAD,DHARWAD, PIN - 580001.",DHARWAD,DHARWAD,KARNATAKA,2216051
188,KARNATAKA BANK LIMITED,KARB0000196,DEHRADUN UTTRANCHAL,"GROUND FLOOR,NO2,NEWCANTT.ROAD,ADJACENT TO RAIPUR ROAD,DEHRADUN, PIN - 248001",DEHRADUN,DEHRADUN,UTTARAKHAND,2741773
189,KARNATAKA BANK LIMITED,KARB0000197,DEVANAHALLI BANGALORE,"NO.24/2813/2628 ,N.H.7,DEVANAHALLI, PIN - 562110",BANGALORE,BANGALORE,KARNATAKA,27683965
190,KARNATAKA BANK LIMITED,KARB0000198,DODDABALLAPUR,"NO.2777,M.G.CIRCLE LIONS BHAVAN ROAD SHENGARPET DODDABALLAPUR, PIN - 561203",KOLAR,BANGALORE,KARNATAKA,27622119
191,KARNATAKA BANK LIMITED,KARB0000199,DHANBAD,"GROUND FLOORCOMMERCE HOUSE II SHASRI NAGARDHANBAD, PIN - 828106",DHANBAD,DHANBAD,JHARKHAND,2308108
192,KARNATAKA BANK LIMITED,KARB0000200,INTERNATIONAL DIVISION,"107-109,IST FLOOR,RAHEJA CENTRE,NARIMAN POINT,FREE PRESS JOURNAL MARG,MUMBAI, PIN - 400021",MUMBAI,MUMBAI,MAHARASHTRA,22881643
193,KARNATAKA BANK LIMITED,KARB0000201,ERNAKULAM KERALA,"XXX/512,CHELUR BUILDING  I FLOOR,M.G.ROAD PALLIMUKKU ERNAKULAM, PIN - 682016",ERNAKULAM,ERNAKULAM,KERALA,2376841
194,KARNATAKA BANK LIMITED,KARB0000202,ERODE,"15A,GANDHIJI ROAD,ERODE, PIN - 638001",ERODE,ERODE,TAMIL NADU,2251747
195,KARNATAKA BANK LIMITED,KARB0000203,TEACHERS COLONY ERODE T N,"NO18,PALANIAPPA COMPLEX,I FLOOR,DR RADHAKRISHNA ROAD,TEACHER'S COLONY,ERODE, PIN - 638011",ERODE,ERODE,TAMIL NADU,2271027
196,KARNATAKA BANK LIMITED,KARB0000204,DURG,"GROUND FLOOR,JOIN HANDS  STATION ROAD DRUG, PIN - 491001",DURG,DURG,CHHATTISGARH,2212880
197,KARNATAKA BANK LIMITED,KARB0000205,DEVARA HIPPARAGI,"PATIL COMPLEX, N H - 218, OPP. POLICE STATION, DEVARA HIPPARAGI - 586115",BIJAPUR,BIJAPUR,KARNATAKA,221184
198,KARNATAKA BANK LIMITED,KARB0000206,ERNAKULAM PALARIVATTOM,"35 BY 265 267 BY 268,GROUND FLOOR,ARUN CHAMBERS,EDAPALLY ALUVA ROAD,PALARIVATTOM,ERNAKULAM,682 025",ERNAKULAM,ERNAKULAM,KERALA,9447022095
199,KARNATAKA BANK LIMITED,KARB0000207,DISPUR,"GROUND FLOOR,MANIK TOWER,BELTOLA ROAD,DISPUR LAST GATE,DISPUR 781 028",KAMRUP,DISPUR,ASSAM,8811031373
200,KARNATAKA BANK LIMITED,KARB0000208,ELURU,"PEDDADA VARI STREET,RAMACHNADRA RAO PET,ELURU 534 001",WEST GODAVARI DISTRICT,ELURU,ANDHRA PRADESH,234133
201,KARNATAKA BANK LIMITED,KARB0000209,DAVANGERE SHAMANUR ROAD,"D NO 1664 33 S S LAYOUT A BLOCK SHAMANUR ROAD, DAVANGERE 577004",DAVANGERE,DAVANGERE,KARNATAKA,0
202,KARNATAKA BANK LIMITED,KARB0000211,DURGAPUR,"GROUND FLOOR, N 36, LANDMARK II BUILDING, SHAHID KHUDIRAM SARANI, CITY CENTRE, DURGAPUR 713216",BURDWAN,DURGAPUR,WEST BENGAL,0
203,KARNATAKA BANK LIMITED,KARB0000212,DODDAGUBBI G P,"GROUND FLOOR, D NO 31, ASHA TOWNSHIP PHASE II, DODDAGUBBI MAIN ROAD, DODDAGUBBI VILLAGE & G P, 560077, BENGALURU EAST TALUK",BENGALURU URBAN,DODDAGUBBI,KARNATAKA,0
204,KARNATAKA BANK LIMITED,KARB0000213,DEVALAPURA DEVANAGUNDI GP,"NO 56/10P/36,DEVALAPURA-DEVANAGUNDI GP-560067 HOSAKOTE TALUK",BENGALURU RURAL,BENGALURU,KARNATAKA,0
205,KARNATAKA BANK LIMITED,KARB0000214,DAVANAGERE-P B ROAD,"D.NO.85/5&262/1,NEAR NEW KSRTC BUS STAND, PB ROAD, DAVANGERE-577002",DAVANGERE,DAVANAGERE,KARNATAKA,9844730772
206,KARNATAKA BANK LIMITED,KARB0000215,DEVADURGA,"PLOT NO.4, TMC NO.8-1-258,VEERABHADRESHWAR COMPLEX, BORANNA COLONY, NEAR AMBEDKAR CIRCLE, DEVADURGA",RAICHUR,DEVADURGA,KARNATAKA,9731188322
207,KARNATAKA BANK LIMITED,KARB0000216,CHIKKODI,"TMC NO.5856/2876/P-2,NIPPANI-MAHALINGPUR,STATE HIGHWAY,R K COLONY,NEAR GOVT HOSPITAL,CHIKKODI-591201",BELAGAVI,BELAGAVI,KARNATAKA,9740864235
208,KARNATAKA BANK LIMITED,KARB0000217,DHARWAD VIDYAGIRI,"JSS COLLEGE CAMPUS ,VIDYAGIRI , DHARWAD-580004",DHARWAD,DHARWAD,KARNATAKA,8147120560
209,KARNATAKA BANK LIMITED,KARB0000218,ELIMALE,"KEPALAKAJE COMPLEX, ELIMALE-574248, NELLURKEBRAJE VILLAGE, SULLIA TALUK",D K DISTRICT,MANGALURU,KARNATAKA,0
210,KARNATAKA BANK LIMITED,KARB0000219,CHIKKAJAJUR,"D.NO 605/1050,CHOULTRY ROAD,CHIKKAJAJUR-577523,HOLALKERE TQ",CHITRADURGA,CHIKKAJAJUR,KARNATAKA,0
211,KARNATAKA BANK LIMITED,KARB0000220,CHITTOOR,"D.NO.17-336,337, JAYASREE COMPLEX, T V NAIDU STREET, CHITTOOR-517001,AP",CHITTOOR,CHITTOOR,ANDHRA PRADESH,0
212,KARNATAKA BANK LIMITED,KARB0000221,DHARWAD-SANMATHINAGAR,"D.NO 13/80 & 13/81,RAYA RESIDENCY, KELEGERI ROAD,SANMATHI NAGAR, DHARWAD-580001",DHARWAD,DHARWAD,KARNATAKA,0
213,KARNATAKA BANK LIMITED,KARB0000222,DODDA AALADA MARA,"D.NO 57/2D,GROUND FLOOR,NEAR DODDA AALADA MARA,CHUNCHANAKUPPE GP,TAVAREKERE HOBLI-562130,BENGALURU URBAN DISTRICT, KARNATAKA STATE, BENGALURU URBAN.",BENGALURU URBAN,TAVAREKERE HOBLI,KARNATAKA,0
214,KARNATAKA BANK LIMITED,KARB0000225,FARIDABAD HARYANA,"S.C.O.143,SECTOR 21C,SHOPPING CENTRE,FARIDABAD, PIN - 121001",FARIDABAD,FARIDABAD,HARYANA,2439254
215,KARNATAKA BANK LIMITED,KARB0000250,RO DELHI,"M13(A)PUNJ HOUSE,1ST FLOOR,CONNAUGHT CIRCUS,NEW DELHI, PIN - 110001",DELHI,DELHI,DELHI,23418155
216,KARNATAKA BANK LIMITED,KARB0000251,GADAG,"CTS NO 3787/15A/12A,IST FLOOR,MAHENDRAKAR CIRCLE,STATION ROAD,GADAG, PIN - 582101.",GADAG,GADAG,KARNATAKA,233970
217,KARNATAKA BANK LIMITED,KARB0000252,GOKARNA,"HOUSE NO.12A,THARAMUKKI ROAD,NEAR BUSSTAND,GOKARNA, PIN - 581326",UTTAR KANNADA,GOKARNA,KARNATAKA,256148
218,KARNATAKA BANK LIMITED,KARB0000253,GONIBEEDU,"MAIN ROAD,GONIBEEDU,MUDIGERE TALUK, PIN - 577151",CHICKMAGALUR,MUDIGERE,KARNATAKA,240134
219,KARNATAKA BANK LIMITED,KARB0000254,GULBARGA,"NO.30,IST FLOOR,""BHIMALLI BUILDING"",SUPER MARKET,GULBARGA, 585101",GULBARGA,GULBARGA,KARNATAKA,269354
220,KARNATAKA BANK LIMITED,KARB0000255,GUNTUR AP,"24-34,35,BEHIND HINDU COLLEGE,G T ROAD,GUNTUR, PIN - 522003",GUNTUR,GUNTUR,ANDHRA PRADESH,2256148
221,KARNATAKA BANK LIMITED,KARB0000256,GAJANOOR,"MAIN ROAD,GAJANOOR, 577202",SHIMOGA,GAJANOOR,KARNATAKA,234232
222,KARNATAKA BANK LIMITED,KARB0000257,GUBBI,"B SIDDARAMANNA BUILDING,NEAR BUS STAND,B H ROAD,GUBBI, PIN - 572216.",TUMKUR,GUBBI,KARNATAKA,222231
223,KARNATAKA BANK LIMITED,KARB0000258,GOPALPURA DHARWAD,"SHRI DURGAPARAMESHWARI PLAZA,CTS NO.94/1A/2A2,STATION ROAD,MALAMADDI,DHARWAD, PIN - 580007",DHARWAD,GOPALPURA,KARNATAKA,2748680
224,KARNATAKA BANK LIMITED,KARB0000259,GOKAK,"GROUND FLOOR,SATISH COMPLEX,MAIN ROAD,GOKAK, PIN - 591307",BELGAUM,GOKAK,KARNATAKA,226285
225,KARNATAKA BANK LIMITED,KARB0000260,GONIKOPPAL,"FIRST FLOOR,RONICA COMPLEX,MAIN ROAD,GONIKOPPAL, PIN - 571213",SOUTH COORG,GONIKOPPAL,KARNATAKA,247587
226,KARNATAKA BANK LIMITED,KARB0000261,GURGAON HARYANA,"SCO 21,SECTOR-14,OLD DELHI ROAD,GURGAON, PIN - 122007",GURGAON,GURGAON,HARYANA,4107088
227,KARNATAKA BANK LIMITED,KARB0000262,GANGAVATHI,"FIRST FLOOR,DEVASIRI COMPLEX,L.G.ROAD,GANGAVATHI, PIN - 583227",KOPPAL,GANGAVATHI,KARNATAKA,234400
228,KARNATAKA BANK LIMITED,KARB0000263,GOA PONDA,"HOTEL MENINO BUILDING,BELGAUM-PONDA ROAD,DHADA VAIDYA CHOWK,GOA, PIN - 403401",GOA-NORTH,GOA,GOA,2316988
229,KARNATAKA BANK LIMITED,KARB0000264,GUWAHATI,"IST FLOOR,GANGA BHAVAN,OPP.S.B.DEORAH COLLEGE,ULUBARI,G.S.ROAD,GUWAHATI, PIN - 781007",KAMRUP,GUWAHATI,ASSAM,2465416
230,KARNATAKA BANK LIMITED,KARB0000265,GUNDLUPET,"40/41 IST FLOORNH212 MYSORE OOTY ROAD  GUNDLUPET, PIN - 571111",GUNDLUPET,GUNDLUPET,KARNATAKA,222011
231,KARNATAKA BANK LIMITED,KARB0000266,GHAZIABAD,"GROUND FLOOR  GAUR GRAVITY MALL  8,VAIBHAVKHAND  INDIRAPURAM  GHAZIABAD, PIN - 201014",GHAZIABAD,GHAZIABAD,UTTAR PRADESH,2605484
232,KARNATAKA BANK LIMITED,KARB0000267,GWALIOR,"GROUND FLOOR, BKG HOUSE, OPP. SANJAY COMPLEX, JAYENDRAGANJ, GWALIOR - 474009",GWALIOR,GWALIOR,MADHYA PRADESH,2631860
233,KARNATAKA BANK LIMITED,KARB0000268,MAPUSA,"RIJIM PLAZA, MARKET ROAD, MAPUSA, GOA - 403507",GOA,MAPUSA,GOA,2253601
234,KARNATAKA BANK LIMITED,KARB0000269,GAURIBIDANUR,"RAILWAY STATION ROAD, GAURIBIDANUR - 561208",CHIKABALLAPURA,CHIKKABALLAPURA,KARNATAKA,283124
235,KARNATAKA BANK LIMITED,KARB0000270,GANAUR,"RAILWAY ROAD, GANAUR - 131101",SONIPAT,SONIPAT,HARYANA,2460700
236,KARNATAKA BANK LIMITED,KARB0000271,GURGAON SECTOR 31-32A,"SCO-28, SECTOR 31-32A, GURGAON - 122001",GURGAON,GURGAON,HARYANA,4231315
237,KARNATAKA BANK LIMITED,KARB0000272,GULBARGA NEHRU GUNJ,"NO.7.079 BY A,CTS NO.1380,HUMNABAD ROAD,NEHRU GUNJ,GULBARGA 585 101",GULBARGA,GULBARGA,KARNATAKA,9880961272
238,KARNATAKA BANK LIMITED,KARB0000273,GUNDEWADI GP,ATHANI ANANTHPUR ROAD NEAR KADASIDDESHWARA TEMPLE GUNDEWADI VILLAGE AND GP 591 327 ATHANI TALUK,BELGAUM,ATHANI,KARNATAKA,9448439785
239,KARNATAKA BANK LIMITED,KARB0000274,GOLIANGADI HILIYANA,"ANUGRAHA,HALADI HEBRI ROAD GOLAINGADI HILIYANA BELVE PO,KUNDAPURA TALUK UDUPI 576212",UDUPI,KUNDAPURA,KARNATAKA,8971787261
240,KARNATAKA BANK LIMITED,KARB0000275,GUDISAGARA GP,B T KULKARNI BUILDING GUDISAGARA VILLAGE GUDISAGARA GP 582 208 NAVALGUND TQ,DHARWAD,HUBLI,KARNATAKA,9482142536
241,KARNATAKA BANK LIMITED,KARB0000276,GERUGAMBAKKAM,"D NO 1515, GROUND FLOOR, KUNDRATHUR, MAIN ROAD GERUGAMBAKKAM, CHENNAI 600122",KANCHEEPURAM,GERUGAMBAKKAM,TAMIL NADU,9962297740
242,KARNATAKA BANK LIMITED,KARB0000278,GULGAL JAMBAGI VILLAGE,"GROUND FLOOR, GULGAL JAMBAGI VILLAGE 587313, CHINCHAKHANDI KD GP, MUDHOL TALUK",BAGALKOT,MUDHOL,KARNATAKA,0
243,KARNATAKA BANK LIMITED,KARB0000279,GUNTUR AMARAVATI ROAD,"GROUND FLOOR, D NO 4 14 106, ANANDA NILAYAM, NEAR ANJANEYA SWAMI TEMPLE, AMARAVATI ROAD, GUNTUR 522007",GUNTUR,GUNTUR,ANDHRA PRADESH,0
244,KARNATAKA BANK LIMITED,KARB0000280,GURGAON SECTOR,"DSS NO.25 & 26,HUDA MARKET,OLD RAILWAY ROAD,SECTOR-7,GURGAON",GURGAON,GURGAON,HARYANA,9891363417
245,KARNATAKA BANK LIMITED,KARB0000281,GANDHIDHAM,"D.NO.168,NEAR ZANDA CHOWK,DBZ SOUTH,GANDHIDHAM-370201",KUTCH,GANDHIDHAM,GUJARAT,0
246,KARNATAKA BANK LIMITED,KARB0000282,GANGTOK,"MUNDRA BUILDING,M G MARG,GANGTOK-737101",EAST SIKKIM,GANGTOK,SIKKIM,8001191887
247,KARNATAKA BANK LIMITED,KARB0000283,GOLTHAMAJALU GP,"SRI RAMA COMPLEX, SRI RAMA MANDIR BUILDING, NH 75,GOLTHAMAJALU VILLAGE & GP,KALLADKA POST-574222,BANTWAL TALUK",DAKSHINA KANNADA,GOLTHAMAJALU GP,KARNATAKA,0
248,KARNATAKA BANK LIMITED,KARB0000284,GANWAR GP,"GROUND FLOOR, D.NO.8-15, GANWAR VILLAGE & GP-585310",KALABURGI,JEVARGI TQ,KARNATAKA,0
249,KARNATAKA BANK LIMITED,KARB0000288,HUNGUND,"NW KSRTC BUS STAND, BAGALKOTE ROAD, HUNGUND-587118",BAGALKOTE,HUNGUND,KARNATAKA,0
250,KARNATAKA BANK LIMITED,KARB0000289,NARAYANAGUDA,"GROUND FLOOR, SHOP NO.01,LEGEND VENKATESH, BESIDES TAJMAHAL HOTEL, MAIN ROAD, NARAYANAGUDA, HYDERABAD",HYDERABAD,HYDERABAD,TELANGANA,0
251,KARNATAKA BANK LIMITED,KARB0000290,HASSAN VIJAYANAGAR,"K.H.NO.474,B.M.ROAD,VIJAYANAGAR, HASSAN-573201",HASSAN,HASSAN,KARNATAKA,0
252,KARNATAKA BANK LIMITED,KARB0000291,HONAVAR,"FIRST FLOOR,KAMALASHRI TOWERS,SHARAVATHI CIRCLE BAZAR ROAD, HONAVAR-581334",UTTAR KANNADA,HONAVAR,KARNATAKA,0
253,KARNATAKA BANK LIMITED,KARB0000292,HAROHALLI,"NO.1235/1,BENGALURU-KANAKAPURA ROAD, GUNDURAO LAYOUT,HAROHALLI-562112,KANAKAPURA TALUK",RAMANAGARA,BENGALURU,KARNATAKA,9449524292
254,KARNATAKA BANK LIMITED,KARB0000293,HURULI CHIKKANAHALLI GP,"NO.196, HESARAGHATTA MAIN ROAD, HURALLI CHIKKANAHALLI VILLAGE & GP-560090, BENGALURU URBAN DISTRICT",BENGALURU URBAN,BENGALURU URBAN DISTRICT,KARNATAKA,8867161686
255,KARNATAKA BANK LIMITED,KARB0000294,HOWRAH,"NO.8/1,HARDATRAI CHAMARIA ROAD,NEAR HOWRAH A C MARKET, HOWRAH - 711101",HOWRAH,HOWRAH,WEST BENGAL,26660020
256,KARNATAKA BANK LIMITED,KARB0000295,HALAGUR,"NO.314, M K BASAVEGOWDA COMPLEX, B M ROAD, HALAGUR-571421, MALAVALLI TALUK",MANDYA,HALAGUR,KARNATAKA,0
257,KARNATAKA BANK LIMITED,KARB0000296,HASSAN VIDYANAGAR,"GROUND FLOOR,RING ROAD,BELURU-BENGALURU ROAD,VIDYANAGAR,HASSAN",HASSAN,HASSAN,KARNATAKA,9483412296
258,KARNATAKA BANK LIMITED,KARB0000297,HAGARI BOMMANAHALLI,"D.NO.8/23,HOSPET-HARIHARA ROAD,BASAVESHWAR BAZAR,HAGARI BOMMANAHALLI",BALLARI,BALLARI,KARNATAKA,0
259,KARNATAKA BANK LIMITED,KARB0000298,HATTIANGADI GP,"GROUND FLOOR, NEAR SIDDI VINAYAKA TEMPLE, CAR STREET, HATTIANGADI VILLAGE & GP, 576230, KUNDAPUR TALUK, UDUPI DIST",UDIPI,HATTIANGADI,KARNATAKA,0
260,KARNATAKA BANK LIMITED,KARB0000300,RO SHIMOGA,"IST FLOOR,KARNATAKA BANK BUILDING,SAVALANGA ROAD,SHIMOGA, PIN - 577201.",SHIMOGA,SHIMOGA,KARNATAKA,227002
261,KARNATAKA BANK LIMITED,KARB0000301,HANBAL,"PRAKYATH COMPLEX,MAIN ROAD,HANBAL,SAKLESHPUR TALUK, PIN - 577119",HASSAN,HANBAL,KARNATAKA,240426
262,KARNATAKA BANK LIMITED,KARB0000302,HANGAL,"TMC NO 34/10/16-4 GROUND FLOORKAMAKSHI COMPLEX  MINI VIDHANA SOUDHA ROAD HANGAL, PIN - 581104",HAVERI,HANGAL,KARNATAKA,262272
263,KARNATAKA BANK LIMITED,KARB0000303,HARIHARA,"DR.HEGDE BUILDING,P B ROAD,HARIHARA, PIN - 577601",DAVANGERE,HARIHARA,KARNATAKA,241289
264,KARNATAKA BANK LIMITED,KARB0000304,HASSAN,"IST FLOOR,GANAPATHI SEVA SAMITHI BUILDING,BUS STAND ROAD,HASSAN, PIN - 573201",HASSAN,HASSAN,KARNATAKA,268103
265,KARNATAKA BANK LIMITED,KARB0000305,HAVERI,"LAXMI COMPLEX,POONA-BANGALORE ROAD,HAVERI, PIN - 581110",HAVERI,HAVERI,KARNATAKA,232474
266,KARNATAKA BANK LIMITED,KARB0000306,HEGGODU,"P.O HONNESARA,HEGGODU,SAGAR TALUK, PIN - 577417",SHIMOGA,HEGGODU,KARNATAKA,265625
267,KARNATAKA BANK LIMITED,KARB0000307,HIRIYUR,"106/1633,IST FLOOR,NEAR POST OFFICE,MAIN ROAD,HIRIYUR, PIN - 572143",CHITRADURGA,HIRIYUR,KARNATAKA,228326
268,KARNATAKA BANK LIMITED,KARB0000308,HOLEHONNUR,"IST FLOOR,ANJANEYA BUILDING,CHANNAGIRI ROAD,HOLEHONNUR, PIN - 577227",SHIMOGA,HOLEHONNUR,KARNATAKA,235421
269,KARNATAKA BANK LIMITED,KARB0000309,HOLENARSIPURA,"MUNCIPAL COMPLEX,GANDHI CHOWK,HOLENARASIPUR, PIN - 573211",HASSAN,HOLENARSIPURA,KARNATAKA,273240
270,KARNATAKA BANK LIMITED,KARB0000310,HONNALI,"SITE NO 249,IST FLOOR,NYAMATHI ROAD,HONNALI, PIN - 577217",DAVANGERE,HONNALI,KARNATAKA,251023
271,KARNATAKA BANK LIMITED,KARB0000311,HONNAVALI,"HONNAVALLI,OLD POST OFFICE ROAD,HONNAVALLY, PIN - 572217",TUMKUR,HONNAVALI,KARNATAKA,264706
272,KARNATAKA BANK LIMITED,KARB0000312,HOSADURGA,"IST FLOOR,TAPCMS BUILDING,MAINROAD,HOSADURGA, PIN - 577527",CHITRADURGA,HOSADURGA,KARNATAKA,230234
273,KARNATAKA BANK LIMITED,KARB0000313,HOSANAGAR,"MAIN ROAD,HOSANAGARA, PIN - 577418",SHIMOGA,HOLEHONNUR,KARNATAKA,221228
274,KARNATAKA BANK LIMITED,KARB0000314,HOSPET,"241,BALA COMPLEX,STATION ROAD,HOSPET, PIN - 583201",BELLARY,HOSPET,KARNATAKA,228602
275,KARNATAKA BANK LIMITED,KARB0000315,DURGAD BAIL HUBLI,"FIRST FLOOR,TABIB MANSION,OPP.CBT DURGADBAIL,HUBLI, PIN - 580020",HUBLI,HUBLI,KARNATAKA,2263429
276,KARNATAKA BANK LIMITED,KARB0000316,NEW COTTON MARKET HUBLI,"FIRST FLOOR,NEELIGIN ROAD,NEW COTTON MARKET,HUBLI, PIN - 580029",HUBLI,HUBLI,KARNATAKA,2350117
277,KARNATAKA BANK LIMITED,KARB0000317,OLD HUBLI,"BANASHANKARI DEVASTHAN BUILDING,KASBAPETH POLICE STATION,MAIN ROAD,OLD HUBLI,HUBLI, PIN - 580024",HUBLI,HUBLI,KARNATAKA,2303554
278,KARNATAKA BANK LIMITED,KARB0000318,HUMCHA,"IST FLOOR,DEVENDRAPPA'S BUILDING,MAINROAD,HUMCHA, PIN - 577436",SHIMOGA,HUMCHA,KARNATAKA,262723
279,KARNATAKA BANK LIMITED,KARB0000319,HUNSUR,"ASHIRWAD COMPLEX,M B.M.ROAD,HUNSUR, PIN - 571105",MYSORE,HUNSUR,KARNATAKA,252026
280,KARNATAKA BANK LIMITED,KARB0000320,HYDERABAD MAIN NAMPALLY,"5-4-424,KAMDAR ESTATE,NAMPALLY STATION ROAD,HYDERABAD, PIN - 500001",HYDERABAD,HYDERABAD,ANDHRA PRADESH,23206232
281,KARNATAKA BANK LIMITED,KARB0000321,HANGLUR,"HARIKRIPA BUILDING,NH17,HANGALUR,(KUNDAPUR TALUK), PIN - 576217",UDUPI,HANGLUR,KARNATAKA,230208
282,KARNATAKA BANK LIMITED,KARB0000322,HARIHARAPURA,"S.B.S.COMPLEX,SRINGERI ROAD,HOSAKOPPA, PIN - 577120",CHICKMAGALUR,HARIHARAPURA,KARNATAKA,274175
283,KARNATAKA BANK LIMITED,KARB0000323,HOSAKULI,"GROUND FLOOR, SHREE VINAYAKA,AREANGADI HONNAVAR MAIN ROADHOSAKULI HONNAVAR TALUK, PIN - 581430",UTTAR KANNADA,HOSAKULI,KARNATAKA,262128
284,KARNATAKA BANK LIMITED,KARB0000324,HUNSAGI,"MAIN ROAD,HUNSAGI, PIN - 585215",GULBARGA,HUNSAGI,KARNATAKA,200428
285,KARNATAKA BANK LIMITED,KARB0000325,HUNASEMARANAHALLI BLORE,"PLOT NO.12,PANCHAYAT OFFICE BUILDING,BANGALORE-BELLARY ROAD,HUNSEMARANAHALLI, PIN - 562157",BANGALORE-NORTH,BANGALORE,KARNATAKA,28478767
286,KARNATAKA BANK LIMITED,KARB0000326,ALUR,"OPPOSITE TALUK HOSPITAL,B.M.ROAD,ALUR, PIN - 573218",BANGALORE-NORTH,HUNSEMARANAHALLI,KARNATAKA,70218269
287,KARNATAKA BANK LIMITED,KARB0000327,HINDUPUR A P,"17-3-632/4,IST FLOOR,JEELANI COMPLEX,K L ROAD,HINDUPUR, PIN - 515201",ANANTHAPUR,HINDUPUR,ANDHRA PRADESH,222242
288,KARNATAKA BANK LIMITED,KARB0000328,NAVANAGAR HUBLI,"KARNATAKA CANCER THERAPY&RESEARCH INSTITUTE CAMPUS,(KCT&RI)MAIN ROAD,NAVANAGAR,HUBLI, PIN - 580025",HUBLI,HUBLI,KARNATAKA,2216056
289,KARNATAKA BANK LIMITED,KARB0000329,BANJARA HILLS HYDERABAD,"PLOT NO 50,SRINAGAR COLONY,BANJARA HILLS,HYDERABAD, PIN - 500073",HYDERABAD,HYDERABAD,ANDHRA PRADESH,23741627
290,KARNATAKA BANK LIMITED,KARB0000330,GOKUL ROAD HUBLI,"PLOT NO.37,CTS NO 610/D,IST FLOOR,KAMALANI NEHRUNAGAR,GOKUL ROAD,HUBLI, PIN - 580030",HUBLI,HUBLI,KARNATAKA,2337567
291,KARNATAKA BANK LIMITED,KARB0000331,DILSUKHNAGAR HYDERABAD,"H.NO 3-4/1 A.K.REDDY COMPLEXCHAITANYAPURI, DILSUKNAGARHYDERABADANDHRAPRADESH, PIN - 500060",HYDERABAD,HYDERABAD,ANDHRA PRADESH,24044999
292,KARNATAKA BANK LIMITED,KARB0000332,MADHURA ESTATE HUBLI,"PLOT NO.39,MADHURA ESTATE,KESHWAPUR,HUBLI, PIN - 580023",HUBLI,HUBLI,KARNATAKA,2216059
293,KARNATAKA BANK LIMITED,KARB0000333,UMA NAGAR HYDREBAD,"6-3-1219/24,UJWALBHAWSHYA BUILDING,UMANAGAR,BEGUMPET,HYDERABAD, 500016",HYDERABAD,HYDERABAD,ANDHRA PRADESH,23415933
294,KARNATAKA BANK LIMITED,KARB0000334,RAJBHAVAN ROAD HYDREBAD,"6-3-1090/A,GROUND FLOOR,BHUPAL TOWERS,RAJBHAVAN ROAD,SOMAJIGUDA,HYDERABAD, PIN - 500082",HYDERABAD,HYDERABAD,ANDHRA PRADESH,23320642
295,KARNATAKA BANK LIMITED,KARB0000335,HARIDWAR,"MAHANT STHAL,NEAR VAN PRASTHA ASHRAM,JWALAPUR ROAD,HARIDWAR, PIN - 249407",UTTARAKHAND,HARIDWAR,UTTARAKHAND,251863
296,KARNATAKA BANK LIMITED,KARB0000336,KUKATPALLY,"PRATIMA ARCADE,PLOT NO.42&43,PHASE VI,K.P.H.B.KUKATPALLY, HYDERABAD, PIN - 500072",HYDERABAD,HYDERABAD,ANDHRA PRADESH,20040878
297,KARNATAKA BANK LIMITED,KARB0000337,HOSKOTE,"1273/2540/22NAVEEN BUILDING COLLEGE ROADSRI VISHVESHWARAIAH LAYOUT HOSKOTE, PIN - 562114",BANGALORE-RURAL,BANGALORE,KARNATAKA,27933555
298,KARNATAKA BANK LIMITED,KARB0000338,HORANADU,"MAIN ROAD, BESIDES YAATHRI NIVAS, HARANADU - 577181, MUDIGERE TALUK, CHICKMAGALUR DIST., PIN - 577181",CHICKMAGALUR,HORANADU,KARNATAKA,269500
299,KARNATAKA BANK LIMITED,KARB0000339,VIDYANAGAR,"GROUND FLOOR, CHETTANA COLLEGE ROAD, SHIRUR PARK, VIDYANAGAR, HUBLI - 580021",HUBLI,HUBLI,KARNATAKA,2232386
300,KARNATAKA BANK LIMITED,KARB0000340,HOTHPET,"MAIN ROAD, NEAR BUS STAND, HOTHPET GRAMA PANCHAYAT, VILLAGE HOTHPET - 585287",YADGIR,YADGIR,KARNATAKA,293511
301,KARNATAKA BANK LIMITED,KARB0000341,HARAPANAHALLI,"KHUSMANDINI COMPLEX, HARIHARA - HOSPET ROAD, NEAR KSRTC BUS STAND, HARAPANAHALLI - 583131",DAVANGERE,HARAPANAHALLI,KARNATAKA,280300
302,KARNATAKA BANK LIMITED,KARB0000342,HOOVINA HADAGALLI,"SRI BALAJI COMPLEX, OPP. PWD OFFICE, HARAPANAHALLI ROAD, HOOVINA HADAGALI - 583219",BELLARY,HOOVINA HADAGALLI,KARNATAKA,240129
303,KARNATAKA BANK LIMITED,KARB0000343,HARADANAHALLI GP,"HARADANAHALLI GRAMA PANCHAYAT, SALIGRAMA RAMANATHAPURA ROAD, HARADANAHALLI - 571604",MYSORE,K R NAGAR,KARNATAKA,286444
304,KARNATAKA BANK LIMITED,KARB0000344,HOOTAGALLY,"HUNSUR MYSORE ROAD,HOOTAGALLY 570 018,MYSORE DISTRICT,KARNATAKA",MYSORE,HOOTAGALLY,KARNATAKA,2417544
305,KARNATAKA BANK LIMITED,KARB0000345,HASSAN KUVEMPUNAGAR,"OLD TALUK OFFICE ROAD,HOUSING BOARD EXTENSION,HASSAN KUVEMPUNAGAR,573 201",HASSAN,HASSAN,KARNATAKA,9482131543
306,KARNATAKA BANK LIMITED,KARB0000346,HEGGADADEVANAKOTE,"SITE NO 5184,RANGA IYENGAR LAYOUT,HEGGADADEVANAKOTE 571 114",MYSORE,MYSORE,KARNATAKA,9591765886
307,KARNATAKA BANK LIMITED,KARB0000347,HOLALKERE,"C B ROAD,HOLALKERE 577 526",CHITRADURGA,CHITRADURGA,KARNATAKA,9845145549
308,KARNATAKA BANK LIMITED,KARB0000348,HOSUR,"GROUND FLOOR, D NO 74 3RD CROSS ROAD,KAMARAJ COLONY HOSUR 635109,HOSUR TALUK, KRISHNAGIRI DIST",KRISHNAGIRI,HOSUR,TAMIL NADU,9677888752
309,KARNATAKA BANK LIMITED,KARB0000349,HUBBALLI BHAVANI NAGAR,"GROUND FLOOR, KALBURGI ELITE SAI GARDEN, CHINMAYA SCHOOL ROAD, BHAVANI NAGAR, HUBBALLI 580023",DHARWAD,HUBBALLI,KARNATAKA,0
310,KARNATAKA BANK LIMITED,KARB0000350,RO HYDERABAD,"PLOT NO.50, IST FLOOR. ROAD NO.3, SRINAGAR COLONY, BANJARA HILLS HYDERABAD-500073",HYDERABAD,HYDERABAD,ANDHRA PRADESH,23732076
311,KARNATAKA BANK LIMITED,KARB0000351,SURATKAL IDDYA,"4-77/2,IST FLOOR,SHANKER SADANA,MAIN ROAD,IDDYA SURATHKAL, PIN - 575014",DAKSHINA KANNADA,SURATHKAL,KARNATAKA,2229844
312,KARNATAKA BANK LIMITED,KARB0000352,INDORE MP,"8/2,OLD PALASIA,REFEAL TOWERS,GREATER KAILASH ROAD,OLD PALASIA,INDORE, PIN - 452001",INDORE,INDORE,MADHYA PRADESH,2560325
313,KARNATAKA BANK LIMITED,KARB0000353,INDI,"PLOT NO. 11, SHANTESWARA BUILDING, BEERAPPA NAGAR, BIJAPUR ROAD, INDI-586209, BIJAPUR DIST.",BIJAPUR,INDI,KARNATAKA,222080
314,KARNATAKA BANK LIMITED,KARB0000354,ILKAL,"KANTHI CIRCLE, MAIN ROAD, ILKAL 587125 HUNGUND TALUK, BAGALKOT DIST",BAGALKOTE,ILKAL,KARNATAKA,9035524075
315,KARNATAKA BANK LIMITED,KARB0000355,INDORE VIJAYANAGAR,"GROUND FLOOR, NO DF-23, SCHEME NO. 74-C, NEAR BRILLIANT CONVENTION CENTER, VIJAYANAGAR, INDORE -452010",INDORE,INDORE,MADHYA PRADESH,0
316,KARNATAKA BANK LIMITED,KARB0000356,IRA G.P.,"D.NO.3/186,GROUND FLOOR,NEAR BUS STOP,IRA VILLAGE & GP-574323, BANTWAL TALUK",DAKSHINA KANNADA,BANTWAL TALUK,KARNATAKA,273022
317,KARNATAKA BANK LIMITED,KARB0000357,KEYYUR,"KUMBRA-BELLARE ROAD, KEYYUR GRAMA PANCHAYATH-574210, PUTTUR TALUK",DAKSHIN KANNAD,KEYYUR,KARNATAKA,0
318,KARNATAKA BANK LIMITED,KARB0000358,KUDLIGI,"ASHWAMEDHA RESIDENCY, WARD NO.6, SANDUR ROAD, KUDLIGI-583134",BALLARI,BALLARI,KARNATAKA,0
319,KARNATAKA BANK LIMITED,KARB0000359,KUDTHAMOGERU,"NO.739/1 B2,VIA MANCHI,KUDTHAMOGERU-574323, VITTALAPADANUR VILLAGE AND GP, BANTWAL TALUK",DAKSHINA KANNADA,MANGALURU,KARNATAKA,0
320,KARNATAKA BANK LIMITED,KARB0000360,KADIRI,"D.NO.1/1175-1,GROUND FLOOR, NEAR COLLEGE CIRCLE, BYE-PASS ROAD, KADIRI-515591",ANANTHAPUR,ANANTHAPUR,ANDHRA PRADESH,0
321,KARNATAKA BANK LIMITED,KARB0000361,JAMKHANDI,"GOWDANAVAR BUILDING,BASAVESHWAR ROAD,JAMKHANDI, PIN - 587301",BAGALKOT,JAMKHANDI,KARNATAKA,220022
322,KARNATAKA BANK LIMITED,KARB0000362,JAYAPURA,"GROUND FLOOR,  SRI RAM COMPLEX OPP.BUS STANDJAYAPURA, PIN - 577123",CHICKMAGALUR,KOPPA,KARNATAKA,245127
323,KARNATAKA BANK LIMITED,KARB0000363,MUDIGERE,"IST FLOOR,SINDHU TOWERS K.M.ROAD  MUDIGERE, PIN - 577132",CHICKMAGALUR,MUDIGERE,KARNATAKA,221425
324,KARNATAKA BANK LIMITED,KARB0000364,JAIPUR RAJASTHAN,"GROUND FLOOR,UMAID NAGAR HOUSE,PLOT NO.4,OPP.GANAPATI PLAZA,M.I.ROAD,JAIPUR, PIN - 302001",JAIPUR,JAIPUR,RAJASTHAN,2378642
325,KARNATAKA BANK LIMITED,KARB0000365,JALANDHAR PUNJAB,"GROUND FLOOR,GOBIND MALL,NO.25,G.T.ROAD,JALANDHAR - PIN - 144001",JALANDHAR,JALANDHAR,PUNJAB,2220872
326,KARNATAKA BANK LIMITED,KARB0000366,JODHPUR,"GROUND FLOOR,ANAND BHAVAN,MAIN CHOPASNI ROAD,SHANICHARGI KATHAN,JODHPUR, PIN - 342001",JODHPUR,JODHPUR,RAJASTHAN,2628908
327,KARNATAKA BANK LIMITED,KARB0000367,JAJPUR ROAD,"FIRST FLOOR, GATE NO. 1, MUKTA MARKET COMPLEX, GOPABANDHU CHHAK, JAJPUR ROAD, JAJPUR DIST. ORISSA, PIN - 755019",JAJPUR,JAJPUR,ODISHA,224221
328,KARNATAKA BANK LIMITED,KARB0000368,JAMSHEDPUR,"DHIREN TOWERS, Q ROAD, BISTUPUR, JAMSHEDPUR - 831001",PURBI SINGHBHUM,JAMSHEDPUR,JHARKHAND,2320496
329,KARNATAKA BANK LIMITED,KARB0000369,JABALPUR,"SHIV MULA TOWER, NO.1553, MAIN ROAD, WRIGHT TOWN, JABALPUR - 482002",JABALPUR,JABALPUR,MADHYA PRADESH,2411444
330,KARNATAKA BANK LIMITED,KARB0000370,JAJUR GP,"SHIRDI SAI NIVAS, JAJUR VILLAGE AND POST, JAJUR - 573103",HASSAN,HASSAN,KARNATAKA,230056
331,KARNATAKA BANK LIMITED,KARB0000371,JAIPUR VAISHALINAGAR,"C 13, G F, VAISHALI MARG, VAISHALI NAGAR, JAIPUR 303021",JAIPUR,JAIPUR,RAJASTHAN,9982055226
332,KARNATAKA BANK LIMITED,KARB0000372,JAMNAGAR,SHOP NO.5 AND 6 KUBER AVENUE GURU NANAK ROAD NEAR GURUDWARA CHOWK JAMNAGAR 361 008,JAMNAGAR,JAMNAGAR,GUJARAT,9900649355
333,KARNATAKA BANK LIMITED,KARB0000373,JEVARGI,"GROUND FLOOR, PLOT NO 4 & 5, AKHANDESHWAR CHOWK, VIDYANAGAR ROAD, JEVARGI 585310",KALABURAGI,JEVARGI,KARNATAKA,0
334,KARNATAKA BANK LIMITED,KARB0000374,JIGALI G P,"KH NO 43 1,44 1 & 2, GROUND FLOOR, JIGALI VILLAGE & GP 577530, HARIHARA TALUK, DAVANGERE",DAVANGERE,JIGALI,KARNATAKA,0
335,KARNATAKA BANK LIMITED,KARB0000375,JIGANI,"GROUND FLOOR, SRI LAXMINARAYANA COMPLEX, APC CIRCLE, JIGANI 560105, ANEKAL TALUK",BENGALURU URBAN,JIGANI,KARNATAKA,9535379753
336,KARNATAKA BANK LIMITED,KARB0000376,JARIKATTE,"S SHIVAJIRAO PLAZA, DAVANGERE-MALEBENNUR ROAD, JARIKATTE VILLAGE - 577002, MUDAHADADI GP, DAVANGERE TALUK",DAVANGERE,JARIKATTE,KARNATAKA,9036033480
337,KARNATAKA BANK LIMITED,KARB0000377,KARAYA-THANNIRUPANTHA GP,"UPPINANGADY-DHARMASTHALA ROAD, KALLERI, THANNIRUPANTHA GP 574326. BELTHANGADY TALUK",DAKSHIN KANNAD,MANGALURU,KARNATAKA,0
338,KARNATAKA BANK LIMITED,KARB0000378,KAYARTHADAKA,"TRINITY COMPLEX, MAIN ROAD, KAYARTHADKA-574216,KALANJA GP, BELTHANGADY TALUK.",DAKSHINA KANNADA,KAYARTHADAKA,KARNATAKA,0
339,KARNATAKA BANK LIMITED,KARB0000379,KOTTAYAM,"BUILDING NO.V111,DNO.584 & 584 A1, KARIMATTOM PLAZA,NAGAMPADAM, KOTTAYAM - 686001",KOTTAYAM,KOTTAYAM,KERALA,2564567
340,KARNATAKA BANK LIMITED,KARB0000380,KOLKATA-A.J.C BOSE ROAD,"D NO 41 A , GROUND FLOOR ,DIAMOND PRESTIGE,A.J.C BOSE ROAD-700017",KOLKATA,KOLKATA,WEST BENGAL,7603093889
341,KARNATAKA BANK LIMITED,KARB0000381,KEPU G.P,"D.NO.2/113,NEERKAJE POST,BANTWAL TALUK,KEPU VILLAGE & GP -574243",DAKSHINA KANNADA,BANTWAL TALUK,KARNATAKA,9880121322
342,KARNATAKA BANK LIMITED,KARB0000382,KOILA,"UPPINANGADY-SUBRAMANYA ROAD, ATHOOR, KOILA VILLAGE & GP-574241, PUTTUR TALUK",DAKSHINA KANNADA,PUTTUR,KARNATAKA,0
343,KARNATAKA BANK LIMITED,KARB0000383,KOLKATA GIRISH PARK,"D.NO.60,GROUND FLOOR,VIVEKANANDA ROAD,JORASANKO, GIRISH PARK,KOLKATA-700006",KOLKATA,KOLKATA,WEST BENGAL,23632399
344,KARNATAKA BANK LIMITED,KARB0000384,KONI GP,"GROUND FLOOR,NEAR KONI GRAMA PANCHAYATH OFFICE,KUNDAPURA-SHIVAMOGGA ROAD,KONI VILLAGE&GP,KUNDAPURA TALUK-576217",UDUPI,KONI,KARNATAKA,232235
345,KARNATAKA BANK LIMITED,KARB0000385,"KALABURAGI, RAM MANDIR","NO.1-891/77/4, SAI NAGAR RING ROAD, RAM MANDIR CIRCLE,KALABURAGI",KALABURAGI,KALABURAGI,KARNATAKA,9916532222
346,KARNATAKA BANK LIMITED,KARB0000386,KUSHALNAGAR,"SY.NO.1/4,2/1,2/2. FIELD MARSHAL CARIAPPA ROAD, BLOCK NO.4, KUSHALNAGAR-571234",KODAGU,KUSHALNAGAR,KARNATAKA,9902861492
347,KARNATAKA BANK LIMITED,KARB0000387,KARATAGI,"NO.8-6-98/75-77, RAICHUR-GANGAVATHI ROAD,KARATAGI - 583229",KOPPAL,KARATAGI,KARNATAKA,274387
348,KARNATAKA BANK LIMITED,KARB0000388,KALENAHALLI GP,"RAMANATHAPURA - MYSURU MAIN ROAD, KALENAHALLI VILLAGE & GP - 573113, ARKALGUD TALUK",HASSAN,KALENAHALLI GP,KARNATAKA,9449968778
349,KARNATAKA BANK LIMITED,KARB0000389,KULANJE SHANKARANARAYANA GP,"HALADY-SHANKARANARAYANA ROAD, KULANJE, SHANKARANARAYANA GP-576227, KUNDAPURA TALUK",UDUPI,SHANKARANARAYANA GP,KARNATAKA,0
350,KARNATAKA BANK LIMITED,KARB0000390,KUNDLI,"PLOT NO 32, COMMERCIAL COMPLEX, KUNDLI INDUSTRIAL AREA, KUNDLI 131028, KUNDLI TALUK",SONEPAT,KUNDLI,HARYANA,9529332624
351,KARNATAKA BANK LIMITED,KARB0000391,KUMBAKONAM,"D.NO.16,RAILWAY STATION ROAD,KUMBAKONAM",THANJAVUR,KUMBAKONAM,TAMIL NADU,2400391
352,KARNATAKA BANK LIMITED,KARB0000392,KUDLI G P,"D NO 68 35, FIRST FLOOR, MAIN ROAD, KUDLI VILLAGE & GRAMA PANCHAYAT 577227, SHIVAMOGAA TALUK",SHIVAMOGGA,KUDLI,KARNATAKA,0
353,KARNATAKA BANK LIMITED,KARB0000393,KEMBHAVI,"GROUND FLOOR, HEMARADDI MALLAMMA COMPLEX, HUNSAGI KEMBHAVI ROAD, KEMBHAVI 585216, SHORAPUR TALUK",YADGIR,KEMBHAVI,KARNATAKA,9900083816
354,KARNATAKA BANK LIMITED,KARB0000394,KAKKUNJE,"ADIGAS HOUSE, GAVALI SHIROOR JUNCTION KAKKUNJE VILLAGE 576222 UDUPI TALUK",UDIPI,KAKKUNJE,KARNATAKA,0
355,KARNATAKA BANK LIMITED,KARB0000395,KOLLEGALA,"D.NO.7-454, DR.RAJKUMAR ROAD,SOUTHERN EXTENSION, KOLLEGALA - 571440, KOLLEGALA TALUK",CHAMARAJANAGAR,KOLLEGALA,KARNATAKA,9480895380
356,KARNATAKA BANK LIMITED,KARB0000396,KOTTUR,GROUND FLOOR D NO 1714 1715 HARAPANAHALLI KUDLIGI ROAD KOTTUR 583134 KUDLIGI TALUK,BELLARY,KOTTURU,KARNATAKA,9448954592
357,KARNATAKA BANK LIMITED,KARB0000397,KADANUR GP,"KADANUR VILLAGE,KADANUR GP 561 204,DODDABALLAPURA TALUK",BANGALORE RURAL,BANGALORE,KARNATAKA,9845455198
358,KARNATAKA BANK LIMITED,KARB0000398,KOTHEGALA GP,"MAIN ROAD,KOTHEGALA VILLAGE AND GP,HUNSUR TALUK,571 105",MYSORE,HUNSUR,KARNATAKA,9449016026
359,KARNATAKA BANK LIMITED,KARB0000399,KARJE GP,"ABBAKKA DHARAKKA COMPLEX,KARJE PO 576 215",UDUPI,UDUPI,KARNATAKA,2566006
360,KARNATAKA BANK LIMITED,KARB0000400,RO HUBLI,"CTS,122/108,2ND FLOOR,NEELIGIN ROAD,NEW COTTON ROAD,HUBLI, PIN - 580029",HUBLI,HUBLI,KARNATAKA,2354946
361,KARNATAKA BANK LIMITED,KARB0000401,KABAKA,"RASHID MANZIL BUILDING,MAIN ROAD,KABAKA,PUTTUR TALUK, PIN - 574220",DAKSHINA KANNADA,KABAKA,KARNATAKA,281201
362,KARNATAKA BANK LIMITED,KARB0000402,KALASA,"IST FLOOR,SRI ANNAPOORNA COMPLEX,MAIN ROAD,KALASA, PIN - 577124",CHICKMAGALUR,KALASA,KARNATAKA,274623
363,KARNATAKA BANK LIMITED,KARB0000403,KAMMARDI,"IST FLOOR,GANESH BHAT COMPLEX,BEGAR-KALMANE ROAD,KAMMARDI(KOPPA TALUK), PIN - 577125",CHICKMAGALUR,KAMMARDI,KARNATAKA,232024
364,KARNATAKA BANK LIMITED,KARB0000404,KARKALA,"IST FLOOR,NEAR UDUPI BUS STAND,KARLA COMPLEX,KARKALA, PIN - 574104",UDUPI,KARKALA,KARNATAKA,230224
365,KARNATAKA BANK LIMITED,KARB0000405,KARKI,"D.NO.1228A,IST FLOOR DEVARA AATA COMPLEX,NH17,MAIN ROAD,KARKI, PIN - 581341",UTTAR KANNADA,KARKI,KARNATAKA,236354
366,KARNATAKA BANK LIMITED,KARB0000406,KASARGOD KERALA,"KMC/III,462A12,GROUND FLOOR,CITY CENTRE,BANK ROAD,KASARGOD, PIN - 671121",KASARGOD,KASARGOD,KERALA,231409
367,KARNATAKA BANK LIMITED,KARB0000407,KATTEHAKLU,"H.NO.37/1,GROUND FLOORHEDDUR DEVANGI ROAD  KATTEHAKLU,THIRTHAHALLI TALUK, PIN - 577415",SHIMOGA,KATTEHAKLU,KARNATAKA,234533
368,KARNATAKA BANK LIMITED,KARB0000408,KODIBAG KARWAR,"SHRI DATTA PRASAD BUILDING,MAIN ROAD,KARWAR-KODIBAG, PIN - 581303",UTTAR KANNADA,KODIBAG KARWAR,KARNATAKA,225232
369,KARNATAKA BANK LIMITED,KARB0000409,KODLIPET,"THRIBHUVAN,GANDHI CHOWK,KODLIPET, PIN - 571231",KODAGU,KODLIPET,KARNATAKA,280022
370,KARNATAKA BANK LIMITED,KARB0000410,KOPPA,"GANESH COMPLEX,T M ROAD,KOPPA, PIN - 577126",CHICKMAGALUR,KOPPA,KARNATAKA,221263
371,KARNATAKA BANK LIMITED,KARB0000411,KORATAGERE,"119,MAIN ROAD,KORATAGERE, PIN - 572129",TUMKUR,KORATAGERE,KARNATAKA,232595
372,KARNATAKA BANK LIMITED,KARB0000412,KOTA,"FIRST FLOOR,AITHAL COMPLEX,NH 17,KOTA, PIN - 576221",UDUPI,KOTA,KARNATAKA,2564131
373,KARNATAKA BANK LIMITED,KARB0000413,K R NAGAR MYSORE,"2579/1483,7TH ROAD,KRISHNARAJANAGAR, PIN - 571602",MYSORE,MYSORE,KARNATAKA,262463
374,KARNATAKA BANK LIMITED,KARB0000414,KUDIGE,"FIRST FLOOR,NEAR FARM GATE,MAIN ROAD,KUDIGE, PIN - 571232",KODAGU,KUDIGE,KARNATAKA,278252
375,KARNATAKA BANK LIMITED,KARB0000415,KUMBHASHI,"IST FLOOR,PRABHU BUILDING,N.H 17,KUMBHASHI, PIN - 576257",UDUPI,KUMBHASHI,KARNATAKA,261226
376,KARNATAKA BANK LIMITED,KARB0000416,KUMTA,"D/363,IST FLOOR,SHILPA BUILDING,KUMBHESHWAR ROAD,BASTIPET,KUMTA, PIN - 581343",UTTAR KANNADA,KUMTA,KARNATAKA,222113
377,KARNATAKA BANK LIMITED,KARB0000417,KUNDGOL,"NADGIRWADA,MAIN ROAD,KUNDGOL, PIN - 581113",DHARWAD,KUNDGOL,KARNATAKA,290226
378,KARNATAKA BANK LIMITED,KARB0000418,KURNAD MUDIPU,"PADMASHREE COMPLEX,MUDIPU,POST KURNAD,KURNAD-MUDIPU,BANTWAL TALUK, PIN - 574153",DAKSHINA KANNADA,KURNAD MUDIPU,KARNATAKA,260022
379,KARNATAKA BANK LIMITED,KARB0000419,KARWAR MAIN,"IST FLOOR,  SHREE DATTAPRASAD COMPLEX GREEN STREETKARWAR, PIN - 581301",UTTAR KANNADA,KARWAR,KARNATAKA,226287
380,KARNATAKA BANK LIMITED,KARB0000420,KUDREGUNDI,"IST FLOOR,ABHILASH COMPLEX KUDREGUNDI,KOPPA TALUK, PIN - 577127",CHICKMAGALUR,KUDREGUNDI,KARNATAKA,231044
381,KARNATAKA BANK LIMITED,KARB0000421,KATTINGERI,"D NO 1-9,FIRST FLOOR,GOKULDAM COMPLEX,MAIN ROAD,KATTINGERI,P.O MOODUBELLE, PIN - 576120",UDUPI,KATTINGERI,KARNATAKA,2541227
382,KARNATAKA BANK LIMITED,KARB0000422,KIRIMANJESHWARA,"SHREE GANAPATHI KRIPA,NAGOOR,KIRIMANJESHWARA, PIN - 576219",UDUPI,KIRIMANJESHWARA,KARNATAKA,254362
383,KARNATAKA BANK LIMITED,KARB0000423,KOLHAPUR MAHARASTRA,"CSNO.1082/1,OMKAR PLAZA,'E'WARD,BAGAL CHOWK RAJARAM ROAD,KOLHAPUR, PIN - 416008",KOLHAPUR,KOLHAPUR,MAHARASHTRA,2522017
384,KARNATAKA BANK LIMITED,KARB0000424,KOLAR,"2ND CROSS,M.G.ROAD,KOLAR, PIN - 563101",KOLAR,KOLAR,KARNATAKA,224634
385,KARNATAKA BANK LIMITED,KARB0000425,KOWSHIKA,"MAIN ROAD,KOWSHIKA, PIN - 573212",HASSAN,KOWSHIKA,KARNATAKA,227322
386,KARNATAKA BANK LIMITED,KARB0000426,KUNDUR,"IST FLOOR,VEENA NILAYA,8/8,MAIN ROAD,KUNDUR, PIN - 577219",DAVANGERE,KUNDUR,KARNATAKA,262750
387,KARNATAKA BANK LIMITED,KARB0000427,KALYAN MUMBAI,"N H 83,SUCHAK CHAMBERS,NEAR MAHAVEER COMPLEX,KALYAN(WEST),MUMBAI, PIN - 421301",MUMBAI,MUMBAI,MAHARASHTRA,2207664
388,KARNATAKA BANK LIMITED,KARB0000428,KURNOOL AP,"D NO 4/29-F,M M M COMPLEX,IST FLOOR,PARK ROAD,KURNOOL, PIN - 518001",KURNOOL,KURNOOL,ANDHRA PRADESH,224775
389,KARNATAKA BANK LIMITED,KARB0000429,KAKINADA AP,"D NO 34-1-13,IST FLOOR,SRI KRISHNA KIRTHI COMPLEX,TEMPLE STREET,KAKINADA, PIN - 533009",EAST GODAVARI,KAKINADA,ANDHRA PRADESH,2340257
390,KARNATAKA BANK LIMITED,KARB0000430,KARUR TN,"V.V.TOWERS,207/5 KOVAI ROAD,OPP.LGB PETROL BUNK,KARUR, PIN - 639001",KARUR,KARUR,TAMIL NADU,234766
391,KARNATAKA BANK LIMITED,KARB0000431,KHAMMAM AP,"11-1-22/A,IST FLOOR,DR.R JAYACHANDRA REDDY COMPLEX,WYRA ROAD,MAYURI CENTRE,KHAMMAM, PIN - 507001",KHAMMAM,KHAMMAM,ANDHRA PRADESH,242544
392,KARNATAKA BANK LIMITED,KARB0000432,KANHANGAD,"III/797N,IST FLOOR MADAN'S ARCADE,MAIN ROAD,HOSDURG,KANHANGAD, PIN - 671315",KASARGOD,KANHANGAD,KERALA,2202750
393,KARNATAKA BANK LIMITED,KARB0000433,KOLHAPUR SIBER CAMPUS,"SIBER CAMPUS,UNIVERSITY ROAD,KOLHAPUR, PIN - 416004",KOLHAPUR,KOLHAPUR,MAHARASHTRA,2522887
394,KARNATAKA BANK LIMITED,KARB0000434,CENTRAL AVENUE KOLKATA,"GROUND FLOOR,NO.29,GANESH CHANDRA AVENUE,CENTRAL AVENUEKOLKATA-CENTRAL AVENUE KOLKATA, PIN - 700012",KOLKOTA,KOLKOTA,WEST BENGAL,22117215
395,KARNATAKA BANK LIMITED,KARB0000435,SALT LAKE KOLKATTA,"CJ-161,SECTOR II,JANKI KUNG,SECTOR-2,SALT LAKE CITY,KOLKATA, PIN - 700091",KOLKOTA,KOLKOTA,WEST BENGAL,23376956
396,KARNATAKA BANK LIMITED,KARB0000436,RASH BEHARI AVENUE,"112A,NEAR LAKE MARKET,RASH BEHARI AVENUE,KOLKATA, PIN - 700029",KOLKOTA,KOLKOTA,WEST BENGAL,24657842
397,KARNATAKA BANK LIMITED,KARB0000437,KANPUR,"24/13,FROUND FLOOR,MALL PLAZA,MALL ROAD,KANPUR, PIN - 208001",KANPUR,KANPUR,UTTAR PRADESH,2365216
398,KARNATAKA BANK LIMITED,KARB0000438,BELIAGHATTA,"32,GROUND FLOOR,HEMCHANDRA NASKAR ROAD,BELIAGHATA,KOLKATA, PIN - 700010",KOLKATA,KOLKATA,WEST BENGAL,23632399
399,KARNATAKA BANK LIMITED,KARB0000439,BHOWANIPORE,"40,GROUND FLOOR  ASHUTOSH MUKERJEE ROADBHOWANIPORE KOLKATA, PIN -700020",KOLKATA,KOLKATA,WEST BENGAL,24191739
400,KARNATAKA BANK LIMITED,KARB0000440,KANAKAPURA,"619A/597-581 KODIHALLY ROAD KANAKAPURA, PIN - 562117",RAMANAGARAM,KANAKAPURA,KARNATAKA,27526048
401,KARNATAKA BANK LIMITED,KARB0000441,KANCHEEPURAM,"GROUND FLOOR 28A,VALLAL PACHAYAPPANSTREET KANCHEEPURAM, PIN - 631501",KANCHEEPURAM,KANCHEEPURAM,TAMIL NADU,23453265
402,KARNATAKA BANK LIMITED,KARB0000442,KADUR,"GROUND FLOOR, SRI KALI COMPLEX, N.H.206, KADUR  577548 (CHICKMAGALUR DIST.)",CHICKMAGALUR,KADUR,KARNATAKA,221666
403,KARNATAKA BANK LIMITED,KARB0000443,KARIMNAGAR,"FIRST FLOOR,7-2-1125,VEMULAVADA ROAD,MANKAMMA THOTA, KARIMNAGAR - 505001",KARIMNAGAR,KARIMNAGAR,ANDHRA PRADESH,2242077
404,KARNATAKA BANK LIMITED,KARB0000444,KUNIGAL,"OPP: POST OFFICE, KRS AGRAHARA, KUVEMPUNAGARA, B M ROAD, KUNIGAL - 572130",TUMKUR,KUNIGAL,KARNATAKA,220193
405,KARNATAKA BANK LIMITED,KARB0000445,KAMPLI,"D/NO 249 & 248, M.R.PLAZA, MAIN ROAD, KAMPLI - 583132, HOSPET TALUK, BELLARY DIST.",BELLARY,KAMPLI,KARNATAKA,251066
406,KARNATAKA BANK LIMITED,KARB0000446,KAIRANGALA,"GROUND FLOOR, PANDIT COMPLEX, DUGGAJJARA KATTE, VIA., KURNAD, KAIRANGALA - 574153",SOUTH KANARA,MANGALORE,KARNATAKA,260006
407,KARNATAKA BANK LIMITED,KARB0000447,KRISHNARAJAPET,"K R PET - KIKKERI ROAD, 3RD CROSS, BASAVESHWARA NAGAR, KRISHNARAJAPET - 571426",MANDYA,KRISHNARAJAPET,KARNATAKA,261444
408,KARNATAKA BANK LIMITED,KARB0000448,KOPPAL,"NEAR PRAMOD MANDIR KALYAN MANTAP, KINNAI ROAD, KOPPAL - 583231",KOPPAL,KOPPAL,KARNATAKA,230448
409,KARNATAKA BANK LIMITED,KARB0000449,KADAPATTI GP,"CTS NO.5138 BY B BY 27 36,TUNGAL COMPLEX,KUDACHI ROAD,KADAPATTI VILLAGE AND GP 587 119,JAMKHANDI TQ",BAGALKOT,KADAPATTI,KARNATAKA,9900421823
410,KARNATAKA BANK LIMITED,KARB0000450,RO KOLKATA,"FIRST FLOOR, OFFICE NO.111, DIAMOND PRESTIGE, 41 A AJC ROAD, KOLKATA - 700017",KOLKATA,KOLKATA,WEST BENGAL,22268583
411,KARNATAKA BANK LIMITED,KARB0000451,UJIRE,"3-6/1/32,IST FLOOR,SUDHARSHAN COMMERCIAL COMPLEX,NEAR BUS STAND UJIRE, PIN - 574240",DAKSHINA KANNADA,BELTHANGADY,KARNATAKA,236167
412,KARNATAKA BANK LIMITED,KARB0000452,LUDHIANA PUNJAB,"B-15/179,IST FLOOR S0NA COMPLEX, NIRANKARI KUCHA,  NO.4,G.T.ROAD,MILLERGANJ LUDHIANA, PIN - 141003",LUDHIANA,LUDHIANA,PUNJAB,2539943
413,KARNATAKA BANK LIMITED,KARB0000453,LUCKNOW UP,"G-3/5,SHALIMAR SQUARE,126/31,B.N.ROAD,LALBAGH,LUCKNOW, PIN - 226001",LUCKNOW,LUCKNOW,UTTAR PRADESH,2201938
414,KARNATAKA BANK LIMITED,KARB0000454,L B NAGAR,"PLOT NO.70,SHIVA GANGA COLONY,L B NAGAR - 500074,",RANGA REDDY,L B NAGAR,ANDHRA PRADESH,24039799
415,KARNATAKA BANK LIMITED,KARB0000455,LINGSUGUR,"AMARESHWAR COLONY, BANGALORE ROAD, LINGSUGUR - 584122",RAICHUR,LINGSUGUR,KARNATAKA,9844385641
416,KARNATAKA BANK LIMITED,KARB0000456,KODIGEHALLI GP,"OBALAPURA VILLAGE AND POST, KODIGEHALLI GP - 562132",BANGALORE RURAL,BANGALORE,KARNATAKA,27732323
417,KARNATAKA BANK LIMITED,KARB0000457,KANNARPADY KADEKAR,"OPP JAYADURGA TEMPLE,KANNARPADY KADEKAR,576 103",UDUPI,UDUPI,KARNATAKA,9480842343
418,KARNATAKA BANK LIMITED,KARB0000458,KYASINAKERE GP,"KYASINAKERE VILLAGE AND GRAMA PANCHAYATH,KYASINAKERE,HONNALI TALUK 577 224",DAVANGERE,HONNALI,KARNATAKA,9449068731
419,KARNATAKA BANK LIMITED,KARB0000459,KOTA,"GROUND FLOOR,NO 341,SHOPPING CENTRE,GUMANPURA ROAD,KOTA 324 005",KOTA,KOTA,RAJASTHAN,9454749821
420,KARNATAKA BANK LIMITED,KARB0000460,KHARAGPUR,GROUND FLOOR NO.127 BY 114 PATWARI BUILDING MALANCHA ROAD KHARAGPUR 721 301,WEST MIDNAPUR,KHARAGPUR,WEST BENGAL,242261
421,KARNATAKA BANK LIMITED,KARB0000461,MADHUGIRI,"IST FLOOR,G H S BUILDING,GOVT.HIGH SCHOOL CIRCLE,MADHUGIRI, 572132",TUMKUR,MADHUGIRI,KARNATAKA,282383
422,KARNATAKA BANK LIMITED,KARB0000462,GT CHENNAI TC STREET,"NO 324,GROUND FLOOR,T C STREET,CHENNAI, PIN - 600001",CHENNAI,CHENNAI,TAMIL NADU,23453236
423,KARNATAKA BANK LIMITED,KARB0000463,MOUNT ROAD CHENNAI,"839,FIRST FLOOR,HEERAL MARKET,NEAR ANNA STATUE,MOUNT ROAD,CHENNAI, PIN - 600002",CHENNAI,CHENNAI,TAMIL NADU,23453244
424,KARNATAKA BANK LIMITED,KARB0000464,CATHEDRAL CHENNAI,"NO351,AVVAI SHANMUGAM(LOYDS) ROAD,GOPALAPURAM,CHENNAI, PIN - 600086",CHENNAI,CHENNAI,TAMIL NADU,23453231
425,KARNATAKA BANK LIMITED,KARB0000465,MANCHI,"2-50,MAIN,NARAYANA SOUDA,MAIN ROAD,MANCHI,BANTWAL TALUK, PIN - 574323",DAKSHINA KANNADA,BANTWAL,KARNATAKA,276224
426,KARNATAKA BANK LIMITED,KARB0000466,MANDYA,"1121,MADHAVACHAR BUILDING,FIRST FLOOR,M.C.ROAD,MANDYA, PIN - 571401",MANDYA,MANDYA,KARNATAKA,227250
427,KARNATAKA BANK LIMITED,KARB0000467,MANGALPADY,"VAIDYAR COMPLEX,KAIKAMBA JUNCTION,UPPALA POST(MANGALPADY), PIN - 671322",KASARGOD,MANGALAPADY,KERALA,240256
428,KARNATAKA BANK LIMITED,KARB0000468,MAGGE,"SRI KENCHAMBA NILAYA,MAIN ROAD,MAGGE,ALUR TALUK, PIN - 573146",HASSAN,MAGGE,KARNATAKA,219244
429,KARNATAKA BANK LIMITED,KARB0000469,MAHALINGPUR,"GUNDA BUILDING,BASAWESHWAR CIRCLE,MAHALINGAPUR, PIN - 587312",BAGALKOT,MAHALINGPUR,KARNATAKA,270114
430,KARNATAKA BANK LIMITED,KARB0000470,MALEBENNUR,"IST FLOOR,IRANI COMPLEX,S H ROAD,MALEBENNUR,HARIHARA TALUK, PIN - 577530",DAVANGERE,MALEBENNUR,KARNATAKA,268740
431,KARNATAKA BANK LIMITED,KARB0000471,HAMPANKATTA MANGALORE,"11-6-532/15,IST FLOOR STONE LAND TOWERS,MAIDAN NORTH ROAD,HAMPANKATTA,MANGALORE, PIN - 575001",DAKSHINA KANNADA,MANGALORE,KARNATAKA,2229842
432,KARNATAKA BANK LIMITED,KARB0000472,BUNDER MANGALORE,"IST FLOOR,HIBA TOWERS,AZIZUDDINROAD,BUNDER,MANGALORE, PIN - 575001",DAKSHINA KANNADA,MANGALORE,KARNATAKA,2229837
433,KARNATAKA BANK LIMITED,KARB0000473,BOLAR MANGALORE,"22-2-153/5,FIRST FLOOR,SRI KRISHNA BUILDING,JEPPU MARKET JUNCTION,MANGALORE, PIN - 575001",DAKSHINA KANNADA,MANGALORE,KARNATAKA,2229835
434,KARNATAKA BANK LIMITED,KARB0000474,KANKANADY MANGALORE,"NEAR RED BUILDING,KANKANADY NAGORI,MANGALORE, PIN - 575002",DAKSHINA KANNADA,MANGALORE,KARNATAKA,2229848
435,KARNATAKA BANK LIMITED,KARB0000475,DONGERKERY MANGALORE,"DONGERKERY,MANGALORE, PIN - 575003",DAKSHINA KANNADA,MANGALORE,KARNATAKA,2229840
436,KARNATAKA BANK LIMITED,KARB0000476,KODIALBAIL MANGALORE,"P V S ROAD,KODIALBAIL,MANGALORE, PIN - 575003",DAKSHINA KANNADA,MANGALORE,KARNATAKA,2229850
437,KARNATAKA BANK LIMITED,KARB0000477,KUDROLI MANGALROE,"8-2-147/4,SALSTEL BUILDING,IST FLOOR,G.T.ROAD,ALAKE,MANGALORE, PIN - 575003",DAKSHINA KANNADA,MANGALORE,KARNATAKA,2497476
438,KARNATAKA BANK LIMITED,KARB0000478,BEJAI MANGALORE,"OPAL COMPLEX  CHURCHROAD BEJAI,MANGALORE, PIN - 575004",DAKSHINA KANNADA,MANGALORE,KARNATAKA,2229833
439,KARNATAKA BANK LIMITED,KARB0000479,MANNAGUDDA MANGALORE,"6-19-219/18,IST FLOORFLOOR,""ANUGRAHA"",NEAR MANNAGUDDA BUS STOP,MANNAGUDDA,MANGALORE, PIN - 575003",DAKSHINA KANNADA,MANGALORE,KARNATAKA,2229854
440,KARNATAKA BANK LIMITED,KARB0000480,MELPAL,"MANU-KAVYA,MAIN ROAD,MELPAL,N R PURA TALUK, PIN - 577112",CHICKMAGALUR,MELPAL,KARNATAKA,247021
441,KARNATAKA BANK LIMITED,KARB0000481,MADIKERI,"GREEN HAVEN,KOHINOOR ROAD,MADIKERI, PIN - 571201",KODAGU,MADIKERI,KARNATAKA,229688
442,KARNATAKA BANK LIMITED,KARB0000482,MOODBIDRI KARNATAKA,"IST FLOOR,TRIBHUVAN BUILDING,NEAR BUS STAND,MOODABIDRI, PIN - 574227",DAKSHINA KANNADA,MOODBIDRI,KARNATAKA,236306
443,KARNATAKA BANK LIMITED,KARB0000483,MULGUND,"SOCIETY BUILDING,MAIN ROAD,MULGUND, PIN - 582117",GADAG,MULGUND,KARNATAKA,280147
444,KARNATAKA BANK LIMITED,KARB0000484,DEVARAJ URS ROAD MYSORE,"DOOR NO.82-85,FIRST FLOOR,DEVARAJ URS ROAD,MYSORE, PIN - 570001",MYSORE,MYSORE,KARNATAKA,2529575
445,KARNATAKA BANK LIMITED,KARB0000485,CHAMUNDIPURAM MYSORE,"NO.2954,K-12/4,ANNAPOORNA,JLB ROAD,CHAMUMDIPURAM,MYSORE, PIN - 570004",MYSORE,MYSORE,KARNATAKA,2332160
446,KARNATAKA BANK LIMITED,KARB0000486,MADURAI TN,"39-41,TOWN HALL ROAD,MADURAI, PIN - 625001",MADURAI,MADURAI,TAMIL NADU,2343578
447,KARNATAKA BANK LIMITED,KARB0000487,URVA MARKET,"15-20-2000/7,IST FLOOR,""VEENU PLAZA"",SRI MARIAMMA TEMPLE ROAD,URVA MARKET,MANGALORE, PIN - 575006",DAKSHINA KANNADA,MANGALORE,KARNATAKA,2229860
448,KARNATAKA BANK LIMITED,KARB0000488,TRIPLICANE CHENNAI,"132-A,TRIPLICANE HIGH ROAD,CHENNAI, PIN - 600005",CHENNAI,CHENNAI,TAMIL NADU,23453249
449,KARNATAKA BANK LIMITED,KARB0000489,MADAKSHIRA,"5-172,GUPTA'S BUILDING,TUMKUR BELLARY ROAD,MADAKASIRA, PIN - 515301",ANANTHAPUR,MADAKSIRA,ANDHRA PRADESH,288424
450,KARNATAKA BANK LIMITED,KARB0000490,MARGAO GOA,"MABAI HOTEL BUILDING,OPP.MUNCIPAL GARDEN,GEORGE BARETTO SQUARE,MARGAO,GOA, PIN - 403601",GOA-SOUTH,MARGOA,GOA,2730979
451,KARNATAKA BANK LIMITED,KARB0000491,ANNA NAGAR CHENNAI,"W-123,III AVENUE,ANNANAGAR,CHENNAI, PIN - 600040",CHENNAI,CHENNAI,TAMIL NADU,23453227
452,KARNATAKA BANK LIMITED,KARB0000492,BALMATTA ROAD MANGALORE,"FIRST FLOOR,HEMAVATHI BUILDING,BALMATTA ROAD,MANGALORE, PIN - 575001",DAKSHINA KANNADA,MANGALORE,KARNATAKA,2229831
453,KARNATAKA BANK LIMITED,KARB0000493,MUROOR,"D NO 502,MUROOR ALVALLI ROAD,MUROOR, PIN - 581362",UTTAR KANNADA,MUROOR,KARNATAKA,268123
454,KARNATAKA BANK LIMITED,KARB0000494,MINT STREET CHENNAI,"311,MINT STREET,IST FLOOR PARK TOWN,CHENNAI, PIN - 600003",CHENNAI,CHENNAI,TAMIL NADU,23453242
455,KARNATAKA BANK LIMITED,KARB0000495,P M RAO ROAD MANGALORE,"FIRST FLOOR,KELLE COURT,P.M RAO ROAD,MANGALORE, PIN - 575001",DAKSHINA KANNADA,MANGALORE,KARNATAKA,2229858
456,KARNATAKA BANK LIMITED,KARB0000496,KODAMBAKKAM CHENNAI,"DOOR NO.68,2ND MAIN ROAD,UNITED INDIA COLONY,KODAMBAKKAM,CHENNAI, PIN - 600024",CHENNAI,CHENNAI,TAMIL NADU,23453239
457,KARNATAKA BANK LIMITED,KARB0000497,MEDIGESHI,"MEDIGESHI,MADHUGIRI TALUK, PIN - 572133",TUMKUR,MEDIGESHI,KARNATAKA,278623
458,KARNATAKA BANK LIMITED,KARB0000498,MATALA,"MAIN MARKET,DHARMPET MATALA, PIN - 585419",BIDAR,MATALA,KARNATAKA,257438
459,KARNATAKA BANK LIMITED,KARB0000499,SARASWATHIPURAM MYSORE,"GROUND FLOOR SRI VENKATESHWARA PLAZA  NO.2912 CH 57 KANTHARAJE URS ROADSARASWATHIPURAM-MYS, PIN - 570009",MYSORE,MYSORE,KARNATAKA,2540203
460,KARNATAKA BANK LIMITED,KARB0000500,RO CHENNAI,"IST FLOOR,NO 324,IST FLOOR,KARNATAKA BANK BUILDING,THAMBU CHETTY STREET,GEORGE TOWN, CHENNAI, PIN - 600001",CHENNAI,CHENNAI,TAMIL NADU,23453221
461,KARNATAKA BANK LIMITED,KARB0000501,KOPPADAKERE DHARWAD,"FIRST FLOOR,MARATHA COLONY ROAD,KOPPADAKERE,DHARWAD, PIN - 580008",DHARWAD,DHARWAD,KARNATAKA,2216053
462,KARNATAKA BANK LIMITED,KARB0000502,MANILA,"IST FLOOR, SRI VISHNUMOORTHY PRASADA SHANKARANARAYANA BLDG. MANILA VILLAGE,POST MURVA, PIN - 574243",DAKSHINA KANNADA,MANILA,KARNATAKA,237254
463,KARNATAKA BANK LIMITED,KARB0000503,MOHALI PUNJAB,"SCO 121&122,PHASE-3-B-II,S A S NAGAR,MOHALI, PIN - 160059",ROOPNAGAR,MOHALI,PUNJAB,2264884
464,KARNATAKA BANK LIMITED,KARB0000504,KUVEMPUNAGAR MYSORE,"SITE NO.561,NEW KANTHARAJA URS ROAD,KUVEMPUNAGAR,MYSORE, PIN - 570009",MYSORE,MYSORE,KARNATAKA,2342370
465,KARNATAKA BANK LIMITED,KARB0000505,V V MOHALLA MYSORE,"D.NO.70,""SUBHODA"",I FLOOR,SUBHODA,KALIDASA ROAD,V.V.MOHALLA,MYSORE, PIN - 570002",MYSORE,MYSORE,KARNATAKA,2415000
466,KARNATAKA BANK LIMITED,KARB0000506,KADRI ROAD MANGALORE,"KSN ADIGA SMARAKA BHAVANA,KADRI ROAD,MANGALORE, PIN - 575003",DAKSHINA KANNADA,MANGALORE,KARNATAKA,2229846
467,KARNATAKA BANK LIMITED,KARB0000507,SIDHARTHNAGAR MYSORE,"NO.184/147/12 ALANAHALLI MAIN ROAD  SIDDARTHANAGAR,MYSORE, PIN - 570011",MYSORE,MYSORE,KARNATAKA,2417675
468,KARNATAKA BANK LIMITED,KARB0000508,VIVEKANANDANAGAR MYSORE,"M-4,NEAR VIVEKANANDA CIRLCE,VIVEKANDA NAGAR,MYSORE, PIN - 570023",MYSORE,MYSORE,KARNATAKA,2562262
469,KARNATAKA BANK LIMITED,KARB0000509,"MUMBAI-VAZIRA NAKA, BORIVLI(W)","DON BOSCO HIGH SCHOOL BUILDING,NEW LINK ROAD,OPP.LT ROAD,VAZIRANAKA BORIVLI(W),MUMBAI, PIN - 400091",MUMBAI,MUMBAI,MAHARASHTRA,28339847
470,KARNATAKA BANK LIMITED,KARB0000510,KANDIVLI EAST MUMBAI,"GAYATRI CORNER,90 FEET ROAD,ASHANAGAR, OPP.THAKUR  POLYTECHNIC COLLEGE,THAKUR COMPLEX  KANDIVLI(E),MUMBAI, PIN - 400101",MUMBAI,MUMBAI,MAHARASHTRA,28540969
471,KARNATAKA BANK LIMITED,KARB0000511,VIJAYANAGAR II MYSORE,"SITE NO.4586,II STAGE,VIJAYANAGAR,SHRIVARA COMPLEX,HIGH TENSION DOUBLE ROAD,MYSORE, PIN - 570017",MYSORE,MYSORE,KARNATAKA,2301358
472,KARNATAKA BANK LIMITED,KARB0000512,POWAI,"DOOR NO 1-4,GATEWAY PLAZA,CENTRAL AVENUE,HIRANANDANI GARDENS,POWAI,MUMBAI, PIN - 400076",MUMBAI,MUMBAI,MAHARASHTRA,25708873
473,KARNATAKA BANK LIMITED,KARB0000513,HO COMPLEX BR MAHAVEERACIRCLE,"HEAD OFFICE COMPLEX BR,MAHAVEER CIRCLE,KANKANADY,MANGALORE, PIN - 575002",DAKSHINA KANNADA,MANGALORE,KARNATAKA,2228138
474,KARNATAKA BANK LIMITED,KARB0000514,OSHIWARA MUMBAI,"20-21,OSHIWARA LINK PLAZA,MHADA COMPLEX,OSHIWARA,JOGESHWARI(W),MUMBAI, PIN - 400102",MUMBAI,MUMBAI,MAHARASHTRA,26301935
475,KARNATAKA BANK LIMITED,KARB0000515,KOPAR KHAIRANE NAVI MUMBAI,"LIONS SERVICE CENTRE PLOT NO.101,SECTOR 7,KOPARKHAIRANE,NAVI MUMBAI, PIN - 400701",MUMBAI,MUMBAI,MAHARASHTRA,27549200
476,KARNATAKA BANK LIMITED,KARB0000516,THAKUR VILLAGE MUMBAI,"SHOP NO 34-39,EMP-52,EVERSHINE MILLENIUM PARADISE,THAKUR VILLAGE,KANDIVLI(E)  MUMBAI, PIN - 400101",MUMBAI,MUMBAI,MAHARASHTRA,28464597
477,KARNATAKA BANK LIMITED,KARB0000517,NERUL SEAWOODS,"BADRI KEDAR,PLOT NO.35/36 SECTOR 40,SEAWOODS,NERUL,NAVI MUMBAI, PIN - 400706",MUMBAI,MUMBAI,MAHARASHTRA,27702004
478,KARNATAKA BANK LIMITED,KARB0000518,SANTACRUZ MUMBAI,"ROSE MANOR GARDEN SCHOOL,CENTRAL AVENUE,SANTACRUZ(W),MUMBAI, PIN - 400054",MUMBAI,MUMBAI,MAHARASHTRA,26052226
479,KARNATAKA BANK LIMITED,KARB0000519,BOGADI MYSORE,"D.NO.439,SPNS SADANA,GADDIGE MAIN ROAD,BOGADI,MYSORE, PIN - 570026",MYSORE,MYSORE,KARNATAKA,2417579
480,KARNATAKA BANK LIMITED,KARB0000520,MULUND WEST,"GROUND FLOOR,SMT.L.L.MUNDADA HOSTEL BUILDING,DEVIDAYAL ROAD,MULUND(W),MUMBAI, PIN - 400080",MUMBAI,MUMBAI,MAHARASHTRA,25905406
481,KARNATAKA BANK LIMITED,KARB0000521,SERVICE BRANCH MANGALORE,"KARNATAKA BANK BUILDING SERVICE BRANCH,IIND FLOOR KODIALBAIL,MANGALORE,  PIN - 575003",DAKSHINA KANNADA,MANGALORE,KARNATAKA,2422505
482,KARNATAKA BANK LIMITED,KARB0000522,NAVIMUM BAIBELAPUR,"SHOP NO.20,21&22,SHIVADARSHAN BUILDING,PLOT NO.1,SECTOR 15,PALM BEACH ROAD,CBD BELAPUR,NAVI MUMBAI, PIN - 400614",MUMBAI,MUMBAI,MAHARASHTRA,27580888
483,KARNATAKA BANK LIMITED,KARB0000523,MIRAROADEAST,"GAURAV GARDEN COMPLEX,OPP.OLD PETROL PUMP,MIRA BHAYANDAR ROAD,MIRA ROAD(E), PIN - 401107",MUMBAI,MUMBAI,MAHARASHTRA,28552767
484,KARNATAKA BANK LIMITED,KARB0000524,MORADABAD,"AE-34,RAM GANGA VIHAR,PHASE-1,KANTH ROAD,MORADABAD, PIN - 244001",THANE,MUMBAI,UTTAR PRADESH,2452019
485,KARNATAKA BANK LIMITED,KARB0000525,VILE  PARLE (E),"SHOP NO.18&19 KADAMGIRI COMPLEX  HANUMAN ROAD  VILE PARLE EASTMUMBAI, PIN - 400057",MUMBAI,MUMBAI,MAHARASHTRA,26122767
486,KARNATAKA BANK LIMITED,KARB0000526,J P NAGAR,"CA NO.1, ""C""BLOCK AKKAMAHADEVI ROAD  J.P.NAGAR MYSORE, PIN - 570008",MYSORE,MYSORE,KARNATAKA,2371551
487,KARNATAKA BANK LIMITED,KARB0000527,DADAR(W),"FIRST FLOOR, RAJ ADITYA BUILDING,KASHINATH DHURU ROAD,AGAR BAZAR, DADAR (W),MUMBAI  400028.",MUMBAI,MUMBAI,MAHARASHTRA,24219432
488,KARNATAKA BANK LIMITED,KARB0000528,MUDHOL,"GROUND FLOOR, RANNA CIRCLE, LOKAPUR ROAD, MUDHOL - 587313.",BAGALKOT,MUDHOL,KARNATAKA,280290
489,KARNATAKA BANK LIMITED,KARB0000529,SIDDALINGAPURA,"GROUND FLOOR,NO. 587/2,""SREEYA COMFORTS"" BUILDING, MYSORE - BANGALORE HIGHWAY,SIDDALINGAPURA, MYSORE - 570003",MYSORE,SIDDALINGAPURA,KARNATAKA,2496615
490,KARNATAKA BANK LIMITED,KARB0000530,MEMARI,"PLOT 119 & 118/2822, KHATAN 7482, NEAR BUS STAND, MEMARI - 713146, BARDHAMAN DIST.",BARDHAMAN,MEMARI,WEST BENGAL,2250554
491,KARNATAKA BANK LIMITED,KARB0000531,NAVALGUND,"P.N.DHARWAD COMMERCIAL COMPLEX,IST FLOOR,MAIN MARKET ROAD,NAVALGUND, PIN - 582208",DHARWAD,NAVALGUND,KARNATAKA,224292
492,KARNATAKA BANK LIMITED,KARB0000532,NEERCHAL,"MAHALINGA DHAM,MAIN ROAD,NEERCHAL, PIN - 671321",KASARGOD,NEERCHAL,KERALA,284036
493,KARNATAKA BANK LIMITED,KARB0000533,NONAVINAKERE,"GOPALAKRISHNASWAMY TEMPLE ROAD,NONAVINAKERE,TIPTUR TALUK, PIN - 572224",TUMKUR,NONAVINAKERE,KARNATAKA,258038
494,KARNATAKA BANK LIMITED,KARB0000534,NYAMATHI,"IST FLOOR,LINGESHWARA COMPLEX,MAHANTESH ROAD,NYAMATHI, PIN - 577223",DAVANGERE,NYAMATHI,KARNATAKA,265326
495,KARNATAKA BANK LIMITED,KARB0000535,NELLORE A P,"D NO W-15/201,KAVERI BUILDING,GOTURUVARI STREET,BRINDAVAN,NELLORE, PIN - 524001",NELLORE,NELLORE,ANDHRA PRADESH,2322881
496,KARNATAKA BANK LIMITED,KARB0000536,NARVE,"MAIN ROAD,NARVE,KOPPA TALUK, PIN - 577126",CHICKMAGALUR,NARVE,KARNATAKA,236021
497,KARNATAKA BANK LIMITED,KARB0000537,NEW DELHI,"M-3,AVG BHAVAN,MIDDLE CIRCLE,CONNAUGHT PLACE MIDDLE CIRCLE,NEW DELHI, PIN - 110001",DELHI,DELHI,DELHI,23417590
498,KARNATAKA BANK LIMITED,KARB0000538,NIDUVALE,"KARNATAKA BANK BUILDING MAIN ROAD,NIDUVALE,MUDIGERE TALUK, PIN - 577122",CHICKMAGALUR,NIDUVALE,KARNATAKA,261211
499,KARNATAKA BANK LIMITED,KARB0000539,NAVILGAON,"MAIN ROAD,NAVILGON, PIN - 581425",UTTAR KANNADA,NAVILGAON,KARNATAKA,254335
500,KARNATAKA BANK LIMITED,KARB0000540,NELEKERE,"MATHA RESIDENCY COMPLEX,B.H.ROAD,KIBBANAHALLYCROSS,KIBBANAHALLY POST, PIN - 572214",TUMKUR,NELEKERE,KARNATAKA,262709
501,KARNATAKA BANK LIMITED,KARB0000541,NAGPUR MAHARASTRA,"JAISHREE,365A,IST FLOOR,NEAR LAD COLLEGE SQUARE,GANDHI NAGAR,NAGPUR, PIN - 440010",NAGPUR,NAGPUR,MAHARASHTRA,2242003
502,KARNATAKA BANK LIMITED,KARB0000542,OVERSEAS NEW DELHI,"K-2,CHOUDHARY BUILDING,IST FLOOR,MIDDLE CIRCLE,CONNAUGHT CIRCUS,DELHI, PIN - 110001",DELHI,DELHI,DELHI,23416489
503,KARNATAKA BANK LIMITED,KARB0000543,NANDYALA AP,"D NO.2/398,N K ROAD,SOWJANYA COMPLEX,SRINIVAS NAGAR,NANDYAL, PIN - 518501",KURNOOL,NANDYAL,ANDHRA PRADESH,245800
504,KARNATAKA BANK LIMITED,KARB0000544,SAVITHA VIHAR NEW DELHI,"PLOT NO.13,NEAR SAI MANDIR,MAIN ROAD,SAVITA VIHAR,DELHI, PIN - 110092",DELHI,DELHI,DELHI,28822214
505,KARNATAKA BANK LIMITED,KARB0000545,NOIDA UTTAR PRADESH,"F 27/28,SECTOR-18,NOIDA, PIN - 201301",GAUTAMBUDHNAGAR,NOIDA,UTTAR PRADESH,6406431
506,KARNATAKA BANK LIMITED,KARB0000546,WEST PATEL NAGAR NEW DELHI,"NO 11/14,GROUND FLOOR,WEST PATEL NAGAR,DELHI, PIN - 110008",DELHI,DELHI,DELHI,25885548
507,KARNATAKA BANK LIMITED,KARB0000547,LAJPAT NAGAR NEW DELHI,"E-108/109,LAJPAT NAGAR-I,KRISHNA MARKET,LAJPAT NAGAR,DELHI, PIN - 110024",DELHI,DELHI,DELHI,28898347
508,KARNATAKA BANK LIMITED,KARB0000548,SHALIMAR BAGH NEW DELHI,"AGGARWAL PLAZA,FIRST FLOOR,B N BLOCK(WEST),SHALIMAR BHAGH,DELHI, PIN - 110088",DELHI,DELHI,DELHI,28877082
509,KARNATAKA BANK LIMITED,KARB0000549,ROHINI NEW DELHI,"PLOT NO.6,AGGARWAL CENTRAL PLAZA,FIRST FLOOR COMMUNITY CENTRE,DC CHOUK  SECTOR 9,ROHINI-DELHI, PIN - 110085",DELHI,DELHI,DELHI,28877572
510,KARNATAKA BANK LIMITED,KARB0000550,R K PURAM NEW DELHI,"DELHI KARNATAKA SANGHA BUILDING,RAO TULARAM MARG,SECTOR-12,R.K.PURAM,NEW-DELHI, PIN - 110022",DELHI,DELHI,DELHI,28866067
511,KARNATAKA BANK LIMITED,KARB0000551,DWARAKA NEW DELHI,"HL SQUARE,PLOT NO.6,SECTOR-5,DWARAKA, PIN - 110075",DELHI,DELHI,DELHI,28855095
512,KARNATAKA BANK LIMITED,KARB0000552,NASHIK,"KAVITA VAULTS,COMMERCIAL COMPLEX,OPP.VASANTH MARKET,CANADA CORNER GANGAPUR LINK ROAD,NASIK, PIN - 422005",NASHIK,NASHIK,MAHARASHTRA,2572383
513,KARNATAKA BANK LIMITED,KARB0000553,G T KARNAL ROAD NEWDELHI,"NO 6,JAIN COLONY VEERNAGAR,GT KARNAL ROAD,DELHI, PIN - 110007",DELHI,DELHI,DELHI,27111773
514,KARNATAKA BANK LIMITED,KARB0000554,PASCHIM VIHAR NEWDELHI,"A-4/45,PASCHIM VIHAR,DELHI, PIN - 110063",DELHI,DELHI,DELHI,25281783
515,KARNATAKA BANK LIMITED,KARB0000555,SERVICE BRANCH NEW DELHI,"45,REGAL BUILDING CONNAUGHT PLACE,NEW DELHI, PIN - 110001",DELHI,DELHI,DELHI,28844106
516,KARNATAKA BANK LIMITED,KARB0000556,JANAKPURI,"DIA/A1,GROUND FLOOR,SATGURU RAM SINGH MARG,JANAKPURI D BLOCK,NEW DELHI, PIN - 110058",DELHI,DELHI,DELHI,28525348
517,KARNATAKA BANK LIMITED,KARB0000557,NELAMANGALA,"NO.5006/5011,FIRST FLOOR LAKSHMI COMPLEX,B.H.ROAD SUBHASHNAGAR,NELAMANGALA, PIN - 562123",BANGALORE-RURAL,NELAMANGALA,KARNATAKA,27722668
518,KARNATAKA BANK LIMITED,KARB0000558,NEW DELHI KAROL BAGH,"PLOT NO.5439/71,GROUND FLOOR,MAIN ARYA SAMAJ ROAD,KAROL BAGH,NEW DELHI, PIN - 110005",DELHI,DELHI,DELHI,25752144
519,KARNATAKA BANK LIMITED,KARB0000559,NAGANATHAPAURA,"D.NO.87,VINAYAKANAGAR MICO MAIN ROAD  NAGANATHAPURABANGALORE, PIN - 560100",BANGALORE,NAGANATHAPURA,KARNATAKA,25743284
520,KARNATAKA BANK LIMITED,KARB0000560,EAST OF KAILASH,"D-59, SAPNA ROAD  EAST OF KAILASHNEW DELHI, PIN - 110065",DELHI,DELHI,DELHI,26441911
521,KARNATAKA BANK LIMITED,KARB0000561,ASHOK VIHAR,"A-1,PHASE II  ASHOK VIHAR  NEW DELHI, PIN - 110052",DELHI,DELHI,DELHI,27115477
522,KARNATAKA BANK LIMITED,KARB0000562,NEW DELHI - VIKASPURI,"GROUND FLOOR, F-119,VIKASPURI, NEW DELHI -110018",NEW DELHI,NEW DELHI,DELHI,28533977
523,KARNATAKA BANK LIMITED,KARB0000563,NIPPANI,"GROUND FLOOR, D/NO.690/B, ASHOK NAGAR, NIPPANI-591263, CHIKKODI TALUK, BELGAUM DIST., PIN - 591263",BELGAUM,NIPPANI,KARNATAKA,220148
524,KARNATAKA BANK LIMITED,KARB0000564,MIRYALAGUDA,"GROUND FLOOR, SAGAR ROAD, NEAR HANUMANPET, MIRYALAGUDA-508207, NALGONDA DIST., PIN - 508207",NALGONDA,MIRYALAGUDA,ANDHRA PRADESH,242564
525,KARNATAKA BANK LIMITED,KARB0000565,MANIPAL,"R S B SABHA BHAVANA, MANIPAL - ALEVOOR ROAD, MANIPAL - 576104",UDUPI,UDUPI,KARNATAKA,2574565
526,KARNATAKA BANK LIMITED,KARB0000566,KULSHEKAR,"D/NO.15-10/3 & 10/4, KULSHEKAR ROAD, PADAVU VILLAGE, KULSHEKAR, MANGALORE - 575005",SOUTH KANARA,MANGALORE,KARNATAKA,2229804
527,KARNATAKA BANK LIMITED,KARB0000567,MALVIA NAGAR,"GROUND FLOOR, D/NO. B-1/13, MALVIA NAGAR, NEW DELHI - 110017",DELHI,DELHI,DELHI,26686032
528,KARNATAKA BANK LIMITED,KARB0000568,NIZAMABAD,"D.NO. 5-6-687/4, BLOCK NO.6, PHULONG CROSS ROAD, HYDERABAD ROAD, NIZAMABAD - 503001",NIZAMABAD,NIZAMABAD,ANDHRA PRADESH,236553
529,KARNATAKA BANK LIMITED,KARB0000569,MANVI,"OPP. AXIS BANK, SINDHANUR ROAD, MANVI - 584123",RAICHUR,RAICHUR,KARNATAKA,221549
530,KARNATAKA BANK LIMITED,KARB0000570,NAMAKKAL,"MOHANUR ROAD, NAMAKKAL - 637001",NAMAKKAL,NAMAKKAL,TAMIL NADU,220570
531,KARNATAKA BANK LIMITED,KARB0000571,MYSORE-NAZARBAD,"MAHALAKSHMI KRUPA, ZOO GARDEN ROAD, NAZARBAD, MYSORE - 570010",MYSORE,MYSORE,KARNATAKA,2417522
532,KARNATAKA BANK LIMITED,KARB0000572,MUDDEBIHAL,"PLOT NO 2,HEMAREDDI MALLAMMA CIRCLE, NEAR MINI VIDHANA SOUDHA, KHB COLONY, MUDDEBIHAL 586212",BIJAPUR,MUDDEBIHAL,KARNATAKA,9686833873
533,KARNATAKA BANK LIMITED,KARB0000573,NARWEYPETE GP,"MAIN ROAD,NARWEYPETE VILLAGE AND GRAMA PANCHAYATH,BELUR TALUK.573 127",HASSAN,BELUR,KARNATAKA,267777
534,KARNATAKA BANK LIMITED,KARB0000574,NEW DELHI KIRTI NAGAR,GROUND FLOOR H 59 KIRTI NAGAR NEW DELHI 110015,DELHI,DELHI,DELHI,9582349394
535,KARNATAKA BANK LIMITED,KARB0000575,NEW DELHI KALKAJI,"PLOT NO K 10, KALKAJI ROAD, NEW DELHI KALKAJI 110019",DELHI,DELHI,DELHI,0
536,KARNATAKA BANK LIMITED,KARB0000576,NANJANGUD,"R P ROAD,NANJANGUD 571 301",MYSORE,MYSORE,KARNATAKA,9482175576
537,KARNATAKA BANK LIMITED,KARB0000577,SHETTIHALLI GP,"AMBAAJIDURGA HOBLI,NELAMACHANAHALLI VILLAGE,SHETTIHALLI GP 563 125,CHINTAMANI TALUK",CHIKKABALLAPURA,SHETTIHALLI GP,KARNATAKA,9980868656
538,KARNATAKA BANK LIMITED,KARB0000578,MACHILIPATNAM,"OLD LIC ROAD,JAGANADAPURAM ROAD,RAJAVARI CENTRE,MACHILIPATNAM 521001",KRISHNA,MACHILIPATNAM,ANDHRA PRADESH,9491915578
539,KARNATAKA BANK LIMITED,KARB0000579,NANDED,"GROUND FLOOR, PLOT NO 3 HOUSE NO 1 9 122,1, SHRINAGAR ROAD SHRINAGAR NANDED 431602",NANDED,NANDED,MAHARASHTRA,9769914766
540,KARNATAKA BANK LIMITED,KARB0000580,MAVINAKATTE KENCHANOOR,"GULVADY NERALAKATTE ROAD,MAVINAKATTE CIRCLE,KENCHANOOR VILLAGE 576 280,GULVADY PO,HATTIANGADI GP",UDUPI,KENCHANOOR,KARNATAKA,9663948666
541,KARNATAKA BANK LIMITED,KARB0000581,MAGADI,"VASAVI TEMPLE STREET, RAMA MANDIR ROAD, MAGADI 562 120",RAMANAGARAM,MAGADI,KARNATAKA,9972165689
542,KARNATAKA BANK LIMITED,KARB0000582,NAGERCOIL,"D NO 326,327, M S ROAD MADRAS SERVICE ROAD NAGERCOIL 623 001, KANYAKUMARI DIST TAMILNADU STATE",KANYAKUMARI,NAGERCOIL,TAMIL NADU,7598465294
543,KARNATAKA BANK LIMITED,KARB0000583,NARASIMHARAJAPURA,"GROUND FLOOR, NO 993, T M ROAD, NEAR BASTI MUTT, NARASIMHARAJAPURA,577134,CHIKMAGALUR DIST",CHIKMAGALUR,NARASIMHRAJPUR,KARNATAKA,9986318829
544,KARNATAKA BANK LIMITED,KARB0000584,MOLAHALLI G P,"VISHWAPRABHA COMPLEX, KOTESHWARA SHIMOGA ROAD,KUNDAPURA TALUK, PIN 576222",UDIPI,MOLAHALLI G P,KARNATAKA,9448831565
545,KARNATAKA BANK LIMITED,KARB0000585,MANDAGHATTA GP,"FIRST FLOOR, HOSANAGARA ROAD, MANDAGHATTA VILLAGE & GP, 577211, SHIVAMOGGA TALUK & DISTRICT",SHIVAMOGGA,MANDAGHATTA,KARNATAKA,0
546,KARNATAKA BANK LIMITED,KARB0000586,MADDUR,"GROUND FLOOR, SRI SARVASHIVA COMPLEX, BESIDE MAHAVEERA THEATRE, OLD M C ROAD, MADDUR, 571428",MANDYA,MADDUR,KARNATAKA,9449520625
547,KARNATAKA BANK LIMITED,KARB0000587,LAKKUR G P,"GROUND FLOOR, MAIN ROAD LAKKUR VILLAGE & G P, 573150, ARKALGUD TALUK",HASSAN,LAKKUR,KARNATAKA,0
548,KARNATAKA BANK LIMITED,KARB0000588,KESAGODU G P,"KH NO 85 & 85 1, GROUND FLOOR, MAIN ROAD, KESAGODU VILLAGE & G P, 573215, BELUR TALUK, HASSAN",HASSAN,KESAGODU,KARNATAKA,0
549,KARNATAKA BANK LIMITED,KARB0000589,NAVI MUMBAI KHARGHAR,"GROUND FLOOR, SHOP NO 10,11,12 & 13, PLOT NO 50 & 51, SECTOR 15, MILLENIUM ICON, KHARGHAR, NAVI MUMBAI 401210, PANVEL TALUK",RAIGAD,KHARGHAR,MAHARASHTRA,0
550,KARNATAKA BANK LIMITED,KARB0000590,ONGOLE,"CHITIRALA COMMERCIAL COMPLEX, KURNOOL ROAD, OPP. ST. XAVIER'S SCHOOL, ONGOLE - 523002",PRAKASAM,ONGOLE,ANDHRA PRADESH,282679
551,KARNATAKA BANK LIMITED,KARB0000591,MYSURU RAJIV NAGAR,"GROUND FLOOR D NO 4, MAHADEVAPURA ROAD 1ST STAGE, DEVANUR LAYOUT, N R MOHALLA, RAJIV NAGAR, MYSURU, 570009",MYSURU,MYSURU,KARNATAKA,9480842318
552,KARNATAKA BANK LIMITED,KARB0000592,NERIYA G P,"GROUND FLOOR, VIA MUNDAJE, NERIYA VILLAGE & G P, 574228, BELTHANGADY TALUK, DAKSHINA KANNADA DIST",DAKSHINA KANNADA,BELTHANGADY,KARNATAKA,0
553,KARNATAKA BANK LIMITED,KARB0000593,MANGALURU KRISHNAPURA,"GROUND FLOOR, D NO S 4, STAR AVENUE, KATIPALLA ROAD, KRISHNAPURA 4TH BLOCK, MANGALURU 575030, DAKSHINA KANNADA DIST",DAKSHINA KANNADA,MANGALURU,KARNATAKA,0
554,KARNATAKA BANK LIMITED,KARB0000594,LUCKNOW-GOMTI NAGAR,"PLOT NO.A-1/5, VIVEK KHAND, GOMTI NAGAR, LUCKNOW-226010",LUCKNOW,LUCKNOW,UTTAR PRADESH,9918907638
555,KARNATAKA BANK LIMITED,KARB0000595,MAHBUBNAGAR,"GROUND FLOOR, D NO 8 3 8 15, HYDERABAD ROAD, OPP PINAKANI HOTEL, METTUGADDA CIRCLE, MAHBUBNAGAR 509001, MAHBUBNAGAR DIST, TELANGANA",MAHBUBNAGAR,MAHBUBNAGAR,TELANGANA,7680881118
556,KARNATAKA BANK LIMITED,KARB0000596,NAVI MUMBAI KAMOTHE,"SHOP NO 1 & 2, PLOT NO 7, SHIVAPRAKASH CELEBRATION, SECTOR NO 11, KAMOTHE, NAVI MUMBAI 410209, PANVEL TALUK",RAIGAD,NAVI MUMBAI,MAHARASHTRA,0
557,KARNATAKA BANK LIMITED,KARB0000597,MALLAPPANAHALLY G P,"GROUND FLOOR, OPP GOVT HIGHER PRIMARY SCHOOL, MALLAPPANAHALLY VILLAGE & G P, 573211, HOLENARASIPURA TALUK",HASSAN,MALLAPPANAHALLY,KARNATAKA,0
558,KARNATAKA BANK LIMITED,KARB0000598,NARENDRAPUR,"FIRST FLOOR, BLOCK II, NO. 200, AKSHARA PEARL, N S ROAD, NARENDRAPUR, 700103, BARUIPUR TALUK",SOUTH PARAGANAS,NARENDRAPUR,WEST BENGAL,0
559,KARNATAKA BANK LIMITED,KARB0000599,MIRJI VILLAGE,"FIRST FLOOR, VPC NO 47 WARD NO 1, NEAR BUS STAND, MIRJI VILLAGE 587313, VANTIGODI GRAMA PANCHAYAT, MUDHOL TALUK, BAGALKOT DIST",BAGALKOT,MIRJI VILLAGE,KARNATAKA,0
560,KARNATAKA BANK LIMITED,KARB0000600,RO MANGALORE,"D.NO.13-10-1271,KARNATAKA BANK BUILDING,REGIONAL OFFICE,PVS ROAD, KODIALBAIL, MANGALORE, PIN - 575003",SOUTH KANARA,MANGALORE,KARNATAKA,2229825
561,KARNATAKA BANK LIMITED,KARB0000601,PANJIM GOA,"52/4C-11,KARINA CHAMBERS M.G.ROAD,GOA-PANJIM(TISWADI TALUK), PIN - 403001",GOA-NORTH,PANJIM,GOA,2232346
562,KARNATAKA BANK LIMITED,KARB0000602,PANAMBUR MANGALORE,"IST FLOOR,ADDL.MARKET COMPLEX,N M P T BUILDING,PANAMBUR,MANGALORE, PIN - 575010",DAKSHINA KANNADA,MANGALORE,KARNATAKA,2229857
563,KARNATAKA BANK LIMITED,KARB0000603,PAVAGADA,"1901/A,S S K SANGHA BUILDING,OLD BUS STAND,PAVAGADA, PIN - 561202",TUMKUR,PAVAGADA,KARNATAKA,245028
564,KARNATAKA BANK LIMITED,KARB0000604,PUTTUR,"FIRST FLOOR,BONANTHAYA HOSPITAL BUILDING,MAIN ROAD,PUTTUR, PIN - 574201",DAKSHINA KANNADA,PUTTUR,KARNATAKA,234324
565,KARNATAKA BANK LIMITED,KARB0000605,PACHANADY MANGALORE,"GROUND FLOOR,PACHANADI,KONCHADI POST,MANGALORE, PIN - 575008",DAKSHINA KANNADA,MANGALORE,KARNATAKA,2229863
566,KARNATAKA BANK LIMITED,KARB0000606,PONDICHERRY,"NO.137,AZIZ MANZIL MISSION STREET,PUDUCHERRY, PIN - 605001",PONDICHERRY,PONDICHERRY,PUDUCHERRY,2349637
567,KARNATAKA BANK LIMITED,KARB0000607,PUNE MAIN,"FIRST FLOOR,SHREE MAA BUILDING,NEAR APPA BALWANT CHOWK,10,BUDHWARPETH,BAJIRAO ROAD,PUNE, PIN - 411002",PUNE,PUNE,MAHARASHTRA,24463147
568,KARNATAKA BANK LIMITED,KARB0000608,PANCHKULA HARYANA,"S C O 66,SECTOR 11,PANCHKULA, PIN - 134112",PANCHKULA,PANCHKULA,HARYANA,2578969
569,KARNATAKA BANK LIMITED,KARB0000609,HADAPSAR PUNE,"DOOR NO.84/4,I FLOOR,EVEREST HOUSE,TUPE COMPLEX,NEAR VAIBHAV THEATRE,HADAPSAR,PUNE, PIN - 411028",PUNE,PUNE,MAHARASHTRA,26821790
570,KARNATAKA BANK LIMITED,KARB0000610,PADUBIDRI,"FIRST FLOOR,AMRITHA TOWERS,MAIN ROAD PADUBIDRI(NADSAL VILLAGE), PIN - 574111",UDUPI,PADUBIDRI,KARNATAKA,2599599
571,KARNATAKA BANK LIMITED,KARB0000611,PANIPAT,"GROUND FLOOR,TRADE CENTRE NEAR SANJAY CHOWK,GT ROAD,PANIPAT, PIN - 132103",PANIPAT,PANIPAT,HARYANA,2662526
572,KARNATAKA BANK LIMITED,KARB0000612,DHANKAWADI,"SHOP NO.7 TO 11RAJDHANI COMPLEX  NEXT TO SHANKAR MAHARAJ MUTT,PUNE SATARA ROAD DHANKAWADI-PUNE, PIN - 411043",PUNE,PUNE,MAHARASHTRA,24363708
573,KARNATAKA BANK LIMITED,KARB0000613,PATNA,"SR-01,GROUND FLOOR  DUKHAN RAM PLAZA EXHIBITION ROADNEAR GANDHI MAIDANPIR BHORAPATNA, PIN - 800001",PATNA,PATNA,BIHAR,2500488
574,KARNATAKA BANK LIMITED,KARB0000614,PIMPRI-CHINCHWAD,"SUNSHINE PLAZA, CTS NO. 4840, SHOP NO. 5 SND 6, OLD BOMBAY - PUNE HIGHWAY, PIMPRI-CHINCHWAD - 411018",PUNE,PIMPRI-CHINCHWAD,MAHARASHTRA,27420244
575,KARNATAKA BANK LIMITED,KARB0000615,PANVEL,GROUND FLOOR MTNL BUILDING NEAR SHIVAJI CHOWK PANVEL 410 206,RAIGAD,MUMBAI,MAHARASHTRA,24762014
576,KARNATAKA BANK LIMITED,KARB0000616,PANIYOOR,"GROUND FLOOR, NO 4 46, SRI DEVI COMPLEX, PANIYOOR, 574117, BELAPU VILLAGE & GP, UDUPI TALUK & DISTRICT",UDIPI,PANIYOOR,KARNATAKA,0
577,KARNATAKA BANK LIMITED,KARB0000617,PATIALA,"GROUND FLOOR, SCO 5, BANK STREET, CHOTA BARADHARI, PATIALA 147001",PATIALA,PATIALA,PUNJAB,9464526799
578,KARNATAKA BANK LIMITED,KARB0000618,PRODDATUR,"GROUND FLOOR, D NO 8 600, 601, 602 & 487, GODOWN ROAD, PRODDATUR 516360",CUDDAPAH,PRODDATUR,ANDHRA PRADESH,0
579,KARNATAKA BANK LIMITED,KARB0000619,PERIYAPATNA,"GROUND FLOOR, SANTHEPETE B M ROAD, PERIYAPATNA 571107 PERIYAPATNA TALUK",MYSURU,PERIYAPATNA,KARNATAKA,0
580,KARNATAKA BANK LIMITED,KARB0000620,MALLUR G P,"GROUND FLOOR, BABA NILAYA, GP NO. 392, MALLUR VILLAGE & G P, 591111, SAVADATTI TALUK, BELAGAVI DIST",BELAGAVI,MALLUR G P,KARNATAKA,0
581,KARNATAKA BANK LIMITED,KARB0000621,MALAVALLI,"GROUND FLOOR, MYSURU-BENGALURU ROAD,MALAVALLI-571430,MALAVALLI TALUK",MANDYA,MANDYA,KARNATAKA,0
582,KARNATAKA BANK LIMITED,KARB0000622,SANKRANTI CIRCLE,"GROUND FLOOR,SITE NO.109/1,&140/1 DEVARAJA MOHALLA SANKRANTHI CIRCLE 2ND STAGE HEBBAL,MYSURU",MYSURU,MYSURU,KARNATAKA,0
583,KARNATAKA BANK LIMITED,KARB0000623,KANAKADASANAGAR,"NO.2588,NETHAJI CIRCLE,RING ROAD,3RD STAGE,DATTAGALLI,KANAKADASANAGAR,MYSURU-570022",MYSURU,MYSURU,KARNATAKA,9448240712
584,KARNATAKA BANK LIMITED,KARB0000624,NARASARAOPET,"D.NO.9-6-15/1,GROUND FLOOR, WARD NO.9, OLD LIC OFFICE ROAD, ARUNDALPET, NARASARAOPET - 522601",GUNTUR,NARASARAOPET,ANDHRA PRADESH,220551
585,KARNATAKA BANK LIMITED,KARB0000625,MARTHANDAM,"NO.5/41, NMN PLAZA, MARKET ROAD, MARTHANDAM - 629165",KANYAKUMARI,MARTHANDAM,TAMIL NADU,8903501780
586,KARNATAKA BANK LIMITED,KARB0000626,NOIDA-SECTOR FIFTY ONE,"B1 A/16, B-BLOCK MARKET, SECTOR-51, NOIDA-201301",GAUTHAM BUDDH NAGAR DISTRICT,NOIDA,UTTAR PRADESH,0
587,KARNATAKA BANK LIMITED,KARB0000627,PALGHAR,"ST NO.52/1,ST.JOHN COMMERCIAL COMPLEX, VEVOOR-MANOR ROAD, PALGHAR(EAST)-401404",PALGHAR,PALGHAR,MAHARASHTRA,9920056636
588,KARNATAKA BANK LIMITED,KARB0000628,PUNE-BANER,"GROUND FLOOR,SY NO.106,OPP. HOTEL SADANAND, NEAR D-MART MAIN ROAD,BANER - 411045",PUNE,PUNE,MAHARASHTRA,9850069753
589,KARNATAKA BANK LIMITED,KARB0000629,PALAKKAD,"D.NO.18/248,M.R.HERITAGE, PALAT JUNCTION, WEST FORT ROAD, PALAKKAD-678013",PALAKKAD,PALAKKAD,KERALA,9738873743
590,KARNATAKA BANK LIMITED,KARB0000630,MULKI,"D.NO.55/741,PUNAROOR TOURIST HOME, NH66, MULKI-574154, MANGALUR TALUK",DAKSHINA KANNADA,MANGALURU,KARNATAKA,9480842380
591,KARNATAKA BANK LIMITED,KARB0000631,LAKSHMESHWAR,"D.NO.5307/B/1B,BUS STAND ROAD,LAKSHMESHWAR,SHIRAHATTI TALUK",GADAG,LAKSHMESHWAR,KARNATAKA,233970
592,KARNATAKA BANK LIMITED,KARB0000632,MADANAPALLE,"D.NO.2/250-B-F&PRN TOWERS, KADIRI ROAD,MADANAPALLE",CHITTOR,MADANAPALLE,ANDHRA PRADESH,227277
593,KARNATAKA BANK LIMITED,KARB0000633,NEW DELHI-RAJOURI GARDEN,"D.NO.J-3/196,GROUND FLOOR,NEHRU MARKET,RAJOURI GARDEN, NEW DELHI-110027",NEW DELHI,NEW DELHI,DELHI,23417591
594,KARNATAKA BANK LIMITED,KARB0000634,LUDHIANA-CHANDIGARH ROAD,"GROUND FLOOR,SCO NO.23,SECTOR NO.32-A,CHANDIGARH ROAD,LUDHIANA-141010",LUDHIANA,LUDHIANA,PUNJAB,2539943
595,KARNATAKA BANK LIMITED,KARB0000635,NAVI MUMBAI-AIROLI,"SHOP NO.02 TO 06,GROUND FLOOR,VENUS CO-OP HOUSING SOCIETY LTD, PLOT NO.27,SECTOR6,NAVI MUMBAI-AIROLI - 400708",THANE,NAVI MUMBAI,MAHARASHTRA,8291974192
596,KARNATAKA BANK LIMITED,KARB0000636,MALAMACHANAHALLI G.P,"FIRST FLOOR,MPCS BUILDING,MALAMACHANAHALLI VILLAGE, MALAMACHANAHALLI G.P.-562102 SIDLAGHATTA TALUK",CHIKKABALLAPURA,CHIKKABALLAPURA,KARNATAKA,9449498325
597,KARNATAKA BANK LIMITED,KARB0000637,NAVI MUMBAI-NERUL EAST,"GROUND FLOOR,ASHRAYA,SECTOR 19,PLOT NO.92,NERUL(E),NAVI MUMBAI-400706",NAVI MUMBAI,MUMBAI,MAHARASHTRA,0
598,KARNATAKA BANK LIMITED,KARB0000638,NAVI MUMBAI- KARANJADE,"PLOT NO.47 & 48,SHOP NO.3,4&5,SECTOR 3,NAVI MUMBAI-KARANJADE-410206,PANVEL TALUK",RAIGAD,NAVI MUMBAI- KARANJADE,MAHARASHTRA,0
599,KARNATAKA BANK LIMITED,KARB0000639,NEW DELHI-GREEN PARK EXTENSION,"S-9,UPHAAR CINEMA COMPLEX,NEW DELHI-GREEN PARK EXTENSION, NEW DELHI-110016",SOUTH DELHI,NEW DELHI,DELHI,0
600,KARNATAKA BANK LIMITED,KARB0000640,PAYYANNUR,"FIRST FLOOR,CITY TOWER,NEW BUS STAND ROAD,NEW PAYYANNUR MUNCIPALITY,PAYYANNUR-670307",KANNUR,PAYYANNUR,KERALA,0
601,KARNATAKA BANK LIMITED,KARB0000641,KOLLAM QUILON KERALA,"MC 151447,IST FLOOR,BRIGHT STAR PROPERTIES ASRAMAM ROAD,KOLLAM, PIN - 691001",KOLLAM,KOLLAM,KERALA,2753917
602,KARNATAKA BANK LIMITED,KARB0000642,LONI KALBHOR,"SHOP NO.8,9,10,11,12&13,PUNE-SOLAPUR HIGHWAY,LONI-KALBHOR-421201,HAVELI TALUK",PUNE,LONI KALBHOR,MAHARASHTRA,0
603,KARNATAKA BANK LIMITED,KARB0000643,NASIK - INDIRA NAGAR,"GROUND FLOOR, SHOP NO.1&2,SAI VILLA APARTMENT,PLOT NO.2/B,WADALA-PATHARDI,INDIRA NAGAR,NASIK - 422009",NASIK,NASIK,MAHARASHTRA,9168626833
604,KARNATAKA BANK LIMITED,KARB0000644,MIYAPADAVU,"SY.NO.P-193/14-2,NEAR V V H S SCHOOL,MIYAPADAVU-671323, MEENJA GP,MANJESHWAR TALUK",KASARGOD,MIYAPADAVU,KERALA,0
605,KARNATAKA BANK LIMITED,KARB0000645,MAKANAHALLI,"NO.4,JADIGENAHALLI HOBLI,MAKANAHALLI-562114,VAGATA GP,HOSKOTE TALUK",BENGALURU RURAL,BENGALURU,KARNATAKA,8861786826
606,KARNATAKA BANK LIMITED,KARB0000646,NAGPUR-MANISH NAGAR,"D.NO.S-4,S-5&G-2, SHRIRAM RESIDENCY, RAJESHWARI PARK, T-POINT, MANISH NAGAR, NAGPUR-440034",NAGPUR,MUMBAI,MAHARASHTRA,0
607,KARNATAKA BANK LIMITED,KARB0000647,MALADI VILLAGE,"ANANTHESHWARA TRADERS COMPLEX, KOLPEDABAIL, MANGALURU-DHARMASTHALA ROAD, MALADI VILLAGE AND GP-574233, BELTHANGADY TALUK",DAKSHIN KANNAD,MALADI GP,KARNATAKA,0
608,KARNATAKA BANK LIMITED,KARB0000648,JAIPUR MALVIYA NAGAR,"GROUND FLOOR, DNO.E-55, PREMKRIPA, GIRDHAR MARG, MALVIYA NAGAR, JAIPUR-302017",JAIPUR,JAIPUR,RAJASTHAN,0
609,KARNATAKA BANK LIMITED,KARB0000649,MUDUSHEDDE,"SY.NO.107/1P1, MUDUSHEDDE VILLAGE & GP-575028, MANGALURU TALUK, D.K. DISTRICT",DAKSHIN KANNAD,MANGALURU,KARNATAKA,0
610,KARNATAKA BANK LIMITED,KARB0000650,REGIONAL OFFICE TUMAKURU,"FIRST FLOOR, SIDDASHREE BHAVANA, 364A, WARD NO 19, SIDDAGANGA EXTENSION, B H ROAD, TUMAKURU 572102",TUMAKURU,TUMAKURU,KARNATAKA,0
611,KARNATAKA BANK LIMITED,KARB0000651,RAICHUR,"PATEL ROAD,BRESTWARPET,11-9-14,SHREE HOTEL COMPLEX,RAICHUR, PIN - 584101",RAICHUR,RAICHUR,KARNATAKA,2255073
612,KARNATAKA BANK LIMITED,KARB0000652,RAMANAGARAM,"490/1731,IST FLOOR,DR.S.L THIMMAIAH COMPLEX OLD BUS STAND,RAMANAGARAM, PIN - 571511",BANGALORE-RURAL,RAMANAGARAM,KARNATAKA,27274668
613,KARNATAKA BANK LIMITED,KARB0000653,RATTIHALLI,"IST FLOOR,SREE LAKSHMI VENKATESH,NEAR OLD BUS STAND,RATTIHALLI, PIN - 581116",HAVERI,RATTIHALLI,KARNATAKA,286229
614,KARNATAKA BANK LIMITED,KARB0000654,RUDRAPATNA,"NAGA NILAYA,RUDRAPATNA, PIN - 573150",HASSAN,RUDRAPATNA,KARNATAKA,225251
615,KARNATAKA BANK LIMITED,KARB0000655,RAMAKRISHNAPURA,"SARVASIDDI BEGAR - KALMANE ROAD  THIRTHAMUTTUR POST RAMAKRISHNAPURA , PIN - 577415",SHIMOGA,RAMAKRISHNAPURA,KARNATAKA,255002
616,KARNATAKA BANK LIMITED,KARB0000656,RANEBENNUR,"IST FLOOR,P.B.NAIK BUILDING,STATION ROAD,RANEBENNUR, PIN - 581115",HAVERI,RANEBENNUR,KARNATAKA,267355
617,KARNATAKA BANK LIMITED,KARB0000657,RAJMUNDRY AP,"DOOR NO.46-11-31,OPP.TOBACO BOARD OFFICE,DANAVAIPETA,RAJAHMUNDRY, PIN - 533103",EAST GODAVARI,RAJAHMUNDRY,ANDHRA PRADESH,2460697
618,KARNATAKA BANK LIMITED,KARB0000658,RAJKOT,"MANGAL KIRAN COMPLEX,RAMDHAM PLOT,KALAWAD ROAD,RAJKOT, PIN - 360005",RAJKOT,RAJKOT,GUJARAT,2583325
619,KARNATAKA BANK LIMITED,KARB0000659,RAIPUR CHATTISGARH,"PLOT NO.2,TAANK BUSINESS TOWER JAIL ROAD,RAIPUR, PIN - 492009",RAIPUR,RAIPUR,CHHATTISGARH,2880021
620,KARNATAKA BANK LIMITED,KARB0000660,RANCHI JHARKAND,"NO.5,MAIN ROAD,OPP.RANCHI CLUB,RANCHI, PIN - 834001",RANCHI,RANCHI,JHARKHAND,2331689
621,KARNATAKA BANK LIMITED,KARB0000661,RAIGARH,"GOWRISHANKAR MANDIR ROAD,OPP.AGROHA BHAVAN,RAIGARH, PIN - 496001",RAIGARH,RAIGARH,CHHATTISGARH,220435
622,KARNATAKA BANK LIMITED,KARB0000662,RAJARHAT,"FIRST FLOOR, ATGHORA  RAJARHAT NEW TOWN ROADNEAR CHINAR PARKRAJARHAT - KOLKATA, PIN - 700136",KOLKATA,RAJARHAT,WEST BENGAL,25709602
623,KARNATAKA BANK LIMITED,KARB0000663,ROURKELA,"NEAR GRAND BAZAR, KACHERY ROAD, ROURKELA-769012, ODISHA",ROURKELA,ROURKELA,ODISHA,2500257
624,KARNATAKA BANK LIMITED,KARB0000664,RAJENDRANAGAR,"GROUND FLOOR, BESIDE PILLAR NO. 210, M Q SPLENDOUR, RAJENDRANAGAR, HYDERABAD - 500048",RANGA REDDY,HYDERABAD,ANDHRA PRADESH,24017755
625,KARNATAKA BANK LIMITED,KARB0000665,ROHTAK,"NARAIN COMPLEX, CIVIL LINES, ROHTAK-124001",ROHTAK,ROHTAK,HARYANA,255409
626,KARNATAKA BANK LIMITED,KARB0000666,REVA GROUP OF EDUCATIONAL INSTITUTIONS,"REVA GROUP OF EDUCATIONAL INSTITUTIONS, JALAHOBLI, BAGALUR CROSS, YELAHANKA, BANGALORE - 560064",BANGALORE,YELLAHANKA,KARNATAKA,9900318690
627,KARNATAKA BANK LIMITED,KARB0000667,ROORKEE,"PLOT NO.622,MALVIYA CHOWK,ROORKEE DEHRADUN MAIN ROAD,GANESHPUR PO,ROORKEE 247 667",HARIDWAR,HARIDWAR,UTTARAKHAND,275667
628,KARNATAKA BANK LIMITED,KARB0000668,RUDRAPUR,"PLOT NO 7 2, CIVIL LINES, RUDRAPUR 263153 RUDRAPUR TALUK",UDHAM SINGH NAGAR,RUDRAPUR,UTTARAKHAND,7830304846
629,KARNATAKA BANK LIMITED,KARB0000669,DEVPURI,"RAZAS CAPITAL PLAZA,NEW DHAMTRI ROAD,NH-43,LALPUR FRUIT MARKET,DEVPURI,RAIPUR-492105",RAIPUR,DEVPURI,CHANDIGARH,8093731433
630,KARNATAKA BANK LIMITED,KARB0000670,PALLADAM,"D.NO.216, TRICHY KOVAI MAIN ROAD, PALLADAM-641664",TIRUPUR,TIRUPUR,TAMIL NADU,0
631,KARNATAKA BANK LIMITED,KARB0000671,MANTRALAYAM,"NEAR SRI RAGHAVENDRA SWAMY MUTT MAHADWARA MAIN ROAD, MANTRALAYAM-518345",KURNOOL,KURNOOL,ANDHRA PRADESH,0
632,KARNATAKA BANK LIMITED,KARB0000672,KENDALBAIL-HONNETHALU GP,"KUNDADRI-GUDDEKERI ROAD, HONNETHALU VILLAGE-577411, THIRTHAHALLI TQ",SHIVAMOGGA,THIRTHAHALLI,KARNATAKA,0
633,KARNATAKA BANK LIMITED,KARB0000673,MYSURU-RAJENDRANAGAR,"NO.8, GROUND FLOOR, MAIN ROAD, RAJENDRA NAGAR, MYSURU-570007",MYSURU,MYSURU,KARNATAKA,0
634,KARNATAKA BANK LIMITED,KARB0000674,KURNOOL-NANDYAL ROAD,"NO. 87-1339, GROUND FLOOR, ENGINEERS COLONY, NANDYAL ROAD, KURNOOL-518002",KURNOOL,KURNOOL,ANDHRA PRADESH,0
635,KARNATAKA BANK LIMITED,KARB0000675,MASKI,"D.NO.1-1-3, GROUND FLOOR, GUNDALLI COMPLEX, SHARANABASAVESHWARA TALKIES ROAD, MASKI-584124",RAICHUR,MASKI,KARNATAKA,0
636,KARNATAKA BANK LIMITED,KARB0000676,KADABAGERE,"D.NO.31/2, GROUND FLOOR, NEAR MUTTARAYANA SWAMY TEMPLE, DASANAPURA HOBLI, KADABAGERE-562130, BENGALURU NORTH TQ",BENGALURU URBAN,KADABAGERE,KARNATAKA,0
637,KARNATAKA BANK LIMITED,KARB0000677,KAGGALIPURA,"NO.8, GROUND FLOOR, SHANTHI ISLAMIA COMPLEX, KANAKAPURA MAIN ROAD, KAGGALIPURA-560082",BENGALURU RURAL,KAGGALIPURA,KARNATAKA,0
638,KARNATAKA BANK LIMITED,KARB0000678,MANGALURU-KAVOOR,"GROUND FLOOR, GAYATHRI TIMBERS, KULUR-KAVOOR ROAD, GANDHINAGAR, KAVOOR, MANGALURU-575015",DAKSHINA KANNADA,MANGALURU,KARNATAKA,0
639,KARNATAKA BANK LIMITED,KARB0000679,HYDERABAD-HAFEEZPET,"NO.1-115/90/1,GROUND FLOOR,80 FEET ROAD, MANJIRA PIPELINE ROAD, VINAYAKA NAGAR, MIYAPUR, HAFEEZPET, HYDERABAD-500049",RANGAREDDY,HYDERABAD,TELANGANA,0
640,KARNATAKA BANK LIMITED,KARB0000680,HYDERABAD-GACHIBOWLI,"PLOT NO.50, SY.NO.50, GROUND FLOOR, AYYAPPA ARCADE, JANARDHANA HILLS, NARS BOYS SCHOOL ROAD, GACHIBOWLI, HYDERABAD-500032",HYDERABAD,HYDERABAD,TELANGANA,0
641,KARNATAKA BANK LIMITED,KARB0000681,PENUGONDA,"D.NO.19-114. GROUND FLOOR, SIVALINGAM STREET, GANDHIBOMMA ROAD, OPP.CANARA BANK, PENUGONDA-534320",WEST GODAVARI,PENUGONDA,ANDHRA PRADESH,0
642,KARNATAKA BANK LIMITED,KARB0000682,RAMASANDRA,"D.NO.6,KENGERI HOBLI,SULIKERE GRAMA PANCHAYATH,RAMASANDRA-560060, BENGALURU URBAN DISTRICT, KARNATAKA STATE",BENGALURU URBAN,BENGALURU URBAN,KARNATAKA,0
643,KARNATAKA BANK LIMITED,KARB0000683,MYSURU-RAMANUJA ROAD,"D.NO.353,353/1,GROUND FLOOR, JSS DOCTOR QUARTERS COMPLEX, RAMANUJA ROAD, MYSURU- 570004",MYSURU,MYSURU,KARNATAKA,0
644,KARNATAKA BANK LIMITED,KARB0000684,MORBI,"SHOP NO. G-5,G-6 & G-7,PLOT NO 2, GROUND FLOOR, B WING, ISHAN CERAMIC ZONE, OPP.SHAKTHI CHAMBERS,LALPAR ROAD, MORBI-363642",RAJKOT,MORBI,RAJASTHAN,0
645,KARNATAKA BANK LIMITED,KARB0000685,NADUGODU,"SY.NO 13/5A1P1,MANGALURU-KINNIGOLI MAIN ROAD,AJAAR,NADUGODU,KATEEL-574148,MANGALURU TALUK",DAKSHINA KAANNADA,KATEEL,KARNATAKA,0
646,KARNATAKA BANK LIMITED,KARB0000693,SECUNDERABAD-ALWAL,"PLOT NO-2, MAIN ROAD, NEAR INDIRA CHOWK, ALWAL-500010, MALKAJIGIRI TALUK",MEDCHAL,SECUNDERABAD,TELANGANA,0
647,KARNATAKA BANK LIMITED,KARB0000694,SREEKARYAM,"D.NO.5.1428(1), CHERUVAKKAL ULLOR AKKULAM SREEKARYAM ROAD, SREEKARYAM-685017",THIRUVANANTHAPURAM,THIRUVANANTHAPURAM,KERALA,0
648,KARNATAKA BANK LIMITED,KARB0000695,SIRWAR,"SHOPNO.12-138/10, JSS COMPLEX, MAIN ROAD, SIRWAR-584129, MANVI TALUK",RAICHUR,HUBBALLI,KARNATAKA,0
649,KARNATAKA BANK LIMITED,KARB0000696,SURAT-ADAJAN,"SHOP NO.3,SAPPHIRE BUSINESS HUB,GREEN CITY ROAD,ADAJAN",SURAT,SURAT,GUJARAT,2363063
650,KARNATAKA BANK LIMITED,KARB0000697,SILIGURI S F ROAD,"PLOT NO.3229,ARIHANT APARTMENT, BESIDE MAHESHWARI SEVA SADAN, S F ROAD, SILIGURI - 734005",DARJEELING,SILIGURI,WEST BENGAL,7699996678
651,KARNATAKA BANK LIMITED,KARB0000698,SHIRALKOPPA,"M.N.R TOWER, DNO.2257, GANDHI NAGAR, MAIN ROAD, SHIRALKOPPA-577428, SHIKARIPURA TALUK",SHIVAMOGGA,SHIRALKOPPA,KARNATAKA,0
652,KARNATAKA BANK LIMITED,KARB0000699,SOMESHWARA UCHILA,"GROUND FLOOR, NH 66, SOMESHWARA UCHILA, 575023, MANGALURU TALUK, DAKSHINA KANNADA DIST",DAKSHINA KANNADA,MANGALURU,KARNATAKA,0
653,KARNATAKA BANK LIMITED,KARB0000700,RO MYSORE,"#561,NEW KANTHARAJE URS ROAD,KUVEMPUNAGAR,MYSORE, PIN - 570009",MYSORE,MYSORE,KARNATAKA,2343062
654,KARNATAKA BANK LIMITED,KARB0000701,SALIGRAMA,"D.NO.1/156,SRI GANESH KRIPA,CANAL STREET K.R.NAGAR,SALIGRAMA, PIN - 571604",MYSORE,SALIGRAMA,KARNATAKA,283329
655,KARNATAKA BANK LIMITED,KARB0000702,SATHANUR,"451A,IST FLOOR,S.D.S.BUILDING,SANTHEMELA,SATHANUR, PIN - 562126",BANGALORE-RURAL,SATHANUR,KARNATAKA,27551226
656,KARNATAKA BANK LIMITED,KARB0000703,SAVANUR,"IST FLOOR,R S HAVANGI BUILDING,MARKET ROAD,SAVANUR, PIN - 581118",HAVERI,SAVANUR,KARNATAKA,241638
657,KARNATAKA BANK LIMITED,KARB0000704,SHIKARIPURA,"SADGURU COMPLEX,M.S.ROAD,SHIKARIPURA, PIN - 577427",SHIMOGA,SHIKARIPURA,KARNATAKA,222232
658,KARNATAKA BANK LIMITED,KARB0000705,SHIMOGA MAIN NEHRU ROAD,"NO 5/105,M.G.PALACE,GOPI CIRCLE,SHIMOGA, PIN - 577201",SHIMOGA,SHIMOGA,KARNATAKA,273377
659,KARNATAKA BANK LIMITED,KARB0000706,SIDDAPURA,"SHREE DURGA BUILDING,MAIN ROAD,SIDDAPURA, PIN - 576229",UDUPI,SIDDAPURA,KARNATAKA,284234
660,KARNATAKA BANK LIMITED,KARB0000707,SIRSI,"C.T.S.578,D.NO.139,""SHREE MADHWA"",C.P.BAZAR,SIRSI, PIN - 581401",UTTAR KANNADA,SIRSI,KARNATAKA,226418
661,KARNATAKA BANK LIMITED,KARB0000708,SRINGERI,"BHARATHI STREET,SRINGERI, PIN - 577139",CHICKMAGALUR,SRINGERI,KARNATAKA,250126
662,KARNATAKA BANK LIMITED,KARB0000709,SRIRANGAPATNA,"MAIN ROAD,SRIRANGAPATNA, PIN - 571438",MANDYA,SRIRANGAPATNA,KARNATAKA,252033
663,KARNATAKA BANK LIMITED,KARB0000710,SULIBELE,"IST FLOOR,PRAKASH COMPLEX,MAINROAD,SULIBELE,HOSKOTE TALUK, PIN - 562129",BANGALORE-RURAL,SULIBELE,KARNATAKA,27951226
664,KARNATAKA BANK LIMITED,KARB0000711,SUNTIKOPPA,"KARNATAKA BANK BUILDING,MADAPUR STREET,SUNTIKOPPA, PIN - 571237",KODAGU,SUNTICOPPA,KARNATAKA,262472
665,KARNATAKA BANK LIMITED,KARB0000712,SAGAR,"FIRST FLOOR,UDUCHANADA BASAPPA COMPLEX,MARKET ROAD,SAGAR, PIN - 577401",SHIMOGA,SAGAR,KARNATAKA,229913
666,KARNATAKA BANK LIMITED,KARB0000713,SHORAPUR,"KRISHNA COMPLEX,1ST FLOOR,NEW DARBAR MAIN ROAD,SHORAPUR, PIN - 585224",GULBARGA,SHORAPUR,KARNATAKA,256028
667,KARNATAKA BANK LIMITED,KARB0000714,SULLIA,"SHREE SATHYA SAI COMPLEX,M S RAO ROAD,SULLIA, PIN - 574239",DAKSHINA KANNADA,SULLIA,KARNATAKA,230376
668,KARNATAKA BANK LIMITED,KARB0000715,SOLAPUR MAHARASHTRA,"BALI-VES,D.NO.1,TALE BUILDING,WEST MANGALWARPETH,SOLAPUR, PIN - 413002",SOLAPUR,SOLAPUR,MAHARASHTRA,2322681
669,KARNATAKA BANK LIMITED,KARB0000716,SALEM FORT MAIN TAMILNADU,"IST FLOOR  DIVYA TOWERS,FORT MAIN ROAD,SALEM MAIN  SALEM, PIN - 636001",SALEM,SALEM,TAMIL NADU,2211412
670,KARNATAKA BANK LIMITED,KARB0000717,UPPINAKOTE,"IST FLOOR,SRI LAXMI TOWERS,UPPINAKOTE, PIN - 576213",UDUPI,UPPINAKOTE,KARNATAKA,2561051
671,KARNATAKA BANK LIMITED,KARB0000718,SANGUEM GOA,"MORAJKAR'S BUILDING,BEHIND OUR LADY OF MIRACLES CHURCH,GOA-SANGUEM, PIN - 403704",GOA-SOUTH,SANGUEM,GOA,2604257
672,KARNATAKA BANK LIMITED,KARB0000719,SASVEHALLI,"SHARADA NILAYA,NEAR BUS STAND,SASVEHALLI, PIN - 577224",DAVANGERE,SASVEHALLI,KARNATAKA,263636
673,KARNATAKA BANK LIMITED,KARB0000720,SATARA,"531/A/1A,YASHODHAN COMPLEX,OPP.Y C SCIENCE COLLEGE,KOLHAPUR ROAD,SADAR BAZAR,SATARA, PIN - 415001",SATARA,SATARA,MAHARASHTRA,221585
674,KARNATAKA BANK LIMITED,KARB0000721,SECUNDERABAD,"M C H NO:1-1-39,""SEVEN HILLS"",SAROJINI DEVI ROAD,SECUNDERABAD, PIN - 500003",HYDERABAD,SECUNDERABAD,ANDHRA PRADESH,27813280
675,KARNATAKA BANK LIMITED,KARB0000722,SHIRVASE,"NO.1/102,SHIRVASE, PIN - 577130",CHICKMAGALUR,SHIRVASE,KARNATAKA,245034
676,KARNATAKA BANK LIMITED,KARB0000723,SHIRLAL,"SRI BRAHMALINGESHWARA KRIPA,P.O.HADIANGADY,SHIRLAL, PIN - 574101",UDUPI,SHIRLAL,KARNATAKA,283237
677,KARNATAKA BANK LIMITED,KARB0000724,RMC YARD SHIMOGA,"1ST FLOOR,12/13-A BLOCK,A P M C YARD,SAGAR ROAD,SHIMOGA, PIN - 577204",SHIMOGA,SHIMOGA,KARNATAKA,250651
678,KARNATAKA BANK LIMITED,KARB0000726,SURAT GUJARAT,"K.G.CHAMBERS,OPP.GUJARAT SAMACHAR PRESS,UDHNA DARWAJA RING ROAD,SURAT, PIN - 395002",SURAT,SURAT,GUJARAT,2363063
679,KARNATAKA BANK LIMITED,KARB0000727,SHAHAPUR,"1ST FLOOR,KOLLUR TOWER,BANGALORE-BIDAR ROAD,DEVINAGAR,SHAHAPUR, PIN - 585223",GULBARGA,SHAHPUR,KARNATAKA,243511
680,KARNATAKA BANK LIMITED,KARB0000728,SAKLESHPUR,"IST FLOOR,GANDHARVA BUILDING,B M ROAD,SAKLESHPUR, PIN - 573134",HASSAN,SAKLESHPUR,KARNATAKA,245094
681,KARNATAKA BANK LIMITED,KARB0000729,SANGLI,"329,DAMODAR COMPLEX,OPP.MARKET YARD,MIRAJ ROAD,SANGLI, PIN - 416416",SANGLI,SANGLI,MAHARASHTRA,2320546
682,KARNATAKA BANK LIMITED,KARB0000730,SALEM FAIRLANDS,"GROUND FLOR,108/38C-IASHANTHIPLAZA, BRINDAVAN ROAD,SALEM-FAIRLANDS, PIN - 636004",SALEM,SALEM,TAMIL NADU,2447765
683,KARNATAKA BANK LIMITED,KARB0000731,SULLIA-N M C (E.C),"NEHRU MEMORIAL COLLEGE CAMPUS,KURUNJE BAGH, PIN - 574327",DAKSHINA KANNADA,SULLIA,KARNATAKA,230576
684,KARNATAKA BANK LIMITED,KARB0000732,SAVALANGA ROAD SHIMOGA,"KARNATAKA BANK BUILDING SAVALANGA ROAD,SHIMOGA, PIN - 577201",SHIMOGA,SHIMOGA,KARNATAKA,275945
685,KARNATAKA BANK LIMITED,KARB0000733,A S RAO NAGAR HYDERABAD,"GROUND FLOOR,PLOT NO.5,SURVEY NO.498&499,TYAGARAJA NAGAR,DR.A.S.RAO NAGARSECUNDERABAD, PIN - 500062",HYDERABAD,HYDERABAD,ANDHRA PRADESH,27136887
686,KARNATAKA BANK LIMITED,KARB0000734,SAJIPAMUDA,"MERKAR-KONAJE ROAD,SUBASHNAGAR,SAJIPA-MUDA,SAJIPAMUDA VILLAGE & POST,BANTWAL TQ., PIN - 574231",DAKSHINA KANNADA,SAJIPAMUDA,KARNATAKA,271722
687,KARNATAKA BANK LIMITED,KARB0000735,SILIGURI,"GROUND FLOOR,PRATAP MARKET,OPP.WALL FORT,SEVOKE ROAD,SILIGURI, PIN - 734001",JALPAIGURI,SILIGURI,WEST BENGAL,2544984
688,KARNATAKA BANK LIMITED,KARB0000736,SERILINGAMPALLY,"GROUND FLOOR PLOT NO.12KRUTHIKA LAY OUT, OPP.IMAGE GARDEN FUNCTION HALL,MADHAPUR HYDERABAD, PIN - 500081",HYDERABAD,HYDERABAD,ANDHRA PRADESH,23119777
689,KARNATAKA BANK LIMITED,KARB0000737,SINDAGI,"GROUND FLOOR, ""BHAGYAVANTHI COMPLEX"",SITE NO.2329, BIJAPUR - SINDAGI ROAD, SINDAGI - 586128",BIJAPUR,SINDAGI,KARNATAKA,221184
690,KARNATAKA BANK LIMITED,KARB0000738,SIRUGUPPA,"FIRST FLOOR,SRINIVAS TOURIST HOME,ADONI ROAD,SIRUGUPPA-583121, BELLARY DISTRICT, PIN - 583121",BELLARY,SIRUGUPPA,KARNATAKA,222121
691,KARNATAKA BANK LIMITED,KARB0000739,SHIROOR,"N.H.66, NAGAPPA KAMATH COMPLEX, SHIROOR-576228, KUNDAPUR TALUK, UDUPI DIST., PIN - 576228",UDUPI,SHIROOR,KARNATAKA,253090
692,KARNATAKA BANK LIMITED,KARB0000740,SIRA,"GROUND FLOOR, RAJA COMPLEX, DR. B.R. AMBEDKAR ROAD, K.R.EXTENSION, SIRA - 572137, TUMKUR DIST.",TUMKUR,SIRA,KARNATAKA,277740
693,KARNATAKA BANK LIMITED,KARB0000741,VINOBANAGAR,"AMMA ARCADE, POLICE CHOWKI, VINOBANAGAR, SHIMOGA - 577204",SHIMOGA,SHIMOGA,KARNATAKA,266822
694,KARNATAKA BANK LIMITED,KARB0000742,SRINIVASAPURA,"SRI BALAJI MILLENIUM, OPP: GOVT. WOMENS' COLLEGE, SRINIVASAPURA , KOLAR - 563135",KOLAR,KOLAR,KARNATAKA,245516
695,KARNATAKA BANK LIMITED,KARB0000743,SHIRVA,"MARINA GRACE BUILDING, MAIN ROAD, SHIRVA - 574116",UDUPI,SHIRVA,KARNATAKA,2576250
696,KARNATAKA BANK LIMITED,KARB0000744,SORABA,"DIVYADARSHAN NILAYA MAIN ROAD,SORABA577 429,SORABA TALUK",SHIMOGA,SHIMOGA,KARNATAKA,272078
697,KARNATAKA BANK LIMITED,KARB0000745,SHIMOGA SHANKAR MUTT CIRCLE,"PRABHU COMPLEX,B H ROAD,SHANKAR MUTT CIRCLE,SHIMOGA.577 202",SHIMOGA,SHIMOGA,KARNATAKA,9481285370
698,KARNATAKA BANK LIMITED,KARB0000746,SINDHANUR,"CMC NO 6 1 2121, RAICHUR GANGAVATHI ROAD,SINDHANUR 584128",RAICHUR,SINDHANUR,KARNATAKA,8197568161
699,KARNATAKA BANK LIMITED,KARB0000747,SAMBALPUR,"PUROHIT COMPLEX, BUDHA RAJA AREA MAIN ROAD, SAMBALPUR 768004",SAMBALPUR,SAMBALPUR,ODISHA,9438493125
700,KARNATAKA BANK LIMITED,KARB0000748,SAKHARAYAPATNA,"K M ROAD,NEAR POLICE STATION,SAKHARAYAPATNA 577 135,KADUR TQ",CHICKMAGALUR,CHICKMAGALUR,KARNATAKA,9480842325
701,KARNATAKA BANK LIMITED,KARB0000749,SHIVAMOGGA GOPALA EXTENSION,"MAIN ROAD, NEAR GOPALA MAIN CITY BUS STOP, GOPALA, SHIVAMOGGA, 577202",SHIVAMOGGA,SHIVAMOGGA,KARNATAKA,0
702,KARNATAKA BANK LIMITED,KARB0000750,SRIKAKULAM,"GROUND FLOOR, D NO 12 14 10, G T ROAD, NEAR CHANDRA MAHAL, SRIKAKULAM 532001, SRIKAKULAM DIST, ANDHRAPRADESH STATE",SRIKAKULAM,SRIKAKULAM,ANDHRA PRADESH,0
703,KARNATAKA BANK LIMITED,KARB0000751,TALIKOTI,"IST FLOOR,VITHAL MANDIR COMPLEX,MAIN ROAD,TALIKOTI, PIN - 586214",BIJAPUR,TALIKOTI,KARNATAKA,266262
704,KARNATAKA BANK LIMITED,KARB0000752,TARIKERE,"SRINGERI SHARADA MUTT BUILDING,B H ROAD,TARIKERE, PIN - 577228",CHICKMAGALUR,TARIKERE,KARNATAKA,222226
705,KARNATAKA BANK LIMITED,KARB0000753,THOKKOTTU ULLAL,"MANCHILA BUILDING,THOKKOTTU-ULLAL, PIN - 575020",DAKSHINA KANNADA,THOKKOTU,KARNATAKA,2464241
706,KARNATAKA BANK LIMITED,KARB0000754,TIPTUR MAIN,"IST FLOOR,ALLAMMAJJI COMPLEX,B H ROAD,TIPTUR, PIN - 572201",TUMKUR,TIPTUR,KARNATAKA,251962
707,KARNATAKA BANK LIMITED,KARB0000755,TRASI,"196/A,FIRST FLOOR,DON COMPLEX,MAIN ROAD,NH17,TRASI, PIN - 576235",UDUPI,TRASI,KARNATAKA,265128
708,KARNATAKA BANK LIMITED,KARB0000756,VIVEKANANDA ROAD TUMKUR MAIN,"FIRST FLOOR,MUNDAPPA COMPLEX,VIVEKANANDA ROAD,TUMKUR, PIN - 572101",TUMKUR,TUMKUR,KARNATAKA,2254663
709,KARNATAKA BANK LIMITED,KARB0000757,SOMESHWARAPURAM TUMKUR,"MUNCIPAL NO.2650/1,MAIN ROAD,SOMESWARAPURAM, PIN - 572102",TUMKUR,TUMKUR,KARNATAKA,2252550
710,KARNATAKA BANK LIMITED,KARB0000758,THIRUVANANTHAPURAM KERALA,"S.NO.703/1,1ST FLOOR,MUTHUPPA BUILDING,THAKARAPARAMBU ROAD,PAZHAVANGADI,TIRUVANANDAPURAM, PIN - 695023",THIRUVANANTHAPURAM,THIRUVANANTHAPURAM,KERALA,2473130
711,KARNATAKA BANK LIMITED,KARB0000759,TURUVEKERE,"SIDDARAMANNA COMPLEX,DABBEGATTA ROAD,TURUVEKERE, PIN - 572227",TUMKUR,TURUVEKERE,KARNATAKA,288750
712,KARNATAKA BANK LIMITED,KARB0000760,TADAPATRI AP,"13/256,KANCHANI COMPLEX,C-B ROAD,TADPATRI, PIN - 515411",ANANTHAPUR,TADAPATRI,ANDHRA PRADESH,226988
713,KARNATAKA BANK LIMITED,KARB0000761,TIRUCHIRAPALLI,"72,GROUND FLOOR,7TH CROSS THILLAINAGARTIRUCHIRAPALLY-620008",TRICHY,TRICHY,TAMIL NADU,2740838
714,KARNATAKA BANK LIMITED,KARB0000762,THIRTHAHALLI,"GAJANANACOMPLEX  GANDHI CHOWK THIRTHAHALLI, PIN - 577432",SHIMOGA,THIRTHAHALLI,KARNATAKA,228269
715,KARNATAKA BANK LIMITED,KARB0000763,TIRUVALLA,"KUNNATHUPARAMBIL SHOPING CENTRE,T K ROAD,TIRUVALLA, PIN - 689101",PATHANAMTHITHA,TIRUVALLA,KERALA,2700424
716,KARNATAKA BANK LIMITED,KARB0000764,TIRUPUR MAIN,"184,IST FLOOR,ESWARAN KOVIL STREET,TIRUPUR, PIN - 641604",COIMBATORE,TIRUPUR,TAMIL NADU,2232730
717,KARNATAKA BANK LIMITED,KARB0000765,TIRUPATI,"E B S R COMPLEX,GROUND FLOOR,19-8-85,RAYALA-CHERAVU ROAD,TIRUPATI, PIN - 517501",CHITOOR,TIRUPATHI,ANDHRA PRADESH,2241356
718,KARNATAKA BANK LIMITED,KARB0000766,TIRUPUR PERAMANALLUR ROAD,"D NO 37,PERUMANALLUR ROAD,LAKSHMI NAGAR POST OFFICE,NEAR NEW BUS STAND,TIRUPUR, PIN - 641602",COIMBATORE,TIRUPUR,TAMIL NADU,2481666
719,KARNATAKA BANK LIMITED,KARB0000767,TIPTUR EXTENSION COUNTER,"K R EXTENSION,B.H.ROAD,TIPTUR, PIN - 572201",TUMKUR,TIPTUR,KARNATAKA,251282
720,KARNATAKA BANK LIMITED,KARB0000768,TUMKUR SIT (E.C),"SIDDHAGANGA INSTITUTE OF TECHNOLOGY CAMPUS,TUMKUR, PIN - 572102",TUMKUR,TUMKUR,KARNATAKA,2281041
721,KARNATAKA BANK LIMITED,KARB0000769,TUMKUR HMS,"SHANTHALA COMPLEX,N 435/A,B.H.ROAD,BATAWADI,TUMKUR, PIN - 572103",TUMKUR,TUMKUR,KARNATAKA,2280938
722,KARNATAKA BANK LIMITED,KARB0000770,THANE,"SHOP NO.12 VIHANG GARDEN POKARAN ROAD NO.1 VARTAK NAGARTHANE WEST, PIN - 400606",THANE,MUMBAI,MAHARASHTRA,25444009
723,KARNATAKA BANK LIMITED,KARB0000771,TAMBARAM,"II/I9, ELUMALAI STREETWEST TAMBARAMCHENNAI, PIN - 600045",KANCHEEPURAM,TAMBARAM,TAMIL NADU,23453259
724,KARNATAKA BANK LIMITED,KARB0000772,TORANAGALLU,"GROUND FLOOR, NEAR VITTA SERVICE STATION COMPLEX, BELLARY - HOSPET ROAD, TORANAGALLU - 583123",BELLARY,TORANAGALLU,KARNATAKA,250078
725,KARNATAKA BANK LIMITED,KARB0000773,TANUKU,"D. NO. 30-16-17, SHOP NO. 1,2 & 8, GROUND FLOOR, CRSS TOWERS, VELPUR ROAD, TANUKU - 534211",WEST GODAWARI,TANUKU,ANDHRA PRADESH,220078
726,KARNATAKA BANK LIMITED,KARB0000774,T. NARASIPURA,"D. NO.393, 1ST FLOOR, VIDYODAYA COLLEGE ROAD, T.NARASIPURA - 574124",MYSORE,T.NARASIPURA,KARNATAKA,261062
727,KARNATAKA BANK LIMITED,KARB0000775,THRISSUR,"CAPITAL RADHAS, NEAR PARAMEKKAV TEMPLE, ROUND EAST, THRISSUR - 680001",THRISSUR,THRISSUR,KERALA,2332225
728,KARNATAKA BANK LIMITED,KARB0000776,THALASSERY,"DAS BUILDING,RAILWAY STATION ROAD,THALASSERY 670 101",KANNUR,THALASSERY,KERALA,2321950
729,KARNATAKA BANK LIMITED,KARB0000777,TIRUNELVELI,"D.NO.75 A,THIRIPURA ARCADE TRIVANDRUM HIGH ROAD, PALAYAM KOTTAI TIRUNELVELI 627 002",TIRUNELVELI,TIRUNELVELI,TAMIL NADU,7598138637
730,KARNATAKA BANK LIMITED,KARB0000778,TUMKUR VINOBA NAGAR,"S R S KUKKESRI ARCADE, NEAR GANAPATHI TEMPLE, B H ROAD, VINOBA NAGAR, TUMKUR 572101",TUMKUR,TUMKUR,KARNATAKA,9945954439
731,KARNATAKA BANK LIMITED,KARB0000779,THANDRI G P,"GROUND FLOOR, SALIGRAMA HALLIMYSORE ROAD, THANDRE VILLAGE, MIRLE HOBLI, THANDRE GRAMA PANCHAYATH 571604, K R NAGAR TALUK",MYSURU,THANDRE,KARNATAKA,0
732,KARNATAKA BANK LIMITED,KARB0000780,THANJAVUR,"G 1 NO 2, GROUND FLOOR, SRINIVASAN PILLAI STREET, THANJAVUR, 613001",THANJAVUR,THANJAVUR,TAMIL NADU,0
733,KARNATAKA BANK LIMITED,KARB0000781,TUTICORIN,"D NO 454, VICTORIA EXTENSION ROAD, OPP ANTHONIYAR KOVIL COMMUNITY HALL, TUTICORIN 638002",TUTICORN,TUTICORIN,TAMIL NADU,0
734,KARNATAKA BANK LIMITED,KARB0000782,THAGACHAGUPPE VILLAGE,"NO.2, MYSURU ROAD, THAGACHAGUPPE VILLAGE, K.GOLLAHALLI GP-560074, KUMBALGOD POST.",BENGALURU URBAN,THAGACHAGUPPE,KARNATAKA,0
735,KARNATAKA BANK LIMITED,KARB0000783,THIRUVALLUR,"DNO.53, TNHB MAIN ROAD, KAKALUR BYE-PASS, THIRUVALLUR-602001",THIRUVALLUR,THIRUVALLUR,TAMIL NADU,0
736,KARNATAKA BANK LIMITED,KARB0000784,TENALI,"D.NO.21-1-59,JANDYALAVARI STREET, RAMALINGESWARAPET, NEAR SWARAJ THEATRE, TENALI",GUNTUR,"TENALI,GUNTUR",ANDHRA PRADESH,9703142444
737,KARNATAKA BANK LIMITED,KARB0000785,THAKURLI-EAST,"GROUND FLOOR, SHOP NO.1 TO 5, D WING, SHREE MANGALMURTHI COMPLEX,OPP. NEW 80FT ROAD, BALAJINAGAR, THAKURLI EAST-421201",THANE,THANE,MAHARASHTRA,8291860746
738,KARNATAKA BANK LIMITED,KARB0000786,TIRUPUR-ANUPPARPALAYAM,"D.NO.54/3,GROUND FLOOR,THANEERPANTHAL BUS STOP,AVINASHI ROAD, TIRUPUR-ANUPPARPALAYAM",TIRUPUR,TIRUPUR,TAMIL NADU,9487405086
739,KARNATAKA BANK LIMITED,KARB0000787,TIRUCHIRAPALLI-TIRUVERUMBUR,"D.NO.61/3B,GROUND FLOOR,THANJAVUR MAIN ROAD,AMMAN NAGAR,THIRUVERUMBUR,TIRUCHIRAPALLI-620019",TIRUCHIRAPALLI,TIRUCHIRAPALLI,TAMIL NADU,2740828
740,KARNATAKA BANK LIMITED,KARB0000788,TAVAREKERE,"SITE NO.57&58, MANJUNATHA NAGAR LAYOUT, TAVAREKERE-562130",BENGALURU URBAN,BENGALURU,KARNATAKA,0
741,KARNATAKA BANK LIMITED,KARB0000789,TOTAGERE,"SY NO.50,D.NO 180/164,GROUND FLOOR , TOTAGERE VILLAGE,GOPALAPURA GP,DASANAPURA HOBLI-562123,BENGALURU URBAN DISTRICT,KARNATAKA STATE.",BENGALURU URBAN,DASANAPURA HOBLI,KARNATAKA,0
742,KARNATAKA BANK LIMITED,KARB0000790,VIBHUTHIKERE GP,"B M ROAD, VIBHUTHIKERE GRAMA PANCHAYATH, ARCHAKARAHALLI - 571511, LJOOR (PO)",RAMANAGARAM,RAMANAGARAM,KARNATAKA,27307154
743,KARNATAKA BANK LIMITED,KARB0000791,VIJAYAWADA MAIN AP,"NO.11-25-21,OPP.HINDU HIGH SCHOOL,SUBBARAMIAH STREET,VIJAYAWADA, PIN - 520001",KRISHNA,VIJAYAWADA,ANDHRA PRADESH,2569098
744,KARNATAKA BANK LIMITED,KARB0000792,VISHAKAPATNAM MAIN AP,"D.NO.14-25-41,ST FLOOR,OPP.JAGADAMBA JUNCTION,VISAKHAPATNAM, PIN - 530002",VISAKAPATNAM,VISAKAPATNAM,ANDHRA PRADESH,2568532
745,KARNATAKA BANK LIMITED,KARB0000793,VADODARA GUJARAT,"SURYA KIRAN COMPLEX,OLD PADRA ROAD,VIDUTNAGAR,VADODARA, PIN - 390015",VADADARA,VADODARA,GUJARAT,2321120
746,KARNATAKA BANK LIMITED,KARB0000794,VELLAKOVIL TN,"DOOR NO.692,GROUND FLOOR,NELMUTHU COMPLEX,MATHUR ROAD,VELLAKOVIL,KANGEYAM TALUK, PIN - 638111",ERODE,VELLAKOVIL,TAMIL NADU,262689
747,KARNATAKA BANK LIMITED,KARB0000795,GOVERNORPET VIJAYAWADA,"D.NO.27-12-5,IST FLOOR ALI BAIG STREET,GOVERNORPET,VIJAYAWADA, PIN - 520002",KRISHNA,VIJAYAWADA,ANDHRA PRADESH,2571457
748,KARNATAKA BANK LIMITED,KARB0000796,CBM COMPOUND VISHAKAPATNAM,"9-1-221/A,CBM COMPOUND,NEAR RAMA TALKIES JUNCTION,MADDILAPALEM ROAD,VISAKAPATNAM, PIN - 530003",VISAKAPATNAM,VISAKAPATNAM,ANDHRA PRADESH,2575073
749,KARNATAKA BANK LIMITED,KARB0000797,VIZIANAGARAM AP,"SRI SAI COMPLEX,IST FLOOR,MAYUR JUNCTION,APSRTC BUS STAND ROAD,VIZIANAGARAM, PIN - 535003",VIZIANAGARAM,VIZIANAGARAM,ANDHRA PRADESH,224321
750,KARNATAKA BANK LIMITED,KARB0000798,SHANTIPURAM VIZAG,"D.NO.49-52-4,PLOT NO.26,SHANKARMATH ROAD,SHANTIPURAM,VISAKHAPATNAM, PIN - 530016",VIZIANAGARAM,VIZIANAGARAM,ANDHRA PRADESH,2707966
751,KARNATAKA BANK LIMITED,KARB0000799,VARANASI,"PLOT NO.37/164,IST FLOOR SPICE KCM COMPLEX,BADADEV GODOWLIA,VARANASI, PIN - 221001",VARNASI,VARNASI,UTTAR PRADESH,2404042
752,KARNATAKA BANK LIMITED,KARB0000800,RO MUMBAI,"2ND E BLOCK,""THE METROPOLITAN"",PLOT NO.C26 & 27,BANDRA KURLA COMPLEX,BANDRA EAST,MUMBAI, PIN - 400051",MUMBAI,MUMBAI,MAHARASHTRA,26572746
753,KARNATAKA BANK LIMITED,KARB0000801,UPPUNDA,"3-89,GROUND FLOOR,""MOHANA PADMA NILAYA"",MAIN ROAD,UPPUNDA, PIN - 576232",UDUPI,UPPUNDA,KARNATAKA,256041
754,KARNATAKA BANK LIMITED,KARB0000802,CAR STREET UDUPI,"10-1-1708,BHIMANAKATTE BUILDING,CAR STREET,UDUPI, PIN - 576101",UDUPI,UDUPI,KARNATAKA,2529019
755,KARNATAKA BANK LIMITED,KARB0000803,KUNJIBETTU UDUPI,"LAKSHMI GANESH COMPOUND,UDUPI-MANIPAL ROAD,KUNJIBETTU,UDUPI, PIN - 576102",UDUPI,UDUPI,KARNATAKA,2521033
756,KARNATAKA BANK LIMITED,KARB0000804,UDAIPUR,"NO.79,GROUND FLOOR,GOVIND BHAWAN,CHETAK MARG.CHETAK CIRCLE,UDAIPUR, PIN - 313001",UDAIPUR,UDAIPUR,RAJASTHAN,2416348
757,KARNATAKA BANK LIMITED,KARB0000805,UPPAL KALAN,"PLOT NO.663, SLN ARCADE  WARRANGAL HIGHWAY  UPPAL KALAN, PIN - 500039",RANGA REDDY,UPPAL KALAN,ANDHRA PRADESH,27205065
758,KARNATAKA BANK LIMITED,KARB0000806,VELLORE,"PLOT NO.A-I,SUNDARAM COMPLEX  PHASE - II TNHBNEAR COLLECTOR OFFICE SATHUVACHARI,VELLORE, PIN - 632009",VELLORE,VELLORE,TAMIL NADU,2255132
759,KARNATAKA BANK LIMITED,KARB0000807,UJJAIN,"22,SHANKAR MARG  FREEGANG  UJJAIN, PIN - 456010",UJJAIN,UJJAIN,MADHYA PRADESH,2520864
760,KARNATAKA BANK LIMITED,KARB0000808,UPPINANGADY,"GROUND FLOOR, NO. 8/4 A-2, SRI LAKSHMI ARCADE, N.H.48 UPPINANGADY - 574241",DAKSHINA KANNADA,UPPINANGADY,KARNATAKA,250200
761,KARNATAKA BANK LIMITED,KARB0000809,VIJAYAPURA,"MELUR ROAD,VIJAYAPURA,DEVANAHALLI TALUK,562 135",BANGALORE RURAL,BANGALORE,KARNATAKA,27668664
762,KARNATAKA BANK LIMITED,KARB0000810,VASCO,"RAJ TARA,F L GOMES ROAD,NEAR TILAK MAIDAN,VASCO 403 802",SOUTH GOA,GOA,GOA,2501430
763,KARNATAKA BANK LIMITED,KARB0000811,UDEVARA G P,"MAIN ROAD.UDEVARA VILLAGE AND G.P,SAKLESHPURA TALUK,PIN 573127",HASSAN,SAKLESPURA,KARNATAKA,9632269203
764,KARNATAKA BANK LIMITED,KARB0000812,VISAKHAPATNAM GOPALAPATNAM,"D NO 11 155,GROUND FLOOR,GUNNARAJU COMPLEX,GOPALAPATNAM,VISAKHAPATNAM 530027",VISAKHAPATNAM,GOPALAPATNAM,ANDHRA PRADESH,8500976919
765,KARNATAKA BANK LIMITED,KARB0000813,VIJAYAWADA BHAVANIPURAM,"GROUND FLOOR, D NO 76 8 16, CROMBAY ROAD, BHAVANIPURAM, VIJAYAWADA 520012, VIJAYAWADA TALUK",KRISHNA,VIJAYAWADA,ANDHRA PRADESH,0
766,KARNATAKA BANK LIMITED,KARB0000814,VIRAJPET,"JAINS STREER, SIDDAPURA ROAD, VIRAJPET-571218",KODAGU,VIRAJPET,KARNATAKA,9900504304
767,KARNATAKA BANK LIMITED,KARB0000815,VADERAHALLI GP,"NO.1/10,KALATHUR BUILDING,VIDYARANYAPURA POST, VADERAHALLI VILLAGE & GP-560097",BENGALURU URBAN,VADERAHALLI GP,KARNATAKA,0
768,KARNATAKA BANK LIMITED,KARB0000816,UKKADAGATHRI GP,SHRI NANDHI NILAYA MAIN CIRCLE NEAR KARIBASVESHWARA TEMPLE UKKADAGATHRI VILLAGE & GP 581119,DAVANGERE,HARIHARA TALUK,KARNATAKA,9844644065
769,KARNATAKA BANK LIMITED,KARB0000817,VAPI,"SHOP NO.G-13/14/15/16,SY.NO.340/A/1,SAGA CASA,CHALA ROAD,VAPI-396191",VALSAD,VAPI,GUJARAT,0
770,KARNATAKA BANK LIMITED,KARB0000818,UDUPI-CHITPADY,"D.NO.6-4-18A 12, LAXMI TRADE CENTRE, UDUPI-MOODUBELLE ROAD, BEEDINAGUDDE, CHITPADY, UDUPI-576101",UDUPI,UDUPI,KARNATAKA,9591075393
771,KARNATAKA BANK LIMITED,KARB0000819,UDAIPUR-HIRAN MAGRI,"GRAND RATNAM RESIDENCY,SECTOR -4,HIRAN MAGRI,UDAIPUR-313002",UDAIPUR,UDAIPUR,RAJASTHAN,0
772,KARNATAKA BANK LIMITED,KARB0000826,WARANGAL,"H.NO.12-2-26 & 12-2-8, IST FLOOR,JANDHYAM COMPLEX,S.V.N.ROAD, WARANGAL, PIN - 506002",WARANGAL,WARANGAL,ANDHRA PRADESH,2442332
773,KARNATAKA BANK LIMITED,KARB0000850,REGIONAL OFFICE UDUPI,"2ND FLOOR, SHANTHA, KINNIMULKY, UDUPI, 576101, UDUPI TALUK",UDIPI,UDIPI,KARNATAKA,0
774,KARNATAKA BANK LIMITED,KARB0000851,YENIGADALE,"GROUNDFLOOR,CHINTAMANI CHELUR ROAD,YENIGADALE, PIN - 563156",KOLAR,YENIGADALE,KARNATAKA,256043
775,KARNATAKA BANK LIMITED,KARB0000852,YELLAPURA,"FIRST FLOOR,""DREAM CHAMBERS"", NEAR BUS STAND, YELLAPURA - 581359",UTTARA KANNADA,YELLAPURA,KARNATAKA,261422
776,KARNATAKA BANK LIMITED,KARB0000853,YADGIR,"GROUND FLOOR, SHOP NO.1 TO 5, NALWAR-CHITAPUR ROAD, SUBHASH CIRCLE, YADGIR - 588202",YADGIR,YADGIR,KARNATAKA,251599
777,KARNATAKA BANK LIMITED,KARB0000899,ZIRAKPUR,"NO.1&2, VEER COMPLEX, VIP ROAD, ZIRAKPUR-140603",MOHALI,ZIRAKPUR,PUNJAB,0
778,KARNATAKA BANK LIMITED,KARB0000901,UTTARAHALLI,"NEAR SHANTHI SAGAR,S.NO.26/27/28,MAIN UTTARAHALLI MAIN ROAD(SUBRAMANYAPURA ROAD),UTTARAHALLI, PIN - 560061",BANGALORE-URBAN,BANGALORE,KARNATAKA,22955923
779,KARNATAKA BANK LIMITED,KARB0000902,KENGERI,"GROUND FLOOR,NO.1103,1ST MAIN,4TH CROSS,KENGERI SATELLITE TOWN,BANGALORE, PIN - 560060",BANGALORE-URBAN,BANGALORE,KARNATAKA,22955925
780,KARNATAKA BANK LIMITED,KARB0000903,BAREILLY,"NO.112,GROUND FLOOR,DELHI-LUCKNOW MARG,CIVIL LINES,BAREILLY, PIN - 243001",BAREILLY,BAREILLY,UTTAR PRADESH,2511263
781,KARNATAKA BANK LIMITED,KARB0000904,HESARAGHATTA MAIN ROAD,"NO.26,R.M.N.COMPLEX,HESARAGHSTTA MAIN ROAD,BAGALAGUNTE,NAGASANDRA POSTBANGALORE, PIN - 560073",BANGALORE-URBAN,BANGALORE,KARNATAKA,22955927
782,KARNATAKA BANK LIMITED,KARB0000905,BIDADI,"1607/837,GROUND FLOOR NELLIGUDDA TANK ROAD BIDADI, PIN - 562109",RAMANAGARAM,RAMANAGARAM,KARNATAKA,27288196
783,KARNATAKA BANK LIMITED,KARB0000906,BOMMASANDRA,"60A,SURVEY NO.300  JIGANI ROAD BOMMASANDRA INDUSTRIAL AREA  BOMMASANDRA, PIN - 560099",BANGALORE-URBAN,BANGALORE,KARNATAKA,22955813
784,KARNATAKA BANK LIMITED,KARB0000907,CHANDRA LAYOUT,"NO18,IIMAIN,8TH CROSS BASAVESHWAR SOCIETY, BMTC BUS DEPOT ROAD IISTAGE,CHANDRA LAYOUTBANGALORE, PIN - 560040",BANGALORE,BANGALORE,KARNATAKA,22955814
785,KARNATAKA BANK LIMITED,KARB0000908,SADASHIVANAGAR,"NO.393,13TH CROSS NEAR BHASHYAM CIRCLE SADASHIVANAGAR BANGALORE, PIN - 560080",BANGALORE,BANGALORE,KARNATAKA,22955817
786,KARNATAKA BANK LIMITED,KARB0000909,YELAHANKA NEW TOWN,"1234, 7TH B CROSS MOTHER DAIRY ROAD YELAHANKA NEW TOWN  BANGALORE, PIN - 560064",BANGALORE,BANGALORE,KARNATAKA,22955809
787,KARNATAKA BANK LIMITED,KARB0000910,BELLANDUR,"NO89/5,BELLANDUR MAIN ROAD  BELLANDURVARTHUR HOBLI,BANGALORE SOUTH TALUK, PIN - 560035",BANGALORE-URBAN,BANGALORE,KARNATAKA,25740680
788,KARNATAKA BANK LIMITED,KARB0000911,BRAHMAPUR,"GROUND FLOOR ALKAPURI MARKET COMPLEX  DHARAMNAGAR MAIN ROAD, PIN - 760002",GANJAM,BRAHMAPUR,ODISHA,2220034
789,KARNATAKA BANK LIMITED,KARB0000912,BANGALORE - RAGHUVANAHALLI,"GROUND FLOOR, NO. 13, J R PLAZA, NEAR SIDDAGANGA HIGH SCHOOL, KANAKAPURA ROAD, RAGHUVANAHALLI, BANGALORE - 560062",BANGALORE,BANGALORE,KARNATAKA,22955820
790,KARNATAKA BANK LIMITED,KARB0000913,BANGALORE - VARTHUR,"GROUND FLOOR, SURVEY NO. 67, OPPOSITE TO DHARMARAYA SWAMY  TEMPLE, MUTHSANDRA ROAD, VARTHUR,  BANGALORE - 560087",BANGALORE,BANGALORE,KARNATAKA,28538880
791,KARNATAKA BANK LIMITED,KARB0000914,BANGALORE - HEROHALLI,"GROUND FLOOR, ""SURYA COMPLEX"", S.1206, 1ST MAIN, BHARATH NAGAR 2ND STAGE, HEROHALLI WARD, MAGADI ROAD, BANGALORE -560091",BANGALORE,BANGALORE,KARNATAKA,23289451
792,KARNATAKA BANK LIMITED,KARB0000915,BARUIPUR,"FIRST FLOOR, D. NO. 116/7, KULPI ROAD, PODAPUKUR,BARUIPUR - 700144",SOUTH - 24 PARAGANAS,BARUIPUR,WEST BENGAL,24230522
793,KARNATAKA BANK LIMITED,KARB0000916,RAJARAJESHWARINAGAR,"GROUND FLOOR,NO.549,IDEAL HOMES, NEAR RAJARAJESHWARI TEMPLE,RAJARAJESHWARI NAGAR,BANGALORE - 560098",BANGALORE,BANGALORE,KARNATAKA,22955932
794,KARNATAKA BANK LIMITED,KARB0000917,JAYADEV VIHAR,"PLOT NO. 737/2, 1ST FLOOR, JAYADEV VIHAR, BHUBANESHWAR - 751013",BHUBANESHWAR,BHUBANESHWAR,ODISHA,2360174
795,KARNATAKA BANK LIMITED,KARB0000918,BASAVAKALYAN,"MIG-2, CMC NO-8616/2, MAIN ROAD, NEAR HARALAYYA CHOWK, BASAVAKALYAN - 585327, BIDAR DIST.",BIDAR,BASAVAKALYAN,KARNATAKA,252438
796,KARNATAKA BANK LIMITED,KARB0000919,KASAVANAHALLI,"OPPOSITE TO SILVER WOOD REGENCY, KASAVANAHALLI MAIN ROAD, OFF SARJAPURA ROAD, KASAVANAHALLI, BANGALORE - 560035",BANGALORE,BANGALORE,KARNATAKA,25741975
797,KARNATAKA BANK LIMITED,KARB0000920,KASTURINAGAR,"NO. 303, GROUND FLOOR, 2ND MAIN ROAD, KASTURINAGAR, BANGALORE - 560043.",BANGALORE,BANGALORE,KARNATAKA,22955935
798,KARNATAKA BANK LIMITED,KARB0000921,NAGARABHAVI,"80 FEET ROAD, OPP. BWSSB OFFICE, 6TH BLOCK, II STAGE, NAGARABHAVI, BANGALORE - 560072",BANGALORE URBAN,BANGALORE,KARNATAKA,23180275
799,KARNATAKA BANK LIMITED,KARB0000922,J P NAGAR 7TH PHASE,"KOTHANUR MAIN ROAD, WILSON GARDEN HOUSE BUILDING, CO-OPERATIVE SOCIETY LAYOUT, J P NAGAR 7TH PHASE, BANGALORE - 560078",BANGALORE URBAN,BANGALORE,KARNATAKA,26852025
800,KARNATAKA BANK LIMITED,KARB0000923,BILEKAHALLI,"D.NO.856, BILEKAHALLI MAIN ROAD, OFF BANNERGHATTA ROAD, IIM POST, BILEKAHALLI, BANGALORE - 560076",BANGALORE URBAN,BANGALORE,KARNATAKA,26484557
801,KARNATAKA BANK LIMITED,KARB0000924,BAILHONGAL,"MOTIBAG INDUSTRIES PVT LTD COMPOUND, OZONE COMPLEX, BELGAUM ROAD, BAILHONGAL - 591102",BELGAUM,BAILHONGAL,KARNATAKA,233266
802,KARNATAKA BANK LIMITED,KARB0000925,BIRUR,"KARGAL ROAD, BIRUR - 577116, KADUR TALUK",CHIKMAGALUR,BIRUR,KARNATAKA,255001
803,KARNATAKA BANK LIMITED,KARB0000926,BANGALORE-PEENYA,"GROUND FLOOR, NO. B.354, PEENYA INDUSTRIAL ESTATE, FIRST STAGE, PEENYA, BANGALORE-560058",BANGALORE-URBAN,BANGALORE,KARNATAKA,28398807
804,KARNATAKA BANK LIMITED,KARB0000927,BHARATHINAGAR,"K L GOWDA COMPLEX, BANGALORE-KOLLEGAL HIGHWAY ROAD, BHARATHINAGAR - 571422",MANDYA,MANDYA,KARNATAKA,261444
805,KARNATAKA BANK LIMITED,KARB0000928,BELUR,"FIRST FLOOR, GAYATHRI COMPLEX, DEVANGA STREET, BELUR - 573215",HASSAN,BELUR,KARNATAKA,290098
806,KARNATAKA BANK LIMITED,KARB0000929,BABBUR GP,"HIRIYUR-DARMAPURA MAIN ROAD, NEAR RANGANATHSWAMY TEMPLE, BABBUR-577598, HIRIYUR TALUK.",CHITRADURGA,HIRIYUR,KARNATAKA,9483570929
807,KARNATAKA BANK LIMITED,KARB0000930,BETTAKOTE GP,"BUDIGERE ROAD, BETTAKOTE VILLAGE & GRAMA PANCHAYTH - 562110",BANGALORE RURAL,DEVANAHALLI,KARNATAKA,9141769714
808,KARNATAKA BANK LIMITED,KARB0000931,BADAMI,"NARONI BUILDING, STATION ROAD, BADAMI - 587201, BAGALKOT DISTRICT",BAGALKOT,BADAMI,KARNATAKA,221444
809,KARNATAKA BANK LIMITED,KARB0000932,BHIWADI,"PLOT NO A 7,BHAGAT SINGH COLONY,OPP ASHIYANA BAGEECHA,BHIWADI 302 019,ALWAR DISTRICT,RAJASTHAN STATE",ALWAR,ALWAR,RAJASTHAN,9654995423
810,KARNATAKA BANK LIMITED,KARB0000933,BAVDHAN BUDRUK,"ATHARVA BLISS, C-BUILDING,GROUND FLOOR,SY NO.13/1,14/1,BAVDHAN BUDRUK",PUNE,PUNE,MAHARASHTRA,9075001799
811,KARNATAKA BANK LIMITED,KARB0000934,NAGADEVANAHALLI,"TEJAS ARCADE,GAVIPURAM HSBC LAYOUT,60 FEET ROAD,NAGADEVANAHALLI,BANGALORE 560 056",BANGALORE URBAN,BANGALORE,KARNATAKA,9844048916
812,KARNATAKA BANK LIMITED,KARB0000935,BIJAPUR JALANAGAR EXTENSION,"GROUND FLOOR,PLOPT NO 69,JALANAGAR EXTENSION,BIJAPUR 586 109",BIJAPUR,BIJAPUR,KARNATAKA,9880865851
813,KARNATAKA BANK LIMITED,KARB0000936,BELIMALLUR GP,"NANDIGUDI ROAD,BELIMALLUR 577 217",DAVANGERE,DAVANGERE,KARNATAKA,9448919618
814,KARNATAKA BANK LIMITED,KARB0000937,PADMANABHA NAGAR,"GANGOTRI PAVITHRA PARADISE,UTTARAHALLI MAIN ROAD,KANAKA LAYOUT,PADMANABHA NAGAR,BANGALORE 560 070",BANGALORE URBAN,BANGALORE,KARNATAKA,7795115343
815,KARNATAKA BANK LIMITED,KARB0000938,BANGARPET,"GROUND FLOOR,KH NO 374 3147 2762,KOLAR MAIN ROAD, NEAR TALUK OFFICE,BANGARPET 563 114",KOLAR,BANGARPET,KARNATAKA,9481575938
816,KARNATAKA BANK LIMITED,KARB0000939,BANGALORE BHUVANESHWARI NAGAR,"NO 164 SAI SAPTHAMI 13TH MAIN 5TH CROSS COFFEE BOARD LAYOUT KEMPAPURA,BHUVANESHWARI NAGAR",BANGALORE,BANGALORE,KARNATAKA,9845034814
817,KARNATAKA BANK LIMITED,KARB0000940,BANGALORE CHANDAPURA,"SITE NO 17,CHANDAPURA ATTIBELE ROAD,EGGALUR VILLAGE,CHANDAPURA, BANGALORE 560 081",BANGALORE,BANGALORE,KARNATAKA,9611117219
818,KARNATAKA BANK LIMITED,KARB0000941,BHAVNAGAR,"NO 11A, VRAJ RENU, WAGHAWADI ROAD BHAVNAGAR 364002 GUJARAT",BHAVNAGAR,BHAVNAGAR,GUJARAT,9925329173
819,KARNATAKA BANK LIMITED,KARB0000942,BENGALURU KOTHANUR,"GROUND FLOOR, SY.NO.125,HENNUR-BAGALUR MAIN ROAD, KOTHANUR",BENGALURU URBAN,BENGALURU,KARNATAKA,9900162526
820,KARNATAKA BANK LIMITED,KARB0000943,BELMA DERLAKATTE,"SY NO 57 1A1 P OPP YENOPOYA MEDICAL COLLEGE, KUTTAR PADAVU, BELMA VILLAGE, DERALAKATTE, MANGALORE 575018",DAKSHIN KANNAD,BELMA,KARNATAKA,9449000545
821,KARNATAKA BANK LIMITED,KARB0000944,BHIMAVARAM,"FIRST FLOOR, NO 3 13 27, SRI RAMA KUSUMA PLAZA, JUVVALA PALEM ROAD, BHIMAVARAM 534202",WEST GODAVARI,BHIMAVARAM,ANDHRA PRADESH,9985031318
822,KARNATAKA BANK LIMITED,KARB0000945,BENGALURU KAGGADASAPURA,"GROUND FLOOR, SITE NO 9, KH NO. 151 2 MAIN ROAD,KAGGADASAPURA, BENGALURU-560093",BENGALURU URBAN,BENGALURU,KARNATAKA,9901384525
823,KARNATAKA BANK LIMITED,KARB0000946,BUDIHAL VILLAGE,"FIRST FLOOR, KHATA NO. 377, DAVANGERE MALEBENNUR MAIN ROAD NITTUR POST, BUDIHAL VILLAGE 577530 DEVARABALEKERE",DAVANGERE,BUDIHAL,KARNATAKA,0
824,KARNATAKA BANK LIMITED,KARB0000947,BHOPAL ROHITNAGAR,"467 479, GROUND FLOOR, PHASE I, E 8 EXTENSION, GULMOHAR COLONY, ROHITNAGAR, BHOPAL 462039",BHOPAL,BHOPAL,MADHYA PRADESH,7583890980
825,KARNATAKA BANK LIMITED,KARB0000948,BENGALURU BEML LAYOUT,"GROUND FLOOR, D NO 22 23 2ND PHASE, 5TH STAGE, 60 FEET ROAD, RAJARAJESHWARI NAGAR, BEML LAYOUT, BENGALURU 5600698",BENGALURU URBAN,BENGALURU,KARNATAKA,0
826,KARNATAKA BANK LIMITED,KARB0000949,BALARAMAPURAM,"BP V 1751, ORION PLAZA, MAIN ROAD, NEAR RELIANCE PUMP, BALARAMAPURAM 695501",THIRUVANANTHAPURAM,BALARAMAPURAM,KERALA,8547033971
827,KARNATAKA BANK LIMITED,KARB0000950,RO BANGALORE,"MOHAN MANSION,  2ND FLOOR, 105,KASTURBAROAD, BANGALORE, PIN - 560001",BANGALORE,BANGALORE,KARNATAKA,22955806
828,KARNATAKA BANK LIMITED,KARB0000951,BANAVARA,"65 93, BANASHANKARI BADAVANE, B H ROAD, BANAVARA 573112 ARASIKERE TQ",HASSAN,BANAVARA,KARNATAKA,9480842382
829,KARNATAKA BANK LIMITED,KARB0000952,BENGALURU WHITEFIELD,"NO 210, CHANNASANDRA KADUGODI POST, WHITEFIELD BENGALURU 560067",BENGALURU URBAN,WHITEFIELD,KARNATAKA,7022906066
830,KARNATAKA BANK LIMITED,KARB0000953,BUDIHAL GP,"NO 237,BUDIHAL GP-562123 NELAMANAGALA TALUK",BENGALURU RURAL,BENGALURU,KARNATAKA,0
831,KARNATAKA BANK LIMITED,KARB0000954,BENGALURU ANANDAPURA,"NO.1A/1B, SONNATHAMMANAHALLI, T C PALYA MAIN ROAD, ANANDAPURA, BENGALURU",BENGALURU URBAN,BENGALURU,KARNATAKA,9483421665
832,KARNATAKA BANK LIMITED,KARB0000955,BENGALURU AKSHAYANAGAR,"SITE NO.12 & 14, ESHAN PLAZA, YELANAHALLI MAIN ROAD, OFF.BANNERGHATTA ROAD, AKSHAYANAGAR-560114",BENGALURU,BENGALURU,KARNATAKA,0
833,KARNATAKA BANK LIMITED,KARB0000956,ANDRAHALLI,"NO.595, D EMPLOYEES HOUSE BUILDING COOPERATIVE SOCIETY, NEAR MAGADI ROAD, ANDRAHALLI, BENGALURU - 560091",BENGALURU,BENGALURU,KARNATAKA,8762017108
834,KARNATAKA BANK LIMITED,KARB0000957,GANDHI NAGAR,"D.NO.20,GOWDA&CO.BUILDING,SANGANKAL ROAD,GANDHI NAGAR,BALLARI-583103",BALLARI,BALLARI,KARNATAKA,9036842304
835,KARNATAKA BANK LIMITED,KARB0000958,BELAGAVI-ADARSH NAGARA,"CTS NO.123,GROUND FLOOR,VADAGAON ROAD,RPD CROSS ROAD,ADARSH NAGAR,BELAGAVI-590005",BELAGAVI,BELAGAVI,KARNATAKA,9449511958
836,KARNATAKA BANK LIMITED,KARB0000959,BENGALURU-SIR M VISHWESWARAIAH LAYOUT,"D.NO.154,2ND MAIN,8TH BLOCK,BENGALURU-SIR M.VISHWESWARAIAH LAYOUT,BENGALURU-560091",BENGALURU URBAN,BENGALURU,KARNATAKA,0
837,KARNATAKA BANK LIMITED,KARB0000960,BALEPUNI GP,"GROUND FLOOR,NEAR BUS STOP,BALEPUNI VILLAGE & GP-574153, BANTWAL TALUK",DAKSHINA KANNADA,BANTWAL TALUK,KARNATAKA,273022
838,KARNATAKA BANK LIMITED,KARB0000962,KUMARASWAMY LAYOUT,"D.NO.1814,GROUND FLOOR,SABAGIRI,50 FEET ROAD,BENGALURU-KUMARASWAMY LAYOUT-560078",BENGALURU URBAN,BENGALURU,KARNATAKA,0
839,KARNATAKA BANK LIMITED,KARB0000963,BENGALURU-ELECTRONIC CITY PHASE I,"D.NO.152/5,E K PLAZA,NEELADRI LAYOUT,OPP. FERNHILLS APARTMENTS,DODDATHOGURU,ELECTRONIC CITY PHASE-1,BENGALURU-560100",BENGALURU URBAN,BENGALURU,KARNATAKA,0
840,KARNATAKA BANK LIMITED,KARB0000964,BENGALURU-K R PURAM,"GROUND FLOOR,DNO.160,3RD CROSS,KUMBAR STREET, KR PURAM, BENGALURU",BENGALURU,BENGALURU,KARNATAKA,0
841,KARNATAKA BANK LIMITED,KARB0000965,BILGI,"TPC.NO.1030B/19, BAGALKOT-JAMKHANDI MAIN ROAD,BILGI",BAGALKOT,BILGI,KARNATAKA,0
842,KARNATAKA BANK LIMITED,KARB0000966,BENGALURU-GLOBAL VILLAGE,"NO.1,NEAR GLOBAL VILLAGE TECH PARK,BEML LAYOUT,7TH STAGE,MYLASANDRA,BENGALURU-560056",BENGALURU URBAN,BENGALURU,KARNATAKA,0
843,KARNATAKA BANK LIMITED,KARB0000967,BAJAGOLI,"GROUND FLOOR,THIRUMALA COMPLEX,KARKALA-BELTHANGADY ROAD",UDUPI,KARKALA,KARNATAKA,8652711232
844,KARNATAKA BANK LIMITED,KARB0000968,BENGALURU HMT LAYOUT NAGASANDRA,"D.NO 515, 2ND MAIN, BENGALURU-HMT LAYOUT NAGASANDRA, BENGALURU-560073",BENGALURU,BENGALURU,KARNATAKA,0
845,KARNATAKA BANK LIMITED,KARB0000969,BARASAT,"SHOP NO.2/A,2/B,1/C,1/B,1D,CENTRAL PLAZA,NO 70, JESSORE ROAD, SETH PUKUR, BARASAT-700124",NORTH 24 PARGANAS,BARASAT,WEST BENGAL,0
846,KARNATAKA BANK LIMITED,KARB0000970,BENGALURU-BULL TEMPLE ROAD,"D.NO.109,BULL TEMPLE ROAD, BENGALURU SOUTH TALUK-560019",BENGALURU URBAN,BENGALURU,KARNATAKA,9538220140
847,KARNATAKA BANK LIMITED,KARB0000971,BYNDOOR,"DEEPA COMPLEX NEAR MAYURA PETROL BUNK,NH.66,BYNDOOR-576214",UDUPI,UDUPI,KARNATAKA,0
848,KARNATAKA BANK LIMITED,KARB0000972,BENGALURU- SHIVARAMA KARANTH NAGAR,"NO. 90 & 91,6TH CROSS, MECHS LAYOUT,80 FEET ROAD,DR SHIVARAMA KARANTH NAGAR,BENGALURU-560077",BENGALURU URBAN,BENGALURU,KARNATAKA,0
849,KARNATAKA BANK LIMITED,KARB0000973,BENGALURU-GOTTIGERE,"NO.1,GROUND FLOOR,SAHAKARNAGAR ROAD,RAMAKRISHNAPPA LAYOUT,GOTTIGERE, BENGALURU-560083, BANGALORE NORTH TALUK",BENGALURU URBAN,BENGALURU,KARNATAKA,0
850,KARNATAKA BANK LIMITED,KARB0000975,BYLAKERE-KASAGATTAPURA GP,"SY NO.21/A,BYLAKERE VILLAGE, KASAGATTAPURA GP,HESARGHATTA HOBLI-560089",BENGALURU URBAN,BENGALURU,KARNATAKA,0
851,KARNATAKA BANK LIMITED,KARB0000976,BENGALURU-GUBBALALA,"D.NO-59 & 60,GROUND FLOOR,VINAYAKA NAGAR LAYOUT, TURAHALLI ROAD,GUBBALALA , BENGALURU-560061,BANGALURU SOUTH TALUK",BENGALURU URBAN,BENGALURU,KARNATAKA,0
852,KARNATAKA BANK LIMITED,KARB0000977,HYDERABAD-SANATH NAGAR,"SHOP NO.38&39, UPPER GROUND FLOOR, BHANU ENCLAVE, NEAR ESI HOSPITAL METRO STATION, SUNDERNAGAR, SANATH NAGAR, HYDERABAD-500018",HYDERABAD,HYDERABAD,TELANGANA,0
853,KARNATAKA BANK LIMITED,KARB0000978,HYDERABAD-B N REDDY NAGAR,"D.NO.5-7-295, B N REDDY NAGAR, SAHEBNAGAR KHALAN, HAYATHNAGAR TALUK, HYDERABAD-500070",RANGAREDDY,HYDERABAD,TELANGANA,0
854,KARNATAKA BANK LIMITED,KARB0000979,BENGALURU-GUNJUR,"D.NO.166/7, GROUND FLOOR, GUNJUR-VARTHUR MAIN ROAD, GUNJUR, BENGALURU-560087, BENGALURU NORTH TALUK",BENGALURU URBAN,BENGALURU,KARNATAKA,0
855,KARNATAKA BANK LIMITED,KARB0000980,ELE KODIGEHALLI,"NO.18, GROUND FLOOR, J M COMPLEX, ELE KODIGEHALLI-560091, BENGALURUR NORTH TQ",BENGALURU URBAN,ELE KODIGEHALLI,KARNATAKA,0
856,KARNATAKA BANK LIMITED,KARB0000981,DIGI BRANCH-BASAVANAGUDI,"D.NO.53, SRI CHAMBERS, SUBBARAMA CHETTY ROAD, NETTIKALLAPPA CIRCLE, BASAVANAGUDI, BENGALURU-560004",BENGALURU URBAN,BENGALURU,KARNATAKA,0
857,KARNATAKA BANK LIMITED,KARB0000982,BHILWARA,"GROUND FLOOR, PUR ROAD, OPP.VISHAL MEGA MART,GHANDINAGAR, BHILWARA-311001",BHILWARA,BHILWARA,KARNATAKA,0
858,KARNATAKA BANK LIMITED,KARB0000983,BENGALURU-TEACHERS LAYOUT,"D.NO.102,GROUND FLOOR, NAGARABHAVI 1ST STAGE, TEACHERS LAYOUT, BENGALURU-560072",BENGALURU URBAN,BENGALURU,KARNATAKA,0
859,KARNATAKA BANK LIMITED,KARB0000984,MATHIMANE-ARAMANEKOPPA GP,"LAXMI COMPLEX,SHIVAMOGGA KOLLUR ROAD,MATHIMANE-577425,ARAMANEKOPPA GP,HOSANAGARA TALUK",SHIVAMOGGA,SHIVAMOGGA,KARNATAKA,0
