,BANK NAME,IFSC,OFFICE,ADDRESS,DISTRICT,CITY,STATE,PHONE
0,Ujjivan Small Finance Bank Limited,UJVN0001008,TREASURY,"GRAPE GARDEN, NO-27, 3RD A CROSS, 18TH MAIN, 6TH BLOCK, KORAMANGALA, BANGALORE-560095",BANGALORE,BANGALORE,KARNATAKA,40712121
1,Ujjivan Small Finance Bank Limited,UJVN0001101,SOUTH RO,"GRAPE GARDEN,3RD A CROSS,18TH MAIN,6TH BLOCK,KORAMANGALA,BENGALURU -560095",BANGALORE,BANGALORE,KARNATAKA,0
2,Ujjivan Small Finance Bank Limited,UJVN0001102,KORAMANGALA,"NO.428,GROUND FLOOR,80 FEET ROAD,6TH BLOCK,KORAMANGALA,BANGALORE-560095",BANGALORE,BANGALORE,KARNATAKA,0
3,Ujjivan Small Finance Bank Limited,UJVN0001103,YESHWANTPUR,"RAMA-RATHNA ARCADE,11TH MAIN ROADMUNICIPAL NO.NEW 21/1,PID NO.3-15-21/1GOKULA 1ST STAGE,1ST PHASE,YESHWANTHPUR 560054 BANGALORE KARNATAKA",BANGALORE,BANGALORE,KARNATAKA,0
4,Ujjivan Small Finance Bank Limited,UJVN0001105,MAGADI ROAD,"MUNICIPAL NEW NO.11,OLD NO.40 OF AGRAHARA DASARAHLLI,MAGADI ROAD,GOVINDARAJANAGAR,WARD NO.36,BENGALURU,KARANATAKA - 560091",BANGALORE,BANGALORE,KARNATAKA,0
5,Ujjivan Small Finance Bank Limited,UJVN0001106,R T NAGAR,"NO.496,PID 98-45-496,HMT LAYOUTWARD NO.20,GANGANAGARBANGALORE 560032 BANGALORE KARNATAKA",BANGALORE,BANGALORE,KARNATAKA,0
6,Ujjivan Small Finance Bank Limited,UJVN0001107,HAL,"NO.1658,GROUND FLOOR,BBMP WARD NO.74,HAL III STAGE,JEEVANBHEEMANGAR,BANGALORE-560075",BANGALORE,BANGALORE,KARNATAKA,0
7,Ujjivan Small Finance Bank Limited,UJVN0001108,CHAMARAJPET,"1490,KANASUBUILDING,1STFLOOR,17THMAINROAD,MUNESHWARABLOCK,CHAMARAJPET,BENGALURU-560026",BANGALORE,BANGALORE,KARNATAKA,0
8,Ujjivan Small Finance Bank Limited,UJVN0001109,LINGARAJAPURAM,"NO.90,KARIYANNAPALYA VILLAGE,HENNUR MAIN ROAD,LINGARAJPURAM,BANGALORE",BANGALORE,BANGALORE,KARNATAKA,0
9,Ujjivan Small Finance Bank Limited,UJVN0001110,WHITEFIELD,"GROUND FLOOR,SITE NO.4/1,KATAHA NO.1161,PATTANDUR AGRAHARA,WHITEFIELD MAIN ROAD,K.R.PURAM HOBLI,BANGALORE SOUTH TALUK,BANGALORE-560066",BANGALORE,BANGALORE,KARNATAKA,0
10,Ujjivan Small Finance Bank Limited,UJVN0001111,JAKKASANDRA,"NO.93,JAKKASANDRA EXTENSION,SARJAPUR MAIN CROSS ROAD,1ST BLOCK,KORAMANGALA,BANGALORE-560034",BANGALORE,BANGALORE,KARNATAKA,0
11,Ujjivan Small Finance Bank Limited,UJVN0001112,CHANDRA LAYOUT,"SREE BALAJI COMPLEX,NO 92,1ST MAIN ROAD,KEMPAPURA AGRAHARA,CHANDRALAYOUT,BENGALURU-560040",BANGALORE,BANGALORE,KARNATAKA,0
12,Ujjivan Small Finance Bank Limited,UJVN0001113,BANASWADI,"NO.701/703 KVS PINNACLE RAMAMOORTHY NAGAR MAIN ROAD OMBR LAYOUT,BANASAWADI,BANGALORE 560043 BENGALURU BENGALURU KARNATAKA",BANGALORE,BENGALURU,KARNATAKA,0
13,Ujjivan Small Finance Bank Limited,UJVN0001114,RAMANAGAR,"NO.383/376/2808B,NO.384/377/2809,NO.386/376/2810A,NO.392/384/2817/A AND NO.395/387/2819A,GROUND FLOOR AND FIRST FLOOR,SITUATED AT IJOOR EXTENSION,OLD BM ROAD,RAMANAGARAM-562159",RAMANAGAR,RAMANAGAR,KARNATAKA,0
14,Ujjivan Small Finance Bank Limited,UJVN0001115,PEENYA,"NO.325,GROUND FLOOR KIADB MAIN ROAD,4TH PHASE,PEENYA INDUSTRIAL AREA,NALLAKADARANAHALLI VILLAGE,YESHWANTHPURA HOBLI,BANGALORE NORTH TALUK,BANGALORE-560058",BANGALORE,BANGALORE,KARNATAKA,0
15,Ujjivan Small Finance Bank Limited,UJVN0001116,CHANDAPURA,"NO.151154 CHANDAPURA CIRCLEHOSUR MAIN ROAD,ATTIBELE HOBLICHANDAPURA 560099 BANGALORE KARNATAKA",BANGALORE,BANGALORE,KARNATAKA,0
16,Ujjivan Small Finance Bank Limited,UJVN0001117,MADDUR,"NO.1518/1450,NEAR SANJAYA TALKIES MADDUR MANDYA 571429 KARNATAKA",MANDYA,MADDUR,KARNATAKA,0
17,Ujjivan Small Finance Bank Limited,UJVN0001118,SAHAKARANAGAR,"NO.2504,NO.26 G BLOCK,KODIGEHALLI MAIN ROADBYATARAYANAPURA,SAHAKARNAGARA,BANGALORE 506092 BANGALORE KARNATAKA",BANGALORE,BANGALORE,KARNATAKA,0
18,Ujjivan Small Finance Bank Limited,UJVN0001119,YELAHANKA,"NO 2,MIG,UMA RISE,GROUND FLOOR,1ST A MAIN ROAD,1ST STAGE,OPP.GIRIAS SHOW ROOM YELAHANKA NEW TOWN 560064 BENGALORE KARNATAKA",BANGALORE,BANGALORE,KARNATAKA,0
19,Ujjivan Small Finance Bank Limited,UJVN0001120,CHANNAPATNA,"NO.2235,WARD NO.6,GROUND FLOOR,KUVEMPUNAGAR 1ST CROSS,CHANNAPATNA TOWN,RAMANAGAR DISTRICT-562160",CHANNAPATNA,CHANNAPATNA,KARNATAKA,0
20,Ujjivan Small Finance Bank Limited,UJVN0001121,CHIKKABALLAPUR,"YASHODA COMPLEX,GROUND FLOOR,NO.1434/271/1 4TH BLOCK,WARD NO.20,BB ROAD CHIKKABALLAPUR 562101 CHIKKABALLAPUR KARNATAKA",CHIKKABALLAPUR,CHIKKABALLAPUR,KARNATAKA,0
21,Ujjivan Small Finance Bank Limited,UJVN0001122,UTTARAHALLI,"NO 307,100 FEET RING ROAD,BSK 3RD STAGE,PADMANABANAGAR,BENGALURU-560070",BANGALORE,BANGALORE,KARNATAKA,0
22,Ujjivan Small Finance Bank Limited,UJVN0001123,DHARWAD-NORTH,"BHASKAR BUILDING,GROUND FLOOR,OPPOSITE TO GANESH TEMPLE,NEAR NTTF,HUBLI-DHARWAD ROAD,HOSAYALLAPURA,DHARWAD,KARNATAKA 580001",DHARWAD,DHARWAD,KARNATAKA,0
23,Ujjivan Small Finance Bank Limited,UJVN0001124,HOSUR,"NO. 70K14F, 1ST FLOOR, 40FT ROAD, INDIRANAGAR, HOSUR, KRISHNAGIRI 635109",KRISHNAGIRI,HOSUR,TAMIL NADU,0
24,Ujjivan Small Finance Bank Limited,UJVN0001126,HUBBALLI,"SHOP NO.10 TO 13,CTS NO.450/1,REVANKAR COMPLEX,GROUND FLLOR,WARD NO.1 COURT CIRCLE,VIVEKANANDA HOSPITAL ROAD,DESHPANDENAGAR,HUBBALI,DHARWAD DIST,KARNATAKA.588059",DHARWAD,HUBLI,KARNATAKA,0
25,Ujjivan Small Finance Bank Limited,UJVN0001128,BELAGAVI,"MANE PLAZA,CTS NO.356/A,356/B,356/C,GROUND FLOOR,PATIL GALLI/STATION ROAD,BELAGAVI",BELGAUM,BELGAUM,KARNATAKA,0
26,Ujjivan Small Finance Bank Limited,UJVN0001130,KRISHNAGIRI,"NO. 22, GROUND FLOOR, HIG 2ND PHASE, HOUSING BOARD, OPP SBI, RAYAKOTTAI ROAD, KRISHNAGIRI 635001",KRISHNAGIRI,KRISHNAGIRI,TAMIL NADU,0
27,Ujjivan Small Finance Bank Limited,UJVN0001131,HAVERI,"PLOT NO.17,CG TOTANNANAVAR COMPLEX HANAGAL ROAD,OPPOSITE NEW APMC MARKET HAVERI 581110 HAVERI KARNATAKA",HAVERI,HAVERI,KARNATAKA,0
28,Ujjivan Small Finance Bank Limited,UJVN0001132,DAVANAGERE,"NO-78/4RS1-S2 NEW 200/1,2,3 LIMRA HEIGHTS BUILDING GROUND,1ST,2ND FLOOR NEAR RELIANCE MARKET P.B ROAD K.B EXTENSION DAVANAGERE,KARANATAKA",DAVANAGERE,DAVANGERE,KARNATAKA,0
29,Ujjivan Small Finance Bank Limited,UJVN0001133,TUMAKURU,"NO.315/3,GROUND FLOOR,WARD NO.21,VIDYANAGAR,B.H.ROAD,TUMKUR-572101",TUMAKURU,TUMKUR,KARNATAKA,0
30,Ujjivan Small Finance Bank Limited,UJVN0001134,CHITRADURGA,GROUND FLOOR 4TH BLOCK B D ROAD B D ROAD CHITRADURGA 577501,CHITRADURGA,CHITRADURGA,KARNATAKA,0
31,Ujjivan Small Finance Bank Limited,UJVN0001135,TIRUPATHUR,"JJ COMPLEX,TEACHERS COLONY,VANIYAMBADI ROAD,TIRUPATTUR-635601",VELLORE,VELLORE,TAMIL NADU,0
32,Ujjivan Small Finance Bank Limited,UJVN0001139,SHIVAMOGGA,"NO.11,GROUND FLOOR B.H.ROAD B.H.ROAD SHIMOGA 577201",SHIMOGA,SHIVAMOGGA,KARNATAKA,0
33,Ujjivan Small Finance Bank Limited,UJVN0001141,HARIHARA,"KGN TOWER,2ND CROSS,OLD PB ROADNEW BHARAMPURI LAYOUT,BESIDES KARNATAK BANKHARIHAR 577601 HARIHARA KARNATAKA",DAVANGERE,HARIHARA,KARNATAKA,0
34,Ujjivan Small Finance Bank Limited,UJVN0001142,MYSURU HEBBAL,"NO.408,GROUND FLOOR,MANCHEGOWDANA KOPPAL MAIN ROAD,DEVARAJ MOHALLA,HEBBAL,MYSORE-570017",MYSURU,MYSORE,KARNATAKA,0
35,Ujjivan Small Finance Bank Limited,UJVN0001143,BHADRAVATHI,GROUND FLOOR B H ROAD OPP RAILWAY STATION BHADRAVATHI 577301 BHADRAVATHI SHIVAMOGGA KARNATAKA,SHIMOGA,BHADRAVATHI,KARNATAKA,0
36,Ujjivan Small Finance Bank Limited,UJVN0001144,TIPTUR,"HTNO.89/54ND88/53,LINGNNCOMPLEX,OPPGOVTGIRLSHIGHSCHOOL,BHROD-TUMKUR,RNTK-572201",TUMAKURU,TIPTUR,KARNATAKA,0
37,Ujjivan Small Finance Bank Limited,UJVN0001145,GADAG,"CTS NO.3787/48A/6A1,NEAR GANDHI CIRCLE SHRI JAGADGURU TONTADARYA MATH COMPLEX PALA BADAMI ROAD,GADAG 582101 GADAG GADAG KARNATAKA",GADAG,GADAG,KARNATAKA,0
38,Ujjivan Small Finance Bank Limited,UJVN0001146,DHARMAPURI,"PLOT NO.12,VIRUPACHIPURAM VILLAGE,SALEM ROAD,C-BLOCK,INDIRA NAGAR,DHARMAPURI TOWN-636705",DHARMAPURI,DHARMAPURI,TAMIL NADU,0
39,Ujjivan Small Finance Bank Limited,UJVN0001150,DEVAIAH PARK,"NO.1762/2,2ND FLOOR,1ST MAIN,DR.RAJ KUMAR ROAD,OPP.NAVARANG THEATRE,NAVARANG CIRCLE,RAJAJINAGAR,BENGALURU-560010",BANGALORE,BANGALORE,KARNATAKA,0
40,Ujjivan Small Finance Bank Limited,UJVN0001151,CHALLAKERE,"NRR ARCADE,PLOT NO 508,1ST CROSS,BLOCK-7 BELLARY ROAD,OPP CHALLAKERAMMA TEMPLE CHALLAKERE,CHITRADURGA 577522 CHITRADURGA KARNATAKA",HTAUA,CHALLAKERE,KARNATAKA,0
41,Ujjivan Small Finance Bank Limited,UJVN0001152,VANIAMBADI,"277,278,279,JAMATH ROAD,B2 DIVISION,2ND WARD,KHADERPET,VANIYAMBADI,VELLORE DISTRICT,TAMILNADU-635751",VELLORE,VANIAMBADI,TAMIL NADU,0
42,Ujjivan Small Finance Bank Limited,UJVN0001153,NANJANGUD,"MUNICIPAL ASSESSMENT NO.3177/3052 AND 3177-B/3052-B GROUND FLOOR,SITUATED AT WARD NO.16,15TH CROSS ROAD,R.P.ROAD,SRIKANTAPURI BADAVANE,NANJANGUD TOWN 571301",MYSORE,MYSORE,KARNATAKA,0
43,Ujjivan Small Finance Bank Limited,UJVN0001155,PALACODE,"NO 27,M.G.ROAD,PALACODE,PALACODE TALUK,DHARMAPURI DISTRICT,TAMIL NADU",DHARMAPURII,PALACODE,TAMIL NADU,0
44,Ujjivan Small Finance Bank Limited,UJVN0001160,SARJAPUR ROAD,"BUILDING NO.33/1,DODDAKANNALI SARJAPUR MAIN ROAD CARMELARAM POST,BANGALORE 560035 BENGALURU BENGALURU KARNATAKA",BANGALORE,BENGALURU,KARNATAKA,0
45,Ujjivan Small Finance Bank Limited,UJVN0001161,BAILHONGAL,"592/2,BELLAD COMPLEXNEAR BUS STAND MAIN ROAD BAILHONGALBAILHONGAL591102BAILHONGALBELAGAVIKARNATAKA",BELGAUM,BAILHONGAL,KARNATAKA,0
46,Ujjivan Small Finance Bank Limited,UJVN0001162,GOKAK,"CST NO.4747/B,GROUND FLOOR GURUVARPET,BAYLIKATTA ROAD GURUVARPET,BAYLIKATTA ROAD GOKAK,BELAGAVI 591307",BELGAUM,GOKAK,KARNATAKA,0
47,Ujjivan Small Finance Bank Limited,UJVN0001164,AMBUR,"N0.39, BY PASS ROAD, AMBUR TOWN, VELLORE DISTRICT, TAMIL NADU 635802(NEAR BANK OF BARODA)",,AMBUR,TAMIL NADU,0
48,Ujjivan Small Finance Bank Limited,UJVN0001165,ATHANI,"LAND MARK-NEAR ICICI BANKJATH - JAMBOTI STATE HIGHWAYHALIYAL ROAD,ATHANI 591304 BELGAVI KARNATAKA",BELGAUM,BELGAVI,KARNATAKA,0
49,Ujjivan Small Finance Bank Limited,UJVN0001167,VELLORE,"NO.90/91,GROUND& FIRST FLOOR,OPP TO NTTF,VELLORE ROAD,KATPADI,VELLORE-632007",VELLORE,VELLORE,TAMIL NADU,0
50,Ujjivan Small Finance Bank Limited,UJVN0001168,CHIKBANNAVARA,"KATHA NO.323,CHIKKASANDRA VILLAGE YESHWANTHPURA HOBLI YESHWANTHPURA HOBLI BANGALORE NORTH 560090",BANGALORE,BENGALURU,KARNATAKA,0
51,Ujjivan Small Finance Bank Limited,UJVN0001169,ERODE,"7/1,BALAMANI COMPLEX,KALAIVANAR STREET,SATHY ROAD,VEERAPPANCHATHIRAM,ERODE -638004",ERODE,ERODE,TAMIL NADU,0
52,Ujjivan Small Finance Bank Limited,UJVN0001170,THIRUVANNAMALAI,"NO.21,WARD NO.1,BLOCK-13,GROUND& FIRST FLOOR,CHINNAPPANAIAKKAR STREET,SALEM MAIN ROAD,THIRUVANAMALAI,TAMILNADU 606601",THIRUVANNAMALAI,THIRUVANNAMALAI,TAMIL NADU,0
53,Ujjivan Small Finance Bank Limited,UJVN0001171,RS PURAM COIMBATORE,"VIKRAM TOWER,T.S.NO.8/1359,METUOPALAYAM ROAD,POO MARKET,R.S.PURAM,COIMBATORE-641001",COIMBATORE,COIMBATORE,TAMIL NADU,0
54,Ujjivan Small Finance Bank Limited,UJVN0001172,SALEM,"NO-30/3-2,MULLAI NAGAR,SALEM MAIN ROAD,SURAMANGALAM,SALEM -636005",SALEM,SALEM,TAMIL NADU,0
55,Ujjivan Small Finance Bank Limited,UJVN0001173,KENGERI,"149,BAFNACENTER,JAGAJYOTILAYOUTOUTERRINGROADNAGADEVANAHALLI560056BANGALOREKARNATAKA",BANGALORE,BANGALORE,KARNATAKA,0
56,Ujjivan Small Finance Bank Limited,UJVN0001174,JAMKHANDI,"CST NO.5212 TO 5217/9B,WARD NO II KUDACHI ROAD,JAMKHANDI KUDACHI ROAD,JAMKHANDI BAGALKOT 587301",BAGALKOT,JAMKHANDI,KARNATAKA,0
57,Ujjivan Small Finance Bank Limited,UJVN0001176,ARCOT,7/5HKDGATWND-6353AND),VELLORE,AMBUR,TAMIL NADU,0
58,Ujjivan Small Finance Bank Limited,UJVN0001179,GOBICHETIPALAYAM,"NO.42/147,OLD NO.72,GROUND FLOOR,MILL ROAD,V.N.V.GARDEN,GOBICHETTIPALAYAM-638476",ERODE,GOBICHETIPALAYAM,TAMIL NADU,0
59,Ujjivan Small Finance Bank Limited,UJVN0001181,KOMARAPALYAM,"320 SALEM MAIN ROAD TMB BANK OPP,ANANGUR CORNER,KOMARAPALAYAM 638183 KOMARAPALAYAM NAMAKKAL TAMILNADU",NAMAKKAL,KOMARAPALAYAM,TAMIL NADU,0
60,Ujjivan Small Finance Bank Limited,UJVN0001182,TIRUCHENGODU,"DOOR NO.356/40,SKBS TOWER,KATCHERI STREET VELLUR ROAD,NEAR CHB COLONY BUS STOP TIRUCHNGODE,NAMAKKAL 637211",NAMAKKAL,TIRUCHENGODU,TAMIL NADU,0
61,Ujjivan Small Finance Bank Limited,UJVN0001183,PARAMATHI VELUR,"SURVEY NO.140/3,FOUR ROAD OPP TO BSNL OFFICE PARAMATHIVELUR NAMAKKAL 638182",NAMAKKAL,PARAMATHI VELUR,TAMIL NADU,0
62,Ujjivan Small Finance Bank Limited,UJVN0001184,SUNDARAPURAM,"DOOR NO18,GROUND FLOOR,SANGAM STREET,SUNDARAPURAM,COIMBATORE,TAMIL NADU - 641024",COIMBATORE,COIMBATORE,TAMIL NADU,0
63,Ujjivan Small Finance Bank Limited,UJVN0001186,RAMANATHAPURAM,"NO - 1789-A,CHAKRAVARTHY TOWERS,TRICHY ROAD,RAMANATHAPURAM,COIMBATORE DISTRICT,TAMILNADU",COIMBATORE,COIMBATORE,TAMIL NADU,0
64,Ujjivan Small Finance Bank Limited,UJVN0001188,METTUPALAYAM,"NO.4/128,GROUND FLOOR,SUTHANTHIRAPURAM,CHIKKADASAMYPALAYAM VILLAGE,METTUPALAYAM TAMIL NADU",COIMBATORE,METTUPALAYAM,TAMIL NADU,0
65,Ujjivan Small Finance Bank Limited,UJVN0001189,UDUMALAIPETTAI,"SF NO.117,DOOR NO.168 3/2,UKPN COMPLEX,PALANI ROAD,UDUMALPET,TIRUPUR DIST 642126",TIRUPPUR,UDUMALPET,TAMIL NADU,0
66,Ujjivan Small Finance Bank Limited,UJVN0001191,DHARAPURAM,"DOORNO.8/3,VEERAH TOWERS,TOWN SURVEY NO.158/1OLD T.S.NO.158,CHURCH ROAD,BLOCK - 4WARD - 6,DHARAPURAM 638656 DHARAPURAM TAMIL NADU",TIRUPUR,DHARAPURAM,TAMIL NADU,0
67,Ujjivan Small Finance Bank Limited,UJVN0001193,ERNAKULAM - NORTH,"O7221,GROUNDFLOOR,VITHAYATHIL,OLDRAILWAYSTATIONROAD,ERNAKULAM,KERALA-82018",ERNAKULAM,ERNAKULAM,KERALA,0
68,Ujjivan Small Finance Bank Limited,UJVN0001194,PALLUARTHY - KOCHI,"NO.12/31D,GROUND FLOOR,ST.MARY S CHURCH BUILDING,THOPPUMPADY,PALLURUTHY,KOCHI,KERALA-682006",ERNAKULAM,ERNAKULAM,KERALA,0
69,Ujjivan Small Finance Bank Limited,UJVN0001197,PONDICHERRY,"NO.39,VILLIANUR ROAD,NADASAN NAGAR,PONDICHERRY 605 005",PONDICHERRY,PONDICHERRY,PUDUCHERRY,0
70,Ujjivan Small Finance Bank Limited,UJVN0001198,SATHYAMANGALAM,"PROPERTY NO.19,NATHAM SF NO.418/1,WARD NO.22,GROUND FLOOR,SITUATED AT VENUGOPALASAMY KOVIL STREET,SATHYAMANGALAM VILLAGE AND TALUK,SATHAYAMANGALAM TOWN,ERODE DIST638401",ERODE,SATHYAMANGALAM,TAMIL NADU,0
71,Ujjivan Small Finance Bank Limited,UJVN0001602,PERIYAKULAM,"NO-1/1/109CUMBUM MAIN ROADTHENKARAI,PERIYAKULAM 625601 THENI TAMIL NADU",THENI,THENI,TAMIL NADU,0
72,Ujjivan Small Finance Bank Limited,UJVN0001603,PARAVUR,"GROUND FLOOR,OPP CEE CEE TOWER CHENDAMANGALAM NORTH PARAVUR 683513",ERNAKULAM,PARAVUR,KERALA,0
73,Ujjivan Small Finance Bank Limited,UJVN0001605,VAIKOM,"GROUND FLOOR,187/26A/1,NADUVILE VILLAGE,UDAYAMPEROOR,KERALA-686631",KOTTAYAM,VAIKOM,KERALA,0
74,Ujjivan Small Finance Bank Limited,UJVN0001606,CHERTHALA,"SY.NO.258/17 B1,B3,WARD XI NORTH OF S.N.M.M HOSPITAL AC ROAD,CHERTHALA,ALAPPUZHA 688524",ALAPPUZHA,CHERTHALA,KERALA,0
75,Ujjivan Small Finance Bank Limited,UJVN0001607,DINDIGUL,"DOOR NO 24 NEW AGRAHARAM,PALANI ROAD DINDIGUL 624001 DINDIGUL TAMIL NADU",DINDIGUL,DINDIGUL,TAMIL NADU,0
76,Ujjivan Small Finance Bank Limited,UJVN0001608,PANRUTI,"PLOT NO.9& 10,GROUND FLOOR,NO.55,TS NO.150,BLOCK 9,WARD B,VADAKAILASAM VILLAGE,PANRUTI,CUDDALORE DIST-607106",CUDDALORE,PANRUTI,TAMIL NADU,0
77,Ujjivan Small Finance Bank Limited,UJVN0001609,VIRUDHACHALAM,NO.51/14 BAZAAR STREET OPPOSITE TO HDFC BANK VIRUDHACHALAM 606001 VIRUDHACHALAM CUDDALORE TAMIL NADU,CUDDALORE,VIRUDHACHALAM,TAMIL NADU,0
78,Ujjivan Small Finance Bank Limited,UJVN0001610,CUDDALORE,"NO.25,25A& 26,GROUND FLOOR,WARD NO.5,BLOCK NO.47,SORRAPPANAYAICKAN CHAVADI ROAD,THIRUPPAPULIAR VILLAGE,CUDDALORE 607 001",CUDDALORE,CUDDALORE,TAMIL NADU,0
79,Ujjivan Small Finance Bank Limited,UJVN0001611,GUDALUR,"SF NO.1078/13B-2,D NO.9/8A,PATTA NO.421,GROUND FLOOR,SITUATED AT RAJAGOPALAPURAM,OOTY MAIN ROAD,GUDALUR,NILIGIRIS DISTRICT,TAMILNADU-643211643211",NILIGIRIS,GUDALUR,TAMIL NADU,0
80,Ujjivan Small Finance Bank Limited,UJVN0001612,COONOOR,"TS NO.24,BLOCK 20,WARD B,RS NO.1770 SUREY NO.(OLD ) F 149,MOUNT ROAD COONOOR 643102 NILGIRIS TAMIL NADU",THE NILGIRIS,COONOOR,TAMIL NADU,0
81,Ujjivan Small Finance Bank Limited,UJVN0001613,OOTY,"NEW R.S.NO.E/18-59,ASSESSMENT NO.20543,20550 AND 20551,DOOR NO.421/C3 OF GROUND FLOOR& NO.421/C4,421/C5 OF 1ST FLOOR,UTHAGAMANDALAM ETTINES ROAD,UTHAGAMANDALAM,OOTY,NILGIRIS",NILGIRIS,OOTY,TAMIL NADU,0
82,Ujjivan Small Finance Bank Limited,UJVN0001615,ALAPPUZHA,"NEDIYAPARAMBIL ARCADE SY NO 821/7A1& 7A2 OPP ST.ANTONYS CHURCH,CHURCH ROAD MULLACKAL,AMBALAPPUZHA 688011 ALAPPUZHA KERALA",ALAPPUZHA,ALLEPPEY,KERALA,0
83,Ujjivan Small Finance Bank Limited,UJVN0001616,THRISSUR,"NO.678/1,2,679/2,CHEMBUKKAVU VILLAGE( OPP ) SUN TOWER,EAST FORT THRISSUR 680005 THRISSUR THRISSUR KERALA",THRISSUR,THRISSUR,KERALA,0
84,Ujjivan Small Finance Bank Limited,UJVN0001622,KUNNAMKULAM,"O/0,AIHARCADE-GURUAYURUROAD,EARKOMALABAKERY,OPPITTIMANIHOPITAL,KUNNAMKULAM-THRIUR,KERALA-68003",THRISSUR,KUNNAMKULAM,KERALA,0
85,Ujjivan Small Finance Bank Limited,UJVN0001623,HARIPAD,"GROUND FLOOR,680,685,WARD NO 8,HARIPAD,KERALA-690514",ALAPPUZHA,HARIPAD,KERALA,0
86,Ujjivan Small Finance Bank Limited,UJVN0001624,TRIPRAYAR,"AVITTAM ARCADE,BUILDING NO 2/577 PALLIPRAM,VALAPPAD VILLAGE CHAVAKKAD TALUK,TRIPRAYAR 680567 THRISSUR KERALA",THRISSUR,TRIPRAYAR,KERALA,0
87,Ujjivan Small Finance Bank Limited,UJVN0001625,SRIRANGAPATNA,"NO.S.2685/2586 ABJ COMPLEX,BM ROAD ABJ COMPLEX,BM ROAD NEAR KSRTC BUS STAND,SRIRANGPATNA 571438",MANDYA,SRIRANGAPATNA,KARNATAKA,0
88,Ujjivan Small Finance Bank Limited,UJVN0001626,MYSURU - DOUBLE ROAD,"KIRAN MANSION,NO.646,CHAMARAJA DOUBLE ROAD,KR MOHALLA,OPP HDFC BANK,MYSORE-570024",MYSURU,MYSORE,KARNATAKA,0
89,Ujjivan Small Finance Bank Limited,UJVN0001627,THIRUVAIYARU,"MUTHU MAHAL,NO.80,SF NO.549/3E,EAST STREET,THIRUVAIYARU,TAMILNADU 613204",THANJAVUR,THANJAVUR,TAMIL NADU,0
90,Ujjivan Small Finance Bank Limited,UJVN0001628,KUMBAKONAM,"16,GROUNDFLOOR,PREMIERAVEON,NEWRAILWAYSTATIONROAD,KUMBAKONAM,-612001",KUMBAKONAM,KUMBAKONAM,TAMIL NADU,0
91,Ujjivan Small Finance Bank Limited,UJVN0001629,GUNDLUPET,"NO.2425/137/16,GROUND FLOOR 4TH DIVISION,16TH WARD 4TH DIVISION,16TH WARD BN ROAD,NEAR VAM HOSPITAL,GUNDLUPET 571111",CHAMARAJNAGAR,GUNDLUPET,KARNATAKA,0
92,Ujjivan Small Finance Bank Limited,UJVN0001630,T NARASIPURA,"NO.218/1& 218/2,THRIVENI NAGAR DOUBLE ROAD,T.NARASIPURA DOUBLE ROAD,T.NARASIPURA MYSORE 570028",MYSORE,T NARASIPURA,KARNATAKA,0
93,Ujjivan Small Finance Bank Limited,UJVN0001631,TRICHY,"DOOR NO.75 D-BLOCK NO.4,SALAI ROAD,TIRUCHIRAPPALLI - TIRUCHIRAPPALLI DISTRICT TAMILNADU",,TRICHY,TAMIL NADU,0
94,Ujjivan Small Finance Bank Limited,UJVN0001632,CHAMARAJANAGAR,"NO.313/A& KHATA NO.294/A,C DIVISION GANGAMATHA STREET GANGAMATHA STREET CHAMRAJANAGAR 571313",CHAMARAJNAGAR,CHAAMARAJANAGAR,KARNATAKA,0
95,Ujjivan Small Finance Bank Limited,UJVN0001633,HOSKOTE,"NO.10/5,GROUND& FLOOR,MELINAPETE,THERUBEEDI ROAD,HOSAKOTE TOWN,BANGALORE RURAL,BANGALORE-562114",BANGALORE RURAL,BANGALORE,KARNATAKA,0
96,Ujjivan Small Finance Bank Limited,UJVN0001634,MANNARGUDI,DOOR NO 89 GANDHI ROAD MANNARGUDI 614001 TIRUVARUR TAMIL NADU,THIRUVARUR,MANNARGUDI,TAMIL NADU,0
97,Ujjivan Small Finance Bank Limited,UJVN0001635,BANNERGHATTA,"BHOOMIKA TOWERS,SITE NO.40KHATA NO.295/289/289/30-153/40-159 40/159ARAKERE VILLAGE,BEGUR HOBLI,WARD NO.19 561203 BANGALORE KARNATAKA",BANGALORE,BANGALORE,KARNATAKA,0
98,Ujjivan Small Finance Bank Limited,UJVN0001636,KARUNAGAPPALLY,"BEST ARCADE,LALAJI JUNCTION SY.NO.605/10/2,NEAR UNION BANK OF INDIA AYANIVELIKULANGARA,KARUNAGAPALLY 690518",KOLLAM,KARUNAGAPPALLY,KERALA,0
99,Ujjivan Small Finance Bank Limited,UJVN0001638,VADALUR,"NO.25,JJ COMPLEX,PANRUTI MAIN ROAD,VADALUR-607303",CUDDALORE,VADALUR,TAMIL NADU,0
100,Ujjivan Small Finance Bank Limited,UJVN0001639,THIRUVARUR,"NO.74,ANNAKAMAKSHI TOWER,TS NO.2028,WARD NO.2,BLOCK 38,SOUTH STREET,SOUTH SETHI VILLAGE,THIRUVARUR610001",THIRUVARUR,THIRUVARUR,TAMIL NADU,0
101,Ujjivan Small Finance Bank Limited,UJVN0001640,KOLLEGALA,"PID NO 2-7-94 WARD NO 6 DR B R AMBEDKAR ROAD OR MM HILLS ROAD NEAR POLICE STATION,KOLLEGALA 571440 KOLLEGALA CHAMRAJNAGAR KARANATAKA",CHAMARAJNAGAR,KOLLEGALA,KARNATAKA,0
102,Ujjivan Small Finance Bank Limited,UJVN0001641,KOTTARAKARA,"SURVEY NO.200/3-2,BLOCK NO.22 KOTTARAKKARA VILLAGE KOLLAM 691506",KOLLAM,KOTTARAKARA,KERALA,0
103,Ujjivan Small Finance Bank Limited,UJVN0001642,MAYILADUTHURAI,"GROUND& FIRST FLOOR,WARD NO-3,HOSPITAL ROAD,GANDHI NAGAR,MAYILADUTHURAI,TAMIL NADU 609001",NAGAPATTINAM,MAYILADUTHURAI,TAMIL NADU,0
104,Ujjivan Small Finance Bank Limited,UJVN0001643,H D KOTE,"KHATA NO.1949/5/2268/5,NEAR GANESHA COMPLEX OPPOSITE MINI VIDHANASOUDHA HB ROAD,H D KOTE 571114 HD KOTE MYSORE KARNATAKA",MYSORE,HD KOTE,KARNATAKA,0
105,Ujjivan Small Finance Bank Limited,UJVN0001644,K R NAGAR,"GROUND FLOOR,NO 3/165,A.P.MALL OPP.NAVA NAGARA URBAN CO-OP BANK,K R NAGAR CHANDRA MOULESHWARA ROAD ( C.M ROAD ) 571602 K R NAGAR MYSORE KARNATAKA",MYSORE,K R NAGAR,KARNATAKA,0
106,Ujjivan Small Finance Bank Limited,UJVN0001645,RAJAPALAYAM,"NO.46/1,46/2,46/3,SINGARAJA KOTTAI AREA,PUDHUPALAYAM VILLAGE 626 117 RAJAPALAYAM TAMILNADU",VIRUDHUNAGAR,RAJAPALAYAM,TAMIL NADU,0
107,Ujjivan Small Finance Bank Limited,UJVN0001646,K R PETE,"NO.974/A,MYSURU-CHANNARAYAPATNA ROAD NEAR TB CIRCLE K.R.PET TOWN,MANDYA 571264",MANDYA,K R PETE,KARNATAKA,0
108,Ujjivan Small Finance Bank Limited,UJVN0001647,KANCHIPURAM,"62-A/1,GROUNDFLOOR,ERAJAST,MELKATHIRPUR,PERIYA,KANCHIPURAM631501",KANCHIPURAM,KANCHIPURAM,TAMIL NADU,0
109,Ujjivan Small Finance Bank Limited,UJVN0001648,SIVAKASI,"NO.628/1A1A1A,SIVAKASI SRO,SIVAKASI,TAMIL NADU 626123",VIRUDHUNAGAR,SIVAKASI,TAMIL NADU,0
110,Ujjivan Small Finance Bank Limited,UJVN0001650,RASIPURAM,"NO.642,OLD SF.NO.179/2 TSN NO.115,116,117WARD A,BLOCK 5,DR.ZAHEERHUSSANSALAIRASIPURAM,NAMAKKAL637408NAMAKKALNAMAKKALTAMIL NADU",NAMAKKAL,NAMAKKAL,TAMIL NADU,0
111,Ujjivan Small Finance Bank Limited,UJVN0001651,NELAMANGALA,"2ND FLOOR,PRAKASH BUILDING,B H ROAD,SUBHASH NAGAR,NELAMANGALA,BENGALURU-RURAL DISTRICT - 562123",BANGALORE,BANGALORE,KARNATAKA,0
112,Ujjivan Small Finance Bank Limited,UJVN0001652,TENKASI,"GROUND FLOOR,SURVEY NO.86,BLOCK NO.14,SOUTH MASI STREET,TIRUNELVELLI MAIN ROAD OPP POST OFFICE,TENKASI 627811 TAMIL NADU",THIRUNELVELI,TENKASI,TAMIL NADU,0
113,Ujjivan Small Finance Bank Limited,UJVN0001654,SANKARANKOVIL,NO.221 SOUTH CAR STREET SANKARANKOVIL 627756 SANKARANKOVIL TIRUNELVELI TAMIL NADU,THIRUNELVELI,SANKARANKOVIL,TAMIL NADU,0
114,Ujjivan Small Finance Bank Limited,UJVN0001655,ARUPPUKOTTAI,"DOOR NO.101,S.F.NO.148/542,WARD.C BLOCK NO.26,T.S.NO.24,PANTHAL KUDI ROAD OPP.CANARA BANK,ARUPPUKOTTAI 626101 ARUPPUKOTTAI VIRUDHUNAGAR TAMIL NADU",VIRUDHUNAGAR,ARUPPUKOTTAI,TAMIL NADU,0
115,Ujjivan Small Finance Bank Limited,UJVN0001657,THIRUNELVELI,"NO.6,6/1,6/2,SF NO.5/2A,GROUND FLOOR,VANNARPETTAI ROAD,PALAYAMKOTTAI,TIRUNELVELLI 627002",THIRUNELVELI,THIRUNELVELI,TAMIL NADU,0
116,Ujjivan Small Finance Bank Limited,UJVN0001658,NAGARCOIL,"VADSERY SOUTH,DISTILLERY ROAD OPP.NAGARCOIL BUS STOP VADASERY AGASTHEESWARAM,NAGARCOIL 629001 TAMIL NADU",KANYAKUMARI,NAGARCOIL,TAMIL NADU,0
117,Ujjivan Small Finance Bank Limited,UJVN0001659,PANDAVAPURA,"NO.1133/2147/483,GROUND& FIRST FLOOR,R.P COMPLEX,SHIKSHAKARA BHAVANA ROAD,PANDAVAPURA TOWN,PANDAVAPURA TALUK,MANDYA DISTRICT",PANDAVAPURA,PANDAVAPURA,KARNATAKA,0
118,Ujjivan Small Finance Bank Limited,UJVN0001660,MADURAI,"NO.19/1,GROUND FLOOR,ASSESMENT NO.327909 & 312813,T/S.NO.1544/5A,PRESENTLY CORPORATION WARD NO.71,PANDIYARAJAPURAM MAIN STREET,BYE PASS ROAD,MADURAI TOWN,MADURAI DISTRICT.625016",MADURAI,MADURAI,TAMIL NADU,0
119,Ujjivan Small Finance Bank Limited,UJVN0001661,CHENGALPATTU,"GROUND& FIRST FLOOR,BLOCK NO 6,BRAMINAR STREET,RAJAJI STREET,CHENGALPATTU,TAMILNADU 603001",KANCHIPURAM,CHENGALPATTU,TAMIL NADU,0
120,Ujjivan Small Finance Bank Limited,UJVN0001663,TAMBARAM,"SURVEY NO.58/A-2,A-1 OLD DOOR NO.246,NEW DOOR NO.268 SELAIYUR,VELACHERY MAIN ROAD 600073 TAMBARAM CHENNAI TAMIL NADU",KANCHIPURAM,TAMBARAM,TAMIL NADU,0
121,Ujjivan Small Finance Bank Limited,UJVN0001665,KRISHNAPURA,"NO.260/24,KRISHNAPURA VILLAGE,VIRUPAKSHAPURA HOBLI,CHANNAPATANA TALUK,RAMANAGAR DISTRICT - 562160",CHANNAPATNA,CHANNAPATNA,KARNATAKA,0
122,Ujjivan Small Finance Bank Limited,UJVN0001666,MULLIPALLAM,"NO.6/18,AGRAHARAM STREET,MULLIPALLAM VILLAGE,VADIPATTI TALUK,MADURAI -625207",MADURAI,MULLIPALLAM,TAMIL NADU,0
123,Ujjivan Small Finance Bank Limited,UJVN0001667,GENGANALLORE,"NO.2/7,WARD NO.1,SILERI VILLAGE,GENGANALLUR,VELLORE DIST -632101",VELLORE,GENGANALLORE,TAMIL NADU,0
124,Ujjivan Small Finance Bank Limited,UJVN0001668,IRUPPU,"NO.201A,SOUTH STREET,NACHIVELLAIYANGKUPPAM,IRUPPU,VIRUDHACHALAM TALUK,CUDDALORE DIST -607805",CUDDALORE,IRUPPU,TAMIL NADU,0
125,Ujjivan Small Finance Bank Limited,UJVN0001669,PANAIYUR,"NEW NO.1/293 ( OLD NO.1/121),PERUMAL KOVIL STREET,PANAIYUR,SANKARANKOIL TALUK,TIRUNELVELI DIST -627761",TIRUNELVELI,PANAIYUR,TAMIL NADU,0
126,Ujjivan Small Finance Bank Limited,UJVN0001670,KOTTAMANGALAM,"NO 261/A2,TIRUPUR MAIN ROAD,KOTTAMANGALAM,UDUMALPET TALUK,TIRUPPUR DIST.-642201",TIRUPPUR,KOTTAMANGALAM,TAMIL NADU,0
127,Ujjivan Small Finance Bank Limited,UJVN0001671,KEELA RAJAKULARAMAN,"NO.7/282,MELA THEYRU,KEELA RAJAKULARAMAN,VIRUDHNAGAR DIST.-626136",VIRUDHUNAGAR,KEELA RAJAKULARAMAN,TAMIL NADU,0
128,Ujjivan Small Finance Bank Limited,UJVN0001672,VILLANDHIDASA SAMUTHIRAM,"NO.230/1A,JEYANDHIRAR NAGAR,CHIDAMBARAM MAIN ROAD,VILANTHIDA SAMUTRAM,SIRKARI TALUK,NAGAPATTINAM DIST.-637394",NAGAPATTINAM,VILLANDHIDASA SAMUTHIRAM,TAMIL NADU,0
129,Ujjivan Small Finance Bank Limited,UJVN0001673,BOGANALLUR,"NO.532/2,RICE MILL ROAD,BOGANALLUR VILLAGE,KADAIYANALLUR TALUK,TIRUNELVELI DIST.-627751",TIRUNELVELI,BOGANALLUR,TAMIL NADU,0
130,Ujjivan Small Finance Bank Limited,UJVN0001674,VELACHERY,"DOOR NO.1,OLD DOOR NO.93,PLOT NO.93 JANAKPURI 2ND STREET,SANKARAN AVENUE VELACHERY BYPASS ROAD,VELACHERY 600042 CHENNAI TAMIL NADU",CHENNAI,CHENNAI,TAMIL NADU,0
131,Ujjivan Small Finance Bank Limited,UJVN0001675,ANGARAI,"SENATHIPATHI COMPLEX,NO.53/5BALAJI NAGAR-2 TRICHY MAIN ROAD,ANGARAI PO LALGUDI( TK),TRICHY 621703 LALGUDI TIRUCHIRAPALLI TAMIL NADU",TIRUCHIRAPPALLI,LALGUDI,TAMIL NADU,0
132,Ujjivan Small Finance Bank Limited,UJVN0001676,JITTANDAHALLI,"NO.72,PALACODE MAIN ROADJITHANDAHALLI VILLAGE POSTPALACODE TALUK,DHARMAPURI 636805 DHARMAPURI TAMIL NADU",DHARMAPURI,DHARMAPURI,TAMIL NADU,0
133,Ujjivan Small Finance Bank Limited,UJVN0001677,MALLAPADI,SURVAY NO.294 MALLAPADI VILLAGE BARUGUR TALUK 635104 MALLAPADI KRISHNAGIRI TAMIL NADU,KRISHNAGIRI,MALLAPADI,TAMIL NADU,0
134,Ujjivan Small Finance Bank Limited,UJVN0001678,MELINABESIGE,"NO.281,MELENABESIGE ( JAYANAGARA ) VILLAGE MELEINABESIGE POST HOSANAGARA TALUK,SHIVAMOGGA 577418 HOSANAGARA SHIVAMOGGA KARNATAKA",SHIMOGA,HOSANAGARA,KARNATAKA,0
135,Ujjivan Small Finance Bank Limited,UJVN0001679,MELINAKURUVALLI,"SURVEY NO - 532/570,DOOR NO.8 MELENAKURUVALLI VILLAGE THIRTHAHALLY TALUK 577432 MELINAKURUVALLI SHIVAMOGGA KARNATAKA",SHIMOGA,MELINAKURUVALLI,KARNATAKA,0
136,Ujjivan Small Finance Bank Limited,UJVN0001680,TENKARAIKOTTAI,"NO.2/379,NAYAKARA STREET TENKARAIKOTTAI PAPPIREDDIPATTI DHARMAPURI 636904 PAPPIREDDIPATTI DHARMAPURI TAMIL NADU",DHARMAPURI,PAPPIREDDIPATTI,TAMIL NADU,0
137,Ujjivan Small Finance Bank Limited,UJVN0001681,MOGAPAIR,"4TH BLOCK,NO.751,HIG,MOGAPPAIR-WEST,MAIN ROAD J.J NAGAR - WEST,NOLAMBUR CHENNAI 600095 CHENNAI CHENNAI TAMIL NADU",CHENNAI,CHENNAI,TAMIL NADU,0
138,Ujjivan Small Finance Bank Limited,UJVN0001682,PORUR,"NO.55,GROUND FLOOR MP TRUNK ROAD PORUR,CHENNAI 600116 CHENNAI CHENNAI TAMIL NADU",CHENNAI,CHENNAI,TAMIL NADU,0
139,Ujjivan Small Finance Bank Limited,UJVN0001683,MAHADEVAGOLLAHALLI,"SURVEY NO.82/3B SUB DIVISIONAL SURVEY NO.82/3B2 MAHADEVAGOLLAHALLI VILLAGE,POCHAMPALLI TALUK 635206 MAHADEVAGOLLAHALLI KRISHNAGIRI TAMIL NADU",KRISHNAGIRI,MAHADEVAGOLLAHALLI,TAMIL NADU,0
140,Ujjivan Small Finance Bank Limited,UJVN0001684,HARALAHALLI,"SURVEY.NO 78/3,HARAHALLI VILLAGE GOVINAKAVI HOBLI,HONNALI TALUK DAVANGERE 577217 HARALAHALLI DAVANAGERE KARNATAKA",DAVANAGERE,HARALAHALLI,KARNATAKA,0
141,Ujjivan Small Finance Bank Limited,UJVN0001685,NETHANAHALLI,"NO.256/277& 227/1,NETHANAHALLI VILLAGE MAGADI TALUK RAMANAGARA 562210 MAGADI RAMANAGRA KARNATAKA",RAMANAGARA,MAGADI,KARNATAKA,0
142,Ujjivan Small Finance Bank Limited,UJVN0001686,UYYAMBALLI,"NO.206/257,UYAMBALLI VILLAGE& HOBLI KANAKAPURA TALUK RAMANAGRA 562126 KANAKAPURA RAMANAGRA KARNATAKA",RAMANAGARA,KANAKAPURA,KARNATAKA,0
143,Ujjivan Small Finance Bank Limited,UJVN0001687,SHYAGALE,"SURVEY NO.244/3P1 AND R.S.NO 244/3 SHYAGALE VILLAGE,MAYAKONDA HOBLI DAVANGERE TALUK,DAVANGERE 577002 DAVANAGERE DAVANAGERE KARNATAKA",DAVANAGERE,DAVANAGERE,KARNATAKA,0
144,Ujjivan Small Finance Bank Limited,UJVN0001688,THADAGANI,"NO.207/1 FORMED IN SURVEY NO.109 TADAGANI VILLAGE,UDUGANI HOBLI SHIKARIPURA TALUK,SHIVAMOGGA 577428 SHIKARIPURA SHIVAMOGGA KARNATAKA",SHIMOGA,SHIKARIPURA,KARNATAKA,0
145,Ujjivan Small Finance Bank Limited,UJVN0001689,MUNIYUR,"NO.77,MUNIYURU VILLAGE& POST KASABA HOBALI TURUVEKERE 572227 TUMKUR KA",TUMKUR,MUNIYUR,KARNATAKA,0
146,Ujjivan Small Finance Bank Limited,UJVN0001690,ALILAGHATTA,"NO.281,ALLILUGATTA VILLAGE HAGALAVADI HOBLI GUBBI TALUK 572222 ALALAGHATTA TUMKUR KA",TUMKUR,ALALAGHATTA,KARNATAKA,0
147,Ujjivan Small Finance Bank Limited,UJVN0001691,HANDIGANUR,"KHATHA NO.251,HANDIGANUR VILLAGE,HUKERI BELAGAVI 591143 HUKERI BELAGAVI KARNATAKA",BELGAUM,HUKERI,KARNATAKA,0
148,Ujjivan Small Finance Bank Limited,UJVN0001692,ALLIMARANAHALLI,"NO.20,ALLIMARANAHALLI VILLAGE KANAKAPURA TALUK RAMANAGARA 562117 KANAKAPURA RAMANAGARA KARANATAKA",RAMANAGARA,KANAKAPURA,KARNATAKA,0
149,Ujjivan Small Finance Bank Limited,UJVN0001693,TENNAMPATTI,"POONJOLAI NAGAR PILATUHU ROAD THENNAMPATTI,DINDIGUL 624802 THENNAMPATTI DINDIGUL TAMIL NADU",DINDIGUL,THENNAMPATTI,TAMIL NADU,0
150,Ujjivan Small Finance Bank Limited,UJVN0001694,MAPUSA,"SHOP NO.1,VATHAR RESIDENCY,MOROD 1 NEXT TO MAMLADAR OFFICE MAPUSA,BARDEZ 403507 MAPUSA NORTH GOA GOA",NORTH GOA,MAPUSA,GOA,0
151,Ujjivan Small Finance Bank Limited,UJVN0001695,KALMANE,"D.R.NO.234/142 S.NO.67 CHIPLI LINGADAHALLI KALMANE GRAM PANCHAYTH,SAGARA 577417 KALMANE SHIVAMOGGA KA",SHIMOGA,KALMANE,KARNATAKA,0
152,Ujjivan Small Finance Bank Limited,UJVN0001696,PACHAMPALAYAM,/6HYYRVENRODHYOSNHYRTKERODETND63314,ERODE,PACHAMPALAYAM,TAMIL NADU,0
153,Ujjivan Small Finance Bank Limited,UJVN0001697,ADANUR,KRUSHI PATTHINA SAHAKARA SANGA HOLLALKERE ADANUR 577526 ADANUR CHITRADURGA KA,CHITRADURGA,ADANUR,KARNATAKA,0
154,Ujjivan Small Finance Bank Limited,UJVN0002201,NORTH RO,"D-7,SECTOR-3,NOIDA,NEAR METRO STATION SECTOR -16,UP -201301",DELHI,DELHI,UTTAR PRADESH,0
155,Ujjivan Small Finance Bank Limited,UJVN0002203,VIGYAN VIHAR,"PLOT NO.3,VIGYAN VIHAR,GROUND FLOOR,DELHI 110092",EAST DELHI,DELHI,DELHI,0
156,Ujjivan Small Finance Bank Limited,UJVN0002204,PAHALADPUR,"A-6,SURAJKUND ROAD,PUL PAHALADPUR,NEW DELHI 110044",SOUTH DELHI,DELHI,DELHI,0
157,Ujjivan Small Finance Bank Limited,UJVN0002206,SULTANPURI,"NO.41/6,VASISTH BHAWAN,GROUND FLOOR,SARDAR PATEL JHEEL,POOTH KALAN VILLAGE,DELHI 110081",NORTH WEST DELHI,DELHI,DELHI,0
158,Ujjivan Small Finance Bank Limited,UJVN0002207,ADARSH NAGAR,"A-15,RAJAN BABU ROAD,ADARSH NAGAR,DELHI-110033",DELHI,DELHI,DELHI,0
159,Ujjivan Small Finance Bank Limited,UJVN0002208,NANGLOI,"35/18,ROHTAK ROAD,OPPOSITE METRO PILLAR NO.414,NANGLOI,DELHI 110041",WEST DELHI,DELHI,DELHI,0
160,Ujjivan Small Finance Bank Limited,UJVN0002210,RAJ NAGAR,"D-11,RAJ NAGAR,RDC,GHAZIABAD,UTTAR PARDESH - 201002",GHAZIABAD,GHAZIABAD,UTTAR PRADESH,0
161,Ujjivan Small Finance Bank Limited,UJVN0002211,SHADIPUR,"PLOT NO-2364/8,KHAMPUR RAYA VILLAGE,SHADI KAMPUR,MAIN PATEL ROAD,NEW DELHI 110008",WEST DELHI,WEST DELHI,DELHI,0
162,Ujjivan Small Finance Bank Limited,UJVN0002212,ALWAR,"TALWAAR TOWER,ROAD NO.2 NEAR KASHIRAM CHAURAHA OPPOSITE JAY COMPLEX 301001 RAJASTHAN",ALWAR,ALWAR,RAJASTHAN,0
163,Ujjivan Small Finance Bank Limited,UJVN0002213,BULANDSHAHR,"GROUND& FIRST FLOOR,261-C CIVIL LINES,KALA AAM CHOURAHA NEAR FIRDOSH MASJID 203001 UTTAR PRADESH",BULANDSAHAR,BULANDSEHAR,UTTAR PRADESH,0
164,Ujjivan Small Finance Bank Limited,UJVN0002214,BHARATPUR,"CHAK NO.2,KHASRA NO.1067,KASVA BHARATPUR,NEAR NASIYA JI JAIN MANDIR,CIRCULAR ROAD,BHARATPUR TEHSHIL AND DISTRICT BHARATPUR,RAJASTHAN",BHARATPUR,BHARATPUR,RAJASTHAN,0
165,Ujjivan Small Finance Bank Limited,UJVN0002218,FARIDABAD,"SHOP NO.10,GROUND FLOOR,BATA ROAD,DABUA CHOWK OPPOSITE PNB ATM,FARIDABAD,HARYANA - 121001",FARIDABAD,FARIDABAD,HARYANA,0
166,Ujjivan Small Finance Bank Limited,UJVN0002220,MEERUT,"HOUSE NO.B-11,YOJNA NO.03,SHASTRI NAGAR,MEERUT,UTTAR PRADESH-250002",MEERUT,MEERUT,UTTAR PRADESH,0
167,Ujjivan Small Finance Bank Limited,UJVN0002221,AJMER,"A.M.C NO.32/3,32/3A,369/28 NEW,GROUND AND 1ST FLOOR,SITUATED NEAR MARTINDLE BRIDGE,BEAWER ROAD,AJMER,RAJASTHAN",AJMER,AJMER,RAJASTHAN,0
168,Ujjivan Small Finance Bank Limited,UJVN0002224,KOTA,"PLOT NO.6,JHALAWAR ROAD,NEAR CHAWANI CHOURAHA,KOTA - 324007",KOTA,KOTA,RAJASTHAN,0
169,Ujjivan Small Finance Bank Limited,UJVN0002225,BUNDI,"PLOT NO.1,NEW COLONY,OPPOSITE CIRCUIT HOUSE,BUNDI,RAJASTHAN - 323001",BUNDI,BUNDI,RAJASTHAN,0
170,Ujjivan Small Finance Bank Limited,UJVN0002226,JAIPUR,"A - 58A,A59,UPPER GROUND,ANAND VIHAR,GOPALPURA BYEPASS,JAIPUR-302017",JAIPUR,JAIPUR,RAJASTHAN,0
171,Ujjivan Small Finance Bank Limited,UJVN0002227,KISHANGARH,"PLOT NO.2,PUROHIT AUTO SERVICE,NEXT TO CENTRAL BANK OF INDIA,AJMER ROAD,MADANGANJ,KISHANGARH - 305801",AJMER,KISHANGARH,RAJASTHAN,0
172,Ujjivan Small Finance Bank Limited,UJVN0002228,ROORKEE,"14,PURVAWALI MALVIYA CHOWK,DEHRADUN ROAD,ROORKEE OPPOSITE BANK OF INDIA 247667 UTTRAKHAND",ROORKEE,ROORKEE,UTTRAKHAND,0
173,Ujjivan Small Finance Bank Limited,UJVN0002229,HARIDWAR,"NO.603/402,GROUND FLOOR,ARVIND YOG MANDIR,AHMEDPUR KARACH,JWALAPUR,HARIDWAR-249407",HARIDWAR,HARIDWAR,UTTARAKHAND,0
174,Ujjivan Small Finance Bank Limited,UJVN0002231,DEHRADUN,"59/133,PATEL NAGAR SAHARANPUR ROAD,DEHRADUN ADJOINING HOTEL CALISTA 248001 UTTRAKHAND",DEHRADUN,DEHRADUN,UTTRAKHAND,0
175,Ujjivan Small Finance Bank Limited,UJVN0002232,JODHPUR,"PLOT NO-47,MAHADEV TOWER,UMRAO KHAN PETROL PUMP,SCHEME LIG -3,OPP.NEW KOHINOOR CINEMA,CHOUPSANI ROAD,JODHPUR-342003",JODHPUR,JODHPUR,RAJASTHAN,0
176,Ujjivan Small Finance Bank Limited,UJVN0002234,SAHARANPUR,"SHANKAR NAGAR DELHI ROAD,SAHARANPUR OPPOSITE SHAGUN PALACE 247001 UTTAR PRADESH",SAHARANPUR,SAHARANPUR,UTTAR PRADESH,0
177,Ujjivan Small Finance Bank Limited,UJVN0002235,PALI,"H.NO.151,BAPU NAGAR EXTENSION,OPP.PALI CENTRAL CO-OPERATIVE BANK,COLLEGE ROAD,PALI - 306401",PALI,PALI,RAJASTHAN,0
178,Ujjivan Small Finance Bank Limited,UJVN0002238,"CHANDIGARH, SEC-","SCO 130-131 SECTOR 34-A NEAR INDIAN BANK,CHANDIGARH 160034",CHANDIGARH,CHANDIGARH UT,CHANDIGARH,0
179,Ujjivan Small Finance Bank Limited,UJVN0002239,AMBALA CANT,"155,GROUND FLOOR,GOVIND NAGAR,BRAHMKUMARI CHOWK,AMBALA CANTT-133001",AMBALA,AMBALA,HARYANA,0
180,Ujjivan Small Finance Bank Limited,UJVN0002240,HASTSAL,"A-3,NEAR MATA ROOPRANI MAGGO HOSPITAL,NAWADA MAIN,NAJAFGARH ROAD,MOHAN GARDEN,UTTAM NAGAR,DELHI 110059",WEST DELHI,DELHI,DELHI,0
181,Ujjivan Small Finance Bank Limited,UJVN0002242,PALWAL,"MAUJA NEW COLONY,AGRA CHOWK NEAR ICICI BANK& INDUSIND BANK PALWAL 121102 HARYANA",PALWAL,PALWAL,HARYANA,0
182,Ujjivan Small Finance Bank Limited,UJVN0002243,REWARI,"H.NO.1652/57/1,GROUND FLOOR CIRCULAR ROAD,NEAR HEAD POST OFFICE FRONT OF TRAUMA CENTRE,REWARI 123401",REWARI,HARYANA,HARYANA,0
183,Ujjivan Small Finance Bank Limited,UJVN0002245,AGRA SANJAY PLACE,"VASAN PLAZA,GROUND FLOOR SANJAY PLACE NEAR HDFC BANK 282002 UTTAR PRADESH",AGRA,AGRA,UTTAR PRADESH,0
184,Ujjivan Small Finance Bank Limited,UJVN0002246,"TRANS YAMUNA COLONY, PHASE-II","NO.2599,NATIONAL HIGHWAY II,AGRA FIROZABAD ROAD,MAUJA NARAICH,TEHSIL ETMADPUR,DIST AGRA-283203",AGRA,AGRA,UTTAR PRADESH,0
185,Ujjivan Small Finance Bank Limited,UJVN0002249,MODINAGAR,"SRS SQUARE GT ROAD,MODINAGAR NEAR DOMINOZ BUILDING,NEAR MOHAN PARK 201204 UTTAR PRADESH",MODINAGAR,MODINAGAR,UTTAR PRADESH,0
186,Ujjivan Small Finance Bank Limited,UJVN0002251,HAPUR,"GROUND FLOOR,RAM GANJ,T POINT FREE GANJ,RAILWAY ROAD 0 245101 UTTAR PRADESH",HAPUR,HAPUR,UTTAR PRADESH,0
187,Ujjivan Small Finance Bank Limited,UJVN0002254,YAMUNA VIHAR,"C 1/4A,GROUND FLOOR,YAMUNA VIHAR,DELHI - 110053",DELHI,NEW DELHI,DELHI,0
188,Ujjivan Small Finance Bank Limited,UJVN0002255,ABOHAR,"KHATONI NO.398,KHEWAT NO 262/261,WESTERN CIRCULAR ROAD,NEAR PUNJAB NATIONAL BANK,HAKIKAT RAI CHOWK,DIST.FAZILKA,PUNJAB,PIN-152116",ABOHAR,ABOHAR,PUNJAB,0
189,Ujjivan Small Finance Bank Limited,UJVN0002256,HISSAR,"SCO.NO.73-74,GROUND FLOOR,RED SQUARE MARKET,NEAR EMINENT MALL,HISSAR -125001",HISSAR,HISSAR,HARYANA,0
190,Ujjivan Small Finance Bank Limited,UJVN0002257,JIND,"NO.6441,GROUND& 1ST FLOOR,208P,SECTOR-DSC,URBAN ESTATE,NEAR IDBI BANK,JIND - 126102",JIND,JIND,HARYANA,0
191,Ujjivan Small Finance Bank Limited,UJVN0002258,BHIWANI,"BALAJI COMPLEX CIRCULAR ROAD,OLD BUS STAND NEAR SPACE HOSPITAL,BHIWANI 127021",BHIWANI,HARYANA,HARYANA,0
192,Ujjivan Small Finance Bank Limited,UJVN0002259,ROHTAK,"84/17,GROUND FLOOR VAKILON WALI GALI UDMIPURA,ROHTAK 124001 HARYANA",ROHTAK,ROHTAK,HARYANA,0
193,Ujjivan Small Finance Bank Limited,UJVN0002260,KANKARKHERA,"NO.25,GROUND FLOOR,MOHALLA BADRISHPURAM,REVENUE VILLAGE DANTAL,KANKARKHERA,SARDHANA ROAD,TEHSIL& DISTRICT MEERUT-250001",MEERUT,MEERUT,UTTAR PRADESH,0
194,Ujjivan Small Finance Bank Limited,UJVN0002264,SONIPAT,"NO.15,GROUND FLOOR,RAKBA,PATTI MUSALMANAN,NEAR CIVIL HOSPITAL,BAHALGARH ROAD,SONIPAT,TEHSIL AND DISTRICT SONIPAT-131001",SONIPAT,SONIPAT,HARYANA,0
195,Ujjivan Small Finance Bank Limited,UJVN0002265,SRI GANGANAGAR,"COMPLEX NO.13,J - BLOCK,NEAR BIRBAL CHOWK GAUSHALA ROAD,SRI GANGANAGAR - 335001",SRI GANGANAGAR,SRI GANGANAGAR,RAJASTHAN,0
196,Ujjivan Small Finance Bank Limited,UJVN0002266,HANUMANGARH,"SH 36,BABA SHYAM SINGH COLONY,OPPOSITE NARANG HOTEL,NEXT TO EASY DAY,HANUMANGARH,RAJASTHAN 335512",HANUMANGARH,HANUMANGARH,RAJASTHAN,0
197,Ujjivan Small Finance Bank Limited,UJVN0002267,SIRSA,"H.N.128,GROUND FLOOR,OPP GOVT ITI,GANDHI COLONY,RANIA ROAD,SIRSA-125055",SIRSA,SIRSA,HARYANA,0
198,Ujjivan Small Finance Bank Limited,UJVN0002268,BHATINDA,"SCF NO.138& 138 A,KHASRA NO.1986& 1988,KHEWAT/KHATUANI NO.3421/15923& KHEWAT/KHATUANI NO.3421/15914,GROUND FLOOR SITUATED AT PATTI JHUTTI,BHATINDA,PUNJAB DISTRICT 151001",BHATINDA,BHATINDA,PUNJAB,0
199,Ujjivan Small Finance Bank Limited,UJVN0002269,ALIGARH,"KHASRA NO.1,DHARAM COMPLEX,GROUND FLOOR,RASOOLPUR SWAD,TEHSIL KOIL,ALIGARH,UP-202001",ALIGARH,ALIGARH,UTTAR PRADESH,0
200,Ujjivan Small Finance Bank Limited,UJVN0002273,PANIPAT,"PLOT NO.3,GROUND FLOOR,NEAR SANATAN DHARAM COLLEGE AND KATARIA COLONY,NAGAR NIGAM PANIPAT,GT ROAD,PANIPAT-132103",PANIPAT,PANIPAT,HARYANA,0
201,Ujjivan Small Finance Bank Limited,UJVN0002274,KARNAL,"H NO.314 L,MEHTA HOUSE,MODAL TOWN,MAIN MARKET,KARNAL 132001",KARNAL,KARNAL,HARYANA,0
202,Ujjivan Small Finance Bank Limited,UJVN0002275,LUDHIANA FIROZPUR ROAD,"SANDHU TOWER,GURDEV NAGAR NEAR ANSAL PLAZA FEROZPUR ROAD,LUDHIANA 141001 PUNJAB",LUDHIANA,LUDHIANA,PUNJAB,0
203,Ujjivan Small Finance Bank Limited,UJVN0002276,LUDHINA CHANDIGARH ROAD,"SCO NO.33,SECTOR -32A URBAN ESTATE CHANDIGARH ROAD 141003 PUNJAB",LUDHIANA,LUDHIANA,PUNJAB,0
204,Ujjivan Small Finance Bank Limited,UJVN0002277,JALANDHAR,"NO.1293/1569,KHASRA NO.3624/889,REVENUE ESTATE OF VILLAGE CHAK HUSSIANA,HOSHIARPUR ROAD,LAMBA PIND CHOWK,JALANDHAR - 144001",OB,JALANDHAR,PUNJAB,0
205,Ujjivan Small Finance Bank Limited,UJVN0002278,RUPNAGAR,"HOUSE NO.4934,KHATA NO.554/715,KHASRA NO.41/4/1/1 ( 1-14),WARD NO.16,GURU NAGAR,NEAR BHATTA SAHIB CHOWK,TEHSIL AND DISTRICT,RUPNAGAR - 140001",UNG,RUPNAGAR,PUNJAB,0
206,Ujjivan Small Finance Bank Limited,UJVN0002279,SANGRUR,"KHASRA NO.1988/2,11-7,1988/3/1,3-6,1991/2/2 MIN,0-2,BANSAL BHAWAN,GAUSHALA ROAD,NEAR BANSAL SHEET BHANDAR,SANGRUR148001",SANGRUR,SANGRUR,PUNJAB,0
207,Ujjivan Small Finance Bank Limited,UJVN0002280,AMRITSAR,"SHOP NO.49,J.K.TOWER,MALL ROAD,AMRITSAR,PUNJAB143001",AMRITSAR,AMRITSAR,PUNJAB,0
208,Ujjivan Small Finance Bank Limited,UJVN0002281,PATIALA,"2A,CHOTI BARADARI,BANK COMPLEX,PATAIALA,PUNJAB,PIN CODE -147001147001",PATIALA,PATIALA,PUNJAB,0
209,Ujjivan Small Finance Bank Limited,UJVN0002285,INDORE,"PLOT NO.17-A PART C,GROUND& 1ST FLOOR,BAMRU COLONY JAORA,COMPOUND INDORE,MADHYA PRADESH-452001",INDORE,INDORE,MADHYA PRADESH,0
210,Ujjivan Small Finance Bank Limited,UJVN0002287,PITHAMPUR,"JEEVAN COMPLEX,GROUND FLOORNEAR DENA BANKMHOW-NEEMUCH ROAD 454775 PITHAMPUR MADHYA PRADESH",PITHAMPUR,PITHAMPUR,MADHYA PRADESH,0
211,Ujjivan Small Finance Bank Limited,UJVN0002288,BHILWARA,"SHOP NO.3& 4,SHRI MAHALAXMI CHAMBERS,NEXT TO LG SHOWROOM,PUR ROAD,BHILWARA,RAJASTHAN - 311001",BHILWARA,BHILWARA,RAJASTHAN,0
212,Ujjivan Small Finance Bank Limited,UJVN0002289,KAITHAL,"AGGARSAIN PURAM COLONY AMBALA ROAD NEXT TO PNB BANK,KAITHAL 136027",KAITHAL,HARYANA,HARYANA,0
213,Ujjivan Small Finance Bank Limited,UJVN0002290,KURUKSHETRA,"PARTAP COLONY OPPOSITE HOTEL PEARL MARK,NEAR RUDRA CINEMA RAILWAY ROAD,KURUKSHETRA 136118 HARYANA",KURUKSHETRA,KURUKSHETRA,HARYANA,0
214,Ujjivan Small Finance Bank Limited,UJVN0002291,YAMUNA NAGAR,"KAPOOR COMPLEX,GROUND FLOOR,TAGORE GARDEN,YAMUNA NAGAR,BYE PASS CHOWK JAGADHRI ROAD,TEHSIL JAGADHRI,YAMUNA NAGAR,-135001",YAMUNA NAGAR,YAMUNA NAGAR,HARYANA,0
215,Ujjivan Small Finance Bank Limited,UJVN0002293,UNA,"NO.2101/1106,GROUND FLOOR,UP-MAHAL MALAHAT NAGAR,NEAR JAGAT HOSPITAL,TENSIL& DISTRICT - UNA-174303",UNA,UNA,HIMACHAL PRADESH,0
216,Ujjivan Small Finance Bank Limited,UJVN0002295,JHAJJHAR,"R.NO.155,GROUND FLOOR BESIDE OBC BANK,ROHTAK ROAD NEAR NEW BUS STAND,JHAJJAR 124103 HARYANA",JHAJJAR,JHAJJAR,HARYANA,0
217,Ujjivan Small Finance Bank Limited,UJVN0002300,MATOR,NEAR BY BUS STAND MATOR TEHSIL - MUNDAWAR 301404 MATOR ALWAR RAJASTHAN,ALWAR,MATOR,RAJASTHAN,0
218,Ujjivan Small Finance Bank Limited,UJVN0002302,BARNALA,"B - 12/00282,MEGH RAJ& SONS,PACCA COLLEGE ROAD,OPPOSITE UNION BANK,BARNALA,PUNJAB-148101",BARNALA,BARNALA,PUNJAB,0
219,Ujjivan Small Finance Bank Limited,UJVN0002303,MANSA,"GROUND FLOOR,SHIMLA COMPLEX ICICI BANK BUILDING,SODHI STREET CORNER WATERWORKS ROAD,MANSA 151505 PUNJAB",MANSA,MANSA,PUNJAB,0
220,Ujjivan Small Finance Bank Limited,UJVN0002304,GIDDERBAHA,"D A V VAISH HIGH SCHOOL NEAR HDFC BANK HUSSANAR GATE,CIRCULAR ROAD,GIDDARBHA 152101 PUNJAB",MUKTSAR,MUKTSAR,PUNJAB,0
221,Ujjivan Small Finance Bank Limited,UJVN0002311,MATHURA,"GROUND FLOOR,AKASHDEEP BUILDING BHUTESHWAR ROAD OPPOSITE BSA COLLEGE 281004 UTTAR PRADESH",MATHURA,MATHURA,UTTAR PRADESH,0
222,Ujjivan Small Finance Bank Limited,UJVN0002313,SAMALAKHA,"WARD NO - 4,GROUND FLOOR MAIN GT ROAD,WITH PNB& OBC BANK,SAMALKHA,PANIPAT ( HARYANA ) - 132101",SAMALKHA,PANIPAT,HARYANA,0
223,Ujjivan Small Finance Bank Limited,UJVN0002315,SEJWAYA,"GROUND FLOOR,SEJAYA POST -GHATA BILLOD DHAR 454773 GHATABILLOD DHAR MADHYA PRADESH",DHAR,GHATABILLOD,MADHYA PRADESH,0
224,Ujjivan Small Finance Bank Limited,UJVN0002317,BADNAGAR,"GROUND FLOOR,PLOT NO.35& 36 DIVERSION ROAD,JAWAHAR NAGAR BADNAGAR 456771 BADNAGAR UJJAIN MADHYA PRADESH",BADNAGAR,BADNAGAR,MADHYA PRADESH,0
225,Ujjivan Small Finance Bank Limited,UJVN0002320,FATEHABAD,"NO.214,GROUND FLOOR,G.T.ROAD,BASTI BHIWAN,NH-10,NEAR INDUS BANK,FATEHABAD - 125050",FATEHABAD,FATEHABAD,HARYANA,0
226,Ujjivan Small Finance Bank Limited,UJVN0002323,KHERA KHEMAWATI,NEAR SUBHASH MACHINERY STORE SAFIDON ASSANDH ROAD GAON KHERA KHEMAWATI 126112 KHERA KHEMAWATI JIND HR,JIND,KHERA KHEMAWATI,HARYANA,0
227,Ujjivan Small Finance Bank Limited,UJVN0002324,PINGOR,"GROUND FLOOR,RELIANCE TOWERBELA MORE,PINGOREHASSANPUR,PALWAL 121105 PALWAL HARYANA",PALWAL,PALWAL,HARYANA,0
228,Ujjivan Small Finance Bank Limited,UJVN0002327,GWALIOR,"WARD NO.46,PLOT NO.48/56,MOHARKAR KI GALI TOWARD HUZRAT KOTWALI ROAD,LOHIYA BAZAAR LASHKAR,NAYA BAZAR CHAURAHA,GWALIOR 474009",GWALIOR,GWALIOR,MADHYA PRADESH,0
229,Ujjivan Small Finance Bank Limited,UJVN0002330,MUKTSAR,"UJJIVAN SMALL FINANCE BANK,48 SCFNEW GRAIN MARKET,NEAR ICICI BANK SHRI MUKTSAR SAHIB 152026 MUKTSAR PUNJAB",MUKHTSAR,MUKTSAR,PUNJAB,0
230,Ujjivan Small Finance Bank Limited,UJVN0002331,SAMRALA,STAR TOWER CHANDIGARH ROAD OPPOSITE RAJINDRA FILLING STATION 141114 PUNJAB,SAMRALA,SAMRALA,PUNJAB,0
231,Ujjivan Small Finance Bank Limited,UJVN0002332,NARNAUL,"PROPERTY ID NO.973,GROUND FLOOR SHANTI TOWER,REWARI ROAD OPPOSITE NARUA HOTEL,NEAR BUS STAND NARNAUL 123001",NARNAUL,HARYANA,HARYANA,0
232,Ujjivan Small Finance Bank Limited,UJVN0002334,GONIANA,"SHRI BAKERS,GROUND FLOOR,MALL ROAD,OPPOSITE CIVIL HOSPITAL,GONIANA MANDI,GONIANA-151201",GONIANA,BHATINDA,PUNJAB,0
233,Ujjivan Small Finance Bank Limited,UJVN0002337,SONKHAR,"WARD NO 13,GROUND FLOOR,SONKHARNEAR AHINSA CIRCLE,SONKHAR ROAD,KHERLIKATHUMAR,ALWAR 321606 ALWAR RAJASTHAN",ALWAR,ALWAR,RAJASTHAN,0
234,Ujjivan Small Finance Bank Limited,UJVN0002338,SANGANER,"HOP NO.3A,GROUND FLOOR AND FIRST FLOOR,KRISHNA VIHAR,NEAR - PUSHP ENCLAVE,TONK ROAD,SANGANER,JAIPUR - 302033",,JAIPUR,RAJASTHAN,0
235,Ujjivan Small Finance Bank Limited,UJVN0002339,RAIPUR,"H NO.38/517,518,564/4,GROUND FLOOR AND FIRST FLOOR,TATYAPARA,WARD NO.38,P.C.NO.106A,RIS-RAIPUR,TEHSIL& DIST.RAIPUR C.G - 492001",RAIPUR,RAIPUR,CHHATTISGARH,0
236,Ujjivan Small Finance Bank Limited,UJVN0002341,DURG,"NO.1342/9,UPLABDHI PLAZA,GROUND FLOOR,GURUDWARA ROAD,BESIDE BANK OF BARODA,STATION ROAD,MALVIYA NAGAR,DURG -491001",DURG,DURG,CHHATTISGARH,0
237,Ujjivan Small Finance Bank Limited,UJVN0002343,BILASPUR,"GROUND FLOOR,SHOP NO.5-6,VYAPAR VIHAR ROAD BHARTIYA NAGAR CHOWK,RAMA PORT BESIDE DR.SHEKHAR TIWARI HOSPITAL,BILASPUR 495001 BILASPUR BILASPUR CG",BILASPUR,BILASPUR,CHHATTISGARH,0
238,Ujjivan Small Finance Bank Limited,UJVN0002344,RAJNANDGAON,"GROUND FLOOR,JAISHANKAR NIWAS,PLOT NO 111 BLOCK C,WARD NO 13 BEHIND HDFC BANK 491441 CHHATISGARH",RAJNANDGAON,RAJNANDGAON,CHHATTISGARH,0
239,Ujjivan Small Finance Bank Limited,UJVN0002345,KOTLI,GROUND FLOOR VILLAGE -KOTLI SIRSA 125055 SIRSA SIRSA HARYANA,SIRSA,SIRSA,HARYANA,0
240,Ujjivan Small Finance Bank Limited,UJVN0002346,MEHRANA,KHASRA NO 409(7-1 ) MEHRANA JHAJJAR 124102 JHAJJAR JHAJJAR HARYANA,JHAJJAR,JHAJJAR,HARYANA,0
241,Ujjivan Small Finance Bank Limited,UJVN0002347,NOIDA SEC,"UPPER GROUND FLOORPLOT NO.P-11,SEC 18OPPOSITE GREAT INDIA PALACE MALL,NEAR FOOTOVER BRIDGE 201301 NOIDA UTTAR PRADESH",GAUTAM BUDDHA NAGAR,NOIDA,UTTAR PRADESH,0
242,Ujjivan Small Finance Bank Limited,UJVN0002348,SAJUMA,HATBAST NO-14 VILL - SAJUMA TEHSIL& DISTT - KAITHAL 136117 SAJUMA KAITHAL HARYANA,KAITHAL,SAJUMA,HARYANA,0
243,Ujjivan Small Finance Bank Limited,UJVN0002349,SOHNA ROAD,"GROUND FLOOR,SHOP NO - G-4,G-5 G-6SPAZE BOULEVARD,SOHNA ROADSEC-47,GURGAON 122001 GURGAON HARYANA",GURGAON,GURGAON,HARYANA,0
244,Ujjivan Small Finance Bank Limited,UJVN0002350,DIDWARA,"KHEWAT NO.92,VILL-DIDWARA TEHSIL SAFIDON JIND 126112 DIDWARA JIND HARYANA",JIND,DIDWARA,HARYANA,0
245,Ujjivan Small Finance Bank Limited,UJVN0002351,DHARERU,KHEWAT NO.397 VILL-DHARERU TEHSIL - BHIWANI 127309 DHARERU BHIWANI HARYANA,BHIWANI,DHARERU,HARYANA,0
246,Ujjivan Small Finance Bank Limited,UJVN0002352,GHOGHARIAN,VILL -GHOGHRIAN POST& TEH.UNCHAN KALAN JIND 126115 GHOGHARIAN JIND HARYANA,JIND,GHOGHARIAN,HARYANA,0
247,Ujjivan Small Finance Bank Limited,UJVN0002353,NALWIPAR,VILLAGE -NALWIPAR PO - NALWIPAR TEHSIL -KARNAL 132022 NALWIPAR KARNAL HR,KARNAL,NALWIPAR,HARYANA,0
248,Ujjivan Small Finance Bank Limited,UJVN0002354,BHUTHAN KALAN,HATBAST NO-180 BHUTAN KALAN FATEHABAD 125050 FATEHABAD FATEHABAD HARYANA,FATEHABAD,FATEHABAD,HARYANA,0
249,Ujjivan Small Finance Bank Limited,UJVN0002355,GUROOTHI,"KHEWAT NO.690,GROUND FLOOR VILL-GUROOTHI ROHTAK 124514 GUROOTHI ROHTAK HARYANA",ROHTAK,GUROOTHI,HARYANA,0
250,Ujjivan Small Finance Bank Limited,UJVN0002356,SONDHAPUR,WARD NO-18 VILLAGE-SONDAPUR MAIN SONDAPUR ROAD PANIPAT 132103 SONDHAPUR PANIPAT HARYANA,PANIPAT,SONDHAPUR,HARYANA,0
251,Ujjivan Small Finance Bank Limited,UJVN0003301,EAST RO,"TLRRISITECPARK,PREMISESN.020360,PLTN.DH6/2,ACTINAREAID,NEWTWN,KLKATA-700160",KOLKATA,KOLKATA,WEST BENGAL,0
252,Ujjivan Small Finance Bank Limited,UJVN0003303,TOLLYGUNGE,"PARK VIEW APARTMENT NO.173,SHYAMA PRASAD MUKHERJEE ROAD,CORPORATION WARD NO.87,P S TOLLYGUNGE,DISTRICT 24 PARAGANAS ( SOUTH),KOLKATA 700026",24 PARAGANAS SOUTH,24 PARAGANAS SOUTH,WEST BENGAL,0
253,Ujjivan Small Finance Bank Limited,UJVN0003305,SALT LAKE,"AA-50,SALT LAKE CITY,KOLKATA 700064",KOLKATA,KOLKATA,WEST BENGAL,0
254,Ujjivan Small Finance Bank Limited,UJVN0003306,KAMAL GAZI,"VINAYAK PRIDE,GROUND FLOOR,470 DAKSHIN KUMARAKHALI ROAD,KAMAL GAZI SONARPUR RD KOLKATA WEST BENGAL-700150",KOLKATA,KOLKATA,WEST BENGAL,0
255,Ujjivan Small Finance Bank Limited,UJVN0003307,DAKSHINESWAR,"NO.301,GROUND FLOOR,ASHOKGARH,24 PARAGANAS ( NORTH),DUNLOP,KOLKATA 700108",24 PAGARANAS NORTH,24 PAGARANAS NORTH,WEST BENGAL,0
256,Ujjivan Small Finance Bank Limited,UJVN0003309,KASBA,"GROUND FLOOR,BALAJI APARTMENT,53,KN SEN ROAD BOSEPUKUR,KASBA,KOLKATA-700042",KOLKATA,KOLKATA,WEST BENGAL,0
257,Ujjivan Small Finance Bank Limited,UJVN0003310,THAKURPUKUR,"GROUND FLOOR 94 D.H.ROAD,THAKURPUKUR KOLKATA 700063",KOLKATA,KOLKATA,WEST BENGAL,0
258,Ujjivan Small Finance Bank Limited,UJVN0003311,DUMDUM,"PARK VIEW APARTMENT,NO.372/1,JASHORE ROAD,SOUTH DUMDUM,KOLKATA 700028",KOLKATA,KOLKATA,WEST BENGAL,0
259,Ujjivan Small Finance Bank Limited,UJVN0003312,PARK CIRCUS,"NO.187,PARK STREET ROAD,PARK CIRCUS,P S BENIAPUKUR,KOLKATA 700017",KOLKATA,KOLKATA,WEST BENGAL,0
260,Ujjivan Small Finance Bank Limited,UJVN0003313,SHIBPUR,"395/2,AB PALACE,GROUND FLOOR,GT ROAD SOUTH,SHIBPUR,OPP -KIDS LOVEDALE SCHOOL,HOWRAH-711103",HOWRAH,HOWRAH,WEST BENGAL,0
261,Ujjivan Small Finance Bank Limited,UJVN0003314,BARASAT,"10 TAKI ROAD,BIDHAN PARK BARASAT 24 PGS NORTH CHAPADALI MORE,KOLKATA - 700124",BARASAT,BARASAT,WEST BENGAL,0
262,Ujjivan Small Finance Bank Limited,UJVN0003315,BARRACKPUR,"NO.41/1,B.T.ROAD,BARRACKPORE,KOLKATA-700123",KOLKATA,BARRACKPORE,WEST BENGAL,0
263,Ujjivan Small Finance Bank Limited,UJVN0003317,HABRA,VILL-JOYGACHI P.O. & P.S.HABRA -743263,4PN ( OTH,HABRA,WEST BENGAL,0
264,Ujjivan Small Finance Bank Limited,UJVN0003319,BELUR,"GROUND FLOOR,51/1GIRISH GHOSH ROADBELUR,MUNCIPALITY-BALLY,NEAR RANGOLI MALL 711202 HOWRAH WEST BENGAL",BELUR,HOWRAH,WEST BENGAL,0
265,Ujjivan Small Finance Bank Limited,UJVN0003321,CHAKDAHA,"GROUND FLOOR,AT MOUZA PUMLIYA,JL NO.14,LR KHATIAN NO.776,LR DAG NO.469,CHAKDA BANGA ROAD,NEAR BSNL EXCHANGE,CHAKDAH,NADIA PO PS-CHAKDAH,DIST-NADIA-741222",NADIA,CHAKDAHA,WEST BENGAL,0
266,Ujjivan Small Finance Bank Limited,UJVN0003322,BAIDYABATI,"KUNJA VILLA,GROUND AND 1ST FLOOR,B26 187/3A,GT ROAD,KAJIPARA,PO-BAIDYABATI,PS-SREERAMPUR,DIST HOOGHLY - 711222",HOOGHLY,CHANDANNAGAR,WEST BENGAL,0
267,Ujjivan Small Finance Bank Limited,UJVN0003324,ULUBERIA,BAZARPARA ULUBERIA HOWRAH 711316,ULUBERIA,ULUBERIA,WEST BENGAL,0
268,Ujjivan Small Finance Bank Limited,UJVN0003325,BANDEL,"STATION ROAD NEAR GURUDWARA,BANDEL HOOGHLY 712123",BANDEL,BANDEL,WEST BENGAL,0
269,Ujjivan Small Finance Bank Limited,UJVN0003326,ANDUL,"GROUND& 1 FLOOR,ANDUL PURBA PARA ANDUL ROAD HOWRAH 711302",SANKRAIL,ANDUL,WEST BENGAL,0
270,Ujjivan Small Finance Bank Limited,UJVN0003327,SAKCHI,"NO.96,GF1& GF2,OM PLAZA,GROUND FLOOR,THAKURBARI ROAD,P.O.AND P.S.SAKCHI,TOWN JAMASHEDPUR,EAST SINGHBHUM DIST -831001",EAST SINGHBHUM,JAMSHEDPUR,JHARKHAND,0
271,Ujjivan Small Finance Bank Limited,UJVN0003329,PARSUDIH,"MAIN ROAD OPP,ANAMIKA STUDIO BESIDE SUNIL ELECTRONICS PARSUDIH,JAMSHEDPUR 831002 EAST SINGHBHUM JHARKHAND",JAMSHEDPUR,JAMSHEDPUR,JHARKHAND,0
272,Ujjivan Small Finance Bank Limited,UJVN0003330,DOMJUR,"SRI.GANESH DARSHAN APPARTMENT BUILDING 2,KANTCHARI BARI,VILL P.O DOMJUR,HOWRAH-711405",HOWRAH,HOWRAH,WEST BENGAL,0
273,Ujjivan Small Finance Bank Limited,UJVN0003331,RAJPUR,"NO.112,NSC BOSE ROAD,RAJPUR,P.S-SONARPUR,24 PARGANAS ( NORTH),KOLKATA-700149",4PRN ( OT ),24 PARGANAS SOUTH,WEST BENGAL,0
274,Ujjivan Small Finance Bank Limited,UJVN0003332,KACHRAPARA,"GROUND FLOOR,KGR PATH JORA MANDIR BUS STAND KANCHRAPARA,24 PGS(N ) 743145",HALISAHAR,KACHRAPARA,WEST BENGAL,0
275,Ujjivan Small Finance Bank Limited,UJVN0003334,BUDGE BUDGE,"RUD&FIRSTFLR531-M.RAD,P.O&P.SBUDGEBUDGE,SUTHTWETYFURPARGAAS,WESTBEGAL-700137",SOUTH TWENTY FOUR PARGANAS,BUDGE BUDGE,WEST BENGAL,0
276,Ujjivan Small Finance Bank Limited,UJVN0003336,DHANBAD,"PLOT NO.3178& 3179,KHATA NO.22,MOUZA NO.08,MOUZA-SARAIDHELA,PS-SARAIDHELA,DHANBAD DIST - 828127",DHANBAD,DHANBAD,JHARKHAND,0
277,Ujjivan Small Finance Bank Limited,UJVN0003337,KATRAS,"KESHRI COMPLEX,GROUND FLOOR BHAGAT SINGH CHOWK,NEAR BANK OF INDIA RAIGUNJ ROAD,KATRAS BAZAR,KATRAS 828113 DHANBAD JHARKHAND",KATRAS,DHANBAD,JHARKHAND,0
278,Ujjivan Small Finance Bank Limited,UJVN0003339,CHANDRASHEKHARPUR,"GROUND FLOOR,PLOT NO 307 C DISTRICT CENTER CHANDRASEKHARPUR BHUBANESHWAR 751016 KHORDHA ODISHA",BHUBANESWAR,BHUBNESWAR,ODISHA,0
279,Ujjivan Small Finance Bank Limited,UJVN0003340,BAGNAN,"GROUND& 1ST FLOOR,LIBRARY MORE,VILL POST-KHADINAN,PS BAGNAN,DIST HOWRAH-711303",HOWRAH,BAGNAN,WEST BENGAL,0
280,Ujjivan Small Finance Bank Limited,UJVN0003343,SAMANTRAPUR,"PLOT NO.3006/3885,UNIT NO.28,GROUND AND 1ST FLOOR,GAUTAM NAGAR,WARD NO.3,HOLDING NO.1480,LEWIS ROAD,RAVI TALKIES SQUIRE,BHUBANESWAR,SAMANTARAPUR,ORISSA",JAGATSINGHPUR,BHUBANESWAR,ODISHA,0
281,Ujjivan Small Finance Bank Limited,UJVN0003344,BARAMUNDA,"UNIT NO.11,UPPER GROUND FLOOR SAHEED NAGAR,MAHARSHI COLLEGE ROAD,BHUBANESHWAR,KHURDA 751007 ODISHA",BHUBANESWAR,BHUBANESWAR,ODISHA,0
282,Ujjivan Small Finance Bank Limited,UJVN0003345,RATU ROAD,"RADHA SHYAM TOWER,VILL - MADHUKUM,RATUROAD,RANCHI-834001",JHARKHAND,RANCHI,JHARKHAND,0
283,Ujjivan Small Finance Bank Limited,UJVN0003347,PANSKURA,"WARD NO.8,BAHIR GRAM PANSKURA PURBA MEDINIPUR 721152",PANSKURA,PANSKURA,WEST BENGAL,0
284,Ujjivan Small Finance Bank Limited,UJVN0003349,LALPUR,"GROUND& LOWER GROUND FLOOR,NARSARIA TOWER LALPUR,OPP - LALPUR THANA RANCHI 834001 JHARKHAND",RANCHI,RANCHI,JHARKHAND,0
285,Ujjivan Small Finance Bank Limited,UJVN0003350,GOVINDPUR,"UPPER BAZAR,G.T.ROAD,GOVINDPUR,DHANBAD,JHARKHAND - 828109",DHANBAD,DHANBAD,JHARKHAND,0
286,Ujjivan Small Finance Bank Limited,UJVN0003352,SAGUNA MORE,"HOUSE NO.88/33,GROUND FLOOR,1ST FLOOR,AND SECOND FLOOR,MAHAAL-2/1,WARD NO.13/11,THANA NO.24,TOUZI NO.5234,MOUZA-MAINPUR SHANKAR,THANA,DISTRICT -DANAPUR 801503",PATNA,DANAPUR,BIHAR,0
287,Ujjivan Small Finance Bank Limited,UJVN0003353,PATNA CITY,"GROUND FLOOR,KALABIND GARDEN,HAJIGANG,PATNA CITY 800008",PATNA,PATNA,BIHAR,0
288,Ujjivan Small Finance Bank Limited,UJVN0003354,ADITYAPUR,"RAJANI COMPLEX,NEAR ASHIANA CHOWK ADITYAPUR JAMSHEDPUR 831013 JHARKHAND",JAMSHEDPUR,JAMSHEDPUR,JHARKHAND,0
289,Ujjivan Small Finance Bank Limited,UJVN0003356,PURI,"GROUND FLOOR,PLOT NO.505/1 VIP ROAD,NEAR PKDA OFFICE PURI 752001 PURI ODISHA",PURI,PURI,ODISHA,0
290,Ujjivan Small Finance Bank Limited,UJVN0003357,GHATSHILA,"GROUND FLOOR 06 SANDPURA,GHATSHILA EAST SINGHBHUM 832303 JHARKHAND",GHATSILA,EAST SINGHBHUM,JHARKHAND,0
291,Ujjivan Small Finance Bank Limited,UJVN0003358,HAJIPUR,"CENTRAL BANK BUILDING,CINEMA ROAD,HAJIPUR,BIHAR-844102",HAJIPUR,HAJIPUR,BIHAR,0
292,Ujjivan Small Finance Bank Limited,UJVN0003359,BURDWAN,"SHANTI COMPLEX,GROUND FLOOR,WARD NO 1,LAXMIPUR,GT ROAD,PO PS DIST BURDWAN,WEST BENGAL 713701",BARDHAMAN,BURDWAN,WEST BENGAL,0
293,Ujjivan Small Finance Bank Limited,UJVN0003360,ARAMBAGH,"GROUND FLOOR,WARD NO.5 LINK ROAD,BASANTA PUR MORE ARAMBAGH,HOOGHLY 712601",ARAMBAGH,ARAMBAGH,WEST BENGAL,0
294,Ujjivan Small Finance Bank Limited,UJVN0003361,PANAGARH,"GROUND FLOOR,GT ROAD PRAYAG PUR,PO-PANAGARH BAZAR PASCHIM BARDHAMAN 713148",BUDBUD,PANAGARH,WEST BENGAL,0
295,Ujjivan Small Finance Bank Limited,UJVN0003365,HAZARIBAGH,"GROUND FLOOR,OPPOSITE JAIN MIDDLE SCHOOL GOLA CHOWK HAZARIBAGH 825301 HAZARIBAGH JHARKHAND",HAZARIBAGH,HAZARIBAGH,JHARKHAND,0
296,Ujjivan Small Finance Bank Limited,UJVN0003367,MEMARI,"1ST FLOOR,MEMARI HOSPITAL MORE ABOVE FEDERAL BANK,MEMARI PURBA BARDHAMAN 713146",DEVIPUR,MEMARI,WEST BENGAL,0
297,Ujjivan Small Finance Bank Limited,UJVN0003368,BOLPUR,"BOLPUR SANTINIKETAN ROAD MISSION COMPOUND,NEAR BORO MASJID BOLPUR,BIRBHUM 731204",SHANTINIKETAN,BOLPUR,WEST BENGAL,0
298,Ujjivan Small Finance Bank Limited,UJVN0003369,DURGAPUR,"TECH INTERNATIONAL BUILDING,RED CROSS ROAD,CITY CENTRE,DURGAPUR,WEST BENGAL-713216",BARDHAMAN,DURGAPUR,WEST BENGAL,0
299,Ujjivan Small Finance Bank Limited,UJVN0003370,ASANSOL,"SHYAM PLAZA,G.T.ROAD,NEAR AD SCHOOL,OPP INCOME TAX BUILDING ASANSOL,- 713304",PASCHIM BARDHAMAN,ASANSOL,WEST BENGAL,0
300,Ujjivan Small Finance Bank Limited,UJVN0003373,FATUAH,"ARYAVAN BUILDING,NEAR POLICE STATION,MAIN ROAD FATUHA -803201",FATUAH,FATUAH,BIHAR,0
301,Ujjivan Small Finance Bank Limited,UJVN0003374,GANDHI MAIDAN,"CD TOWERS,OPP POST OFFICE,JAMAL RD,FRASER ROAD AREA,PATNA,BIHAR-800001",BIHAR,PATNA,BIHAR,0
302,Ujjivan Small Finance Bank Limited,UJVN0003375,ANISHABAD,"KHAGAUL ROAD,ANISHABAD,OPP.ICICI BANK PIN -800002",PATNA,PATNA,BIHAR,0
303,Ujjivan Small Finance Bank Limited,UJVN0003376,DHANIAKHALI,"TINU BHABAN,NO.253,CHAPABERA MOUJA,DHANIAKHALI,PO PS-DHANIKHALI,DIST-HOOGHLY-712302",HOOGHLY,DHANIAKHALI,WEST BENGAL,0
304,Ujjivan Small Finance Bank Limited,UJVN0003377,KANSBAHAL,"GROUND FLOOR,PLOT NO 160 AT/P.O NEAR MARKET,KANSHBAHAL SUNDERGARH 770034 SUNDERGARH ODISHA",SUNDARGARH,RAJGANGPUR,ODISHA,0
305,Ujjivan Small Finance Bank Limited,UJVN0003378,ROURKELA,"GROUND FLOOR,PRAFUL TOWER,CIVIL TOWNSHIP,ROURKELA-769004",SUNDERGARH,ROURKELA,ODISHA,0
306,Ujjivan Small Finance Bank Limited,UJVN0003382,MALLARPUR,"BR ROAD,MALLARPUR,MAYURESWER,BIRBHUM 731216",BIRBHUM,SAINTHIA,WEST BENGAL,0
307,Ujjivan Small Finance Bank Limited,UJVN0003383,KULTI,"GROUND FLOOR,GT ROAD,KULTI RANI TALA,BNR GATE,PO& PS -KULTI,PIN 713343",KULTI,KULTI,WEST BENGAL,0
308,Ujjivan Small Finance Bank Limited,UJVN0003384,KHARAGPUR,"SRI.NIWAS BUILDING,NO.207/109 WARD NO 16 OPPOSITE JAIN MARBLE,MALANCHA KHARAGPUR 721304 PASCHIM MEDINIPUR WEST BENGAL",KHARAGPUR,KHARAGPUR,WEST BENGAL,0
309,Ujjivan Small Finance Bank Limited,UJVN0003385,MIDNAPUR,"MONIMA PALACE,RAJABAZAR OPP.HEAD POST OFFICE MIDNAPUR 721101 PASCHIM MEDINIPUR WEST BENGAL",MIDNAPUR,PASCHIM MIDNAPUR,WEST BENGAL,0
310,Ujjivan Small Finance Bank Limited,UJVN0003386,BERHAMPORE,GROUND FLOORCHANDRALAYA10 R.K.SARANI 742103 BERHAMPORE WEST BENGAL,BAHARAMPUR,BERHAMPORE,WEST BENGAL,0
311,Ujjivan Small Finance Bank Limited,UJVN0003387,MALDA,"LR KHATIAN,NO.240,PLOT NO.1957,CLASS BASTU,GROUND FLOOR,WARD NO 20,S.M PALLY,MALDA,DIST MALDA,P.S ENGISH BAZAR,MOUZA-SERPUR MOKIMPUR",MALDA,MALDA,WEST BENGAL,0
312,Ujjivan Small Finance Bank Limited,UJVN0003388,KALAMBAGH ROAD,"UJJIVAN SMALL FINANCE BANK LIMITED,GROUND FLOOR,DAYA COMPLEX -AGHORIA BAZAR,KALAMBAGH ROAD,MUZAFFARPUR - 842002",MUZZAFARPUR,MUZAFFARPUR,BIHAR,0
313,Ujjivan Small Finance Bank Limited,UJVN0003389,BHAGWANPUR,"JAI HIND COMPLEX,FIRST FLOOR,GOBARSAHI CHOWK,NH 28,MUZAFFARPUR -842001",MUZZAFARPUR,MUZAFFARPUR,BIHAR,0
314,Ujjivan Small Finance Bank Limited,UJVN0003501,CONTAI,GROUND FLOOR KARKULI CONTAI PURBA MEDINIPUR 721401,CONTAI,CONTAI,WEST BENGAL,0
315,Ujjivan Small Finance Bank Limited,UJVN0003502,TAMLUK,"JL NO.276,GROUND FLOOR,LR KHATIAN NO.334/2& 339/1,WARD NO.16,MOUZA-DAHARPUR,PO PS TAMLUK,DIST PURBA MEDINIPUR 721636",EAST MIDNAPORE,TAMLUK,WEST BENGAL,0
316,Ujjivan Small Finance Bank Limited,UJVN0003503,DEOGHAR,"HOTEL ANJALI,COURT ROAD(INFRONT OF SP OFFICE ) SATSANG CHOWK DEOGHAR 814112 JHARKHAND",DEOGHAR,DEOGHAR,JHARKHAND,0
317,Ujjivan Small Finance Bank Limited,UJVN0003504,SAMBALPUR,"PLOT NO.131,LALITHA TOWER,KISSAM GHARABARI EK,ANITHAPALLI CORSSING,NH-5,SAMBALPUR,ODISHA-768004",SAMBALPUR,BHUBANESWAR,ODISHA,0
318,Ujjivan Small Finance Bank Limited,UJVN0003507,BALURGHAT,"L NO.107,WARD NO.14,HILI MORE,MANGALPUR,PS AND ADSR-BALURGHAT,SOUTH DINAJPUR DIST-733101",SOUTH DINAJPUR,BALURGHAT,WEST BENGAL,0
319,Ujjivan Small Finance Bank Limited,UJVN0003508,JALPAIGURI,BEGUNTARY P.O P.S JALPAIGURI 735101 JALPAIGURI JALPAIGURI WEST BENGAL,JALPAIGURI,JALPAIGURI,WEST BENGAL,0
320,Ujjivan Small Finance Bank Limited,UJVN0003511,SILIGURI,"PLOT NO.9657,KHATIAN NO.5280,MOUZA-SILIGURI,WARD NO.13,DISTRICT DARJEELING",DARJEELING,SILIGURI,WEST BENGAL,0
321,Ujjivan Small Finance Bank Limited,UJVN0003512,LACHIT NAGAR,"PRITHIVI CENTER,UNIT NO.G/C,G.S.ROAD,LACHIT NAGAR,OPPOSITE KFC BUILDING,GUWAHATI,DIST-KAMRUP(METRO ) ASSAM",KAMRUP,GUWAHATI,ASSAM,0
322,Ujjivan Small Finance Bank Limited,UJVN0003513,KALAPAHAR,"GROUND FLOOR,HOUSE NO.9KALAPAHAR,LOKHRA ROAD0 781018 GUWAHATI ASSAM",GUWAGATI,GUWAHATI,ASSAM,0
323,Ujjivan Small Finance Bank Limited,UJVN0003514,MALIGAON,MALIGAON GATE NO-1OPP.N.F.RAILWAY HEADQUARTERA.T ROAD.GUWAHATI781011GUWAHATIKAMRUP METROPOLITANASSAM,GUWAHATI,GUWAHATI,ASSAM,0
324,Ujjivan Small Finance Bank Limited,UJVN0003516,COOCHBEHAR,"JL NO.130,LR KHATIAN,14664,14665& 14666,GROUND FLOOR,WARD NO.2,KAMESHWARI ROAD,P.O DIST - COOCHBEHAR,P.S-KOTWALI.COOCHBEHAR 736101",COOCH BEHAR,COOCHBEHAR,WEST BENGAL,0
325,Ujjivan Small Finance Bank Limited,UJVN0003517,ALIPURDUAR,"GROUND,2ND FLOOR,NEAR SOBHAGANJ BUS STAND SUBHASHPALLY NEAR ALUMINUM FACTORY ALIPURDUAR 736121 ALIPURDUAR ALIPURDUAR WEST BENGAL",ALIPURDUAR,ALIPURDUAR,WEST BENGAL,0
326,Ujjivan Small Finance Bank Limited,UJVN0003519,POLICE BAZAR,"LAXMI PLAZA,GARIKHANA,OLD G.S ROAD,DIPHU MARKET,NR MUDA PARKING,SHILLONG-793002",EAST KHASI HILLS,POLICE BAZAR,MEGHALAYA,0
327,Ujjivan Small Finance Bank Limited,UJVN0003521,JHARSUGUDA,"GROUND FLOOR,CHAWLA HEIGHTSSARBAHAL ROADJHARSUGUDA 768201 JHARSUGUDA ODISHA",JHARSUGUDA,JHARSUGUDA,ODISHA,0
328,Ujjivan Small Finance Bank Limited,UJVN0003524,SULTANGANJ,"SULTANGANJ,THANA SULTANGANJ,WARD NO.9,NH - 80,SULTANGANJ,BHAGALPUR-813213",SULTANGANJ,SULTANGANJ,BIHAR,0
329,Ujjivan Small Finance Bank Limited,UJVN0003525,KAHELGAON,"NTPC ROAD,WARD NO 16,HATIYA ROAD,KAHALGAON-813203",KAHELGAON,KAHELGAON,BIHAR,0
330,Ujjivan Small Finance Bank Limited,UJVN0003527,BHAGALPUR,"UJJIVAN SMALL FINANCE BANK,GANJI MILL CAMPUS,TILKA MAJHI,CENTRAL JAIL ROAD,BHAGALPUR 821002",BHAGALPUR,BHAGALPUR,BIHAR,0
331,Ujjivan Small Finance Bank Limited,UJVN0003529,PURNIA,"CHITRABANI ROAD,KALIBARI CHOWK,PURNIA-854301",PURNIA,PURNIA,BIHAR,0
332,Ujjivan Small Finance Bank Limited,UJVN0003531,SONAPUR,"GROUND FLOOR,NEW MARKETSONAPUR0 782402 GUWAHATI ASSAM",SONAPUR,GUWAHATI,ASSAM,0
333,Ujjivan Small Finance Bank Limited,UJVN0003533,NARENGI,"NARENGI TINALI,MT ROAD,NEAR - EG NURSING HOME,NARENGI,GUWAHATI,ASSAM-781026",KAMRUP,GUWAHATI,ASSAM,0
334,Ujjivan Small Finance Bank Limited,UJVN0003534,CHAITANYAPUR,"LTN.25,GLN.65,UTTARKALINAGAR,O-CHAITNYAUR,SSUTAHATA,URBAMIDNAORE,WESTBENGAL-721645",PURBA MEDINIPUR,SUTAHATA,WEST BENGAL,0
335,Ujjivan Small Finance Bank Limited,UJVN0003535,GAYA,"TEKARI ROAD,GAYA,NEAR TAINIK DHARMSALA,GAYA,PIN 823001",GAYA,GAYA,BIHAR,0
336,Ujjivan Small Finance Bank Limited,UJVN0003537,JEHANABAD,"MADARPUR STATION ROAD,JAHANABAD,PIN-804408",JEHANABAD,JEHANABAD,BIHAR,0
337,Ujjivan Small Finance Bank Limited,UJVN0003538,UPAR HALI,"PADMINI TOWER,NH-37,MIRZA ( SANTIPUR),PS - PALASHBARI,ASSAM -781125",KAMRUP,MIRZA,ASSAM,0
338,Ujjivan Small Finance Bank Limited,UJVN0003539,SUALKUCHI,"1ST FLOOR,ABOVE UNITED BANK OF INDIA,KULHATI,KAMRUP,ASSAM -781104",KAMRUP,HAJO,ASSAM,0
339,Ujjivan Small Finance Bank Limited,UJVN0003542,MANER,"AJAY MARKET,JAIPRAKASH NAGAR,OPP.BSNL TOWER,MANER,BIHAR - 801108",PATNA,MANEPUR,BIHAR,0
340,Ujjivan Small Finance Bank Limited,UJVN0003544,DARBHANGA,"FATIMA COMPLEX,UPPER GROUND,LALBAGH MIRZAPUR,INFRONT OF PETROL PUMP,DARBHANGA 846004",DARBHANGA,DARBHANGA,BIHAR,0
341,Ujjivan Small Finance Bank Limited,UJVN0003545,SAHARSA,"THANA NO.189,SAHARSA TOLA,PURAB BAZAR,WARD NO.19,ANCHAL KAHARA,SAHARSA - 852201",SAHARSA,SAHARSA,BIHAR,0
342,Ujjivan Small Finance Bank Limited,UJVN0003547,BARAUNI,"SOKHRA 2,DAIRY ROAD,NEAR PNB,BARAUNI,PIN-851112",BARAUNI,BARAUNI,BIHAR,0
343,Ujjivan Small Finance Bank Limited,UJVN0003548,BEGUSARAI,"KAILSH MOTEL NH-31,HARHAR MAHDEV CHOWK,BEGUSARAI,BIHAR",BEGUSARAI,BEGUSARAI,BIHAR,0
344,Ujjivan Small Finance Bank Limited,UJVN0003550,AGARTALA CENTRAL,"71/4,CENTRAL ROAD,AGARTALA,TRIPURA WEST ( OPPOSITE SHIB BARI),AGARTALA-799001",TRIPURA WEST,AGARTALA,TRIPURA,0
345,Ujjivan Small Finance Bank Limited,UJVN0003551,BORDWALI,"BORDWALI,NR - AXIS BANK,WEST AGARTALA-799003",TRIPURA WEST,AGARTALA,TRIPURA,0
346,Ujjivan Small Finance Bank Limited,UJVN0003552,BISHALGARH,"BISHALGARH BAZAR,AGARTALA UDAIPUR ROAD,NEAR BISHALGARH MOTORSTAND,BISHALGARH,SEPAHIJALA -799102",WEST TRIPURA,BISHALGARH,Tripura,0
347,Ujjivan Small Finance Bank Limited,UJVN0003553,UDAIPUR,"1ST FLOOR,BIDYASAGAR ROAD,NEAR KBI BOARDING,UDAIPUR -799120",SOUTH TRIPURA,UDAIPUR,Tripura,0
348,Ujjivan Small Finance Bank Limited,UJVN0003554,MELAGARGH,"NR.CHANDIGARH MUNICIPALITY ROAD,DISTSIPAHIJALA,MELAGHAR -799115",WEST TRIPURA,MELAGARGH,Tripura,0
349,Ujjivan Small Finance Bank Limited,UJVN0003555,CHOUDWAR,"PLOT NO-59/2169,FIRST FLOOR AT/P.O/P.S CHOUDWAR,MAIN ROAD NEAR YAMAHA SHOW ROOM CUTTACK 754025 CUTTACK ODISHA",CHOUDWAR,CHOUDWAR,ODISHA,0
350,Ujjivan Small Finance Bank Limited,UJVN0003556,MOTIHARI,"PLOT NO.62(PART ) AND 63,THANA NO.166,BHAWANIPUR ZIRAT,N.H.BYE PASS,MOTIHARI,EAST CHAMPARAN,BIHAR845401",EAST CHAMPARAN,MOTIHARI,BIHAR,0
351,Ujjivan Small Finance Bank Limited,UJVN0003557,SAMASTIPUR,"DR.KP SINGH TOWER OPP.HDFC BANK,ADARSH NAGAR MOHANPUR ROAD,SAMASTIPUR 848101 SAMASTIPUR SAMASTIPUR BIHAR",SAMASTIPUR,SAMASTIPUR,BIHAR,0
352,Ujjivan Small Finance Bank Limited,UJVN0003558,DALSINGSARAI,"NH-28,MAHAVIR CHOWK,DALSINGH SARAI-848114",DALSINGSARAI,DALSINGSARAI,BIHAR,0
353,Ujjivan Small Finance Bank Limited,UJVN0003559,TEZPUR,"DAG NO.1461KA& KHA OLD,1663 NEW,PP NO.293 OLD,767 NEW,MOUZA-MAGABHAIRAB,TEZPUR 3RD PART,BINJRAJ ROAD,LAT NO.1 PO & PS,REVENUE CIRCLE-TEZPUR,DISTRICT-SONTIPUR,ASSAM784001",SONITPUR,TEZPUR,ASSAM,0
354,Ujjivan Small Finance Bank Limited,UJVN0003560,NAGAON,"GROUND 1ST FLOOROPP HAIBARGAON BOYS HIGH SCHOOLHAIBARGAON,AT ROAD 782002 NAGAON ASSAM",NAGAON,NAGAON,ASSAM,0
355,Ujjivan Small Finance Bank Limited,UJVN0003561,NALBARI,"WARD NO.5,N.T.ROAD,NALABARI,ASSAM",NALBARI,NALBARI,ASSAM,0
356,Ujjivan Small Finance Bank Limited,UJVN0003562,BAIHATI CHAIRALI,"2ND FLOOR,B.D.COMPLEX, NEAR POLICE TRAFFIC POINT, BAIHATA CHARIALI, KAMRUP 781381",KAMRUP,BAIHATI CHAIRALI,ASSAM,0
357,Ujjivan Small Finance Bank Limited,UJVN0003563,GOLAGHAT,"2ND FLOOR,ABOVE DOWRAH FURNITURE,G F ROAD,GOLAGHAT,ASSAM -785621",GOLAGHAT,GOLAGHAT,ASSAM,0
358,Ujjivan Small Finance Bank Limited,UJVN0003564,M G ROAD- JORHAT,M.G.ROADOPP OLD PUBLIC BUS STAND0 785001 JORHAT ASSAM,JORHAT,JORHAT,ASSAM,0
359,Ujjivan Small Finance Bank Limited,UJVN0003565,KENDUGURI-JORHAT,"GROUND AND FIRST FLOOR KENDUGURI TINIALI JUNCTION CHARIGAON,JORHAT 785010 JORHAT JORHAT ASSAM",JORHAT,JORHAT,ASSAM,0
360,Ujjivan Small Finance Bank Limited,UJVN0003566,RAHA,RAHA NATUN CHARAILINEAR-HUSSAIN HARDWARE0 782103 NAGAON ASSAM,NAGAON,NAGAON,ASSAM,0
361,Ujjivan Small Finance Bank Limited,UJVN0003567,TITABOR,"2ND FLOOR,STATION TINIALI,NEAR SAIKIA PETROL PUMP,OPP.GYANDEEP ACADEMY,TITABOR,JORHAT -785630",JORHAT,TITABOR,ASSAM,0
362,Ujjivan Small Finance Bank Limited,UJVN0003568,PATHSALA,"2ND FLOOR, BHATTADEV NAGAR, WARD NO 8, PATHSALA 781325",BARPETA,PATHSALA,ASSAM,0
363,Ujjivan Small Finance Bank Limited,UJVN0003569,TELIAMURA,"GROUND FLOOR,A A ROAD,TELIAMURA,KHOWAI,TRIPURA -799205",KHOWAT,TELIAMURA,Tripura,0
364,Ujjivan Small Finance Bank Limited,UJVN0003570,KUMARGHAT,"1ST FLOOR,ROTIABARI,KUMARGHAT,UNAKUTI -799264",UNAKUTI,KUMARGHAT,Tripura,0
365,Ujjivan Small Finance Bank Limited,UJVN0003571,DHARMANAGAR,"CS PLOT NO.6384,RS.PLOT NO.7449,GROUND AND 1ST FLOOR,OFFICE TILLA,OPPOSITE OFFICE TILLA KALI BARI,MOUZA - DHARMANAGAR TOWN,TAHASIL-DHARMANAGAR,DISTRICT-NORTH TRIPURA",NORTH TRIPURA,DHARMANAGAR,TRIPURA,0
366,Ujjivan Small Finance Bank Limited,UJVN0003572,MATIAGACHA,"VILLAGE PODRA ( LANGOLPOTA),NEAR JO SANTOSHIMA WEIGH BRIDGE,PO RAJARHAT,BISHNUPUR,KOLKATA 700135",BANKURA,BANKURA,WEST BENGAL,0
367,Ujjivan Small Finance Bank Limited,UJVN0003573,DOGACHIA,"DOGACHIA,P.O DOGACHIA MONMOHANPUR,P.S GHIGHATA,NPRTH 24 PGS-743245",NORTH 24 PARGANAS,HABRA,WEST BENGAL,0
368,Ujjivan Small Finance Bank Limited,UJVN0003574,ADITYAPUR BAZAR,"ADITYAPUR GRAM,P.O PACHBERIA,NORTH 24 PGS ( D ) ADITYAPUR -743710",NORTH 24 PGS,CHAKDAH,WEST BENGAL,0
369,Ujjivan Small Finance Bank Limited,UJVN0003575,PARAMBUYA,"PARAMBUYA,POST CHENCHUA,DIST.HOOGHLY,PS DHANIAKHALI-712402",HOOGLY,HOOGLY,WEST BENGAL,0
370,Ujjivan Small Finance Bank Limited,UJVN0003576,KASTODANGA,"VILL& P.O KASTODANGA,NADIA,WEST BENGAL 741257",NADIA,HARINGHATA,WEST BENGAL,0
371,Ujjivan Small Finance Bank Limited,UJVN0003577,FATIKGACHI,"FATIKGACHI,KALITALA,P.O.SIDDHASWAR,P.S.JAGAT BALLAVPUR,HOWRAH-711414",HOWRAH,HOWRAH,WEST BENGAL,0
372,Ujjivan Small Finance Bank Limited,UJVN0003578,KAIKALA,"VILL,PO-KAIKALA,DIST-HOOGHLY,WEST BENGAL -712405",HOOGLY,ARAMBAGH,WEST BENGAL,0
373,Ujjivan Small Finance Bank Limited,UJVN0003579,PURBANAPURA,"VILL& P.O PURBA NOAPARA,NADIA,WEST BENGAL 741501",NADIA,RAHAGHAT,WEST BENGAL,0
374,Ujjivan Small Finance Bank Limited,UJVN0003580,NAITI,"NAITI,PANCHANAN TALA,NEAR AITI HIGH SCHOOL,DIST-HOOGHLY,WEST BENGAL 712702",HOOGLY,DANKUNI,WEST BENGAL,0
375,Ujjivan Small Finance Bank Limited,UJVN0003581,SUDHARSAN MORE,"SUDARSAN,P.O.RAMNATHPUR,DIST-HOOGHLY,WEST BENGAL -712148",HOOGLY,BANDEL,WEST BENGAL,0
376,Ujjivan Small Finance Bank Limited,UJVN0003582,BHABANIPUR,"BHABANIPUR,KALYANCHAK,PURBA MEDINIPUR,WEST BENGAL 721632",PURBA MIDNAPUR,HALDIA,WEST BENGAL,0
377,Ujjivan Small Finance Bank Limited,UJVN0003583,ANUR,"VILL& POST ANUR,P.S GOGHAT,DIST HOOGHLY-712612",HOOGLY,HOOGLY,WEST BENGAL,0
378,Ujjivan Small Finance Bank Limited,UJVN0003584,GHODASA,"1ST FLOOR,AT-ODOPAINGA,PO-GHODANSHA,BLOCK CHHAKA,NAUGAON,JAGATSINGHAPUR,ODISHA -754107",JAGAT SINGHAPUR,NAUGAON,ODISHA,0
379,Ujjivan Small Finance Bank Limited,UJVN0003585,NASIKESHWAR,"GROUND FLOOR,NEAR NATESWAR TEMPLE,PO-SISUA,DIST-PURI,NASIKESWAR -752109",PURI,KAKATPUR,ODISHA,0
380,Ujjivan Small Finance Bank Limited,UJVN0003586,BHILIGRAM,"GROUND FLOOR,GOLEI CHHAKA,GP-VILIGRAM,BISHNUPUR,PURI,ODISHA -752106",PURI,NIMAPARA,ODISHA,0
381,Ujjivan Small Finance Bank Limited,UJVN0003596,PATAPUR,"PATAPUR,P.O - CHATUA,P.S - KUJANGANEAR PATAPUR PANCHAYAT JAGATSINGHPUR754141 JAGATSINGHPUR JAGATSINGHPUR ODISHA",JAGATSINGHPUR,JAGATSINGHPUR,ODISHA,0
382,Ujjivan Small Finance Bank Limited,UJVN0003597,JAYNAGAR,"RADHANAGAR,P.O RADHANAGAR,P.S SHYAMPURNEAR KHARUBERIA MOREHOWRAH711314HOWRAHHOWRAHWEST BENGAL",HAORA,HOWRAH,WEST BENGAL,0
383,Ujjivan Small Finance Bank Limited,UJVN0003598,BASUDEBPUR,"NARAYANPUR,OPP DARGAPUR SHIMLA PANCHAYAT P.O RUDRAPUR,P.S BADURIA NORTH 24 PARGANAS 743401 BASIRHAT NORTH 24 PARGANAS WEST BENGAL",NORTH TWENTY FOUR PARGANAS,BASIRHAT,WEST BENGAL,0
384,Ujjivan Small Finance Bank Limited,UJVN0003599,BISWANATHPUR,"GROUND FLOOR,BISWANATHPUR KARTHIKPUR BAZAAR,P.O.DEYGANGA BISWANATHPUR BAZAR 743423 BISWANATHPUR NORTH 24 PARGANAS WEST BENGAL",NORTH TWENTY FOUR PARGANAS,BISWANATHPUR,WEST BENGAL,0
385,Ujjivan Small Finance Bank Limited,UJVN0003600,DIBYASINGPUR,"FIRST FLOOR,PLOT NO -791 PATTAJOSHIPUR MARKET,PO-BAKU,PS-GADISHAGADA PURI 752020 PURI PURI ODISHA",DIBYASINGHAPUR,PURI,ODISHA,0
386,Ujjivan Small Finance Bank Limited,UJVN0003601,EKANGARSARAI,NEAR IOCL PETROL PUMP JEHANABAD ROAD EKANGARSARAI 801301 EKANGARSARAI NALANDA BIHAR,NALANDA,EKANGARSARAI,BIHAR,0
387,Ujjivan Small Finance Bank Limited,UJVN0003602,GOPIBALLAVPUR,"GROUND FLOOR NAYA BASAN,GOPIBALLAVPUR JHARGRAM 721506 GOPIBALLAVPUR JHARGRAM WEST BENGAL",PASCHIM MEDINIPUR,GOPIBALLAVPUR,WEST BENGAL,0
388,Ujjivan Small Finance Bank Limited,UJVN0003603,TAKIPUR,"GROUND FLOOR,NEAR AMLANI GRAM PANCHAYAT VILLAGE HARIPUR,P.O TAKIPUR TAKIPUR 743429 TAKIPUR NORTH 24 PARGANAS WEST BENGAL",NORTH TWENTY FOUR PARGANAS,TAKIPUR,WEST BENGAL,0
389,Ujjivan Small Finance Bank Limited,UJVN0003604,TILKHOJA,"FIRST FLOOR VILLAGE,P.O - CHONGRA P.S -MAYNA 721629 TILKHOJA PURBA MEDINIPUR WEST BENGAL",PURBA MEDINIPUR,TILKHOJA,WEST BENGAL,0
390,Ujjivan Small Finance Bank Limited,UJVN0003605,DWARI GERIA,"DWARI GERIA,CHANDRAKONA ROAD BUS STAND P.S.- GORBETA SATBANKURA GRAM PANCHAYAT 721253 DWARIGERIA PASCHIM MIDNAPORE WEST BENGAL",PASCHIM MEDINIPUR,DWARIGERIA,WEST BENGAL,0
391,Ujjivan Small Finance Bank Limited,UJVN0003606,ANDHARMANIK,VILL P.O -ANDHARMANIK P.S -BISHNUPUR 0 743503 ANDHARMANIK SOUTH 24 PARGANAS WEST BENGAL,SOUTH TWENTY FOUR PARGANAS,ANDHARMANIK,WEST BENGAL,0
392,Ujjivan Small Finance Bank Limited,UJVN0003607,MAHUA SINGH RAE,MUZAFFARPUR ROAD GANDHI CHOWK MAHUA SINGH RAE 844122 MAHUA VAISHALI BIHAR,VAISHALI,MAHUA,BIHAR,0
393,Ujjivan Small Finance Bank Limited,UJVN0003608,MAKANPUR,"GROUND FLOOR MAKKANDPUR CHOWK NH - 31,KURSHAILA ROAD,NAUGACHIA 853204 BHAGALPUR BHAGALPUR BIHAR",BHAGALPUR,BHAGALPUR,BIHAR,0
394,Ujjivan Small Finance Bank Limited,UJVN0003609,ANDHANA,"MAIN ROAD NOORSARAI KATHMANDI P.O -NOORSARAI,P.S -NOORSARAI -803113 ANDHANA NALANDA BIHAR",NALANDA,ANDHANA,BIHAR,0
395,Ujjivan Small Finance Bank Limited,UJVN0003610,SRIPATIPUR,"FIRST FLOOR,VILLAGE-SRIPATIPUR SIAKHALA HOOGHLY 712706 SRIPATIPUR HOOGHLY WEST BENGAL",HUGLI,SRIPATIPUR,WEST BENGAL,0
396,Ujjivan Small Finance Bank Limited,UJVN0003611,TOLA CHHAWNI,"BESIDE PUNJAB NATIONAL BANK SUPRIYA ROAD CHAWANI,BETTIAH 845438 TOLA CHHAWNI PASCHIM CHAMPARAN BIHAR",PASCHIM CHAMPARAN,TOLA CHHAWNI,BIHAR,0
397,Ujjivan Small Finance Bank Limited,UJVN0003612,SAHEBGANJ,"SLR-PRAAPPAI,NEARKESHAWCHWK,SAHEBGANJ,MUZAFFARPUR,BIHAR-84325",MUZAFFARPUR,SAHEBGANJ,BIHAR,0
398,Ujjivan Small Finance Bank Limited,UJVN0003613,DHAKA,"PANCHPAKRI ROAD,NEAR GANDHI CHOWK MOTIHARI EAST CHAMPARAN 845418 DHAKA EAST CHAMPARAN BIHAR",PURBA CHAMPARAN,DHAKA,BIHAR,0
399,Ujjivan Small Finance Bank Limited,UJVN0003614,RAJGIR,HOUSE NO -707 VILL -GULJARBAG RAJGIR BLOCK ROAD RAJGIR 803116 RAJGIR NALANDA BIHAR,NALANDA,RAJGIR,BIHAR,0
400,Ujjivan Small Finance Bank Limited,UJVN0003615,MAHMADPUR BAYA,"AZAD HIND MARKET,AXIS BANK COMPOUND,FIRST FLOOR GOPINATHPUR,DOKRA NEAR MOTICHOWK,P.S -SARAIYA 843126 MAHMADPUR BAYA MUZAFFARPUR BIHAR",MUZAFFARPUR,MAHMADPUR BAYA,BIHAR,0
401,Ujjivan Small Finance Bank Limited,UJVN0003616,SAGAULI,"GROUND FLOOR,NR.CENTRAL BANK OF INDIA NH-28A SAGAULI 845456 SAGAULI EAST CHAMPARAN BIHAR",PURBA CHAMPARAN,SAGAULI,BIHAR,0
402,Ujjivan Small Finance Bank Limited,UJVN0004401,WEST RO,"ALMONTE IT PARK,SR.NO.8,7TH FLOOR,HADAPSAR MUNDHWA BYPASS,VILLAGE KHARADI,PUNE-411014",PUNE,PUNE,MAHARASHTRA,0
403,Ujjivan Small Finance Bank Limited,UJVN0004402,VISHRANTWADI,"V9 LANDMARK,KASTURBA COOPERATIVE HSG.SOCIETY PUNE ALANDI ROAD VISHRANTWADI 411015 PUNE MAHARASHTRA",PUNE,PUNE,MAHARASHTRA,0
404,Ujjivan Small Finance Bank Limited,UJVN0004403,SWARGATE,"SUSANGEET,NO.484,MITRA MANDAL CHOWK,OPPOSITE MARATHON BHAVAN,PARVATI PAYTHA,PUNE 411037",PUNE,PUNE,MAHARASHTRA,0
405,Ujjivan Small Finance Bank Limited,UJVN0004404,HADAPSAR,"NO.154/ 2,NARAYA BAUG SOCIETY,GROUND FLOOR,OFFICE NO.4,5,6& AC BASEMENT ROOM,OPPOSITE NOBLE HOSPITAL,MUNDHWA ROAD,HADAPSAR,PUNE 411028",PUNE,PUNE,MAHARASHTRA,0
406,Ujjivan Small Finance Bank Limited,UJVN0004406,AKURDI,"IHYOFO,SHOPNO.10&11,GOUNDFLOO,BEIDETHEX,SRNO.152/4,TS5120,NEKHNDOBMNDI,KUDI,PUNE-411019",PUNE,PUNE,MAHARASHTRA,0
407,Ujjivan Small Finance Bank Limited,UJVN0004407,PIMPRI,"SHOP NO.3 TO 6,SN 11/2,JHAMTANI IMPRESSION,OPPOSITE STATE BANK OF INDIA,MAUJE PIMPRI WAGHERE,SAVTA MALI NAGAR,PIMPRI TOWN 411017,TALUK HAVELI",PUNE,PUNE,MAHARASHTRA,0
408,Ujjivan Small Finance Bank Limited,UJVN0004408,DP ROAD,"VRUNDAVAN COMMERICAL COMPLEX SHARAVATI HOUSING SOCIETYOPP.GURU GANESH NAGAR,DP ROAD,KOTHRUD 411038 PUNE MAHARASHTRA",PUNE,PUNE,MAHARASHTRA,0
409,Ujjivan Small Finance Bank Limited,UJVN0004409,NASHIK ROAD,"MOGAL ARCADE,PLOT NO.5,SHOP NO.1 TO 7,BEHIND MOGAL HOSPITAL JAIL ROAD,DATTA MANDIR,NASHIK ROAD,NASHIK,MAHARASHTRA-422101",NASHIK,NASIK,MAHARASHTRA,0
410,Ujjivan Small Finance Bank Limited,UJVN0004410,CIDCO,"SHRADDHA COMPLEX,SHOP NO.9-10 UPENDRA NAGAR,CIDCO-AMBAD LINK ROAD NEAR SBI,CIDCO,NASHIK 422009 MAHARASHTRA",NASIK,NASHIK,MAHARASHTRA,0
411,Ujjivan Small Finance Bank Limited,UJVN0004411,KOPARKHAIRNE,"AMAR HOUSING CHS LTD NEXT TO HOTEL LAXMI,VASHI-KOPARKHAIRNE ROAD KOPARKHAIRNE 400709",MUMBAI,NAVI MUMBAI,MAHARASHTRA,0
412,Ujjivan Small Finance Bank Limited,UJVN0004412,THANE,"GROUND FLOOR FLOOR OF THE BUILDING BELLA VISTA SITUATED IN SHOP NO 1B,OSWAL PARK,POKHRAN ROAD NO 2,THANE ( W),MUMBAI-400606",THANE,THANE,MAHARASHTRA,0
413,Ujjivan Small Finance Bank Limited,UJVN0004413,CHEMBUR,"SHOP NO.1,2,3,&4,GROUND FLOOR,SHREE CHEMBUR GANESH CHS LTD,SION TROMBAY ROAD,OPP AKBERALLYS,CHEMBUR,MUMBAI-400071",MUMBAI,MUMBAI,MAHARASHTRA,0
414,Ujjivan Small Finance Bank Limited,UJVN0004415,KATRAJ,"SN-2,GROUND FLOOR,KONARK INDRAYU MALL,OPP.SHEETAL PETROL PUMP,KONDHWE KHURD,PUNE,MAHARASHTRA-411048",PUNE,PUNE,MAHARASHTRA,0
415,Ujjivan Small Finance Bank Limited,UJVN0004416,KALYAN,"NANAK APPARTMENT NEXT TO HOTEL ZAIKA,NEAR KHADAKPADA CIRCLE KALYAN MURBAD ROAD,WAYALE NAGAR,KALYAN 421301",KALYAN,THANE,MAHARASHTRA,0
416,Ujjivan Small Finance Bank Limited,UJVN0004419,AMBARNATH,"GAYATRI APARTMENT SHIV MANDIR ROAD,SHIV GANGA NAGAR KHER SECTION,AMBERNATH EAST 421501",AMBARNATH,THANE,MAHARASHTRA,0
417,Ujjivan Small Finance Bank Limited,UJVN0004420,DOMBIVLI,"SHRI JANKI HARI BUILDING,SHOP NO-2-7 NEAR GANESH MANDIR,PHADKE ROAD DOMBIVLI EAST 421201 DOMBIVLI THANE MAHARASHTRA",THANE,DOMBIVLI,MAHARASHTRA,0
418,Ujjivan Small Finance Bank Limited,UJVN0004422,LBS ROAD,"SAI INDU TOWEROPPOSITE IDBI BANKLBS MARG,BHANDUP WEST 400078 MUMBAI MAHARASHTRA",MUMBAI,MUMBAI,MAHARASHTRA,0
419,Ujjivan Small Finance Bank Limited,UJVN0004423,NASHIK CENTRAL,"RUSHIRAJ REGENCY,SHOP NO.6A,OPP MAMAMUNGI KARYALAYA,GANGAPUR ROAD,PUMPING STATION,NASHIK-422023",NASHIK,NASIK,MAHARASHTRA,0
420,Ujjivan Small Finance Bank Limited,UJVN0004427,CHANDIVALI,"UNIT NO.1,APPLE HEERITAGE,ANDHERI KURLA ROAD,ANDHERI EAST,MUMBAI -400093",MUMBAI,MUMBAI,MAHARASHTRA,0
421,Ujjivan Small Finance Bank Limited,UJVN0004428,UDHANA,"UPPER GROUND FLOOR,SHOP NO.22,23,24,25,26,27,28& 29 SHREENATH COMPLEX BLOCK NO.A/1,T.P SCHEME NO.1,F.P.NO.1,UDHANA,SURAT,GUJRAT - 394210",SURAT,SURAT,GUJARAT,0
422,Ujjivan Small Finance Bank Limited,UJVN0004430,PARVAT GAM,"SHOP NO.11,12,13,45,46,47,GROUND FLOOR,MIDAS SQUARE,OPP SMC PARTY PLOT,PATINA TO GODADRA 150 ROAD,SHAKTI NAGAR,SURAT,GUJARAT-395012",SURAT,SURAT,GUJARAT,0
423,Ujjivan Small Finance Bank Limited,UJVN0004431,KAPODRA,"GROUND FLOOR,SHOP NO.14,15,16,17,25& 26 SKYLARK SHOPPING CENTER FINAL PLOT NO.27,T.P SCHEME NO.16,KAPODARA,SURAT,GUJRAT - 395006",SURAT,SURAT,GUJARAT,0
424,Ujjivan Small Finance Bank Limited,UJVN0004432,KHARADI,"SHOP NO.16,17,18,18,20,21,22& 23,GROUND FLOOR,BUILDING NO.C,GANGA ARCADIA,BESIDE COLUMBIA ASIA HOSPITAL,MUNDWA KHARADI ROAD,KHARADI,PUNE 411014",PUNE,PUNE,MAHARASHTRA,0
425,Ujjivan Small Finance Bank Limited,UJVN0004433,GOREGAON,"D-DEFINITYBESIDE AXIS BANK,JAI PRAKASH NAGAR,ROAD NO1GOREGAON EAST 400063 MUMBAI MAHARASHTRA",MUMBAI,MUMBAI,MAHARASHTRA,0
426,Ujjivan Small Finance Bank Limited,UJVN0004435,BORIVALI,"ANURADHA ANUJA,GROUND FLOOR,SHOP NO S1 - S3& FIRST FLOOR 11 - 13,ANURADHA ANUJA CHS LTD,CHANDAWARKER ROAD,BORIVALI ( W),MUMBAI 400092",MUMBAI,MUMBAI,MAHARASHTRA,0
427,Ujjivan Small Finance Bank Limited,UJVN0004436,PRABHADEVI,"SHOP NO.D1,11 AND 12,MANOJ CHS LTD.SHANKAR GANEKAR MARG PRABHADEVI,MUMBAI 400025 MUMBAI MUMBAI MAHARASHTRA",MUMBAI,MUMBAI,MAHARASHTRA,0
428,Ujjivan Small Finance Bank Limited,UJVN0004438,SANTACRUZ,"SHIVMANI BULIDING,SHOP NO 1& OFF NO 2,PLOT NO.9,TOWN PLANNING SCHEME NO.5,BEARING C.T.S.NOS.112,112/1& 112/2 SITUATED AT VILL-SANTACRUZ ( EAST),MUMBAI-400055",MUMBAI,MUMBAI,MAHARASHTRA,0
429,Ujjivan Small Finance Bank Limited,UJVN0004441,NAVASARI,"G - 1,2 AND F-1,2 TIKA NUMBER 80 NEAR.TECHNICAL SCHOOL LUNSIKUI ROAD,NAVSARI 396445",NAVASARI,NAVSARI,GUJARAT,0
430,Ujjivan Small Finance Bank Limited,UJVN0004442,HARNI ROAD,"NO.103& 104,NARAYAN ELEGANCE,GROUND FLOOR& 3RD FLOOR,NEXT TO AXIS BANK,SANGAM CHAR RASTA,VADODARA,GUJRAT.390018",BARODA,VADODARA,GUJARAT,0
431,Ujjivan Small Finance Bank Limited,UJVN0004443,MAKARPURA ROAD,"SHOP NO.1 TO 4,SIGNATURE COMPLEX,OPP SRPF CAMP,NEAR AKASHWANI,MANJALPUR,VODODARA 390009",BARODA,VADODARA,GUJARAT,0
432,Ujjivan Small Finance Bank Limited,UJVN0004447,AKOTA,"GROUND FLOOR,SHOP NO G - 01,G - 02& OFFICE NO 402,4TH FLOOR,THE IMPERATIVE,80-A,DHANANJAY SOCIETY,NR AKOTA STADIUM,AKOTA,VARODARA,GUJARAT - 390020",VADODARA,VADODARA,GUJARAT,0
433,Ujjivan Small Finance Bank Limited,UJVN0004448,ANKLESHWAR,"OMKAR-2 COMPLEX,SHOP NO.9,10,34,35& 36,GROUND FLOOR,OLD NH NO.8,MOJE-ANKALESHWAR DIST -BHARUCH,GUJRAT 393002",BHARUCH,ANKLESHWAR,GUJARAT,0
434,Ujjivan Small Finance Bank Limited,UJVN0004449,BHARUCH,"SHOP NO.7,8,107& 108,NEXUS BUSINESS HUB,NEAR DHEERAJ SONS MALL,JADESHWAR ROAD,MAKTAMPUR,BHARUCH GUJARAT 392002",BHARUCH,BHARUCH,GUJARAT,0
435,Ujjivan Small Finance Bank Limited,UJVN0004450,AHMED NAGAR,"SHOP NO.1,2&3,GROUND FLOOR,MUKUND ICON,TILAK ROAD,OPP GUNE HOSPITAL,AHMEDNAGAR 414001",AHMED NAGAR,AHMEDNAGAR,MAHARASHTRA,0
436,Ujjivan Small Finance Bank Limited,UJVN0004452,SATARA,1GUHIKYKJVIMHSH4152.,SATARA,SATARA,MAHARASHTRA,0
437,Ujjivan Small Finance Bank Limited,UJVN0004454,GARKHEDA,"GROUND FLOOR,RENUKA PRASAD BUILDING,NO.70 SARANG SOCIETY GAJANAN MAHARAJ MANDIR SQUARE GARKHEDE ROAD,AURANGABAD 431005 MAHARASHTRA",AURANGABAD,AURANGABAD,MAHARASHTRA,0
438,Ujjivan Small Finance Bank Limited,UJVN0004455,SAMARTH NAGAR,"SHREE VILLA,CTS 20390 & 20397,GROUND AND 1ST FLOOR,OPP POLICE WORK SHOP,NIRALA BAZAR ROAD,SAMARTH NAGAR,AURANGABAD",UGBD,AURANGABAD,MAHARASHTRA,0
439,Ujjivan Small Finance Bank Limited,UJVN0004456,BHIWANDI,"GROUND FLOOR SHOP 2,HARI OM EMPIRE HARI OM TIMBER MART COMPOUND,AGRA ROAD ANJUR PHATA,KAMATGHAR,BHIWANDI 421305 MAHARASHTRA",BHIVANDI,BHIWANDI,MAHARASHTRA,0
440,Ujjivan Small Finance Bank Limited,UJVN0004457,VAPI DAMAN,"V2 LIFE SIGNATURE SHOP NO 11 & 12 ON GROUND FLOOR& SHOP NO 111 ON FIRST FLOOR,B WING,SURVEY NO 373,CHALA,VAPI,DIST VALSAD,GUJARAT 396191",VAPI,VAPI,GUJARAT,0
441,Ujjivan Small Finance Bank Limited,UJVN0004458,SOLAPUR,"HOTEL CITY PARK 119 MURARJI PETH,CHAR HUTATMA CHOWK SOLAPUR 413001 SOLAPUR MAHARASHTRA",SOLAPUR,SOLAPUR,MAHARASHTRA,0
442,Ujjivan Small Finance Bank Limited,UJVN0004462,KAMOTHE,"BHOOMI RATNA CO-OPERATIVE HOUSING SOCIETYNEAR BANK OF BARODA,SECTOR-18,KAMOTHEPANVEL 410209 PANVEL MAHARASHTRA",PANVEL,PANVEL,MAHARASHTRA,0
443,Ujjivan Small Finance Bank Limited,UJVN0004463,NADIAD,"GROUND FLOOR& 1ST FLOOR,BUILDING TULSI LANDMARK OPPOSITE KIDNEY HOSPITAL,NEAR STATE BANK OF INDIA,PETLAD ROAD,NADIAD GUJARAT-387001",NADIAD,NADIAD,GUJARAT,0
444,Ujjivan Small Finance Bank Limited,UJVN0004464,KOLHAPUR,"1437,C WARD,SUBHASH ROAD,LAXMIPURI VENKATESH PLAZA KOLHAPUR 416002 KOLHAPUR KOLHAPUR MAHARASHTRA",KOLHAPUR,KOLHAPUR,MAHARASHTRA,0
445,Ujjivan Small Finance Bank Limited,UJVN0004465,NAVA VADAJ,"SHOP NO.17&18,LILAMANI CORPORATE HEIGHTS,SY NO.491& 493,T.P.SCHEME NO.28,FINAL PLOT NO.412,PAIKI SUB-PLOT NO.01,MOJE-WADAJ,DIST - AHMEDABAD 382480",AHMEDABAD,AHMEDABAD,GUJARAT,0
446,Ujjivan Small Finance Bank Limited,UJVN0004467,NARODA PATIYA,"RAJ COMPLEX GROUND FLOOR 4,5&6,NARODA PATIYA CIRCLE,NARODA,AHMEDABAD,GUJARAT 382346",AHMEDABAD,AHMEDABAD,GUJARAT,0
447,Ujjivan Small Finance Bank Limited,UJVN0004468,CTM,"SHOP NO.01 TO 04,A WING,GROUND FLOOR,ASPIRE BUSINESS CAMPUS,RABARI COLONY,BRTS STAND,AMRAIWADI,AHEMADABAD 380026",AHMEDABAD,AHMEDABAD,GUJARAT,0
448,Ujjivan Small Finance Bank Limited,UJVN0004472,BARDOLI,KESARBA PARSHURAM NAGAR NEAR SWAMINARAYANTEMPLE 394601 BARDOLI SURAT GUJARAT,BARDOLI,BARDOLI,GUJARAT,0
449,Ujjivan Small Finance Bank Limited,UJVN0004473,VALSAD,"GROUND FLOOR,AUM BUSINESS PLAZA,CIVIL ROAD,ZINNAT NAGAR,VALSAD,GUJARAT-396001",VALSAD,VALSAD,GUJARAT,0
450,Ujjivan Small Finance Bank Limited,UJVN0004474,JALGAON,"NIRANJAN COMPLEX OPP.JALGAON DISTRICT CENTRAL CO-OP.BANK RING ROAD,JALGAON 425001",JALGAON,JALGAON,MAHARASHTRA,0
451,Ujjivan Small Finance Bank Limited,UJVN0004475,BHUSAWAL,"NEMADE BUILDING,KOHINOOR CLASSES,NEAR ASTABHUJA MANDIR,BHUSAWAL 425201",BHUSAWAL,BHUSAWAL,MAHARASHTRA,0
452,Ujjivan Small Finance Bank Limited,UJVN0004479,MEHSANA,"PRABHUNAGAROPP.DENA BANK,RANDHANPUR ROAD 384002 MEHSANA GUJARAT",MEHSANA,MEHSANA,GUJARAT,0
453,Ujjivan Small Finance Bank Limited,UJVN0004480,HIMMATNAGAR,"TRIMURTI COMPLEX,UPPER GROUND FLOOR SHOP NO.G1,G2,G3 AND G 59 SAHAKARI GIN CROSS ROAD,HIMMATNAGAR 383001 HIMMATNAGAR SABARKANTHA GUJARAT",SABAR KANTHA,HIMMATNAGAR,GUJARAT,0
454,Ujjivan Small Finance Bank Limited,UJVN0004482,MAVDI CHOWK,"ATUL ICECREAM,GROUND FLOOR,1ST& 2ND FLOOR,MAVADI MANI ROAD,OPP-INDRAPRASTH HALL,MAVADI CROSS ROAD,RAJKOT-360004",RAJKOT,RAJKOT,GUJARAT,0
455,Ujjivan Small Finance Bank Limited,UJVN0004483,SHASTRI MAIDAN,"THE IMPERIASUBHASH ROADOPPOSITE OF SHASTRI MAIDAN,NEAR LIMDA CHOWK 360001 RAJKOT GUJARAT",RAJKOT,RAJKOT,GUJARAT,0
456,Ujjivan Small Finance Bank Limited,UJVN0004493,LATUR,"MAYUR OPP HANUMAN MANDIR,BARSHI ROAD,LATUR 413531",LATUR,LATUR,MAHARASHTRA,0
457,Ujjivan Small Finance Bank Limited,UJVN0004495,BYRAMJI TOWN,"CHITNAVIS LAYOUTOPPOSITE ICICI BANKGONDWANA SQUARE,BYRAMJI TOWN440013NAGPURNAGPURMAHARASHTRA",NAGPUR,NAGPUR,MAHARASHTRA,0
458,Ujjivan Small Finance Bank Limited,UJVN0004496,C A ROAD,"KESAR VILLA,PLOT NO.251,NMC HOUSE NO.1137,GROUND FLOOR& 1ST FLOOR,SATNAMI PRECINT LAYOUT,CITY SURVEY NO.170,SHEET NO.183,MOUZA NAGPUR,CENTRAL AVENUE ROAD,NEAR AMBEDKAR SQUARE,NAGPUR -440008",NAGPUR,NAGPUR,MAHARASHTRA,0
459,Ujjivan Small Finance Bank Limited,UJVN0004498,BHAVNAGAR,SHANTI ARCADE OPP-AKSHARWADI TEMPLE WAGHAWADI ROAD BHAVNAGAR 364002 BHAVNAGAR GUJARAT,BHAVNAGAR,BHAVNAGAR,GUJARAT,0
460,Ujjivan Small Finance Bank Limited,UJVN0004500,SUKHESH,"H.NO-370-8,KHUTADIYA FALIYASUKHESH,PARDIVALSAD 396125 VALSAD GUJARAT",VALSAD,VALSAD,GUJARAT,0
461,Ujjivan Small Finance Bank Limited,UJVN0004501,VEDACH,"H.NO-8-114-2,HARSHD MATA NU FALIYUVEDACH,JAMBUSAR 391810 BHARUCH GUJARAT",BHARUCH,BHARUCH,GUJARAT,0
462,Ujjivan Small Finance Bank Limited,UJVN0004502,BHOJ,"SHOP NO-1,NEAR BHOJ BUS STANDOPP KUMAR SHALA(KUMAR SCHOOL)PADRA,BHOJ 391445 VADOADARA GUJARAT",VADOADARA,VADOADARA,GUJARAT,0
463,Ujjivan Small Finance Bank Limited,UJVN0004503,UMRA,"SHOP NO-5,6,7SAURASHTRA GREEN CITYVELANJA ROADUMARA 362220 UMARA GUJARAT",SURAT,UMARA,GUJARAT,0
464,Ujjivan Small Finance Bank Limited,UJVN0004504,MALVAN,RAVIA SANTHMALVANVALSAD 396385 VALSAD GUJARAT,VALSAD,VALSAD,GUJARAT,0
465,Ujjivan Small Finance Bank Limited,UJVN0004505,VIRAR,AGARWAL LIFESTYLE AVENUEGLOBAL CITY VIRAR WEST 401303 PALGHAR MAHARASHTRA,THANE,PALGHAR,MAHARASHTRA,0
466,Ujjivan Small Finance Bank Limited,UJVN0004506,KAHANWADI,"TEKRAVRALU FALIYU KAHANVADI ANKLAV,ANAND 388307 ANKLAV ANAND GUJARAT",ANAND,ANKLAV,GUJARAT,0
467,Ujjivan Small Finance Bank Limited,UJVN0004507,KANIYEL,"HOUSE NO.73/1,MOJE KANIYEL TALUKA-KATHLAL 387365 KANIYEL KHEDA GUJARAT",KHEDA,KANIYEL,GUJARAT,0
468,Ujjivan Small Finance Bank Limited,UJVN0004508,KHANKUVA,AMBIKA SOCIETY TALUKA -UMRETH -388205 KHANKUVA ANAND GUJARAT,ANAND,KHANKUVA,GUJARAT,0
469,Ujjivan Small Finance Bank Limited,UJVN0004509,NAVAKHAL,"FALIYU NAVAKHAL ANKLAV,ANAND 388510 ANKLAV ANAND GUJARAT",ANAND,ANKLAV,GUJARAT,0
470,Ujjivan Small Finance Bank Limited,UJVN0004510,KHADANA,"HOUSE NO-271,OPP - CHABUTARI KHADANA,TALUKA-PETLAD ANAND 388160 PETLAD ANAND GUJARAT",ANAND,PETLAD,GUJARAT,0
471,Ujjivan Small Finance Bank Limited,UJVN0004511,GODTHAL,"HOUSE NO-650,MOJE VACHALA FALIYA,GOADTHAL CHIKHLI,NAVSARI 396060 CHIKHLI NAVSARI GUJARAT",NAVSARI,CHIKHLI,GUJARAT,0
472,Ujjivan Small Finance Bank Limited,UJVN0099999,CORPORATE SERVICE PAYMENTS,"GRAPE GARDEN,3RD A CROSS,18TH MAIN,6TH BLOCK,KORAMANGALA,BENGALURU - 560095",BANGALORE,BANGALORE,KARNATAKA,0
