,BANK NAME,IFSC,OFFICE,ADDRESS,DISTRICT,CITY,STATE,PHONE
0,IDFC FIRST BANK LTD,IDFB0010201,INTERNET BANKINGCPU,"IDFC BANK LTD.8TH FLOOR,BUILDING NO.1,AIROLI WEST GIGAPLEX,LANDMARKOPPOSITE IGATE,PLOT NO.IT5,MIDC KNOWLEDGE CORRIDOR,AIROLI,NAVI MUMBAI 400708",THANE,THANE,MAHARASHTRA,71325499
1,IDFC FIRST BANK LTD,IDFB0010202,TREASURY CPU,8TH FLOOR NAMAN CHAMBERS C32 GBLOCK BANDRAKURLA COMPLEX BANDRA EASTMUMBAI 400051,MUMBAI,MUMBAI,MAHARASHTRA,71325499
2,IDFC FIRST BANK LTD,IDFB0010204,CMS HUB,"IDFC BANK LTD.7TH FLOOR,BUILDING NO.1,AIROLI WEST GIGAPLEX,LANDMARKOPPOSITE IGATE,PLOT NO.IT5,MIDC KNOWLEDGE CORRIDOR,AIROLI,NAVI MUMBAI 400708",THANE,THANE,MAHARASHTRA,71325499
3,IDFC FIRST BANK LTD,IDFB0010205,TRADE FINANCE CPUTI,"IDFC BANK LTD.7TH FLOOR,BUILDING NO.1,AIROLI WEST GIGAPLEX,LANDMARKOPPOSITE IGATE,PLOT NO.IT5,MIDC KNOWLEDGE CORRIDOR,AIROLI,NAVI MUMBAI 400708",THANE,THANE,MAHARASHTRA,71325499
4,IDFC FIRST BANK LTD,IDFB0010206,RURAL CPU NOVA,"IDFC BANK LTD.7TH FLOOR,BUILDING NO.1,AIROLI WEST GIGAPLEX,LANDMARKOPPOSITE IGATE,PLOT NO.IT5,MIDC KNOWLEDGE CORRIDOR,AIROLI,NAVI MUMBAI 400708",THANE,THANE,MAHARASHTRA,71325499
5,IDFC FIRST BANK LTD,IDFB0010207,WHOLESALE CPUBSMART,"IDFC BANK LTD.8TH FLOOR,BUILDING NO.1,AIROLI WEST GIGAPLEX,LANDMARKOPPOSITE IGATE,PLOT NO.IT5,MIDC KNOWLEDGE CORRIDOR,AIROLI,NAVI MUMBAI 400708",THANE,THANE,MAHARASHTRA,71325499
6,IDFC FIRST BANK LTD,IDFB0010209,CLEARING HUB MUMBAI,RAMON HOUSE 69 HT PAREKH MARG CHURCHGATE MUMBAI 400002,MUMBAI,MUMBAI,MAHARASHTRA,71325499
7,IDFC FIRST BANK LTD,IDFB0010213,ACCOUNTS PAYABLE HUB,IDFC BANK LTD. 8 FLOOR BUILDING NO. 1 AIROLI WEST GIGAPLEX LANDMARK OPPOSITE  IGATE PLOT NO. 5 IT-5 MIDC KNOWLEDGE PARK  CORRIDOR AIROLI NAVI MUMBAI,THANE,THANE,MAHARASHTRA,71325499
8,IDFC FIRST BANK LTD,IDFB0010216,WHOLESALE LENDING OPERATIONS,"IDFC BANK LTD, 7TH AND 8TH FLOORS, BUILDING NO 1, OPP IGATE, GIGAPLEX, MIDC KNOWLEDGE CORRIDOR 400708, TOLL FREE NUMBER 18004194332",THANE,THANE,MAHARASHTRA,0
9,IDFC FIRST BANK LTD,IDFB0010217,RETAIL ASSETS OPERATIONS - FINNONE,"IDFC BANK LTD, 7TH AND 8TH FLOORS, BUILDING NO 1, OPP IGATE, GIGAPLEX, MIDC KNOWLEDGE CORRIDOR 400708, TOLL FREE NUMBER 18004194332",THANE,THANE,MAHARASHTRA,0
10,IDFC FIRST BANK LTD,IDFB0020101,BARAKHAMBA ROAD,"SOODH & BIRLATOWERS, 4TH FLOOR EAST TOWER & LGF WEST TOWER, BARAKHAMBA ROAD, NEW DELHI -110001",NEW DELHI,NEW DELHI,DELHI,9810223345
11,IDFC FIRST BANK LTD,IDFB0020102,NEW FRIENDS COLONY BRANCH,"BHALLA SADAN, 15, COMMUNITY CENTRE, NEW FRIENDS COLONY, NEW DELHI, 110025",NEW DELHI,NEW DELHI,DELHI,9999100958
12,IDFC FIRST BANK LTD,IDFB0020105,NSP-PITAMPURA BRANCH,"1ST FLOOR, UNIT NO.102, DMALL BUILDING, NETAJI SUBHASH PLACE, PITAMPURA, DELHI,110034",DELHI,DELHI,DELHI,7291989117
13,IDFC FIRST BANK LTD,IDFB0020106,DWARKA BRANCH,"FIRST FLOOR F- 102, F- 103 AT BHAGWATI PLAZA, MLU, PLOT NO. 12, SECTOR-5, DWARKA, NEW DELHI 110075",SOUTH WEST,DWARKA,DELHI,4194332
14,IDFC FIRST BANK LTD,IDFB0020107,OKHLA BRANCH,"FIRST FLOOR,E-49/12 OKHLA INDUSTRIAL AREA, PHASE-2,NEAR DTC BUS DEPOT,NEW DELHI 110020",SOUTH EAST DELHI,OKHLA,DELHI,0
15,IDFC FIRST BANK LTD,IDFB0020108,RAJOURI GARDEN BRANCH,"GROUND FLOOR PLOT NO 7, BLOCK NO J2, RAJOURI GARDEN, NEW DELHI 110027, TOLL FREE NUMBER 18004194332",WEST DELHI,RAJOURI GARDEN,DELHI,0
16,IDFC FIRST BANK LTD,IDFB0020109,KAROL BAGH BRANCH,"GROUND FLOOR, 2109 DESH BANDHU GUPTA ROAD, KAROL BAGH, NEW DELHI 110005, TOLL FREE NUMBER 18004194332",CENTRAL DELHI,NEW DELHI,DELHI,0
17,IDFC FIRST BANK LTD,IDFB0020111,GREATER KAILASH II BRANCH,"GROUND FLOOR, M-72,GREATER KAILASH II, NEW DELHI 110048, TOLL FREE NUMBER 18004194332",SOUTH DELHI,NEW DELHI,DELHI,0
18,IDFC FIRST BANK LTD,IDFB0020112,DEFENCE COLONY BRANCH,"GROUND FLOOR, 283-A, MAIN ROAD, DEFENCE COLONY, NEW DELHI 110024, TOLL FREE NUMBER 18004194332",SOUTH DELHI,DEFENCE COLONY,DELHI,0
19,IDFC FIRST BANK LTD,IDFB0020123,DARYAGANJ BRANCH,"GROUND FLOOR, P.N. NO. 2, NETAJI SUBHASH MARG, DARYAGANJ, NEW DELHI, 110002",CENTRAL DELHI,DELHI NCR,DELHI,9990852886
20,IDFC FIRST BANK LTD,IDFB0020124,NOIDA SECTOR TWELVE BRANCH,"GROUND FLOOR, SHOP NO. 18-19, BLOCK I-25, SECTOR 12, NOIDA - 201301",GAUTAM BUDDHA NAGAR,NOIDA,UTTAR PRADESH,9136158189
21,IDFC FIRST BANK LTD,IDFB0020125,GREEN PARK BRANCH,"G-2, A-23, MAIN AUROBINDO MARG, GREEN PARK, NEW DELHI - 110016",SOUTH DELHI,GREEN PARK,DELHI,7291989118
22,IDFC FIRST BANK LTD,IDFB0020126,PUNJABI BAGH BRANCH,"UPPER GR FLOOR, PLOT NO 26, CLUB ROAD PUNJABI BAGH, NEW DELHI 110026, TOLL FREE NO 18004194332",WEST DELHI,PUNJABI BAGH,DELHI,0
23,IDFC FIRST BANK LTD,IDFB0020127,ROHINI BRANCH,"GROUND FLOOR, F-26/16, SECTOR 7, ROHINI, NEW DELHI - 110085",NORTH-WEST DELHI,DELHI,DELHI,7291989117
24,IDFC FIRST BANK LTD,IDFB0020128,JANAKPURI BRANCH,"GROUND FLOOR, B-1/515 JANAKPURI, NEW DELHI - 110058",WEST DELHI,JANAKPURI,DELHI,9205988246
25,IDFC FIRST BANK LTD,IDFB0020129,GURGAON SOHNA ROAD BRANCH,"GROUND FLOOR, UNIT NO 110-111, SPACE PLATINUM TOWER, SOHNA ROAD, GURGAON 122101, TOLL FREE NUMBER 18004194332",GURGAON,GURGAON,HARYANA,0
26,IDFC FIRST BANK LTD,IDFB0020132,GURGAON GOLF COURSE EXTENSION ROAD BRANCH,"UNIT NO.18-A, GR FLOOR, SPLENDER TRADE TOWER, GOLF COURSE EXT. ROAD, GURGAON 122102, TOLL FREE NUMBER 18004194332",GURGAON,GURGAON,HARYANA,0
27,IDFC FIRST BANK LTD,IDFB0020134,DWARKA SECTOR TWELVE A BRANCH,"GROUND FLOOR, PLOT NO. 23, SECTOR 12 A, DWARKA, NEW DELHI - 110078",SOUTH-WEST DELHI,DELHI,DELHI,7900100412
28,IDFC FIRST BANK LTD,IDFB0020151,NOIDA,"G-61 & G-62,SECTOR-18,DISTRICT - GAUTAM BUDDHA NAGAR - NOIDA UTTAR PRADESH - 201301",GAUTAM BUDDHA NAGAR,NOIDA,UTTAR PRADESH,9717772950
29,IDFC FIRST BANK LTD,IDFB0021001,GURGAON  - GOLF COURSE ROAD BRANCH,"ONE HORIZON CENTRE, GF & PLAZA, GOLF COURSE ROAD, SECTOR-43, GURGAON, HARYANA-122003",GURGAON,GURGAON,HARYANA,8595357606
30,IDFC FIRST BANK LTD,IDFB0021002,GURGAON M.G. ROAD BRANCH,"GROUND FLOOR, 3A, MEGA CITY MALL, M.G. ROAD, GURGAON 122002, TOLL FREE NUMBER 18004194332",GURGAON(M CORP. OG),GURGAON,HARYANA,0
31,IDFC FIRST BANK LTD,IDFB0021003,GURGAON SECTOR FOURTEEN BRANCH,"FIRST FLOOR, SCO 23, SECTOR 14,GURGAON 122001, TOLL FREE NUMBER 18004194332",GURGAON,GURGAON,HARYANA,0
32,IDFC FIRST BANK LTD,IDFB0021021,AMRITSAR BRANCH,"UPPER GROUND FLOOR, PLOT NO.39 CROSS MALL COMPLEX, MALL ROAD, AMRITSAR, 143001",AMRITSAR,AMRITSAR,PUNJAB,8454046150
33,IDFC FIRST BANK LTD,IDFB0021171,LUDHIANA BRANCH,"GROUND FLOOR,SCO 15 SAN PLAZA, FEROZE GANDHI MARKET ,LUDHIANA,141001",LUDHIANA,LUDHIANA,PUNJAB,9501083007
34,IDFC FIRST BANK LTD,IDFB0021191,JALANDHAR BRANCH,"265-R, RAINBOW ROAD, MODEL TOWN, JALANDHAR, 144001",JALANDHAR,JALANDHAR,PUNJAB,8454046150
35,IDFC FIRST BANK LTD,IDFB0021211,CHANDIGARH BRANCH,"SCO NO. 169-170, GROUND FLOOR, SECTOR 8 C, MADHYA MARG, CHANDIGARH 160008",CHANDIGARH,CHANDIGARH,CHANDIGARH,9821196264
36,IDFC FIRST BANK LTD,IDFB0021231,DEHRADUN BRANCH,"GROUND FLOOR,& SECOND FLOOR 59/3,RAIPUR ROAD,DEHRADUN,248001",DEHRADUN,DEHRADUN,UTTARAKHAND,9717598233
37,IDFC FIRST BANK LTD,IDFB0021251,LUCKNOW BRANCH,"GROUND FLOOR,, HINDUSTAN TIMES HOUSE,25 ASHOK MARG, LUCKNOW, 226001",LUCKNOW,LUCKNOW,UTTAR PRADESH,8595357606
38,IDFC FIRST BANK LTD,IDFB0021252,GOMTI NAGAR BRANCH,"GROUND FLOOR, 3/296 VISHAL KHAND, GOMTI NAGAR, LUCKNOW 226010, TOLL FREE NUMBER 18004194332",LUCKNOW,LUCKNOW,UTTAR PRADESH,0
39,IDFC FIRST BANK LTD,IDFB0021271,KANPUR BRANCH,"GROUND FLOOR, PREMISES BEARING NUMBER- 17/3-B, MEGHDOOT HOTEL BUILDING, MALL ROAD, 208001",KANPUR NAGAR,KANPUR,UTTAR PRADESH,9648999910
40,IDFC FIRST BANK LTD,IDFB0021291,AGRA BRANCH,"GROUND FLOOR, ASHOK BHAWAN BUILDING, 52/2 SANJAY PLACE, NEAR SHAHEED SMARAK, AGRA 282002",AGRA,AGRA,UTTAR PRADESH,9821195461
41,IDFC FIRST BANK LTD,IDFB0021311,FARIDABAD SECTOR XVI BRANCH,"UPPER GROUND FLOOR SCO102-103, DWARKA COMPLEX, SECTOR 16, FARIDABAD, HARYANA 121002, TOLL-FREE NUMBER 18004194332",FARIDABAD,FARIDABAD,HARYANA,0
42,IDFC FIRST BANK LTD,IDFB0021331,NOIDA SECTOR SIXTY THREE BRANCH,"FIRST FLOOR,PLOT NO.34,BLOCK H-1-A,SECTOR 63,NOIDA, DISTRICT GAUTAMBUDH NAGAR NOIDA UTTAR PRADESH 201301 TOLL FREE NO 18004194332",GAUTAM BUDH NAGAR,NOIDA SECTOR SIXTY THREE,UTTAR PRADESH,0
43,IDFC FIRST BANK LTD,IDFB0021351,PANCHKULA BRANCH,"Ground Floor, SCO. 63, Sector 11, Dist. Panchkula- 134109- Haryana",PANCHKULA,PANCHKULA,HARYANA,8968188484
44,IDFC FIRST BANK LTD,IDFB0021371,MOHALI BRANCH,"GROUND FLOOR, SCF NO. 19, PHASE 7, SAS NAGAR, MOHALI 160061, TOLL FREE NUMBER 18004194332",SAHIBZADA AJIT SINGH NAGAR,MOHALI,PUNJAB,0
45,IDFC FIRST BANK LTD,IDFB0021412,RAJ NAGAR GHAZIABAD BRANCH,"GROUND FLOOR, C-53 A, RAJ NAGAR DISTRICT CENTRE, GHAZIABAD 201001, TOLL FREE NUMBER 18004194332",GHAZIABAD,GHAZIABAD,UTTAR PRADESH,0
46,IDFC FIRST BANK LTD,IDFB0040101,BKC-NAMAN CHAMBERS BRANCH,"GROUND FLOOR NAMAN CHAMBERS, C-32, G-BLOCK, BANDRA-KURLA COMPLEX, BANDRA EAST,MUMBAI 400051",MUMBAI,MUMBAI,MAHARASHTRA,42423504
47,IDFC FIRST BANK LTD,IDFB0040102,PRABHDEVI BRANCH,"SANE GURUJI PREMISE CO-OP. SOCIETY LTD, BLOCK NO. 5, GROUND FLOOR, 386, VEER SAVARKA MARG, PRABHDEVI, MUMBAI - 400025",MUMBAI,MUMBAI,MAHARASHTRA,43407802
48,IDFC FIRST BANK LTD,IDFB0040103,"VASHI, SECTOR - SEVENTEEN BRANCH","GOODWILL EXCELLENCY, PLOT NO. 02, SECTOR - 17, VASHI, NAVI MUMBAI, 400705.",THANE,NAVI MUMBAI,MAHARASHTRA,27651137
49,IDFC FIRST BANK LTD,IDFB0040104,CHEMBUR BRANCH,"GLAMCENT, GF & 1ST FLOOR, 350, CENTRAL AVENUE ROAD, CHEMBUR, MUMBAI, 400071",MUMBAI,MUMBAI,MAHARASHTRA,30066401
50,IDFC FIRST BANK LTD,IDFB0040105,BHULABHAI DESAI ROAD,"SHOP NO. 1, TIRUPATI APARTMENTS, BHULABHAI DESAI ROAD, MUMBAI, MAHARASHTRA, 400026",MUMBAI,MUMBAI,MAHARASHTRA,71256012
51,IDFC FIRST BANK LTD,IDFB0040106,FORT BRANCH,"312, D N ROAD, FORT, MUMBAI, MAHARASHTRA, 400001",MUMBAI,MUMBAI,MAHARASHTRA,43323866
52,IDFC FIRST BANK LTD,IDFB0040107,ANDHERI EAST BRANCH,"GROUND & FIRST FLOOR,A-1,A WING,EVEREST CHAMBERS PREMISES CO-OPERATIVE SOCIETY LTD,MAROL NAKA,NEXT TO STAR TV BUILDING,ANDHERI EAST,400059",MUMBAI,MUMBAI,MAHARASHTRA,7045963901
53,IDFC FIRST BANK LTD,IDFB0040108,GHODBUNDER ROAD-THANE BRANCH,"GROUND FLOOR & MEZZANINE FLOOR,SHOP NO 21,DOSTI IMPERIA BUILDING,GHODBUNDER ROAD THANE,400610",THANE,THANE,MAHARASHTRA,7506669797
54,IDFC FIRST BANK LTD,IDFB0040109,MULUND BRANCH,"RUNWAL GREENS BUILIDING,GOREGAON MULUND LINK ROAD, NEXT TO FORTIS HOSPITAL, MULUND WEST, MUMBAI 4000708 TOLLFREE NUMBER 18004194332",MUMBAI,MULUND,MAHARASHTRA,0
55,IDFC FIRST BANK LTD,IDFB0040111,BORIVALI BRANCH,"GROUND & FIRST FLOOR, UNIT NO 001 & 101, KONARK APARTMENT, THE GURJAR APARTMENT CHS LTD ROSHAN NAGAR, CHANDAVARKAR LANE, BORIVALI(WEST), MUMBAI 400092, TOLL FREE NO 18004194332",MUMBAI SUBURBAN,MUMBAI,MAHARASHTRA,0
56,IDFC FIRST BANK LTD,IDFB0040112,THANE BRANCH,"GROUND FLOOR, SHOP NO 6 & 7, P.E.S.(NEW ENGLISH BUILDING), DR.RAMESH PRADHAN ROAD, OFF. RAM MARUTI CROSS ROAD, THANE WEST, THANE 400602, TOLL FREE NUMBER 18004194332",THANE,THANE,MAHARASHTRA,0
57,IDFC FIRST BANK LTD,IDFB0040113,BANDRA WEST BRANCH,"GROUND FLOOR, THE POINT, PLOT 253, 30TH ROAD, BANDRA WEST, MUMBAI 400050, TOLL FREE NUMBER 18004194332",MUMBAI SUBURBAN,MUMBAI,MAHARASHTRA,0
58,IDFC FIRST BANK LTD,IDFB0040114,MALAD BRANCH,"Ground Floor ,Unit no 3, Bhagat Grandeur, opp Infinity Mall, Malad west, Mumbai 400064, Toll free number 18004194332",MUMBAI SUBURBAN,MUMBAI,MAHARASHTRA,0
59,IDFC FIRST BANK LTD,IDFB0040115,ANDHERI WEST BRANCH,"GROUND FLOOR, SAI ICONIC, SHOP NO.1 PLOT NO.9, LOKHANDWALA ROAD, FOUR BUNGLOWS, ANDHERI WEST, MUMBAI 400053, TOLL FREE NUMBER 18004194332",MUMBAI SUBURBAN,MUMBAI,MAHARASHTRA,0
60,IDFC FIRST BANK LTD,IDFB0040132,NERUL BRANCH,"SHOP NO. 11 & 12, KRISHNA KAMAL CO-HOUSING SOCIETY, PLOT NO. 111-E/1, 111-F, 111-H, SECTOR-21, NERUL, MUMBAI - 400706",THANE,MUMBAI,MAHARASHTRA,7045689481
61,IDFC FIRST BANK LTD,IDFB0040133,BORIVALI-IC COLONY BRANCH,"GROUND FLOOR, SHOP NO. 1 SAFFRON APARTMENT, SUHHIJIVAN CIRCLE I C COLONY, BORIVALI WEST, MUMBAI - 400103",MUMBAI SUBURBAN,MUMBAI,MAHARASHTRA,7045689481
62,IDFC FIRST BANK LTD,IDFB0040136,VARTAK NAGAR - THANE BRANCH,"SHOP NO. 5A, MAITHILI PRIDE, BUILDING NO. 1 & 10, MHB COLONY, VARTAK NAGAR, POKHRAN RD. NO. 1, J K GRAMM, NEAR HP GODOWN, THANE. 400606. TOLL FREE NO. 18004194332",THANE,THANE,MAHARASHTRA,0
63,IDFC FIRST BANK LTD,IDFB0040301,AHMEDABAD C.G. ROAD,"SUN SQUARE,T.P 20,BESIDES NEST,OFF C.G ROAD,AHMEDABAD 380006",AHMEDABAD,AHMEDABAD,GUJARAT,7966216387
64,IDFC FIRST BANK LTD,IDFB0040302,PRAHLAD NAGAR BRANCH,"GROUND FLOOR AND FIRST FLOOR, MONDEAL SQUARE, UNIT NO.D, PRAHLAD NAGAR, AHMEDABAD 380015, TOLL FREE NUMBER 18004194332",AHMEDABAD,PRAHLAD NAGAR,GUJARAT,0
65,IDFC FIRST BANK LTD,IDFB0040303,MANINAGAR BRANCH,"FIRST FLOOR, SHOP NO. 2,3,4,SHIVALIK-7 BUILDING, RAMBAUG CROSS ROAD, MANINAGAR, AHMEDABAD 380008",AHMEDABAD(M CORP.),AHMEDABAD,GUJARAT,9168300022
66,IDFC FIRST BANK LTD,IDFB0040308,CHANDKHEDA BRANCH,"GR FLOOR, SHOP NO.3, TRYKSHA DESIRE, NEAR KIRTIDHAM DERASAR, CHANDKHEDA, AHMEDABAD 382424, TOLL FREE NUMBER 18004194332",AHMEDABAD,CHANDKHEDA,GUJARAT,0
67,IDFC FIRST BANK LTD,IDFB0040309,VATVA BRANCH,"FIRST FLOOR, PUSHKAR INDUSTRIAL ESTATE - 2, SHOP NO. 155 TO 159A,96/1, OPP. MACONS PHASE - I ,GIDC,VATVA , AHMEDABAD - 382445 ,TOLL FREE NUMBER 18004194332",AHMEDABAD,VATVA,GUJARAT,0
68,IDFC FIRST BANK LTD,IDFB0040311,PALDI BRANCH,"SHOP NO. 1, SIVANTA ONE, ELLIS BRIDGE, PALDI, AHMEDABAD, GUJARAT - 380007",AHMEDABAD,AHMEDABAD,GUJARAT,8511077880
69,IDFC FIRST BANK LTD,IDFB0040312,SHAHIBAUG BRANCH,"SHOP NO. 14 & 15, ADVANCE BUSINESS PARK, BLOCK- A, OPP. SWAMINARAYAN TEMPLE, SHAHIBAUG, AHMEDABAD 380004, TOLL FREE NUMBER 18004194332",AHMEDABAD,AHMEDABAD,GUJARAT,0
70,IDFC FIRST BANK LTD,IDFB0040313,DRIVE-IN ROAD BRANCH,"SHOP NO. 27,28,29,30, UPPER GROUND FLOOR, MARUTI CENTRE, DRIVE-IN ROAD, NR HIMALAYA ROAD, GURUKUL, AHMEDABAD 380052, TOLL FREE NUMBER 18004194332",AHMEDABAD,AHMEDABAD,GUJARAT,0
71,IDFC FIRST BANK LTD,IDFB0040314,NARODA BRANCH,"SHOP NO. A13 & A14, GALAXY ARCADE, GALAXY ROAD, CHANDRESH SOCIETY, NARODA GIDC, AHMEDABAD, GUJARAT - 382330",AHMEDABAD,AHMEDABAD,GUJARAT,8511077880
72,IDFC FIRST BANK LTD,IDFB0040351,PETLAD BRANCH,"First Floor, CG Complex, , Sardar Chowk, Opposite Sayaji Rao Statue,, Station Road, Petlad, District Anand, Gujarat - 388450, Toll Free No 1800 419 8332",ANAND,PETLAD,GUJARAT,0
73,IDFC FIRST BANK LTD,IDFB0040371,HIMMATNAGAR BRANCH,"GROUND FLOOR, UNIT NO. 59-60-61, ASHOK VATIKA, BLOCK D, SAHKARI JIN ROAD, SABAR KANTHA DISTRICT, HIMMATNAGAR, GUJARAT - 383001, Toll Free No 1800 419 8332",SABAR KANTHA,HIMMMATNAGAR,GUJARAT,0
74,IDFC FIRST BANK LTD,IDFB0040372,IDAR BRANCH,"First Floor, Unit No 1 2 3 4 AND 5, Shree Preet Complex, Nagar Road, Idar (City) Gujarat 383430, Toll Free No 1800 419 8332",SABAR KANTHA,IDAR,GUJARAT,0
75,IDFC FIRST BANK LTD,IDFB0040374,BAYAD BRANCH,"SHREEJI CHARAN COMPLEX SHOP 4 TO 11, OPP RELIANCE PETROL PUMP, BAYAD 383325, GUJARAT, TOLL FREE NUMBER 18004194332",SABAR KANTHA,BAYAD,GUJARAT,0
76,IDFC FIRST BANK LTD,IDFB0040375,KHERALU BRANCH,"SHOP NO 41 TO 46, SAPNA BAZAR, NEAR VRINDAVAN CHAR RASTA, AMBAHI HIGHWAY, KHERALU 384325, TOLL FREE NUMBER 18004194332",MEHSANA,KHERALU,GUJARAT,0
77,IDFC FIRST BANK LTD,IDFB0040401,MEHSANA BRANCH,"Ground Floor ,Shop No. 24-25-26, , Shivam Complex, Nagalpur Highway Road, , Mehsana, Gujarat 384002, Toll Free No 1800 419 8332",MAHESANA,MEHSANA,GUJARAT,0
78,IDFC FIRST BANK LTD,IDFB0040421,PALANPUR BRANCH,"GROUND FLOOR, B D COMPLEX, HANUMAN TEKRI, NEAR CHAUDHARY CHA FACTORY, DELHI HIGHWAY, DISTRICT BANAS KANTHA, PALANPUR 385001",BANAS KANTHA,PALANPUR,GUJARAT,0
79,IDFC FIRST BANK LTD,IDFB0041101,SONKHEDA BRANCH,"GROUND FLOOR WARD NO.10 BAZAAR MOHALLA VILLAGE SONKHEDA TEHSIL ITARSI DISTT. HOSHANGABAD MADHYA PRADESH461111, Toll Free No 1800 419 8332",SONKHEDA,SONKHEDA,MADHYA PRADESH,0
80,IDFC FIRST BANK LTD,IDFB0041102,PIPARIYA  BRANCH,"GROUND FLOOR IN FRONT OF RNA SCHOOL SHOBHAPUR ROAD PIPARIYA DISTT. HOSHANGABAD MADHYA PRADESH461775, Toll Free No 1800 419 8332",PIPARIYA,PIPARIYA,MADHYA PRADESH,0
81,IDFC FIRST BANK LTD,IDFB0041103,BANKHEDI BRANCH,"GROUND FLOOR BY PASS TIGADDA PIPARIYA ROAD BANKHEDI DISTT. HOSHANGABAD MADHYA PRADESH461990, Toll Free No 1800 419 8332",BANKHEDI,BANKHEDI,MADHYA PRADESH,0
82,IDFC FIRST BANK LTD,IDFB0041105,SEONI MALWA  BRANCH,"GROUND FLOOR MAIN ROADSEONI MALWA DISTT. HOSHANGABAD MADHYA PRADESH461990, Toll Free No 1800 419 8332",SEONI MALWA,SEONI MALWA,MADHYA PRADESH,0
83,IDFC FIRST BANK LTD,IDFB0041106,PAGDHAL BRANCH,"36KA MAIN TIMARNI ROAD GRAM PAGDHAL 24 TEHSIL SEONI MALWA DISTT. HOSHANGABAD MADHYA PRADESH461223, Toll Free No 1800 419 8332",PAGDHAL,PAGDHAL,MADHYA PRADESH,0
84,IDFC FIRST BANK LTD,IDFB0041107,DHARMKUNDI,"GROUND FLOOR NEAR BUS STAND ITARSI ROAD VILLAGE DHARAMKUNDI HOSHNGABAD, Toll Free No 1800 419 8332",HOSHANGABAD,HOSHANGABAD,MADHYA PRADESH,0
85,IDFC FIRST BANK LTD,IDFB0041109,SANGAKHEDA KALAN,"GROUND FLOOR , VILL. SANGAKHEDA KALAN, THEHSIL BABAI BADA KUAN, Toll Free No 1800 419 8332",HOSHANGABAD,SANGAKHEDA KALAN,MADHYA PRADESH,0
86,IDFC FIRST BANK LTD,IDFB0041111,TIMURNI  BRANCH,"GROUND AND FIRST FLOOR HARDA ROAD TIMARNI DISTT. HARDA MADHYA PRADESH461228, Toll Free No 1800 419 8332",TIMURNI,TIMURNI,MADHYA PRADESH,0
87,IDFC FIRST BANK LTD,IDFB0041112,HOSHANGABAD BRANCH,"GROUND FLOOR ANAND NAGAR MEENAKSHI ROAD HOSHANGABAD MADHYA PRADESH461001, Toll Free No 1800 419 8332",HOSHANGABAD,HOSHANGABAD,MADHYA PRADESH,0
88,IDFC FIRST BANK LTD,IDFB0041113,MEHGWAN  BRANCH,"GROUND FLOOR CHANDON ROAD GRAM POST MEHGWAN TEHSIL BANKHEDI DISTT. HOSHANGABAD MADHYA PRADESH461990, Toll Free No 1800 419 8332",MEHGWAN,MEHGWAN,MADHYA PRADESH,0
89,IDFC FIRST BANK LTD,IDFB0041171,KHATEGAON,"GROUND FLOOR, KHASRA NO. 133/11, OPP-GOVT. COLLEGE, KHATEGAON, DISTT. DEWAS, MADHYA PRADESH-455336, Toll Free No 1800 419 8332",DEWAS,KHATEGAON,MADHYA PRADESH,0
90,IDFC FIRST BANK LTD,IDFB0041181,DHAMNOD,"GROUND FLOOR, OLD AB ROAD, OPP-DHAMNOD CITY SCAN CENTRE, DHAMNOD, DISTT. DHAR, MADHYA PRADESH-454552, Toll Free No 1800 419 8332",DHAR,DHAMNOD,MADHYA PRADESH,0
91,IDFC FIRST BANK LTD,IDFB0041201,UDA  BRANCH,"GROUND FLOOR HARDA ROAD VILLAGE UDA DISTT. HARDA MADHYA PRADESH461331, Toll Free No 1800 419 8332",UDA,UDA,MADHYA PRADESH,0
92,IDFC FIRST BANK LTD,IDFB0041202,TAJPURA  BRANCH,"GROUND FLOOR MAIN ROAD VILLAGE TAJPURA TEHSIL TIMARNI DISTT. HARDA MADHYA PRADESH461288, Toll Free No 1800 419 8332",TAJPURA,TAJPURA,MADHYA PRADESH,0
93,IDFC FIRST BANK LTD,IDFB0041203,HARDA BRANCH,"GROUND FLOOR INDIRA GANDHI WARD WARD NO 10 GHANTAGHAR ROAD OPPJAIN DHARAMSHALA HARDA MADHYA PRADESH 461331, Toll Free No 1800 419 8332",HARDA,HARDA,MADHYA PRADESH,0
94,IDFC FIRST BANK LTD,IDFB0041204,KHIRKIAN BRANCH,"GROUND FLOOR KHANDWA ROAD OPPSBS SCHOOL WARD NO.11 CHIPAWADKHIRKIYA TEHSIL KHIRKIYA DISTRICT HARDA MADHYA PRADESH461441, Toll Free No 1800 419 8332",KHIRKIAN,KHIRKIAN,MADHYA PRADESH,0
95,IDFC FIRST BANK LTD,IDFB0041221,DHAR,"PLOT NOA-7  A-8, SURVEY NO. 29-2, VILLAGE MAGAJPURA, TEHSIL AND DISTRICT DHAR, MADHYA PRADESH - 454001, Toll Free No 1800 419 8332",DHAR,DHAR,MADHYA PRADESH,0
96,IDFC FIRST BANK LTD,IDFB0041222,RAJGARH DHAR,"GROUND FLOOR, NEAR HDFC BANK MAIN ROAD, RAJGARH DIST DHAR MP - 454116, Toll Free No 1800 419 8332",DHAR,RAJGARH,MADHYA PRADESH,0
97,IDFC FIRST BANK LTD,IDFB0041223,MAKANI,"GROUND FLOOR, VILLAGE MAKANI, MAHU-NEEMACH ROAD, P.H. NO. 45, TEHSIL BADNAWAR, DISTRICT DHAR, MP-456331, Toll Free No 1800 419 8332",DHAR,MAKANI,MADHYA PRADESH,0
98,IDFC FIRST BANK LTD,IDFB0041224,DEHRIYA SARAI BRANCH,"SURVEY NO 58 MAHU NEEMACH ROAD PATEL NAGAR COLONY VILLAGE DEHARIYA SARAI, Toll Free No 1800 419 8332",DHAR,DHAR,MADHYA PRADESH,0
99,IDFC FIRST BANK LTD,IDFB0041225,BADNAWAR BRANCH,"MANDI BY PASS ROAD BADNAWAR, Toll Free No 1800 419 8332",DHAR,BADNAWAR,MADHYA PRADESH,0
100,IDFC FIRST BANK LTD,IDFB0041241,SANWER,"GROUND FLOOR, MG ROAD SANWER, SONKATCH DISTT. DEWAS, MADHYA PRADESH - 455118, Toll Free No 1800 419 8332",DEWAS,SANWER,MADHYA PRADESH,0
101,IDFC FIRST BANK LTD,IDFB0041261,TAKIPURA,"GROUND FLOOR, NEAR HP PETROL PUMP BETMA ROAD, TAKIPURA TEHSIL DEPALPUR, DISTRICT INDORE, MP - 453220, Toll Free No 1800 419 8332",INDORE,TAKIPURA,MADHYA PRADESH,0
102,IDFC FIRST BANK LTD,IDFB0041262,INDORE - BIJALPUR BRANCH,"GROUND FLOOR, H. NO. 969,VILLAGE BIJALPUR, TEHSHIL AND DISTRICT INDORE, MADHYA PRADESH - 452012, Toll Free No 1800 419 8332",INDORE,INDORE,MADHYA PRADESH,0
103,IDFC FIRST BANK LTD,IDFB0041263,BUDHI BARLAI BRANCH,"GROUND FLOOR 1005 VILLAGE BUDHI BARLAI , SHIPRA, Toll Free No 1800 419 8332",INDORE,Budhi Barlai,MADHYA PRADESH,0
104,IDFC FIRST BANK LTD,IDFB0041264,INDORE BRANCH,"UPPER GROUND FLOOR, COMMERCE HOUSE, UG-1, UG-1A, UG-2, UG-3, UG-3A,UG-3B,7 RACE COURSE ROAD, INDORE(M.P.) 452001",INDORE,INDORE,MADHYA PRADESH,9426775487
105,IDFC FIRST BANK LTD,IDFB0041281,MANDSAUR BRANCH,"Ground and Mezzanine Floor, Plot No 109-2, Kalidas Marg, station Road, Tehsil AND District Mandsaur , Mandsaur, MP 458001, Toll Free No 1800 419 8332",MANDSAUR,MANDSAUR,MADHYA PRADESH,0
106,IDFC FIRST BANK LTD,IDFB0041301,CHHANERA BRANCH,"KHASRA NO. 1632 WAR NO.10 STATION ROAD CHHNERA NEW HARSUD DISTRICT KHANDWA MADHYA PRADESH450116, Toll Free No 1800 419 8332",KHANDWA,CHHANERA,MADHYA PRADESH,0
107,IDFC FIRST BANK LTD,IDFB0041302,KHANDWA BRANCH,"UPPER GROUND FLOOR LANDMARK ONE MALL WARD NO.26 PLOT. NO.104 AND 105 PANDHANA ROAD KHANDWA MADHYA PRADESH450001,Toll Free 1800 419 8332",KHANDWA,KHANDWA,MADHYA PRADESH,0
108,IDFC FIRST BANK LTD,IDFB0041303,PANDHANA BRANCH,"GROUND FLOOR WARD NO.14 DIWAL ROAD NEAR CHURCH DISTT. KHANDWA MADHYA PRADESH450661, Toll Free No 1800 419 8332",KHANDWA,PANDHANA,MADHYA PRADESH,0
109,IDFC FIRST BANK LTD,IDFB0041321,IDFC BANK LTD,"KHASRA NO 260/1/2, GROUND FLOOR, NAVALPURA MAHESHWAR ROAD, OPP- LAXMI NARAYAN COLONY, VILLAGE LADVI, TEHSIL MAHESHWAR, DISTT KHARGONE, MADHYA PRADESH-451221, Toll Free No 1800 419 8332",KHARGONE,KHARGONE,MADHYA PRADESH,0
110,IDFC FIRST BANK LTD,IDFB0041322,SANAWAD,"GROUND FLOOR, 411, INDORE ROAD, OPP-INDIAN OIL PETROL PUMP, SANAWAD, DISTT. KHARGONE, MADHYA PRADESH, - 451111, Toll Free No 1800 419 8332",KHARGONE,SANAWAD,MADHYA PRADESH,0
111,IDFC FIRST BANK LTD,IDFB0041323,SIRLAI,"GROUND FLOOR,MG ROAD,GROUND FLOOR,MAIN ROAD, SIRLAI VILLAGE,TEHSIL BARWAH,DISTT. KHARGONE, MADHYA PRADESH - 451115, Toll Free No 1800 419 8332",KHARGONE,SIRLAI,MADHYA PRADESH,0
112,IDFC FIRST BANK LTD,IDFB0041324,BHIKANGAON,"SURVEY NO 24/5, GROUND AND UPPER GROUND, STREET NO.15, PLOT NO 10, OPP, BUS STAND, TOWN BHIKANGAON, TEHSIL BHIKANGAON, DIST KHARGONE, MADHYA PRADESH - 451331, Toll Free No 1800 419 8332",KHARGONE,BHIKANGAON,MADHYA PRADESH,0
113,IDFC FIRST BANK LTD,IDFB0041325,KHARGONE,"SHOP NO. C-14 RADHA VALLABH MKT KHARGONE, DISTT. KHARGONE, MADHYA PRADESH - 451224, Toll Free No 1800 419 8332",KHARGONE,KHARGONE,MADHYA PRADESH,0
114,IDFC FIRST BANK LTD,IDFB0041351,PUNE BUND GARDEN ROAD,"AMAR AVINASH CORPORATE CITY,3RD FLOOR,BUND GARDEN ROAD,PUNE 411001",PUNE,PUNE,MAHARASHTRA,66483000
115,IDFC FIRST BANK LTD,IDFB0041352,PUNE LAW COLLEGE ROAD BRANCH,"UPPER, GORUND & MEZZANINE FLOOR,, UNIT NO 01, S. NO-815, TANDALE HEIGHTS,, LAW COLLEGE ROAD, SHIVAJI NAGAR, 411004",PUNE,PUNE,MAHARASHTRA,9823989884
116,IDFC FIRST BANK LTD,IDFB0041353,CAMP BRANCH,"PARMAR HOUSE, GROUND & MEZZANINE FLOOR, 2413, GENERAL THIMAYYA ROAD, CAMP, PUNE 411001, TOLL FREE NUMBER 18004194332",PUNE(CB),PUNE,MAHARASHTRA,0
117,IDFC FIRST BANK LTD,IDFB0041354,WAKAD BRANCH,"G O SQUARE, GROUND FLOOR, SHOWROOM NO4 A,BUILDING NO A, WAKAD, PUNE 411057, TOLL FREE NUMBER 18004194332",PUNE (M CORP.),PUNE,MAHARASHTRA,0
118,IDFC FIRST BANK LTD,IDFB0041355,AUNDH BRANCH,"FIRST AND SECOND FLOOR, SHOP NO 101 AND 201, 97, VARHSA BUILDING, ANAND PARK, ITI ROAD, PUNE 411007, TOLL FREE NO 18004194332",PUNE,AUNDH,MAHARASHTRA,0
119,IDFC FIRST BANK LTD,IDFB0041356,PIMPRI BRANCH,"LOWER GROUND FLOOR ,UNIT NO. 19-20-21, BUILDING NO B, JEWEL OF PRIMPRI PREMISE CHS LTD, OPP PCMC OFFICE, ON OLD MUMBAI PUNE HIGHWAY, PIMPRI, PUNE 411018, TOLL FREE NO 18004194332",PUNE,PIMPRI,MAHARASHTRA,0
120,IDFC FIRST BANK LTD,IDFB0041357,WANOWRIE BRANCH,"GROUND FLOOR SHOP NO. 1, KEDARI LANDMARKS BUILDING, PLOT NO. 1, WANOWRIE, PUNE 411040, TOLL FREE NUMBER 18004194332",PUNE (M.CORP.),PUNE,MAHARASHTRA,0
121,IDFC FIRST BANK LTD,IDFB0041358,KALYANI NAGAR BRANCH,"GROUND FLOOR, UNIT NO 1, NEAR BISHOP SCHOOL,S NO 206, FINAL PLOT NO 88, SUB-PLOT NO 3, RAMWADI, KALYANI NAGAR, YERWADA, PUNE 411006, TOLL FREE NO 18004194332",PUNE,KALYANI NAGAR,MAHARASHTRA,0
122,IDFC FIRST BANK LTD,IDFB0041359,KARVE NAGAR BRANCH,"GROUND FLOOR, SOLITAIRE APARTMENT, S.NO 35, HISSA NO.6, CTS NO.1194, HINGANE BADRUK, KARVE NAGAR, TALUKA, HAVELI PUNE 411052, TOLL FREE NUMBER 18004194332",PUNE,KARVE NAGAR,MAHARASHTRA,0
123,IDFC FIRST BANK LTD,IDFB0041381,BHOPAL RAISEN ROAD BRANCH,"GROUND FLOOR,6B,GOVIND GARDEN , OPPOSITE VIDYUT NAGAR , RAISEN ROAD ,BHOPAL, Toll Free No 1800 419 8332",BHOPAL,BHOPAL,MADHYA PRADESH,0
124,IDFC FIRST BANK LTD,IDFB0041382,BHOPAL ARERA COLONY BRANCH,"GROUND FLOOR E3/75,,ARERA COLONY,,NEAR NARMADA HOSPITAL, BHOPAL 462016",BHOPAL,BHOPAL,MADHYA PRADESH,9893651903
125,IDFC FIRST BANK LTD,IDFB0041411,KURAWAR BRANCH,"Ground floor, Khasra No. 686/1, , Ward No.7, Main Kurawar Road, , Kurawar, Tehsil Narsinghgarh, Distt. Rajgarh, Madhya Pradesh-465667, Toll Free No 1800 419 8332",RAJGARH,KURAWAR,MADHYA PRADESH,0
126,IDFC FIRST BANK LTD,IDFB0042101,MANDIDEEP BRANCH,"PLOT 14 NEAR JAIN MANDIR MANDIDEEP RAISEN, Toll Free No 1800 419 8332",RAISEN,MANDIDEEP,MADHYA PRADESH,0
127,IDFC FIRST BANK LTD,IDFB0042121,UGARIYAWAS,"GROUND FLOOR PLOT NO 4,KHASRA NO 800/1,VILLAGE UGARIYAWAS,DUDU,TEHSHIL MAUZAMABAD,DISTT JAIPUR RAJASTHAN 303338, Toll Free No 1800 419 8332",JAIPUR,UGARIYAWAS,RAJASTHAN,0
128,IDFC FIRST BANK LTD,IDFB0042122,HARSOLI BRANCH,"GROUND FLOOR,SHIV MANDIR,MAIN CHOK,VILLAGE HARSOLI,TEHSIL KISHANGARH RENWAL,DISTRICT JAIPUR 303603, Toll Free No 1800 419 8332",JAIPUR,HARSOLI,RAJASTHAN,0
129,IDFC FIRST BANK LTD,IDFB0042123,MANGARH KHOKHAWALA BRANCH,"UPPER GROUND FLOOR, ADJACENT TO GOVT SCHOOL, VILLAGE MANGARH KHOKHAWALA,TEHSIL BASSI, DISTRICT JAIPUR,RAJASTHAN 303301, Toll Free No 1800 419 8332",JAIPUR,MANGARH KHOKHAWALA,RAJASTHAN,0
130,IDFC FIRST BANK LTD,IDFB0042124,JAIPUR BRANCH,"GROUND FLOOR,UNIT NO 2 AND FIRST FLOOR UNIT NO 1,SOHAN GRAM ORIEL SURVEY 1224 PLOT NO 7,COLLEGE ROAD,NEAR TULSI RESIDENCY,OPP AADHAR MARKET NADIAD,DIST KHEDA,GUJARAT 387001,TOLL FREE 1800 419 8332",JAIPUR,JAIPUR,RAJASTHAN,0
131,IDFC FIRST BANK LTD,IDFB0042125,SHAHPURA BRANCH,"Upper Ground Floor, Mandolia , Complex, Plot no 112, Old Delhi , Road, Shahpura, Dist. Jaipur, Rajasthan - 303103, Toll Free No 1800 419 8332",JAIPUR,SHAHPURA,RAJASTHAN,0
132,IDFC FIRST BANK LTD,IDFB0042126,CHOMU BRANCH,"FIRST FLOOR,VYAS PLAZA,WARD NO.17,KACHOLIA ROAD CHOMU,DISTT,,JAIPUR RAJASTHAN 303702",JAIPUR,CHOMU,RAJASTHAN,0
133,IDFC FIRST BANK LTD,IDFB0042127,JAIPUR C- SCHEME BRANCH,"GROUND FLOOR, G1 AND G2 AARCADE, K-12 MALVIYA MARG, C- SCHEME, JAIPUR",JAIPUR,JAIPUR,RAJASTHAN,8875010436
134,IDFC FIRST BANK LTD,IDFB0042128,VAISHALI NAGAR BRANCH,"Upper Ground Floor, 74, Shivraj Niketan, Gautam Marg, Vishali Nagar, Jaipur 302021 Rajasthan",JAIPUR,JAIPUR,RAJASTHAN,0
135,IDFC FIRST BANK LTD,IDFB0042129,RAJA PARK-JAIPUR BRANCH,"FIRST FLOOR, UNIT NO. B-1, A-34, PRABHU MARG, TILAK NAGAR, JAIPUR 302004, TOLL FREE NO. 18004194332",JAIPUR,RAJA PARK,RAJASTHAN,0
136,IDFC FIRST BANK LTD,IDFB0042141,UJJAIN BRANCH,"GROUND FLOOR, 47, SUBHASH NAGAR COLONY, SAVER ROAD, NEAR DO TALAAB, UJJAIN, MP - 456010, Toll Free No 1800 419 8332",UJJAIN,UJJAIN,MADHYA PRADESH,0
137,IDFC FIRST BANK LTD,IDFB0042142,SEJAWATA BRANCH,"KHASRA NO, 32/5/2 UJJAIN ROAD, VILLAGE SEJAWATA, TEHSIL JAORA, DIST- RATLAM, MADHYA PRADESH - 457226, Toll Free No 1800 419 8332",RATLAM,SEJAWATA,MADHYA PRADESH,0
138,IDFC FIRST BANK LTD,IDFB0042161,NADIAD BRANCH,"GROUND FLOOR,UNIT NO 2 AND FIRST FLOOR UNIT NO 1 ,SOHAN GRAM ORIEL SURVEY NO 1224 PLOT NO 7,COLLEGE ROAD,NEAR TULSI RESIDENCY,OPP AADHAR MARKET NADIAD,DIST KHEDA,GUJARAT 387001,TOLL FREE 1800 419 8332",KHEDA,NADIAD,GUJARAT,0
139,IDFC FIRST BANK LTD,IDFB0042181,AJMER,"GR AND 1ST FLOOR,DWARKADHISH,,PLOT NO.551/15,NEAR DATA INN HOTEL,, SRINAGAR ROAD,AJMER,RAJASTHAN-305001, Toll Free No 1800 419 8332",AJMER,AJMER,RAJASTHAN,0
140,IDFC FIRST BANK LTD,IDFB0042182,BIJAINAGAR BRANCH,"GROUND FLOOR,KHASARA NO.1083/3,SHOP NO 6 TO 15,SANCHETI COLONY B,BIJAINAGAR,DISTT,AJMER,RAJASTHAN 305624",AJMER,BIJAINAGAR,RAJASTHAN,0
141,IDFC FIRST BANK LTD,IDFB0042201,RATLAM BRANCH,"Ground floor, 102 AND 103, , Freeganj, Motilal Nehru Marg, , Ratlam, Madhya Pradesh-457001, Toll Free No 1800 419 8332",RATLAM,RATLAM,MADHYA PRADESH,0
142,IDFC FIRST BANK LTD,IDFB0042221,SIKAR BRANCH,"Ground Floor, Ocean Plaza, , Plot no 319-A, Jaipur Road, , Devipura, Sikar, Rajasthan 332001, Toll Free No 1800 419 8332",SIKAR,SIKAR,RAJASTHAN,0
143,IDFC FIRST BANK LTD,IDFB0042222,SHRIMADHOPAR BRANCH,"UPPER GROUND FLOOR, PLOT WITH PATLA N. 136,SITUATED AT WARD-11, MAHALAXMI COMPLEX, SIKAR BAZAR, NEAR MURLI MANOHAR MANDIR, SHRI MADHOPUR, DIST. SIKAR, RAJASTHAN 332715",SIKAR,SHRIMADHOPUR,RAJASTHAN,0
144,IDFC FIRST BANK LTD,IDFB0042223,DIDWANA BRANCH,"PREMISES NEAR HDFC AND PWD HOUSE,LADNUN ROAD,DIDWANA,NAGAUR,RAJASTHAN-341303,TOLL FREE NUMBER 18004194332",NAGAUR,DIDWANA,RAJASTHAN,0
145,IDFC FIRST BANK LTD,IDFB0042241,GODHRA BRANCH,"Ground Floor, Khasra No 1215/1, Sri Swaminarayan Avenue, Bamroli Road, Godhra City, Panch Mahals District, Gujarat 389001, Toll Free No 1800 419 8332",PANCH MAHALS,GODHRA,GUJARAT,0
146,IDFC FIRST BANK LTD,IDFB0042242,HALOL BRANCH,"Ground Floor R S No 109, Plot no 203, Purohit Complex Godhra Road (Moje Kasba), Halol District Panchmahal,Gujarat 389350, Toll Free No 1800 419 8332",PANCHMAHAL,HALOL,GUJARAT,0
147,IDFC FIRST BANK LTD,IDFB0042261,SURAT BRANCH,"GROUND FLOOR, 61-SUBHASH NAGAR SOCIETY, RAM CHOWK, GHOD DOD ROAD, SURAT, 360005",SURAT,SURAT,GUJARAT,7045752054
148,IDFC FIRST BANK LTD,IDFB0042262,RING ROAD BRANCH,"FIRST FLOOR, SHREE THAKORBHAI MITHAIWALA MARKET, SURVEY NOS. 2190/A/1/A/1/1/28, WARD NO. 4, SAHARA DARWAJA, RING ROAD, SURAT 395002, TOLL FREE NUMBER 18004194332",SURAT,SURAT,GUJARAT,0
149,IDFC FIRST BANK LTD,IDFB0042267,KAMREJ BRANCH,"MAHAVEER SHOPPING COMPLEX, NEAR DISTRICT COOPERATIVE BANK, KAMREJ KADODARA ROAD, KAMREJ-394180 SURAT, TOLL FREE NUMBER 18004194332",SURAT,KAMREJ,GUJARAT,0
150,IDFC FIRST BANK LTD,IDFB0042281,NASHIK BRANCH,"GROUND FLOOR,SHOP NO.2, SHANTA-MADHAV SANKUL,MICRO CIRCLE, TRIMBAK ROAD, NASHIK-422002, MAHARASHTRA",NASHIK,NASHIK,MAHARASHTRA,8554992543
151,IDFC FIRST BANK LTD,IDFB0042301,JHUNJHUNU BRANCH,"Ground Floor, Plot No 14A, Water Works Colony,Mann Nagar, Near Peeru Singh Circle, Jhunjhunu, Rajasthan, Toll Free No 1800 419 8332",JHUNJHUNU,JHUNJHUNU,RAJASTHAN,0
152,IDFC FIRST BANK LTD,IDFB0042321,BHILWARA BRANCH,"UPPER GROUND FLOOR,SHOP NO 8,9,10&11,B BLOCK,S K PLAZA,KHASRA NO.2030,PUR ROAD,BHILWARA,RAJASTHAN,311001",BHILWARA,BHILWARA,RAJASTHAN,0
153,IDFC FIRST BANK LTD,IDFB0042341,MANSA BRANCH,"GROUND FLOOR,UNIT NO 1,2,3&4, A BLOCK,VASANT VILLA COMPLEX,GANDHINAGAR HIGHWAY,,MANSA 382845",GANDHINAGAR,MANSA,GUJARAT,0
154,IDFC FIRST BANK LTD,IDFB0042342,KALOL BRANCH,"GROUND FLOOR, PARIVAR COMPLEX, KALOL, AHMEDABAD BYPASS ROAD, KALOL, 382721",GANDHINAGAR,KALOL,GUJARAT,0
155,IDFC FIRST BANK LTD,IDFB0042343,GANDHINAGAR BRANCH,"GROUND FLOOR, PLOT. 318, SECTOR 16, GH ROAD, GANDHINAGAR 382016",GANDHINAGAR,GANDHINAGAR,GUJARAT,9825227623
156,IDFC FIRST BANK LTD,IDFB0042361,PATAN BRANCH,"GROUND FLOOR,DEVI ESTATE- DEEDA PATAN HIGHWAY, NEAR INCOME TAX OFFICE,TB3,CROSS ROAD,PATAN 384265",GANDHINAGAR,PATAN,GUJARAT,0
157,IDFC FIRST BANK LTD,IDFB0042381,VADODARA BARANCH,"GROUND FLOOR SHOP NO 2& SECOND FLOOR, UNIT NO. 201, TOWER-A, SAHYOG ATRIUM, PLOT NO 23/24, HARIBHAKTI EXTENSION COLONY, O.P ROAD, VADODARA, 390007",VADODARA,VADODARA,GUJARAT,8291884758
158,IDFC FIRST BANK LTD,IDFB0042382,PADRA BRANCH,"FIRST FLOOR - A11, UMIYA NAGAR CHSL, MOJE PADRA, VADODRA PADRA ROAD, PADRA 391440",VADODARA,PADRA,GUJARAT,0
159,IDFC FIRST BANK LTD,IDFB0042383,MAKARPURA BRANCH,"FIRST FLOOR. OFFICE NO. 101, 102, 103 AND 104 SUN PLAZA 2, VADASAR TARSALI RING ROAD MAKARPURA, VADODARA, 390014, GUJARAT",VADODARA,MAKARPURA,GUJARAT,9898563730
160,IDFC FIRST BANK LTD,IDFB0042401,PANJIM BRANCH,"GROUND FLOOR, SHOP NO. G-2, MILROC LAR MENEZES, SWAMI VIVEKANANDA ROAD, PANAJI, GOA, PIN CODE 403001",NORTH GOA,PANJIM,GOA,9823280611
161,IDFC FIRST BANK LTD,IDFB0042421,RAJKOT BRANCH,"GROUND FLOOR  FLOOR, JANKI PARK MAIN NROAD, OPP GONDHIA HOSPITAL, KALAWAD ROAD, RAJKOT, 395001",RAJKOT,RAJKOT,GUJARAT,8291884223
162,IDFC FIRST BANK LTD,IDFB0042441,VAPI BRANCH,"GROUND FLOOR, PLOT NO 544-547/P, AJIT EMPORIUM,, VAPI SILVASSA MAIN ROAD, VAPI, 396191",VALSAD,VAPI,GUJARAT,7400065430
163,IDFC FIRST BANK LTD,IDFB0042461,ANKLESHWAR BRANCH,"GROUND FLOOR, PLOT NO C-7, ROSHNI PLAZA, GIDC ROAD, BHARUCH DISTRICT, ANKLESHWAR, 393002",BHARUCH,ANKLESHWAR,GUJARAT,8291854916
164,IDFC FIRST BANK LTD,IDFB0042481,JODHPUR BRANCH,"GROUND FLOOR, PLOT A, KASTURI PLAZA,,BOMBAY MOTOR CIRCLE ROAD, JODHPUR, 342001",JODHPUR,JODHPUR,RAJASTHAN,9810223345
165,IDFC FIRST BANK LTD,IDFB0042501,NAGPUR BRANCH,"GROUND FLOOR,127/1,MAHARAJ BAG ROAD,OPPOSITE SBI PBB, RAMADAS,PETH, NAGPUR 440010",NAGPUR,NAGPUR,MAHARASHTRA,9158484448
166,IDFC FIRST BANK LTD,IDFB0042562,FATEHNAGAR BRANCH,"GROUND FLR, TVS BUILDING, WARD NO.14, NEAR WATER WORKS, VASNI MAFI,FATENAGAR, SANWAD,DISTRICT UDAIPUR, RAJASTHAN 313205,TOLL FREE NUMBER 1804194332",UDAIPUR,FATEHNAGAR,RAJASTHAN,0
167,IDFC FIRST BANK LTD,IDFB0042701,BARWANI BRANCH,"GROUND FLOOR, PLOT NO. 08, MUNICIPAL DAKHLA NO. 140/10, SURVEY NO. 1/1, ANJAD NAKA, VILL. BARWANI, TEHSIL & DIST. BARWANI, MADHYA PRADESH 451551, TOLL FREE NUMBER 18004194332",BARWANI,BARWANI,MADHYA PRADESH,0
168,IDFC FIRST BANK LTD,IDFB0042721,AKODIA BRANCH,"GROUND FLOOR, HOUSE 62, WARD NO 11, DHARMASHALA ROAD, AKODIA MANDI, AKODIA, DISTT SHAJAPUR, MADHYA PRADESH 465223, TOLL FREE NUMBER 18004194332",SHAJAPUR,AKODIA,MADHYA PRADESH,0
169,IDFC FIRST BANK LTD,IDFB0042741,AGAR MALWA BRANCH,"UPPER GROUND FLOOR, HOUSE NO 232, SURVEY NO. 144/3, NEAR VIVEKANAND COLONY, AGAR MALWA, CHHAWNI AGAR, DISTRICT AGAR (M.P.)465441, TOLL FREE NUMBER 18004194332",AGAR MALWA,AGAR MALWA,MADHYA PRADESH,0
170,IDFC FIRST BANK LTD,IDFB0042761,MODASA BRANCH,"SHOP NO - 5,6,7,8,14,15,16,17, M.G.ARCADE, MEGRAJ CROSS ROAD, MODASA BYPASS ROAD, MODASA - 383315, GUJARAT. TOLL FREE NO. 18004194332",ARAVALLI,MODASA,GUJARAT,0
171,IDFC FIRST BANK LTD,IDFB0042781,RAJSAMAND BRANCH,"GROUND FLOOR, MM COMPLEX, PLOT NO 3-4-5, NEAR TVS CIRCLE, NATHDWARA ROAD,KANKROLI,DISTRICT RAJSAMAND RAJASTHAN 313324,TOLL FREE NUMBER 18004194332",RAJSAMAND,RAJSAMAND,RAJASTHAN,0
172,IDFC FIRST BANK LTD,IDFB0042801,LUNAWADA BRANCH,"CITY SURVEY NO 178/37/38, PLOT NO 15-16, OPP ALLAHABAD BANK, NEAR KOSIYA NAKA, MODASA HIGHWAY, DIST. MAHISAGAR LUNAWADA GUJARAT - 389230. TOLL FREE NO. 18004194332",PANCHMAHAL,LUNAWADA,GUJARAT,0
173,IDFC FIRST BANK LTD,IDFB0042821,CHITTORGARH BRANCH,"PLOT NO 8, SUBASH NAGAR, BHILWARA ROAD NEAR COLLECTORS OFFICE, DISTRICT CHITTORGARH, RAJASTHAN 312001",CHITTORGARH,CHITTORGARH,RAJASTHAN,1800419433
174,IDFC FIRST BANK LTD,IDFB0042841,VYARA BRANCH,"GRD FLOOR, SHANTI PARK, SHOP NO 1 TO 4, OLD COLLECTOR BUNGALOW, NEAR SAYAJI GROUND, STATION ROAD, TAPI, VYARA 394650, TOLL FREE NUMBER 18004194332",TAPI,VYARA,GUJARAT,0
175,IDFC FIRST BANK LTD,IDFB0060101,KOLKATA BALLYGUNGE CIRCULAR ROAD,64B 1ST FLOOR BALLYGUNGE CIRCULAR ROAD KOLKATA 700019,KOLKATA,KOLKATA,WEST BENGAL,66390700
176,IDFC FIRST BANK LTD,IDFB0060102,SALT LAKE-KOLKATA BRANCH,"GROUND FLOOR & 6TH FLOOR,VISHNU CHAMBERS,,SITUATED AT J-4,BLOCK EP & GP,, SECTOR-V, BIDHAN NAGAR,KOLKATA-700091",NORTH TWENTY FOUR PARGANAS,SALT LAKE- KOLKATA,WEST BENGAL,1800419433
177,IDFC FIRST BANK LTD,IDFB0060103,DALHOUSIE BRANCH,"GROUND FLOOR, BHANDARI HOUSE, 16 NETAJI SUBHAS ROAD, DALHOUSIE, KOLKATA 700001, TOLL FREE NUMBER 18004194332",KOLKATA,KOLKATA,WEST BENGAL,0
178,IDFC FIRST BANK LTD,IDFB0060201,SHILLONG BRANCH,"VN HARDWARE BUILDING, DEMESEINIONG,LAITHUMKRA,OPPOSITE NEEPCO OFFICE,EAST SHILLONG, MEGHALAYA 793011, Toll Free No 1800 419 8332",EAST KHASI HILLS,SHILLONG,MEGHALAYA,0
179,IDFC FIRST BANK LTD,IDFB0060221,AGARTALA BRANCH,"HOUSE NO. 130460, WARD NO. 13, TG ROAD, KRISHNA NAGAR, SHANKER CHOWMUHANI, AGARTALA TRIPURA (W) 799001, Toll Free No 1800 419 8332",WEST TRIPURA,AGARTALA,TRIPURA,0
180,IDFC FIRST BANK LTD,IDFB0060241,BHUBANESWAR BRANCH,"FIRST FLOOR, 96, KHARVEL NAGAR, JANPATH, BHUBANESWAR, ODISHA 751001, TOLL FREE NUMBER 18004194332",KHORDHA,BHUBANESWAR,ODISHA,0
181,IDFC FIRST BANK LTD,IDFB0060261,GUWAHATI  BRANCH,"FIRST FLOOR, AG PLAZA, G.S. ROAD, GUWAHATI, ASSAM 781005, TOLL FREE NUMBER 18004194332",KAMRUP METROPOLITAN,GUWAHATI,ASSAM,0
182,IDFC FIRST BANK LTD,IDFB0060281,BORING ROAD BRANCH,"UPPER GROUND FLOOR,SHOP NO 14-15,G.V.MALL,BORING ROAD,PATNA BIHAR 800001 TOLL FREE NO-18004194332",PATNA,BORING ROAD,BIHAR,0
183,IDFC FIRST BANK LTD,IDFB0060301,RAIPUR BRANCH,"GROUND FLOOR, BINDAL TOWER, P.H. NO. 110, RIC, SHANKAR NAGAR, RAIPUR, CHHATTISGARH 492007, TOLL FREE NUMBER 18004194332",RAIPUR,RAIPUR,CHHATTISGARH,0
184,IDFC FIRST BANK LTD,IDFB0060321,VARANASI BRANCH,"FIRST FLOOR, D-59/1, A-2, RATHYATRA, VARANASI, UTTAR PRADESH 221010, TOLL FREE NO. 18004194332",VARANASI,VARANASI,UTTAR PRADESH,0
185,IDFC FIRST BANK LTD,IDFB0060341,RANCHI BRANCH,"2ND FLOOR, ORIFLAME MALL(CITADEL BUILDING), MAIN ROAD AREA, RANCHI, JHARKHAND 834001, TOLL FREE NUMBER 18004194332",RANCHI,RANCHI,JHARKHAND,0
186,IDFC FIRST BANK LTD,IDFB0060461,BHATAPARA BRANCH,"H NO. 136 NEAR NAGAR PALIKA OFFICE, TARENGA ROAD, SHAKTIWARD, P O BHATAPARA, DIST. BALODA BAZAR, BHATAPARA, CHHATTISGARH - 493118. TOLL FREE NO. 18004194332",BALODABAZAR,BHATAPARA,CHHATTISGARH,0
187,IDFC FIRST BANK LTD,IDFB0080101,CHENNAI R.K.SALAI,"DBS WESTMINISTER,108,R.K.SALAI,3RD FLOOR,CHENNAI 600 004",CHENNAI,CHENNAI,TAMIL NADU,66145000
188,IDFC FIRST BANK LTD,IDFB0080102,NUNGAMBAKKAM BRANCH,GF& 1 FLOOR TAHERA MANOR NUNGAMBAKKAM HIGH ROAD CHENNAI 600034,CHENNAI,CHENNAI,TAMIL NADU,9841775883
189,IDFC FIRST BANK LTD,IDFB0080103,RA PURAM BRANCH,"FIRST FLOOR, PREMISE NEW NO. 57, OLD NO.29, FIRST MAIN ROAD, OPP. BILLROTH HOSPITAL, R.A PURAM, CHENNAI 600028, TOLL FREE NO 18004194332",CHENNAI,RA PURAM,TAMIL NADU,0
190,IDFC FIRST BANK LTD,IDFB0080104,PARRYS CORNER BRANCH,"FIRST FLOOR, DOOR NO.3, DASS INDIA TOWERS,SECOND LINE BEACH ROAD, PARRYS CORNER, CHENNAI 600001 TOLL-FREE NUMBER 18004194332",CHENNAI,CHENNAI,TAMIL NADU,0
191,IDFC FIRST BANK LTD,IDFB0080105,ADYAR BRANCH,"FIRST FLOOR, DOOR NO.9, 3RD AVENUE, INDIRA NAGAR, ADYAR, CHENNAI 600020, TOLL FREE NUMBER 18004194332",CHENNAI,ADYAR,TAMIL NADU,0
192,IDFC FIRST BANK LTD,IDFB0080106,ANNA NAGAR BRANCH,"FIRST FLOOR,TAMILVANNAN COMPLEX,BLOCK NO. AA 144, 3RD AVENUE, SHANTHI COLONY, ANNA NAGAR, CHENNAI 600040, TOLL FREE NUMBER 18004194332",CHENNAI,ANNA NAGAR,TAMIL NADU,0
193,IDFC FIRST BANK LTD,IDFB0080107,EGATTUR BRANCH,"FIRST FLOOR, D SQUARE, 145/6A2, 6A3, EGATTUR, CHENNAI 603103, TOLL FREE NUMBER 18004194332",KANCHIPURAM,EGATTUR,TAMIL NADU,0
194,IDFC FIRST BANK LTD,IDFB0080108,T NAGAR BRANCH,"GROUND FLOOR, NEW NO. 3, OLD NO.2, VENKATANARAYANA ROAD, DIAGONALLY OPP TO PANAGAL PARK, OPPOSITE TO T NAGAR SOCIAL CLUB, CHENNAI 600017, TOLL FREE NO. 18004194332",CHENNAI,T NAGAR,TAMIL NADU,0
195,IDFC FIRST BANK LTD,IDFB0080119,ASHOK NAGAR BRANCH,"GROUND FLOOR, MAHALAXMI BUILDING, 46/43, 10TH AVENUE, ASHOK NAGAR, OPPOSITE INDUSIND BANK, NEXT TO TNSC BANK, CHENNAI - 600083",CHENNAI,CHENNAI,TAMIL NADU,9894013999
196,IDFC FIRST BANK LTD,IDFB0080121,KILPAUK BRANCH,"PLOT NO. 80, OLD DOOR NO. 73, NEW DOOR NO. 58, NEW AVADI ROAD, KILPAUK, CHENNAI - 600010",CHENNAI,CHENNAI,TAMIL NADU,9884303303
197,IDFC FIRST BANK LTD,IDFB0080122,DR. RADHAKRISHNAN SALAI BRANCH,"GROUND FLOOR, NO. 1, R.S NO. 1731/78, DR. RADHAKRISHNAN SALAI, IV STREET, OPPOSITE TO AURAS CORPORATE CENTRE, MYLAPORE, CHENNAI - 600004",CHENNAI,CHENNAI,TAMIL NADU,9894013999
198,IDFC FIRST BANK LTD,IDFB0080151,BANGALORE RESIDENCY ROAD,RESIDENCY BUILDING PLOT NO 79 RESIDENCY ROAD RICHMOND TOWN BANGALORE,BANGALORE,BANGALORE,KARNATAKA,67943000
199,IDFC FIRST BANK LTD,IDFB0080152,KORAMANGALA BRANCH,"GROUND FLOOR, ANUGOPAL PLAZA, NO 610,6TH BLOCK, 80 FEET ROAD, KORAMANGALA, BENGALURU 560095, TOLL FREE NUMBER 18004194332",BANGALORE URBAN,KORAMANGALA,KARNATAKA,0
200,IDFC FIRST BANK LTD,IDFB0080153,WHITEFIELD BRANCH,"GROUND FLOOR, ANMOL CARLSON COURT, FLAT NO. G-2, NEW KHATHA NO.180/614/G-02, WHITEFIELD MAIN ROAD,WHITE FIELD, OPP LOURDES CHURCH, BENGALURU 560066, TOLL FREE NUMBER 18004194332",BANGALORE URBAN,WHITEFIELD,KARNATAKA,0
201,IDFC FIRST BANK LTD,IDFB0080154,MALLESWARAM BRANCH,"GROUND MEZZANINE FLOOR, SHANKARI HEIGHTS,103,15TH CROSS ROAD, BETWEEN SAMPIGE MARGOSA ROAD, MALLESWARAM, BENGALURU 560003, TOLL FREE NUMBER 18004194332",BANGALORE URBAN,MALLESWARAM,KARNATAKA,0
202,IDFC FIRST BANK LTD,IDFB0080155,INDIRANAGAR BRANCH,"GROUND FLOOR, 303/A, MEENAKSHI TOWERS, 100 FT ROAD, INDIRANAGAR, BENGALURU 560008, TOLL FREE NUMBER 18004194332",BANGALORE URBAN,INDIRANAGAR,KARNATAKA,0
203,IDFC FIRST BANK LTD,IDFB0080156,JAYANAGAR BRANCH,"GROUND FLOOR, DOOR NEW NO.20, OLD NO.476, 9TH MAIN ROAD, 40TH CROSS, JAYANAGAR, 5TH BLOCK, OPP TO MAINLAND CHINA HOTEL, BENGALURU 560041, TOLL FREE NO 18004194332",BANGALORE URBAN,JAYANAGAR,KARNATAKA,0
204,IDFC FIRST BANK LTD,IDFB0080157,KALYAN NAGAR BRANCH,"GROUND FLOOR, TRINITY COMPLEX, KALYAN NAGAR ORR, KAMMANAHALLI, BENGALURU 560043",BANGALORE URBAN,KAMMANAHALLI,KARNATAKA,9902585585
205,IDFC FIRST BANK LTD,IDFB0080158,SARJAPURA ROAD BRANCH,"GROUND FLOOR, GRS TOWERS, SURVEY NUMBER 18/2A, SARJAPUR MAIN ROAD, BELLANDUR, BANGALORE 560102, TOLL FREE NUMBER 18004194332",BANGALORE URBAN,SARJAPURA ROAD,KARNATAKA,0
206,IDFC FIRST BANK LTD,IDFB0080167,R T NAGAR BRANCH,"GROUND FLOOR, BASAVA CHETANA, MATADAHALLI FURTHER EXTENSION, NO 172/1, MLA LAYOUT, R T NAGAR, BANGALORE 560032, TOLL FREE NUMBER 18004194332",BANGALORE URBAN,BANGALORE,KARNATAKA,0
207,IDFC FIRST BANK LTD,IDFB0080168,FRAZER TOWN BRANCH,"GR FLR, SHOP NO 3, OPP KOTAK BANK, CLEVELAND TOWN, PULIKESHI NAGAR, COLES ROAD, BANGALORE 560005",BANGALORE URBAN,BANGALORE,KARNATAKA,9148158621
208,IDFC FIRST BANK LTD,IDFB0080169,RAJAJINAGAR BRANCH,"GROUND FLOOR, 1ST MAIN ROAD, 4TH BLOCK, SITE NO. 1016/39, MANI COMPLEX,RAJAJI NAGAR, DR. RAJKUMAR ROAD,BANGALORE - 560010,TOLL FREE NUMBER 18004194332",BANGALORE URBAN,RAJAJINAGAR,KARNATAKA,0
209,IDFC FIRST BANK LTD,IDFB0080171,BANASHANKARI THIRD STAGE BRANCH,"GROUND FLOOR, PREMISES NO. 77, PID NO. 55-445-77, HOSAKEREHALLI VILLAGE, 100 FEET RING ROAD, BANGALORE,560085, TOLL FREE NUMBER 18004194332",BANGALORE URBAN,BANGALORE,KARNATAKA,0
210,IDFC FIRST BANK LTD,IDFB0080172,HSR LAYOUT BRANCH,"GROUND FLOOR, SITE NO. 4 & 5TH, 27TH MAIN, 1ST SECTOR, HSR LAYOUT, BENGALURU - 560095",BANGALORE URBAN,BANGALORE,KARNATAKA,9148158621
211,IDFC FIRST BANK LTD,IDFB0080173,BASAVANAGUDI BRANCH,"GR FLR NO 8/3, PID NO. 49-6-8/3, BULL TEMPLE ROAD, BASAVANAGUDI, BANGALORE 560004",BANGALORE URBAN,BANGALORE,KARNATAKA,9900525619
212,IDFC FIRST BANK LTD,IDFB0080201,HYDERABAD JUBILEE TOWN,"Ground floor ,Plot bearing no-83 and 84,Punnaiah Plaza, Road no 2 Banjara Hills, Near Jubilee Hills Check Post,Hyderabad,Telangana State, Pin code-500 033",HYDERABAD,HYDERABAD,TELANGANA,7400430739
213,IDFC FIRST BANK LTD,IDFB0080202,HYDERABAD - BANJARA HILLS BRANCH,"JUBILEE TOWN, PLOT NO. 1130 A, , 3RD FLOOR, ROAD NO. 36, JUBILEE HILLS, HYDERABAD 500033",HYDERABAD,HYDERABAD,TELANGANA,7400430739
214,IDFC FIRST BANK LTD,IDFB0080203,PARADISE SECUNDERABAD BRANCH,"LEGEND CRYSTAL, FIRST FLOOR, SHOP NO-1, 1-7-79 A&B, MANDALAY LANE, PG ROAD, SECUNDERABAD 500003",HYDERABAD,PARADISE SECUNDERABAD,TELANGANA,8452812595
215,IDFC FIRST BANK LTD,IDFB0080204,SOMAJIGUDA BRANCH,"GROUND FLOOR, 6-3-1089/F, RVR TOWERS, RAJ BHAVAN ROAD, SOMAJIGUDA, HYDERABAD 500082 TELANGANA, TOLL FREE NO 18004194332",HYDERABAD,SOMAJIGUDA,TELANGANA,0
216,IDFC FIRST BANK LTD,IDFB0080205,GACHIBOWLI BRANCH,"FIRST FLOOR,SURVEY NO. 92/1, 92/3 TO 18, GHMC NO. 337/123(P) & 124/1, VINAYAKNAGAR, GACHIBOWLI, HYDERABAD 500032 TELANGANA, TOLL FREE NO 18004194332",RANGAREDDI,GACHIBOWLI,TELANGANA,0
217,IDFC FIRST BANK LTD,IDFB0080251,CHIKKODI BRANCH,"CHAVAN PLAZA, -1, R K COLONY,NEAR GOVT HOSPITAL,CHIKODI, BELGAVI DISTRICT, KARNATAKA- 591201, Toll Free No 1800 419 8332",BELGAUM,CHIKKODI,KARNATAKA,0
218,IDFC FIRST BANK LTD,IDFB0080252,GOKAK  BRANCH,"3195-B/ 3/1D, HOSPET GALLI, ANAND TALKIES ROAD, GOKAK, DIST-BELAGAVI, KARNATAKA-591307, Toll Free No 1800 419 8332",BELGAUM,GOKAK,KARNATAKA,0
219,IDFC FIRST BANK LTD,IDFB0080253,HONAGA BRANCH,"821/1069, PB ROAD, HONAGA, BELGAUM, KARNATAKA- 591156, Toll Free No 1800 419 8332",BELGAUM,HONAGA,KARNATAKA,0
220,IDFC FIRST BANK LTD,IDFB0080254,RAMDURGA BRANCH,"HOUSE NO. 82/A, NAVI PETH PO, RAMDURGA TALUKA, BELGAUM DISTRICT, KARNATAKA- 591123, Toll Free No 1800 419 8332",BELGAUM,RAMDURGA,KARNATAKA,0
221,IDFC FIRST BANK LTD,IDFB0080255,MUCHANDI BRANCH,"GROUND FLOOR, 620, C/0 BALARAM FAKIRA MOTARI, BHAGYALAKSHMI NIVAS, GOKUL NAGAR, GOKAK ROAD, POST MUCHANDI, BELGAUM, 16 KARNATAKA - 590016, Toll Free No 1800 419 8332",BELGAUM,MUCHANDI,KARNATAKA,0
222,IDFC FIRST BANK LTD,IDFB0080256,BELGAUM BRANCH,"FIRST FLOOR, AADISHAKTI TOWERS, CTS NO.5650,SURVEY NO.236/2, KHANPUR ROAD, GOAVES,KARNATAKA STATE, 590003, Toll Free No 1800 419 8332",BELGAUM,BELGAUM,KARNATAKA,0
223,IDFC FIRST BANK LTD,IDFB0080257,ATHANI BRANCH,"GROUND FLOOR, DOOR NO. 1224 B, PLOT NO. 4, ATHANI GOKAK ROAD, ATHANI- 591304, Toll Free No 1800 419 8332",BELGAUM,ATHANI,KARNATAKA,0
224,IDFC FIRST BANK LTD,IDFB0080258,BAILHONGAL BRANSH,"GROUND FLOOR,SHRI VEERABHADRESHWARA COMPLEX,10TH WARD,MYLARA BYPASS ROAD,HUVINA HADAGALI (TOWN),BELLARY DISTRICT 583219 KARNATAKA STATE,TOLL FREE NO 1800 419 8332",BELGAUM,BAILHONGAL,KARNATAKA,0
225,IDFC FIRST BANK LTD,IDFB0080281,HUBBALLI  BRANCH,"GROUND FLOOR, H. NO.95, N PRIDE, PINTO ROAD, DESAI CROSS, DHARWAD DISTRICT, HUBBALLI, KARNATAKA- 580020, Toll Free No 1800 419 8332",DHARWAD,HUBBALLI,KARNATAKA,0
226,IDFC FIRST BANK LTD,IDFB0080282,BETADUR BRANCH,"BETADUR POST KUNDGOL TQ DHARWAD DISTRICT KARNATAKA 581207, Toll Free No 1800 419 8332",DHRWAD,BETADUR,KARNATAKA,0
227,IDFC FIRST BANK LTD,IDFB0080283,DHARWAD BRANCH,"GROUND FLOOR, SURAJ ARCADE, JAYANAGAR, 1ST CROSS, SAPTHAPUR, DHARWAD -580001",DHARWAD,DHARWAD,KARNATAKA,0
228,IDFC FIRST BANK LTD,IDFB0080301,HAVERI BRANCH,"GROUND FLOOR, VIDYANAGAR, A BLOCK, 3RD CROSS, HAVERI, PB ROAD, HAVERI - 581110, KARNATAKA STATE, Toll Free No 1800 419 8332",HAVERI,HAVERI,KARNATAKA,0
229,IDFC FIRST BANK LTD,IDFB0080302,MAKARVALI  BRANCH,"GROUND FLOOR, SIRSI SHIMOGA HIGHWAY ROAD, MAKARAVALI, HAVERI DISTRICT, KARNATAKA- 581110, Toll Free No 1800 419 8332",HAVERI,MAKARAVALI,KARNATAKA,0
230,IDFC FIRST BANK LTD,IDFB0080303,SHIGGAON BRANCH,"GROUND FLOOR, KURSAPUR COMPLEX, SHIGGAON, HAVERI DISTRICT, KARNATAKA - 581205, Toll Free No 1800 419 8332",HAVERI,SHIGGAON,KARNATAKA,0
231,IDFC FIRST BANK LTD,IDFB0080304,RANEBENNUR BRANCH,"DEVI HEIGHTS, GROUND FLOOR, OPP KEB, PB ROAD, RANEBENNUR, HAVERI DISTRICT, KARNATAKA STATE, Toll Free No 1800 419 8332",HAVERI,RANEBENNUR,KARNATAKA,0
232,IDFC FIRST BANK LTD,IDFB0080331,JAMKHANDI BRANCH,"GROUND FLOOR, LASKARI COMPLEX, MAIGUR ROAD, BAGALKOT DISTRICT JAMKHANDI, KARNATAKA - 587301, Toll Free No 1800 419 8332",BAGALKOTE,JAMKHANDI,KARNATAKA,9916874466
233,IDFC FIRST BANK LTD,IDFB0080332,MUDHOL BRANCH,"GROUND FLOOR,NO.4026A/149,YADAWAD ROAD,SIDRAMESHWAR NAGAR, OPP. PWD IB, MUDHOL, BAGALKOTE, KARNATAKA, Toll Free No 1800 419 8332",BAGALKOTE,MUDHOL,KARNATAKA,0
234,IDFC FIRST BANK LTD,IDFB0080333,HOSUR BRANCH,"NO.942, WARD NO. 2, KUSHTAGI ROAD, TALUKA BADAMI, DIST- BAGALKOTE, KARNATAKA - 587114, Toll Free No 1800 419 8332",BAGALKOTE,HOSUR,KARNATAKA,0
235,IDFC FIRST BANK LTD,IDFB0080334,BANHATTI BRANCH,"KM CENTRE, FIRST FLOOR, NO. 1650, CITY SURVEY NO. 8916/2, RABKAVI BANHATTI, PINCODE-587311, KARNATAKA STATE, TOLL FREE NUMBER 18004194332",BAGALKOT,BANHATTI,KARNATAKA,0
236,IDFC FIRST BANK LTD,IDFB0080335,BILAGI BRANCH,"DOOR NO 287, GROUND FLOOR, PI D NO. 1-5-2, GUDUR COMPLEX, WARD NO. 2, BILAGI TALUKA, DIST. BAGALKOT KARNATAKA - 587116. TOLL FREE NO. 18004194332",BAGALKOT,BILAGI,KARNATAKA,0
237,IDFC FIRST BANK LTD,IDFB0080351,KOPPAL BRANCH,"GROUND FLOOR, BASAVA COMPLEX, OPP HDFC BANK, HOSPET - HUBLI ROAD, HUDCO COLONY, KOPPAL, KARNATAKA - 583231, Toll Free No 1800 419 8332",KOPPAL,KOPPAL,KARNATAKA,0
238,IDFC FIRST BANK LTD,IDFB0080352,GANGAWATI BRANCH,"GROUND FLOOR, JULAI NAGAR, INDIRA CIRCLE, GANGAWATI, KARNATAKA - 583227, Toll Free No 1800 419 8332",KOPPAL,GANGAWATI,KARNATAKA,0
239,IDFC FIRST BANK LTD,IDFB0080353,KUSHTAGI BRANCH,"GROUND FLOOR, ILLAHI COMPLEX, MA NO.5953, PLOT NO. 1 OF SY 104 MURUDI BHIMAJA CIRCLE, KOPPAL ROAD, KARNATAKA, 584121, Toll Free No 1800 419 8332",KOPPAL,KUSHTAGI,KARNATAKA,0
240,IDFC FIRST BANK LTD,IDFB0080354,KARATAGI BRANCH,"GROUND FLOOR, DOOR NO. 4-1-27/2/1 TO 4-1-27/2/4, CHINIWAL COMPLEX, R G MAIN ROAD., KARATAGI, PINCODE - 583229. KARATAGI, KOPPAL DIST., KARNATAKA. TOLL FREE NO. 18004194332",KOPAL,KARATAGI,KARNATAKA,0
241,IDFC FIRST BANK LTD,IDFB0080381,GUNTUR BRANCH,"FIRST FLOOR, BG ARCADE, NAGARAM PALEM MAIN ROAD, NEXT TO ALANKAR FUNCTION HALL, GUNTUR, ANDHRA PRADESH, 522004, Toll Free No 1800 419 8332",GUNTUR,GUNTUR,ANDHRA PRADESH,0
242,IDFC FIRST BANK LTD,IDFB0080391,VIJAYWADA BRANCH,"FIRST FLOOR, MADHUSREE BUILDING, 61-3/1-12, SERVICE ROAD, NH-5, KRISHNA DISTRICT, BALAJI NAGAR, ANDHRA PRADESH, Toll Free No 1800 419 8332",KRISHNA,VIJAYWADA,ANDHRA PRADESH,0
243,IDFC FIRST BANK LTD,IDFB0080392,VIJAYAWADA GAYATRI NAGAR BRANCH,"GROUND FLOOR, PUNNAIAH & VAJRAMMA COMPLEX, 59-6-17, KANCHUKOTA VARI STREET, RAMACHANDRANAGAR, VIJAYAWADA, AP STATE, PIN CODE 520008",VISHAKHAPATNAM,VIJAYAWADA GAYATRI,ANDHRA PRADESH,9148158621
244,IDFC FIRST BANK LTD,IDFB0080401,RAJAHMUNDRY BRANCH,"GROUND FLOOR, 79-02-03, TILAK ROAD, PRASANTI ESTATES,V L PURAM, RAJAHMUNDRY, ANDHRAPRADESH-533103, Toll Free No 1800 419 8332",EAST GODAVARI,RAJAHMUNDRY,ANDHRA PRADESH,0
245,IDFC FIRST BANK LTD,IDFB0080411,VIZAG BRANCH,"GROUND FLOOR, 43-9-146 AND 147, TSN COLONY MAIN ROAD, DONDAPARTHY, VISHAKAPATNAM, ANDHRA PRADESH 530016, Toll Free No 1800 419 8332",VISHAKAPATNAM,VIZAG,ANDHRA PRADESH,0
246,IDFC FIRST BANK LTD,IDFB0080412,VISAKHAPATNAM - DABA GARDEN BRANCH,"FIRST FLOOR, VINAY SHAKT, DABAGARDENS MAIN ROAD, VISAKHAPATNAM, ANDHRA PRADESH- 530002",KRISHNA,VISAKHAPATNAM,ANDHRA PRADESH,9686193001
247,IDFC FIRST BANK LTD,IDFB0080431,DAVANGERE BRANCH,"GROUND FLOOR, DOOR NO 1776 A85 AND A86, SIDDAVEERAPPA LAYOUT, SHAMANUR ROAD, DAVANGERE - 577004 KARNATAKA STATE, Toll Free No 1800 419 8332",DAVANGERE,DAVANGERE,KARNATAKA,0
248,IDFC FIRST BANK LTD,IDFB0080432,CHANNAGIRI BRANCH,"Ground Floor, 1836/2-1766/2, Muddenahali Kagathur Road, Rajathdri Complex, Channagiri, Davangere District, Karnataka - 577213, Toll Free No 1800 419 8332",DAVANGERE,CHANNAGIRI,KARNATAKA,0
249,IDFC FIRST BANK LTD,IDFB0080433,Honalli Branch,"Ground Floor, No 1013, Opp  New KSRTC Bus stand, Shikaripura Road, Honnali, Hirekal Mutt village, Davangere District, Pincode  577217 Karnataka, Toll Free No 1800 419 8332",DAVANGERE,Honalli,KARNATAKA,0
250,IDFC FIRST BANK LTD,IDFB0080451,TIRUCHIRAPPALLI  BRANCH,"C 102 GROUND FLOOR, 11TH CROSS STREET, THILLAI NAGAR, TIRUCHIRAPPALLI 620018 , Toll Free No 1800 419 8332",TIRUCHIRAPPALLI,TIRUCHIRAPPALLI,TAMIL NADU,0
251,IDFC FIRST BANK LTD,IDFB0080471,SHIMOGA BRANCH,"GROUND FLOOR,KHATA NO 1233-27-1547 & 1237-736-1546,BESIDES SURYA COMFORTS,3RD PARALLEL ROAD,DURGIGUDI,SHIMOGA 577201",SHIMOGA,SHIMOGA,KARNATAKA,7625016871
252,IDFC FIRST BANK LTD,IDFB0080472,SHIKARIPURA BRANCH,"GROUND FLOOR , SITE NO. 1 , E KHATA NO 13-3-107A, SS ROAD, OPP KEB, SHIKARIPURA, SHIMOGA DISTRICT, PIN-577427",SHIMOGA,SHIKARIPURA,KARNATAKA,0
253,IDFC FIRST BANK LTD,IDFB0080491,HUVINAHADAGALI BRANCH,"Ground floor,ShriVeerabhadreshwara Complex,Door No460/38,460/39 AND 460/43,10th Ward,Mylara Bypass Road, Huvina Hadagali (Town), Bellary District583219.Karnataka State,TollFree1800 419 8332",BELLARY,HUVINAHADAGALI,KARNATAKA,0
254,IDFC FIRST BANK LTD,IDFB0080492,KOTTURU BRANCH,"GROUND FLOOR NO 1472, 1483/1 AND 1484, SRI LAXMI VARI ARCADE, NEAR APME YARD, WARD NO 4, HARAPANAHALLI ROAD, KOTTUR, BELLARI DISTRICT 583134",BELLARY,KOTTURU,KARNATAKA,0
255,IDFC FIRST BANK LTD,IDFB0080511,ERNAKULAM BRANCH,"GROUND & MEZZANINE FLOOR, VANKAARATH TOWERS,NH BYPASS JUNCTION, PALARIVATTOM,COCHIN, KERALA STATE- 682024",ERNAKULAM,ERNAKULAM,KARNATAKA,9945865477
256,IDFC FIRST BANK LTD,IDFB0080531,COIMBATORE BRANCH,"FIRST FLOOR, A.M.I. MIDTOWN BUILDING,D.B.ROAD,, DOOR NO. 25A-2,RS PURAM,DB ROAD, COIMBATORE, 641002",COIMBATORE,COIMBATORE,TAMIL NADU,7718885312
257,IDFC FIRST BANK LTD,IDFB0080551,MADURAI BRANCH,"LOWER GROUND & FIRST FLOOR 340, MIG 80 FEET ROAD, ANNA NAGAR, MADURAI, 625020",MADURAI,MADURAI,TAMIL NADU,9841775883
258,IDFC FIRST BANK LTD,IDFB0080571,MYSURU BRANCH,"GROUND FLOOR, 1ST BLOCK, JAYALAKSHMIPURAM, DEVRAJA MOHALLA, KALIDAS ROAD, MYSORE, PINCODE- 570002, KARNATAKA STATE",MYSORE,MYSURU,KARNATAKA,8095843999
259,IDFC FIRST BANK LTD,IDFB0080591,SALEM BRANCH,"GROUND FLOOR,DOOR NO 2 TO 8,MNJ COMPLEX,KALLIAPILLAI THOPPU,SKS HOSPITAL ROAD,OPP.PONNUSAMY KALYANA MANDAPAM,FAIRLANDS SALEM TAMILNADU 636004-TOLL FREE NO 18004198332",SALEM,SALEM,TAMIL NADU,0
260,IDFC FIRST BANK LTD,IDFB0080611,MANGALURU BRANCH,"GROUND FLOOR,LALBAGH TOWERS,BALLALBAGH CIRCLE,M.G ROAD,MANGALURU,KARNATAKA,575003",MANGALURU,MANGALURU,KARNATAKA,9972997817
261,IDFC FIRST BANK LTD,IDFB0080811,SANKESHWAR BRANCH,"FIRST FLOOR,CTS NO.3782,POST ROAD,SANKESHWAR,TALUKA.HUKKERI,DIST-BELAGAVI,PINCODE-591313,KARNATAKA,TOLL FREE NUMBER 18004194332",BELGAUM,SANKESHWAR,KARNATAKA,0
262,IDFC FIRST BANK LTD,IDFB0080831,BASAVANA BAGEWADI BRANCH,"GROUND FLOOR, PUJARI COMPLEX, LAND SY. NO. 1132, RADHAKISHAN NAGAR, BASAVANA BAGEWADI. DIST. VIJAYAPUR, PINCODE 586203, KARNATAKA, TOLL FREE NUMBER 18004194332",BIJAPUR,BASAVANA BAGEWADI,KARNATAKA,0
263,IDFC FIRST BANK LTD,IDFB0080851,MUNDARGI BRANCH,"GROUND FLOOR, GHH ENCLAVE, TMC NO 1602/B/13, HESANUR CIRCLE, MUNDARGI KARNATAKA - 582118. TOLL FREE NO. 18004194332",GADAG,MUNDARGI,KARNATAKA,0
