,BANK NAME,IFSC,OFFICE,ADDRESS,DISTRICT,CITY,STATE,PHONE
0,HIMACHAL PRADESH STATE COOPERATIVE BANK LTD,HPSC0000051,NEW SUBZI MANDI DELHI,NEW SUBZI MANDI AZADPUR DELHI,DELHI,DELHI,HIMACHAL PRADESH,27681808
1,HIMACHAL PRADESH STATE COOPERATIVE BANK LTD,HPSC0000101,BARMANA,BARMANA TEHSIL SADAR PIN 174013,BILASPUR,BARMANA,HIMACHAL PRADESH,245036
2,HIMACHAL PRADESH STATE COOPERATIVE BANK LTD,HPSC0000102,BASSI,BASSI KEHLOOR TEHSIL SRI NAINA DEVI JI PIN 174002,BILASPUR,BASSI,HIMACHAL PRADESH,214552
3,HIMACHAL PRADESH STATE COOPERATIVE BANK LTD,HPSC0000103,BERI,BERI PIN 174001,BILASPUR,BERI,HIMACHAL PRADESH,244522
4,HIMACHAL PRADESH STATE COOPERATIVE BANK LTD,HPSC0000104,BERTHIN,BERTHIN TEHSIL JHANDUTTA PIN 174029,BILASPUR,BERTHIN,HIMACHAL PRADESH,266041
5,HIMACHAL PRADESH STATE COOPERATIVE BANK LTD,HPSC0000105,BHARARI,"BHARARI, PO- LEHRI SAREL TEHSIL GHUMARWIN PIN-174027",BILASPUR,BHARARI,HIMACHAL PRADESH,273039
6,HIMACHAL PRADESH STATE COOPERATIVE BANK LTD,HPSC0000106,BILASPUR,BILASPUR MAIN MARKET PIN-174001,BILASPUR,BILASPUR,HIMACHAL PRADESH,222542
7,HIMACHAL PRADESH STATE COOPERATIVE BANK LTD,HPSC0000107,DADHOL,DADHOL TEHSIL GHUMARWIN PIN 174023,BILASPUR,DADHOL,HIMACHAL PRADESH,278031
8,HIMACHAL PRADESH STATE COOPERATIVE BANK LTD,HPSC0000108,DANGAR,DANGAR TEHSIL GHUMARWIN PIN-174023,BILASPUR,DANGAR,HIMACHAL PRADESH,278181
9,HIMACHAL PRADESH STATE COOPERATIVE BANK LTD,HPSC0000109,GEHRWIN,GEHRWIN PIN 174034,BILASPUR,GEHRWIN,HIMACHAL PRADESH,270203
10,HIMACHAL PRADESH STATE COOPERATIVE BANK LTD,HPSC0000110,GHUMARWIN,GHUMARWIN PIN 174021,BILASPUR,GHUMARWIN,HIMACHAL PRADESH,255243
11,HIMACHAL PRADESH STATE COOPERATIVE BANK LTD,HPSC0000111,JHANDUTTA,JHANDUTTA PIN 174031,BILASPUR,JHANDUTA,HIMACHAL PRADESH,272043
12,HIMACHAL PRADESH STATE COOPERATIVE BANK LTD,HPSC0000112,KALLARI,"KALLARI, PO- NASWAL, TEHSIL GHUMARWIN PIN-174021",BILASPUR,KALLARI,HIMACHAL PRADESH,254043
13,HIMACHAL PRADESH STATE COOPERATIVE BANK LTD,HPSC0000113,KUTHERA,KUTHERA TEHSIL GHUMARWIN,BILASPUR,KUTHERA,HIMACHAL PRADESH,275080
14,HIMACHAL PRADESH STATE COOPERATIVE BANK LTD,HPSC0000114,LAKHANPUR,LAKHANPUR PIN-174001,BILASPUR,BILASPUR,HIMACHAL PRADESH,222697
15,HIMACHAL PRADESH STATE COOPERATIVE BANK LTD,HPSC0000115,NAINA DEVI,SRI NAINA DEVI JI PIN-174310,BILASPUR,NAINA DEVI,HIMACHAL PRADESH,288097
16,HIMACHAL PRADESH STATE COOPERATIVE BANK LTD,HPSC0000116,NAMHOL,"NAMHOL, PIN-",BILASPUR,NAMHOL,HIMACHAL PRADESH,240056
17,HIMACHAL PRADESH STATE COOPERATIVE BANK LTD,HPSC0000117,SHAH TALAI,SHAHTALAI TEHSIL JHANDUTA DISTT BILASPUR,BILASPUR,JHANDUTA,HIMACHAL PRADESH,264077
18,HIMACHAL PRADESH STATE COOPERATIVE BANK LTD,HPSC0000118,SWARGHAT,SWARGHAT TEHSIL SRI NAINA DEVI JI PIN-174011,BILASPUR,SWARGHAT,HIMACHAL PRADESH,284148
19,HIMACHAL PRADESH STATE COOPERATIVE BANK LTD,HPSC0000119,KANDRAUR,"KANDRAUR, TEHSIL SADAR PIN-174004",BILASPUR,KANDRAUR,HIMACHAL PRADESH,242080
20,HIMACHAL PRADESH STATE COOPERATIVE BANK LTD,HPSC0000120,HARNORA,HARNORA TEHSIL SADAR PIN,BILASPUR,HARNORA,HIMACHAL PRADESH,283141
21,HIMACHAL PRADESH STATE COOPERATIVE BANK LTD,HPSC0000123,GUGA MOHRA,"GUGA MOHRA, PO- KAPAHORA TEHSIL GHUMARWIN PIN-174029",BILASPUR,GUGA MOHRA,HIMACHAL PRADESH,260474
22,HIMACHAL PRADESH STATE COOPERATIVE BANK LTD,HPSC0000124,TRIFALGHAT,"TRIFAL GHAT, PO-HAWAN PIN-174003",BILASPUR,TRIFALGHAT,HIMACHAL PRADESH,256195
23,HIMACHAL PRADESH STATE COOPERATIVE BANK LTD,HPSC0000125,JUKHALA,JUKHALA PIN-174033,BILASPUR,JUKHALA,HIMACHAL PRADESH,286253
24,HIMACHAL PRADESH STATE COOPERATIVE BANK LTD,HPSC0000126,JEJHWIN,JEJWIN TEHSIL JHANDUTTA PIN 174017,BILASPUR,JEJWIN,HIMACHAL PRADESH,268041
25,HIMACHAL PRADESH STATE COOPERATIVE BANK LTD,HPSC0000127,BUM,"BUM, PO- PANTEHRA, TEHSIL GHUMARWIN PIN-174028",BILASPUR,BUM,HIMACHAL PRADESH,250067
26,HIMACHAL PRADESH STATE COOPERATIVE BANK LTD,HPSC0000128,MALOKHAR,MALOKHAR PO CHHAKHOH TEHSIL NAMHOL PIN 174001,BILASPUR,NAMHOL,HIMACHAL PRADESH,249183
27,HIMACHAL PRADESH STATE COOPERATIVE BANK LTD,HPSC0000129,HATWAR,HATWAR TEHSIL GHUMARWIN,BILASPUR,HATWAR,HIMACHAL PRADESH,252243
28,HIMACHAL PRADESH STATE COOPERATIVE BANK LTD,HPSC0000130,GOLTHAI,GOLTHAI TEHSIL SRI NAINA DEVI JI,BILASPUR,SRI NAINA DEVI JI,HIMACHAL PRADESH,239522
29,HIMACHAL PRADESH STATE COOPERATIVE BANK LTD,HPSC0000132,CHANDPUR,VPO CHANDPUR TEHSIL SADAR,BILASPUR,BILASPUR,HIMACHAL PRADESH,243015
30,HIMACHAL PRADESH STATE COOPERATIVE BANK LTD,HPSC0000133,HARLOG,VPO HARLOG TEHSIL GHUMARWIN,BILASPUR,BILASPUR,HIMACHAL PRADESH,285015
31,HIMACHAL PRADESH STATE COOPERATIVE BANK LTD,HPSC0000134,KAULAN WALA TOBA,VPO KAULAN WALA TOBA TEHSIL SHRI NAINA DEVI JI,BILASPUR,BILASPUR,HIMACHAL PRADESH,0
32,HIMACHAL PRADESH STATE COOPERATIVE BANK LTD,HPSC0000135,BHAGER,VILLAGE AND PO BHAGER TEHSIL GHUMARWIN,BILASPUR,GHUMARWIN,HIMACHAL PRADESH,0
33,HIMACHAL PRADESH STATE COOPERATIVE BANK LTD,HPSC0000176,BANIKHET,BANIKHET PIN 176303,CHAMBA,BANIKHET,HIMACHAL PRADESH,254051
34,HIMACHAL PRADESH STATE COOPERATIVE BANK LTD,HPSC0000177,BHANJRARU,BHANJRARU TEHSIL CHAMBA PIN 176316,CHAMBA,BHANJRARU,HIMACHAL PRADESH,227071
35,HIMACHAL PRADESH STATE COOPERATIVE BANK LTD,HPSC0000178,BHARMOUR,BHARMAUR CHAMBA PIN-176015,CHAMBA,BHARMOUR,HIMACHAL PRADESH,225054
36,HIMACHAL PRADESH STATE COOPERATIVE BANK LTD,HPSC0000179,CHAMBA,CHAMBA PIN 176310,CHAMBA,CHAMBA,HIMACHAL PRADESH,222249
37,HIMACHAL PRADESH STATE COOPERATIVE BANK LTD,HPSC0000180,CHOWARI,CHOWARI TEHSIL BHATTIYAT PIN 176302,CHAMBA,CHOWARI,HIMACHAL PRADESH,266332
38,HIMACHAL PRADESH STATE COOPERATIVE BANK LTD,HPSC0000182,DALHOUSIE,DALHOUSIE PIN 176304,CHAMBA,DALHOUSIE,HIMACHAL PRADESH,240241
39,HIMACHAL PRADESH STATE COOPERATIVE BANK LTD,HPSC0000183,DHULARA,DHULARA PIN 176027,CHAMBA,DHULARA,HIMACHAL PRADESH,200495
40,HIMACHAL PRADESH STATE COOPERATIVE BANK LTD,HPSC0000184,GAROLA,GAROLA TEHSIL BHARMAUR PIN 176309,CHAMBA,GAROLA,HIMACHAL PRADESH,224007
41,HIMACHAL PRADESH STATE COOPERATIVE BANK LTD,HPSC0000185,HATLI,HATLI PO DARMAN TEHSIL SIHUNTHA PIN 176223,CHAMBA,SIHUNTA,HIMACHAL PRADESH,238076
42,HIMACHAL PRADESH STATE COOPERATIVE BANK LTD,HPSC0000186,HOLI,HOLI PIN 176309,CHAMBA,HOLI,HIMACHAL PRADESH,232315
43,HIMACHAL PRADESH STATE COOPERATIVE BANK LTD,HPSC0000187,KAKIRA,KAKIRA TEHSIL BHATTIYAT PIN 176313,CHAMBA,KAKIRA,HIMACHAL PRADESH,257245
44,HIMACHAL PRADESH STATE COOPERATIVE BANK LTD,HPSC0000188,NAINI KHAD,NAINI KHAD PIN,CHAMBA,NAINI KHAD,HIMACHAL PRADESH,257645
45,HIMACHAL PRADESH STATE COOPERATIVE BANK LTD,HPSC0000189,SALOONI,SALOONI PIN 176320,CHAMBA,SALOONI,HIMACHAL PRADESH,233237
46,HIMACHAL PRADESH STATE COOPERATIVE BANK LTD,HPSC0000190,SIHUNTA,SIHUNTHA PIN,CHAMBA,SIHUNTA,HIMACHAL PRADESH,265424
47,HIMACHAL PRADESH STATE COOPERATIVE BANK LTD,HPSC0000191,SURGANI,SURANGANI TEHSIL SALOONI PIN 176317,CHAMBA,SURGANI,HIMACHAL PRADESH,232007
48,HIMACHAL PRADESH STATE COOPERATIVE BANK LTD,HPSC0000192,TISSA,TISSA TEHSIL CHURAH PIN 176316,CHAMBA,TISSA,HIMACHAL PRADESH,227041
49,HIMACHAL PRADESH STATE COOPERATIVE BANK LTD,HPSC0000193,TUNDI,TUNDI TEHSIL SIHUNTA PIN 176207,CHAMBA,SIHUNTA,HIMACHAL PRADESH,200524
50,HIMACHAL PRADESH STATE COOPERATIVE BANK LTD,HPSC0000195,BATHARI,BATHARI DISTT CHAMBA,CHAMBA,BATHARI,HIMACHAL PRADESH,9418397348
51,HIMACHAL PRADESH STATE COOPERATIVE BANK LTD,HPSC0000197,SAROL,VPO SAROL TEHSIL CHAMBA,CHAMBA,CHAMBA,HIMACHAL PRADESH,226235
52,HIMACHAL PRADESH STATE COOPERATIVE BANK LTD,HPSC0000198,RAJNAGAR,RAJNAGAR DISTT CHAMBA,CHAMBA,RAJNAGAR,HIMACHAL PRADESH,9418759447
53,HIMACHAL PRADESH STATE COOPERATIVE BANK LTD,HPSC0000199,SAHO,VPO SAHO TEHSIL CHAMBA,CHAMBA,CHAMBA,HIMACHAL PRADESH,238413
54,HIMACHAL PRADESH STATE COOPERATIVE BANK LTD,HPSC0000200,KARIAN,VILL KARIAN PO BHARIAN KOTHI TEHSIL CHAMBA,CHAMBA,CHAMBA,HIMACHAL PRADESH,220013
55,HIMACHAL PRADESH STATE COOPERATIVE BANK LTD,HPSC0000201,DHARWALA,VPO DHARWALA TEHSIL CHAMBA,CHAMBA,CHAMBA,HIMACHAL PRADESH,279513
56,HIMACHAL PRADESH STATE COOPERATIVE BANK LTD,HPSC0000202,SUNDLA,VPO SUNDLA TEHSIL SALOONI,CHAMBA,CHAMBA,HIMACHAL PRADESH,242007
57,HIMACHAL PRADESH STATE COOPERATIVE BANK LTD,HPSC0000203,KILLAR,PO KILLAR TEHSIL PANGI,CHAMBA,CHAMBA,HIMACHAL PRADESH,242240
58,HIMACHAL PRADESH STATE COOPERATIVE BANK LTD,HPSC0000251,BHABA NAGAR,BHABA NAGAR TEHSIL NICHAR PIN 172115,KINNAUR,BHABA NAGAR,HIMACHAL PRADESH,253330
59,HIMACHAL PRADESH STATE COOPERATIVE BANK LTD,HPSC0000252,KALPA,KALPA PIN-172108,KINNAUR,KALPA,HIMACHAL PRADESH,226004
60,HIMACHAL PRADESH STATE COOPERATIVE BANK LTD,HPSC0000253,KATGAON,KATGAON PIN 172118,KINNAUR,KATGAON,HIMACHAL PRADESH,262295
61,HIMACHAL PRADESH STATE COOPERATIVE BANK LTD,HPSC0000254,MOORANG,MOORENG PIN 172109,KINNAUR,MOORANG,HIMACHAL PRADESH,252739
62,HIMACHAL PRADESH STATE COOPERATIVE BANK LTD,HPSC0000255,NICHAR,NICHAR KINNAUR,KINNAUR,NICHAR,HIMACHAL PRADESH,204549
63,HIMACHAL PRADESH STATE COOPERATIVE BANK LTD,HPSC0000256,PANGI,PANGI PIN 172107,KINNAUR,PANGI,HIMACHAL PRADESH,228811
64,HIMACHAL PRADESH STATE COOPERATIVE BANK LTD,HPSC0000257,REKONG PEO,RECKONG PEO TEHSIL KALPA PIN 172107,KINNAUR,REKONG PEO,HIMACHAL PRADESH,222485
65,HIMACHAL PRADESH STATE COOPERATIVE BANK LTD,HPSC0000258,POOH,POOH PIN 172111,KINNAUR,POOH,HIMACHAL PRADESH,232297
66,HIMACHAL PRADESH STATE COOPERATIVE BANK LTD,HPSC0000259,POWARI,POWARI SHANTHONG TEHSIL KALPA PIN 172107,KINNAUR,KALPA,HIMACHAL PRADESH,223523
67,HIMACHAL PRADESH STATE COOPERATIVE BANK LTD,HPSC0000260,SANGLA,SANGLA PIN 172106,KINNAUR,SANGLA,HIMACHAL PRADESH,242202
68,HIMACHAL PRADESH STATE COOPERATIVE BANK LTD,HPSC0000261,TAPRI,TAPRI KINNAUR,KINNAUR,TAPRI,HIMACHAL PRADESH,261207
69,HIMACHAL PRADESH STATE COOPERATIVE BANK LTD,HPSC0000262,AKPA,"AKPA, TEHSIL MOORANG PIN-172116",KINNAUR,MOORANG,HIMACHAL PRADESH,225564
70,HIMACHAL PRADESH STATE COOPERATIVE BANK LTD,HPSC0000264,GIABONG,GIABONG PIN 172110,KINNAUR,GIABONG,HIMACHAL PRADESH,9418761189
71,HIMACHAL PRADESH STATE COOPERATIVE BANK LTD,HPSC0000266,SPILLOW,SPILLOW DISTT KINNAUR,KINNAUR,SPILLOW,HIMACHAL PRADESH,9816012458
72,HIMACHAL PRADESH STATE COOPERATIVE BANK LTD,HPSC0000267,LEO,VILLAGE AND PO LEO SUB TEHSIL YANGTHANG,KINNAUR,KINNAUR,HIMACHAL PRADESH,0
73,HIMACHAL PRADESH STATE COOPERATIVE BANK LTD,HPSC0000301,BAGSIAD,"BAGSAID, TEHSIL THUNAG PIN-175035",MANDI,THUNAG,HIMACHAL PRADESH,254245
74,HIMACHAL PRADESH STATE COOPERATIVE BANK LTD,HPSC0000302,BALDWARA,BALDWARA TEHSIL SARKAGHAT PIN 175033,MANDI,SARKAGHAT,HIMACHAL PRADESH,258052
75,HIMACHAL PRADESH STATE COOPERATIVE BANK LTD,HPSC0000303,BALI CHOWKI,BALICHOWKI TEHSIL BALICHOWKI PIN 175106,MANDI,BALI CHOWKI,HIMACHAL PRADESH,229145
76,HIMACHAL PRADESH STATE COOPERATIVE BANK LTD,HPSC0000304,BAROT,BAROT MANDI,MANDI,BAROT,HIMACHAL PRADESH,267241
77,HIMACHAL PRADESH STATE COOPERATIVE BANK LTD,HPSC0000305,CHAUNTRA,CHAUNTRA PIN 175032,MANDI,CHAUNTRA,HIMACHAL PRADESH,252227
78,HIMACHAL PRADESH STATE COOPERATIVE BANK LTD,HPSC0000306,CHHATRI,CHHATRI MANDI PIN 175047,MANDI,CHHATRI,HIMACHAL PRADESH,243201
79,HIMACHAL PRADESH STATE COOPERATIVE BANK LTD,HPSC0000307,CHURAG,CHURAG TEHSIL KARSOG PIN,MANDI,KARSOG,HIMACHAL PRADESH,224036
80,HIMACHAL PRADESH STATE COOPERATIVE BANK LTD,HPSC0000308,DEHAR,DEHAR TEHSIL SUNDER NAGAR PIN 175030,MANDI,DEHAR,HIMACHAL PRADESH,283004
81,HIMACHAL PRADESH STATE COOPERATIVE BANK LTD,HPSC0000309,DHARMARPUR,DHARAMPUR TEHSIL SARKAGHAT PIN 175040,MANDI,DHARMPUR,HIMACHAL PRADESH,272005
82,HIMACHAL PRADESH STATE COOPERATIVE BANK LTD,HPSC0000310,GOHAR,GOHAR TEHSIL CHACHYOT PIN 175029,MANDI,GOHAR,HIMACHAL PRADESH,250270
83,HIMACHAL PRADESH STATE COOPERATIVE BANK LTD,HPSC0000311,JANJEHLI,JANJEHLI MANDI PIN- 175047,MANDI,JANJEHLI,HIMACHAL PRADESH,256748
84,HIMACHAL PRADESH STATE COOPERATIVE BANK LTD,HPSC0000312,JOGINDER NAGAR,JOGINDER NAGAR PIN 175015,MANDI,JOGINDER NAGAR,HIMACHAL PRADESH,222029
85,HIMACHAL PRADESH STATE COOPERATIVE BANK LTD,HPSC0000313,KARSOG,KARSOG MANDI PIN 175011,MANDI,KARSOG,HIMACHAL PRADESH,222248
86,HIMACHAL PRADESH STATE COOPERATIVE BANK LTD,HPSC0000314,KOTLI,KOTLI PIN 175003,MANDI,KOTLI,HIMACHAL PRADESH,281219
87,HIMACHAL PRADESH STATE COOPERATIVE BANK LTD,HPSC0000315,LADBADHOL,LAD BHROL PIN 176126,MANDI,LADBHAROL,HIMACHAL PRADESH,278143
88,HIMACHAL PRADESH STATE COOPERATIVE BANK LTD,HPSC0000316,MAKARIRI,MAKRIRI MANDI,MANDI,MAKRIRI,HIMACHAL PRADESH,256104
89,HIMACHAL PRADESH STATE COOPERATIVE BANK LTD,HPSC0000317,MANDI,CHOTA BAZAR MANDI PIN 175001,MANDI,MANDI,HIMACHAL PRADESH,223035
90,HIMACHAL PRADESH STATE COOPERATIVE BANK LTD,HPSC0000318,NAGWAIN,NAGWAIN PIN 175121,MANDI,NAGWAIN,HIMACHAL PRADESH,287113
91,HIMACHAL PRADESH STATE COOPERATIVE BANK LTD,HPSC0000319,NER CHOWK,NERCHOWK TEHSIL SADAR PIN 175008,MANDI,NER CHOWK,HIMACHAL PRADESH,242358
92,HIMACHAL PRADESH STATE COOPERATIVE BANK LTD,HPSC0000320,PANDOH,PANDOH PIN 175124,MANDI,PANDOH,HIMACHAL PRADESH,282207
93,HIMACHAL PRADESH STATE COOPERATIVE BANK LTD,HPSC0000321,REWALSAR,REWALSAR PIN 175023,MANDI,REWALSAR,HIMACHAL PRADESH,240211
94,HIMACHAL PRADESH STATE COOPERATIVE BANK LTD,HPSC0000322,SANDHOLE,SANDHOLE PIN 176090,MANDI,SANDHOLE,HIMACHAL PRADESH,273228
95,HIMACHAL PRADESH STATE COOPERATIVE BANK LTD,HPSC0000323,SARKAGHAT,SARKAGHAT,MANDI,SARKAGHAT,HIMACHAL PRADESH,230057
96,HIMACHAL PRADESH STATE COOPERATIVE BANK LTD,HPSC0000324,SERI BANGLOW,SERI BUNLOW TEHSIL KARSOG MANDI PIN-175011,MANDI,KARSOG,HIMACHAL PRADESH,226505
97,HIMACHAL PRADESH STATE COOPERATIVE BANK LTD,HPSC0000325,SUNDER NAGAR,SUNDER NAGAR PIN 175019,MANDI,SUNDERNAGAR,HIMACHAL PRADESH,262337
98,HIMACHAL PRADESH STATE COOPERATIVE BANK LTD,HPSC0000326,THUNAG,THUNAG PO & TEHSIL THUNAG PIN 175048,MANDI,THUNAG,HIMACHAL PRADESH,257514
99,HIMACHAL PRADESH STATE COOPERATIVE BANK LTD,HPSC0000327,BHAMBLA,BHAMBLA TEHSIL SARKAGHAT PIN 175004,MANDI,SARKAGHAT,HIMACHAL PRADESH,256454
100,HIMACHAL PRADESH STATE COOPERATIVE BANK LTD,HPSC0000328,SAULIKHAD,SAULIKAHD PIN 175001,MANDI,MANDI,HIMACHAL PRADESH,237659
101,HIMACHAL PRADESH STATE COOPERATIVE BANK LTD,HPSC0000329,CHATROKHARI,"CHATROKHRI, TEHSIL SUNDER NAGAR PIN-174402",MANDI,SUNDERNAGAR,HIMACHAL PRADESH,266309
102,HIMACHAL PRADESH STATE COOPERATIVE BANK LTD,HPSC0000330,BSL SUNDERNAGAR,BSL COLONY SNR PURANA BAZAR TEHSIL SUNDER NAGAR,MANDI,SUNDERNAGAR,HIMACHAL PRADESH,264154
103,HIMACHAL PRADESH STATE COOPERATIVE BANK LTD,HPSC0000331,BHADARWAR,BALDWARA TEHSIL SARKAGHAT PIN 175033,MANDI,SARKAGHAT,HIMACHAL PRADESH,271311
104,HIMACHAL PRADESH STATE COOPERATIVE BANK LTD,HPSC0000332,TIHRA,TIHRA TEHSIL SARKAGHAT PIN 175026,MANDI,SARKAGHAT,HIMACHAL PRADESH,278401
105,HIMACHAL PRADESH STATE COOPERATIVE BANK LTD,HPSC0000333,MARHI,MARHI TEHSIL SARKAGHAT PIN 175050,MANDI,SARKAGHAT,HIMACHAL PRADESH,270100
106,HIMACHAL PRADESH STATE COOPERATIVE BANK LTD,HPSC0000334,LONGANI,LONGNI TEHSIL SARKAGHAT DISTT. MANDI PIN-175025,MANDI,LONGNI,HIMACHAL PRADESH,279055
107,HIMACHAL PRADESH STATE COOPERATIVE BANK LTD,HPSC0000335,CHAIL CHOWK,CHAIL CHOWK TEHSIL CHACHIOT PIN 175045,MANDI,CHAIL CHOWK,HIMACHAL PRADESH,251048
108,HIMACHAL PRADESH STATE COOPERATIVE BANK LTD,HPSC0000336,SAJAO PIPLU,SAJAO PIPLU TEHSIL SARKAGHAT PIN 175025,MANDI,SARKAGHAT,HIMACHAL PRADESH,251766
109,HIMACHAL PRADESH STATE COOPERATIVE BANK LTD,HPSC0000338,SMAILA,"SMAILA, TEHSIL SARAGHAT PIN-175034",MANDI,SARKAGHAT,HIMACHAL PRADESH,256310
110,HIMACHAL PRADESH STATE COOPERATIVE BANK LTD,HPSC0000339,NABAHI DEVI,VPO NABAHI DEVI TEH SARKAGHAT MANDI 175024,MANDI,SARKAGHAT,HIMACHAL PRADESH,230174
111,HIMACHAL PRADESH STATE COOPERATIVE BANK LTD,HPSC0000340,BS JOGINDER NAGAR,JOGINDER NAGAR BUS STAND PIN 17,MANDI,JOGINDER NAGAR,HIMACHAL PRADESH,224307
112,HIMACHAL PRADESH STATE COOPERATIVE BANK LTD,HPSC0000341,KUNNU,KUNNU TEHSIL PADHAR PIN 176121,MANDI,PADHAR,HIMACHAL PRADESH,260640
113,HIMACHAL PRADESH STATE COOPERATIVE BANK LTD,HPSC0000342,DHANOTU,DHANOTU TEHSIL SUNDER NAGAR PIN-174401,MANDI,SUNDERNAGAR,HIMACHAL PRADESH,265066
114,HIMACHAL PRADESH STATE COOPERATIVE BANK LTD,HPSC0000343,CHANDESH,CHANDESH PO GAHAR TEHSIL SARKAGHAT PIN 175049,MANDI,SARKAGHAT,HIMACHAL PRADESH,257681
115,HIMACHAL PRADESH STATE COOPERATIVE BANK LTD,HPSC0000345,AWAH DEVI,SARAUN (AWHA DEVI) PIN 175024,MANDI,SARAUN,HIMACHAL PRADESH,275157
116,HIMACHAL PRADESH STATE COOPERATIVE BANK LTD,HPSC0000347,PADDAR,VPO PADDAR TEH PADDAR MANDI 175012,MANDI,PADDAR,HIMACHAL PRADESH,260670
117,HIMACHAL PRADESH STATE COOPERATIVE BANK LTD,HPSC0000349,BAGA CHANOGI,BAGA CHANOGI TEHSIL THUNAG VIA BAGSAID PIN 175035,MANDI,THUNAG,HIMACHAL PRADESH,217050
118,HIMACHAL PRADESH STATE COOPERATIVE BANK LTD,HPSC0000351,RAJGARH   MND,RAJGARH PIN 175027,MANDI,RAJGARH,HIMACHAL PRADESH,244006
119,HIMACHAL PRADESH STATE COOPERATIVE BANK LTD,HPSC0000352,TAKOLI,TAKOLI PIN 175025,MANDI,TAKOLI,HIMACHAL PRADESH,287213
120,HIMACHAL PRADESH STATE COOPERATIVE BANK LTD,HPSC0000356,CHAKKAR,VILL CHAKKAR PO GUTKAR TEHSIL BALH,MANDI,MANDI,HIMACHAL PRADESH,246358
121,HIMACHAL PRADESH STATE COOPERATIVE BANK LTD,HPSC0000357,KHADDAR,VPO KHADDAR TEHSIL LADBHAROL,MANDI,MANDI,HIMACHAL PRADESH,275180
122,HIMACHAL PRADESH STATE COOPERATIVE BANK LTD,HPSC0000358,RAKHOH,VPO RAKHOH TEHSIL SARKAGHAT,MANDI,MANDI,HIMACHAL PRADESH,254740
123,HIMACHAL PRADESH STATE COOPERATIVE BANK LTD,HPSC0000401,BHARANU,BHARANU TEHSIL CHOPAL,SHIMLA,CHOPAL,HIMACHAL PRADESH,269521
124,HIMACHAL PRADESH STATE COOPERATIVE BANK LTD,HPSC0000402,ISBT SHIMLA,BO ISBT SHIMLA PIN 171001,SHIMLA,SHIMLA,HIMACHAL PRADESH,2812945
125,HIMACHAL PRADESH STATE COOPERATIVE BANK LTD,HPSC0000403,CHAMAIN,CHAMAIN TEHSIL KOTKHAI,SHIMLA,KOTKHAI,HIMACHAL PRADESH,240561
126,HIMACHAL PRADESH STATE COOPERATIVE BANK LTD,HPSC0000404,CHIRGAON,CHIRGAON PIN,SHIMLA,CHIRGAON,HIMACHAL PRADESH,277258
127,HIMACHAL PRADESH STATE COOPERATIVE BANK LTD,HPSC0000405,CHOPAL,CHOPAL,SHIMLA,CHOPAL,HIMACHAL PRADESH,260025
128,HIMACHAL PRADESH STATE COOPERATIVE BANK LTD,HPSC0000406,CHHOTA SHIMLA,CHHOTA SHIMLA-2,SHIMLA,SHIMLA,HIMACHAL PRADESH,2621886
129,HIMACHAL PRADESH STATE COOPERATIVE BANK LTD,HPSC0000407,DALAN,DALAN PO VIRGARH TEHSIL KUMARSAIN PIN 172030,SHIMLA,KUMARSAIN,HIMACHAL PRADESH,222909
130,HIMACHAL PRADESH STATE COOPERATIVE BANK LTD,HPSC0000408,DEHA,BO DEHA PIN 171201,SHIMLA,DEHA,HIMACHAL PRADESH,231711
131,HIMACHAL PRADESH STATE COOPERATIVE BANK LTD,HPSC0000409,DHALLI,DHALLI DISTT SHIMLA PIN 171012,SHIMLA,SHIMLA,HIMACHAL PRADESH,2841099
132,HIMACHAL PRADESH STATE COOPERATIVE BANK LTD,HPSC0000410,DODRA,DODRA KWAR PIN 171221,SHIMLA,CHIRGAON,HIMACHAL PRADESH,262070
133,HIMACHAL PRADESH STATE COOPERATIVE BANK LTD,HPSC0000411,GHANAHATTI,GANAHATTI PIN 171011,SHIMLA,SHIMLA,HIMACHAL PRADESH,2774678
134,HIMACHAL PRADESH STATE COOPERATIVE BANK LTD,HPSC0000412,JANGLA,JANGLA TEHSIL ROHRU PIN 171214,SHIMLA,ROHRU,HIMACHAL PRADESH,275801
135,HIMACHAL PRADESH STATE COOPERATIVE BANK LTD,HPSC0000413,JEORI,JEORI TEHSIL RAMPUR PIN 172101,SHIMLA,RAMPUR,HIMACHAL PRADESH,278460
136,HIMACHAL PRADESH STATE COOPERATIVE BANK LTD,HPSC0000414,JHAKRI,"JHAKRI, TEHSIL RAMPUR PIN-172201",SHIMLA,RAMPUR,HIMACHAL PRADESH,275581
137,HIMACHAL PRADESH STATE COOPERATIVE BANK LTD,HPSC0000415,JIKHNIPUL,JHIKNIPUL TEHSIL CHOPAL PIN 171211,SHIMLA,CHOPAL,HIMACHAL PRADESH,266530
138,HIMACHAL PRADESH STATE COOPERATIVE BANK LTD,HPSC0000416,JUBBAL,JUBBAL TEHSIL JUBBAL DISTT SHIMLA PIN 171205,SHIMLA,JUBBAL,HIMACHAL PRADESH,252047
139,HIMACHAL PRADESH STATE COOPERATIVE BANK LTD,HPSC0000417,KASUMPATI,KASUMPATI SHIMLA 9,SHIMLA,SHIMLA,HIMACHAL PRADESH,2624818
140,HIMACHAL PRADESH STATE COOPERATIVE BANK LTD,HPSC0000418,KHALINI,KHALINI SHIMLA PIN 171002,SHIMLA,SHIMLA,HIMACHAL PRADESH,2623676
141,HIMACHAL PRADESH STATE COOPERATIVE BANK LTD,HPSC0000419,KHALTU NALA,KHALTUNALA TEHSIL KOTKHAI PIN 171202,SHIMLA,KOTKHAI,HIMACHAL PRADESH,244530
142,HIMACHAL PRADESH STATE COOPERATIVE BANK LTD,HPSC0000420,KHANETI SANDOCH,KHANETI SADOCH PO BATARI TEHSIL KUMARSAIN PIN 172031,SHIMLA,KUMARSAIN,HIMACHAL PRADESH,228123
143,HIMACHAL PRADESH STATE COOPERATIVE BANK LTD,HPSC0000421,KIARI,KIARI TEHSIL KOTKHAI PIN 171204,SHIMLA,KOTKHAI,HIMACHAL PRADESH,258213
144,HIMACHAL PRADESH STATE COOPERATIVE BANK LTD,HPSC0000422,KOTKHAI,KOTKHAI TEHSIL KOTKHAI DISTT SHIMLA PIN 171202,SHIMLA,KOTKHAI,HIMACHAL PRADESH,255313
145,HIMACHAL PRADESH STATE COOPERATIVE BANK LTD,HPSC0000423,KUMARSAIN,BO AND TEHSIL KUMARSAIN PIN 172029,SHIMLA,KUMARSAIN,HIMACHAL PRADESH,240004
146,HIMACHAL PRADESH STATE COOPERATIVE BANK LTD,HPSC0000424,MARAOG,MARAOG TEHSIL CHOPAL PIN 171211,SHIMLA,CHOPAL,HIMACHAL PRADESH,261304
147,HIMACHAL PRADESH STATE COOPERATIVE BANK LTD,HPSC0000425,NANKHARI,NANKHARI TEHSIL NANKHARI PIN 172021,SHIMLA,NANKHARI,HIMACHAL PRADESH,225444
148,HIMACHAL PRADESH STATE COOPERATIVE BANK LTD,HPSC0000426,NARKANDA,"NARKANDA, TEHSIL KUMARSAIN PIN-171213",SHIMLA,KUMARSAIN,HIMACHAL PRADESH,242433
149,HIMACHAL PRADESH STATE COOPERATIVE BANK LTD,HPSC0000427,NERWA,NERWA TEHSIL CHOPAL PIN 171210,SHIMLA,CHOPAL,HIMACHAL PRADESH,264427
150,HIMACHAL PRADESH STATE COOPERATIVE BANK LTD,HPSC0000428,NOGLI,NOGLI TEHSIL RAMPUR BUSHAHAR PIN 172022,SHIMLA,RAMPUR,HIMACHAL PRADESH,271296
151,HIMACHAL PRADESH STATE COOPERATIVE BANK LTD,HPSC0000429,PRAGATI NAGAR,PRAGATI NAGAR TEHSIL KOTKHAI PIN 171202,SHIMLA,KOTKHAI,HIMACHAL PRADESH,253304
152,HIMACHAL PRADESH STATE COOPERATIVE BANK LTD,HPSC0000430,PREMNAGAR,PREM NAGAR TEHSIL KUMARSAIN,SHIMLA,KUMARSAIN,HIMACHAL PRADESH,244046
153,HIMACHAL PRADESH STATE COOPERATIVE BANK LTD,HPSC0000431,RAMPUR BUSHAHAR,RAMPUR MAIN BAZAR PIN 172001,SHIMLA,RAMPUR,HIMACHAL PRADESH,233034
154,HIMACHAL PRADESH STATE COOPERATIVE BANK LTD,HPSC0000432,ROHRU,ROHRU PIN 171207,SHIMLA,ROHRU,HIMACHAL PRADESH,240050
155,HIMACHAL PRADESH STATE COOPERATIVE BANK LTD,HPSC0000433,SANJAULI,SANJAULI SHIMLA PIN 171006,SHIMLA,SHIMLA,HIMACHAL PRADESH,2841140
156,HIMACHAL PRADESH STATE COOPERATIVE BANK LTD,HPSC0000434,SARAHAN-BSR,SARAHAN BSR TEHSIL RAMPUR PIN 172002,SHIMLA,RAMPUR,HIMACHAL PRADESH,274261
157,HIMACHAL PRADESH STATE COOPERATIVE BANK LTD,HPSC0000435,H P SECRETARIAT,BO SECTT CHHOTA SHIMLA 171002,SHIMLA,SHIMLA,HIMACHAL PRADESH,2620991
158,HIMACHAL PRADESH STATE COOPERATIVE BANK LTD,HPSC0000437,SHARONTHA,SHARONTHA TEHSIL TIKKAR PIN 171203,SHIMLA,SHRONTHA,HIMACHAL PRADESH,9418071898
159,HIMACHAL PRADESH STATE COOPERATIVE BANK LTD,HPSC0000438,THE MALL SHIMLA,SHIMLA THE MALL SHIMLA 171001,SHIMLA,SHIMLA,HIMACHAL PRADESH,0
160,HIMACHAL PRADESH STATE COOPERATIVE BANK LTD,HPSC0000439,THE MALL SHIMLA,SHIMLA THE MALL SHIMLA 171001,SHIMLA,SHIMLA,HIMACHAL PRADESH,0
161,HIMACHAL PRADESH STATE COOPERATIVE BANK LTD,HPSC0000440,THE MALL SHIMLA,SHIMLA THE MALL SHIMLA 171001,SHIMLA,SHIMLA,HIMACHAL PRADESH,0
162,HIMACHAL PRADESH STATE COOPERATIVE BANK LTD,HPSC0000441,SUNI,BO SUNI SHIMLA,SHIMLA,SHIMLA,HIMACHAL PRADESH,2786621
163,HIMACHAL PRADESH STATE COOPERATIVE BANK LTD,HPSC0000442,TAKLECH,BO TAKLECH TEHSIL RAMPUR PIN 172022,SHIMLA,RAMPUR,HIMACHAL PRADESH,272206
164,HIMACHAL PRADESH STATE COOPERATIVE BANK LTD,HPSC0000443,THANEDHAR,THANEDHAR TEHSIL KUMARSAIN PIN 172030,SHIMLA,KUMARSAIN,HIMACHAL PRADESH,222350
165,HIMACHAL PRADESH STATE COOPERATIVE BANK LTD,HPSC0000444,THEOG,THEOG PIN 171201,SHIMLA,THEOG,HIMACHAL PRADESH,238207
166,HIMACHAL PRADESH STATE COOPERATIVE BANK LTD,HPSC0000445,TIKKAR,TIKKAR PIN 171203,SHIMLA,TIKKER,HIMACHAL PRADESH,233277
167,HIMACHAL PRADESH STATE COOPERATIVE BANK LTD,HPSC0000446,TOTU,BO TOTU SHIMLA PIN 171011,SHIMLA,SHIMLA,HIMACHAL PRADESH,2837608
168,HIMACHAL PRADESH STATE COOPERATIVE BANK LTD,HPSC0000447,RATNARI,RATNARI TEHSIL KOTKHAI PIN 171225,SHIMLA,KOTKHAI,HIMACHAL PRADESH,275801
169,HIMACHAL PRADESH STATE COOPERATIVE BANK LTD,HPSC0000448,SARASWATI NAGAR,SARASWATI NAGAR PIN 171206,SHIMLA,SARASWATI NAGAR,HIMACHAL PRADESH,238995
170,HIMACHAL PRADESH STATE COOPERATIVE BANK LTD,HPSC0000449,DEORI KHANETI,DEORI KHANETI TEHSIL KOTKHAI PIN 171201,SHIMLA,KOTKHAI,HIMACHAL PRADESH,246707
171,HIMACHAL PRADESH STATE COOPERATIVE BANK LTD,HPSC0000450,SHILAROO,SHILAROO PIN 171213,SHIMLA,SHILAROO,HIMACHAL PRADESH,9418095965
172,HIMACHAL PRADESH STATE COOPERATIVE BANK LTD,HPSC0000451,KOTI,KOTI TEHSIL JUNGA PIN 171012,SHIMLA,SHIMLA,HIMACHAL PRADESH,2733451
173,HIMACHAL PRADESH STATE COOPERATIVE BANK LTD,HPSC0000453,DEOLI,BO DEOLI PIN 171203,SHIMLA,DEOLI,HIMACHAL PRADESH,9418142342
174,HIMACHAL PRADESH STATE COOPERATIVE BANK LTD,HPSC0000454,MANDAL,MANDAL PIN 171216,SHIMLA,MANDAL,HIMACHAL PRADESH,239156
175,HIMACHAL PRADESH STATE COOPERATIVE BANK LTD,HPSC0000455,KHOLI GHAT,KHOLIGHAT NANKHARI PIN 171213,SHIMLA,NANKHARI,HIMACHAL PRADESH,268755
176,HIMACHAL PRADESH STATE COOPERATIVE BANK LTD,HPSC0000456,KHARAHAN,KHARAHAN TEHSIL NANKHARI PIN 171213,SHIMLA,NANKHARI,HIMACHAL PRADESH,9418211634
177,HIMACHAL PRADESH STATE COOPERATIVE BANK LTD,HPSC0000457,BATAR GALU,BATAR GALU PO KATHASU TEHSIL JUBBAL PIN-171206,SHIMLA,JUBBAL,HIMACHAL PRADESH,8988125900
178,HIMACHAL PRADESH STATE COOPERATIVE BANK LTD,HPSC0000458,BACHHUNCH   CHAPOTI,BACHHUNCH CHAPOTI,SHIMLA,ROHRU,HIMACHAL PRADESH,244231
179,HIMACHAL PRADESH STATE COOPERATIVE BANK LTD,HPSC0000459,KHARAPATHAR,KHARA PATHAR TEHSIL JUBBAL PIN 171205,SHIMLA,JUBBAL,HIMACHAL PRADESH,9418012762
180,HIMACHAL PRADESH STATE COOPERATIVE BANK LTD,HPSC0000460,FAGU,FAGU TEHSIL THEOG DISTT SHIMLA,SHIMLA,THEOG,HIMACHAL PRADESH,239207
181,HIMACHAL PRADESH STATE COOPERATIVE BANK LTD,HPSC0000461,SUMMER HILL,SUMMER HILL DISTT SHIMLA 171005,SHIMLA,SHIMLA,HIMACHAL PRADESH,2832500
182,HIMACHAL PRADESH STATE COOPERATIVE BANK LTD,HPSC0000462,KUPVI,KUPVI TEHSIL KUPVI DISTT SHIMLA,SHIMLA,KUPVI,HIMACHAL PRADESH,270280
183,HIMACHAL PRADESH STATE COOPERATIVE BANK LTD,HPSC0000466,JALOG,VPO JALOG TEHSIL SUNNI,SHIMLA,SHIMLA,HIMACHAL PRADESH,2767211
184,HIMACHAL PRADESH STATE COOPERATIVE BANK LTD,HPSC0000467,JATHIA DEVI,VPO JATHIA DEVI TEHSIL SHIMLA,SHIMLA,SHIMLA,HIMACHAL PRADESH,2736910
185,HIMACHAL PRADESH STATE COOPERATIVE BANK LTD,HPSC0000468,THACHI,GRAM PANCHAYAT AND PO THACHI TEHSIL SUNI,SHIMLA,SHIMLA,HIMACHAL PRADESH,2793444
186,HIMACHAL PRADESH STATE COOPERATIVE BANK LTD,HPSC0000469,MASHOBRA,VILLAGE MASHOBRA-2 POST OFFICE MASHOBRA TEHSIL AND DISTRICT SHIMLA PIN 171007,SHIMLA,SHIMLA,HIMACHAL PRADESH,2740555
187,HIMACHAL PRADESH STATE COOPERATIVE BANK LTD,HPSC0000470,JUNGA,PO JUNGA SUB TEHSIL JUNGA,SHIMLA,SHIMLA,HIMACHAL PRADESH,2752299
188,HIMACHAL PRADESH STATE COOPERATIVE BANK LTD,HPSC0000471,NARAIN,VPO NARAIN TEHSIL RAMPUR,SHIMLA,SHIMLA,HIMACHAL PRADESH,0
189,HIMACHAL PRADESH STATE COOPERATIVE BANK LTD,HPSC0000472,RAMPUR BUS STAND,RAMPUR BUS STAND CHUHABAG PO KHANERI RAMPUR BUSHAHAR,SHIMLA,SHIMLA,HIMACHAL PRADESH,234034
190,HIMACHAL PRADESH STATE COOPERATIVE BANK LTD,HPSC0000551,BADRINAGAR,BO BADARI NAGAR PIN 173026,SIRMOUR,PAONTA SAHIB,HIMACHAL PRADESH,224788
191,HIMACHAL PRADESH STATE COOPERATIVE BANK LTD,HPSC0000552,DHAULA KUAN,DHAULA KUAN PIN 173020,SIRMOUR,DHAULA KUAN,HIMACHAL PRADESH,257619
192,HIMACHAL PRADESH STATE COOPERATIVE BANK LTD,HPSC0000553,DADAHU,DADAHU DISTT SIRMOUR PIN 173022,SIRMOUR,DADAHU,HIMACHAL PRADESH,267353
193,HIMACHAL PRADESH STATE COOPERATIVE BANK LTD,HPSC0000555,HABBAN,HABBAN PIN 173101,SIRMOUR,HABBAN,HIMACHAL PRADESH,266080
194,HIMACHAL PRADESH STATE COOPERATIVE BANK LTD,HPSC0000556,KALA AMB,KALA AMB PIN 173020,SIRMOUR,KAKA AMB,HIMACHAL PRADESH,254114
195,HIMACHAL PRADESH STATE COOPERATIVE BANK LTD,HPSC0000557,KATCHA TANK,KATCHA TANK PIN 173001,SIRMOUR,NAHAN,HIMACHAL PRADESH,223143
196,HIMACHAL PRADESH STATE COOPERATIVE BANK LTD,HPSC0000558,MAJRA,MAJRA PIN 173021,SIRMOUR,MAJRA,HIMACHAL PRADESH,254047
197,HIMACHAL PRADESH STATE COOPERATIVE BANK LTD,HPSC0000559,NAHAN,NAHAN PIN 173001,SIRMOUR,NAHAN,HIMACHAL PRADESH,222687
198,HIMACHAL PRADESH STATE COOPERATIVE BANK LTD,HPSC0000560,NARAG,NARAG PIN 173024,SIRMOUR,NARAG,HIMACHAL PRADESH,257335
199,HIMACHAL PRADESH STATE COOPERATIVE BANK LTD,HPSC0000561,NOHRADHAR,NOHRADHAR PIN 173104,SIRMOUR,NOHRADHAR,HIMACHAL PRADESH,240680
200,HIMACHAL PRADESH STATE COOPERATIVE BANK LTD,HPSC0000562,PAONTA SAHIB,PAONTA SAHIB PIN 173025,SIRMOUR,PAONTA SAHIB,HIMACHAL PRADESH,222336
201,HIMACHAL PRADESH STATE COOPERATIVE BANK LTD,HPSC0000563,RAJGARH,RAJGARH PIN 173101,SIRMOUR,RAJGARH,HIMACHAL PRADESH,221021
202,HIMACHAL PRADESH STATE COOPERATIVE BANK LTD,HPSC0000564,S - PURUWALA,S PRURWALA PIN 173025,SIRMOUR,PAONTA SAHIB,HIMACHAL PRADESH,238838
203,HIMACHAL PRADESH STATE COOPERATIVE BANK LTD,HPSC0000565,SANGRAH,SANGRAH PIN 173023,SIRMOUR,SANGRAH,HIMACHAL PRADESH,248163
204,HIMACHAL PRADESH STATE COOPERATIVE BANK LTD,HPSC0000566,SARAHAN-SIRMOUR,SARAHAN SIRMOUR. PIN 173024,SIRMOUR,SRAHAN,HIMACHAL PRADESH,236745
205,HIMACHAL PRADESH STATE COOPERATIVE BANK LTD,HPSC0000567,SATAUN,SATAUN PIN 173029,SIRMOUR,SATAUN,HIMACHAL PRADESH,262506
206,HIMACHAL PRADESH STATE COOPERATIVE BANK LTD,HPSC0000568,SHILLAI,SHILLAI PIN 173027,SIRMOUR,SHILLAI,HIMACHAL PRADESH,278545
207,HIMACHAL PRADESH STATE COOPERATIVE BANK LTD,HPSC0000569,TRILOKPUR,TRILOKPUR PIN 173030,SIRMOUR,KALA AMB,HIMACHAL PRADESH,238679
208,HIMACHAL PRADESH STATE COOPERATIVE BANK LTD,HPSC0000570,KAMRAU,KAMRAU PIN 173029,SIRMOUR,KAMRAU,HIMACHAL PRADESH,271443
209,HIMACHAL PRADESH STATE COOPERATIVE BANK LTD,HPSC0000571,LANA CHETA,LANA CHETA PIN 173104,SIRMOUR,LANA CHETA,HIMACHAL PRADESH,247120
210,HIMACHAL PRADESH STATE COOPERATIVE BANK LTD,HPSC0000572,DC OFFICE NAHAN,DC NAHAN PIN 173026,SIRMOUR,NAHAN,HIMACHAL PRADESH,222267
211,HIMACHAL PRADESH STATE COOPERATIVE BANK LTD,HPSC0000573,YASHWANT NAGAR,YASHWANT NAGAR PIN 173212,SIRMOUR,YASHWANT NAGAR,HIMACHAL PRADESH,270400
212,HIMACHAL PRADESH STATE COOPERATIVE BANK LTD,HPSC0000575,KHERI,KHERI TEHSIL RAJGARH DISTT SIRMOUR,SIRMOUR,RAJGARH,HIMACHAL PRADESH,275021
213,HIMACHAL PRADESH STATE COOPERATIVE BANK LTD,HPSC0000576,JAMTA,JAMTA TEHSIL NAHAN PIN,SIRMOUR,NAHAN,HIMACHAL PRADESH,258666
214,HIMACHAL PRADESH STATE COOPERATIVE BANK LTD,HPSC0000577,NAINIDHAR,NAINIDHAR TEHSIL SHILLAI PIN,SIRMOUR,SHILLAI,HIMACHAL PRADESH,206010
215,HIMACHAL PRADESH STATE COOPERATIVE BANK LTD,HPSC0000578,RONHAT,RONHAT TEHSIL SHILLAI,SIRMOUR,SHILLAI,HIMACHAL PRADESH,270404
216,HIMACHAL PRADESH STATE COOPERATIVE BANK LTD,HPSC0000579,GATADHAR,PO SANGNA TEHSIL SANGRAH DISTT SIRMOUR 173023,SIRMOUR,SANGRAH,HIMACHAL PRADESH,8894067667
217,HIMACHAL PRADESH STATE COOPERATIVE BANK LTD,HPSC0000580,KAFOTA,VPO KAFOTA TEHSIL KAMRAU,SIRMOUR,PAONTA SAHIB,HIMACHAL PRADESH,273327
