,BANK NAME,IFSC,OFFICE,ADDRESS,DISTRICT,CITY,STATE,PHONE
0,CITI BANK,CITI0000001,KOLKATA,"KANAK BUILDING, 41, CHOWRINGHEE ROAD, KOLKATA - 700071",KOLKATA,KOLKATA,WEST BENGAL,22881878
1,CITI BANK,CITI0000002,NEW DELHI,"Ground and first Floor,DLF Capitol Point, Baba Kharak Singh Marg,Connaught Place,New Delhi 110001",NEW DELHI,DELHI,DELHI,23743584
2,CITI BANK,CITI0000003,CHENNAI,"NO. 2, CLUB HOUSE ROAD, CHENNAI - 600002",CHENNAI,CHENNAI,TAMIL NADU,28460014
3,CITI BANK,CITI0000004,BANGALORE,"506-507, LEVEL 5, PRESTIGE MERIDIAN 2, # 30 M G ROAD, BANGALORE - 560001",BANGALORE URBAN,BANGALORE,KARNATAKA,51123551
4,CITI BANK,CITI0000005,PUNE,"2413, KUMAR CAPITAL, EAST STREET, PUNE 411 001",PUNE,PUNE,MAHARASHTRA,5606356
5,CITI BANK,CITI0000006,HYDERABAD,"G-PULLA REDDY BUILDING, NORTH WING, GREENLANDS ROAD, BEGUMPET, HYDERABAD - 500016",HYDERABAD URBAN,HYDERABAD,ANDHRA PRADESH,23415350
6,CITI BANK,CITI0000007,AHMEDABAD,"REMBRANDT, C G ROAD, NEAR PANCHVATI CIRCLE, AHMEDABAD - 380006",AHMEDABAD,AHMEDABAD,GUJARAT,26568497
7,CITI BANK,CITI0000008,BARODA,"PELICAN, 1ST FLOOR, OPP. RACE COURSE TOWERS, GOTRI ROAD, BARODA 390007",VADODARA,VADODARA,GUJARAT,2321649
8,CITI BANK,CITI0000009,JAIPUR,"BHAGWATI BHAVAN, GOVT. HOSTEL CROSSING, M.I ROAD, JAIPUR - 302001",JAIPUR,JAIPUR,RAJASTHAN,"5118144,"
9,CITI BANK,CITI0000011,COIMBATORE,"TRISTAR TOWERS, 657 AVINASHI ROAD, COIMBATORE 641 037",COIMBOTORE,COIMBATORE,TAMIL NADU,2217979
10,CITI BANK,CITI0000012,COCHIN,"PHOTOFAST HS., DOOR NO.38/1581, MG ROAD, PADMA JUNCTION, COCHIN 682035",ERNAKULAM,KOCHI,KERALA,2383936
11,CITI BANK,CITI0000013,CHANDIGARH,"SCO 4-5,Sector 8C, Madhya Marg,Chandigarh- 160009",CHANDIGARH,CHANDIGARH,CHANDIGARH,6650900
12,CITI BANK,CITI0000014,GURGAON,"DLF SQUARE, M BLOCK, JARACANDA MARG, DLF CITY, PHASE II, GURGAON - 122002",GURGAON,GURGAON,HARYANA,5012137
13,CITI BANK,CITI0000015,SURAT,"1ST FLOOR, OPP. KAKADIA COMPLEX, GHOD DOD ROAD, SURAT 395007",SURAT,SURAT,GUJARAT,2256147
14,CITI BANK,CITI0000016,LUCKNOW,"CITIBANK NA,17/1, ASHOK MARG,LUCKNOW - 226001",LUCKNOW,LUCKNOW,UTTAR PRADESH,2231661
15,CITI BANK,CITI0000017,NOIDA,"CITIBANK NA, A 6 SECTOR 4, NOIDA 201 301 CITI NEW DELHI",GAUTAM BODDA NAGAR,NOIDA,UTTAR PRADESH,4396501
16,CITI BANK,CITI0000019,AURANGABAD,"SARASWATI SANKUL, NIRALA BAZAR, OPP S B COLLEGE BUS STOP, AURANGPURA, AURANGABAD 431 001",AURANGABAD,AURANGABAD,MAHARASHTRA,5627041
17,CITI BANK,CITI0000022,NASHIK,"RUSHIRAJ RESIDENCY, 52-53 D'SOUZA COLONY, COLLEGE ROAD, NASIK",NASHIK,NASHIK,MAHARASHTRA,2309100
18,CITI BANK,CITI0000027,FARIDABAD,"CITIBANK NA , 2427 LOWER GROUND FL, CROWNE ANSAL PLAZA , MATHURA ROAD , FARIDABAD 121007 HARIYANA",FARIDABAD,FARIDABAD,HARYANA,2226853
19,CITI BANK,CITI0000028,BRABROAD ( KOLKATA),"CITIBANK NA  9, BRABOURNE ROAD, GROUND FLOOR, KOLKATA-700001",KOLKATA,KOLKATA,WEST BENGAL,9830201311
20,CITI BANK,CITI0000029,NEHRU PLACE BRANCH,"CITIBANK NA  GROUND FLOOR, INTERNATIONAL TRADE TOWER, HOTEL PARK ROYAL COMPLEX,NEHRU PLACE, NEW DELHI - 10 019.",DELHI,DELHI,DELHI,9811201932
21,CITI BANK,CITI0000030,VASANT VIHAR,"CITIBANK NA  PLOT NO.33, COMMUNITY CENTRE VASANT VIHAR NEW DELHI 110057",DELHI,DELHI,DELHI,9871424422
22,CITI BANK,CITI0000031,PUNJABI BAGH BRANCH,"CITIBANK NA  27, CENTRAL MARKET PUNJABI BAGHNEW DELHI:110026",DELHI,DELHI,DELHI,9810403350
23,CITI BANK,CITI0000032,SOUTH EXTENSION BRANCH,"Level 1,Gurmehar, A-12, Ring Road,South Extension Part-I,New Delhi - 110049",DELHI,DELHI,DELHI,9810530336
24,CITI BANK,CITI0000034,NOIDA,"CITIBANK NA  A-6, SECTOR-4, NOIDA.201301",GAUTAM BUDDHA NAGAR,NOIDA,UTTAR PRADESH,9899971810
25,CITI BANK,CITI0000036,ANDHERI,"CITIBANK NA, KALPACHANDRA, NEXT TO SHOPPERS STOP, ANDHERI",GREATER MUMBAI,MUMBAI,MAHARASHTRA,9821227132
26,CITI BANK,CITI0000037,JUHU,"CITIBANK NA, AMMU, B1, V MEHTA ROAD,JVPD SCHEME JUHU",GREATER MUMBAI,MUMBAI,MAHARASHTRA,9967659169
27,CITI BANK,CITI0000038,VASHI,"CITIBANK NA, MAHATMA PHULE BHAVAN, PALM BEACH ROAD, JUNCTION SECTOR 17 VASHI, NEW MUMBAI",THANE,NEW MUMBAI,MAHARASHTRA,982018847
28,CITI BANK,CITI0000039,BANDRA,"CITIBANK NA, WEST VIEW BLDG, LINKING ROAD KHAR DANDA JUNCTION, KHAR WEST",GREATER MUMBAI,MUMBAI,MAHARASHTRA,9820594168
29,CITI BANK,CITI0000040,AIB,"CITIBANK NA  AIR INDIA BLDG, NARIMAN POINT MUMBAI",GREATER MUMBAI,MUMBAI,MAHARASHTRA,9820507303
30,CITI BANK,CITI0000042,JAYANAGAR BRANCH,"CITIBANK NA  PRESTIGE SOUTH END, NO 91, SOUTH END ROAD, JAYANAGAR, BANGALORE - 560 004",BANGALORE URBAN,BANGALORE,KARNATAKA,9845594647
31,CITI BANK,CITI0000046,NAGPUR,"CITIBANK N.A., NEXUS POINT, SHOP NO. 1, OPP. VIDHAN BHAVAN, CIVIL LINES",NAGPUR,NAGPUR,MAHARASHTRA,6623123
32,CITI BANK,CITI0000047,SERILINGAMPALLY,"CITIBANK NA-UNIT NO.1, APURUPA SILPI, SURVEY NO. 124, GACHIBOWLI VILLAGE, SERILINGAMPALLY MANDAL, HYDERABAD, RANGA REDDY DISTRICT, ANDHRA PRADESH - 500032",RANGA REDDY DISTRICT,HYDERABAD,ANDHRA PRADESH,66017109
33,CITI BANK,CITI0000048,THANE,"GROUND FLOOR, SHOP NO. 2, WING A, LALANI RESIDENCY, SURVEY NO. 199/4, VILLAGE KAVESAR, OPP. SURAJ WATER PARK, NEAR WAGHBIL NAKA, GHODBUNDER ROAD, THANE (WEST) - 400 615",THANE,THANE,MAHARASHTRA,25981401
34,CITI BANK,CITI0100000,MUMBAI,"BOMBAY MUTUAL BUILDING,293, DR. D N ROAD, FORT, MUMBAI 400001",GREATER MUMBAI,MUMBAI,MAHARASHTRA,40005706
35,CITI BANK,CITI0RTGSMI,RTGS-HO,"BOMBAY MUTUAL BUILDING, FORT, MUMBAI-400001",MUMBAI,MUMBAI,MAHARASHTRA,40005706
