,BANK NAME,IFSC,OFFICE,ADDRESS,DISTRICT,CITY,STATE,PHONE
0,Maharashtra Gramin Bank,MAHG00000SC,SERVICE CENTRE,AT JIVANSHREE PLOT NO 35 SECTOR G TOWN CENTRE CIDCO AURANGABAD 431005,AURANGABAD,AURANGABAD,MAHARASHTRA,2476140
1,Maharashtra Gramin Bank,MAHG0004000,HEAD OFFICE,AT JIVANSHREE PLOT NO 35 SECTOR G TOWN CENTRE CIDCO AURANGABAD 431005,AURANGABAD,AURANGABAD,MAHARASHTRA,2476139
2,Maharashtra Gramin Bank,MAHG0004100,REGIONAL OFFICE NANDED,REGIONAL OFFICE NANDED DR KESRALE BUILDING YASHWANT NAGAR PAWDEWADINAKA NANDED,NANDED,NANDED,MAHARASHTRA,250695
3,Maharashtra Gramin Bank,MAHG0004101,ISLAPUR,AT ISALAPUR TQ KINWAT DIST NANDED,NANDED,ISLAPUR,MAHARASHTRA,244040
4,Maharashtra Gramin Bank,MAHG0004102,ARDHAPUR,AT ARDHAPUR TQ ARDHAPUR DIST NANDED,NANDED,ARDHAPUR,MAHARASHTRA,272483
5,Maharashtra Gramin Bank,MAHG0004103,ARJAPUR,AT ARJAPUR TQ BILOLI DIST NANDED,NANDED,ARJAPUR,MAHARASHTRA,202209
6,Maharashtra Gramin Bank,MAHG0004104,BILOLI,AT BILOLI TQ BILOLI DIST NANDED,NANDED,BILOLI,MAHARASHTRA,223688
7,Maharashtra Gramin Bank,MAHG0004105,BARAD,AT BARAD TQ MUDKHED DIST NANDED,NANDED,BARAD,MAHARASHTRA,276537
8,Maharashtra Gramin Bank,MAHG0004106,BARBADA,AT BARBADA TQ NAIGAON DIST NANDED,NANDED,BARBADA,MAHARASHTRA,268397
9,Maharashtra Gramin Bank,MAHG0004107,BARUL,AT BARUL TQ KANDHAR DIST NANDED,NANDED,BARUL,MAHARASHTRA,269574
10,Maharashtra Gramin Bank,MAHG0004108,BETMOGRA,AT BETMOGRA TQ MUKHED DIST NANDED,NANDED,BETMOGRA,MAHARASHTRA,240057
11,Maharashtra Gramin Bank,MAHG0004109,KASRALI,AT KASRALI TQ BILOLI DIST NANDED,NANDED,KASRALI,MAHARASHTRA,226707
12,Maharashtra Gramin Bank,MAHG0004110,BODHADI,AT BODHADI TQ KINWAT DIST NANDED,NANDED,BODHADI,MAHARASHTRA,234673
13,Maharashtra Gramin Bank,MAHG0004111,CHANDOLA,AT CHANDOLA TQ MUKHED DIST NANDED,NANDED,CHANDOLA,MAHARASHTRA,202044
14,Maharashtra Gramin Bank,MAHG0004112,DEGLOOR,AT DEGLOOR TQ DEGLOOR DIST NANDED,NANDED,DEGLOOR,MAHARASHTRA,255064
15,Maharashtra Gramin Bank,MAHG0004113,DIGRAS N,AT DIGRAS N TQ KANDHAR DIST NANDED,NANDED,DIGRAS N,MAHARASHTRA,260152
16,Maharashtra Gramin Bank,MAHG0004114,GADGA,AT GADGA TQ NAIGAON DIST NANDED,NANDED,GADGA,MAHARASHTRA,254204
17,Maharashtra Gramin Bank,MAHG0004115,HANEGAON,AT HANEGAON TQ DEGLOOR DIST NANDED,NANDED,HANEGAON,MAHARASHTRA,263291
18,Maharashtra Gramin Bank,MAHG0004116,JAHOOR,AT JAHOOR TQ MUKHED DIST NANDED,NANDED,JAHOOR,MAHARASHTRA,244713
19,Maharashtra Gramin Bank,MAHG0004118,JAMB,AT JAMB TQ MUKHED DIST NANDED,NANDED,JAMB,MAHARASHTRA,242172
20,Maharashtra Gramin Bank,MAHG0004119,DHARMABAD,AT DHARMABAD TQ DHARMABAD DIST NANDED,NANDED,DHARMABAD,MAHARASHTRA,244512
21,Maharashtra Gramin Bank,MAHG0004120,KAMARI,AT KAMARI TQ HIMAYTNAGR DIST NANDED,NANDED,KAMARI,MAHARASHTRA,202270
22,Maharashtra Gramin Bank,MAHG0004121,KANDHAR,AT KANDHAR TQ KANDHAR DIST NANDED,NANDED,KANDHAR,MAHARASHTRA,223603
23,Maharashtra Gramin Bank,MAHG0004122,KAPSI,AT KAPSI TQ LOHA DIST NANDED,NANDED,KAPSI,MAHARASHTRA,252138
24,Maharashtra Gramin Bank,MAHG0004123,KARADKHED,AT KARADKHED TQ DEGLOOR DIST NANDED,NANDED,KARADKHED,MAHARASHTRA,264258
25,Maharashtra Gramin Bank,MAHG0004124,KHATGAON,AT KHATGAON TQ BILOLI DIST NANDED,NANDED,KHATGAON,MAHARASHTRA,264317
26,Maharashtra Gramin Bank,MAHG0004125,KRUSHNUR,AT KRUSHNUR TQ NAIGAON DIST NANDED,NANDED,KRUSHNUR,MAHARASHTRA,279998
27,Maharashtra Gramin Bank,MAHG0004126,KUNTUR,AT KUNTUR TQ NAIGAON DIST NANDED,NANDED,KUNTUR,MAHARASHTRA,258604
28,Maharashtra Gramin Bank,MAHG0004127,LAHAN,AT LAHAN TQ ARDHAPUR DIST NANDED,NANDED,LAHAN,MAHARASHTRA,277589
29,Maharashtra Gramin Bank,MAHG0004128,LIMBGAON,AT LIMBGAON TQ NANDED DIST NANDED,NANDED,LIMBGAON,MAHARASHTRA,270483
30,Maharashtra Gramin Bank,MAHG0004129,LOHGAON,AT LOHGAON TQ BILOLI DIST NANDED,NANDED,LOHGAON,MAHARASHTRA,202757
31,Maharashtra Gramin Bank,MAHG0004130,MAHUR,AT MAHUR TQ MAHUR DIST NANDED,NANDED,MAHUR,MAHARASHTRA,268432
32,Maharashtra Gramin Bank,MAHG0004131,MALAKOLI,AT MALAKOLI TQ LOHA DIST NANDED,NANDED,MALAKOLI,MAHARASHTRA,246204
33,Maharashtra Gramin Bank,MAHG0004132,MALEGAON,AT MALEGAON TQ ARDHAPUR DIST NANDED,NANDED,MALEGAON,MAHARASHTRA,273354
34,Maharashtra Gramin Bank,MAHG0004133,MANATHA,AT MANATHA TQ HADGAON DIST NANDED,NANDED,MANATHA,MAHARASHTRA,274277
35,Maharashtra Gramin Bank,MAHG0004134,MUDKHED,AT MUDKHED TQ MUDKHED DIST NANDED,NANDED,MUDKHED,MAHARASHTRA,275403
36,Maharashtra Gramin Bank,MAHG0004135,MUKRAMABAD,AT MUKRAMABAD TQ MUKHED DIST NANDED,NANDED,MUKRAMABAD,MAHARASHTRA,267160
37,Maharashtra Gramin Bank,MAHG0004136,BHAGYANAGAR NANDED,AT BHAGYANAGAR NANDED TQ NANDED DIST NANDED,NANDED,BHAGYANAGAR NANDED,MAHARASHTRA,251075
38,Maharashtra Gramin Bank,MAHG0004138,OSMANNAGAR,AT OSMANNAGAR TQ LOHA DIST NANDED,NANDED,OSMANNAGAR,MAHARASHTRA,262637
39,Maharashtra Gramin Bank,MAHG0004139,BHOKAR,AT BHOKAR TQ BHOKAR DIST NANDED,NANDED,BHOKAR,MAHARASHTRA,222790
40,Maharashtra Gramin Bank,MAHG0004141,PETHWADAJ,AT PETHWADAJ TQ KANDHAR DIST NANDED,NANDED,PETHWADAJ,MAHARASHTRA,261386
41,Maharashtra Gramin Bank,MAHG0004142,HADGAON,AT HADGAON TQ HADGAON DIST NANDED,NANDED,HADGAON,MAHARASHTRA,222552
42,Maharashtra Gramin Bank,MAHG0004143,MUKHED,AT MUKHED TQ MUKHED DIST NANDED,NANDED,MUKHED,MAHARASHTRA,222075
43,Maharashtra Gramin Bank,MAHG0004144,LOHA,AT LOHA TQ LOHA DIST NANDED,NANDED,LOHA,MAHARASHTRA,242211
44,Maharashtra Gramin Bank,MAHG0004145,UMARI PETH,AT UMARI PETH TQ UMARI PETH DIST NANDED,NANDED,UMARI PETH,MAHARASHTRA,244088
45,Maharashtra Gramin Bank,MAHG0004147,TALNI,AT TALNI TQ HADGAON DIST NANDED,NANDED,TALNI,MAHARASHTRA,273369
46,Maharashtra Gramin Bank,MAHG0004148,TAMLOOR,AT TAMLOOR TQ DEGLOOR DIST NANDED,NANDED,TAMLOOR,MAHARASHTRA,269019
47,Maharashtra Gramin Bank,MAHG0004149,UMRI BAZAR,AT UMRI BAZAR TQ KINWAT DIST NANDED,NANDED,UMRI BAZAR,MAHARASHTRA,263170
48,Maharashtra Gramin Bank,MAHG0004150,WADEPURI,AT WADEPURI TQ LOHA DIST NANDED,NANDED,WADEPURI,MAHARASHTRA,245048
49,Maharashtra Gramin Bank,MAHG0004151,VISHNUPURI,AT VISHNUPURI TQ NANDED DIST NANDED,NANDED,VISHNUPURI,MAHARASHTRA,229334
50,Maharashtra Gramin Bank,MAHG0004152,WAI BAZAR,AT WAI BAZAR TQ MAHUR DIST NANDED,NANDED,WAI BAZAR,MAHARASHTRA,264836
51,Maharashtra Gramin Bank,MAHG0004153,TAMSA,AT TAMSA TQ HADGAON DIST NANDED,NANDED,TAMSA,MAHARASHTRA,266614
52,Maharashtra Gramin Bank,MAHG0004154,KINWAT,AT KINWAT TQ KINWAT DIST NANDED,NANDED,KINWAT,MAHARASHTRA,223016
53,Maharashtra Gramin Bank,MAHG0004155,WAGHALA,AT WAGHALA TQ NANDED DIST NANDED,NANDED,WAGHALA,MAHARASHTRA,227463
54,Maharashtra Gramin Bank,MAHG0004157,SHIVAJINAGAR NANDED,AT SHIVAJINAGAR NANDED TQ NANDED DIST NANDED,NANDED,SHIVAJINAGAR NANDED,MAHARASHTRA,242845
55,Maharashtra Gramin Bank,MAHG0004158,TARODA,AT TARODA TQ NANDED DIST NANDED,NANDED,TARODA,MAHARASHTRA,262510
56,Maharashtra Gramin Bank,MAHG0004159,NAIGAON,AT NAIGAON TQ NAIGAON DIST NANDED,NANDED,NAIGAON,MAHARASHTRA,262116
57,Maharashtra Gramin Bank,MAHG0004160,VAZIRABAD NANDED,AT VAZIRABAD NANDED TQ NANDED DIST NANDED,NANDED,VAZIRABAD NANDED,MAHARASHTRA,239853
58,Maharashtra Gramin Bank,MAHG0004161,PAWADEWADI NAKA NANDED,AT PAWADEWADI NAKA NANDED TQ NANDED DIST NANDED,NANDED,PAWADEWADI NAKA NANDED,MAHARASHTRA,255932
59,Maharashtra Gramin Bank,MAHG0004162,BHAVSAR CHOWK NANDED,AT BHAVSAR CHOWK NANDED TQ NANDED DIST NANDED,NANDED,BHAVSAR CHOWK NANDED,MAHARASHTRA,266472
60,Maharashtra Gramin Bank,MAHG0004163,CHAITANYA NAGAR NANDED,AT CHAITANYA NAGAR NANDED TQ NANDED DIST NANDED,NANDED,CHAITANYA NAGAR NANDED,MAHARASHTRA,267531
61,Maharashtra Gramin Bank,MAHG0004164,HIMAYATNAGAR,AT HIMAYATNAGAR TQ HIMAYATNAGAR DIST NANDED,NANDED,HIMAYATNAGAR,MAHARASHTRA,244083
62,Maharashtra Gramin Bank,MAHG0004165,VISHNUPURI SRTMU NANDED,AT VISHNUPURI SRTMU NANDED TQ NANDED DIST NANDED,NANDED,VISHNUPURI SRTMU NANDED,MAHARASHTRA,229500
63,Maharashtra Gramin Bank,MAHG0004166,BARHALI,AT BARHALI TQ MUKHED DIST NANDED,NANDED,BARHALI,MAHARASHTRA,246124
64,Maharashtra Gramin Bank,MAHG0004167,NARSI,AT NARSI TQ NAIGAON DIST NANDED,NANDED,NARSI,MAHARASHTRA,266366
65,Maharashtra Gramin Bank,MAHG0004168,SHIVANI,AT SHIVANI TQ KINWAT DIST NANDED,NANDED,SHIVANI,MAHARASHTRA,245050
66,Maharashtra Gramin Bank,MAHG0004200,REGIONAL OFFICE PARBHANI,REGIONAL OFFICE PARBHANI SANT GURUKRUPA SHIVAJINAGAR TQ DIST PARBHANI,PARBHANI,PARBHANI,MAHARASHTRA,232042
67,Maharashtra Gramin Bank,MAHG0004201,AJEGAON,AT AJEGAON TQ SENGAON DIST HINGOLI,HINGOLI,AJEGAON,MAHARASHTRA,241084
68,Maharashtra Gramin Bank,MAHG0004202,AMBACHONDI,AT AMBACHONDI TQ BASMAT DIST HINGOLI,HINGOLI,AMBACHONDI,MAHARASHTRA,242215
69,Maharashtra Gramin Bank,MAHG0004203,ASOLA,AT ASOLA TQ PARBHANI DIST PARBHANI,PARBHANI,ASOLA,MAHARASHTRA,265165
70,Maharashtra Gramin Bank,MAHG0004204,ADGAON,AT ADGAON TQ JINTUR DIST PARBHANI,PARBHANI,ADGAON,MAHARASHTRA,266200
71,Maharashtra Gramin Bank,MAHG0004205,JINTUR,AT JINTUR TQ JINTUR DIST PARBHANI,PARBHANI,JINTUR,MAHARASHTRA,220470
72,Maharashtra Gramin Bank,MAHG0004206,BHOGAON,AT BHOGAON TQ JINTUR DIST PARBHANI,PARBHANI,BHOGAON,MAHARASHTRA,267057
73,Maharashtra Gramin Bank,MAHG0004207,CHARTHANA,AT CHARTHANA TQ JINTUR DIST PARBHANI,PARBHANI,CHARTHANA,MAHARASHTRA,265010
74,Maharashtra Gramin Bank,MAHG0004208,CHATORI,AT CHATORI TQ PALAM DIST PARBHANI,PARBHANI,CHATORI,MAHARASHTRA,272041
75,Maharashtra Gramin Bank,MAHG0004209,CHUDAWA,AT CHUDAWA TQ PURNA DIST PARBHANI,PARBHANI,CHUDAWA,MAHARASHTRA,258220
76,Maharashtra Gramin Bank,MAHG0004210,DIGRAS H,AT DIGRAS H TQ HINGOLI DIST HINGOLI,HINGOLI,DIGRAS H,MAHARASHTRA,249124
77,Maharashtra Gramin Bank,MAHG0004211,DUDHGAON,AT DUDHGAON TQ JINTUR DIST PARBHANI,PARBHANI,DUDHGAON,MAHARASHTRA,262057
78,Maharashtra Gramin Bank,MAHG0004213,GANGAKHED,AT GANGAKHED TQ GANGAKHED DIST PARBHANI,PARBHANI,GANGAKHED,MAHARASHTRA,222207
79,Maharashtra Gramin Bank,MAHG0004214,GIRGAON,AT GIRGAON TQ BASMAT DIST HINGOLI,HINGOLI,GIRGAON,MAHARASHTRA,243018
80,Maharashtra Gramin Bank,MAHG0004215,HATTA,AT HATTA TQ BASMAT DIST HINGOLI,HINGOLI,HATTA,MAHARASHTRA,244212
81,Maharashtra Gramin Bank,MAHG0004216,PATHRI,AT PATHRI TQ PATHRI DIST PARBHANI,PARBHANI,PATHRI,MAHARASHTRA,255288
82,Maharashtra Gramin Bank,MAHG0004217,BASMAT,AT BASMAT TQ BASMAT DIST HINGOLI,HINGOLI,BASMAT,MAHARASHTRA,220817
83,Maharashtra Gramin Bank,MAHG0004218,KATNESHWAR,AT KATNESHWAR TQ PURNA DIST PARBHANI,PARBHANI,KATNESHWAR,MAHARASHTRA,251161
84,Maharashtra Gramin Bank,MAHG0004219,KOLHA,AT KOLHA TQ MANWAT DIST PARBHANI,PARBHANI,KOLHA,MAHARASHTRA,264131
85,Maharashtra Gramin Bank,MAHG0004220,KANERGAON,AT KANERGAON TQ HINGOLI DIST HINGOLI,HINGOLI,KANERGAON,MAHARASHTRA,266003
86,Maharashtra Gramin Bank,MAHG0004221,BORI P,AT BORI P TQ JINTUR DIST PARBHANI,PARBHANI,BORI P,MAHARASHTRA,242530
87,Maharashtra Gramin Bank,MAHG0004222,KURUNDA,AT KURUNDA TQ BASMAT DIST HINGOLI,HINGOLI,KURUNDA,MAHARASHTRA,246068
88,Maharashtra Gramin Bank,MAHG0004223,KAWALGAON,AT KAWALGAON TQ PURNA DIST PARBHANI,PARBHANI,KAWALGAON,MAHARASHTRA,257176
89,Maharashtra Gramin Bank,MAHG0004224,KEKARJAWALA,AT KEKARJAWALA TQ PATHRI DIST PARBHANI,PARBHANI,KEKARJAWALA,MAHARASHTRA,262234
90,Maharashtra Gramin Bank,MAHG0004225,JAWALA BAZAR,AT JAWALA BAZAR TQ AUNDHAN DIST HINGOLI,HINGOLI,JAWALA BAZAR,MAHARASHTRA,240027
91,Maharashtra Gramin Bank,MAHG0004226,HINGOLI,AT HINGOLI TQ HINGOLI DIST HINGOLI,HINGOLI,HINGOLI,MAHARASHTRA,221138
92,Maharashtra Gramin Bank,MAHG0004227,KALAMNURI,AT KALAMNURI TQ KALAMNURI DIST HINGOLI,HINGOLI,KALAMNURI,MAHARASHTRA,220157
93,Maharashtra Gramin Bank,MAHG0004228,NARSI,AT NARSI TQ HINGOLI DIST HINGOLI,HINGOLI,NARSI,MAHARASHTRA,268080
94,Maharashtra Gramin Bank,MAHG0004229,PARBHANI,AT PARBHANI TQ PARBHANI DIST PARBHANI,PARBHANI,PARBHANI,MAHARASHTRA,223487
95,Maharashtra Gramin Bank,MAHG0004230,PINGLI,AT PINGLI TQ PARBHANI DIST PARBHANI,PARBHANI,PINGLI,MAHARASHTRA,266798
96,Maharashtra Gramin Bank,MAHG0004231,AKHADA BALAPUR,AT AKHADA BALAPUR TQ KALAMNURI DIST HINGOLI,HINGOLI,AKHADA BALAPUR,MAHARASHTRA,242513
97,Maharashtra Gramin Bank,MAHG0004232,PUSEGAON,AT PUSEGAON TQ SENGAON DIST HINGOLI,HINGOLI,PUSEGAON,MAHARASHTRA,246171
98,Maharashtra Gramin Bank,MAHG0004233,PEDGAON,AT PEDGAON TQ PARBHANI DIST PARBHANI,PARBHANI,PEDGAON,MAHARASHTRA,269252
99,Maharashtra Gramin Bank,MAHG0004234,PALAM,AT PALAM TQ PALAM DIST PARBHANI,PARBHANI,PALAM,MAHARASHTRA,270243
100,Maharashtra Gramin Bank,MAHG0004235,POKHARNI,AT POKHARNI TQ PARBHANI DIST PARBHANI,PARBHANI,POKHARNI,MAHARASHTRA,267382
101,Maharashtra Gramin Bank,MAHG0004236,RANISAWARGAON,AT RANISAWARGAON TQ GANGAKHED DIST PARBHANI,PARBHANI,RANISAWARGAON,MAHARASHTRA,266290
102,Maharashtra Gramin Bank,MAHG0004237,PURNA,AT PURNA TQ PURNA DIST PARBHANI,PARBHANI,PURNA,MAHARASHTRA,255415
103,Maharashtra Gramin Bank,MAHG0004238,SAILU,AT SAILU TQ SAILU DIST PARBHANI,PARBHANI,SAILU,MAHARASHTRA,222598
104,Maharashtra Gramin Bank,MAHG0004239,MANWAT,AT MANWAT TQ MANWAT DIST PARBHANI,PARBHANI,MANWAT,MAHARASHTRA,240001
105,Maharashtra Gramin Bank,MAHG0004240,SHELGAONG,AT SHELGAONG TQ SONPETH DIST PARBHANI,PARBHANI,SHELGAONG,MAHARASHTRA,263242
106,Maharashtra Gramin Bank,MAHG0004241,SHIRAD SHAHAPUR,AT SHIRAD SHAHAPUR TQ AUNDHAN DIST HINGOLI,HINGOLI,SHIRAD SHAHAPUR,MAHARASHTRA,248260
107,Maharashtra Gramin Bank,MAHG0004242,SENGAON,AT SENGAON TQ SENGAON DIST HINGOLI,HINGOLI,SENGAON,MAHARASHTRA,250306
108,Maharashtra Gramin Bank,MAHG0004243,SINGNAPUR,AT SINGNAPUR TQ PARBHANI DIST PARBHANI,PARBHANI,SINGNAPUR,MAHARASHTRA,264063
109,Maharashtra Gramin Bank,MAHG0004244,SIRSAM,AT SIRSAM TQ HINGOLI DIST HINGOLI,HINGOLI,SIRSAM,MAHARASHTRA,232037
110,Maharashtra Gramin Bank,MAHG0004245,TADKALAS,AT TADKALAS TQ PURNA DIST PARBHANI,PARBHANI,TADKALAS,MAHARASHTRA,256289
111,Maharashtra Gramin Bank,MAHG0004246,UKHALI,AT UKHALI TQ SONPETH DIST PARBHANI,PARBHANI,UKHALI,MAHARASHTRA,280805
112,Maharashtra Gramin Bank,MAHG0004248,WARANGA,AT WARANGA TQ KALAMNURI DIST HINGOLI,HINGOLI,WARANGA,MAHARASHTRA,248208
113,Maharashtra Gramin Bank,MAHG0004249,AUNDHANAGNATH,AT AUNDHANAGNATH TQ AUNDHAN DIST HINGOLI,HINGOLI,AUNDHANAGNATH,MAHARASHTRA,260091
114,Maharashtra Gramin Bank,MAHG0004251,WADGAONG,AT WADGAONG TQ SONPETH DIST PARBHANI,PARBHANI,WADGAONG,MAHARASHTRA,268182
115,Maharashtra Gramin Bank,MAHG0004252,WALOOR,AT WALOOR TQ SAILU DIST PARBHANI,PARBHANI,WALOOR,MAHARASHTRA,267089
116,Maharashtra Gramin Bank,MAHG0004254,YELDARI CAMP,AT YELDARI CAMP TQ JINTUR DIST PARBHANI,PARBHANI,YELDARI CAMP,MAHARASHTRA,260255
117,Maharashtra Gramin Bank,MAHG0004255,YEHLEGAON TUKARAM,AT YEHLEGAON TUKARAM TQ KALAMNURI DIST HINGOLI,HINGOLI,YEHLEGAON TUKARAM,MAHARASHTRA,245068
118,Maharashtra Gramin Bank,MAHG0004257,PIMPALDARI,AT PIMPALDARI TQ GANGAKHED DIST PARBHANI,PARBHANI,PIMPALDARI,MAHARASHTRA,265187
119,Maharashtra Gramin Bank,MAHG0004258,BANWAS,AT BANWAS TQ PALAM DIST PARBHANI,PARBHANI,BANWAS,MAHARASHTRA,278094
120,Maharashtra Gramin Bank,MAHG0004259,VIVEKNAGAR PARBHANI,AT VIVEKNAGAR PARBHANI TQ PARBHANI DIST PARBHANI,PARBHANI,VIVEKNAGAR PARBHANI,MAHARASHTRA,249010
121,Maharashtra Gramin Bank,MAHG0004260,SONPETH,AT SONPETH TQ SONPETH DIST PARBHANI,PARBHANI,SONPETH,MAHARASHTRA,240306
122,Maharashtra Gramin Bank,MAHG0004261,JINTUR ROAD PARBHANI,AT JINTUR ROAD PARBHANI TQ PARBHANI DIST PARBHANI,PARBHANI,JINTUR ROAD PARBHANI,MAHARASHTRA,241263
123,Maharashtra Gramin Bank,MAHG0004262,AKOLA ROAD HINGOLI,AT AKOLA ROAD HINGOLI TQ HINGOLI DIST HINGOLI,HINGOLI,AKOLA ROAD HINGOLI,MAHARASHTRA,224583
124,Maharashtra Gramin Bank,MAHG0004263,SHIVRAMNAGAR PARBHANI,AT SHIVRAMNAGAR PARBHANI TQ PARBHANI DIST PARBHANI,PARBHANI,SHIVRAMNAGAR PARBHANI,MAHARASHTRA,234542
125,Maharashtra Gramin Bank,MAHG0004264,PANKANERGAON,AT PANKANERGAON TQ SENGAON DIST HINGOLI,HINGOLI,PANKANERGAON,MAHARASHTRA,244122
126,Maharashtra Gramin Bank,MAHG0004265,DONGARKADA,AT DONGARKADA TQ KALAMNURI DIST HINGOLI,HINGOLI,DONGARKADA,MAHARASHTRA,232042
127,Maharashtra Gramin Bank,MAHG0004300,REGIONAL OFFICE LATUR,REGIONAL OFFICE LATUR SHIVAJI CHOWAK SAMBHAJI COMPLEX TQ DIST LATUR,LATUR,LATUR,MAHARASHTRA,256708
128,Maharashtra Gramin Bank,MAHG0004301,AMBULGA,AT AMBULGA TQ NILANGA DIST LATUR,LATUR,AMBULGA,MAHARASHTRA,267233
129,Maharashtra Gramin Bank,MAHG0004302,ANDHORI,AT ANDHORI TQ AHMADPUR DIST LATUR,LATUR,ANDHORI,MAHARASHTRA,278342
130,Maharashtra Gramin Bank,MAHG0004303,ASHIV,AT ASHIV TQ AUSA DIST LATUR,LATUR,ASHIV,MAHARASHTRA,234574
131,Maharashtra Gramin Bank,MAHG0004305,ATNUR,AT ATNUR TQ JALKOT DIST LATUR,LATUR,ATNUR,MAHARASHTRA,271333
132,Maharashtra Gramin Bank,MAHG0004306,BELKUND,AT BELKUND TQ AUSA DIST LATUR,LATUR,BELKUND,MAHARASHTRA,221444
133,Maharashtra Gramin Bank,MAHG0004307,AUSA,AT AUSA TQ AUSA DIST LATUR,LATUR,AUSA,MAHARASHTRA,222364
134,Maharashtra Gramin Bank,MAHG0004308,BORI L,AT BORI L TQ LATUR DIST LATUR,LATUR,BORI L,MAHARASHTRA,260688
135,Maharashtra Gramin Bank,MAHG0004309,BORUL,AT BORUL TQ DEVANI DIST LATUR,LATUR,BORUL,MAHARASHTRA,262340
136,Maharashtra Gramin Bank,MAHG0004310,CHAPOLI,AT CHAPOLI TQ CHAKUR DIST LATUR,LATUR,CHAPOLI,MAHARASHTRA,257567
137,Maharashtra Gramin Bank,MAHG0004311,CHINCHOLI PAN,AT CHINCHOLI PAN TQ NILANGA DIST LATUR,LATUR,CHINCHOLI PAN,MAHARASHTRA,263522
138,Maharashtra Gramin Bank,MAHG0004312,DEVARJAN,AT DEVARJAN TQ UDGIR DIST LATUR,LATUR,DEVARJAN,MAHARASHTRA,265077
139,Maharashtra Gramin Bank,MAHG0004313,CHAKUR,AT CHAKUR TQ CHAKUR DIST LATUR,LATUR,CHAKUR,MAHARASHTRA,252088
140,Maharashtra Gramin Bank,MAHG0004314,AURADSHAHJANI,AT AURADSHAHJANI TQ NILANGA DIST LATUR,LATUR,AURADSHAHJANI,MAHARASHTRA,245981
141,Maharashtra Gramin Bank,MAHG0004315,HALI,AT HALI TQ UDGIR DIST LATUR,LATUR,HALI,MAHARASHTRA,264037
142,Maharashtra Gramin Bank,MAHG0004316,UDGIR,AT UDGIR TQ UDGIR DIST LATUR,LATUR,UDGIR,MAHARASHTRA,257590
143,Maharashtra Gramin Bank,MAHG0004317,SHIVAJI CHOWK LATUR,AT SHIVAJI CHOWK LATUR TQ LATUR DIST LATUR,LATUR,SHIVAJI CHOWK LATUR,MAHARASHTRA,224696
144,Maharashtra Gramin Bank,MAHG0004318,JALKOT U,AT JALKOT U TQ JALKOT DIST LATUR,LATUR,JALKOT U,MAHARASHTRA,276176
145,Maharashtra Gramin Bank,MAHG0004319,JAWLA BK,AT JAWLA BK TQ LATUR DIST LATUR,LATUR,JAWLA BK,MAHARASHTRA,275622
146,Maharashtra Gramin Bank,MAHG0004320,KADEPUR,AT KADEPUR TQ RENAPUR DIST LATUR,LATUR,KADEPUR,MAHARASHTRA,207208
147,Maharashtra Gramin Bank,MAHG0004321,KASAR BALKUNDA,AT KASAR BALKUNDA TQ NILANGA DIST LATUR,LATUR,KASAR BALKUNDA,MAHARASHTRA,266751
148,Maharashtra Gramin Bank,MAHG0004322,KASAR SHIRSHI,AT KASAR SHIRSHI TQ NILANGA DIST LATUR,LATUR,KASAR SHIRSHI,MAHARASHTRA,262657
149,Maharashtra Gramin Bank,MAHG0004323,KHADGAON,AT KHADGAON TQ LATUR DIST LATUR,LATUR,KHADGAON,MAHARASHTRA,245415
150,Maharashtra Gramin Bank,MAHG0004324,AHAMADPUR,AT AHAMADPUR TQ AHMADPUR DIST LATUR,LATUR,AHAMADPUR,MAHARASHTRA,262396
151,Maharashtra Gramin Bank,MAHG0004325,KHAROLA,AT KHAROLA TQ RENAPUR DIST LATUR,LATUR,KHAROLA,MAHARASHTRA,235876
152,Maharashtra Gramin Bank,MAHG0004326,KHAROSA,AT KHAROSA TQ AUSA DIST LATUR,LATUR,KHAROSA,MAHARASHTRA,239535
153,Maharashtra Gramin Bank,MAHG0004327,KINGAON,AT KINGAON TQ AHMADPUR DIST LATUR,LATUR,KINGAON,MAHARASHTRA,268504
154,Maharashtra Gramin Bank,MAHG0004328,NAGALGAON,AT NAGALGAON TQ UDGIR DIST LATUR,LATUR,NAGALGAON,MAHARASHTRA,234550
155,Maharashtra Gramin Bank,MAHG0004329,NALGIR,AT NALGIR TQ UDGIR DIST LATUR,LATUR,NALGIR,MAHARASHTRA,263017
156,Maharashtra Gramin Bank,MAHG0004330,SHIRUR TAJBAND,AT SHIRUR TAJBAND TQ AHMADPUR DIST LATUR,LATUR,SHIRUR TAJBAND,MAHARASHTRA,220176
157,Maharashtra Gramin Bank,MAHG0004331,TANDULJA,AT TANDULJA TQ LATUR DIST LATUR,LATUR,TANDULJA,MAHARASHTRA,273659
158,Maharashtra Gramin Bank,MAHG0004332,WADHONA,AT WADHONA TQ UDGIR DIST LATUR,LATUR,WADHONA,MAHARASHTRA,268273
159,Maharashtra Gramin Bank,MAHG0004333,WADWAL NAGNATH,AT WADWAL NAGNATH TQ CHAKUR DIST LATUR,LATUR,WADWAL NAGNATH,MAHARASHTRA,255673
160,Maharashtra Gramin Bank,MAHG0004334,WALANDI,AT WALANDI TQ DEVANI DIST LATUR,LATUR,WALANDI,MAHARASHTRA,266179
161,Maharashtra Gramin Bank,MAHG0004335,WANJARWADA,AT WANJARWADA TQ JALKOT DIST LATUR,LATUR,WANJARWADA,MAHARASHTRA,272732
162,Maharashtra Gramin Bank,MAHG0004336,BHUISAMUDRA,AT BHUISAMUDRA TQ LATUR DIST LATUR,LATUR,BHUISAMUDRA,MAHARASHTRA,204200
163,Maharashtra Gramin Bank,MAHG0004337,NILANGA,AT NILANGA TQ NILANGA DIST LATUR,LATUR,NILANGA,MAHARASHTRA,242538
164,Maharashtra Gramin Bank,MAHG0004338,NALEGAON,AT NALEGAON TQ CHAKUR DIST LATUR,LATUR,NALEGAON,MAHARASHTRA,256709
165,Maharashtra Gramin Bank,MAHG0004339,DEVANI,AT DEVANI TQ DEVANI DIST LATUR,LATUR,DEVANI,MAHARASHTRA,269918
166,Maharashtra Gramin Bank,MAHG0004340,GANJGOLAI LATUR,AT GANJGOLAI LATUR TQ LATUR DIST LATUR,LATUR,GANJGOLAI LATUR,MAHARASHTRA,259743
167,Maharashtra Gramin Bank,MAHG0004341,SHIRUR ANANTPAL,AT SHIRUR ANANTPAL TQ SHIRUR ANANTPA DIST LATUR,LATUR,SHIRUR ANANTPAL,MAHARASHTRA,250500
168,Maharashtra Gramin Bank,MAHG0004342,RENAPUR,AT RENAPUR TQ RENAPUR DIST LATUR,LATUR,RENAPUR,MAHARASHTRA,233076
169,Maharashtra Gramin Bank,MAHG0004343,PANGAON,AT PANGAON TQ RENAPUR DIST LATUR,LATUR,PANGAON,MAHARASHTRA,236136
170,Maharashtra Gramin Bank,MAHG0004344,VASANTRAO NAIK CHOWK LATUR,AT VASANTRAO NAIK CHOWK LATUR TQ LATUR DIST LATUR,LATUR,VASANTRAO NAIK CHOWK LATUR,MAHARASHTRA,256708
171,Maharashtra Gramin Bank,MAHG0004401,ALOOR,AT ALOOR TQ OMERGA DIST OSMANABAD,OSMANABAD,ALOOR,MAHARASHTRA,264049
172,Maharashtra Gramin Bank,MAHG0004402,ANALA,AT ANALA TQ PARANDA DIST OSMANABAD,OSMANABAD,ANALA,MAHARASHTRA,234051
173,Maharashtra Gramin Bank,MAHG0004403,ASHTA KASAR,AT ASHTA KASAR TQ OMERGA DIST OSMANABAD,OSMANABAD,ASHTA KASAR,MAHARASHTRA,259046
174,Maharashtra Gramin Bank,MAHG0004404,BEMBLI,AT BEMBLI TQ OSMANABAD DIST OSMANABAD,OSMANABAD,BEMBLI,MAHARASHTRA,235188
175,Maharashtra Gramin Bank,MAHG0004405,GUNJOTI,AT GUNJOTI TQ OMERGA DIST OSMANABAD,OSMANABAD,GUNJOTI,MAHARASHTRA,253937
176,Maharashtra Gramin Bank,MAHG0004406,KALAMB,AT KALAMB TQ KALAMB DIST OSMANABAD,OSMANABAD,KALAMB,MAHARASHTRA,262582
177,Maharashtra Gramin Bank,MAHG0004407,JALKOT T,AT JALKOT T TQ TULJAPUR DIST OSMANABAD,OSMANABAD,JALKOT T,MAHARASHTRA,250509
178,Maharashtra Gramin Bank,MAHG0004409,JEVLI,AT JEVLI TQ LOHARA DIST OSMANABAD,OSMANABAD,JEVLI,MAHARASHTRA,263439
179,Maharashtra Gramin Bank,MAHG0004410,KATI,AT KATI TQ TULJAPUR DIST OSMANABAD,OSMANABAD,KATI,MAHARASHTRA,260532
180,Maharashtra Gramin Bank,MAHG0004411,KHAMASWADI,AT KHAMASWADI TQ KALAMB DIST OSMANABAD,OSMANABAD,KHAMASWADI,MAHARASHTRA,285631
181,Maharashtra Gramin Bank,MAHG0004412,KOND,AT KOND TQ OSMANABAD DIST OSMANABAD,OSMANABAD,KOND,MAHARASHTRA,243187
182,Maharashtra Gramin Bank,MAHG0004413,LOHARA,AT LOHARA TQ LOHARA DIST OSMANABAD,OSMANABAD,LOHARA,MAHARASHTRA,266591
183,Maharashtra Gramin Bank,MAHG0004414,MAKNI,AT MAKNI TQ LOHARA DIST OSMANABAD,OSMANABAD,MAKNI,MAHARASHTRA,260047
184,Maharashtra Gramin Bank,MAHG0004415,TULJAPUR,AT TULJAPUR TQ TULJAPUR DIST OSMANABAD,OSMANABAD,TULJAPUR,MAHARASHTRA,242760
185,Maharashtra Gramin Bank,MAHG0004416,MANKESHWAR,AT MANKESHWAR TQ BHOOM DIST OSMANABAD,OSMANABAD,MANKESHWAR,MAHARASHTRA,278855
186,Maharashtra Gramin Bank,MAHG0004417,MASSA,AT MASSA TQ KALAMB DIST OSMANABAD,OSMANABAD,MASSA,MAHARASHTRA,269550
187,Maharashtra Gramin Bank,MAHG0004418,MOHA K,AT MOHA K TQ KALAMB DIST OSMANABAD,OSMANABAD,MOHA K,MAHARASHTRA,260390
188,Maharashtra Gramin Bank,MAHG0004419,NAICHAKUR,AT NAICHAKUR TQ OMERGA DIST OSMANABAD,OSMANABAD,NAICHAKUR,MAHARASHTRA,288001
189,Maharashtra Gramin Bank,MAHG0004420,OSMANABAD,AT OSMANABAD TQ OSMANABAD DIST OSMANABAD,OSMANABAD,OSMANABAD,MAHARASHTRA,223418
190,Maharashtra Gramin Bank,MAHG0004421,PARA,AT PARA TQ WASHI DIST OSMANABAD,OSMANABAD,PARA,MAHARASHTRA,271524
191,Maharashtra Gramin Bank,MAHG0004422,PARANDA,AT PARANDA TQ PARANDA DIST OSMANABAD,OSMANABAD,PARANDA,MAHARASHTRA,232169
192,Maharashtra Gramin Bank,MAHG0004423,PATHRUD,AT PATHRUD TQ BHOOM DIST OSMANABAD,OSMANABAD,PATHRUD,MAHARASHTRA,274508
193,Maharashtra Gramin Bank,MAHG0004424,SALGARA,AT SALGARA TQ TULJAPUR DIST OSMANABAD,OSMANABAD,SALGARA,MAHARASHTRA,263285
194,Maharashtra Gramin Bank,MAHG0004425,SAMUDRAWANI,AT SAMUDRAWANI TQ OSMANABAD DIST OSMANABAD,OSMANABAD,SAMUDRAWANI,MAHARASHTRA,234081
195,Maharashtra Gramin Bank,MAHG0004426,SASTUR,AT SASTUR TQ OMERGA DIST OSMANABAD,OSMANABAD,SASTUR,MAHARASHTRA,259550
196,Maharashtra Gramin Bank,MAHG0004428,SHELGAON P,AT SHELGAON P TQ PARANDA DIST OSMANABAD,OSMANABAD,SHELGAON P,MAHARASHTRA,234653
197,Maharashtra Gramin Bank,MAHG0004429,SHIRADHON,AT SHIRADHON TQ KALAMB DIST OSMANABAD,OSMANABAD,SHIRADHON,MAHARASHTRA,261150
198,Maharashtra Gramin Bank,MAHG0004430,TER,AT TER TQ OSMANABAD DIST OSMANABAD,OSMANABAD,TER,MAHARASHTRA,233348
199,Maharashtra Gramin Bank,MAHG0004431,TURORI,AT TURORI TQ OMERGA DIST OSMANABAD,OSMANABAD,TURORI,MAHARASHTRA,254277
200,Maharashtra Gramin Bank,MAHG0004432,WAGHOLI,AT WAGHOLI TQ OSMANABAD DIST OSMANABAD,OSMANABAD,WAGHOLI,MAHARASHTRA,244500
201,Maharashtra Gramin Bank,MAHG0004433,BHOOM,AT BHOOM TQ BHOOM DIST OSMANABAD,OSMANABAD,BHOOM,MAHARASHTRA,272229
202,Maharashtra Gramin Bank,MAHG0004434,WASHI,AT WASHI TQ WASHI DIST OSMANABAD,OSMANABAD,WASHI,MAHARASHTRA,276189
203,Maharashtra Gramin Bank,MAHG0004435,ANANDNAGAR OSMANABAD,AT ANANDNAGAR OSMANABAD TQ OSMANABAD DIST OSMANABAD,OSMANABAD,ANANDNAGAR OSMANABAD,MAHARASHTRA,224730
204,Maharashtra Gramin Bank,MAHG0004436,OMERGA,AT OMERGA TQ OMERGA DIST OSMANABAD,OSMANABAD,OMERGA,MAHARASHTRA,252723
205,Maharashtra Gramin Bank,MAHG0004437,NALDURG,AT NALDURG TQ TULJAPUR DIST OSMANABAD,OSMANABAD,NALDURG,MAHARASHTRA,246600
206,Maharashtra Gramin Bank,MAHG0004438,SANJA,AT SANJA TQ OSMANABAD DIST OSMANABAD,OSMANABAD,SANJA,MAHARASHTRA,223416
207,Maharashtra Gramin Bank,MAHG0004439,SANGAVI KATI,MAHARASHTRA GRAMIN BANK AT POST KATI SAWANGI HOUSE OF SHREE DEVIDAS SANGVIKAR KATI SAWANGI OSMANABAD,OSMANABAD,OSMANABAD,MAHARASHTRA,9028202025
208,Maharashtra Gramin Bank,MAHG0004500,REGIONAL OFFICE BEED,REGIONAL OFFICE BEED SUBHASH ROAD BEED TQ DIST BEED,BEED,BEED,MAHARASHTRA,228938
209,Maharashtra Gramin Bank,MAHG0004501,ADAS,AT ADAS TQ KAIJ DIST BEED,BEED,ADAS,MAHARASHTRA,275537
210,Maharashtra Gramin Bank,MAHG0004502,APEGAON,AT APEGAON TQ AMBAJOGAI DIST BEED,BEED,APEGAON,MAHARASHTRA,253503
211,Maharashtra Gramin Bank,MAHG0004503,BARDAPUR,AT BARDAPUR TQ AMBAJOGAI DIST BEED,BEED,BARDAPUR,MAHARASHTRA,271330
212,Maharashtra Gramin Bank,MAHG0004504,BEED,AT BEED TQ BEED DIST BEED,BEED,BEED,MAHARASHTRA,222698
213,Maharashtra Gramin Bank,MAHG0004506,KADA,AT KADA TQ ASHTI DIST BEED,BEED,KADA,MAHARASHTRA,239790
214,Maharashtra Gramin Bank,MAHG0004507,CHAKLAMBA,AT CHAKLAMBA TQ GEORAI DIST BEED,BEED,CHAKLAMBA,MAHARASHTRA,258163
215,Maharashtra Gramin Bank,MAHG0004508,CHINCHOLI MALI,AT CHINCHOLI MALI TQ KAIJ DIST BEED,BEED,CHINCHOLI MALI,MAHARASHTRA,235501
216,Maharashtra Gramin Bank,MAHG0004509,DEOLA,AT DEOLA TQ WADWANI DIST BEED,BEED,DEOLA,MAHARASHTRA,271617
217,Maharashtra Gramin Bank,MAHG0004510,DHAMANGAON,AT DHAMANGAON TQ ASHTI DIST BEED,BEED,DHAMANGAON,MAHARASHTRA,224696
218,Maharashtra Gramin Bank,MAHG0004511,DHARMAPURI,AT DHARMAPURI TQ PARALI DIST BEED,BEED,DHARMAPURI,MAHARASHTRA,254073
219,Maharashtra Gramin Bank,MAHG0004512,DINDRUD,AT DINDRUD TQ MAJALGAON DIST BEED,BEED,DINDRUD,MAHARASHTRA,244558
220,Maharashtra Gramin Bank,MAHG0004513,DONGARKINI,AT DONGARKINI TQ PATODA DIST BEED,BEED,DONGARKINI,MAHARASHTRA,248481
221,Maharashtra Gramin Bank,MAHG0004514,EDDA,AT EDDA TQ KAIJ DIST BEED,BEED,EDDA,MAHARASHTRA,234609
222,Maharashtra Gramin Bank,MAHG0004515,MAJALGAON,AT MAJALGAON TQ MAJALGAON DIST BEED,BEED,MAJALGAON,MAHARASHTRA,234723
223,Maharashtra Gramin Bank,MAHG0004516,GHATNANDUR,AT GHATNANDUR TQ AMBAJOGAI DIST BEED,BEED,GHATNANDUR,MAHARASHTRA,242580
224,Maharashtra Gramin Bank,MAHG0004517,HOAL,AT HOAL TQ KAIJ DIST BEED,BEED,HOAL,MAHARASHTRA,237601
225,Maharashtra Gramin Bank,MAHG0004518,JATEGAON,AT JATEGAON TQ GEORAI DIST BEED,BEED,JATEGAON,MAHARASHTRA,255510
226,Maharashtra Gramin Bank,MAHG0004519,KAIJ,AT KAIJ TQ KAIJ DIST BEED,BEED,KAIJ,MAHARASHTRA,252336
227,Maharashtra Gramin Bank,MAHG0004520,WADWANI,AT WADWANI TQ WADWANI DIST BEED,BEED,WADWANI,MAHARASHTRA,257642
228,Maharashtra Gramin Bank,MAHG0004521,UMAPUR,AT UMAPUR TQ GEORAI DIST BEED,BEED,UMAPUR,MAHARASHTRA,267056
229,Maharashtra Gramin Bank,MAHG0004522,KITTI ADGAON,AT KITTI ADGAON TQ MAJALGAON DIST BEED,BEED,KITTI ADGAON,MAHARASHTRA,247646
230,Maharashtra Gramin Bank,MAHG0004523,KOLGAON,AT KOLGAON TQ GEORAI DIST BEED,BEED,KOLGAON,MAHARASHTRA,203510
231,Maharashtra Gramin Bank,MAHG0004524,KUSLAMB,AT KUSLAMB TQ PATODA DIST BEED,BEED,KUSLAMB,MAHARASHTRA,244169
232,Maharashtra Gramin Bank,MAHG0004525,LIMBAGANESH,AT LIMBAGANESH TQ BEED DIST BEED,BEED,LIMBAGANESH,MAHARASHTRA,251853
233,Maharashtra Gramin Bank,MAHG0004526,MOHA M,AT MOHA M TQ PARALI DIST BEED,BEED,MOHA M,MAHARASHTRA,267459
234,Maharashtra Gramin Bank,MAHG0004527,NANDURGHAT,AT NANDURGHAT TQ KAIJ DIST BEED,BEED,NANDURGHAT,MAHARASHTRA,231506
235,Maharashtra Gramin Bank,MAHG0004529,TELGAON,AT TELGAON TQ WADWANI DIST BEED,BEED,TELGAON,MAHARASHTRA,241537
236,Maharashtra Gramin Bank,MAHG0004530,PADALSINGI,AT PADALSINGI TQ GEORAI DIST BEED,BEED,PADALSINGI,MAHARASHTRA,256621
237,Maharashtra Gramin Bank,MAHG0004531,PATODA AMBA,AT PATODA AMBA TQ AMBAJOGAI DIST BEED,BEED,PATODA AMBA,MAHARASHTRA,255563
238,Maharashtra Gramin Bank,MAHG0004532,PIMPALNER B,AT PIMPALNER B TQ BEED DIST BEED,BEED,PIMPALNER B,MAHARASHTRA,203160
239,Maharashtra Gramin Bank,MAHG0004533,SHIRUR KASAR,AT SHIRUR KASAR TQ SHIRUR KASAR DIST BEED,BEED,SHIRUR KASAR,MAHARASHTRA,259514
240,Maharashtra Gramin Bank,MAHG0004534,PIMPLA,AT PIMPLA TQ ASHTI DIST BEED,BEED,PIMPLA,MAHARASHTRA,254513
241,Maharashtra Gramin Bank,MAHG0004535,POHNER,AT POHNER TQ PARALI DIST BEED,BEED,POHNER,MAHARASHTRA,203170
242,Maharashtra Gramin Bank,MAHG0004536,RAIMOHA,AT RAIMOHA TQ SHIRUR DIST BEED,BEED,RAIMOHA,MAHARASHTRA,258581
243,Maharashtra Gramin Bank,MAHG0004537,RAJURI BK,AT RAJURI BK TQ BEED DIST BEED,BEED,RAJURI BK,MAHARASHTRA,255558
244,Maharashtra Gramin Bank,MAHG0004538,SHIRAL,AT SHIRAL TQ ASHTI DIST BEED,BEED,SHIRAL,MAHARASHTRA,234643
245,Maharashtra Gramin Bank,MAHG0004539,GEORAI,AT GEORAI TQ GEORAI DIST BEED,BEED,GEORAI,MAHARASHTRA,262791
246,Maharashtra Gramin Bank,MAHG0004540,SIRSALA,AT SIRSALA TQ PARALI DIST BEED,BEED,SIRSALA,MAHARASHTRA,262457
247,Maharashtra Gramin Bank,MAHG0004541,TAKARWAN,AT TAKARWAN TQ MAJALGAON DIST BEED,BEED,TAKARWAN,MAHARASHTRA,245386
248,Maharashtra Gramin Bank,MAHG0004542,TALWADA,AT TALWADA TQ GEORAI DIST BEED,BEED,TALWADA,MAHARASHTRA,252022
249,Maharashtra Gramin Bank,MAHG0004544,WADGAON DAULA,AT WADGAON DAULA TQ ASHTI DIST BEED,BEED,WADGAON DAULA,MAHARASHTRA,202316
250,Maharashtra Gramin Bank,MAHG0004545,NEKNOOR,AT NEKNOOR TQ BEED DIST BEED,BEED,NEKNOOR,MAHARASHTRA,250585
251,Maharashtra Gramin Bank,MAHG0004546,YUSUF WADGAON,AT YUSUF WADGAON TQ KAIJ DIST BEED,BEED,YUSUF WADGAON,MAHARASHTRA,232756
252,Maharashtra Gramin Bank,MAHG0004547,AMBAJOGAI,AT AMBAJOGAI TQ AMBAJOGAI DIST BEED,BEED,AMBAJOGAI,MAHARASHTRA,248172
253,Maharashtra Gramin Bank,MAHG0004548,PARALI,AT PARALI TQ PARALI DIST BEED,BEED,PARALI,MAHARASHTRA,223408
254,Maharashtra Gramin Bank,MAHG0004549,PATODA,AT PATODA TQ PATODA DIST BEED,BEED,PATODA,MAHARASHTRA,242406
255,Maharashtra Gramin Bank,MAHG0004550,DHARUR,AT DHARUR TQ DHARUR DIST BEED,BEED,DHARUR,MAHARASHTRA,274040
256,Maharashtra Gramin Bank,MAHG0004551,ASHTI,AT ASHTI TQ ASHTI DIST BEED,BEED,ASHTI,MAHARASHTRA,282173
257,Maharashtra Gramin Bank,MAHG0004552,DHANORA ROAD BEED,AT DHANORA ROAD BEED TQ BEED DIST BEED,BEED,DHANORA ROAD BEED,MAHARASHTRA,236693
258,Maharashtra Gramin Bank,MAHG0004553,MOREWADI,AT MOREWADI TQ AMBAJOGAI DIST BEED,BEED,MOREWADI,MAHARASHTRA,246088
259,Maharashtra Gramin Bank,MAHG0004554,KHALAPURI,AT KHALAPURI TQ SHIRUR KASAR DIST BEED,BEED,KHALAPURI,MAHARASHTRA,268265
260,Maharashtra Gramin Bank,MAHG0004601,WAGHOLI P,AT WAGHOLI P TQ HAVELI DIST PUNE,PUNE,WAGHOLI P,MAHARASHTRA,52550
261,Maharashtra Gramin Bank,MAHG0004602,SANASWADI,AT SANASWADI TQ SHIRUR DIST PUNE,PUNE,SANASWADI,MAHARASHTRA,253570
262,Maharashtra Gramin Bank,MAHG0004603,KADAMWAKWASTI,AT KADAMWAKWASTI TQ HAVELI DIST PUNE,PUNE,KADAMWAKWASTI,MAHARASHTRA,912025
263,Maharashtra Gramin Bank,MAHG0004604,BORI PARDHI,AT BORI PARDHI TQ DAUND DIST PUNE,PUNE,BORI PARDHI,MAHARASHTRA,223022
264,Maharashtra Gramin Bank,MAHG0004605,KANHE,AT KANHE TQ WADGAONMAVAL DIST PUNE,PUNE,KANHE,MAHARASHTRA,255014
265,Maharashtra Gramin Bank,MAHG0004606,PERNE,AT PERNE TQ HAVELI DIST PUNE,PUNE,PERNE,MAHARASHTRA,287116
266,Maharashtra Gramin Bank,MAHG0004607,URALI DEVACHI,AT URALI DEVACHI TQ HAVELI DIST PUNE,PUNE,URALI DEVACHI,MAHARASHTRA,266277
267,Maharashtra Gramin Bank,MAHG0004608,KUNJARWADI,AT KUNJARWADI TQ HAVELI DIST PUNE,PUNE,KUNJARWADI,MAHARASHTRA,913956
268,Maharashtra Gramin Bank,MAHG0004609,LOHAGAON PUNE,AT LOHAGAON PUNE TQ HAVELI DIST PUNE,PUNE,LOHAGAON PUNE,MAHARASHTRA,261333
269,Maharashtra Gramin Bank,MAHG0004610,BAHUL,AT BAHUL TQ KHED DIST PUNE,PUNE,BAHUL,MAHARASHTRA,25344059
270,Maharashtra Gramin Bank,MAHG0004611,KONDWE DHAWADE,AT KONDWE DHAWADE TQ HAVELI DIST PUNE,PUNE,KONDWE DHAWADE,MAHARASHTRA,292535
271,Maharashtra Gramin Bank,MAHG0004612,KARANDI,AT KARANDI TQ SHIRUR DIST PUNE,PUNE,KARANDI,MAHARASHTRA,25344059
272,Maharashtra Gramin Bank,MAHG0004614,KESHAVNAGAR,AT KESHAVNAGAR TQ HAVELI DIST PUNE,PUNE,KESHAVNAGAR,MAHARASHTRA,20263111
273,Maharashtra Gramin Bank,MAHG0004615,SHIRASWADI,AT SHIRASWADI TQ HAVELI DIST PUNE,PUNE,SHIRASWADI,MAHARASHTRA,25344059
274,Maharashtra Gramin Bank,MAHG0004616,MEDANKARWADI,AT MEDANKARWADI TQ DIST PUNE,PUNE,MEDANKARWADI,MAHARASHTRA,204202
275,Maharashtra Gramin Bank,MAHG0004617,KOYALI,AT KOYALI TQ DIST PUNE,PUNE,KOYALI,MAHARASHTRA,25344059
276,Maharashtra Gramin Bank,MAHG0004618,NARHE,SHOP NO 101 VARAD VINAYAK COMPLEX SURVEY NO 26 1 NARHE DHAYRI ROAD NARHE TQ HAVILI DIST PUNE,PUNE,NARHE,MAHARASHTRA,25435154
277,Maharashtra Gramin Bank,MAHG0004619,INDAPUR,INDYAYANI PLAZA MIDDLE AKLUJ ROAD VYANKETESHNAGAR INDAPUR TALUKA INDAPUR,PUNE,PUNE,MAHARASHTRA,25344059
278,Maharashtra Gramin Bank,MAHG0004620,BHUGAON,HOUSE NO 862 PUNE PAUD ROAD BHUGAON PO BHUGAON TALUKA MULSHI,PUNE,PUNE,MAHARASHTRA,25344059
279,Maharashtra Gramin Bank,MAHG0004621,SHIRUR GHODNADI,"MAHARASHTRA GRAMIN BANK, SHIRUR BRANCH, SURVEY NO 1148/2, OXI GOLD BABURAO NAGAR PUNE-AHMEDNAGAR ROAD SHIRUR TALUKA SHIRUR DIST. PUNE 412210",PUNE,AHMEDNAGAR,MAHARASHTRA,2476139
280,Maharashtra Gramin Bank,MAHG0005100,REGIONAL OFFICE AURANGABAD,REGIONAL OFFICE AURANGABAD SAMARTHNAGAR 108 JIVANGANGA SAMARTHANAGAR AURANGABAD,AURANGABAD,AURANGABAD,MAHARASHTRA,2476139
281,Maharashtra Gramin Bank,MAHG0005101,GARKHEDA ROAD AURANGABAD,AT GARKHEDA ROAD AURANGABAD TQ DIST AURANGABAD,AURANGABAD,GARKHEDA ROAD AURANGABAD,MAHARASHTRA,2338252
282,Maharashtra Gramin Bank,MAHG0005102,WALUJ,AT WALUJ TQ DIST AURANGABAD,AURANGABAD,WALUJ,MAHARASHTRA,2564523
283,Maharashtra Gramin Bank,MAHG0005103,BALANAGAR,AT BALANAGAR TQ DIST AURANGABAD,AURANGABAD,BALANAGAR,MAHARASHTRA,261053
284,Maharashtra Gramin Bank,MAHG0005104,GALLEBORGAON,AT GALLEBORGAON TQ DIST AURANGABAD,AURANGABAD,GALLEBORGAON,MAHARASHTRA,243513
285,Maharashtra Gramin Bank,MAHG0005105,KHANDALA,AT KHANDALA TQ DIST AURANGABAD,AURANGABAD,KHANDALA,MAHARASHTRA,281325
286,Maharashtra Gramin Bank,MAHG0005106,PARSODA,AT PARSODA TQ DIST AURANGABAD,AURANGABAD,PARSODA,MAHARASHTRA,283373
287,Maharashtra Gramin Bank,MAHG0005107,LONI KH,AT LONI KH TQ DIST AURANGABAD,AURANGABAD,LONI KH,MAHARASHTRA,288329
288,Maharashtra Gramin Bank,MAHG0005109,LADSAVANGI,AT LADSAVANGI TQ DIST AURANGABAD,AURANGABAD,LADSAVANGI,MAHARASHTRA,626645
289,Maharashtra Gramin Bank,MAHG0005110,SHIVNA,AT SHIVNA TQ DIST AURANGABAD,AURANGABAD,SHIVNA,MAHARASHTRA,289408
290,Maharashtra Gramin Bank,MAHG0005111,KARMAD,AT KARMAD TQ DIST AURANGABAD,AURANGABAD,KARMAD,MAHARASHTRA,623339
291,Maharashtra Gramin Bank,MAHG0005112,PANVADOD,AT PANVADOD TQ DIST AURANGABAD,AURANGABAD,PANVADOD,MAHARASHTRA,287317
292,Maharashtra Gramin Bank,MAHG0005113,GHATNANDRA,AT GHATNANDRA TQ DIST AURANGABAD,AURANGABAD,GHATNANDRA,MAHARASHTRA,287456
293,Maharashtra Gramin Bank,MAHG0005114,NACHANVEL,AT NACHANVEL TQ DIST AURANGABAD,AURANGABAD,NACHANVEL,MAHARASHTRA,239452
294,Maharashtra Gramin Bank,MAHG0005115,PHULAMBRI,AT PHULAMBRI TQ DIST AURANGABAD,AURANGABAD,PHULAMBRI,MAHARASHTRA,634091
295,Maharashtra Gramin Bank,MAHG0005116,SHENDURWADA,AT SHENDURWADA TQ DIST AURANGABAD,AURANGABAD,SHENDURWADA,MAHARASHTRA,235854
296,Maharashtra Gramin Bank,MAHG0005118,CHITTEPIMPALGAON,AT CHITTEPIMPALGAON TQ DIST AURANGABAD,AURANGABAD,CHITTEPIMPALGAON,MAHARASHTRA,643622
297,Maharashtra Gramin Bank,MAHG0005120,LASUR STATION,AT LASUR STATION TQ DIST AURANGABAD,AURANGABAD,LASUR STATION,MAHARASHTRA,241548
298,Maharashtra Gramin Bank,MAHG0005121,SHEKTA,AT SHEKTA TQ DIST AURANGABAD,AURANGABAD,SHEKTA,MAHARASHTRA,624454
299,Maharashtra Gramin Bank,MAHG0005122,BABRA,AT BABRA TQ DIST AURANGABAD,AURANGABAD,BABRA,MAHARASHTRA,285342
300,Maharashtra Gramin Bank,MAHG0005123,AMBHAI,AT AMBHAI TQ DIST AURANGABAD,AURANGABAD,AMBHAI,MAHARASHTRA,286342
301,Maharashtra Gramin Bank,MAHG0005124,MAHALGAON,AT MAHALGAON TQ DIST AURANGABAD,AURANGABAD,MAHALGAON,MAHARASHTRA,282327
302,Maharashtra Gramin Bank,MAHG0005125,GANGAPUR,AT GANGAPUR TQ DIST AURANGABAD,AURANGABAD,GANGAPUR,MAHARASHTRA,220597
303,Maharashtra Gramin Bank,MAHG0005126,JARANDI,AT JARANDI TQ DIST AURANGABAD,AURANGABAD,JARANDI,MAHARASHTRA,264965
304,Maharashtra Gramin Bank,MAHG0005127,VAIJAPUR,AT VAIJAPUR TQ DIST AURANGABAD,AURANGABAD,VAIJAPUR,MAHARASHTRA,222512
305,Maharashtra Gramin Bank,MAHG0005128,SAWALATBARA,AT SAWALATBARA TQ DIST AURANGABAD,AURANGABAD,SAWALATBARA,MAHARASHTRA,245130
306,Maharashtra Gramin Bank,MAHG0005129,SAMARTHNAGAR AURANGABAD,AT SAMARTHNAGAR AURANGABAD TQ DIST AURANGABAD,AURANGABAD,SAMARTHNAGAR AURANGABAD,MAHARASHTRA,223952
307,Maharashtra Gramin Bank,MAHG0005130,SILLOD,AT SILLOD TQ DIST AURANGABAD,AURANGABAD,SILLOD,MAHARASHTRA,2343606
308,Maharashtra Gramin Bank,MAHG0005131,MUKUNDWADI AURANGABAD,AT MUKUNDWADI AURANGABAD TQ DIST AURANGABAD,AURANGABAD,MUKUNDWADI AURANGABAD,MAHARASHTRA,2487785
309,Maharashtra Gramin Bank,MAHG0005132,SHIVAJINAGAR SATARAPARISAR AURANGABAD,AT SHIVAJINAGAR SATARAPARISAR AURANGABAD TQ DIST AURANGABAD,AURANGABAD,SHIVAJINAGAR SATARAPARISAR AURANGABAD,MAHARASHTRA,2451232
310,Maharashtra Gramin Bank,MAHG0005133,KANNAD,AT KANNAD TQ DIST AURANGABAD,AURANGABAD,KANNAD,MAHARASHTRA,222229
311,Maharashtra Gramin Bank,MAHG0005134,PAITHAN,AT PAITHAN TQ DIST AURANGABAD,AURANGABAD,PAITHAN,MAHARASHTRA,223366
312,Maharashtra Gramin Bank,MAHG0005135,SATARA,AT SATARA TQ DIST AURANGABAD,AURANGABAD,SATARA,MAHARASHTRA,2653100
313,Maharashtra Gramin Bank,MAHG0005136,BIDKIN,AT BIDKIN TQ DIST AURANGABAD,AURANGABAD,BIDKIN,MAHARASHTRA,241017
314,Maharashtra Gramin Bank,MAHG0005137,ALAND,AT ALAND TQ DIST AURANGABAD,AURANGABAD,ALAND,MAHARASHTRA,284667
315,Maharashtra Gramin Bank,MAHG0005138,RANJANGAON,AT RANJANGAON TQ DIST AURANGABAD,AURANGABAD,RANJANGAON,MAHARASHTRA,2553309
316,Maharashtra Gramin Bank,MAHG0005139,RASHMINAGAR,"PLOT NO 18, SURVEY NO 179/5/A, RASHMINAGAR, NEAR AUDITORS SOCIETY, HARSUL T-POINT, AURANGABAD 431008",AURANGABAD,AURANGABAD,MAHARASHTRA,2476139
317,Maharashtra Gramin Bank,MAHG0005140,ADUL,AURANGABAD-BEED HIGH-WAY AT POST ADUL TQ PAITHAN,AURANGABAD,ADUL,MAHARASHTRA,9823742280
318,Maharashtra Gramin Bank,MAHG0005201,JALNA MAIN,AT JALNA MAIN TQ DIST JALNA,JALNA,JALNA MAIN,MAHARASHTRA,232529
319,Maharashtra Gramin Bank,MAHG0005202,SATONA,AT SATONA TQ DIST JALNA,JALNA,SATONA,MAHARASHTRA,226218
320,Maharashtra Gramin Bank,MAHG0005203,MANTHA,AT MANTHA TQ DIST JALNA,JALNA,MANTHA,MAHARASHTRA,270282
321,Maharashtra Gramin Bank,MAHG0005204,PARTUR MONDHA,AT PARTUR MONDHA TQ DIST JALNA,JALNA,PARTUR MONDHA,MAHARASHTRA,221278
322,Maharashtra Gramin Bank,MAHG0005205,MAHORA,AT MAHORA TQ DIST JALNA,JALNA,MAHORA,MAHARASHTRA,225208
323,Maharashtra Gramin Bank,MAHG0005206,BHOKARDAN,AT BHOKARDAN TQ DIST JALNA,JALNA,BHOKARDAN,MAHARASHTRA,240172
324,Maharashtra Gramin Bank,MAHG0005207,ANWA,AT ANWA TQ DIST JALNA,JALNA,ANWA,MAHARASHTRA,242243
325,Maharashtra Gramin Bank,MAHG0005208,TIRTHPURI,AT TIRTHPURI TQ DIST JALNA,JALNA,TIRTHPURI,MAHARASHTRA,226596
326,Maharashtra Gramin Bank,MAHG0005209,DABHADI,AT DABHADI TQ DIST JALNA,JALNA,DABHADI,MAHARASHTRA,264014
327,Maharashtra Gramin Bank,MAHG0005210,SHELGAON,AT SHELGAON TQ DIST JALNA,JALNA,SHELGAON,MAHARASHTRA,262052
328,Maharashtra Gramin Bank,MAHG0005211,VADIGODRI,AT VADIGODRI TQ DIST JALNA,JALNA,VADIGODRI,MAHARASHTRA,227293
329,Maharashtra Gramin Bank,MAHG0005212,TALNI J,AT TALNI J TQ DIST JALNA,JALNA,TALNI J,MAHARASHTRA,275907
330,Maharashtra Gramin Bank,MAHG0005213,GONDI,AT GONDI TQ DIST JALNA,JALNA,GONDI,MAHARASHTRA,232018
331,Maharashtra Gramin Bank,MAHG0005214,BADNAPUR,AT BADNAPUR TQ DIST JALNA,JALNA,BADNAPUR,MAHARASHTRA,261140
332,Maharashtra Gramin Bank,MAHG0005215,SEVALI,AT SEVALI TQ DIST JALNA,JALNA,SEVALI,MAHARASHTRA,253253
333,Maharashtra Gramin Bank,MAHG0005216,RAMNAGAR,AT RAMNAGAR TQ DIST JALNA,JALNA,RAMNAGAR,MAHARASHTRA,256239
334,Maharashtra Gramin Bank,MAHG0005217,WATURPHATA,AT WATURPHATA TQ DIST JALNA,JALNA,WATURPHATA,MAHARASHTRA,224540
335,Maharashtra Gramin Bank,MAHG0005218,WAGHRUL JAHANGIR,AT WAGHRUL JAHANGIR TQ DIST JALNA,JALNA,WAGHRUL JAHANGIR,MAHARASHTRA,255240
336,Maharashtra Gramin Bank,MAHG0005219,GOLAPANGRI,AT GOLAPANGRI TQ DIST JALNA,JALNA,GOLAPANGRI,MAHARASHTRA,204231
337,Maharashtra Gramin Bank,MAHG0005220,KUMBHAR PIMPALGAON,AT KUMBHAR PIMPALGAON TQ DIST JALNA,JALNA,KUMBHAR PIMPALGAON,MAHARASHTRA,228385
338,Maharashtra Gramin Bank,MAHG0005221,RAJUR GANPATI,AT RAJUR GANPATI TQ DIST JALNA,JALNA,RAJUR GANPATI,MAHARASHTRA,252417
339,Maharashtra Gramin Bank,MAHG0005222,PARTUR CITY,AT PARTUR CITY TQ DIST JALNA,JALNA,PARTUR CITY,MAHARASHTRA,221086
340,Maharashtra Gramin Bank,MAHG0005223,PIMPALGAON RENUKAI,AT PIMPALGAON RENUKAI TQ DIST JALNA,JALNA,PIMPALGAON RENUKAI,MAHARASHTRA,245206
341,Maharashtra Gramin Bank,MAHG0005224,JAFRABAD,AT JAFRABAD TQ DIST JALNA,JALNA,JAFRABAD,MAHARASHTRA,222773
342,Maharashtra Gramin Bank,MAHG0005226,AMBAD,AT AMBAD TQ DIST JALNA,JALNA,AMBAD,MAHARASHTRA,220579
343,Maharashtra Gramin Bank,MAHG0005227,NEW JALNA,AT NEW JALNA TQ DIST JALNA,JALNA,NEW JALNA,MAHARASHTRA,243393
344,Maharashtra Gramin Bank,MAHG0005401,GULMOHAR COLONEY AHMEDNAGAR,AT GULMOHAR COLONEY AHMEDNAGAR TQ DIST AHMEDNAGAR,AHMEDNAGAR,GULMOHAR COLONEY AHMEDNAGAR,MAHARASHTRA,428912
345,Maharashtra Gramin Bank,MAHG0005402,SANGAMNER,AT SANGAMNER TQ DIST AHMEDNAGAR,AHMEDNAGAR,SANGAMNER,MAHARASHTRA,227272
346,Maharashtra Gramin Bank,MAHG0005403,KOPARGAON,AT KOPARGAON TQ DIST AHMEDNAGAR,AHMEDNAGAR,KOPARGAON,MAHARASHTRA,225300
347,Maharashtra Gramin Bank,MAHG0005404,MADHI,AT MADHI TQ DIST AHMEDNAGAR,AHMEDNAGAR,MADHI,MAHARASHTRA,244007
348,Maharashtra Gramin Bank,MAHG0005405,SAROLA KASAR,AT SAROLA KASAR TQ DIST AHMEDNAGAR,AHMEDNAGAR,SAROLA KASAR,MAHARASHTRA,537005
349,Maharashtra Gramin Bank,MAHG0005406,MUKINDPUR NEWASA PHATA,AT MUKINDPUR NEWASA PHATA TQ DIST AHMEDNAGAR,AHMEDNAGAR,MUKINDPUR NEWASA PHATA,MAHARASHTRA,244080
350,Maharashtra Gramin Bank,MAHG0005407,RASHIN,AT RASHIN TQ DIST AHMEDNAGAR,AHMEDNAGAR,RASHIN,MAHARASHTRA,258699
351,Maharashtra Gramin Bank,MAHG0005408,BURHANNAGAR,MAHARASHTRA GRAMIN BANK BURHANNAGAR BRANCH PLOT NO 17 SHRIRAM TAPOVAN ROAD AT PO BURHANNAGAR TALUKA DIST AHMEDNAGAR 414003,AHMEDNAGAR,AHMEDNAGAR,MAHARASHTRA,25344059
352,Maharashtra Gramin Bank,MAHG0005409,NAVNAGAPUR,MAHARASHTRA GRAMIN BANK NAVNAGAPUR BRANCH PMOT NO 11 49 2B HOUSE NO 909 VADGAON GUPTA ROAD GAJANAN COLONY NAVNAGAPUR TALUKA DIST AHMEDNAGAR 414003,AHMEDNAGAR,AHMEDNAGAR,MAHARASHTRA,25344059
353,Maharashtra Gramin Bank,MAHG0005501,JALGAON,AT JALGAON TQ DIST JALGAON,JALGAON,JALGAON,MAHARASHTRA,254400
354,Maharashtra Gramin Bank,MAHG0005502,PACHORA,AT PACHORA TQ DIST JALGAON,JALGAON,PACHORA,MAHARASHTRA,244544
355,Maharashtra Gramin Bank,MAHG0005503,MUKTAINAGAR,AT MUKTAINAGAR TQ DIST JALGAON,JALGAON,MUKTAINAGAR,MAHARASHTRA,235300
356,Maharashtra Gramin Bank,MAHG0005504,AMADADE,AT AMADADE TQ DIST JALGAON,JALGAON,AMADADE,MAHARASHTRA,231269
357,Maharashtra Gramin Bank,MAHG0005505,KEKATNIMBHORA,AT KEKATNIMBHORA TQ DIST JALGAON,JALGAON,KEKATNIMBHORA,MAHARASHTRA,256255
358,Maharashtra Gramin Bank,MAHG0005506,SATGAON,AT SATGAON TQ DIST JALGAON,JALGAON,SATGAON,MAHARASHTRA,281555
359,Maharashtra Gramin Bank,MAHG0005507,VARANGAON,AT VARANGAON TQ DIST JALGAON,JALGAON,VARANGAON,MAHARASHTRA,262258
360,Maharashtra Gramin Bank,MAHG0005508,YAWAL,AT YAWAL TQ DIST JALGAON,JALGAON,YAWAL,MAHARASHTRA,260044
361,Maharashtra Gramin Bank,MAHG0005509,MEHUNBARE,AT MEHUNBARE TQ DIST JALGAON,JALGAON,MEHUNBARE,MAHARASHTRA,244190
362,Maharashtra Gramin Bank,MAHG0005510,SHIRSOLI P B,AT SHIRSOLI P B TQ DIST JALGAON,JALGAON,SHIRSOLI P B,MAHARASHTRA,359221
363,Maharashtra Gramin Bank,MAHG0005511,MHASAWAD,AT MHASAWAD TQ DIST JALGAON,JALGAON,MHASAWAD,MAHARASHTRA,355855
364,Maharashtra Gramin Bank,MAHG0005512,PAROLA,AT PAROLA TQ DIST JALGAON,JALGAON,PAROLA,MAHARASHTRA,294666
365,Maharashtra Gramin Bank,MAHG0005513,RAVER,AT RAVER TQ DIST JALGAON,JALGAON,RAVER,MAHARASHTRA,250140
366,Maharashtra Gramin Bank,MAHG0005514,KAJGAON,MAHARASHTRA GRAMIN BANK KAMALSHANTI VYAPARI BIGAR SHETI SAHAKARI PATASANSTHA PREMISES NEAR BUS STAND KAJGAON DIST JALGAON 424103,JALGAON,BHADGAON,MAHARASHTRA,0
367,Maharashtra Gramin Bank,MAHG0005515,SAVKHEDA BK,PLOT NO 5 SHRIDHAR NAGAR PAMPING ROAD SAVKHEDA BRANCH TQ DIST JALGAON,JALGAON,JALGAON,MAHARASHTRA,231269
368,Maharashtra Gramin Bank,MAHG0005516,CHOPDA,BAJAJ PLAZA 2382/83 PATHAK GALLI MAIN ROAD AT POST AND TQ CHOPDA,JALGAON,CHOPDA,MAHARASHTRA,9823742280
369,Maharashtra Gramin Bank,MAHG0005517,AMALNER,SHIVAJI ROAD NEW PLOT NEAR DADAWADI AMALNER TQ AMALNER,JALGAON,AMALNER,MAHARASHTRA,9823742280
370,Maharashtra Gramin Bank,MAHG0005518,ERANDOL,SADGURU VILLA BIRLA CHOWK NEAR PANDAV WADA AT POST AND TQ ERANDOL,JALGAON,ERANDOL,MAHARASHTRA,9823742280
371,Maharashtra Gramin Bank,MAHG0005600,REGIONAL OFFICE THANE,REGIONAL OFFICE THANE 3RD FLOOR MTNL CHARAI BHAVAN INFRONT OF GANESH TALKIES MAULI MANDAL CHARAI TQ DIST THANE,THANE,THANE,MAHARASHTRA,25344059
372,Maharashtra Gramin Bank,MAHG0005601,VRINDAVAN THANEW,AT VRINDAVAN THANEW TQ DIST THANE,THANE,VRINDAVAN THANEW,MAHARASHTRA,437653
373,Maharashtra Gramin Bank,MAHG0005602,BELAVALI,AT BELAVALI TQ DIST THANE,THANE,BELAVALI,MAHARASHTRA,673523
374,Maharashtra Gramin Bank,MAHG0005603,TOKAWADE,AT TOKAWADE TQ DIST THANE,THANE,TOKAWADE,MAHARASHTRA,242041
375,Maharashtra Gramin Bank,MAHG0005604,KUDUS,AT KUDUS TQ DIST PALGHAR,PALGHAR,KUDUS,MAHARASHTRA,221111
376,Maharashtra Gramin Bank,MAHG0005605,ALONDE,AT ALONDE TQ DIST PALGHAR,PALGHAR,ALONDE,MAHARASHTRA,231023
377,Maharashtra Gramin Bank,MAHG0005606,DOLKHAMB,AT DOLKHAMB TQ DIST THANE,THANE,DOLKHAMB,MAHARASHTRA,234144
378,Maharashtra Gramin Bank,MAHG0005608,UDHAWA,AT UDHAWA TQ DIST PALGHAR,PALGHAR,UDHAWA,MAHARASHTRA,232109
379,Maharashtra Gramin Bank,MAHG0005609,KELWA,AT KELWA TQ DIST PALGHAR,PALGHAR,KELWA,MAHARASHTRA,222120
380,Maharashtra Gramin Bank,MAHG0005612,WADA,AT WADA TQ DIST PALGHAR,PALGHAR,WADA,MAHARASHTRA,271115
381,Maharashtra Gramin Bank,MAHG0005614,GIRGAON T,AT GIRGAON T TQ DIST PALGHAR,PALGHAR,GIRGAON T,MAHARASHTRA,992690
382,Maharashtra Gramin Bank,MAHG0005615,MURBE,AT MURBE TQ DIST PALGHAR,PALGHAR,MURBE,MAHARASHTRA,289032
383,Maharashtra Gramin Bank,MAHG0005619,MHASA,AT MHASA TQ DIST THANE,THANE,MHASA,MAHARASHTRA,249195
384,Maharashtra Gramin Bank,MAHG0005620,KHADAVALI,AT KHADAVALI TQ DIST THANE,THANE,KHADAVALI,MAHARASHTRA,370021
385,Maharashtra Gramin Bank,MAHG0005622,GOVELI,AT GOVELI TQ DIST THANE,THANE,GOVELI,MAHARASHTRA,390017
386,Maharashtra Gramin Bank,MAHG0005623,MOKHADA,AT MOKHADA TQ DIST PALGHAR,PALGHAR,MOKHADA,MAHARASHTRA,256684
387,Maharashtra Gramin Bank,MAHG0005625,TALASARI,AT TALASARI TQ DIST PALGHAR,PALGHAR,TALASARI,MAHARASHTRA,220375
388,Maharashtra Gramin Bank,MAHG0005628,GOTHEGHAR,AT GOTHEGHAR TQ DIST THANE,THANE,GOTHEGHAR,MAHARASHTRA,270835
389,Maharashtra Gramin Bank,MAHG0005629,VIKRAMGHAD,AT VIKRAMGHAD TQ DIST PALGHAR,PALGHAR,VIKRAMGHAD,MAHARASHTRA,240376
390,Maharashtra Gramin Bank,MAHG0005630,KHADAKPADA CHOWK KALYAN W,AT KHADAKPADA CHOWK KALYAN W TQ DIST THANE,THANE,KHADAKPADA CHOWK KALYAN W,MAHARASHTRA,230284
391,Maharashtra Gramin Bank,MAHG0005631,PALGHAR,AT PALGHAR TQ DIST PALGHAR,PALGHAR,PALGHAR,MAHARASHTRA,250422
392,Maharashtra Gramin Bank,MAHG0005632,GHANSOLI,AT GHANSOLI TQ DIST THANE,THANE,GHANSOLI,MAHARASHTRA,606580
393,Maharashtra Gramin Bank,MAHG0005633,GHODBUNDER ROAD THANE,AT GHODBUNDER ROAD THANE TQ DIST THANE,THANE,GHODBUNDER ROAD THANE,MAHARASHTRA,971447
394,Maharashtra Gramin Bank,MAHG0005634,DAHANU,AT DAHANU TQ DIST PALGHAR,PALGHAR,DAHANU,MAHARASHTRA,224411
395,Maharashtra Gramin Bank,MAHG0005701,NASIK,AT NASIK TQ DIST NASIK,NASIK,NASIK,MAHARASHTRA,472050
396,Maharashtra Gramin Bank,MAHG0005702,DINDORI,AT DINDORI TQ DIST NASIK,NASIK,DINDORI,MAHARASHTRA,221919
397,Maharashtra Gramin Bank,MAHG0005703,NANDGAON,AT NANDGAON TQ DIST NASIK,NASIK,NANDGAON,MAHARASHTRA,242041
398,Maharashtra Gramin Bank,MAHG0005704,SINNAR,AT SINNAR TQ DIST NASIK,NASIK,SINNAR,MAHARASHTRA,220010
399,Maharashtra Gramin Bank,MAHG0005705,YEOLA,AT YEOLA TQ DIST NASIK,NASIK,YEOLA,MAHARASHTRA,266621
400,Maharashtra Gramin Bank,MAHG0005706,SATANA,AT SATANA TQ DIST NASIK,NASIK,SATANA,MAHARASHTRA,223700
401,Maharashtra Gramin Bank,MAHG0005707,SHINDE,AT SHINDE TQ DIST NASIK,NASIK,SHINDE,MAHARASHTRA,802548
402,Maharashtra Gramin Bank,MAHG0005708,BELGAON DHAGA,PLOT NO 528 TRIMBAK ROAD 6TH MILE BELGAON DHAGA PO TRIMBAK VIDYA MANDIR TQ DIST NASIK,NASHIK,BELGAON DHAGA,MAHARASHTRA,25344059
403,Maharashtra Gramin Bank,MAHG0005709,OZAR MIG,PLOT NO 7 SAI DARSHAN COMPLEX OZAR SAIKHEDA ROAD TQ NIPHAD DIST NASIK,NASHIK,OZAR MIG,MAHARASHTRA,25435154
404,Maharashtra Gramin Bank,MAHG0005710,MADSANGVI,GUT NO 295 4 PLOT NO 5 SHREE GANESH SANKUL NASIK AURANGABAD HIGHWAY AT MADSANGVI TQ DIST NASIK,NASHIK,MADSANGVI,MAHARASHTRA,25344059
405,Maharashtra Gramin Bank,MAHG0005711,MAKHAMALABAD,PINGLE PLAZA YESH CYBER CAFE BESIDE IRREGATION COLONY MAKHAMALABAD MHASRUL LINK ROAD MAKHAMALABAD 422003,NASIK,NASIK,MAHARASHTRA,9096305273
406,Maharashtra Gramin Bank,MAHG0005712,CIDCO NASIK,SAIJYOT CO OP HOUSING SOCIETY SURVEY NO 1018 2 PLOT NO 1 ABHIYANTA NAGAR CIDCO NASIK 422009,NASIK,NASIK,MAHARASHTRA,9545692169
407,Maharashtra Gramin Bank,MAHG0005713,BHAGUR,MAHARASHTRA GRAMIN BANK BHAGUR BRANCH SURVEY NO 457 BAGDE NIWAS OLD NAGAR PARISHAD ROAD AT BHAGUR TALUKA DIST NASIK 422502,NASIK,BHAGUR,MAHARASHTRA,25344059
408,Maharashtra Gramin Bank,MAHG0005714,EKLEHERE,MAHARASHTRA GRAMIN BANK EKLEHERE BRANCH SHOP NO 4 5 OM RESIDENCY SAIKHEDA ROAD JAIL ROAD NASIK ROAD EKLEHERE TALUKA DIST NASIK 422101,NASIK,EKLEHERE,MAHARASHTRA,25344059
409,Maharashtra Gramin Bank,MAHG0005715,CHANDSI,"MAHARASHTRA GRAMIN BANK, CHANDSI BRANCH, SHOP NO. 3,4,5 & 6 AARADDHYA PRESIDENCY AT & PO. CHANDSI TALUKA AND DISTRICT NASIK 422003",NASIK,NASIK,MAHARASHTRA,2476139
410,Maharashtra Gramin Bank,MAHG0005801,DEOPUR DHULE,AT DEOPUR DHULE TQ DIST DHULE,DHULE,DEOPUR DHULE,MAHARASHTRA,222699
411,Maharashtra Gramin Bank,MAHG0005802,VARUL,AT VARUL TQ DIST DHULE,DHULE,VARUL,MAHARASHTRA,271211
412,Maharashtra Gramin Bank,MAHG0005803,SAKARI,AT SAKARI TQ DIST DHULE,DHULE,SAKARI,MAHARASHTRA,344059
413,Maharashtra Gramin Bank,MAHG0005804,PAROLA ROAD DHULE,"MAHARASHTRA GRAMIN BANK, PAROLA ROAD DHULE BRANCH, B SQUARE LATE R R AABA PATIL COMMERTIAL COMPLEX, PAROLA ROAD DHULE TALUKA AND DISTRICT DHULE",DHULE,DHULE,MAHARASHTRA,2476139
414,Maharashtra Gramin Bank,MAHG0005901,CHENDHARE ALIBAG,AT CHENDHARE ALIBAG TQ DIST RAIGAD,RAIGAD,CHENDHARE ALIBAG,MAHARASHTRA,282162
415,Maharashtra Gramin Bank,MAHG0005902,DAHIVALI,AT DAHIVALI TQ DIST RAIGAD,RAIGAD,DAHIVALI,MAHARASHTRA,222448
416,Maharashtra Gramin Bank,MAHG0005903,SUKAPUR,AT SUKAPUR TQ DIST RAIGAD,RAIGAD,SUKAPUR,MAHARASHTRA,232032
417,Maharashtra Gramin Bank,MAHG0006000,NANDURBAR,AT NANDURBAR TQ DIST NANDURBAR,NANDURBAR,NANDURBAR,MAHARASHTRA,220100
418,Maharashtra Gramin Bank,MAHG0006001,SHANIMANDAL,AT SHANIMANDAL TQ DIST NANDURBAR,NANDURBAR,SHANIMANDAL,MAHARASHTRA,251333
419,Maharashtra Gramin Bank,MAHG0006002,MOD,AT MOD TQ DIST NANDURBAR,NANDURBAR,MOD,MAHARASHTRA,236281
420,Maharashtra Gramin Bank,MAHG0006003,VADALI,AT VADALI TQ DIST NANDURBAR,NANDURBAR,VADALI,MAHARASHTRA,255414
421,Maharashtra Gramin Bank,MAHG0006004,TALODA,AT TALODA TQ DIST NANDURBAR,NANDURBAR,TALODA,MAHARASHTRA,233202
422,Maharashtra Gramin Bank,MAHG0099922,VIRTUAL BRANCH,AT JEEVANSHREE PLOT NO 35 SECTOR G TOWN CENTRE CIDCO AURANGABAD MAHARASHTRA 431005,AURANGABAD,AURANGABAD,MAHARASHTRA,2476139
