,BANK NAME,IFSC,OFFICE,ADDRESS,DISTRICT,CITY,STATE,PHONE
0,DMK JAOLI BANK,DMKJ0000001,HEAD OFFICE,"418/20, MAULANA AZAD ROAD,MUMBAI, 4000004",MUMBAI,MUMBAI,MAHARASHTRA,23828488
1,DMK JAOLI BANK,DMKJ0000002,GOLDEVAL,"418-20, MAULANA AZAD ROAD,NEAR ROUND TEMPLE, MUMBAI- 400 004",MUMBAI,MUMBAI,MAHARASHTRA,23822772
2,DMK JAOLI BANK,DMKJ0000003,BHANDUP KOKAN NAGAR,"HIT-NIKETAN CO-OP HSG SOC ,JANGAL MANGAL ROAD, KONKAN NAGAR, BHANDUP W ,MUMBAI 400078",MUMBAI,MUMBAI,MAHARASHTRA,25941374
3,DMK JAOLI BANK,DMKJ0000004,JOGESHWARI,"27,INTERLINK IND ESTATE,CAVES ROAD, JOGESHWARI E ,MUMBAI-400060",MUMBAI,MUMBAI,MAHARASHTRA,28240199
4,DMK JAOLI BANK,DMKJ0000005,GHATKOPAR,"KHANNA APARTMENT,NARI SEVA SADAN MARG, ASALFA VILLAGE, GHATKOPAR W , MUMBAI -400086",MUMBAI,MUMBAI,MAHARASHTRA,25140713
5,DMK JAOLI BANK,DMKJ0000006,VASHI,"RENBOW ASSOCIATION,SECTOR NO 10,VASHI, NAVI MUMBAI-400705",THANE,NAVI MUMBAI,MAHARASHTRA,27660283
6,DMK JAOLI BANK,DMKJ0000007,LBS MARG BHANDUP,"NAHAR & SETH IND ESTATE CO-OP SOC LTD, PANNALAL COMPOUND,L B S ROAD BHANDUP W , MUMBAI 400078",MUMBAI,MUMBAI,MAHARASHTRA,25962276
7,DMK JAOLI BANK,DMKJ0000008,PANCHGANI,"DATTATRAY MAHARAJ KALAMBE CHOWK, ┬á SANT NAMDEO ROAD, PANCHGANI CITY, TAL MAHABLESHWARDIST SATARA -421805",SATARA,SATARA,MAHARASHTRA,240403
8,DMK JAOLI BANK,DMKJ0000009,MEDHA,"MEDHA CITY, TAL JAOLI, DIST SATARA - 415012",SATARA,SATARA,MAHARASHTRA,285568
9,DMK JAOLI BANK,DMKJ0000010,BHAYANDER,BHAYANDER,THANE,BHAYANDER,MAHARASHTRA,28198991
10,DMK JAOLI BANK,DMKJ0000011,SEAWOOD-NERUL,"UGAM COMPLEX, SECTOR NO-40,NERUL SEA WOOD, NAVI MUMBAI-400 706",THANE,NAVI MUMBAI,MAHARASHTRA,27716145
11,DMK JAOLI BANK,DMKJ0000012,THANE,"RATNAUMED RESIDENCY, PLOT NO. 117,┬áLOUIS WADI, PANCHPAKHADI, THANE(W)-400 604",THANE,THANE,MAHARASHTRA,25835443
12,DMK JAOLI BANK,DMKJ0000013,WAI,"SHREE COMMERCIAL COMPLEX,UPPER GR.FLOOR, DHARMAPURI,KISANVEER CHOWK WAI CITY,DIST-SATARA. -412 803.",SATARA,SATARA,MAHARASHTRA,220055
13,DMK JAOLI BANK,DMKJ0000014,BORIVALI,"DURGADEVI EKTA CHS LTD ,DATTA PADA ROAD, RAJENDRA NAGAR, BORIVALI E , MUMBAI -400 066",MUMBAI,MUMBAI,MAHARASHTRA,28708339
14,DMK JAOLI BANK,DMKJ0000015,NEW PANVEL,"RUBY PALACE CHS LTD , SECTOR-12,PANVEL-MATHERAN ROAD,NEW PANVEL,DIST-RAIGAD PIN-410 206",RAIGAD,PANVEL,MAHARASHTRA,27480366
15,DMK JAOLI BANK,DMKJ0000016,SATARA,"PAWAR TOWER OPP.KAMANI HAUD,GURUWAR PETH ,SATARA CITY, DIST-SATARA. -415 002",SATARA,SATARA,MAHARASHTRA,230556
16,DMK JAOLI BANK,DMKJ0000017,DOMBIVLI,"RAGHUKUL HEIGHTS,DR. R.P.ROAD, RAM NAGAR, DOMBIVALI (EAST) MUMBAI-421 201",THANE,DOMBIVALI,MAHARASHTRA,2863970
17,DMK JAOLI BANK,DMKJ0000018,DADAR,"KOHINOOR APPARTMENT,┬á1ST FLOOR,378 N C KELKAR ROAD, ABOVE TITAN SHOWROOM, DADAR (WEST)MUMBAI-400 028.",MUMBAI,MUMBAI,MAHARASHTRA,24314231
18,DMK JAOLI BANK,DMKJ0000019,SHIRWAL,"HOUSE NO 1973,GOUND FLOOR,DESHMUKH NAGAR, OLD ST STAND,SHIRWAL,TAL- KHANDALA, DIST SATARA PIN-412801",SATARA,SATARA,MAHARASHTRA,244003
19,DMK JAOLI BANK,DMKJ0000020,KOPARKHAIRANE,"SHREE RAVECHI APPT. GROUND FLOOR,SHOP NO- 1& 2,PLOT NO-14/15, SECTOR NO. 20, KOPARKHAIRANE, NAVI MUMBAI -400709.",THANE,NAVI MUMBAI,MAHARASHTRA,27547271
20,DMK JAOLI BANK,DMKJ0000021,AIROLI,"SHREE GURUDATTA COMPLEX CHS LTD GROUND FLOOR,A WING SHOP NO-5,6,7,PLOT NO- 44,45 AND 46, SECTOR NO- 8A, DIVE, AIROLI, NAVI MUMBAI- 400708",THANE,NAVI MUMBAI,MAHARASHTRA,27601232
21,DMK JAOLI BANK,DMKJ0000022,MALAD,"SANTOSH C H S LTD , SHOP NO 1,2, & 3, GR FLOOR, PLOT NO 7, HAVAHIRA PARK, ACHARYA DHARMA SURI MARG, KURAR VILLAGE, MALAD E MUMBAI 400 097",MUMBAI,MUMBAI,MAHARASHTRA,28405053
22,DMK JAOLI BANK,DMKJ0000023,PIMPRI CHINCHWAD PUNE,"JAY GANESH VISION,UPPER GR.FLOOR, SHOP NO.2,&3, A-WING, AKURDI, PIMPRI-CHINCHWAD. PUNE- 411 035",PUNE,PUNE,MAHARASHTRA,27241199
23,DMK JAOLI BANK,DMKJ0000024,CHEMBUR EAST,"SHOP NO.4, AMOGH C.H.S.LTD,WAMAN TUKARAM PATIL MARG,CHEMBUR EAST, MUMBAI 400 071",MUMBAI,MUMBAI,MAHARASHTRA,25213826
24,DMK JAOLI BANK,DMKJ0000025,VIKHROLI EAST,"SHOP NO 9, J K TOWER,CTS NO 281,HARIYALI VILLAGE, VIKHROLI EAST,MUMBAI 400 083",MUMBAI,MUMBAI,MAHARASHTRA,25740037
