,BANK NAME,IFSC,OFFICE,ADDRESS,DISTRICT,CITY,STATE,PHONE
0,DHANALAKSHMI BANK,DLXB0000001,THRISSUR MAIN,NAICKANAL JUNCTION THE ROUND THRISSUR,THRISSUR,THRISSUR,KERALA,6453962
1,DHANALAKSHMI BANK,DLXB0000002,EKM-SHANMUGAM ROAD,"C/40/664(2), ALEX BUILDG , SHANMUGHAM ROAD, ERNAKULAM-31",KOCHI,KOCHI,KERALA,6453521
2,DHANALAKSHMI BANK,DLXB0000003,PALAKKAD-BIG BAZAR,"1ST FLOOR, HAJEE COMPLEX, MARKET ROAD, PALAKKAD",PALAKKAD,PALAKKAD,KERALA,6452289
3,DHANALAKSHMI BANK,DLXB0000004,THRISSUR-PUSPAGIRI,"GROUND FLOOR DHANALAKSHMI COMPLEX, DHANALAKSHMI BUILDINGS PUNKUNNAM,THRISSUR",THRISSUR,THRISSUR,KERALA,6453956
4,DHANALAKSHMI BANK,DLXB0000005,PERINGOTTUKARA,"VEMBANAT BUILDING EAST NADA, TRIPRAYAR PERINGOTTUKARA THRISSUR DIST",VALAPAD,VALAPAD,KERALA,6454004
5,DHANALAKSHMI BANK,DLXB0000006,KANJANY,"I/359, THOTUPURA SN BLDG., KANJANY CENTRE, VADANAPPILLY ROAD , THRISSUR DIST",VADANAPPALLY,VADANAPPALLY,KERALA,2630227
6,DHANALAKSHMI BANK,DLXB0000007,KALPARAMBA,"KALPARAMBA, , ARIPALAM (P O), VIA IRANJALAGUDA TRICHUR DIST KERALA STATE, 680688",KALPARAMBA,KALPARAMBA,KERALA,9287276494
7,DHANALAKSHMI BANK,DLXB0000008,KODAKARA,"IST FLOOR, K.R.COMPLEX, KODAKARA, THRISSUR.",KODAKARA,KODAKARA,KERALA,9287276617
8,DHANALAKSHMI BANK,DLXB0000009,THRISSUR-HIGH ROAD,"XXV/1103 HIGH ROAD, THRISSUR",THRISSUR,THRISSUR,KERALA,6453960
9,DHANALAKSHMI BANK,DLXB0000010,KUNNAMKULAM,1/804-M WADAKKANCHERY ROAD P.B.NO.26 KUNNAMKULAM,KUNNAMKULAM,KUNNAMKULAM,KERALA,9287276525
10,DHANALAKSHMI BANK,DLXB0000011,PAZHANJI,PAZHANJI-KATTAKAMPAL ROAD PAZHANJI THRISSUR DIST,PAZHANJI,PAZHANJI,KERALA,9287202447
11,DHANALAKSHMI BANK,DLXB0000012,IRINJALAKUDA,"PB NO:14,DOOR NO XIX/546H CHITTILAPPILLY TOWERS, OPP TOWN HALL, NEAR BUS STAN, IRINJALAKUDA",IRINJALAKUDA,IRINJALAKUDA,KERALA,6450165
12,DHANALAKSHMI BANK,DLXB0000013,CHERTHALA,"CMC IV/165 A BMG COMPLEX, NORTH GATE KARTHIAYINI TEMPLE ROAD CHERTHALA",CHERTHALA,CHERTHALA,KERALA,6450232
13,DHANALAKSHMI BANK,DLXB0000014,KUTHIATHODE,"KUTHIYATHODE, FIRST FLOOR R K COMPLEX, ALLEPPY DIST KERALA STATE, 688533",KUTHIATHODE,KUTHIATHODE,KERALA,6450272
14,DHANALAKSHMI BANK,DLXB0000015,THRISSUR-ROUND SOUTH,"1ST FLOOR """"PATHAYAPURA"""" PARAMEKKAVU DEVSWOM BUILD ROUND SOUTH THRISSUR",THRISSUR,THRISSUR,KERALA,6453959
15,DHANALAKSHMI BANK,DLXB0000016,PARLI,VII/146 SHORNUR ROAD PARLI PALAKKAD,PARLI,PARLI,KERALA,6452283
16,DHANALAKSHMI BANK,DLXB0000017,MATTANCHERRY,"P B NO:303, VI/368 ANAVATHIL, MATTANCHERRY EKM DIST",KOCHI,KOCHI,KERALA,6453463
17,DHANALAKSHMI BANK,DLXB0000018,PALLURUTHY,23/2642 C ASB ESTATE. PALLURUTHY ERNAKULAM DIST,KOCHI,KOCHI,KERALA,6453526
18,DHANALAKSHMI BANK,DLXB0000019,VADAKKENCHERRY,"NO:III/901-H,FIRST FLOOR SHAH TOWERS VADAKKENCHERRY PALAKKAD DIST",VADAKKANCHERI,VADAKKANCHERI,KERALA,9287276592
19,DHANALAKSHMI BANK,DLXB0000020,EDAPPAL,"6/485 PALGHAT ROAD P.B.NO.2 EDAPPAL, MALAPPURAM",EDAPPAL,EDAPPAL,KERALA,6450260
20,DHANALAKSHMI BANK,DLXB0000021,CHERUTHURUTHY,"IX/139, MAIN ROAD, CHERUTHURUTHY, THRISSUR DIST.",CHERUTHURUTHY,CHERUTHURUTHY,KERALA,9287276482
21,DHANALAKSHMI BANK,DLXB0000022,PATTAMBI,"PB NO.3,DOOR NO.5/1672, 1ST FLOOR, YEMKAY TRADE CENTRE, MAIN ROAD, PATTAMBI 679 303",PATTAMBI,PATTAMBI,KERALA,9287276560
22,DHANALAKSHMI BANK,DLXB0000023,PAZHAYANNUR,"PB NO;9, 1ST FLOOR, PRABHALA SHOPPING COMPLEX MAIN ROAD,PAZHAYANNUR THRISSUR",PAZHAYANNUR,PAZHAYANNUR,KERALA,4225023
23,DHANALAKSHMI BANK,DLXB0000024,KUZHUPALLY,"SRI BALAKRISHNA SWAMY DEWASOM COMP, VYPEEN MUNAMBAM ROAD AYYANPILLY P O KUZHUPPALLI KERALA STATE, 682501",KUZHUPILLY,KUZHUPILLY,KERALA,6453454
24,DHANALAKSHMI BANK,DLXB0000025,HARIPAD,"P.BNO:1, SREE MURUGAN BLDG.,TION NEAR TOWN HALL JUNCTION HARIPAD",HARIPAD,HARIPAD,KERALA,6452295
25,DHANALAKSHMI BANK,DLXB0000026,KONGAD,"KRISHNA BUILDING, MAIN ROAD KONGAD PALAKKAD DIST. KONGAD, KERALA, 678631",KONGAD,KONGAD,KERALA,6452278
26,DHANALAKSHMI BANK,DLXB0000027,S L PURAM,"287, MAIN ROAD, SL PURAM P O SL PURAM KANJIKKUZHI,ALPPUZHA, KERALA, 688523",KANJIKUZHI,KANJIKUZHI,KERALA,6450276
27,DHANALAKSHMI BANK,DLXB0000028,THIRUVANCHIKULAM,"P B NO. 17 863 A ,DHARMARAJ BUILDING SRINGAPURAM,KODUGALLUR TRISSUR DIST",KODUNGALLUR,KODUNGALLUR,KERALA,6450245
28,DHANALAKSHMI BANK,DLXB0000029,KUNISSERY,"ALATTUR PALAKKAD ROAD, KUNNISSERY PALAKKAD DIST, KERALA, 678681",KUNISSERY,KUNISSERY,KERALA,2234248
29,DHANALAKSHMI BANK,DLXB0000030,PARAPPUR,"6/407 THOLUR PANCHAYATH, PARAPPUR JUNCTION PARAPPUR TRICHUR, KERALA, 680552",PARAPPUR,PARAPPUR,KERALA,2285678
30,DHANALAKSHMI BANK,DLXB0000031,CHERANELLUR,VIA EDAPPALLY ERNAKULAM DIST.,KOCHI,KOCHI,KERALA,6453401
31,DHANALAKSHMI BANK,DLXB0000032,THAZHAVA,"BLDG.NO:TP 9/371A, PC ROAD, SRP MARKET, NEAR SAG THEATRE,THAZHAVA KOLLAM.",MYNAGAPALLY,MYNAGAPALLY,KERALA,2664323
32,DHANALAKSHMI BANK,DLXB0000033,THACHAMPARA,"THUNDIL COMPLEX, CALICUT ROAD THACHAMPARA , KERALA, 678593",TACHAMPARA,TACHAMPARA,KERALA,9287276583
33,DHANALAKSHMI BANK,DLXB0000034,ALOOR,"577 G, FIRST FLOOR ST.JOSEPH CHURCH SHOPPING COMPLEX,NEAR ESI DISPENSARY, ALOOR ,TCR",KODAKARA,KODAKARA,KERALA,6450161
34,DHANALAKSHMI BANK,DLXB0000035,KAINAKARY,"BUILDING NO 96/5, KAINAKARI ALAPUZHA DIST. KAINAKARI, KERALA, 688501",KAINAKARY,KAINAKARY,KERALA,6451327
35,DHANALAKSHMI BANK,DLXB0000036,PUNNAKUNNAM,PULINKUNNU P.O. PUNNAKUNNAM ALAPUZHA,PULINCUNNOO,PULINCUNNOO,KERALA,6451362
36,DHANALAKSHMI BANK,DLXB0000037,TVM-VAZHUTHACAUD,HDFC HOUSE VAZHUTHACAUD THIRUVANANTHAPURAM PIN - 695 010.,THIRUVANANTHAPURAM,THIRUVANANTHAPURAM,KERALA,6451153
37,DHANALAKSHMI BANK,DLXB0000038,EKM-PALARIVATTOM,"GROUND FLOOR,K M M BUILDI 32/2383 A-1,OP.KSEB OFFIC S N JUNCTION PALARIVATTOM ERNAMKULAM",KOCHI,KOCHI,KERALA,6453440
38,DHANALAKSHMI BANK,DLXB0000040,KARAKULAM,"KP/1024 A,KRP BLDGS., PALAM JUNCTION,VAZHAYILA, KARAKULAM, THIRUVANANTHAPURAM",KARAKULAM,KARAKULAM,KERALA,2371288
39,DHANALAKSHMI BANK,DLXB0000041,KOZHIKODE,"17/1341 H,RAM MOHAN ROAD, CHINTHAVALAPPU, KOZHIKODE",CALICUT,CALICUT,KERALA,6453463
40,DHANALAKSHMI BANK,DLXB0000042,MUNDUR,"SAHABA COMPLEX,1ST FLOOR TRICHUR GURUVAYUR ROAD MUNDUR THRISSUR DIST",THRISSUR,THRISSUR,KERALA,2211252
41,DHANALAKSHMI BANK,DLXB0000044,MURINGOOR,"PAYYAPPILLY BUILDINGS MURINGOOR JUNCTION NH 47, MURINGOOR THRISSUR",CHALAKUDY,CHALAKUDY,KERALA,2702657
42,DHANALAKSHMI BANK,DLXB0000045,ARYANAD,"ARYANAD, AP 585, ARYANAD THIRUVANANTHAPURAM KERALA STATE, 695542",ARYANAD,ARYANAD,KERALA,2852036
43,DHANALAKSHMI BANK,DLXB0000046,THOTTIPPAL,"11/122 PUDUKKAD MAPRANAM ROAD THOTTIPAL, THRISSUR",THOTTIPPAL,THOTTIPPAL,KERALA,2791483
44,DHANALAKSHMI BANK,DLXB0000047,CHANGANACHERRY,"P.B.NO:2 KAVALAM BLDG., S.B COLLEGE ROAD CHANGANACHERRY, KOTTAYAM",CHANGANASSERY,CHANGANASSERY,KERALA,6452343
45,DHANALAKSHMI BANK,DLXB0000048,VAIKOM,P.B.NO 1 VAIKOM KOTTAYAM KERALA,VAIKOM,VAIKOM,KERALA,9287276764
46,DHANALAKSHMI BANK,DLXB0000049,ATHANI,"168, TRICHUR-SHORANUR ROAD, ATHANI, THRISSUR",MINALUR (ATHANI),MINALUR (ATHANI),KERALA,2200259
47,DHANALAKSHMI BANK,DLXB0000050,VALLANGI-NEMMARA,"V/47-A,GROUND FLOOR I.G.TOWERS NEMMARA PALAKKAD",ALATHUR,ALATHUR,KERALA,9287276540
48,DHANALAKSHMI BANK,DLXB0000051,KOTTAYAM,WARD NO.17 P B 261 KANIANTHARA HEIGHTS BAKER JUNCTION KOTTAYAM,KOTTAYAM,KOTTAYAM,KERALA,6452349
49,DHANALAKSHMI BANK,DLXB0000052,KANICHIKULANGARA,"13/7 DEWASOOM BUILDING, ALAPUZHA ROAD ALAPUZHA DIST. KANICHIKULANGARA, KERALA STATE, 984011",KANICHIKULANGARA,KANICHIKULANGARA,KERALA,6450254
50,DHANALAKSHMI BANK,DLXB0000053,PUTHUR,1ST FLOOR KAKANAT TOWERS PUTHUR THRISSUR,THRISSUR,THRISSUR,KERALA,6454115
51,DHANALAKSHMI BANK,DLXB0000054,CHENNAI-MOUNT ROAD,"P.B.NO.359 163,OM SAKTHI TOWER ANNA SALAI CHENNAI",CHENNAI,CHENNAI,KERALA,49037004
52,DHANALAKSHMI BANK,DLXB0000055,EKM-HOSPITAL ROAD,"P.B.NO:1150, XL/252 HOSPITAL ROAD, ERNAKULAM",KOCHI,KOCHI,KERALA,6453294
53,DHANALAKSHMI BANK,DLXB0000056,PALAKKAD-SULTANPET,LAKSHMI PLAZA COIMBATORE ROAD SULTANPET PALAKKAD,PALAKKAD,PALAKKAD,KERALA,6452286
54,DHANALAKSHMI BANK,DLXB0000057,TVM-FORT,P.B.NO 5067 KARIMPANAL ARCADE FORT THIRUVANANTHAPURAM,THIRUVANANTHAPURAM,THIRUVANANTHAPURAM,KERALA,6451079
55,DHANALAKSHMI BANK,DLXB0000058,THRIKKUNNAPUZHA,"III-507, T.PUZHA-THOTTAPILLY, PALLIPATTUMURY ALAPUZHA THRIKUNNAPUZHA, KERALA, 690515",THRIKKUNNAPUZHA,THRIKKUNNAPUZHA,KERALA,9287276586
56,DHANALAKSHMI BANK,DLXB0000059,KOLLAM,"GROUND FLOOR, GANGOTHRI TOWERS, NEAR IRON BRIDGE KOLLAM - 691 001",KOLLAM,KOLLAM,KERALA,6451344
57,DHANALAKSHMI BANK,DLXB0000060,GURUVAYOOR,"P.B.NO.14, III 541 A III 541 B, EAST NADA, GURUVAYOOR, KERALA",GURUVAYUR,GURUVAYUR,KERALA,6453977
58,DHANALAKSHMI BANK,DLXB0000061,PERINKULAM,"PERINKULAM, BANK ROAD ALLATHUR, PALAKKAD DIST. KERALA STATE, 678541",ALATHUR,ALATHUR,KERALA,9287276571
59,DHANALAKSHMI BANK,DLXB0000062,COIMBATORE,"P.B.NO.2951 268, CROSS CUT ROAD GANDHIPURAM COIMBATORE",COIMBATORE,COIMBATORE,KERALA,6450975
60,DHANALAKSHMI BANK,DLXB0000063,POLLACHI,"P.B.NO. 21 NO.84,COIMBATORE ROAD POLLACHI T.N",POLLACHI,POLLACHI,KERALA,4942984
61,DHANALAKSHMI BANK,DLXB0000064,VARANDARAPPILLY,"IV/788 KOVENDA CHURCH BUILDING,VARANDARAPPILLY THRISSUR DIST",VARANDRAPALLY,VARANDRAPALLY,KERALA,2760166
62,DHANALAKSHMI BANK,DLXB0000065,THRIKKARIYOOR,"THERATHENAL BUILDING, TRIKKARIYOOR ERNAKULAM DISTRICT",KOTHAMANGALAM,KOTHAMANGALAM,KERALA,2822563
63,DHANALAKSHMI BANK,DLXB0000066,KANNUR,"P.B.NO:60,DOOR NO:2471, WARD CC/XXIX,1ST FLOOR, SHAAN BLDG., J S PAUL JN. M A RAOD, KANNUR",CANNUR,CANNUR,KERALA,6450424
64,DHANALAKSHMI BANK,DLXB0000067,MUNNAR,"MP/IX/2728 -F CHALAKKAL KRISHNAN SON ALUVA-MUNNAR ROAD, MUNNAR, KERALA",MUNNAR,MUNNAR,KERALA,9287276537
65,DHANALAKSHMI BANK,DLXB0000068,CHENNAI-MANDAVELI,"NO:34, CSM PLAZA,V.K.ROAD MANDVELI, CHENNAI CHENNAI, T.N",CHENNAI,CHENNAI,KERALA,64530731
66,DHANALAKSHMI BANK,DLXB0000069,BGR-DICKNSON ROAD,"P.B.NO.4214 NO.9,DICKENSON ROAD, BANGALORE",BANGALORE,BANGALORE,KERALA,64548689
67,DHANALAKSHMI BANK,DLXB0000070,MANGALORE,"DHINDA CHAMBERS,GROUND FLOOR,NO.5-5-301/3 M G ROAD,OPP:S D M LAW COLLAGE,MANGALORE",MANGALORE,MANGALORE,KERALA,2497730
68,DHANALAKSHMI BANK,DLXB0000071,KUMARANELLUR,"VIII/1023 TRICHUR-SHORNUR ROAD KUMARANELLUR-OTTUPPARA WADAKKANCHERY, TCR DIST",KUMARANELLUR,KUMARANELLUR,KERALA,9287276523
69,DHANALAKSHMI BANK,DLXB0000072,DESOM,"III/202 NATIONAL HIGH WAY 47 DESOM ALUVA, EKM DIST",DESOM,DESOM,KERALA,6453410
70,DHANALAKSHMI BANK,DLXB0000073,ANGAMALY,"P.B.NO.8 GROUND FLOOR K V VARKEY MEMORIAL COMPLEX, ANGAMALY",ANGAMALY,ANGAMALY,KERALA,6453378
71,DHANALAKSHMI BANK,DLXB0000074,PUDUSSERRY,5/657 MAIN ROAD PUDUSSERY KANJIKODE PALAKKAD DIST,KANJIKODE,KANJIKODE,KERALA,2566385
72,DHANALAKSHMI BANK,DLXB0000075,KODUNTHIRAPILLY,"PRIYADARSHINI NAGAR, KODUNTHIRAPPULLY PALAKKAD PALAKKAD, KERALA, 678004",KODUNTHRIRAPALLY,KODUNTHRIRAPALLY,KERALA,2508153
73,DHANALAKSHMI BANK,DLXB0000076,ARATTUPUZHA,SREE MURALI COMPLEX PALLESSERY P.O. ARATTUPUZHA TCR DIST,ARATTUPUZHA,ARATTUPUZHA,KERALA,2790228
74,DHANALAKSHMI BANK,DLXB0000077,ANAD,"3/53 V V BUILDINGS, PAZHAKUTTY P.O.NEDUMANGAD THIRUVANANTHAPURAM.",NEDUMANGAD,NEDUMANGAD,KERALA,2812248
75,DHANALAKSHMI BANK,DLXB0000078,CHADAYAMANGALAM,DEVARAGAM BUILDING NEAR KSRTC BUS STAND CHADAYAMANGALM- 691534 KOLLAM,AYOOR,AYOOR,KERALA,2475255
76,DHANALAKSHMI BANK,DLXB0000079,KOPPAM,"KOPPAM, PULASSERY, KOPPAM VILLAGE PALAKKAD DIST , KERALA, 679307",KOPPAM,KOPPAM,KERALA,9287276511
77,DHANALAKSHMI BANK,DLXB0000080,TRIPUNITHURA,P.B.NO.9 EAST FORT GATE TRIPUNITHURA EKM DIST,KOCHI,KOCHI,KERALA,6453550
78,DHANALAKSHMI BANK,DLXB0000081,PALAKKAL,MONON S COMPLEX AMMADAM/KODANNUR ROAD PALAKKAL THRISSUR,CHERPU,CHERPU,KERALA,9287276551
79,DHANALAKSHMI BANK,DLXB0000082,KURICHIKARA,"CHEERIAN SHOPPING COMPLEX, PONGANAMKED KURICHIKKARA, KERALA STATE, 680028",KURICHIKARA,KURICHIKARA,KERALA,2695625
80,DHANALAKSHMI BANK,DLXB0000083,CHITTUR,9/IV CHITTUR-COIMBATORE ROAD CHITTUR PALAKKAD DIST,CHITTUR,CHITTUR,KERALA,9287276485
81,DHANALAKSHMI BANK,DLXB0000084,NAGERCOIL,"DOOR NO: 86, 1ST FLOOR, EAST TOWER, VSK BUILDING, NAGERCOIL,KANYA KUMARI DT",NAGERCOIL,NAGERCOIL,KERALA,9244943010
82,DHANALAKSHMI BANK,DLXB0000085,KALLAMBALAM,"THULASI COMPLEX, KALLAMBALAM THIRUVANANTHAPURAM DIST",KALLAMBALAM,KALLAMBALAM,KERALA,9287276615
83,DHANALAKSHMI BANK,DLXB0000086,THAIKKATTUSSERY,"EDAKUNNI TEMPLE ROAD, OLLUR TRICHUR DIST THAIKKATTUSSERY, KERALA STATE, 680303",THAIKKATTUSSERY,THAIKKATTUSSERY,KERALA,6454130
84,DHANALAKSHMI BANK,DLXB0000087,KOTTEKKAD,"10/508, KUNNATH BUILDING, KOTTEKKAD KUTTUR P.O THRISSUR, KERALA, 680001",KOTTEKKAD,KOTTEKKAD,KERALA,2212352
85,DHANALAKSHMI BANK,DLXB0000088,HYDERABAD,"P.B.NO.246 1ST FLOOR, KUNDA S ESTATE ABIDS, HYDERABAD, A.P",HYDERABAD,HYDERABAD,ANDHRA PRADESH,4544549
86,DHANALAKSHMI BANK,DLXB0000089,K.V.KUPPAM,"VASANTH MAHAL, NO:4/106 KATAPADI-GUDIYATAM MAIN ROAD, K V KUPPAM, VELLORE DISTRICT, TN",VELLORE,K.V.KUPPAM,TAMIL NADU,1246227
87,DHANALAKSHMI BANK,DLXB0000090,LATHERI,"1/327 MAIN ROAD LATHERI NORTH ARCOT, T.N",VELLORE,LATHERI,TAMIL NADU,6450921
88,DHANALAKSHMI BANK,DLXB0000091,VELLORE,"NO 20, 1ST FLOOR GANDHI ROAD P.B.NO.406 VELLORE, T.N",VELLORE,VELLORE,TAMIL NADU,6450507
89,DHANALAKSHMI BANK,DLXB0000092,SREENIVASAPURAM,C-VI/300 COLLEGE-NADAYANA ROAD SREENIVASAPURAM VARKALA TVM DT,VARKALA,VARKALA,KERALA,9287276580
90,DHANALAKSHMI BANK,DLXB0000094,TUMKUR,"2 KUVEMPU NAGAR P.O.BLDG B.H.ROAD BATAWADI TUMKUR, KARNATAKA STATE",TUMKUR,TUMKUR,KARNATAKA,6450183
91,DHANALAKSHMI BANK,DLXB0000095,ALAPPUZHA,26/1006 PALACE ROAD ALAPPUZHA KERALA,ALAPPUZHA,ALAPPUZHA,KERALA,6451255
92,DHANALAKSHMI BANK,DLXB0000096,VAZHAIPANDAL,"SRI L N PERUMAL KOIL STREET, VAZHAIPANDAL NORTH ARCOT DIST ,VELLORE , TAMIL NADU, 600001",VAZHAIPANDAL,VAZHAIPANDAL,TAMIL NADU,2244808
93,DHANALAKSHMI BANK,DLXB0000097,CHENNAI-G.T,"OLD NO;128,NEW NO.269 THAMBU CHETTY STRE GEORGE TOWN, CHENNAI",CHENNAI,CHENNAI,TAMIL NADU,64547916
94,DHANALAKSHMI BANK,DLXB0000098,EDAVILANGU,"PANCHAYAT OFFICE BUILDING EDAVILANGU ROAD EDAVILANGU,KODUNGALLOOR THRISSUR DIST",EDAVILANGU,EDAVILANGU,KERALA,9287276491
95,DHANALAKSHMI BANK,DLXB0000099,AYARKUNNAM,"FIRST FLOOR, CHIRAPURATHU BUILDINGS MAIN ROAD AYARKUNNAM AYARKUNNAM, KERALA STATE, 686564",AYARKUNNAM,AYARKUNNAM,KERALA,2542386
96,DHANALAKSHMI BANK,DLXB0000100,CHIRAKADAVU,"III- 53 K.K.ROAD KOLLATHUKULAM BLDG., CHIRAKADAVU,PONKUNNAM KOTTAYAM DIST",PONKUNNAM,PONKUNNAM,KERALA,8221403
97,DHANALAKSHMI BANK,DLXB0000101,PERUVAMBA,"6/168 SHERIFF MENZIL, CHUNGAM PALAKKAD ROAD PERUVAMBA PALAKKAD DIST, KERALA, 678531",PERUVEMBA,PERUVEMBA,KERALA,3252353
98,DHANALAKSHMI BANK,DLXB0000102,VATTAPARA,"VATTAPPARA 678506, TRIVANDRUM DIST VATTAPPARA, KERALA STATE, 678506",VATTAPARA,VATTAPARA,KERALA,9287276626
99,DHANALAKSHMI BANK,DLXB0000103,VIJAYAWADA,"27-6-177 PRAKASHAM ROAD,IST FLOOR 434 GOVERNERPET VIJAYAWADA, A.P",VIJAYAWADA,VIJAYAWADA,ANDHRA PRADESH,6455460
100,DHANALAKSHMI BANK,DLXB0000104,CHITTUMALA,1V/406 KOLLAM-KALLADA ROAD MULAVANA P O KOLLAM DIST,CHITTUMALA,CHITTUMALA,KERALA,9287276489
101,DHANALAKSHMI BANK,DLXB0000105,THIRUCHIRAPPALLI,"P.B.NO 451, 12 MADURAI ROAD, THIRUCHIRAPPALLAI.",TIRUCHIRAPPALLI,TIRUCHIRAPPALLI,TAMIL NADU,6450991
102,DHANALAKSHMI BANK,DLXB0000106,MADURAI,216-A. NETAJI ROAD MADURAI TAMIL NADU,MADURAI,MADURAI,TAMIL NADU,6548223
103,DHANALAKSHMI BANK,DLXB0000107,SALEM,"# 77, 1ST FLOOR, ORIENTAL SHOPPING COMPLEX A A STREET, SALEM - 1. T.N",SALEM,SALEM,TAMIL NADU,6540546
104,DHANALAKSHMI BANK,DLXB0000108,MELARKODE,"CHITTILANCHERRY P O, MELARCODE PALAKKAD DIST. MELARCODE, KERALA STATE, 678704",MELARCODE,MELARCODE,KERALA,9287276536
105,DHANALAKSHMI BANK,DLXB0000110,PERUNNA,XIX/514 M.C.ROAD PERUNNA KOTTAYAM DIST,CHANGANASSERY,CHANGANASSERY,KERALA,6452346
106,DHANALAKSHMI BANK,DLXB0000111,THAZHAKKARA,"421 MAVELIKARA-PANDALAM ROAD KUNNAM P O, ALAPUZHA",THAZHAKKARA,THAZHAKKARA,KERALA,6452299
107,DHANALAKSHMI BANK,DLXB0000112,ERODE,"D.NO.523, NETHAJI ROAD, ERODE, PERIYAR DIST T.N",ERODE,ERODE,KERALA,4943013
108,DHANALAKSHMI BANK,DLXB0000113,THIRUVALLA,17/567 M.C.ROAD THIRUVALLA KERALA,THIRUVALLA,THIRUVALLA,KERALA,6450209
109,DHANALAKSHMI BANK,DLXB0000114,OTTAPPALAM,"V/421 , MAIN ROAD P.B. NO 18 OTTAPALAM PALAKKAD DIST",OTTAPALAM,OTTAPALAM,KERALA,9287276544
110,DHANALAKSHMI BANK,DLXB0000115,ADIRAMAPATTANAM,"27 B AND C, POST OFFICE ROAD ADIRAMPATTINAM TANJORE DIST, TAMIL NADU, 614701",ADIRAMAPATTINAM,ADIRAMAPATTINAM,TAMIL NADU,4942985
111,DHANALAKSHMI BANK,DLXB0000116,"J C ROAD,BGL","J C ROAD BRANCH, GROUND FLOOR, NO.92, SHIVAJI TOWERS, J C ROAD,BANGALORE",BANGALORE,BANGALORE,KARNATAKA,3606707
112,DHANALAKSHMI BANK,DLXB0000117,PAMBA,"TRIVENI,PATHANAMTHITTA DT 689714",PATHANAMTHITTA,PATHANAMTHITTA,KERALA,5203465
113,DHANALAKSHMI BANK,DLXB0000118,TVM - MANACAUD,T.C. 41/2343(4) MALSON TOWER MANACAUD TVM DIST,THIRUVANANTHAPURAM,THIRUVANANTHAPURAM,KERALA,6451034
114,DHANALAKSHMI BANK,DLXB0000119,THOTTAMON,"NSS UNION BUILDING, PERUNKULUM RANNI ROAD THOTTAMON PATHANAMTHITTA DIST., KERALA, 689672",RANNI,RANNI,KERALA,5227497
115,DHANALAKSHMI BANK,DLXB0000120,KAPPIL,"PARAVOOR VARKALA ROAD, KRISHAN KOVIL ROAD KAPPIL TRIVANDRUM DIST. KAPPIL, KERALA, 695311",VARKALA,VARKALA,KERALA,2661743
116,DHANALAKSHMI BANK,DLXB0000121,PATHANAMTHITTA,"PB NO.54,CHANGAYIL BLDG COLLEGE ROAD PATHANAMTHITTA",PATHANAMTHITTA,PATHANAMTHITTA,KERALA,2222702
117,DHANALAKSHMI BANK,DLXB0000122,CHENGANNUR,XIV/242.M.C.ROAD CHENGANNUR ALAPPUZHA,CHENGANNUR,CHENGANNUR,KERALA,6452292
118,DHANALAKSHMI BANK,DLXB0000123,TIRUPUR,"NO.318,SRI MUTHU PLAZA AVINASHI ROAD, TIRUPUR",TIRUPUR,TIRUPUR,TAMIL NADU,6450584
119,DHANALAKSHMI BANK,DLXB0000124,MUMBAI-MATUNGA,"2/323-B,SUDHIR SADAN, CHANDAVARKAR ROAD , MATUNGA MUMBAI.",MUMBAI,MUMBAI,MAHARASHTRA,64531095
120,DHANALAKSHMI BANK,DLXB0000125,VEERAPANCHATRAM,"10/210, SATHY ROAD, VEERAPANCHATRAM, ERODE, TAMIL NADU",ERODE,ERODE,TAMIL NADU,4943016
121,DHANALAKSHMI BANK,DLXB0000126,TVM-SASTHAMANGALAM,BALAKRISHNA BUILDING TC NO.IX/767 (1) SASTHAMANGALAM THIRUVANANTHAPURAM,THIRUVANANTHAPURAM,THIRUVANANTHAPURAM,KERALA,6451269
122,DHANALAKSHMI BANK,DLXB0000127,PEELAMEDU,"286, STANDARD TOWERS AVANASHI ROAD, PEELAMEDU COIMBATORE",COIMBATORE,COIMBATORE,TAMIL NADU,6451927
123,DHANALAKSHMI BANK,DLXB0000128,THALASSERY,"1ST FLOOR,HOPES SHOPPING COMPLEX,7/154 LOGANS ROAD THALASSERY KANNUR",THALASSERY,THALASSERY,KERALA,6450410
124,DHANALAKSHMI BANK,DLXB0000129,UDUMALPET,"NO.23,SREE KRISHNA TOWERS BYE PASS ROAD,UDUMALPET COIMBATORE DT.",UDUMALPET,UDUMALPET,TAMIL NADU,4942990
125,DHANALAKSHMI BANK,DLXB0000130,PERINTHALMANNA,"DOOR NO.PM/5/148/13 FIRST FLOOR,CITY CENTRE, PATTAMBI ROAD, PEINTHALMANNA",PERINTALMANNA,PERINTALMANNA,KERALA,9287276566
126,DHANALAKSHMI BANK,DLXB0000131,THODUPUZHA,"DOOR NO.162/9 JYOTHI SUPER BAZAR P.B.NO. 36, THODUPUZHA",THODUPUZHA,THODUPUZHA,KERALA,9287276628
127,DHANALAKSHMI BANK,DLXB0000132,TIRUR,1ST FLOOR K M S TOWER THAZHEPALAM TIRUR,TIRUR,TIRUR,KERALA,6450592
128,DHANALAKSHMI BANK,DLXB0000133,CHEVARAMBALAM,"28/648-R,WARD 28, KOYENCO SHOPPING COMPLEX, MAVOOR CALICUT ROAD, CHEVAYOOR, KOZHIKODE",CALICUT,CALICUT,KERALA,6453460
129,DHANALAKSHMI BANK,DLXB0000134,PONNANI,"7/859 A,1ST FLOOR AMBADY BULDGS, CHAMMARAVATTOM JN, PONNANI",PONNANI,PONNANI,KERALA,6450495
130,DHANALAKSHMI BANK,DLXB0000135,MUVATTUPUZHA,"XI/2734(3),VETTUKATTIL HOSPITAL COMPLEX BLDG M C ROAD, (TB JUNCTION) MUVATTUPUZHA",MUVATTUPUZHA,MUVATTUPUZHA,KERALA,6450327
131,DHANALAKSHMI BANK,DLXB0000136,VALANCHERY,214A PBNO28 OPP.BUS STAND CALICUT ROAD VALANCHERY MALAPPURAM,VALANCHERRY,VALANCHERRY,KERALA,6450687
132,DHANALAKSHMI BANK,DLXB0000137,CHENNAI-T.NAGAR,"47, SOUTH USMAN ROAD T.NAGAR CHENNAI",CHENNAI,CHENNAI,TAMIL NADU,64361208
133,DHANALAKSHMI BANK,DLXB0000138,KARUR,"021044, GROUND FLOOR, KOVAI ROAD, KARUR. TAMIL NADU",KARUR,KARUR,TAMIL NADU,4653561
134,DHANALAKSHMI BANK,DLXB0000139,PEENYA,"PEENYA INDUSTRIAL ASSN BHAVAN,PEENYA TRADE CENTR 1ST CROSS,1ST STAGE PEENYA, BANGALORE",PEENYA,PEENYA,KARNATAKA,64548691
135,DHANALAKSHMI BANK,DLXB0000140,MUMBAI-CHEMBUR,"DOOR NO:1,2,3GROUND FLOOR, URMILA COMPLEX,32 STATION AVENUE ROAD, CHEMBUR, MUMBAI 400071",MUMBAI,MUMBAI,MAHARASHTRA,25285760
136,DHANALAKSHMI BANK,DLXB0000141,"SERVICE BRANCH, CHENNAI","THE DHANALAKSHMI BANK LTD., SERVICE BRANCH, CHENNAI, NO:163, OM SAKTHI TOWERS, ANNA SALAI, CHENNAI - 600002",CHENNAI,CHENNAI,TAMIL NADU,49037026
137,DHANALAKSHMI BANK,DLXB0000142,SURAT,"3RD FLOOR,THE SURAT VANKAR SAHAKARI SANGH BLG OPP.RESHAMWALA MARKET RING ROAD, SURAT,GUJARAT",SURAT,SURAT,GUJARAT,2350699
138,DHANALAKSHMI BANK,DLXB0000143,AHMEDABAD,"3, MOTILAL CHAMBERS INCOME TAX CIRCLE, NEAR SALES INDIA ASHRAM ROAD, AHMEDABAD",AHMEDABAD,AHMEDABAD,GUJARAT,4502690
139,DHANALAKSHMI BANK,DLXB0000144,FORT MUMBAI,MUMBAI,MUMBAI,MUMBAI,MAHARASHTRA,22045878
140,DHANALAKSHMI BANK,DLXB0000145,EKM-IFB,"P.B.NO:3548, XL/7296,ADJACENT TO T.D,. EAST SANNIDHI ROAD, M G ROAD ERNAKULAM.",KOCHI,KOCHI,KERALA,6675000
141,DHANALAKSHMI BANK,DLXB0000146,RTGS-HO,"DHANALAKSHMI BANK LTD, MUMBAI",MUMBAI,MUMBAI,MAHARASHTRA,61541700
142,DHANALAKSHMI BANK,DLXB0000147,NEW DELHI,"H 17,GOBIND MANSION, OUTER CIRCLE, CONNAUGHT CIRCUS, NEW DELHI -110 001",DELHI,DELHI,DELHI,64544645
143,DHANALAKSHMI BANK,DLXB0000148,EKM-KALOOR,"DHANALAKSHMI BANK LTD., M E S CULTURAL COMPLEX BUILDING, GROUND FLOOR, KALOOR, ERNAKULAM",KALOOR,KALOOR,KERALA,6453297
144,DHANALAKSHMI BANK,DLXB0000149,CHENNAI-ANNA NAGAR,"DHANALAKSHMI BANK LTD, Y-219, 2ND AVENUE, NEAR AYYAPPAN TEMPLE, ANNA NAGAR, CHENNAI-40",CHENNAI,CHENNAI,TAMIL NADU,64547913
145,DHANALAKSHMI BANK,DLXB0000150,PALAI,"FIRST FLOOR JOBEES COMPLEX KATTAKKAYAM ROAD PALAI,KOTTAYAM DT",PALAI,PALAI,KERALA,9287276550
146,DHANALAKSHMI BANK,DLXB0000151,BGR-KORAMANGALA,"100, 18TH MAIN, 6TH BLOCK, KORAMANGALA , BANGALORE",BANGALORE,BANGALORE,KARNATAKA,64540467
147,DHANALAKSHMI BANK,DLXB0000152,KALPETTA,"SAKEENA SHOPPING COMPLEX, 1ST FLOOR, KALPETTA, WAYANAD DISTRICT, KERALA",KALPETTA,KALPETTA,KERALA,207595
148,DHANALAKSHMI BANK,DLXB0000153,KASARGODE,"APSARA REGENCY COMPLEX, OPP. K S R T C BUS STAND, BANK ROAD, KASARGODE",KASARAGOD,KASARAGOD,KERALA,9287276561
149,DHANALAKSHMI BANK,DLXB0000154,KOLKATA,"IDEAL PLAZA, GROUND FLOOR, 11/1, SARAT BOSE ROAD, KOLKATA.",KOLKATA,KOLKATA,WEST BENGAL,22815100
150,DHANALAKSHMI BANK,DLXB0000155,EDAPPALLY,"THE DHANALAKSHMI BANK LTD, AMRITHA INSTITUTE OF MEDICAL SCIENCES, EDAPPALLY, KOCHI.",THRIKKAKARA,THRIKKAKARA,KERALA,6453611
151,DHANALAKSHMI BANK,DLXB0000156,KOLLANGODE,"VASANTHA COMPLEX, KOLLENGODE PALAKKAD DIST. KERALA STATE, 678506",KOLLENGODE I,KOLLENGODE I,KERALA,9287276509
152,DHANALAKSHMI BANK,DLXB0000157,"SERVICE BRANCH, ERANAKULAM","THE DHANALAKSHMI BANK LTD ,XXX/147-G, N H ROAD, PALARIVATTOM, ERNAKULAM..",KOCHI,KOCHI,KERALA,6453278
153,DHANALAKSHMI BANK,DLXB0000158,"SERVICE BRANCH, THIRUVANANTHAPURAM","THE DHANALAKSHMI BANK LTD PB NO.5067, KARIMPAMAL ARCADE, FORT, THIRUVANANTHAPURAM",THIRUVANANTHAPURAM,THIRUVANANTHAPURAM,KERALA,6451050
154,DHANALAKSHMI BANK,DLXB0000159,"SERVICE BRANCH, THRISSUR","THE DHANALAKSHMI BANK LTD, DHANALAKSHMI BUILDINGS, NAICKANAL, THRISSUR.",THRISSUR,THRISSUR,KERALA,7276687
155,DHANALAKSHMI BANK,DLXB0000160,R. S. PURAM,"SRI NANDHINI COMPLEX, 8 VENKITASAMY ROAD, R.S.PURAM, COIMBATORE - 641 002.",COIMBATORE,COIMBATORE,TAMIL NADU,6451690
156,DHANALAKSHMI BANK,DLXB0000161,,"4M-407,4TH MAIN,3RD BLOCK,HRBR LAYOUT,BANGALORE-560043.",BANGALORE,BANGALORE,KARNATAKA,60120001
157,DHANALAKSHMI BANK,DLXB0000162,VELACHERY,VELACHERY,CHENNAI,CHENNAI,TAMIL NADU,64540028
158,DHANALAKSHMI BANK,DLXB0000163,PANDALAM,"GROUND FLOOR, MAR THOMA STUDENTS CENTRE, OPP NSS COLLEGE",PATHANAMTHITTA,PATHANAMTHITTA,KERALA,4254201
159,DHANALAKSHMI BANK,DLXB0000164,SERVICE BRANCH MUMBAI,"GROUND FLOOR,JANMABHOOMI BHAVAN,JANMABHOOMI MARG, FORT,MUMBAI-400 001",MUMBAI,MUMBAI,MAHARASHTRA,64530976
160,DHANALAKSHMI BANK,DLXB0000165,BAR COUNCIL OF KERALA,"BAR COUNCIL OF KER. BR. HIGH COURT CAMPUS, ERNAKULAM - 682 031.",KOCHI,KOCHI,KERALA,6453391
161,DHANALAKSHMI BANK,DLXB0000166,ADOOR,MOHANA BUILDING CENTRAL JUNCTION ADOOR PATHANAMTHITTA DIST.,ADOOR,ADOOR,KERALA,9287276474
162,DHANALAKSHMI BANK,DLXB0000167,BANJARA HILLS,"TREND TOWERS, GR FLOOR 8-2-289/10, ROAD NO.2 , BANJARA HILLS, HYDERABAD, ANDHRA PRADESH",HYDERABAD,HYDERABAD,ANDHRA PRADESH,4548776
163,DHANALAKSHMI BANK,DLXB0000168,KUKATPALLY,"686, VIVEKANANDA NAGAR COLONY, KUKATPALLY, HYDERABAD ANDHRA PRADESH",HYDERABAD,HYDERABAD,ANDHRA PRADESH,3066221
164,DHANALAKSHMI BANK,DLXB0000169,SION,"THIRUMALAI HOUSE ,GROUND FLOOR, ROAD NO.29, NEAR SION HILL FORT SION (E), MUMABI.",MUMBAI,MUMBAI,MAHARASHTRA,24018006
165,DHANALAKSHMI BANK,DLXB0000170,KAROL BAGH,"16/15, W.E.A., J.S.PLAZA , ARYA SAMAJ ROAD, KAROL BAGH, NEW DELHI",DELHI,DELHI,DELHI,64691036
166,DHANALAKSHMI BANK,DLXB0000171,GUNTUR,"P S COMPLEX,D.NO;4-12-40 NAIDUPET,1ST LANE, KORETIPADU MAIN ROD, GUNTUR, ANDHRA PRADESH",GUNTUR,GUNTUR,ANDHRA PRADESH,6450287
167,DHANALAKSHMI BANK,DLXB0000172,BGL-M G ROAD,"1A,NITISH BROADWAY, M G ROAD , BANGALORE",BANGALORE,BANGALORE,KARNATAKA,64548695
168,DHANALAKSHMI BANK,DLXB0000173,VISAKHAPATNAM,"VIP ROAD, CBM COMPOUND VISAKHAPATNAM ANDHRA PRADESH - 530 003",VISAKHAPATNAM,VISAKHAPATNAM,ANDHRA PRADESH,2540012
169,DHANALAKSHMI BANK,DLXB0000174,MUMBAI-VASHI,"PLOT NO.1 C, NISHANT MILLENNIUM , SECTOR 28, VASHI NAVI, MUMBAI-400703.",NEW BOMBAY,NEW BOMBAY,MAHARASHTRA,27880360
170,DHANALAKSHMI BANK,DLXB0000175,TIRUPATI,"PLOT NO.3, TUDA LAY OUT RC ROAD, TIRUPATI ANDHRA PREDESH",TIRUPATI,TIRUPATI,ANDHRA PRADESH,2245522
171,DHANALAKSHMI BANK,DLXB0000176,NELLORE,"15/345,BRINDAVANAM BEHIND VIJAYA DAIRY NELLORE ANDHRA PRADESH",NELLORE,NELLORE,ANDHRA PRADESH,6451630
172,DHANALAKSHMI BANK,DLXB0000177,"LAJPAT NAGAR,NEW DELHI","A II/44,LAJPAT NAGAR II, LAJPAT NAGAR , NEW DELHI.",DELHI,DELHI,DELHI,64500242
173,DHANALAKSHMI BANK,DLXB0000178,"ASHOK NAGAR,CHENNAI","SRI GOWTHAM"""" NEW NO.5,OLD NO.3 1ST AVENUE, ASHOK NAGAR, CHENNAI",CHENNAI,CHENNAI,TAMIL NADU,64547921
174,DHANALAKSHMI BANK,DLXB0000179,ELURU,"23A-3-28, DR.G S PRASAD HOSPITAL COMPLEX GOSAMRAKSHANA SAMITHI RD ELURU",ELURU,ELURU,ANDHRA PRADESH,2223433
175,DHANALAKSHMI BANK,DLXB0000180,VIJAYAWADA RING ROAD,"59-14-8, SILPA ARCADE RAMACHANDRA NAGAR RING ROAD VIJAYAWADA",VIJAYAWADA,VIJAYAWADA,ANDHRA PRADESH,6457335
176,DHANALAKSHMI BANK,DLXB0000181,MALAPPURAM,"1ST FLOOR,BAVA, ARCADE DOWN HILL MALAPPURAM",MALAPPURAM,MALAPPURAM,KERALA,6450419
177,DHANALAKSHMI BANK,DLXB0000182,KAKINADA,"NO.26-1-12,TEMPLE STREET KAKINADA EAST GODAVARI DIST, ANDHRA PRADESH",KAKINADA,KAKINADA,ANDHRA PRADESH,6451764
178,DHANALAKSHMI BANK,DLXB0000183,NIZAMABAD,"11-1-1623/2 3,SINGIDI COM PLEX,OPP.INDUR TRADERS, KANTESHWAR,ARMOOR ROAD, NIZAMABAD",NIZAMABAD,NIZAMABAD,ANDHRA PRADESH,2644960
179,DHANALAKSHMI BANK,DLXB0000184,KARUNAGAPALLY,"ANNEXE EXCLLENCY BUILDING KARUNAGAPALLY, KOLLAM",KARUNAGAPALLY,KARUNAGAPALLY,KERALA,6451035
180,DHANALAKSHMI BANK,DLXB0000185,KHAMMAM,"6-1-50, OPP.DWACRA BAZAR, WYRA ROAD, KHAMMAM, A.P.",KHAMMAM,KHAMMAM,ANDHRA PRADESH,2644919
181,DHANALAKSHMI BANK,DLXB0000186,SALT LAKE CITY,"PLOT NO. 88, BLOCK BE, SECTOR - 1, SALT LAKE CITY, KOLKATA - 700 064.",KOLKATA,KOLKATA,WEST BENGAL,64990588
182,DHANALAKSHMI BANK,DLXB0000187,HOWRAH,"23/2, B C, HARINIKETAN, MAULANA ABDUL KALAM AZAD ROAD, (DOBSON ROAD), HOWRAH, WEST BENGAL - 711 101.",HOWRAH,HOWRAH,WEST BENGAL,768033
183,DHANALAKSHMI BANK,DLXB0000188,SANJEEVA REDDY NAGAR,"GROUND FLOOR, SAI SUSHMA HOMES, 23 / A, SANJEEVA REDDY NAGAR, HYDERABAD - 500 138.",HYDERABAD,HYDERABAD,ANDHRA PRADESH,4636991
184,DHANALAKSHMI BANK,DLXB0000189,JAYANAGAR,"NEW NO. 52 (OLD NO. 745), 33RD CROSS ROAD, 4TH BLOCK, JAYANAGAR, BANGALORE - 560 011.",BANGALORE,BANGALORE,KARNATAKA,3603260
185,DHANALAKSHMI BANK,DLXB0000190,JANAKPURI,"B-3/174, GROUND FLOOR, JANAKPURI, NEW DELHI - 110 058.",DELHI,DELHI,DELHI,64644337
186,DHANALAKSHMI BANK,DLXB0000191,GAZIABAD,"GROUND FLOOR BASEMENT, R 2/240, RAJNAGAR, GHAZIABAD, UTTAR PRADESH - 201 002.",GHAZIABAD,GHAZIABAD,UTTAR PRADESH,6492804
187,DHANALAKSHMI BANK,DLXB0000192,GREATER KAILASH,"M-72, M BLOCK MARKET, GREATER KAILASH - II, NEW DELHI-110048.",DELHI,DELHI,DELHI,64610866
188,DHANALAKSHMI BANK,DLXB0000193,NEHRU PLACE,"UPPER GROUND FLOOR, SKYLARK BUILDING, 60, NEHRU PLACE, NEW DELHI - 110 019.",DELHI,DELHI,DELHI,65458371
189,DHANALAKSHMI BANK,DLXB0000194,ROHINI,"GROUND FLOOR BASEMENT, PLOT NO. 4, POCKET A-1, SECTOR 8, ROHINI, DELHI - 110 085.",DELHI,DELHI,DELHI,65458170
190,DHANALAKSHMI BANK,DLXB0000195,GURGAON,"GROUND FLOOR, SCO 17, SECTOR 14, GURGAON, HARYANA - 122 001.",GURGAON,GURGAON,HARYANA,6462186
191,DHANALAKSHMI BANK,DLXB0000196,FARIDABAD,"GROUND FLOOR BASEMENT, CROWN PLAZA, SHOP NO. 2D/10B, 1 2 CHOWK, OPP. GHAZAL RESTAURANT, NIT, FARIDABAD, HARAYANA - 121 001.",FARIDABAD,FARIDABAD,HARYANA,6462085
192,DHANALAKSHMI BANK,DLXB0000197,NOIDA,"GROUND FLOOR, K -23 24, SECTOR - 18, NOIDA, UTTAR PRADESH 201301.",NOIDA,NOIDA,UTTAR PRADESH,6590310
193,DHANALAKSHMI BANK,DLXB0000198,ULHAS NAGAR,"GROUND FLOOR MEZZANINE FLOOR, KOMAL PARK BLDG, GOLE MAIDAN, ULHASNAGAR, MUMBAI, MAHARASHTRA - 421 001",ULHASNAGAR,ULHASNAGAR,MAHARASHTRA,2232813
194,DHANALAKSHMI BANK,DLXB0000199,GOREGOAN,"RISAB MANSION, PLOT NO. 3, JAWAHAR NAGAR, S.V. ROAD, GOREGAON (W), MUMBAI - 400 069.",MUMBAI,MUMBAI,MAHARASHTRA,65991863
195,DHANALAKSHMI BANK,DLXB0000200,CBD BELAPUR,"GROUND FLOOR, WARDEN HOUSE, PLOT NO. 65, SECTOR 11, CBD BELAPUR, NAVI MUMBAI, MAHARASHTRA - 400 614.",MUMBAI,MUMBAI,MAHARASHTRA,65991873
196,DHANALAKSHMI BANK,DLXB0000201,BORIVLI,"GROUND FLOOR, SHOP NO. 2, 3 4, KAPOOR APARTMENT, CHANDAVARKAR ROAD, BORIVLI (WEST), MUMBAI, MAHARASHTRA - 400 092.",MUMBAI,MUMBAI,MAHARASHTRA,65991881
197,DHANALAKSHMI BANK,DLXB0000202,PALANI,"GROUND FLOOR, ANGURAJ COMPLEX, NO. 41, NEW DHARAMPURAM ROAD, PALANI, TAMIL NADU - 624 601.",PALANI,PALANI,TAMIL NADU,9244901061
198,DHANALAKSHMI BANK,DLXB0000203,KANCHEEPURAM,"GROUND FLOOR, VAISHNAVI PLAZA, 17 18, WEST RAJA STREET, KANCHEEPURAM, TAMIL NADU - 631 502.",KANCHIPURAM,KANCHIPURAM,TAMIL NADU,67271578
199,DHANALAKSHMI BANK,DLXB0000204,DHANUVACHAPURAM,"GROUND FLOOR, MORIAH COMPLEX, UDIYANKULANGARA JUNCTION, AMRAVAVILA P.O. DHANUVACHAPURAM, TRIVANDRUM, KERALA - 695 122",DHANUVACHAPURAM,DHANUVACHAPURAM,KERALA,6455628
200,DHANALAKSHMI BANK,DLXB0000205,PUNALUR,"GROUND FLOOR, UNION BUILDING, ANCHAL ROAD, PUNALUR, KERALA - 691 305",PUNALUR,PUNALUR,KERALA,9287215999
201,DHANALAKSHMI BANK,DLXB0000206,BRABOURNE ROAD,"15 PORTUGUESE CHURCH STREET, SHAHEED NITYANAND SAHA SARANI, KOLKATA - 700 001.",KOLKATA,KOLKATA,WEST BENGAL,64570047
202,DHANALAKSHMI BANK,DLXB0000207,MIRA BHAYANDAR,"GROUND FLOOR, JANAKI HERITAGE, OPP. MAXUS MALL, 150 FT. ROAD, BHAYANDER (WEST), DIST. THANE, MAHARASHTRA - 401 101.",MIRA-BHAYANDAR,MIRA-BHAYANDAR,MAHARASHTRA,65991877
203,DHANALAKSHMI BANK,DLXB0000208,NALLASOPARA,"GROUND FLOOR, SHOP NO. 9 TO 16, OLIVE BUILDING, JIVDANI BUILDERS DEVELOPERS, PATNKAR WADI, NALLA SOPARA (WEST) 401 203",NALLASOPARA,NALLASOPARA,MAHARASHTRA,6453376
204,DHANALAKSHMI BANK,DLXB0000209,DOMBIVLI,"GROUND FLOOR, MIRAGE ARCADE, OPP GANESH TEMPLE, NEHRU ROAD, DOMBIVALI (EAST), MUMBAI, MAHARASHTRA - 421201.",DOMBIVLI,DOMBIVLI,MAHARASHTRA,2470033
205,DHANALAKSHMI BANK,DLXB0000210,BHIWANDI,"GROUND FLOOR, DHAMANKAR PSD PLAZA, DHAMANKAR NAKA, AGRA ROAD, BHIWANDI, THANE DISTRICT, MUMBAI, MAHARASHTRA - 421 302",BHIWANDI,BHIWANDI,MAHARASHTRA,2251002
206,DHANALAKSHMI BANK,DLXB0000211,AMBERNATH,"1ST FLOOR GROUND FLOOR, LAXMI SAGAR APT, PLOT NO.3-C, SHIV MANDIR ROAD, SWAMI SAMARTH CHOWK, AMBERNATH (EAST), DIST THANE, MAHARASHTRA - 421501",THANE,THANE,MAHARASHTRA,6543263
207,DHANALAKSHMI BANK,DLXB0000212,MUMBAI CENTRAL,"GROUND 1ST FLOOR,SHOP NO.12-13-14,OFFICE NO.104,105,106,NAVJIVAN COMMERCIAL PREMISES CO-OP.SOC.LTD, MUMBAI CENTRAL,MUMBAI, MAHARASHTRA -400 008",MUMBAI,MUMBAI,MAHARASHTRA,64557852
208,DHANALAKSHMI BANK,DLXB0000213,VADODARA,"SHINE PLAZA, OPP. PASABHAI PARK, NEAR NATUBHAI CIRCLE, RACE COURSE ROAD, VADODARA, GUJARAT - 390 007",VADODARA,VADODARA,GUJARAT,6450362
209,DHANALAKSHMI BANK,DLXB0000214,RAJAMPET,"1ST FLOOR, 6/1015, RAILWAY STATION ROAD, RAJAMPET, KADAPA DIST, ANDHRA PRADESH ┬┐ 516 115",RAJAMPET,RAJAMPET,ANDHRA PRADESH,9247015103
210,DHANALAKSHMI BANK,DLXB0000215,BARDOLI,"GROUND FLOOR, SHRI RANG PLAZA, SARDAR CHOWK, NEAR POLICE STATION, BARDOLI, GUJARAT - 394 601",BARDOLI,BARDOLI,GUJARAT,2650232
211,DHANALAKSHMI BANK,DLXB0000216,LUCKNOW,"GROUND FLOOR BASEMENT, HALWASIYA HOUSE NO. 11, M.G. ROAD, HAZRATGANJ, LUCKNOW, UTTAR PRADESH - 226 001",LUCKNOW,LUCKNOW,UTTAR PRADESH,6569040
212,DHANALAKSHMI BANK,DLXB0000217,NAMAKKAL,"GROUND FLOOR, RANGA PLAZA, PARAMATHY ROAD, NAMAKKAL",NAMAKKAL,NAMAKKAL,TAMIL NADU,6644117
213,DHANALAKSHMI BANK,DLXB0000218,JAIPUR,"G - 3/4/5/6/7, ROYAL WORLD, OPP. CITY CENTRE, SANSAR CHAND ROAD, JAIPUR, RAJASTHAN - 302 001.┬┐",JAIPUR,JAIPUR,RAJASTHAN,6501791
214,DHANALAKSHMI BANK,DLXB0000219,CHANDIGARH,"GROUND FLOOR, RAI BUILDING, SECTOR - 17, NEAR K C CINEMA, CHANDIGARH - 160 017.",CHANDIGARH,CHANDIGARH,PUNJAB,6538924
215,DHANALAKSHMI BANK,DLXB0000220,JALANDHAR,"GROUND FLOOR, 465 - A, NEW JAWAHAR NAGAR, JALANDHAR, PUNJAB - 144 021.",JALANDHAR,JALANDHAR,PUNJAB,6450562
216,DHANALAKSHMI BANK,DLXB0000221,JAGDISHPUR,"NEW BUILDING, GROUND FLOOR, SHANTI MARKET, GT ROAD, JAGDISHPUR - 227809",JAGDISHPUR,JAGDISHPUR,UTTAR PRADESH,5409029
217,DHANALAKSHMI BANK,DLXB0000222,VARANASI,"GROUND FLOOR, SHAKTI SIKHA COMPLEX, SIGRA, VARANASI, UTTAR PRADESH - 221 010",VARANASI,VARANASI,UTTAR PRADESH,6452494
218,DHANALAKSHMI BANK,DLXB0000223,MYSORE,"GROUND FLOOR, DOOR NO. 14, 4TH MAIN, 8TH CROSS, KAMAKSHI HOSPITAL ROAD, SARSWATHIPURAM, MYSORE, KARNATAKA - 570 009.",MYSORE,MYSORE,KARNATAKA,6450493
219,DHANALAKSHMI BANK,DLXB0000224,PALANPUR,PALANPUR,PALANPUR,PALANPUR,KERALA,2645809
220,DHANALAKSHMI BANK,DLXB0000225,PUTTAPARTI,"GROUND FLOOR, SHOP NO. 102, SREE GURU TOWERS, OLD NO. 3-632, GOPURAM ROAD, ANANTPUR DIST, PUTTAPARTHI - 515 134, ANDHRA PRADESH.",PUTTAPARTHI,PUTTAPARTHI,ANDHRA PRADESH,5286192
221,DHANALAKSHMI BANK,DLXB0000226,BHOPAL,"GROUND FLOOR, VNV PLAZA, PLOT NO. 6, ZONE - II, MAHARANA PRATAP NAGAR, BHOPAL, MADHYA PRADESH - 462 001.",BHOPAL,BHOPAL,MADHYA PRADESH,2555019
222,DHANALAKSHMI BANK,DLXB0000227,DURGAPUR,"FIRST FLOOR, GALAZEE SHAHID KHUDIRAM SARANI, CITY CENTER, DURGAPUR, WEST BENGAL - 713 216.",DURGAPUR,DURGAPUR,WEST BENGAL,6450522
223,DHANALAKSHMI BANK,DLXB0000228,YELAHANKA,"GROUND FLOOR, DOOR NO. 1143, MIG, 16TH """"B"""" MAIN ROAD, YELAHANKA NEW TOWN, BANGALORE, KARNATAKA - 560 064.",YELAHANKA,YELAHANKA,KARNATAKA,64531843
224,DHANALAKSHMI BANK,DLXB0000229,MULUND,"A-WING, RAJYOG RESIDENCY, DR.RAJENDRA PRASAD ROAD, OPP. VARDHAMAN NAGAR, MULUND (WEST), MUMBAI, MAHARASHTRA - 400 080",MUMBAI,MUMBAI,MAHARASHTRA,64531653
225,DHANALAKSHMI BANK,DLXB0000230,BANDRA,"GROUND FLOOR, GRAND BELLEVISTA, OPP.BANDRA TALAO, S.V.ROAD, BANDRA (WEST), MUMBAI-400050.",BHANDARA,BHANDARA,MAHARASHTRA,64509908
226,DHANALAKSHMI BANK,DLXB0000231,PUNE,PUNE,PUNE,PUNE,MAHARASHTRA,4500220
227,DHANALAKSHMI BANK,DLXB0000232,RAMESWARAM,"GROUND FLOOR, 18/71, OLD POLICE LANE STREET, VEERABADRASWAMY KOIL/STREET, RAMESWARAM, RAMANATHAPURAM DISTRICT, TAMIL NADU - 623 526",RAMESWARAM,RAMESWARAM,TAMIL NADU,3221033
228,DHANALAKSHMI BANK,DLXB0000233,UDMA,"GROUND FLOOR, NEW BUILDING, NEAR RAILWAY GATE, MAIN ROAD, UDMA, KASARGODE DISTRICT, KERALA - 671 319",UDMA,UDMA,KERALA,265320
229,DHANALAKSHMI BANK,DLXB0000234,GHATKOPAR,MUMBAI,MUMBAI,MUMBAI,MAHARASHTRA,65409017
230,DHANALAKSHMI BANK,DLXB0000235,CHIDAMBARAM,CHIDAMBARAM,CHIDAMBARAM,CHIDAMBARAM,TAMIL NADU,4651912
231,DHANALAKSHMI BANK,DLXB0000236,VERAVAL,GUJARAT,VIRAVAL,VIRAVAL,GUJARAT,6242301
232,DHANALAKSHMI BANK,DLXB0000237,MANJERI,"GROUND FLOOR, KORAMBAYIL COPERATE MALL, CENTRAL BAZAR, CALICUT ROAD, MANJERI, MALAPPURAM DISTRICT, KERALA - 676 121",MANJERI,MANJERI,KERALA,9287276847
233,DHANALAKSHMI BANK,DLXB0000238,KATTAMPALLY,"UPPER GROUND, CENTER PLAZA, KATTAMPALLY ROAD, PUTHIYATHERU, KANNUR, KERALA - 670 011",KATTAMPALLY,KATTAMPALLY,KERALA,450608
234,DHANALAKSHMI BANK,DLXB0000239,KAYYUR,THRISSUR,THRISSUR,THRISSUR,KERALA,2250666
235,DHANALAKSHMI BANK,DLXB0000240,THRIKKAKARA,THRIKKAKARA,THRIKKAKARA,THRIKKAKARA,KERALA,6450772
236,DHANALAKSHMI BANK,DLXB0000241,VADAKARA,VADAKARA,VADAKARA,VADAKARA,KERALA,6451169
237,DHANALAKSHMI BANK,DLXB0000242,KANHANGAD,KANHANGAD,KANHANGAD,KANHANGAD,KERALA,2200911
238,DHANALAKSHMI BANK,DLXB0000243,PUNJABI BAGH,PUNJABI BAGH,NEW DELHI,NEW DELHI,DELHI,65101115
239,DHANALAKSHMI BANK,DLXB0000244,KURUPPAMPADY,KURUPPAMPADY,KURUPPAMPADY,KURUPPAMPADY,KERALA,2593428
240,DHANALAKSHMI BANK,DLXB0000245,CPC HYDERABAD,CPC HYDERABAD,HYDERABAD,HYDERABAD,ANDHRA PRADESH,4500796
241,DHANALAKSHMI BANK,DLXB0000246,PANAJI,PANAJI,PANAJI,GOA,GOA,6451033
242,DHANALAKSHMI BANK,DLXB0000247,ANDHERI BRANCH,MUMBAI,MUMBAI,MUMBAI,MAHARASHTRA,64500501
243,DHANALAKSHMI BANK,DLXB0000248,PRABHADEVI,"GROUND FLOOR & BASEMENT, WEST VIEW CO-OP HOUSING SOCIETYLTD, 485 VEER SAVARKAR MARG, PRABHADEVI MUMBAI -400025",MUMBAI,MUMBAI,MAHARASHTRA,64500502
244,DHANALAKSHMI BANK,DLXB0000249,VASAI,THANE,THANE,THANE,MAHARASHTRA,2330486
245,DHANALAKSHMI BANK,DLXB0000250,VIRAR,GROUND FLOOR VIVA GOKUL ARCADE,MUMBAI,MUMBAI,MAHARASHTRA,6450245
246,DHANALAKSHMI BANK,DLXB0000251,"AMRUTHA INSTITUTE OF COMPUTER TECH, SALIGRAMAM",CHENNAI,CHENNAI,CHENNAI,TAMIL NADU,64509226
247,DHANALAKSHMI BANK,DLXB0000252,"S.N.SCHOOL & COLLEGE, WEST MAMBALAM",CHENNAI,CHENNAI,CHENNAI,TAMIL NADU,65450573
248,DHANALAKSHMI BANK,DLXB0000253,AMRITA INSTITUTE OF TECHNOLOGY ETTIMADAI,COIMBATORE,COIMBATORE,COIMBATORE,TAMIL NADU,2652335
249,DHANALAKSHMI BANK,DLXB0000254,"MGR ADARSH METRICULATION HIGH SCHOOL, MOGAPPAIR",CHENNAI,CHENNAI,CHENNAI,TAMIL NADU,65450574
250,DHANALAKSHMI BANK,DLXB0000255,"S.T.HINDU COLLEGE, NAGERCOIL",NAGERCOIL,KANYAKUMARI,NAGERCOIL,TAMIL NADU,2223475
251,DHANALAKSHMI BANK,DLXB0000256,"AMRUTHANJAN LIMITED, MYLAPORE",CHENNAI,CHENNAI,CHENNAI,TAMIL NADU,64508185
252,DHANALAKSHMI BANK,DLXB0000257,NRI MEDICAL COLLEGE CHINNA KAKKANI,VIJAYAWADA,VIJAYAWADA,VIJAYAWADA,ANDHRA PRADESH,9247060807
253,DHANALAKSHMI BANK,DLXB0000258,AMRITA INSTITUTE OF TECHNOLOGY KORAMANGALA,BANGALORE,BANGALORE,BANGALORE,KARNATAKA,64540470
254,DHANALAKSHMI BANK,DLXB0000259,GURUVAYOOR DEVASWOM GURUVAYOOR,GURUVAYOOR,THRISSUR,GURUVAYOOR,KERALA,6453980
255,DHANALAKSHMI BANK,DLXB0000260,"M.A.MATH, VALLIKAVU",KOLLAM,KOLLAM,KOLLAM,KERALA,9287276643
256,DHANALAKSHMI BANK,DLXB0000261,"MALABAR INSTITUTE OF MEDICAL SCIENCE, KOZHIKODE",KOZHIKODE,KOZHIKODE,KOZHIKODE,KERALA,6453515
257,DHANALAKSHMI BANK,DLXB0000262,"MEDICAL COLLEGE, MULAKUNNATHUKAVU",THRISSUR,THRISSUR,THRISSUR,KERALA,2206179
258,DHANALAKSHMI BANK,DLXB0000263,"MUNCIPALITY, MUNCIPAL BUILDING, VARKALA",TRIVANDRAM,TRIVANDRAM,TRIVANDRAM,KERALA,9287276647
259,DHANALAKSHMI BANK,DLXB0000264,"NSS TALUK UNION,KOTTARAKARA",KOTTARAKARA,KOTTARAKARA,KOTTARAKARA,KERALA,9287276646
260,DHANALAKSHMI BANK,DLXB0000265,"S.N.COLLEGE, CHERTHALA",CHERTHALA,CHERTHALA,CHERTHALA,KERALA,6450278
261,DHANALAKSHMI BANK,DLXB0000266,"T.D.B OFFICE, MAVELIKKARA",MAVELIKKARA,MAVELIKKARA,MAVELIKKARA,KERALA,6540458
262,DHANALAKSHMI BANK,DLXB0000267,T.D.B OFFICE. ETTUMANOOR,ETTUMANOOR,ETTUMANOOR,ETTUMANOOR,KERALA,6452392
263,DHANALAKSHMI BANK,DLXB0000268,"VIDYADHIRAJA VIDYA BHAVAN, CHEERAKADA",ALUVA,ALUVA,ALUVA,KERALA,6453593
264,DHANALAKSHMI BANK,DLXB0000269,ATTUKKAL TEMPLE,TRIVANDRAM,TRIVANDRAM,TRIVANDRAM,KERALA,6451280
265,DHANALAKSHMI BANK,DLXB0000270,"BAR COUNCIL, VANCHIYOOR",VANCHIYOOR,VANCHIYOOR,VANCHIYOOR,KERALA,6451287
266,DHANALAKSHMI BANK,DLXB0000271,"DR.NAIRS HOSPITAL, KOLLAM",KOLLAM,KOLLAM,KOLLAM,KERALA,6451307
267,DHANALAKSHMI BANK,DLXB0000272,"G.C.D.A, ERNAKULAM",ERNAKULAM,ERNAKULAM,ERNAKULAM,KERALA,6453579
268,DHANALAKSHMI BANK,DLXB0000273,"S.D.COLLEGE, ALAPPUZHA",ERNAKULAM,ERNAKULAM,ERNAKULAM,KERALA,2268537
269,DHANALAKSHMI BANK,DLXB0000274,"SHANKERS HOSPITAL, KOLLAM",KOLLAM,KOLLAM,KOLLAM,KERALA,6451308
270,DHANALAKSHMI BANK,DLXB0000275,T.D.B OFFICE.NANTHANCODE,NANTHANCODE,NANTHANCODE,NANTHANCODE,KERALA,6451276
271,DHANALAKSHMI BANK,DLXB0000276,"WELCARE HOSPITAL, VYTTILA",ERNAKULAM,ERNAKULAM,ERNAKULAM,KERALA,6453585
272,DHANALAKSHMI BANK,DLXB0000277,CPC THRISSUR,MG ROAD THRISSUR,THRISSUR,THRISSUR,KERALA,6454246
273,DHANALAKSHMI BANK,DLXB0000278,JODHPUR,"PLOT NO. 76,GROUND FLOOR,LK TOWER, CHOPASANI ROAD,JODHPUR -342002",JODHPUR,JODHPUR,RAJASTHAN,2610140
274,DHANALAKSHMI BANK,DLXB0000279,BAREILLY,"G.F,1160,JANAKPURI,OPP PRABHAT NAGAR GATE,BAREILLY - 243122",BAREILLY,BAREILLY,UTTAR PRADESH,6450119
275,DHANALAKSHMI BANK,DLXB0000905,RPC KOLKATA,"ANANDLOK BUILDING,1ST FLOOR,B BLOCK,227,AJC BOSE ROAD,KOLKATA 700020",KOLKATA,KOLKATA,WEST BENGAL,0
276,DHANALAKSHMI BANK,DLXB0000993,RPC COIMBATORE,"286,STANDARD TOWERS, AVINASHI ROAD,PEELAMEDU,COIMBATORE 641004",COIMBATORE,COIMBATORE,TAMIL NADU,0
277,DHANALAKSHMI BANK,DLXB0000994,RPC PALAKKAD,"1 FLOOR,KRISHNA ARCADE,CHANDRANAGAR,PALAKKAD 678007",PALAKKAD,PALAKKAD,KERALA,0
278,DHANALAKSHMI BANK,DLXB0000996,RTGS CELL,RTGS CELL,THRISSUR,THRISSUR,KERALA,0
279,DHANALAKSHMI BANK,DLXB0000998,CORPORATE OFFICE,THRISSUR,THRISSUR,THRISSUR,KERALA,6617000
280,DHANALAKSHMI BANK,DLXB0000999,DCS,THRISSUR,THRISSUR,THRISSUR,KERALA,0
