,BANK NAME,IFSC,OFFICE,ADDRESS,DISTRICT,CITY,STATE,PHONE
0,THE RAJASTHAN STATE COOPERATIVE BANK LIMITED,RSCB0000001,RTGS-HO,"DC-1, OPP. NEHRU BALODYAN, TONK ROAD,JAIPUR - 302015",JAIPUR,JAIPUR,RAJASTHAN,2744815
1,THE RAJASTHAN STATE COOPERATIVE BANK LIMITED,RSCB0000002,UDAIPUR REGIONAL OFFICE,"SECTOR 11, 73-74, HIRAN MAGRI, OPP. INDIAN OIL DEPOT, UDAIPUR - 313 001",UDAIPUR,UDAIPUR,RAJASTHAN,2583266
2,THE RAJASTHAN STATE COOPERATIVE BANK LIMITED,RSCB0000003,C-SCHEME,"J.D.A COMPLEX  AHINSA CIRCLE, C-SCHEME,  JAIPUR ┬û 302001",JAIPUR,JAIPUR,RAJASTHAN,2368305
3,THE RAJASTHAN STATE COOPERATIVE BANK LIMITED,RSCB0000004,NEHRU BAZAAR,"NEW GATE, NEHRU BAZAAR, JAIPUR - 302003",JAIPUR,JAIPUR,RAJASTHAN,2315536
4,THE RAJASTHAN STATE COOPERATIVE BANK LIMITED,RSCB0000005,KUMS,"DC-1, OPP. NEHRU BALODYAN, TONK ROAD,JAIPUR - 302015",JAIPUR,JAIPUR,RAJASTHAN,2742437
5,THE RAJASTHAN STATE COOPERATIVE BANK LIMITED,RSCB0000006,BARKAT NAGAR,"145,  LANE NO. 6, NEAR SHARMA KIRANA STORE, BARKAT NAGAR, TONK PHATAK,  JAIPUR ┬û 302015",JAIPUR,JAIPUR,RAJASTHAN,2590651
6,THE RAJASTHAN STATE COOPERATIVE BANK LIMITED,RSCB0000007,JAWAHAR NAGAR,"COMMECIAL COMPLEX - 212, GOLE MARKET, NEAR MAMAKI HOTEL, JAWAHAR NAGAR, JAIPUR - 302004",JAIPUR,JAIPUR,RAJASTHAN,2651715
7,THE RAJASTHAN STATE COOPERATIVE BANK LIMITED,RSCB0000008,NEHRU SHAHKAR BHAWAN,"NEHRU SHAHKAR BHAWAN, BHAWANI SINGH ROAD JAIPUR ┬û 302 001",JAIPUR,JAIPUR,RAJASTHAN,2740705
8,THE RAJASTHAN STATE COOPERATIVE BANK LIMITED,RSCB0000009,MALVIYA NAGAR,"A-87, SHIVANAND MARG, NEAR KAILGIRI EYE HOSPITAL,  MALVIYA NAGAR,  JAIPUR - 302017",JAIPUR,JAIPUR,RAJASTHAN,2759567
9,THE RAJASTHAN STATE COOPERATIVE BANK LIMITED,RSCB0000010,MANSAROVAR,"22/32/01, SAWARN PATH, MANSAROVAR JAIPUR - 302020",JAIPUR,JAIPUR,RAJASTHAN,2392456
10,THE RAJASTHAN STATE COOPERATIVE BANK LIMITED,RSCB0000011,VIDHYADHAR NAGAR,"7/95, SECTOR - 7, VIDHYADHAR NAGAR,JAIPUR ┬û 302023",JAIPUR,JAIPUR,RAJASTHAN,2336870
11,THE RAJASTHAN STATE COOPERATIVE BANK LIMITED,RSCB0000012,BIKANER REGIONAL OFFICE,"39,PUNCHSHATI CIRCLE SADURLAGANJ,  BIKANER ┬û 334 002",BIKANER,BIKANER,RAJASTHAN,2202926
12,THE RAJASTHAN STATE COOPERATIVE BANK LIMITED,RSCB0000013,KOTA REGIONAL OFFICE,"PRATHAM BHAWAN, NAVJOYTI ROAD, CHAVANI CROSS ROAD,  KOTA - 324 007",KOTA,KOTA,RAJASTHAN,2363405
13,THE RAJASTHAN STATE COOPERATIVE BANK LIMITED,RSCB0000014,JODHPUR REGIONAL OFFICE,RAJIV GANDHI SHAHKAR BHAWAN COMPOUND NEAR RAILWAY STATION  JODHPUR ┬û 342 001,JODHPUR,JODHPUR,RAJASTHAN,2635863
14,THE RAJASTHAN STATE COOPERATIVE BANK LIMITED,RSCB0000015,PRATAP NAGAR,"68/4 MAIN HALDI GHATI ROAD, PRATAP NAGAR, JAIPUR ┬û 302033",JAIPUR,JAIPUR,RAJASTHAN,2790239
15,THE RAJASTHAN STATE COOPERATIVE BANK LIMITED,RSCB0000016,JAGATPURA,"D-23, ANAND VIHAR, RAILWAY COLONY, JAIPUR ┬û 302025",JAIPUR,JAIPUR,RAJASTHAN,2750887
16,THE RAJASTHAN STATE COOPERATIVE BANK LIMITED,RSCB0000017,SIKAR ROAD,"SHOP NO. 32,33 OPP. GORAS BHANDAR KEDIA PALACE ROAD, SIKAR ROAD JAIPUR - 302013",JAIPUR,JAIPUR,RAJASTHAN,2330988
17,THE RAJASTHAN STATE COOPERATIVE BANK LIMITED,RSCB0011001,AJMER CENTRAL COOP BANK LTD,PB156 AJMER PIN CODE NO 305001,AJMER,AJMER,RAJASTHAN,2627396
18,THE RAJASTHAN STATE COOPERATIVE BANK LIMITED,RSCB0011002,AJMER CENTRAL COOP BANK LTD,KHAILAND MARKET AJMER PIN CODE NO 305001,AJMER,AJMER,RAJASTHAN,2423742
19,THE RAJASTHAN STATE COOPERATIVE BANK LIMITED,RSCB0011003,AJMER CENTRAL COOP BANK LTD,"NEAR GOVT.HOSPITAL ARAIN,MAIN ROAD AJMER PIN CODE NO 305813",AJMER,AJMER,RAJASTHAN,281125
20,THE RAJASTHAN STATE COOPERATIVE BANK LIMITED,RSCB0011004,AJMER CENTRAL COOP BANK LTD,"SHANTI TAWAR,CHANG GATE,BEAWAR PIN CODE NO 305901",AJMER,AJMER,RAJASTHAN,257578
21,THE RAJASTHAN STATE COOPERATIVE BANK LIMITED,RSCB0011005,AJMER CENTRAL COOP BANK LTD,"NEAR COMMUNITY HEALTH CENTRE,OPP.GOVT.HOSPITAL BHINAI PIN CODE NO 305622",AJMER,AJMER,RAJASTHAN,273428
22,THE RAJASTHAN STATE COOPERATIVE BANK LIMITED,RSCB0011006,AJMER CENTRAL COOP BANK LTD,KRSHI MANDI SAMITI BIJAYNAGER PIN CODE NO 305624,AJMER,AJMER,RAJASTHAN,230060
23,THE RAJASTHAN STATE COOPERATIVE BANK LIMITED,RSCB0011007,AJMER CENTRAL COOP BANK LTD,"OPP.NAGAR PALIKA,NEAR POLIC THANA KEKRI PIN CODE NO 305404",AJMER,AJMER,RAJASTHAN,220046
24,THE RAJASTHAN STATE COOPERATIVE BANK LIMITED,RSCB0011008,AJMER CENTRAL COOP BANK LTD,NEAR BUS STAND KISHANGARH PIN CODE NO 305801,AJMER,AJMER,RAJASTHAN,246595
25,THE RAJASTHAN STATE COOPERATIVE BANK LIMITED,RSCB0011009,AJMER CENTRAL COOP BANK LTD,NEAR BUS STAND MASUDA PIN CODE NO 305623,AJMER,AJMER,RAJASTHAN,266908
26,THE RAJASTHAN STATE COOPERATIVE BANK LIMITED,RSCB0011010,AJMER CENTRAL COOP BANK LTD,"KRSHI MANDISUBHASH GANJ ANAJ MANDI,NASIRABAD PIN CODE NO 305601",AJMER,AJMER,RAJASTHAN,220057
27,THE RAJASTHAN STATE COOPERATIVE BANK LIMITED,RSCB0011011,AJMER CENTRAL COOP BANK LTD,NEAR BUS STAND ROAD PISANGAN PIN CODE NO 305201,AJMER,AJMER,RAJASTHAN,2775234
28,THE RAJASTHAN STATE COOPERATIVE BANK LIMITED,RSCB0011012,AJMER CENTRAL COOP BANK LTD,NAGAR PALIKA BULDING PUSHKAR PIN CODE NO 305022,AJMER,AJMER,RAJASTHAN,2772007
29,THE RAJASTHAN STATE COOPERATIVE BANK LIMITED,RSCB0011013,AJMER CENTRAL COOP BANK LTD,NEAR BUS STAND SARWAR PIN CODE NO 305403,AJMER,AJMER,RAJASTHAN,230030
30,THE RAJASTHAN STATE COOPERATIVE BANK LIMITED,RSCB0011099,AJMER CENTRAL COOP BANK LTD,"AJMER CENTRAL COOPERATIVE BANK LTD,HEAD OFFICE,JAIPUR ROAD,PB156 AJMER PIN CODE NO 305001",AJMER,AJMER,RAJASTHAN,2431613
31,THE RAJASTHAN STATE COOPERATIVE BANK LIMITED,RSCB0012001,THE ALWAR CENTRAL COOP BANKLTD,"HOPE CIRCUS,ALWAR 301001",ALWAR,ALWAR,RAJASTHAN,2340857
32,THE RAJASTHAN STATE COOPERATIVE BANK LIMITED,RSCB0012002,THE ALWAR CENTRAL COOP BANKLTD,"298,SCHEME 1,ARYA NAGAR,ALWAR 301001",ALWAR,ALWAR,RAJASTHAN,2346782
33,THE RAJASTHAN STATE COOPERATIVE BANK LIMITED,RSCB0012003,THE ALWAR CENTRAL COOP BANKLTD,"KISHANGARH ROAD,NEAR RAILWAY FATAK301404",ALWAR,ALWAR,RAJASTHAN,222093
34,THE RAJASTHAN STATE COOPERATIVE BANK LIMITED,RSCB0012004,THE ALWAR CENTRAL COOP BANKLTD,"JAIN DHARMSHALA,KATHUMAR,KHERLI321606",ALWAR,ALWAR,RAJASTHAN,220064
35,THE RAJASTHAN STATE COOPERATIVE BANK LIMITED,RSCB0012005,THE ALWAR CENTRAL COOP BANKLTD,"IN FRONT OF PANCHAYAT SAMITI,MAIN ROAD,BEHROR301701",ALWAR,ALWAR,RAJASTHAN,220029
36,THE RAJASTHAN STATE COOPERATIVE BANK LIMITED,RSCB0012006,THE ALWAR CENTRAL COOP BANKLTD,"GOAL MARKET,NEHRU CIRCLE,RAJGARH301048",ALWAR,ALWAR,RAJASTHAN,220023
37,THE RAJASTHAN STATE COOPERATIVE BANK LIMITED,RSCB0012007,THE ALWAR CENTRAL COOP BANKLTD,"NEAR HANS MARRIAGE HOME,RAMGARH301026",ALWAR,ALWAR,RAJASTHAN,232028
38,THE RAJASTHAN STATE COOPERATIVE BANK LIMITED,RSCB0012008,THE ALWAR CENTRAL COOP BANKLTD,"IN FRONT OF PANCHAYAT SAMITI,VIKAS PATH,TIJARA301411",ALWAR,ALWAR,RAJASTHAN,262034
39,THE RAJASTHAN STATE COOPERATIVE BANK LIMITED,RSCB0012009,THE ALWAR CENTRAL COOP BANKLTD,"NEAR PANCHAYAT SAMITI,LAXMANGARH321607",ALWAR,ALWAR,RAJASTHAN,233025
40,THE RAJASTHAN STATE COOPERATIVE BANK LIMITED,RSCB0012010,THE ALWAR CENTRAL COOP BANKLTD,"OPP.POLICE STATION,KOTKASIM 301702",ALWAR,ALWAR,RAJASTHAN,235227
41,THE RAJASTHAN STATE COOPERATIVE BANK LIMITED,RSCB0012011,THE ALWAR CENTRAL COOP BANKLTD,"NEAR PANCHAYAT SAMITI,MUNDAWAR301407",ALWAR,ALWAR,RAJASTHAN,260002
42,THE RAJASTHAN STATE COOPERATIVE BANK LIMITED,RSCB0012012,THE ALWAR CENTRAL COOP BANKLTD,"SABJI MANDI,NEAR TEHSILDAR QUARTER,BANSUR301402",ALWAR,ALWAR,RAJASTHAN,220008
43,THE RAJASTHAN STATE COOPERATIVE BANK LIMITED,RSCB0012013,THE ALWAR CENTRAL COOP BANKLTD,"NEAR PANCHAYAT SAMITI,NEEMRANA301705",ALWAR,ALWAR,RAJASTHAN,246334
44,THE RAJASTHAN STATE COOPERATIVE BANK LIMITED,RSCB0012014,THE ALWAR CENTRAL COOP BANKLTD,"NEAR PNB,RAINI301409",ALWAR,ALWAR,RAJASTHAN,242173
45,THE RAJASTHAN STATE COOPERATIVE BANK LIMITED,RSCB0012015,THE ALWAR CENTRAL COOP BANKLTD,"SABJI MANDI CHOWK,THANAGAZI301022",ALWAR,ALWAR,RAJASTHAN,224228
46,THE RAJASTHAN STATE COOPERATIVE BANK LIMITED,RSCB0012016,THE ALWAR CENTRAL COOP BANKLTD,NEAR GOVT.HOSPITAL TAPUKRA 301707,ALWAR,ALWAR,RAJASTHAN,243118
47,THE RAJASTHAN STATE COOPERATIVE BANK LIMITED,RSCB0012017,GOVINDGARH,MAIN MARKET GOVINDGARH,ALWAR-301001,ALWAR,RAJASTHAN,2701121
48,THE RAJASTHAN STATE COOPERATIVE BANK LIMITED,RSCB0012018,KATHUMAR,"THE ALWAR CENTRAL CO-OPERATIVE BANK LTD.,LAXMANGARH ROAD, MAIN MARKET, KATHUMAR - 321605, ALWAR, RAJASTHAN",ALWAR,ALWAR,RAJASTHAN,9351194621
49,THE RAJASTHAN STATE COOPERATIVE BANK LIMITED,RSCB0012099,THE ALWAR CENTRAL COOP BANKLTD,"HOPE CIRCUS,ALWAR301001",ALWAR,ALWAR,RAJASTHAN,2703489
50,THE RAJASTHAN STATE COOPERATIVE BANK LIMITED,RSCB0013001,THE BANSWARA CENTRAL COOP BANKLTD,"SADAR BAZAR,BANSWARA327001",BANSWARA,BANSWARA,RAJASTHAN,243716
51,THE RAJASTHAN STATE COOPERATIVE BANK LIMITED,RSCB0013002,THE BANSWARA CENTRAL COOP BANKLTD,"GANDHI ASHRAM,SADAR BAZAR,PARTAPUR327024",BANSWARA,BANSWARA,RAJASTHAN,220048
52,THE RAJASTHAN STATE COOPERATIVE BANK LIMITED,RSCB0013003,THE BANSWARA CENTRAL COOP BANKLTD,"NR.BUS STAND,KUSHALGARH 327801",BANSWARA,BANSWARA,RAJASTHAN,275229
53,THE RAJASTHAN STATE COOPERATIVE BANK LIMITED,RSCB0013004,THE BANSWARA CENTRAL COOP BANKLTD,"NR.BUS STAND,BAGIDORA327601",BANSWARA,BANSWARA,RAJASTHAN,280021
54,THE RAJASTHAN STATE COOPERATIVE BANK LIMITED,RSCB0013005,THE BANSWARA CENTRAL COOP BANKLTD,"POST OFFICE CHOURAHA,GHANTOL327023",BANSWARA,BANSWARA,RAJASTHAN,235138
55,THE RAJASTHAN STATE COOPERATIVE BANK LIMITED,RSCB0013006,THE BANSWARA CENTRAL COOP BANKLTD,SAJJANGARH 327602,BANSWARA,BANSWARA,RAJASTHAN,273215
56,THE RAJASTHAN STATE COOPERATIVE BANK LIMITED,RSCB0013007,THE BANSWARA CENTRAL COOP BANKLTD,"OPP.PANCHAYAT SAMITI,ANANDPURI 327031",BANSWARA,BANSWARA,RAJASTHAN,287464
57,THE RAJASTHAN STATE COOPERATIVE BANK LIMITED,RSCB0013008,THE BANSWARA CENTRAL COOP BANKLTD,"NAI ABADI,BANSWARA327001",BANSWARA,BANSWARA,RAJASTHAN,243424
58,THE RAJASTHAN STATE COOPERATIVE BANK LIMITED,RSCB0013009,THE BANSWARA CENTRAL COOP BANKLTD,"BCCB,COLLEGE ROAD,BANSWARA327001",BANSWARA,BANSWARA,RAJASTHAN,244065
59,THE RAJASTHAN STATE COOPERATIVE BANK LIMITED,RSCB0013010,GANGARTALAI,"AMBIKA CHOWK, GANGARTALAI",BANSWARA,BANSWARA,RAJASTHAN,243784
60,THE RAJASTHAN STATE COOPERATIVE BANK LIMITED,RSCB0013011,TALWARA,"OPPOSITE PANCHAYAT SAMITI OFFICE, TALWARA",BANSWARA,TALWARA,RAJASTHAN,241375
61,THE RAJASTHAN STATE COOPERATIVE BANK LIMITED,RSCB0013099,THE BANSWARA CENTRAL COOP BANKLTD,"BCCB,COLLEGE ROAD,BANSWARA327001",BANSWARA,BANSWARA,RAJASTHAN,241375
62,THE RAJASTHAN STATE COOPERATIVE BANK LIMITED,RSCB0014001,THE BARMER CENTRAL COOP BANKLTD,STATION ROAD BARMER344001,BARMER,BARMER,RAJASTHAN,220046
63,THE RAJASTHAN STATE COOPERATIVE BANK LIMITED,RSCB0014002,THE BARMER CENTRAL COOP BANKLTD,LAXMI BAZAR BARMER344001,BARMER,BARMER,RAJASTHAN,220213
64,THE RAJASTHAN STATE COOPERATIVE BANK LIMITED,RSCB0014003,THE BARMER CENTRAL COOP BANKLTD,COURT ROAD BALOTARA344022,BARMER,BARMER,RAJASTHAN,220135
65,THE RAJASTHAN STATE COOPERATIVE BANK LIMITED,RSCB0014004,THE BARMER CENTRAL COOP BANKLTD,OPP.PANCHYAT SAMITI BAYTU344034,BARMER,BARMER,RAJASTHAN,241122
66,THE RAJASTHAN STATE COOPERATIVE BANK LIMITED,RSCB0014005,THE BARMER CENTRAL COOP BANKLTD,DHORIMANNA DISTTBARMER344704,BARMER,BARMER,RAJASTHAN,264233
67,THE RAJASTHAN STATE COOPERATIVE BANK LIMITED,RSCB0014006,THE BARMER CENTRAL COOP BANKLTD,CHOHTAN DISTTBARMER344002,BARMER,BARMER,RAJASTHAN,286138
68,THE RAJASTHAN STATE COOPERATIVE BANK LIMITED,RSCB0014007,THE BARMER CENTRAL COOP BANKLTD,SIWANA DISTTBARMER344044,BARMER,BARMER,RAJASTHAN,230653
69,THE RAJASTHAN STATE COOPERATIVE BANK LIMITED,RSCB0014008,THE BARMER CENTRAL COOP BANKLTD,SHEO DISTTBARMER344701,BARMER,BARMER,RAJASTHAN,253007
70,THE RAJASTHAN STATE COOPERATIVE BANK LIMITED,RSCB0014009,THE BARMER CENTRAL COOP BANKLTD,PADRU DISTTBARMER344801,BARMER,BARMER,RAJASTHAN,234490
71,THE RAJASTHAN STATE COOPERATIVE BANK LIMITED,RSCB0014010,THE BARMER CENTRAL COOP BANKLTD,2ND RAILWAY CROSSING BALOTARA344022,BARMER,BARMER,RAJASTHAN,221313
72,THE RAJASTHAN STATE COOPERATIVE BANK LIMITED,RSCB0014011,THE BARMER CENTRAL COOP BANKLTD,NOKHDA DISTTBARMER344703,BARMER,BARMER,RAJASTHAN,9784942053
73,THE RAJASTHAN STATE COOPERATIVE BANK LIMITED,RSCB0014012,THE BARMER CENTRAL COOP BANKLTD,PATODI DISTTBARMER344032,BARMER,BARMER,RAJASTHAN,254600
74,THE RAJASTHAN STATE COOPERATIVE BANK LIMITED,RSCB0014014,THE BARMER CENTRAL COOP BANKLTD,SAWAU PADAM SINGH DISTTBARMER344037,BARMER,BARMER,RAJASTHAN,256721
75,THE RAJASTHAN STATE COOPERATIVE BANK LIMITED,RSCB0014015,THE BARMER CENTRAL COOP BANKLTD,SINDHARY DISTTBARMER344003,BARMER,BARMER,RAJASTHAN,284422
76,THE RAJASTHAN STATE COOPERATIVE BANK LIMITED,RSCB0014016,THE BARMER CENTRAL COOP BANKLTD,SAMDARI DISTTBARMER344021,BARMER,BARMER,RAJASTHAN,276244
77,THE RAJASTHAN STATE COOPERATIVE BANK LIMITED,RSCB0014017,THE BARMER CENTRAL COOP BANKLTD,GUDAMALANI DISTTBARMER344031,BARMER,BARMER,RAJASTHAN,280033
78,THE RAJASTHAN STATE COOPERATIVE BANK LIMITED,RSCB0014018,THE BARMER CENTRAL COOP BANKLTD,KALYANPUR DISTTBARMER344026,BARMER,BARMER,RAJASTHAN,255036
79,THE RAJASTHAN STATE COOPERATIVE BANK LIMITED,RSCB0014019,THE BARMER CENTRAL COOP BANKLTD,GADRA ROAD DISTTBARMER344003,BARMER,BARMER,RAJASTHAN,278322
80,THE RAJASTHAN STATE COOPERATIVE BANK LIMITED,RSCB0014020,THE BARMER CENTRAL COOP BANKLTD,JASOL DISTTBARMER344022,BARMER,BARMER,RAJASTHAN,240035
81,THE RAJASTHAN STATE COOPERATIVE BANK LIMITED,RSCB0014021,THE BARMER CENTRAL COOP BANKLTD,SINDHARY CHORAYA BARMER344001,BARMER,BARMER,RAJASTHAN,220622
82,THE RAJASTHAN STATE COOPERATIVE BANK LIMITED,RSCB0014022,THE BARMER CENTRAL COOP BANKLTD,VIVEKANAND CIRCLE BARMER344001,BARMER,BARMER,RAJASTHAN,224736
83,THE RAJASTHAN STATE COOPERATIVE BANK LIMITED,RSCB0014025,THE BARMER CENTRAL COOP BANKLTD,SEDWA DISTTBARMER344706,BARMER,BARMER,RAJASTHAN,9784942074
84,THE RAJASTHAN STATE COOPERATIVE BANK LIMITED,RSCB0014026,THE BARMER CENTRAL COOP BANKLTD,RAMSAR DISTTBARMER344502,BARMER,BARMER,RAJASTHAN,9784942072
85,THE RAJASTHAN STATE COOPERATIVE BANK LIMITED,RSCB0014027,BATADU,MAIN BAZAR BATADU TEHSIL BAITU DISTT.RAJASTHAN,BARMER,BATADU,RAJASTHAN,9784942070
86,THE RAJASTHAN STATE COOPERATIVE BANK LIMITED,RSCB0014028,GIDA,"GRAM POST,GIDA,DISTRICT-BARMER(RAJ)",BARMER,BARMER,RAJASTHAN,9784942009
87,THE RAJASTHAN STATE COOPERATIVE BANK LIMITED,RSCB0014099,THE BARMER CENTRAL COOP BANKLTD,MAHAVEER NAGAR BARMER34401,BARMER,BARMER,RAJASTHAN,345220461
88,THE RAJASTHAN STATE COOPERATIVE BANK LIMITED,RSCB0015001,THE BHARATPUR CENTRAL COOP BANK LTD,"SARAFA BAZAR,BHARATPUR 321001",BHARATPUR,BHARATPUR,RAJASTHAN,223538
89,THE RAJASTHAN STATE COOPERATIVE BANK LIMITED,RSCB0015002,THE BHARATPUR CENTRAL COOP BANK LTD,"CIRCULER ROAD,KUMHERI GATE,BHARATPUR 321001",BHARATPUR,BHARATPUR,RAJASTHAN,261487
90,THE RAJASTHAN STATE COOPERATIVE BANK LIMITED,RSCB0015003,THE BHARATPUR CENTRAL COOP BANK LTD,"NAYE MANDI,BHARATPUR 321001",BHARATPUR,BHARATPUR,RAJASTHAN,223772
91,THE RAJASTHAN STATE COOPERATIVE BANK LIMITED,RSCB0015004,THE BHARATPUR CENTRAL COOP BANK LTD,"NEAR OLD POWER HOUSE,BHARATPUR 321001",BHARATPUR,BHARATPUR,RAJASTHAN,222259
92,THE RAJASTHAN STATE COOPERATIVE BANK LIMITED,RSCB0015005,THE BHARATPUR CENTRAL COOP BANK LTD,"PNCHAYAT SAMITI,KUMHER 321201",BHARATPUR,BHARATPUR,RAJASTHAN,240048
93,THE RAJASTHAN STATE COOPERATIVE BANK LIMITED,RSCB0015006,THE BHARATPUR CENTRAL COOP BANK LTD,"NEAR ANAAJ MANDI,DEEG 321203",BHARATPUR,BHARATPUR,RAJASTHAN,220040
94,THE RAJASTHAN STATE COOPERATIVE BANK LIMITED,RSCB0015007,THE BHARATPUR CENTRAL COOP BANK LTD,"MAIN MARKET,KAMAN 321022",BHARATPUR,BHARATPUR,RAJASTHAN,250022
95,THE RAJASTHAN STATE COOPERATIVE BANK LIMITED,RSCB0015008,THE BHARATPUR CENTRAL COOP BANK LTD,"BEHIND TEHSIL,NAGAR 321205",BHARATPUR,BHARATPUR,RAJASTHAN,9829290597
96,THE RAJASTHAN STATE COOPERATIVE BANK LIMITED,RSCB0015009,THE BHARATPUR CENTRAL COOP BANK LTD,"NEAR TEHSIL,NADBAI 321602",BHARATPUR,BHARATPUR,RAJASTHAN,273678
97,THE RAJASTHAN STATE COOPERATIVE BANK LIMITED,RSCB0015010,THE BHARATPUR CENTRAL COOP BANK LTD,"NEAR BUS STAND,BHUSAWER 321406",BHARATPUR,BHARATPUR,RAJASTHAN,270045
98,THE RAJASTHAN STATE COOPERATIVE BANK LIMITED,RSCB0015011,THE BHARATPUR CENTRAL COOP BANK LTD,"NEAR KRISHI UPAJ MANDI,BAYANA 321401",BHARATPUR,BHARATPUR,RAJASTHAN,222006
99,THE RAJASTHAN STATE COOPERATIVE BANK LIMITED,RSCB0015012,THE BHARATPUR CENTRAL COOP BANK LTD,"NEAR ROOPWAS K.V.S.S,ROOPWAS 321404",BHARATPUR,BHARATPUR,RAJASTHAN,273207
100,THE RAJASTHAN STATE COOPERATIVE BANK LIMITED,RSCB0015013,THE BHARATPUR CENTRAL COOP BANK LTD,"SITARAM BAZAR,BAARI 328021",DHOLPUR,DHOLPUR,RAJASTHAN,273742
101,THE RAJASTHAN STATE COOPERATIVE BANK LIMITED,RSCB0015014,THE BHARATPUR CENTRAL COOP BANK LTD,"K.V.S.S CAMPUS,DHOLPUR 320081",DHOLPUR,DHOLPUR,RAJASTHAN,220631
102,THE RAJASTHAN STATE COOPERATIVE BANK LIMITED,RSCB0015015,BHARATPUR,"NEAR RAJASTHAN GRAMIN BANK,JAGNER ROAD,BASEDI,DHOLPUR",BHARATPUR,DHOLPUR,RAJASTHAN,0
103,THE RAJASTHAN STATE COOPERATIVE BANK LIMITED,RSCB0015016,RAJAKHERA,"PINAHAT ROAD, RAJAKHERA BY PASS ROAD, RAJAKHERA",DHOLPUR,RAJAKHERA,RAJASTHAN,8094678620
104,THE RAJASTHAN STATE COOPERATIVE BANK LIMITED,RSCB0015099,THE BHARATPUR CENTRAL COOP BANK LTD,"NEAR OLD POWER HOUSE,BHARATPUR 321001",BHARATPUR,BHARATPUR,RAJASTHAN,222259
105,THE RAJASTHAN STATE COOPERATIVE BANK LIMITED,RSCB0016001,THE CENTRAL COOP BANKLTD,"52,BALAJI MARKET,BHILWARA 311001",BHILWARA,BHILWARA,RAJASTHAN,220209
106,THE RAJASTHAN STATE COOPERATIVE BANK LIMITED,RSCB0016002,THE CENTRAL COOP BANKLTD,"NEAR BALAJI KI CHATTRI,SHAHPUR,BHILWARA,RAJ.311404",BHILWARA,BHILWARA,RAJASTHAN,222209
107,THE RAJASTHAN STATE COOPERATIVE BANK LIMITED,RSCB0016003,THE CENTRAL COOP BANKLTD,"BUS STAND ROAD,NEAR BANK OF BARODA,MANDAL GARH,BHILWARA,RAJ.311604",BHILWARA,BHILWARA,RAJASTHAN,230110
108,THE RAJASTHAN STATE COOPERATIVE BANK LIMITED,RSCB0016004,THE CENTRAL COOP BANKLTD,"NEAR KVSS HURDA ROAD GULABPURA,BHILWARA,RAJ.311021",BHILWARA,BHILWARA,RAJASTHAN,223023
109,THE RAJASTHAN STATE COOPERATIVE BANK LIMITED,RSCB0016005,THE CENTRAL COOP BANKLTD,"NEAR GANGAPUR KVSS,NEAR BUS STAND,GANGAPUR,ASTT BHILWARA 311801",BHILWARA,BHILWARA,RAJASTHAN,220018
110,THE RAJASTHAN STATE COOPERATIVE BANK LIMITED,RSCB0016006,THE CENTRAL COOP BANKLTD,"NOW CHOWK,JAHAZPUR,BHILWARA RAJ.311201",BHILWARA,BHILWARA,RAJASTHAN,230025
111,THE RAJASTHAN STATE COOPERATIVE BANK LIMITED,RSCB0016007,THE CENTRAL COOP BANKLTD,"NEAR NEW MARKETING,TEHSIL MANDALGARH,BHILWARA,RAJ.311602",BHILWARA,BHILWARA,RAJASTHAN,236036
112,THE RAJASTHAN STATE COOPERATIVE BANK LIMITED,RSCB0016008,THE CENTRAL COOP BANKLTD,"BEHIND BOB,RAIPUR GSS LTD.RAIPUR,BHILWARA,RAJ.311803",BHILWARA,BHILWARA,RAJASTHAN,230029
113,THE RAJASTHAN STATE COOPERATIVE BANK LIMITED,RSCB0016009,THE CENTRAL COOP BANKLTD,"NEAR NARSINGH DUAR,PANCHAYAT SAMITI ROAD.ASIND,BHILWARA,RAJ.311301",BHILWARA,BHILWARA,RAJASTHAN,220122
114,THE RAJASTHAN STATE COOPERATIVE BANK LIMITED,RSCB0016010,THE CENTRAL COOP BANKLTD,"NEAR BUS STAND,KOTRI,BHILWARA RAJ.311603",BHILWARA,BHILWARA,RAJASTHAN,235233
115,THE RAJASTHAN STATE COOPERATIVE BANK LIMITED,RSCB0016011,THE CENTRAL COOP BANKLTD,"NEAR POLICE CHOKI,BANERA BHILWARA,RAJ.311401",BHILWARA,BHILWARA,RAJASTHAN,272036
116,THE RAJASTHAN STATE COOPERATIVE BANK LIMITED,RSCB0016012,THE CENTRAL COOP BANKLTD,"NEAR MANDAL KVSS,MANDAL,BHILWARA RAJ.311403",BHILWARA,BHILWARA,RAJASTHAN,266648
117,THE RAJASTHAN STATE COOPERATIVE BANK LIMITED,RSCB0016013,THE CENTRAL COOP BANKLTD,"KAREDA GSS,NEAR BUS STAND,KERADA,BHILWARA RAJ.311804",BHILWARA,BHILWARA,RAJASTHAN,262022
118,THE RAJASTHAN STATE COOPERATIVE BANK LIMITED,RSCB0016014,THE CENTRAL COOP BANKLTD,"NEAR GRAM PANCHAYAT,STATION ROAD HAMIRGARH,DISTT BHILWARA RAJ.311025",BHILWARA,BHILWARA,RAJASTHAN,286429
119,THE RAJASTHAN STATE COOPERATIVE BANK LIMITED,RSCB0016015,THE CENTRAL COOP BANKLTD,"NEAR BUS STAND SHMBHUGARH,PANCHAYAT SAMITI ASIND,BHILWARA RAJ.311204",BHILWARA,BHILWARA,RAJASTHAN,223328
120,THE RAJASTHAN STATE COOPERATIVE BANK LIMITED,RSCB0016016,THE CENTRAL COOP BANKLTD,"NEAR MAHUWA GSS,BUNDI ROAD,NEAR BUS STAND,MAHUWA,BHILWARA,311604",BHILWARA,BHILWARA,RAJASTHAN,234037
121,THE RAJASTHAN STATE COOPERATIVE BANK LIMITED,RSCB0016017,THE CENTRAL COOP BANKLTD,"1,HEERA PANNA MARKET,PUR ROAD,BHILWARA 311001",BHILWARA,BHILWARA,RAJASTHAN,246990
122,THE RAJASTHAN STATE COOPERATIVE BANK LIMITED,RSCB0016099,THE CENTRAL COOP BANKLTD,"BHILWARA,52,BALAJI MARKET,BHILWARA 311001",BHILWARA,BHILWARA,RAJASTHAN,220090
123,THE RAJASTHAN STATE COOPERATIVE BANK LIMITED,RSCB0017001,THE CENTRAL COOP BANK LTD,"NEAR HARIYANA HOTEL,G.S.ROAD,BIKANER334001",BIKANER,BIKANER,RAJASTHAN,2544232
124,THE RAJASTHAN STATE COOPERATIVE BANK LIMITED,RSCB0017002,THE CENTRAL COOP BANK LTD,"KEM ROAD,BIKANER334001",BIKANER,BIKANER,RAJASTHAN,2544153
125,THE RAJASTHAN STATE COOPERATIVE BANK LIMITED,RSCB0017003,THE CENTRAL COOP BANK LTD,"NEAR SAGAR HOTEL,KALU ROAD,LOONKARANSAR334603",BIKANER,BIKANER,RAJASTHAN,272045
126,THE RAJASTHAN STATE COOPERATIVE BANK LIMITED,RSCB0017004,THE CENTRAL COOP BANK LTD,"NEAR RATHI PETROLL PUMP,NOKHA 334803",BIKANER,BIKANER,RAJASTHAN,9610400034
127,THE RAJASTHAN STATE COOPERATIVE BANK LIMITED,RSCB0017005,THE CENTRAL COOP BANK LTD,"NEAR IGNP GUEST HOUSE,POST BERIYAWALI TH.KHAJUWALA334023",BIKANER,BIKANER,RAJASTHAN,232256
128,THE RAJASTHAN STATE COOPERATIVE BANK LIMITED,RSCB0017006,THE CENTRAL COOP BANK LTD,"KAPIL BHAWAN,KOLAYAT334302",BIKANER,BIKANER,RAJASTHAN,236033
129,THE RAJASTHAN STATE COOPERATIVE BANK LIMITED,RSCB0017007,THE CENTRAL COOP BANK LTD,"NEAR BUS STAND,JASRASAR TH.NOKHA334802",BIKANER,BIKANER,RAJASTHAN,9610400027
130,THE RAJASTHAN STATE COOPERATIVE BANK LIMITED,RSCB0017008,THE CENTRAL COOP BANK LTD,"ANUPGARH ROAD,NEAR BUS STAND CHATTERGARH334021",BIKANER,BIKANER,RAJASTHAN,242248
131,THE RAJASTHAN STATE COOPERATIVE BANK LIMITED,RSCB0017009,THE CENTRAL COOP BANK LTD,"MIAN MARKET,BJJU TH.KOLAYAT334305",BIKANER,BIKANER,RAJASTHAN,232142
132,THE RAJASTHAN STATE COOPERATIVE BANK LIMITED,RSCB0017010,THE CENTRAL COOP BANK LTD,"KALU ROAD,DUNGARGARH331803",BIKANER,BIKANER,RAJASTHAN,223080
133,THE RAJASTHAN STATE COOPERATIVE BANK LIMITED,RSCB0017011,THE CENTRAL COOP BANK LTD,"9,KARNI NAGAR,VETERINARY COLLEGE ROAD,BIKANER334001",BIKANER,BIKANER,RAJASTHAN,9610400020
134,THE RAJASTHAN STATE COOPERATIVE BANK LIMITED,RSCB0017012,PUGAL,THE BIKANER CENTRAL CO-OPERATIVE BANK LTD PUGAL BRANCH OLD GRAM PANCHAYAT BHAWAN NEAR BUS STAND PUGAL TEHSIL KHAJUWALA BIKANER RAJASTHAN,BIKANER,PUGAL,RAJASTHAN,9799750521
135,THE RAJASTHAN STATE COOPERATIVE BANK LIMITED,RSCB0017013,EXTENSION COUNTER MAIN BRANCH,THE BIKANER CENTRAL CO-OPERATIVE BANK LTD HO BIKANER URMAL DAIRY KE SAAMNE BIKANER RAJASTHAN,BIKANER,BIKANER,RAJASTHAN,9610400027
136,THE RAJASTHAN STATE COOPERATIVE BANK LIMITED,RSCB0017099,THE CENTRAL COOP BANK LTD,"9,KARNI NAGAR,VETERINARY COLLEGE ROAD,BIKANER334001",BIKANER,BIKANER,RAJASTHAN,2544073
137,THE RAJASTHAN STATE COOPERATIVE BANK LIMITED,RSCB0018001,THE BUNDI CENTRAL COOP BANK LTD,KOTA ROAD BUNDI 323001,BUNDI,BUNDI,RAJASTHAN,2443481
138,THE RAJASTHAN STATE COOPERATIVE BANK LIMITED,RSCB0018002,THE BUNDI CENTRAL COOP BANK LTD,TALERA 323021,BUNDI,BUNDI,RAJASTHAN,2438328
139,THE RAJASTHAN STATE COOPERATIVE BANK LIMITED,RSCB0018003,THE BUNDI CENTRAL COOP BANK LTD,CITY PATAN KESHORAI 323601,BUNDI,BUNDI,RAJASTHAN,264222
140,THE RAJASTHAN STATE COOPERATIVE BANK LIMITED,RSCB0018004,THE BUNDI CENTRAL COOP BANK LTD,"SUGAR FACTORY,KESHORAIPATAN 323602",BUNDI,BUNDI,RAJASTHAN,264239
141,THE RAJASTHAN STATE COOPERATIVE BANK LIMITED,RSCB0018005,THE BUNDI CENTRAL COOP BANK LTD,BUS STAND KAPRAN 323301,BUNDI,BUNDI,RAJASTHAN,265766
142,THE RAJASTHAN STATE COOPERATIVE BANK LIMITED,RSCB0018006,THE BUNDI CENTRAL COOP BANK LTD,"BOTTOM LEVEL,LAKHERI 323603",BUNDI,BUNDI,RAJASTHAN,261623
143,THE RAJASTHAN STATE COOPERATIVE BANK LIMITED,RSCB0018007,THE BUNDI CENTRAL COOP BANK LTD,BUS STAND DEI 323802,BUNDI,BUNDI,RAJASTHAN,255278
144,THE RAJASTHAN STATE COOPERATIVE BANK LIMITED,RSCB0018008,THE BUNDI CENTRAL COOP BANK LTD,GARH CHOK NAINWAN 323801,BUNDI,BUNDI,RAJASTHAN,257233
145,THE RAJASTHAN STATE COOPERATIVE BANK LIMITED,RSCB0018009,THE BUNDI CENTRAL COOP BANK LTD,TAHASIL ROAD HINDOLI 323023,BUNDI,BUNDI,RAJASTHAN,276229
146,THE RAJASTHAN STATE COOPERATIVE BANK LIMITED,RSCB0018010,THE BUNDI CENTRAL COOP BANK LTD,BUS STAND DABLANA 323026,BUNDI,BUNDI,RAJASTHAN,274034
147,THE RAJASTHAN STATE COOPERATIVE BANK LIMITED,RSCB0018012,THE BUNDI CENTRAL COOP BANK LTD,"EVENING BR NH12,BYE PASS ROAD,BUNDI 323001",BUNDI,BUNDI,RAJASTHAN,2447102
148,THE RAJASTHAN STATE COOPERATIVE BANK LIMITED,RSCB0018099,THE BUNDI CENTRAL COOP BANK LTD,"NH12,BYE PASS ROAD,BUNDI 323001",BUNDI,BUNDI,RAJASTHAN,2443928
149,THE RAJASTHAN STATE COOPERATIVE BANK LIMITED,RSCB0019001,CHITTORGARH CENTRAL COOP BANK LTD,"IN FRONT OF APSARA CINEMA,CHITTORGARH 312001",CHITTAURGARH,CHITTAURGARH,RAJASTHAN,0
150,THE RAJASTHAN STATE COOPERATIVE BANK LIMITED,RSCB0019002,CHITTORGARH CENTRAL COOP BANK LTD,"ABKARI ROAD,PRATAPGARH 312605",CHITTAURGARH,CHITTAURGARH,RAJASTHAN,222034
151,THE RAJASTHAN STATE COOPERATIVE BANK LIMITED,RSCB0019003,CHITTORGARH CENTRAL COOP BANK LTD,"CHITOORGARH MAIN ROAD,BEGUN K V S BUILDING,BEGUN 312023",CHITTAURGARH,CHITTAURGARH,RAJASTHAN,230108
152,THE RAJASTHAN STATE COOPERATIVE BANK LIMITED,RSCB0019004,CHITTORGARH CENTRAL COOP BANK LTD,"BUS STAND,NIMBAHERA 312601",CHITTAURGARH,CHITTAURGARH,RAJASTHAN,220036
153,THE RAJASTHAN STATE COOPERATIVE BANK LIMITED,RSCB0019005,CHITTORGARH CENTRAL COOP BANK LTD,"STATION ROAD,KAPASAN 312205",CHITTAURGARH,CHITTAURGARH,RAJASTHAN,230221
154,THE RAJASTHAN STATE COOPERATIVE BANK LIMITED,RSCB0019006,CHITTORGARH CENTRAL COOP BANK LTD,"JHALA MANNA CHORAHA,BADISADRI 312401",CHITTAURGARH,CHITTAURGARH,RAJASTHAN,264255
155,THE RAJASTHAN STATE COOPERATIVE BANK LIMITED,RSCB0019007,CHITTORGARH CENTRAL COOP BANK LTD,"KOTA BARIOR,RAWATBHATA 323305",CHITTAURGARH,CHITTAURGARH,RAJASTHAN,233228
156,THE RAJASTHAN STATE COOPERATIVE BANK LIMITED,RSCB0019008,CHITTORGARH CENTRAL COOP BANK LTD,"NEEMACH ROAD,IN FORNT OF KRISHI UPAJ MANDI,CHOTISADRI312604",CHITTAURGARH,CHITTAURGARH,RAJASTHAN,262427
157,THE RAJASTHAN STATE COOPERATIVE BANK LIMITED,RSCB0019009,CHITTORGARH CENTRAL COOP BANK LTD,"SAMATA VATIKA,GANGRAR312901",CHITTAURGARH,CHITTAURGARH,RAJASTHAN,220234
158,THE RAJASTHAN STATE COOPERATIVE BANK LIMITED,RSCB0019010,CHITTORGARH CENTRAL COOP BANK LTD,"GOTMESHWAR ROAD,NEAR BUS STAND,ARNOD312615",CHITTAURGARH,CHITTAURGARH,RAJASTHAN,242224
159,THE RAJASTHAN STATE COOPERATIVE BANK LIMITED,RSCB0019011,CHITTORGARH CENTRAL COOP BANK LTD,"NEAR BUS STAND,DUNGLA312402",CHITTAURGARH,CHITTAURGARH,RAJASTHAN,247229
160,THE RAJASTHAN STATE COOPERATIVE BANK LIMITED,RSCB0019012,CHITTORGARH CENTRAL COOP BANK LTD,"SADAR BAZAR,BHADESAR312602",CHITTAURGARH,CHITTAURGARH,RAJASTHAN,243231
161,THE RAJASTHAN STATE COOPERATIVE BANK LIMITED,RSCB0019013,CHITTORGARH CENTRAL COOP BANK LTD,"BHILWARA ROAD,RASHMI312206",CHITTAURGARH,CHITTAURGARH,RAJASTHAN,226321
162,THE RAJASTHAN STATE COOPERATIVE BANK LIMITED,RSCB0019014,CHITTORGARH CENTRAL COOP BANK LTD,"OLD BUS STAND,BASSI312022",CHITTAURGARH,CHITTAURGARH,RAJASTHAN,225029
163,THE RAJASTHAN STATE COOPERATIVE BANK LIMITED,RSCB0019015,CHITTORGARH CENTRAL COOP BANK LTD,"NEAR PANCHAYAT SAMITI,BHUPALSAGAR312204",CHITTAURGARH,CHITTAURGARH,RAJASTHAN,224250
164,THE RAJASTHAN STATE COOPERATIVE BANK LIMITED,RSCB0019016,CHITTORGARH CENTRAL COOP BANK LTD,"NEAR RAILWAY STATION,CHITTORGARH312001",CHITTAURGARH,CHITTAURGARH,RAJASTHAN,0
165,THE RAJASTHAN STATE COOPERATIVE BANK LIMITED,RSCB0019017,CHITTORGARH CENTRAL COOP BANK LTD,"SUBHASH CHAUK,CHITTOGARH312001",CHITTAURGARH,CHITTAURGARH,RAJASTHAN,0
166,THE RAJASTHAN STATE COOPERATIVE BANK LIMITED,RSCB0019018,DALOT,"THE CHITTORGARH CENTRAL CO-OP BANK LTD., DALOT LAMPS GODOWN RATLAM PRATAPGARH ROAD TEHSIL DALOT, PRATAPGARH RAJASTHAN-312619",PRATAPGARH,PRATAPGARH,RAJASTHAN,9950370094
167,THE RAJASTHAN STATE COOPERATIVE BANK LIMITED,RSCB0019099,CHITTORGARH CENTRAL COOP BANK LTD,"IN FRONT OF APSARA CINEMA,CHITTORGARH 312001",CHITTAURGARH,CHITTAURGARH,RAJASTHAN,9549628950
168,THE RAJASTHAN STATE COOPERATIVE BANK LIMITED,RSCB0020001,THE CHURU CENTRAL COOP BANK LTD,"NEAR DHARM STOOP,BISAU ROAD,CHURU 331001",CHURU,CHURU,RAJASTHAN,250903
169,THE RAJASTHAN STATE COOPERATIVE BANK LIMITED,RSCB0020002,THE CHURU CENTRAL COOP BANK LTD,"GARH CIRCLE,MAIN BAZAR,RATANGARH,DISTT.CHURU 331022",CHURU,CHURU,RAJASTHAN,222308
170,THE RAJASTHAN STATE COOPERATIVE BANK LIMITED,RSCB0020003,THE CHURU CENTRAL COOP BANK LTD,"MAIN BAZAR,SUJANGARH,DISTT.CHURU 331507",CHURU,CHURU,RAJASTHAN,220163
171,THE RAJASTHAN STATE COOPERATIVE BANK LIMITED,RSCB0020004,THE CHURU CENTRAL COOP BANK LTD,"NEAR WHITE CLOCK TOWER,SARDARSHAHAR,DISTT.CHURU 331403",CHURU,CHURU,RAJASTHAN,220184
172,THE RAJASTHAN STATE COOPERATIVE BANK LIMITED,RSCB0020005,THE CHURU CENTRAL COOP BANK LTD,"KURESHI MARKET,RAJGARH SADULPUR DISTT.CHURU 331023",CHURU,CHURU,RAJASTHAN,222068
173,THE RAJASTHAN STATE COOPERATIVE BANK LIMITED,RSCB0020006,THE CHURU CENTRAL COOP BANK LTD,"NEAR BUS STAND,TARANAGAR,DISTT.CHURU 331304",CHURU,CHURU,RAJASTHAN,240267
174,THE RAJASTHAN STATE COOPERATIVE BANK LIMITED,RSCB0020008,THE CHURU CENTRAL COOP BANK LTD,"NEAR BUS STAND,BIDASAR,DISTT.CHURU 331501",CHURU,CHURU,RAJASTHAN,262015
175,THE RAJASTHAN STATE COOPERATIVE BANK LIMITED,RSCB0020010,THE CHURU CENTRAL COOP BANK LTD,"POST SIDHMUKH,TEHSIL RAJGARH,DISTT.CHURU 331707",CHURU,CHURU,RAJASTHAN,240036
176,THE RAJASTHAN STATE COOPERATIVE BANK LIMITED,RSCB0020011,THE CHURU CENTRAL COOP BANK LTD,"JAIN MANDIR,GUDARI MARKET,CHURU 331001",CHURU,CHURU,RAJASTHAN,250896
177,THE RAJASTHAN STATE COOPERATIVE BANK LIMITED,RSCB0020013,SALASAR,"GANPATI PLAZA, OPP. BALAJI MANDIR, SALASAR, TEHSIL- SUJANGARH, DISTT.- CHURU (RAJ.) 331507",CHURU,SALASAR,RAJASTHAN,252241
178,THE RAJASTHAN STATE COOPERATIVE BANK LIMITED,RSCB0020099,THE CHURU CENTRAL COOP BANK LTD,"HEAD OFFICE,NEAR DHARM STOOP,CHURU 331001",CHURU,CHURU,RAJASTHAN,250344
179,THE RAJASTHAN STATE COOPERATIVE BANK LIMITED,RSCB0021001,THE DUNGARPUR CENTRAL COOP LTD,"G.P.O.KE PAAS,MAIN ROAD AASPUR314021",DUNGARPUR,DUNGARPUR,RAJASTHAN,220012
180,THE RAJASTHAN STATE COOPERATIVE BANK LIMITED,RSCB0021002,THE DUNGARPUR CENTRAL COOP LTD,SADAR BAZAR SAGWADA314025,DUNGARPUR,DUNGARPUR,RAJASTHAN,252204
181,THE RAJASTHAN STATE COOPERATIVE BANK LIMITED,RSCB0021003,THE DUNGARPUR CENTRAL COOP LTD,"MAIN BAZAAR,SIMALWADA314430",DUNGARPUR,DUNGARPUR,RAJASTHAN,240126
182,THE RAJASTHAN STATE COOPERATIVE BANK LIMITED,RSCB0021004,THE DUNGARPUR CENTRAL COOP LTD,"GOVERDAN MANDIR ROAD,DHAMBOLA 314402",DUNGARPUR,DUNGARPUR,RAJASTHAN,9460582277
183,THE RAJASTHAN STATE COOPERATIVE BANK LIMITED,RSCB0021005,THE DUNGARPUR CENTRAL COOP LTD,KHADAGADHA314027,DUNGARPUR,DUNGARPUR,RAJASTHAN,252986
184,THE RAJASTHAN STATE COOPERATIVE BANK LIMITED,RSCB0021006,THE DUNGARPUR CENTRAL COOP LTD,BUS STAND K PAAS MUKAM POST SABLA314022,DUNGARPUR,DUNGARPUR,RAJASTHAN,226236
185,THE RAJASTHAN STATE COOPERATIVE BANK LIMITED,RSCB0021007,THE DUNGARPUR CENTRAL COOP LTD,"RATANPUR ROAD,KANBA.314804",DUNGARPUR,DUNGARPUR,RAJASTHAN,9829914513
186,THE RAJASTHAN STATE COOPERATIVE BANK LIMITED,RSCB0021008,THE DUNGARPUR CENTRAL COOP LTD,"COLLECTRATE KE SAMNE,SHREE MAHAVIR DIGAMBAR JAIN TEMPLE K NICHE,DUNGARPUR 314001",DUNGARPUR,DUNGARPUR,RAJASTHAN,232366
187,THE RAJASTHAN STATE COOPERATIVE BANK LIMITED,RSCB0021009,THE DUNGARPUR CENTRAL COOP LTD,"GAP SAGAR KE PALS,DUNGARPUR314001",DUNGARPUR,DUNGARPUR,RAJASTHAN,232202
188,THE RAJASTHAN STATE COOPERATIVE BANK LIMITED,RSCB0021099,THE DUNGARPUR CENTRAL COOP LTD,"NEAR SINDHI COLONY,NEW COLONY,DUNGARPUR314001",DUNGARPUR,DUNGARPUR,RAJASTHAN,232460
189,THE RAJASTHAN STATE COOPERATIVE BANK LIMITED,RSCB0022001,THE JAIPUR CENTRAL COOP BANK LTD,"66,AKAR BAHWAN,KISHANPOLE BAZAR,JAIPUR 302002",JAIPUR,JAIPUR,RAJASTHAN,231312
190,THE RAJASTHAN STATE COOPERATIVE BANK LIMITED,RSCB0022003,THE JAIPUR CENTRAL COOP BANK LTD,"MAIN MARKET,BASSI,JAIPUR 303301",JAIPUR,BASSI,RAJASTHAN,222224
191,THE RAJASTHAN STATE COOPERATIVE BANK LIMITED,RSCB0022007,THE JAIPUR CENTRAL COOP BANK LTD,"INDRA MARKET,16 DUKAN,CHAKSU,JAIPUR 303901",JAIPUR,CHAKSU,RAJASTHAN,243629
192,THE RAJASTHAN STATE COOPERATIVE BANK LIMITED,RSCB0022008,THE JAIPUR CENTRAL COOP BANK LTD,"MAIN BUS STAND,IN FRONT OF PANCHAYAT SAMITI,PHAGI,JAIPUR 303005",JAIPUR,PHAGI,RAJASTHAN,282144
193,THE RAJASTHAN STATE COOPERATIVE BANK LIMITED,RSCB0022009,THE JAIPUR CENTRAL COOP BANK LTD,"NEAR CTS BUS STAND,SANGNER,JAIPUR 302029",JAIPUR,JAIPUR,RAJASTHAN,273182
194,THE RAJASTHAN STATE COOPERATIVE BANK LIMITED,RSCB0022010,THE JAIPUR CENTRAL COOP BANK LTD,"NEAR ROADWAYS BUS STAND,OPP BANK OF BARODA,BAGRU,JAIPUR 303007",JAIPUR,BAGRU,RAJASTHAN,286535
195,THE RAJASTHAN STATE COOPERATIVE BANK LIMITED,RSCB0022011,THE JAIPUR CENTRAL COOP BANK LTD,"POST OFFICE DUDU,OPP.FLYOVER,DUDU,JAIPUR 303008",JAIPUR,DUDU,RAJASTHAN,227132
196,THE RAJASTHAN STATE COOPERATIVE BANK LIMITED,RSCB0022012,THE JAIPUR CENTRAL COOP BANK LTD,"DHAN MANDI,SAMBHER LAKE,SAMBER,JAIPUR 303604",JAIPUR,SAMBHAR LAKE,RAJASTHAN,224226
197,THE RAJASTHAN STATE COOPERATIVE BANK LIMITED,RSCB0022013,THE JAIPUR CENTRAL COOP BANK LTD,"MAIN MARKET,RENWAL KISHANGARH,JAIPUR 303603",JAIPUR,RENWAL,RAJASTHAN,220063
198,THE RAJASTHAN STATE COOPERATIVE BANK LIMITED,RSCB0022014,THE JAIPUR CENTRAL COOP BANK LTD,"BAPU MARKET,CHOMU,JAIPUR303702",JAIPUR,CHOMU,RAJASTHAN,220072
199,THE RAJASTHAN STATE COOPERATIVE BANK LIMITED,RSCB0022015,THE JAIPUR CENTRAL COOP BANK LTD,"NEEM KA THANA ROAD,SHAHPURA,JAIPUR 303103",JAIPUR,SHAHPURA,RAJASTHAN,222060
200,THE RAJASTHAN STATE COOPERATIVE BANK LIMITED,RSCB0022016,THE JAIPUR CENTRAL COOP BANK LTD,"ALWAR ROAD,VIRAT NAGAR,JAIPUR 303102",JAIPUR,JAIPUR,RAJASTHAN,231445
201,THE RAJASTHAN STATE COOPERATIVE BANK LIMITED,RSCB0022017,THE JAIPUR CENTRAL COOP BANK LTD,"OPP SBBJ,MAIN MARKET,POATA,JAIPUR 303106",JAIPUR,PAOTA,RAJASTHAN,244129
202,THE RAJASTHAN STATE COOPERATIVE BANK LIMITED,RSCB0022018,THE JAIPUR CENTRAL COOP BANK LTD,"GORDHANPLAZA,KOTPUTALI,JAIPUR 303108",JAIPUR,KOTPUTLI,RAJASTHAN,222060
203,THE RAJASTHAN STATE COOPERATIVE BANK LIMITED,RSCB0022019,THE JAIPUR CENTRAL COOP BANK LTD,"VILL POST JAMWARAMGARH,JAIPUR 303109",JAIPUR,JAMWA RAMGARH,RAJASTHAN,252384
204,THE RAJASTHAN STATE COOPERATIVE BANK LIMITED,RSCB0022020,THE JAIPUR CENTRAL COOP BANK LTD,"IN JAIPUR HOTEL CAMPUS,OPP GOLCHA CINEMA,JAIPUR 302002",JAIPUR,JAIPUR,RAJASTHAN,231052
205,THE RAJASTHAN STATE COOPERATIVE BANK LIMITED,RSCB0022021,THE JAIPUR CENTRAL COOP BANK LTD,"B 8,CHANDPOLE ANAJMANDI,CHANDPOLE,JAIPUR 302001",JAIPUR,JAIPUR,RAJASTHAN,236165
206,THE RAJASTHAN STATE COOPERATIVE BANK LIMITED,RSCB0022022,THE JAIPUR CENTRAL COOP BANK LTD,"KALWAR ROAD,JHOTWARA,JAIPUR 302012",JAIPUR,JAIPUR,RAJASTHAN,234952
207,THE RAJASTHAN STATE COOPERATIVE BANK LIMITED,RSCB0022023,THE JAIPUR CENTRAL COOP BANK LTD,"F 1,NARSURY CIRCLE,VAISHALI NAGAR,JAIPUR302021",JAIPUR,JAIPUR,RAJASTHAN,217287
208,THE RAJASTHAN STATE COOPERATIVE BANK LIMITED,RSCB0022024,THE JAIPUR CENTRAL COOP BANK LTD,"PURANA BUS STAND,GOVINDGARH,JAIPUR 303712",JAIPUR,JAIPUR,RAJASTHAN,230012
209,THE RAJASTHAN STATE COOPERATIVE BANK LIMITED,RSCB0022025,THE JAIPUR CENTRAL COOP BANK LTD,"VILL POST JALSHU,CHOMU,JAIPUR 303701",JAIPUR,JAIPUR,RAJASTHAN,245327
210,THE RAJASTHAN STATE COOPERATIVE BANK LIMITED,RSCB0022026,THE JAIPUR CENTRAL COOP BANK LTD,"VILL POST KOTKHAWDA,CAKSHU,JAIPUR 303908",JAIPUR,CHAKSU,RAJASTHAN,0
211,THE RAJASTHAN STATE COOPERATIVE BANK LIMITED,RSCB0022027,THE JAIPUR CENTRAL COOP BANK LTD,"VILL POST TUNGA,BASSI,JAIPUR 303908",JAIPUR,TOONGA,RAJASTHAN,0
212,THE RAJASTHAN STATE COOPERATIVE BANK LIMITED,RSCB0022028,THE JAIPUR CENTRAL COOP BANK LTD,"JAIPUR COLLECTRATE,JAIPUR",JAIPUR,JAIPUR,RAJASTHAN,0
213,THE RAJASTHAN STATE COOPERATIVE BANK LIMITED,RSCB0022029,"THE JAIPUR CENTRAL CO-OPERATIVE BANK LTD,HARMARA","NINDAR MOD, SIKAR ROAD,",JAIPUR-302013,JAIPUR,RAJASTHAN,2264842
214,THE RAJASTHAN STATE COOPERATIVE BANK LIMITED,RSCB0022099,THE JAIPUR CENTRAL COOP BANK LTD,"F 1,NARSURY CIRCLE,VAISHALI NAGAR,JAIPUR302021",JAIPUR,JAIPUR,RAJASTHAN,217287
215,THE RAJASTHAN STATE COOPERATIVE BANK LIMITED,RSCB0023001,THE JALORE CENTRAL COOP BANKLTD,"VIRAMDEV CHOWK JALORE DIST.JALORE,343001",JALOR,JALOR,RAJASTHAN,9784591448
216,THE RAJASTHAN STATE COOPERATIVE BANK LIMITED,RSCB0023002,THE JALORE CENTRAL COOP BANK LTD,"RANIWARA ROAD,SANCHORE DIST.JALORE",JALOR,JALOR,RAJASTHAN,283065
217,THE RAJASTHAN STATE COOPERATIVE BANK LIMITED,RSCB0023003,THE JALORE CENTRAL COOP BANK LTD,"KHARI ROAD,BHINMAL,DIST.JALORE,PIN CODE 343029",JALOR,JALOR,RAJASTHAN,220166
218,THE RAJASTHAN STATE COOPERATIVE BANK LIMITED,RSCB0023004,THE JALORE CENTRAL COOP BANKLTD,"MAIN BAZAR,OPP RAMDEVJI TEMPLE,AHORE DIST.JALORE,307029",JALOR,JALOR,RAJASTHAN,222024
219,THE RAJASTHAN STATE COOPERATIVE BANK LIMITED,RSCB0023005,THE JALORE CENTRAL COOP BANKLTD,"OLD BUS STAND,JALORE ROAD,SAYLA DIST.JALORE",JALOR,JALOR,RAJASTHAN,272142
220,THE RAJASTHAN STATE COOPERATIVE BANK LIMITED,RSCB0023006,THE JALORE CENTRAL COOP BANKLTD,"MAIN BAZAR,RANIWARA DIST.JALORE,PIN CODE 343040",JALOR,JALOR,RAJASTHAN,232059
221,THE RAJASTHAN STATE COOPERATIVE BANK LIMITED,RSCB0023007,THE JALORE CENTRAL COOP BANKLTD,"POST ARNAI,TEHSIL SANCHORE DIST.JALORE",JALOR,JALOR,RAJASTHAN,240087
222,THE RAJASTHAN STATE COOPERATIVE BANK LIMITED,RSCB0023009,THE JALORE CENTRAL COOP BANKLTD,"BUS STAND KE PASS,RAMSIN,DIST.JALORE",JALOR,JALOR,RAJASTHAN,233026
223,THE RAJASTHAN STATE COOPERATIVE BANK LIMITED,RSCB0023011,THE JALORE CENTRAL COOP BANKLTD,"POST MENGALWA,TEHSIL SAYLA DIST JALORE",JALOR,JALOR,RAJASTHAN,270026
224,THE RAJASTHAN STATE COOPERATIVE BANK LIMITED,RSCB0023012,THE JALORE CENTRAL COOP BANKLTD,"BUS STAND KE PASS,DHUMBADIYA,DIST.JALORE",JALOR,JALOR,RAJASTHAN,254122
225,THE RAJASTHAN STATE COOPERATIVE BANK LIMITED,RSCB0023013,THE JALORE CENTRAL COOP BANKLTD,"NEAR HARIDEV JOSHI CIRCLE,JALORE DIST.JALORE,PIN CODE 343001",JALOR,JALOR,RAJASTHAN,9413584231
226,THE RAJASTHAN STATE COOPERATIVE BANK LIMITED,RSCB0023014,THE JALORE CENTRAL COOP BANKLTD,"POST CHITALWANA,TEHSIL SANCHORE DIST.JALORE",JALOR,JALOR,RAJASTHAN,286409
227,THE RAJASTHAN STATE COOPERATIVE BANK LIMITED,RSCB0023015,"THE JALORE CENTRAL COOPERATIVE BANK LTD, JASWANTPURA","OPPOSITE PANCHAYAT SMITI,JASWANTPURA",JALORE,JALORE,RAJASTHAN,0
228,THE RAJASTHAN STATE COOPERATIVE BANK LIMITED,RSCB0023099,THE JALORE CENTRAL COOP BANKLTD,"MANPURA COLONY A66,JALORE 343001",JALOR,JALOR,RAJASTHAN,9784591456
229,THE RAJASTHAN STATE COOPERATIVE BANK LIMITED,RSCB0024001,JHALAWAR KENDRIYA SAHKARI BANK LTD,"SAHKAR BHAWAN,CHHAPAN LAKH COLONY,BACKSIDE JAIL,AKLERA 326033",JHALAWAR,JHALAWAR,RAJASTHAN,272074
230,THE RAJASTHAN STATE COOPERATIVE BANK LIMITED,RSCB0024002,JHALAWAR KENDRIYA SAHKARI BANK LTD,"NAI AABADI,NEAR NEW HOSPITAL,ASNAWAR326021",JHALAWAR,JHALAWAR,RAJASTHAN,244248
231,THE RAJASTHAN STATE COOPERATIVE BANK LIMITED,RSCB0024003,JHALAWAR KENDRIYA SAHKARI BANK LTD,"NEAR BUS STAND,BAKANI 326022",JHALAWAR,JHALAWAR,RAJASTHAN,245055
232,THE RAJASTHAN STATE COOPERATIVE BANK LIMITED,RSCB0024004,JHALAWAR KENDRIYA SAHKARI BANK LTD,"SINDHI COLONY,TETRI BAZAR,BHAWANI MANDI326502",JHALAWAR,JHALAWAR,RAJASTHAN,222075
233,THE RAJASTHAN STATE COOPERATIVE BANK LIMITED,RSCB0024005,JHALAWAR KENDRIYA SAHKARI BANK LTD,"JHANDA CHOK,CHAUMHELA 326502",JHALAWAR,JHALAWAR,RAJASTHAN,284136
234,THE RAJASTHAN STATE COOPERATIVE BANK LIMITED,RSCB0024006,JHALAWAR KENDRIYA SAHKARI BANK LTD,"GANESH CHOK,DAG326514",JHALAWAR,JHALAWAR,RAJASTHAN,283346
235,THE RAJASTHAN STATE COOPERATIVE BANK LIMITED,RSCB0024007,JHALAWAR KENDRIYA SAHKARI BANK LTD,"KOTWALI ROAD,MANGALPURA,JHALAWAR326001",JHALAWAR,JHALAWAR,RAJASTHAN,232551
236,THE RAJASTHAN STATE COOPERATIVE BANK LIMITED,RSCB0024008,JHALAWAR KENDRIYA SAHKARI BANK LTD,"OPP.SURYA MANDIR,JHALRAPATAN326023",JHALAWAR,JHALAWAR,RAJASTHAN,240239
237,THE RAJASTHAN STATE COOPERATIVE BANK LIMITED,RSCB0024009,JHALAWAR KENDRIYA SAHKARI BANK LTD,"NEAR TAHSIL,KHANPUR 326038",JHALAWAR,JHALAWAR,RAJASTHAN,261226
238,THE RAJASTHAN STATE COOPERATIVE BANK LIMITED,RSCB0024010,JHALAWAR KENDRIYA SAHKARI BANK LTD,"NEAR BUS STAND,MANOHARTHANA326037",JHALAWAR,JHALAWAR,RAJASTHAN,274229
239,THE RAJASTHAN STATE COOPERATIVE BANK LIMITED,RSCB0024011,JHALAWAR KENDRIYA SAHKARI BANK LTD,"NEAR BUS STAND,PIRAWA 326034",JHALAWAR,JHALAWAR,RAJASTHAN,258221
240,THE RAJASTHAN STATE COOPERATIVE BANK LIMITED,RSCB0024012,JHALAWAR KENDRIYA SAHKARI BANK LTD,"NEAR POLICE STATION,RAIPUR 326036",JHALAWAR,JHALAWAR,RAJASTHAN,255094
241,THE RAJASTHAN STATE COOPERATIVE BANK LIMITED,RSCB0024013,JHALAWAR KENDRIYA SAHKARI BANK LTD,NEAR PANCHAYAT BHAWAN SAROLA326035,JHALAWAR,JHALAWAR,RAJASTHAN,263214
242,THE RAJASTHAN STATE COOPERATIVE BANK LIMITED,RSCB0024014,JHALAWAR KENDRIYA SAHKARI BANK LTD,"CHHATRI CHOK,SUNEL326513",JHALAWAR,JHALAWAR,RAJASTHAN,253227
243,THE RAJASTHAN STATE COOPERATIVE BANK LIMITED,RSCB0024015,PAGARIA,"MAN SINGH JI EX-ZILA PRAMUKTH KA MAKAN, P.O. PAGARIA DISTRICT. JHALAWAR",JHALAWAR,PAGARIA,RAJASTHAN,7230079064
244,THE RAJASTHAN STATE COOPERATIVE BANK LIMITED,RSCB0024099,JHALAWAR KENDRIYA SAHKARI BANK LTD,HEAD OFFICE SAHKAR BHAWAN JHALAWAR N.H.12 JHALARAPATAN326023,JHALAWAR,JHALAWAR,RAJASTHAN,0
245,THE RAJASTHAN STATE COOPERATIVE BANK LIMITED,RSCB0025001,JHUNJHUNU KENDRIYA SAHAKARI BANK LTD,"OLD BUS STAND,ALSISAR,331025",JHUNJHUNU,JHUNJHUNU,RAJASTHAN,275321
246,THE RAJASTHAN STATE COOPERATIVE BANK LIMITED,RSCB0025002,JHUNJHUNU KENDRIYA SAHAKARI BANK LTD,"MAIN MARKET,BISSAU,331027",JHUNJHUNU,JHUNJHUNU,RAJASTHAN,264215
247,THE RAJASTHAN STATE COOPERATIVE BANK LIMITED,RSCB0025003,JHUNJHUNU KENDRIYA SAHAKARI BANK LTD,"STATION ROAD,JHUNJHUNU,333001",JHUNJHUNU,JHUNJHUNU,RAJASTHAN,232382
248,THE RAJASTHAN STATE COOPERATIVE BANK LIMITED,RSCB0025004,JHUNJHUNU KENDRIYA SAHAKARI BANK LTD,"TAHSIL ROAD,CHIRAWA,333026",JHUNJHUNU,JHUNJHUNU,RAJASTHAN,220058
249,THE RAJASTHAN STATE COOPERATIVE BANK LIMITED,RSCB0025005,JHUNJHUNU KENDRIYA SAHAKARI BANK LTD,"MAIN MARKET,SURAJGARH,333029",JHUNJHUNU,JHUNJHUNU,RAJASTHAN,237326
250,THE RAJASTHAN STATE COOPERATIVE BANK LIMITED,RSCB0025006,JHUNJHUNU KENDRIYA SAHAKARI BANK LTD,"MAIN MARKET,NIHAL CHOWK,PILANI,333031",JHUNJHUNU,JHUNJHUNU,RAJASTHAN,242310
251,THE RAJASTHAN STATE COOPERATIVE BANK LIMITED,RSCB0025007,JHUNJHUNU KENDRIYA SAHAKARI BANK LTD,"MAIN MARKET,KHETRI,333503",JHUNJHUNU,JHUNJHUNU,RAJASTHAN,234458
252,THE RAJASTHAN STATE COOPERATIVE BANK LIMITED,RSCB0025008,JHUNJHUNU KENDRIYA SAHAKARI BANK LTD,"VIKASH MARKET,SINGHANA,333516",JHUNJHUNU,JHUNJHUNU,RAJASTHAN,220133
253,THE RAJASTHAN STATE COOPERATIVE BANK LIMITED,RSCB0025009,JHUNJHUNU KENDRIYA SAHAKARI BANK LTD,"OPPOSITE TO KALYANJI MANDIR,NAWALGARH,333042",JHUNJHUNU,JHUNJHUNU,RAJASTHAN,222042
254,THE RAJASTHAN STATE COOPERATIVE BANK LIMITED,RSCB0025010,JHUNJHUNU KENDRIYA SAHAKARI BANK LTD,"NEAR BAVLIYA BABA MANDIR,MUKUNDGARH,333705",JHUNJHUNU,JHUNJHUNU,RAJASTHAN,252307
255,THE RAJASTHAN STATE COOPERATIVE BANK LIMITED,RSCB0025011,JHUNJHUNU KENDRIYA SAHAKARI BANK LTD,"NEAR KISAN DHARM KANTA,UDAIPURWATI,333307",JHUNJHUNU,JHUNJHUNU,RAJASTHAN,234237
256,THE RAJASTHAN STATE COOPERATIVE BANK LIMITED,RSCB0025012,JHUNJHUNU KENDRIYA SAHAKARI BANK LTD,"MAIN MARKET,GUDHA GOURJIKA,333022",JHUNJHUNU,JHUNJHUNU,RAJASTHAN,263419
257,THE RAJASTHAN STATE COOPERATIVE BANK LIMITED,RSCB0025013,JHUNJHUNU KENDRIYA SAHAKARI BANK LTD,"CHHAVANI BAZAR,JHUNJHUNU,333001",JHUNJHUNU,JHUNJHUNU,RAJASTHAN,234444
258,THE RAJASTHAN STATE COOPERATIVE BANK LIMITED,RSCB0025014,SULTANA,"MAIN BAZAR, CHIRAWA ROAD, SULTANA",JHUNJHUNU,JHUNJHUNU,RAJASTHAN,280058
259,THE RAJASTHAN STATE COOPERATIVE BANK LIMITED,RSCB0025015,MANDAWA,"BISSAU CHORAHA, MANDAWA",JHUNJHUNU,JHUNJHUNU,RAJASTHAN,223082
260,THE RAJASTHAN STATE COOPERATIVE BANK LIMITED,RSCB0025099,JHUNJHUNU KENDRIYA SAHAKARI BANK LTD,"AJANTA HOTEL,TAAL BAZAR,JHUNJHUNU",JHUNJHUNU,JHUNJHUNU,RAJASTHAN,237366
261,THE RAJASTHAN STATE COOPERATIVE BANK LIMITED,RSCB0026001,THE JODHPUR CENTRAL COOP BANK LTD,"OPPOSITE JANTA SWEET HOME,SOJATI GATE,NAI SARAK,JODHPUR 342003",JODHPUR,JODHPUR,RAJASTHAN,2547405
262,THE RAJASTHAN STATE COOPERATIVE BANK LIMITED,RSCB0026002,THE JODHPUR CENTRAL COOP BANK LTD,"OPP.MARWAR SWEET,NEAR GANESH TEMPLE,SOJATI GATE 342003",JODHPUR,JODHPUR,RAJASTHAN,2625015
263,THE RAJASTHAN STATE COOPERATIVE BANK LIMITED,RSCB0026003,THE JODHPUR CENTRAL COOP BANK LTD,"MANDORE ROAD,PAOTA,NEAR MAPLE ABHAY DAY HOTEL,JODHPUR 342006",JODHPUR,JODHPUR,RAJASTHAN,2545312
264,THE RAJASTHAN STATE COOPERATIVE BANK LIMITED,RSCB0026004,THE JODHPUR CENTRAL COOP BANK LTD,"SUBHASH MARG,NAI SARAK ROAD,BILARA 342602",JODHPUR,JODHPUR,RAJASTHAN,222016
265,THE RAJASTHAN STATE COOPERATIVE BANK LIMITED,RSCB0026005,THE JODHPUR CENTRAL COOP BANK LTD,"STATION ROAD,OPPOSITE SETH RAMRAKH MALANI U.P.S.SCHOOL 342601",JODHPUR,JODHPUR,RAJASTHAN,233040
266,THE RAJASTHAN STATE COOPERATIVE BANK LIMITED,RSCB0026006,THE JODHPUR CENTRAL COOP BANK LTD,"TEHSIL ROAD,NEAR POST OFFICE PIN 342603",JODHPUR,JODHPUR,RAJASTHAN,240239
267,THE RAJASTHAN STATE COOPERATIVE BANK LIMITED,RSCB0026007,THE JODHPUR CENTRAL COOP BANK LTD,"NAGOUR ROAD,BAORI",JODHPUR,JODHPUR,RAJASTHAN,265225
268,THE RAJASTHAN STATE COOPERATIVE BANK LIMITED,RSCB0026008,THE JODHPUR CENTRAL COOP BANK LTD,"MAIN MARKET,OSIAN 342303",JODHPUR,JODHPUR,RAJASTHAN,274254
269,THE RAJASTHAN STATE COOPERATIVE BANK LIMITED,RSCB0026009,THE JODHPUR CENTRAL COOP BANK LTD,"NEAR GOVT.AYURVEDA HOSPITAL,TIWARI 342306",JODHPUR,JODHPUR,RAJASTHAN,268205
270,THE RAJASTHAN STATE COOPERATIVE BANK LIMITED,RSCB0026010,THE JODHPUR CENTRAL COOP BANK LTD,"STATION ROAD,PHALODI 342301",JODHPUR,JODHPUR,RAJASTHAN,222135
271,THE RAJASTHAN STATE COOPERATIVE BANK LIMITED,RSCB0026011,THE JODHPUR CENTRAL COOP BANK LTD,"JAMBHA ROAD,OPPOSITE GOVERNMENT HOSPITAL,BAP 342307",JODHPUR,JODHPUR,RAJASTHAN,277240
272,THE RAJASTHAN STATE COOPERATIVE BANK LIMITED,RSCB0026012,THE JODHPUR CENTRAL COOP BANK LTD,"NEAR POST OFFICE,CHABA RAOD 342022",JODHPUR,JODHPUR,RAJASTHAN,243323
273,THE RAJASTHAN STATE COOPERATIVE BANK LIMITED,RSCB0026013,THE JODHPUR CENTRAL COOP BANK LTD,BALESAR PRIVATE BAS STAND 342023,JODHPUR,JODHPUR,RAJASTHAN,242213
274,THE RAJASTHAN STATE COOPERATIVE BANK LIMITED,RSCB0026014,THE JODHPUR CENTRAL COOP BANK LTD,"MAIN MARKET,NEAR LUNI STATION,LUNI 342802",JODHPUR,JODHPUR,RAJASTHAN,284232
275,THE RAJASTHAN STATE COOPERATIVE BANK LIMITED,RSCB0026015,THE JODHPUR CENTRAL COOP BANK LTD,"NEAR GOVT.AYURVEDA HOSPITAL,DEECHU 342314",JODHPUR,JODHPUR,RAJASTHAN,8094002908
276,THE RAJASTHAN STATE COOPERATIVE BANK LIMITED,RSCB0026016,THE JODHPUR CENTRAL COOP BANK LTD,"BHOJASAR FANTA,AAU 342311",JODHPUR,JODHPUR,RAJASTHAN,8094002924
277,THE RAJASTHAN STATE COOPERATIVE BANK LIMITED,RSCB0026017,THE JODHPUR CENTRAL COOP BANK LTD,"TINWARI ROAD,MATHANIA 342305",JODHPUR,JODHPUR,RAJASTHAN,222152
278,THE RAJASTHAN STATE COOPERATIVE BANK LIMITED,RSCB0026018,LOHAWAT,"NEAR PANCHYAT SAMITI, LOHAWAT RAILWAY STATION",JODHPUR,JODHPUR,RAJASTHAN,8094004908
279,THE RAJASTHAN STATE COOPERATIVE BANK LIMITED,RSCB0026099,THE JODHPUR CENTRAL COOP BANK LTD,"HEAD OFFICE,MAN JI KA HATHA,MANDORE ROAD,PAOTA,342006",JODHPUR,JODHPUR,RAJASTHAN,2545845
280,THE RAJASTHAN STATE COOPERATIVE BANK LIMITED,RSCB0027001,THE KOTA CENTRAL COOP BANK LTD,"KCCB BRANCH BHIM GANJ MANDI,NEAR POLICE STATION,STATION ROAD KOTA324002",KOTA,KOTA,RAJASTHAN,2463525
281,THE RAJASTHAN STATE COOPERATIVE BANK LIMITED,RSCB0027002,THE KOTA CENTRAL COOP BANK LTD,"KCCB BRANCH NEW DHAN MANDI,NEAR BSNL OFFICE,KOTA324007",KOTA,KOTA,RAJASTHAN,2364425
282,THE RAJASTHAN STATE COOPERATIVE BANK LIMITED,RSCB0027003,THE KOTA CENTRAL COOP BANK LTD,"KCCB BRANCH,NANDWANA BHAWAN KAITHOONDISTRICTKOTA 325001",KOTA,KOTA,RAJASTHAN,0
283,THE RAJASTHAN STATE COOPERATIVE BANK LIMITED,RSCB0027004,THE KOTA CENTRAL COOP BANK LTD,KCCB BRANCH KANWASDISTRICTKOTA 325602,KOTA,KOTA,RAJASTHAN,0
284,THE RAJASTHAN STATE COOPERATIVE BANK LIMITED,RSCB0027005,THE KOTA CENTRAL COOP BANK LTD,KCCB BRANCH SANGODDISTRICTKOTA 325601,KOTA,KOTA,RAJASTHAN,0
285,THE RAJASTHAN STATE COOPERATIVE BANK LIMITED,RSCB0027006,THE KOTA CENTRAL COOP BANK LTD,KCCB BRANCH BAPAWARDISTRICTKOTA 325207,KOTA,KOTA,RAJASTHAN,0
286,THE RAJASTHAN STATE COOPERATIVE BANK LIMITED,RSCB0027007,THE KOTA CENTRAL COOP BANK LTD,KCCB BRANCH RAMGANJ MANDIDISTRICTKOTA 326519,KOTA,KOTA,RAJASTHAN,220040
287,THE RAJASTHAN STATE COOPERATIVE BANK LIMITED,RSCB0027008,THE KOTA CENTRAL COOP BANK LTD,KCCB BRANCH DIGODDISTRICTKOTA 325201,KOTA,KOTA,RAJASTHAN,0
288,THE RAJASTHAN STATE COOPERATIVE BANK LIMITED,RSCB0027009,THE KOTA CENTRAL COOP BANK LTD,"KCCB BRANCH,MAIN MARKET,SULTANPURDISTRICTKOTA 325204",KOTA,KOTA,RAJASTHAN,0
289,THE RAJASTHAN STATE COOPERATIVE BANK LIMITED,RSCB0027010,THE KOTA CENTRAL COOP BANK LTD,"KCCB BRANCH,OPP POLICE STATION ITAWADISTRICT KOTA 325004",KOTA,KOTA,RAJASTHAN,0
290,THE RAJASTHAN STATE COOPERATIVE BANK LIMITED,RSCB0027020,THE KOTA CENTRAL COOP BANK LTD,"RAMPURA BAZAR,KOTA POST BAG NO.20",KOTA,KOTA,RAJASTHAN,2380085
291,THE RAJASTHAN STATE COOPERATIVE BANK LIMITED,RSCB0027099,THE KOTA CENTRAL COOP BANK LTD,KCCB BRANCH RAMPURA BAZAR KOTA324006,KOTA,KOTA,RAJASTHAN,2381454
292,THE RAJASTHAN STATE COOPERATIVE BANK LIMITED,RSCB0028001,THE NAGAUR CENTRAL COOP BANK LTD,"GANDHI CHOWK,NAGUAR DISTT.NAGAUR341001",NAGAUR,NAGAUR,RAJASTHAN,0
293,THE RAJASTHAN STATE COOPERATIVE BANK LIMITED,RSCB0028002,THE NAGAUR CENTRAL COOP BANK LTD,"I.S.MARKET,MAKRANA DISTT.NAGAUR341505",NAGAUR,NAGAUR,RAJASTHAN,0
294,THE RAJASTHAN STATE COOPERATIVE BANK LIMITED,RSCB0028003,THE NAGAUR CENTRAL COOP BANK LTD,"MEERA MARG,MERTA CITY DISTT.NAGAUR341510",NAGAUR,NAGAUR,RAJASTHAN,0
295,THE RAJASTHAN STATE COOPERATIVE BANK LIMITED,RSCB0028004,THE NAGAUR CENTRAL COOP BANK LTD,"KESHAR MARKET,LADNUN DISTT.NAGAUR341306",NAGAUR,NAGAUR,RAJASTHAN,0
296,THE RAJASTHAN STATE COOPERATIVE BANK LIMITED,RSCB0028005,THE NAGAUR CENTRAL COOP BANK LTD,"NEAR ROYAL MARKET,DIDWANA DISTT.NAGAUR341303",NAGAUR,NAGAUR,RAJASTHAN,0
297,THE RAJASTHAN STATE COOPERATIVE BANK LIMITED,RSCB0028006,THE NAGAUR CENTRAL COOP BANK LTD,"KAPDA MARKET,KUCHAMAN CITY DISTT.NAGAUR341508",NAGAUR,NAGAUR,RAJASTHAN,0
298,THE RAJASTHAN STATE COOPERATIVE BANK LIMITED,RSCB0028007,THE NAGAUR CENTRAL COOP BANK LTD,"SADAR BAZAR,RIYAN BADI DISTT.NAGAUR341513",NAGAUR,NAGAUR,RAJASTHAN,0
299,THE RAJASTHAN STATE COOPERATIVE BANK LIMITED,RSCB0028008,THE NAGAUR CENTRAL COOP BANK LTD,"NEAR OLD BUS STAND,JAYAL DISTT.NAGAUR341023",NAGAUR,NAGAUR,RAJASTHAN,0
300,THE RAJASTHAN STATE COOPERATIVE BANK LIMITED,RSCB0028009,THE NAGAUR CENTRAL COOP BANK LTD,"SADAR BAZAR,DEGANA DISTT.NAGAUR341503",NAGAUR,NAGAUR,RAJASTHAN,0
301,THE RAJASTHAN STATE COOPERATIVE BANK LIMITED,RSCB0028010,THE NAGAUR CENTRAL COOP BANK LTD,PARBATSAR DISTT.NAGAUR341512,NAGAUR,NAGAUR,RAJASTHAN,0
302,THE RAJASTHAN STATE COOPERATIVE BANK LIMITED,RSCB0028011,THE NAGAUR CENTRAL COOP BANK LTD,"BUS SATAND,MUNDWA DISTT.NAGAUR341026",NAGAUR,NAGAUR,RAJASTHAN,0
303,THE RAJASTHAN STATE COOPERATIVE BANK LIMITED,RSCB0028012,THE NAGAUR CENTRAL COOP BANK LTD,ROL DISTT.NAGAUR341027,NAGAUR,NAGAUR,RAJASTHAN,0
304,THE RAJASTHAN STATE COOPERATIVE BANK LIMITED,RSCB0028013,THE NAGAUR CENTRAL COOP BANK LTD,"NAYA BAZAR,KHINWSAR DISTT.NAGAUR341025",NAGAUR,NAGAUR,RAJASTHAN,0
305,THE RAJASTHAN STATE COOPERATIVE BANK LIMITED,RSCB0028014,THE NAGAUR CENTRAL COOP BANK LTD,"NEAR OLD BUS STAND,NAWA CITY DISTT.NAGAUR341509",NAGAUR,NAGAUR,RAJASTHAN,0
306,THE RAJASTHAN STATE COOPERATIVE BANK LIMITED,RSCB0028015,THE NAGAUR CENTRAL COOP BANK LTD,"NEAR OLD BUS STAND,GOTAN DISTT.NAGAUR342902",NAGAUR,NAGAUR,RAJASTHAN,0
307,THE RAJASTHAN STATE COOPERATIVE BANK LIMITED,RSCB0028016,JAWLA,"MAIN BAZAR , JAWLA",NAGAUR,JAWLA,RAJASTHAN,276277
308,THE RAJASTHAN STATE COOPERATIVE BANK LIMITED,RSCB0028017,SANJU,NEAR BUS STAND VILLAGE -SANJU  TESHIL-DEGANA NAGAUR-341503,NAGAUR,NAGAUR,RAJASTHAN,243040
309,THE RAJASTHAN STATE COOPERATIVE BANK LIMITED,RSCB0028018,BUTATI,NEAR BUS STAND BUTATI PIN-341514,NAGAUR,NAGAUR,RAJASTHAN,9784590608
310,THE RAJASTHAN STATE COOPERATIVE BANK LIMITED,RSCB0028019,GACHCHIPURA,"NEAR POLICE STATION, RANA MARKET GACHCHIPURA",NAGAUR,NAGAUR,RAJASTHAN,267267
311,THE RAJASTHAN STATE COOPERATIVE BANK LIMITED,RSCB0028099,THE NAGAUR CENTRAL COOP BANK LTD,"GANDHI CHOWK,NAGUAR DISTT.NAGAUR341001",NAGAUR,NAGAUR,RAJASTHAN,0
312,THE RAJASTHAN STATE COOPERATIVE BANK LIMITED,RSCB0029001,THE PALI CENTRAL COOP BANKLTD,RAILWAY STATION ROAD FALNA PALI MARWAR 306116,PALI,PALI,RAJASTHAN,233028
313,THE RAJASTHAN STATE COOPERATIVE BANK LIMITED,RSCB0029002,THE PALI CENTRAL COOP BANKLTD,RAILWAY STATION ROAD SOJATROAD PALI MARWAR 306103,PALI,PALI,RAJASTHAN,230019
314,THE RAJASTHAN STATE COOPERATIVE BANK LIMITED,RSCB0029003,THE PALI CENTRAL COOP BANKLTD,KARSIUPAJ MANDI SUMERPUR PALI MARWAR MARWAR 306902,PALI,PALI,RAJASTHAN,258231
315,THE RAJASTHAN STATE COOPERATIVE BANK LIMITED,RSCB0029004,THE PALI CENTRAL COOP BANKLTD,HARIPUR ROAD RAIPUR PALI 306304,PALI,PALI,RAJASTHAN,220112
316,THE RAJASTHAN STATE COOPERATIVE BANK LIMITED,RSCB0029005,THE PALI CENTRAL COOP BANKLTD,MAIN BAJAR PRATAP BAJAR RANI 306115,PALI,PALI,RAJASTHAN,222060
317,THE RAJASTHAN STATE COOPERATIVE BANK LIMITED,RSCB0029006,THE PALI CENTRAL COOP BANKLTD,FATEHPURIA BAJAR PALI MARWAR 306401,PALI,PALI,RAJASTHAN,250064
318,THE RAJASTHAN STATE COOPERATIVE BANK LIMITED,RSCB0029007,THE PALI CENTRAL COOP BANKLTD,MAIN BAJAR MARWAR JUNCTION PALI MARWAR 306001,PALI,PALI,RAJASTHAN,252218
319,THE RAJASTHAN STATE COOPERATIVE BANK LIMITED,RSCB0029008,THE PALI CENTRAL COOP BANKLTD,BUS STAND JEITARAN PALI MARWAR 306302,PALI,PALI,RAJASTHAN,222240
320,THE RAJASTHAN STATE COOPERATIVE BANK LIMITED,RSCB0029009,THE PALI CENTRAL COOP BANKLTD,SURAJPOLE PALI MARWAR 306401,PALI,PALI,RAJASTHAN,220670
321,THE RAJASTHAN STATE COOPERATIVE BANK LIMITED,RSCB0029010,THE PALI CENTRAL COOP BANKLTD,NEAR SBI CHANDPOL GALE SOJATCITY 306104,PALI,PALI,RAJASTHAN,222090
322,THE RAJASTHAN STATE COOPERATIVE BANK LIMITED,RSCB0029011,THE PALI CENTRAL COOP BANKLTD,NEAR GOVT HOSPITAL DESURI PALI 306703,PALI,PALI,RAJASTHAN,254132
323,THE RAJASTHAN STATE COOPERATIVE BANK LIMITED,RSCB0029012,THE PALI CENTRAL COOP BANKLTD,NEAR OLD BUS STAND ROHAT PAI MARWAR 306421,PALI,PALI,RAJASTHAN,268228
324,THE RAJASTHAN STATE COOPERATIVE BANK LIMITED,RSCB0029013,THE PALI CENTRAL COOP BANKLTD,MAIN BAZAR SADRI PALI MARWAR 306702,PALI,PALI,RAJASTHAN,285011
325,THE RAJASTHAN STATE COOPERATIVE BANK LIMITED,RSCB0029014,THE PALI CENTRAL COOP BANKLTD,JODHPUR ROAD PALI MARWAR 306401,PALI,PALI,RAJASTHAN,251283
326,THE RAJASTHAN STATE COOPERATIVE BANK LIMITED,RSCB0029015,THE PALI CENTRAL COOP BANKLTD,MAIN BAJAR JALORE ROAD VYAD PALI MARWAR 306421,PALI,PALI,RAJASTHAN,256606
327,THE RAJASTHAN STATE COOPERATIVE BANK LIMITED,RSCB0029016,THE PALI CENTRAL COOP BANKLTD,NEAR POLICE CHOUKI BABRA PALI MARWAR 306101,PALI,PALI,RAJASTHAN,270024
328,THE RAJASTHAN STATE COOPERATIVE BANK LIMITED,RSCB0029017,THE PALI CENTRAL COOP BANKLTD,NEAR BUS STAND ANANDPURKALU PALI MARWAR 306401,PALI,PALI,RAJASTHAN,283239
329,THE RAJASTHAN STATE COOPERATIVE BANK LIMITED,RSCB0029018,THE PALI CENTRAL COOP BANKLTD,VEER DURGADAS NAGAR PALI MARWAR 306401,PALI,PALI,RAJASTHAN,221670
330,THE RAJASTHAN STATE COOPERATIVE BANK LIMITED,RSCB0029019,THE PALI CENTRAL COOP BANKLTD,MAIN BAJAR RAILWAY STATION ROAD SOMESUR PALI MARWAR 306503,PALI,PALI,RAJASTHAN,242050
331,THE RAJASTHAN STATE COOPERATIVE BANK LIMITED,RSCB0029020,THE PALI CENTRAL COOP BANKLTD,JAWAHAR CHOK TAKATGARH PALI MARWAR 306912,PALI,PALI,RAJASTHAN,220121
332,THE RAJASTHAN STATE COOPERATIVE BANK LIMITED,RSCB0029021,THE PALI CENTRAL COOP BANKLTD,NEAR GRAM PANCHAYAT PIPLIYAKALA PALI MARWAR 306307,PALI,PALI,RAJASTHAN,287241
333,THE RAJASTHAN STATE COOPERATIVE BANK LIMITED,RSCB0029022,THE PALI CENTRAL COOP BANKLTD,NEAR MAIN BAJAR AUWA PALI MARWAR 3062021,PALI,PALI,RAJASTHAN,264121
334,THE RAJASTHAN STATE COOPERATIVE BANK LIMITED,RSCB0029023,THE PALI CENTRAL COOP BANKLTD,PANCHAYAT BHAWAN BERA PALI MARWAR 306126,PALI,PALI,RAJASTHAN,243146
335,THE RAJASTHAN STATE COOPERATIVE BANK LIMITED,RSCB0029024,THE PALI CENTRAL COOP BANKLTD,VEATENARI HOSPITAL GUNDOJ PALI MARWAR 306104,PALI,PALI,RAJASTHAN,248038
336,THE RAJASTHAN STATE COOPERATIVE BANK LIMITED,RSCB0029025,THE PALI CENTRAL COOP BANKLTD,NEAR BUS STAND CHADWAS PALI MARWAR 3061401,PALI,PALI,RAJASTHAN,240020
337,THE RAJASTHAN STATE COOPERATIVE BANK LIMITED,RSCB0029026,THE PALI CENTRAL COOP BANKLTD,MANDIA ROAD KALUJI KI BAGECHI PALI MARWAR 306401,PALI,PALI,RAJASTHAN,232192
338,THE RAJASTHAN STATE COOPERATIVE BANK LIMITED,RSCB0029027,THE PALI CENTRAL COOP BANKLTD,MAIN BAJAR PALI MARWAR 306701,PALI,PALI,RAJASTHAN,222601
339,THE RAJASTHAN STATE COOPERATIVE BANK LIMITED,RSCB0029028,THE PALI CENTRAL COOP BANKLTD,NEAR POLICE CHOKI KHNWARA PALI MARWAR 306502,PALI,PALI,RAJASTHAN,248765
340,THE RAJASTHAN STATE COOPERATIVE BANK LIMITED,RSCB0029099,THE PALI CENTRAL COOP BANKLTD,V.D.NAGAR COLLEGE ROAD PALI 306401,PALI,PALI,RAJASTHAN,228138
341,THE RAJASTHAN STATE COOPERATIVE BANK LIMITED,RSCB0030001,SAWAI MADHOPUR KENDRIYA SAHAKARI,"BRANCH SAWAI MADHOPUR,SADAR BAZAR DISTT.SAWAI MADHOPUR CITY 322021",SAWAI MADHOPUR,SAWAI MADHOPUR,RAJASTHAN,9784942264
342,THE RAJASTHAN STATE COOPERATIVE BANK LIMITED,RSCB0030002,SAWAI MADHOPUR KENDRIYA SAHAKARI,BRANCHE GANGAPUR CITY DISTT.SAWAIMADHOPUR 322201,SAWAI MADHOPUR,SAWAI MADHOPUR,RAJASTHAN,9784942254
343,THE RAJASTHAN STATE COOPERATIVE BANK LIMITED,RSCB0030003,S M K SAHAKARI BANK LTD,BRANCHE HINDAUN DISTT.KARAULI 322215,KARAULI,KARAULI,RAJASTHAN,9784942266
344,THE RAJASTHAN STATE COOPERATIVE BANK LIMITED,RSCB0030004,S M K SAHAKARI BANK LTD,BRANCH KARAULI DISTT.KARAULI 322421,KARAULI,KARAULI,RAJASTHAN,9784942270
345,THE RAJASTHAN STATE COOPERATIVE BANK LIMITED,RSCB0030006,SAWAI MADHOPUR KENDRIYA SAHAKARI,BRANCH MANTOWN DISTT.SAWAI MADHOPUR 322001,SAWAI MADHOPUR,SAWAI MADHOPUR,RAJASTHAN,9784942260
346,THE RAJASTHAN STATE COOPERATIVE BANK LIMITED,RSCB0030007,SAWAI MADHOPUR KENDRIYA SAHAKARI,BRANCHE CHOUTH KA BARWARA DISTT.SAWAI MADHOPUR 322025,SAWAI MADHOPUR,SAWAI MADHOPUR,RAJASTHAN,9784942261
347,THE RAJASTHAN STATE COOPERATIVE BANK LIMITED,RSCB0030008,SAWAI MADHOPUR KENDRIYA SAHAKARI,BRANCH KHANDAR DISTT.SAWAI MADHOPUR 322702,SAWAI MADHOPUR,SAWAI MADHOPUR,RAJASTHAN,9784942256
348,THE RAJASTHAN STATE COOPERATIVE BANK LIMITED,RSCB0030009,SAWAI MADHOPUR KENDRIYA SAHAKARI,BRANCHE BONLI DISTT.SAWAI MADHOPUR 322702,SAWAI MADHOPUR,SAWAI MADHOPUR,RAJASTHAN,9784942262
349,THE RAJASTHAN STATE COOPERATIVE BANK LIMITED,RSCB0030010,SAWAI MADHOPUR KENDRIYA SAHAKARI,BRANCHE BAMANWAS DISTT.SAWAI MADHOPUR 322211,SAWAI MADHOPUR,SAWAI MADHOPUR,RAJASTHAN,9784942267
350,THE RAJASTHAN STATE COOPERATIVE BANK LIMITED,RSCB0030011,SAWAI MADHOPUR KENDRIYA SAHAKARI,BRANCH MALARNA DOONGER DISTT.SAWAI MADHOPUR 322021,SAWAI MADHOPUR,SAWAI MADHOPUR,RAJASTHAN,9784942259
351,THE RAJASTHAN STATE COOPERATIVE BANK LIMITED,RSCB0030012,S M K SAHAKARI BANK LTD,BRANCHE NADOTI DISTT.KARAULI 322230,KARAULI,KARAULI,RAJASTHAN,9784942271
352,THE RAJASTHAN STATE COOPERATIVE BANK LIMITED,RSCB0030013,S M K SAHAKARI BANK LTD,BRANCHE MANDARAYAL DISTT.KARAULI 322421,KARAULI,KARAULI,RAJASTHAN,9784942280
353,THE RAJASTHAN STATE COOPERATIVE BANK LIMITED,RSCB0030014,S M K SAHAKARI BANK LTD,BRANCH SAPOTRA DISTT.KARAULI 322218,KARAULI,KARAULI,RAJASTHAN,9784942268
354,THE RAJASTHAN STATE COOPERATIVE BANK LIMITED,RSCB0030015,S M K SAHAKARI BANK LTD,BRANCHE TODABHIM DISTT.KARAULI 321611,KARAULI,KARAULI,RAJASTHAN,9784942278
355,THE RAJASTHAN STATE COOPERATIVE BANK LIMITED,RSCB0030018,S M K SAHAKARI BANK LTD,BRANCHE DANALPUR DISTT.KARAULI,KARAULI,KARAULI,RAJASTHAN,9784942277
356,THE RAJASTHAN STATE COOPERATIVE BANK LIMITED,RSCB0030019,SAWAI MADHOPUR KENDRIYA SAHAKARI,BRANCHE BATODA 322028,SAWAI MADHOPUR,SAWAI MADHOPUR,RAJASTHAN,9784942263
357,THE RAJASTHAN STATE COOPERATIVE BANK LIMITED,RSCB0030099,SAWAI MADHOPUR KENDRIYA SAHAKARI,"COLLECTRATE ROAD,MANTOWN SAWAI MADHOPUR",SAWAI MADHOPUR,SAWAI MADHOPUR,RAJASTHAN,9784942255
358,THE RAJASTHAN STATE COOPERATIVE BANK LIMITED,RSCB0031001,SIKAR KENDRIYA SAHAKARI BANKLTD,"NEAR CITY DISPENSARY,SIKAR332001",SIKAR,SIKAR,RAJASTHAN,1572253780
359,THE RAJASTHAN STATE COOPERATIVE BANK LIMITED,RSCB0031002,SIKAR KENDRIYA SAHAKARI BANKLTD,"NEAR TAPARIYA BAGEECHI,SIKAR332001",SIKAR,SIKAR,RAJASTHAN,1572254130
360,THE RAJASTHAN STATE COOPERATIVE BANK LIMITED,RSCB0031003,SIKAR KENDRIYA SAHAKARI BANKLTD,"OPPOSITE RAILWAY STATION,SHRI MADHOPUR332715",SIKAR,SIKAR,RAJASTHAN,1575250073
361,THE RAJASTHAN STATE COOPERATIVE BANK LIMITED,RSCB0031004,SIKAR KENDRIYA SAHAKARI BANKLTD,"RAMLILA MAIDAN,NEEM KA THANA332713",SIKAR,SIKAR,RAJASTHAN,1574230066
362,THE RAJASTHAN STATE COOPERATIVE BANK LIMITED,RSCB0031005,SIKAR KENDRIYA SAHAKARI BANKLTD,"GOPAL GAUSHALA MARKET,DANTA332702",SIKAR,SIKAR,RAJASTHAN,1577272344
363,THE RAJASTHAN STATE COOPERATIVE BANK LIMITED,RSCB0031006,SIKAR KENDRIYA SAHAKARI BANKLTD,"NEAR SABJI MANDI,FATEHPUR332301",SIKAR,SIKAR,RAJASTHAN,1571230024
364,THE RAJASTHAN STATE COOPERATIVE BANK LIMITED,RSCB0031007,SIKAR KENDRIYA SAHAKARI BANKLTD,"CHOPAD BAZAR,LAXMANGARH332311",SIKAR,SIKAR,RAJASTHAN,1573222256
365,THE RAJASTHAN STATE COOPERATIVE BANK LIMITED,RSCB0031008,SIKAR KENDRIYA SAHAKARI BANKLTD,"NEAR OLD POLICE THANA,KHANDELA332709",SIKAR,SIKAR,RAJASTHAN,1575260024
366,THE RAJASTHAN STATE COOPERATIVE BANK LIMITED,RSCB0031009,SIKAR KENDRIYA SAHAKARI BANKLTD,"MAIN BAZAR,RANOLI332403",SIKAR,SIKAR,RAJASTHAN,1576220330
367,THE RAJASTHAN STATE COOPERATIVE BANK LIMITED,RSCB0031010,SIKAR KENDRIYA SAHAKARI BANKLTD,"SARWADI ROAD,DHOD332022",SIKAR,SIKAR,RAJASTHAN,1572236043
368,THE RAJASTHAN STATE COOPERATIVE BANK LIMITED,RSCB0031011,SIKAR KENDRIYA SAHAKARI BANKLTD,"BHAIROOJI ROAD,REENGUS332404",SIKAR,SIKAR,RAJASTHAN,1575224246
369,THE RAJASTHAN STATE COOPERATIVE BANK LIMITED,RSCB0031012,SIKAR KENDRIYA SAHAKARI BANKLTD,"NEEM KA THANA ROAD,PATAN332718",SIKAR,SIKAR,RAJASTHAN,1574282233
370,THE RAJASTHAN STATE COOPERATIVE BANK LIMITED,RSCB0031013,SIKAR KENDRIYA SAHAKARI BANKLTD,"OPPOSITE GOVT.HOSPITAL,NECHHAWA332026",SIKAR,SIKAR,RAJASTHAN,1570220223
371,THE RAJASTHAN STATE COOPERATIVE BANK LIMITED,RSCB0031014,SIKAR KENDRIYA SAHAKARI BANKLTD,NEW MARKET AJEETGARH332701,SIKAR,SIKAR,RAJASTHAN,1575222047
372,THE RAJASTHAN STATE COOPERATIVE BANK LIMITED,RSCB0031015,SIKAR KENDRIYA SAHAKARI BANKLTD,"BUS STAND,KANWAT332708",SIKAR,SIKAR,RAJASTHAN,1575233331
373,THE RAJASTHAN STATE COOPERATIVE BANK LIMITED,RSCB0031016,SIKAR KENDRIYA SAHAKARI BANKLTD,"BUS STAND,PALSANA332402",SIKAR,SIKAR,RAJASTHAN,1576225038
374,THE RAJASTHAN STATE COOPERATIVE BANK LIMITED,RSCB0031017,SIKAR KENDRIYA SAHAKARI BANKLTD,"NEAR BUS STAND,LOSAL332025",SIKAR,SIKAR,RAJASTHAN,1577220350
375,THE RAJASTHAN STATE COOPERATIVE BANK LIMITED,RSCB0031018,SIKAR KENDRIYA SAHAKARI BANKLTD,"OPPOSITE HPCL PETROL PUMP,KHATU SHYAMJI332602",SIKAR,SIKAR,RAJASTHAN,1576230417
376,THE RAJASTHAN STATE COOPERATIVE BANK LIMITED,RSCB0031019,SIKAR KENDRIYA SAHAKARI BANKLTD,"BASANT VIHAR,SIKAR332001",SIKAR,SIKAR,RAJASTHAN,1572251203
377,THE RAJASTHAN STATE COOPERATIVE BANK LIMITED,RSCB0031020,SIKAR KENDRIYA SAHAKARI BANKLTD,"BARALA MOD,KOTPUTLI ROAD,TODA332705",SIKAR,SIKAR,RAJASTHAN,9784590162
378,THE RAJASTHAN STATE COOPERATIVE BANK LIMITED,RSCB0031021,SIKAR KENDRIYA SAHAKARI BANKLTD,"NEAR GOVT.UPPER PRIMARY SCHOOL,SAMARTHPURA,PIPRALI ROAD,SIKAR332001",SIKAR,SIKAR,RAJASTHAN,1572255273
379,THE RAJASTHAN STATE COOPERATIVE BANK LIMITED,RSCB0031099,SIKAR KENDRIYA SAHAKARI BANKLTD,"BASANT VIHAR,SIKAR332001",SIKAR,SIKAR,RAJASTHAN,9784590133
380,THE RAJASTHAN STATE COOPERATIVE BANK LIMITED,RSCB0032001,THE SIROHI CENTRAL COOP BANK LTD,SARJAVAV GATE KE ANDAR 342001,SIROHI,SIROHI,RAJASTHAN,222232
381,THE RAJASTHAN STATE COOPERATIVE BANK LIMITED,RSCB0032002,THE SIROHI CENTRAL COOP BANK LTD,RAMSIN ROAD 307802,SIROHI,SIROHI,RAJASTHAN,264327
382,THE RAJASTHAN STATE COOPERATIVE BANK LIMITED,RSCB0032003,THE SIROHI CENTRAL COOP BANK LTD,DANMANDI SHEOGANJ 307027,SIROHI,SIROHI,RAJASTHAN,270343
383,THE RAJASTHAN STATE COOPERATIVE BANK LIMITED,RSCB0032004,THE SIROHI CENTRAL COOP BANK LTD,SADAR BAZAR 307023,SIROHI,SIROHI,RAJASTHAN,242043
384,THE RAJASTHAN STATE COOPERATIVE BANK LIMITED,RSCB0032005,THE SIROHI CENTRAL COOP BANK LTD,SADAR BAZAR 307022,SIROHI,SIROHI,RAJASTHAN,282066
385,THE RAJASTHAN STATE COOPERATIVE BANK LIMITED,RSCB0032006,THE SIROHI CENTRAL COOP BANK LTD,AZAD MAIDAN 307026,SIROHI,SIROHI,RAJASTHAN,222207
386,THE RAJASTHAN STATE COOPERATIVE BANK LIMITED,RSCB0032007,THE SIROHI CENTRAL COOP BANK LTD,KUMHAR MOHALLA 307026,SIROHI,SIROHI,RAJASTHAN,221611
387,THE RAJASTHAN STATE COOPERATIVE BANK LIMITED,RSCB0032008,THE SIROHI CENTRAL COOP BANK LTD,SADAR BAZAR 307501,SIROHI,SIROHI,RAJASTHAN,235441
388,THE RAJASTHAN STATE COOPERATIVE BANK LIMITED,RSCB0032009,THE SIROHI CENTRAL COOP BANK LTD,OPP.POST OFFICE 307514,SIROHI,SIROHI,RAJASTHAN,282332
389,THE RAJASTHAN STATE COOPERATIVE BANK LIMITED,RSCB0032010,THE SIROHI CENTRAL COOP BANK LTD,"BOHARO KA VAS,STORE KA SAMNE 307513",SIROHI,SIROHI,RAJASTHAN,285455
390,THE RAJASTHAN STATE COOPERATIVE BANK LIMITED,RSCB0032011,THE SIROHI CENTRAL COOP BANK LTD,DANMANDI SHEOGANJ 307027,SIROHI,SIROHI,RAJASTHAN,270378
391,THE RAJASTHAN STATE COOPERATIVE BANK LIMITED,RSCB0032013,ANADARA,NEAR BUS STATION POST ANADARA TEHSIL REODAR DIST SIROHI RAJ PIN 307511,SIROHI,SIROHI,RAJASTHAN,8003993002
392,THE RAJASTHAN STATE COOPERATIVE BANK LIMITED,RSCB0032099,THE SIROHI CENTRAL COOP BANK LTD,"NH14,BYPASS ROAD,CCB CHORAVA,SIROHI 342001",SIROHI,SIROHI,RAJASTHAN,222349
393,THE RAJASTHAN STATE COOPERATIVE BANK LIMITED,RSCB0033001,THE GANGANAGAR KENDRIYA SAHAKARI BANK,"PURANI DHAN MANDI,RAISINGHNAGAR 335051",GANGANAGAR,GANGANAGAR,RAJASTHAN,220042
394,THE RAJASTHAN STATE COOPERATIVE BANK LIMITED,RSCB0033002,THE GANGANAGAR KENDRIYA SAHAKARI BANK,"NAGARPALIKA KE SAMNE,SADULSHAHAR 335062",GANGANAGAR,GANGANAGAR,RAJASTHAN,222022
395,THE RAJASTHAN STATE COOPERATIVE BANK LIMITED,RSCB0033004,THE GANGANAGAR KENDRIYA SAHAKARI BANK,"PURANI DHAN MANDI,SRIKARANPUR 335073",GANGANAGAR,GANGANAGAR,RAJASTHAN,260053
396,THE RAJASTHAN STATE COOPERATIVE BANK LIMITED,RSCB0033006,THE GANGANAGAR KENDRIYA SAHAKARI BANK,"RAILWAY STATION ROAD,SURATGARH 335804",GANGANAGAR,GANGANAGAR,RAJASTHAN,220038
397,THE RAJASTHAN STATE COOPERATIVE BANK LIMITED,RSCB0033007,THE GANGANAGAR KENDRIYA SAHAKARI BANK,"MAIN BAZAR,PADAMPUR 335041",GANGANAGAR,GANGANAGAR,RAJASTHAN,232082
398,THE RAJASTHAN STATE COOPERATIVE BANK LIMITED,RSCB0033008,THE GANGANAGAR KENDRIYA SAHAKARI BANK,"MAIN BUS STAND KE PASS,BIKANER ROAD,ANNOPGARH 335701",GANGANAGAR,GANGANAGAR,RAJASTHAN,252039
399,THE RAJASTHAN STATE COOPERATIVE BANK LIMITED,RSCB0033009,THE GANGANAGAR KENDRIYA SAHAKARI BANK,"MAIN BAZAR,GAJSINGHPUR 335024",GANGANAGAR,GANGANAGAR,RAJASTHAN,230226
400,THE RAJASTHAN STATE COOPERATIVE BANK LIMITED,RSCB0033011,THE GANGANAGAR KENDRIYA SAHAKARI BANK,"DHAN MANDI PARISAR,KESRISINGHPUR 335027",GANGANAGAR,GANGANAGAR,RAJASTHAN,232002
401,THE RAJASTHAN STATE COOPERATIVE BANK LIMITED,RSCB0033014,THE GANGANAGAR KENDRIYA SAHAKARI BANK,"PANCHAYAT SAMITI ROAD,VIJAYNAGAR 335704",GANGANAGAR,GANGANAGAR,RAJASTHAN,230050
402,THE RAJASTHAN STATE COOPERATIVE BANK LIMITED,RSCB0033016,THE GANGANAGAR KENDRIYA SAHAKARI BANK,"MAIN BUS STAND KE SAMNE,GHARSANA 335707",GANGANAGAR,GANGANAGAR,RAJASTHAN,250064
403,THE RAJASTHAN STATE COOPERATIVE BANK LIMITED,RSCB0033017,THE GANGANAGAR KENDRIYA SAHAKARI BANK,"DHAN MANDI PARISAR,PADAMPUR ROAD,JETSAR 335702",GANGANAGAR,GANGANAGAR,RAJASTHAN,264330
404,THE RAJASTHAN STATE COOPERATIVE BANK LIMITED,RSCB0033020,THE GANGANAGAR KENDRIYA SAHAKARI BANK,"SHAH COMPLEX,SD,BHIHANI COLLEGE KE SAMNE,SRI GANGA NAGAR 335001",GANGANAGAR,GANGANAGAR,RAJASTHAN,2470655
405,THE RAJASTHAN STATE COOPERATIVE BANK LIMITED,RSCB0033023,THE GANGANAGAR KENDRIYA SAHAKARI BANK,"POLICE THANE KE PASS,ANUPGARH ROAD,SAMEJAKOTHI 335021",GANGANAGAR,GANGANAGAR,RAJASTHAN,281009
406,THE RAJASTHAN STATE COOPERATIVE BANK LIMITED,RSCB0033024,THE GANGANAGAR KENDRIYA SAHAKARI BANK,"BUS STAND KE PASS,LALGARH 335037",GANGANAGAR,GANGANAGAR,RAJASTHAN,287009
407,THE RAJASTHAN STATE COOPERATIVE BANK LIMITED,RSCB0033026,THE GANGANAGAR KENDRIYA SAHAKARI BANK,"KRISI UPAJ MANDI SAMITI PARISAR,NAJDIK DHAN MANDI,RAWLA 335707",GANGANAGAR,GANGANAGAR,RAJASTHAN,263022
408,THE RAJASTHAN STATE COOPERATIVE BANK LIMITED,RSCB0033028,THE GANGANAGAR KENDRIYA SAHAKARI BANK,"VPO NETEWALA,TEHSIL SRIGANGA NAGAR 335002",GANGANAGAR,GANGANAGAR,RAJASTHAN,2496025
409,THE RAJASTHAN STATE COOPERATIVE BANK LIMITED,RSCB0033029,THE GANGANAGAR KENDRIYA SAHAKARI BANK,"MAIN BAZAR,RIDMALSAR 335061",GANGANAGAR,GANGANAGAR,RAJASTHAN,241269
410,THE RAJASTHAN STATE COOPERATIVE BANK LIMITED,RSCB0033030,THE GANGANAGAR KENDRIYA SAHAKARI BANK,"MAIN BAZAR,CHUNAWAD 335022",GANGANAGAR,GANGANAGAR,RAJASTHAN,2763032
411,THE RAJASTHAN STATE COOPERATIVE BANK LIMITED,RSCB0033031,THE GANGANAGAR KENDRIYA SAHAKARI BANK,"POLICE THANE KE SAMNE,BIKANER ROAD,RAJISAR 335804",GANGANAGAR,GANGANAGAR,RAJASTHAN,274240
412,THE RAJASTHAN STATE COOPERATIVE BANK LIMITED,RSCB0033032,THE GANGANAGAR KENDRIYA SAHAKARI BANK,"BUS STAND KE PASS,RAMSINGHPUR 335703",GANGANAGAR,GANGANAGAR,RAJASTHAN,283451
413,THE RAJASTHAN STATE COOPERATIVE BANK LIMITED,RSCB0033033,THE GANGANAGAR KENDRIYA SAHAKARI BANK,"41C BLOCK,SRI GANGANAGAR 335001",GANGANAGAR,GANGANAGAR,RAJASTHAN,2473306
414,THE RAJASTHAN STATE COOPERATIVE BANK LIMITED,RSCB0033035,THE GANGANAGAR KENDRIYA SAHAKARI BANK,"HOLESALE BHANDAR KE UPPER,NEAR AMBEDKAR CHOWK,SRI GANGANAGAR 335001",GANGANAGAR,GANGANAGAR,RAJASTHAN,2443173
415,THE RAJASTHAN STATE COOPERATIVE BANK LIMITED,RSCB0033036,NEW DHAN MANDI RAISINGHNAGAR,"SHOP NO-C-19, OPPOSITE KRISHI UPAJ MANDI SAMITI, ANOOPGARH ROAD, RAISINGHNAGAR",SRIGANGANAGAR,RAISINGHNAGAR,RAJASTHAN,8094013055
416,THE RAJASTHAN STATE COOPERATIVE BANK LIMITED,RSCB0033037,BINJBAILA,SHOP NO 1-2 MANDI MARKET BEENJHBAYLA TEH-PADAMPUR,SRIGANGANAGAR,BINJBAILA,RAJASTHAN,8094360007
417,THE RAJASTHAN STATE COOPERATIVE BANK LIMITED,RSCB0033099,THE GANGANAGAR KENDRIYA SAHAKARI BANK,"HEAD OFFICE,OPP.MAIN POST OFFICE,SRIGANGANAGAR",GANGANAGAR,GANGANAGAR,RAJASTHAN,2444953
418,THE RAJASTHAN STATE COOPERATIVE BANK LIMITED,RSCB0034001,THE CENTARAL COOP BANK LTD,"GHANTA GHAR BRANCH,TAUNK304001",TONK,TONK,RAJASTHAN,247430
419,THE RAJASTHAN STATE COOPERATIVE BANK LIMITED,RSCB0034002,THE CENTARAL COOP BANK LTD,"JAIPUR ROAD,DOODH DIARY K PAAS,MALPURA304502",TONK,TONK,RAJASTHAN,226322
420,THE RAJASTHAN STATE COOPERATIVE BANK LIMITED,RSCB0034003,THE CENTARAL COOP BANK LTD,"BUS STAND K SMANE,VIVEKANAND COLONY,DEOLI304804",TONK,TONK,RAJASTHAN,232038
421,THE RAJASTHAN STATE COOPERATIVE BANK LIMITED,RSCB0034004,THE CENTARAL COOP BANK LTD,"PURANA BUS STAND,TODARAISINGH304505",TONK,TONK,RAJASTHAN,232233
422,THE RAJASTHAN STATE COOPERATIVE BANK LIMITED,RSCB0034005,THE CENTARAL COOP BANK LTD,"SADAR BAZAAR,UNIYARA304024",TONK,TONK,RAJASTHAN,265324
423,THE RAJASTHAN STATE COOPERATIVE BANK LIMITED,RSCB0034006,THE CENTARAL COOP BANK LTD,"BADA BAZAAR,NIWAI304021",TONK,TONK,RAJASTHAN,222007
424,THE RAJASTHAN STATE COOPERATIVE BANK LIMITED,RSCB0034007,THE CENTARAL COOP BANK LTD,"SADAR BAZAAR,ALIGARH304023",TONK,TONK,RAJASTHAN,266311
425,THE RAJASTHAN STATE COOPERATIVE BANK LIMITED,RSCB0034008,THE CENTARAL COOP BANK LTD,"BANASTHALI VIDYAPEETH,UNIVERSITY CAMPUS,304022",TONK,TONK,RAJASTHAN,228338
426,THE RAJASTHAN STATE COOPERATIVE BANK LIMITED,RSCB0034009,THE CENTARAL COOP BANK LTD,"MOTI MEHRA KA MAKAAN,BAHIRU GI K CHAUK KE PAAS,DOONI304802",TONK,TONK,RAJASTHAN,235256
427,THE RAJASTHAN STATE COOPERATIVE BANK LIMITED,RSCB0034010,THE CENTARAL COOP BANK LTD,"GHANTA GHAR BRANCH,TAUNK304001",TONK,TONK,RAJASTHAN,0
428,THE RAJASTHAN STATE COOPERATIVE BANK LIMITED,RSCB0034011,THE CENTARAL COOP BANK LTD,BUS STAND K PASS PEPLU304801,TONK,TONK,RAJASTHAN,278323
429,THE RAJASTHAN STATE COOPERATIVE BANK LIMITED,RSCB0034099,THE CENTARAL COOP BANK LTD,"KISAN SEHKHAR BHAWAN,CIVIL LINES,TONK304001",TONK,TONK,RAJASTHAN,0
430,THE RAJASTHAN STATE COOPERATIVE BANK LIMITED,RSCB0035001,THE UDAIPUR CENTRAL COOP BANK LTD,TAHSIL ROAD BHIM DISTT.RAJSAMAND 305921,RAJSAMAND,RAJSAMAND,RAJASTHAN,250322
431,THE RAJASTHAN STATE COOPERATIVE BANK LIMITED,RSCB0035002,THE UDAIPUR CENTRAL COOP BANK LTD,NAYA BAZAR NEAR NEHRU PARK FATEHNAGAR DISTT.UDAIPUR 313205,UDAIPUR,UDAIPUR,RAJASTHAN,220045
432,THE RAJASTHAN STATE COOPERATIVE BANK LIMITED,RSCB0035003,THE UDAIPUR CENTRAL COOP BANK LTD,MUKHARJI CHOWK BHILWADA ROAD PAGARIYA MARKET KANKROLI DISTT.RAJSAMAND 313324,RAJSAMAND,RAJSAMAND,RAJASTHAN,231195
433,THE RAJASTHAN STATE COOPERATIVE BANK LIMITED,RSCB0035004,THE UDAIPUR CENTRAL COOP BANK LTD,OPPOSITE GOVT.GENERAL HOSPITAL RISHABDEV DISTT.UDAIPUR 313802,UDAIPUR,UDAIPUR,RAJASTHAN,230029
434,THE RAJASTHAN STATE COOPERATIVE BANK LIMITED,RSCB0035005,THE UDAIPUR CENTRAL COOP BANK LTD,LAXMI BAZAR NEAR SBBJ NEAR GANDHI CHABTERE AMET DISTT.RAJSAMAND 313332,RAJSAMAND,RAJSAMAND,RAJASTHAN,250049
435,THE RAJASTHAN STATE COOPERATIVE BANK LIMITED,RSCB0035006,THE UDAIPUR CENTRAL COOP BANK LTD,INSIDE HITA GATE MOCHIWADA BHINDER DISTT.UDAIPUR 313603,UDAIPUR,UDAIPUR,RAJASTHAN,250229
436,THE RAJASTHAN STATE COOPERATIVE BANK LIMITED,RSCB0035007,THE UDAIPUR CENTRAL COOP BANK LTD,BADGAON DISTT.UDAIPUR 313011,UDAIPUR,UDAIPUR,RAJASTHAN,2450509
437,THE RAJASTHAN STATE COOPERATIVE BANK LIMITED,RSCB0035008,THE UDAIPUR CENTRAL COOP BANK LTD,MAIN MARKET BAPU BAZAR NEAR BANK CHORAHA DISTT.UDAIPUR 313001,UDAIPUR,UDAIPUR,RAJASTHAN,2422647
438,THE RAJASTHAN STATE COOPERATIVE BANK LIMITED,RSCB0035009,THE UDAIPUR CENTRAL COOP BANK LTD,KOTWADI CHABUTARA NEAR PORWAD BHAVAN DEOGARH DISTT.RAJSAMAND 313331,RAJSAMAND,RAJSAMAND,RAJASTHAN,252052
439,THE RAJASTHAN STATE COOPERATIVE BANK LIMITED,RSCB0035010,THE UDAIPUR CENTRAL COOP BANK LTD,"JHADOL BUS STAND,JHADOL DISTT.UDAIPUR 313702",UDAIPUR,UDAIPUR,RAJASTHAN,220008
440,THE RAJASTHAN STATE COOPERATIVE BANK LIMITED,RSCB0035011,THE UDAIPUR CENTRAL COOP BANK LTD,CHUNGI NAAKA SALUMBAR DISTT.UDAIPUR 313027,UDAIPUR,UDAIPUR,RAJASTHAN,233437
441,THE RAJASTHAN STATE COOPERATIVE BANK LIMITED,RSCB0035012,THE UDAIPUR CENTRAL COOP BANK LTD,OPPOSITE OLD HOSPITAL MOHANGARH NATHDWARA DISTT.RAJSAMAND 313301,RAJSAMAND,RAJSAMAND,RAJASTHAN,234166
442,THE RAJASTHAN STATE COOPERATIVE BANK LIMITED,RSCB0035013,THE UDAIPUR CENTRAL COOP BANK LTD,BUS STAND RAILMAGRA DISTT.RAJSAMAND 313329,RAJSAMAND,RAJSAMAND,RAJASTHAN,267223
443,THE RAJASTHAN STATE COOPERATIVE BANK LIMITED,RSCB0035015,THE UDAIPUR CENTRAL COOP BANK LTD,"OPPOSITE PANCHAYAT SAMITI DHARIYAWAD,DISTT.UDAIPUR 313605",UDAIPUR,UDAIPUR,RAJASTHAN,270288
444,THE RAJASTHAN STATE COOPERATIVE BANK LIMITED,RSCB0035016,THE UDAIPUR CENTRAL COOP BANK LTD,INSIDE MEWAR PUBLIC SCHOOL GOGUNDA DISTT.UDAIPUR 313705,UDAIPUR,UDAIPUR,RAJASTHAN,282023
445,THE RAJASTHAN STATE COOPERATIVE BANK LIMITED,RSCB0035017,THE UDAIPUR CENTRAL COOP BANK LTD,MOKSH MARG SHASTRI CIRCLE DISTT.UDAIPUR 313001,UDAIPUR,UDAIPUR,RAJASTHAN,2412005
446,THE RAJASTHAN STATE COOPERATIVE BANK LIMITED,RSCB0035018,SARADA,"NEAR BUS STAND, TEHSIL SARADA",UDAIPUR,UDAIPUR,RAJASTHAN,9785716157
447,THE RAJASTHAN STATE COOPERATIVE BANK LIMITED,RSCB0035019,LASADIYA,"MAIN MARKET, NEAR LASADIA LAMPS, LASADIYA",UDAIPUR,UDAIPUR,RAJASTHAN,9928013642
448,THE RAJASTHAN STATE COOPERATIVE BANK LIMITED,RSCB0035020,GIRWA,"TRANSPORT NAGAR, AHEMDABAD ROAD, BALICHA",UDAIPUR,UDAIPUR,RAJASTHAN,9928013622
449,THE RAJASTHAN STATE COOPERATIVE BANK LIMITED,RSCB0035099,THE UDAIPUR CENTRAL COOP BANK LTD,"IST FLOOR,U.C.C.BANK BUILDING,185186,BAPU BAZAR,SHASTRI CIRCLE,UDAIPUR 313 001",UDAIPUR,UDAIPUR,RAJASTHAN,2414853
450,THE RAJASTHAN STATE COOPERATIVE BANK LIMITED,RSCB0036001,THE JAISALMER CENTRAL COOP BANK LTD,SHARDA PARA JAISALMER345001,JAISALMER,JAISALMER,RAJASTHAN,9001297653
451,THE RAJASTHAN STATE COOPERATIVE BANK LIMITED,RSCB0036002,THE JAISALMER CENTRAL COOP BANK LTD,"GHODON KA CHOWK,NEAR PUBLIC PARK,POKARAN 345012",JAISALMER,JAISALMER,RAJASTHAN,9001297654
452,THE RAJASTHAN STATE COOPERATIVE BANK LIMITED,RSCB0036003,THE JAISALMER CENTRAL COOP BANK LTD,NEAR GATE OF FORT MAIN MARKET NACHNA,JAISALMER,JAISALMER,RAJASTHAN,9001297656
453,THE RAJASTHAN STATE COOPERATIVE BANK LIMITED,RSCB0036004,THE JAISALMER CENTRAL COOP BANK LTD,MAIN MARKET MOHANGARH 345029,JAISALMER,JAISALMER,RAJASTHAN,9001297658
454,THE RAJASTHAN STATE COOPERATIVE BANK LIMITED,RSCB0036005,THE JAISALMER CENTRAL COOP BANK LTD,NEAR PANCHAYAT BHAWAN RAMDEORA 345023,JAISALMER,JAISALMER,RAJASTHAN,9001297654
455,THE RAJASTHAN STATE COOPERATIVE BANK LIMITED,RSCB0036006,THE JAISALMER CENTRAL COOP BANK LTD,"NEAR HANUMAAN TEMPLE,VILAGE AND POST SULTANA 345001",JAISALMER,JAISALMER,RAJASTHAN,9001297659
456,THE RAJASTHAN STATE COOPERATIVE BANK LIMITED,RSCB0036007,THE JAISALMER CENTRAL COOP BANK LTD,"MAIN MARKET,NEAR SENIOR SECONDARY SCHOOL RAJMATHAI,345025",JAISALMER,JAISALMER,RAJASTHAN,9001297644
457,THE RAJASTHAN STATE COOPERATIVE BANK LIMITED,RSCB0036008,THE JAISALMER CENTRAL COOP BANK LTD,"MAIN MARKET,VILAGE AND POST RAMGARH 345022",JAISALMER,JAISALMER,RAJASTHAN,9001297657
458,THE RAJASTHAN STATE COOPERATIVE BANK LIMITED,RSCB0036099,THE JAISALMER CENTRAL COOP BANK LTD,"77,CVS COLONY,JAISALMER345001",JAISALMER,JAISALMER,RAJASTHAN,9001297663
459,THE RAJASTHAN STATE COOPERATIVE BANK LIMITED,RSCB0037001,DAUSA KENDRIYA SAHAKARI BANKLTD,"KREYVIKRAY,SAHKARI SAMITI PARISAR,NAYA KATLA,MANGANJ,DAUSA303303",DAUSA,DAUSA,RAJASTHAN,230067
460,THE RAJASTHAN STATE COOPERATIVE BANK LIMITED,RSCB0037002,DAUSA KENDRIYA SAHAKARI BANKLTD,"SIKANDRA ROAD,BANDIKUI.303713",DAUSA,DAUSA,RAJASTHAN,222085
461,THE RAJASTHAN STATE COOPERATIVE BANK LIMITED,RSCB0037003,DAUSA KENDRIYA SAHAKARI BANKLTD,"PATNI PETROL PUMP,KE SAMNE,KATHOON ROAD CHAUHRA,LALSOAT.303504",DAUSA,DAUSA,RAJASTHAN,222015
462,THE RAJASTHAN STATE COOPERATIVE BANK LIMITED,RSCB0037004,DAUSA KENDRIYA SAHAKARI BANKLTD,"DAU JI KE MANDIR KE PAAS,SIKRAY 303508",DAUSA,DAUSA,RAJASTHAN,254207
463,THE RAJASTHAN STATE COOPERATIVE BANK LIMITED,RSCB0037005,DAUSA KENDRIYA SAHAKARI BANKLTD,"FLAG KE NICHE,MAHUA321608",DAUSA,DAUSA,RAJASTHAN,233244
464,THE RAJASTHAN STATE COOPERATIVE BANK LIMITED,RSCB0037006,DAUSA KENDRIYA SAHAKARI BANKLTD,"GANDHI CHAUK,GARH ROAD,MANDAWARMAHUA ROAD MANDAWAR.321609",DAUSA,DAUSA,RAJASTHAN,260100
465,THE RAJASTHAN STATE COOPERATIVE BANK LIMITED,RSCB0037007,DAUSA KENDRIYA SAHAKARI BANKLTD,"PRABHU DAYAL SONI KA MAKAAN,CHAUPAR,RAMGARH,PACHWARA.303510",DAUSA,DAUSA,RAJASTHAN,9785644513
466,THE RAJASTHAN STATE COOPERATIVE BANK LIMITED,RSCB0037008,DAUSA,"RAHUWAS GSS COMPOUND,VPO RAHUWAS,TEH LALSOT 303505",DAUSA,DAUSA,RAJASTHAN,0
467,THE RAJASTHAN STATE COOPERATIVE BANK LIMITED,RSCB0037009,"DAUSA KENDRIYA SAHKARI BANK LTD.,  DAUSA","NEAR SBI, BANDIKUI RAD, SIKANDARA DAUSA-303326",DAUSA,DAUSA,RAJASTHAN,9785644227
468,THE RAJASTHAN STATE COOPERATIVE BANK LIMITED,RSCB0037099,DAUSA KENDRIYA SAHAKARI BANKLTD,"SAHKAR BHAWAN,KHAN BHANKARI ROAD303303",DAUSA,DAUSA,RAJASTHAN,223250
469,THE RAJASTHAN STATE COOPERATIVE BANK LIMITED,RSCB0038001,HANUMANGARH KENDRIYA SAHAKARI BANK,"NEAR PANCHAYAT SAMITI,HANUMANGARH TOWN,PIN335513",HANUMANGARH,HANUMANGARH,RAJASTHAN,222512
470,THE RAJASTHAN STATE COOPERATIVE BANK LIMITED,RSCB0038002,HANUMANGARH KENDRIYA SAHAKARI BANK,"MATORIYA BUILDING,RAWATSAR,PIN335524",HANUMANGARH,HANUMANGARH,RAJASTHAN,250058
471,THE RAJASTHAN STATE COOPERATIVE BANK LIMITED,RSCB0038003,HANUMANGARH KENDRIYA SAHAKARI BANK,"MAIN BAZAR,NEAR MURTI CHOWK,BHADRA,PIN335501",HANUMANGARH,HANUMANGARH,RAJASTHAN,222016
472,THE RAJASTHAN STATE COOPERATIVE BANK LIMITED,RSCB0038004,HANUMANGARH KENDRIYA SAHAKARI BANK,"DHAN MANDI,PILIBANGA,PIN335803",HANUMANGARH,HANUMANGARH,RAJASTHAN,233065
473,THE RAJASTHAN STATE COOPERATIVE BANK LIMITED,RSCB0038005,HANUMANGARH KENDRIYA SAHAKARI BANK,"10B,DHAN MANDI,SANGRIYA,PIN335063",HANUMANGARH,HANUMANGARH,RAJASTHAN,250182
474,THE RAJASTHAN STATE COOPERATIVE BANK LIMITED,RSCB0038006,HANUMANGARH KENDRIYA SAHAKARI BANK,"LATTA KATLA,MAIN BAZAR,NOHAR,PIN335524",HANUMANGARH,HANUMANGARH,RAJASTHAN,220040
475,THE RAJASTHAN STATE COOPERATIVE BANK LIMITED,RSCB0038007,HANUMANGARH KENDRIYA SAHAKARI BANK,"SHARMA BUILDING,BHAGAT SINGH CHOWK,HANUMANGARH JN.PIN335513",HANUMANGARH,HANUMANGARH,RAJASTHAN,69410
476,THE RAJASTHAN STATE COOPERATIVE BANK LIMITED,RSCB0038008,HANUMANGARH KENDRIYA SAHAKARI BANK,"MAIN MARKET,TIBBI,PIN335524",HANUMANGARH,HANUMANGARH,RAJASTHAN,234024
477,THE RAJASTHAN STATE COOPERATIVE BANK LIMITED,RSCB0038009,HANUMANGARH KENDRIYA SAHAKARI BANK,"STATION ROAD,GOGAMEDI,PIN335504",HANUMANGARH,HANUMANGARH,RAJASTHAN,240139
478,THE RAJASTHAN STATE COOPERATIVE BANK LIMITED,RSCB0038010,HANUMANGARH KENDRIYA SAHAKARI BANK,"V.P.O.PALLU,PIN335524",HANUMANGARH,HANUMANGARH,RAJASTHAN,220030
479,THE RAJASTHAN STATE COOPERATIVE BANK LIMITED,RSCB0038011,HANUMANGARH KENDRIYA SAHAKARI BANK,"V.P.O.GOLUWALA,PIN335802",HANUMANGARH,HANUMANGARH,RAJASTHAN,250093
480,THE RAJASTHAN STATE COOPERATIVE BANK LIMITED,RSCB0038012,HANUMANGARH KENDRIYA SAHAKARI BANK,"V.P.O.UTTRADABAAS,PIN335501",HANUMANGARH,HANUMANGARH,RAJASTHAN,9587022721
481,THE RAJASTHAN STATE COOPERATIVE BANK LIMITED,RSCB0038013,HANUMANGARH KENDRIYA SAHAKARI BANK,"V.P.O.THALARKA,PIN335524",HANUMANGARH,HANUMANGARH,RAJASTHAN,234462
482,THE RAJASTHAN STATE COOPERATIVE BANK LIMITED,RSCB0038014,HANUMANGARH KENDRIYA SAHAKARI BANK,"V.P.O.DUNGRANA,PIN335502",HANUMANGARH,HANUMANGARH,RAJASTHAN,282190
483,THE RAJASTHAN STATE COOPERATIVE BANK LIMITED,RSCB0038015,HANUMANGARH KENDRIYA SAHAKARI BANK,"V.P.O.NINAN,PIN335511",HANUMANGARH,HANUMANGARH,RAJASTHAN,9587022722
484,THE RAJASTHAN STATE COOPERATIVE BANK LIMITED,RSCB0038016,HANUMANGARH,"BRANCH GORKHANA,ADDRESS V.P.O.GORKHANA,PIN 335524",HANUMANGARH,HANUMANGARH,RAJASTHAN,0
485,THE RAJASTHAN STATE COOPERATIVE BANK LIMITED,RSCB0038099,HANUMANGARH KENDRIYA SAHAKARI BANK,"PLOT 53A,OPP CIRCUIT HOUSE,HANUMANGARH JN",HANUMANGARH,HANUMANGARH,RAJASTHAN,0
486,THE RAJASTHAN STATE COOPERATIVE BANK LIMITED,RSCB0039001,BARAN KENDRIYA SAHAKARI BANKLTD,"BRANCH BARAN,NEAR NAGAR PALIKA,BARAN PIN CODE 325205",BARAN,BARAN,RAJASTHAN,9649900179
487,THE RAJASTHAN STATE COOPERATIVE BANK LIMITED,RSCB0039002,BARAN KENDRIYA SAHAKARI BANKLTD,BRANCH ANTA PIN CODE 325202,BARAN,BARAN,RAJASTHAN,9649900183
488,THE RAJASTHAN STATE COOPERATIVE BANK LIMITED,RSCB0039003,BARAN KENDRIYA SAHAKARI BANKLTD,BRANCH ATRU PIN CODE 325218,BARAN,BARAN,RAJASTHAN,9649900175
489,THE RAJASTHAN STATE COOPERATIVE BANK LIMITED,RSCB0039004,BARAN KENDRIYA SAHAKARI BANKLTD,BRANCH CHHABRA PIN CODE 325220,BARAN,BARAN,RAJASTHAN,9649900181
490,THE RAJASTHAN STATE COOPERATIVE BANK LIMITED,RSCB0039005,BARAN KENDRIYA SAHAKARI BANKLTD,BRANCH CHHIPABAROD PIN CODE 325221,BARAN,BARAN,RAJASTHAN,7665008166
491,THE RAJASTHAN STATE COOPERATIVE BANK LIMITED,RSCB0039006,BARAN KENDRIYA SAHAKARI BANKLTD,BRANCH MANGROL PIN CODE 325215,BARAN,BARAN,RAJASTHAN,9649900185
492,THE RAJASTHAN STATE COOPERATIVE BANK LIMITED,RSCB0039007,BARAN KENDRIYA SAHAKARI BANKLTD,BRANCH BHANWARGARH PIN CODE 325216,BARAN,BARAN,RAJASTHAN,9649900182
493,THE RAJASTHAN STATE COOPERATIVE BANK LIMITED,RSCB0039008,BARAN KENDRIYA SAHAKARI BANKLTD,BRANCH SISWALI PIN CODE 325206,BARAN,BARAN,RAJASTHAN,9649900187
494,THE RAJASTHAN STATE COOPERATIVE BANK LIMITED,RSCB0039009,BARAN KENDRIYA SAHAKARI BANKLTD,BRANCH SHAHBAD PIN CODE 325217,BARAN,BARAN,RAJASTHAN,9649900177
495,THE RAJASTHAN STATE COOPERATIVE BANK LIMITED,RSCB0039099,BARAN KENDRIYA SAHAKARI BANKLTD,"HEAD OFFICE,SAHAKAR BHAWAN,POLICE LINE ROAD,KOTA ROAD,BARAN PIN CODE 325205",BARAN,BARAN,RAJASTHAN,9649900190
