,BANK NAME,IFSC,OFFICE,ADDRESS,DISTRICT,CITY,STATE,PHONE
0,BANDHAN BANK LIMITED,BDBL0001000,HO ACCOUNTS,"DN-32,SECTOR -V,SALT LAKE CITY,KOLKATA,WEST BENGAL,PIN -700091",NORTH 24 PARGANAS,KOLKATA,WEST BENGAL,66090909
1,BANDHAN BANK LIMITED,BDBL0001001,TREASURY,"DN-32,SECTOR -V,SALT LAKE CITY,KOLKATA,WEST BENGAL,PIN -700091",NORTH 24 PARGANAS,KOLKATA,WEST BENGAL,66090909
2,BANDHAN BANK LIMITED,BDBL0001002,CPU,"DN-32,SECTOR -V,SALT LAKE CITY,KOLKATA,WEST BENGAL,PIN -700091",NORTH 24 PARGANAS,KOLKATA,WEST BENGAL,66090909
3,BANDHAN BANK LIMITED,BDBL0001011,SALT LAKE SECTOR V DN,"DN-32,SECTOR -V,SALT LAKE CITY,KOLKATA,WEST BENGAL,PIN -700091",NORTH 24 PARGANAS,KOLKATA,WEST BENGAL,9836172345
4,BANDHAN BANK LIMITED,BDBL0001012,BARASAT,"1ST.FLOOR,44,KRISHNANAGAR ROAD,SUDHA APARTMENT,P.O.NABAPALLY,WEST BENGAL,PIN - 700126",NORTH 24 PARGANAS,KOLKATA,WEST BENGAL,9088010129
5,BANDHAN BANK LIMITED,BDBL0001013,AURANGABAD,"PLOT NO.4,YESHWANT CO OPERATIVE SOCIETY,NEAR PAWAN GAS AGENCIES,NEW OSMANPURA,AURANGABAD,MAHARASHTRA,PIN 431005",AURANGABAD,PUNE,MAHARASHTRA,66090909
6,BANDHAN BANK LIMITED,BDBL0001014,AKRA FATAK,"W/197A,S.A.FAROOQUE ROAD,RABINDRA NAGAR,WEST BENGAL,KOLKATA-700018",KOLKATA,KOLKATA,WEST BENGAL,9830416787
7,BANDHAN BANK LIMITED,BDBL0001015,SONARPUR,"SONARPUR STATION ROAD,KAMRABAD,P.O-SONARPUR,SOUTH 24 PGS,WEST BENGAL,PIN -700150",SOUTH 24 PARGANAS,KOLKATA,WEST BENGAL,9051172789
8,BANDHAN BANK LIMITED,BDBL0001016,NEW GARIA,"24,SREENAGAR MAIN ROAD,P.O.-SONARPUR,KOLKATA,WEST BENGAL,PIN-700094",SOUTH 24 PARGANAS,KOLKATA,WEST BENGAL,9674569477
9,BANDHAN BANK LIMITED,BDBL0001017,MALKAPUR KARAD,"295 2,SHRIRAM NIWAS,PUNE -BANGLORE ROAD,SHASTRINAGAR,MALKAPUR,KARAD,DIST.SATARA,MAHARASHTRA,PIN -415110",SATARA,PUNE,MAHARASHTRA,66090909
10,BANDHAN BANK LIMITED,BDBL0001018,KONNAGAR,"N133/1 INDIRA GANDHI ROAD,P.O.KONNAGAR,DIST.HOOGHLY,PIN-712235",HOOGHLY,KOLKATA,WEST BENGAL,9433005518
11,BANDHAN BANK LIMITED,BDBL0001019,SANPUIPARA BASUKATI,"SAPUIPARA BASUKATI CO-OPERATIVE BUILDING,VILL -NAWPATTY,KOMILLAPARA,P.O -SAPUIPARA,DIST -HOWRAH,WEST BENGAL,PIN -711227",HOWRAH,KOLKATA,WEST BENGAL,8013053573
12,BANDHAN BANK LIMITED,BDBL0001020,MADHYAMGRAM,"237,SODEPUR ROAD,MADHYAMGRAM,KOLKATA 700129,WEST BENGAL",NORTH 24 PARGANAS,KOLKATA,WEST BENGAL,9831137259
13,BANDHAN BANK LIMITED,BDBL0001021,NARAYANPUR,"KRISHTI PLAZA KALIPARK,BABLATALA,P.O.RAJARHAT GOPALPUR,DIST.24 PGSN,KOLKATA - 700136,WEST BENGAL",NORTH 24 PARGANAS,KOLKATA,WEST BENGAL,7044097322
14,BANDHAN BANK LIMITED,BDBL0001022,KANKURGACHI,"P -184,CIT SCHEME-VI M,GROUND FLOOR,KOLKATA,WEST BENGAL,PIN - 700054",KOLKATA,KOLKATA,WEST BENGAL,8017761608
15,BANDHAN BANK LIMITED,BDBL0001023,KASBA,"267,RAJDANGA NABAPALLY,KASBA,KOLKATA,WEST BENGAL,PIN -700107",KOLKATA,KOLKATA,WEST BENGAL,9830118133
16,BANDHAN BANK LIMITED,BDBL0001024,HABRA,"VILL-KAMARTHUBA,HABRA,JESSORE ROAD,NH 35,NETAJI MORE,BULIDING NO 79/78 POST-HABRA,DIST.NORTH 24 PARGANAS,WEST BENGAL,PIN-743263",NORTH 24 PARGANAS,KOLKATA,WEST BENGAL,9830556165
17,BANDHAN BANK LIMITED,BDBL0001025,SANGAMNER,"1ST FLOOR,MALPANI PLAZA,OMKARNATHJI MALPANI MARG,I.G.ROAD,SANGAMNER,DIST-AHMEDNAGAR,MAHARASHTRA,PIN -422605",AHMEDNAGAR,PUNE,MAHARASHTRA,66090909
18,BANDHAN BANK LIMITED,BDBL0001026,ASANSOL,"JCC PLAZA,NEAR KALIBARI,HUTTON ROAD,ASANSOL,DIST.BURDWAN,WEST BENGAL,PIN-713301",BARDHAMAN,KOLKATA,WEST BENGAL,9933789707
19,BANDHAN BANK LIMITED,BDBL0001027,BARUIPUR,"104 A,KULPI ROAD,BARUIPUR,KOLKATA,WEST BENGAL,PIN 700144",SOUTH 24 PARGANAS,KOLKATA,WEST BENGAL,66090909
20,BANDHAN BANK LIMITED,BDBL0001028,RAJPUR,,SOUTH 24 PARGANAS,KOLKATA,WEST BENGAL,66090909
21,BANDHAN BANK LIMITED,BDBL0001029,SEKATI,"VILL & PO - CHEKATI,DIST.NORTH 24 PARGANAS,WEST BENGAL,PIN -743245",NORTH 24 PARGANAS,KOLKATA,WEST BENGAL,8101720110
22,BANDHAN BANK LIMITED,BDBL0001030,BHUBANESWAR,"LTN 10,JANPATH,O SATYANAGAR,BHUBANESWAR,DIST KHURDA,STATEODISHA,IN-751001",KHURDA,CUTTACK,ODISHA,66090909
23,BANDHAN BANK LIMITED,BDBL0001031,UTTARPARA,"38/16,NEW G.T.ROAD,P.O.UTTARPARA,HOOGHLY,WEST BENGAL,PIN-712258",HOOGHLY,KOLKATA,WEST BENGAL,983002330
24,BANDHAN BANK LIMITED,BDBL0001032,SERAMPORE,"100 GT ROAD,SIRISHTALA SRIRAMPUR,DIST.HOOGHLY,WEST BENGAL,PIN -712201",HOOGHLY,KOLKATA,WEST BENGAL,9830030589
25,BANDHAN BANK LIMITED,BDBL0001033,GOPINAGAR,"VILL.GOPINAGAR,GANGULIPARA,P.O.HARIPAL,DIST.HOOGHLY,WEST BENGAL,PIN-712403",HOOGHLY,KOLKATA,WEST BENGAL,66090909
26,BANDHAN BANK LIMITED,BDBL0001034,BAGHADARI,"VILL. & P.O.BAGHADARI,DIST.PURBA MEDINIPUR,BHUPATINAGAR,WEST BENGAL,PIN - 721425",EAST MEDINIPUR,KOLKATA,WEST BENGAL,8348484550
27,BANDHAN BANK LIMITED,BDBL0001035,PURI,"PLOT.NO.41,NEAR PKDA OFFICE,VIP ROAD,P.O.PURI,ORISSA,PIN 752001",PURI,PURI,ODISHA,66090909
28,BANDHAN BANK LIMITED,BDBL0001036,KEOTOSHA,"VILL-KEOTSHA,P.O.BURUZ,P.O.BADURIA,DIST.NORTH 24 PARGANAS,WEST BENGAL,PIN-743401",NORTH 24 PARGANAS,KOLKATA,WEST BENGAL,8145576358
29,BANDHAN BANK LIMITED,BDBL0001037,DONGARIA,"VILL. & P.O.POALI,DIST.SOUTH 24 PGS,WEST BENGAL,PIN - 743318",SOUTH 24 PARGANAS,KOLKATA,WEST BENGAL,9563385617
30,BANDHAN BANK LIMITED,BDBL0001038,DEGANGA,"VILL. & P.O -DEGANGA,DIST -NORTH 24 PGS.DEGANGA BAZAR,TAKI ROAD,WEST BENGAL,PIN - 743423",NORTH 24 PARGANAS,KOLKATA,WEST BENGAL,9775256181
31,BANDHAN BANK LIMITED,BDBL0001039,ENGLISHBAZAR,"SHAKUNTALA APARTMENT,NEAR PURNO LODGE,MANASKAMANA ROAD,KANIR MORE,P.O. & DIST.MALDA,WEST BENGAL,PIN-732101",MALDA,KOLKATA,WEST BENGAL,9733333933
32,BANDHAN BANK LIMITED,BDBL0001040,SIMHAT,"VILL.&P.O.SIMHAT,DIST.NADIA,DIST.NADIA,WEST BENGAL,PIN-741249",NORTH 24 PARGANAS,KOLKATA,WEST BENGAL,8334939585
33,BANDHAN BANK LIMITED,BDBL0001041,NARIKELBAR,"RAKHAL DAS MARKET,VILL NARIKELBARH,P.O.SHYAMPUR,DIST.HOWRAH,WEST BENGAL,PIN-711314",HOWRAH,KOLKATA,WEST BENGAL,9735764207
34,BANDHAN BANK LIMITED,BDBL0001042,SARAPUL,"VILL & PO-SANRAPUL,DIST.NORTH 24 PARGANAS,WEST BENGAL,PIN-743286",NORTH 24 PARGANAS,KOLKATA,WEST BENGAL,9051620997
35,BANDHAN BANK LIMITED,BDBL0001043,BHAGAWANPUR,"VILL BHAGABANPUR,P.O.MANGLAMARO,PATASHPUR,WEST BENGAL,PIN -721434",EAST MEDINIPUR,KOLKATA,WEST BENGAL,7797450321
36,BANDHAN BANK LIMITED,BDBL0001044,MIDNAPUR,"BATTALA CHOWK,HOSPITAL ROAD,HOLDING NO.37/33,WARD NO.12,ROY TYRE BUILDING,PASCHIM MEDINIPUR,WEST BENGAL,PIN -721101",WEST MEDINIPUR,KOLKATA,WEST BENGAL,9830885957
37,BANDHAN BANK LIMITED,BDBL0001045,MAKULI,"P.O.PAKUAHAT,DIST.MALDA,WEST BENGAL,PIN-732138",MALDA,KOLKATA,WEST BENGAL,8017793004
38,BANDHAN BANK LIMITED,BDBL0001046,PANITANKI,"VILL GANDOGOL JOTE,P.O.DULAL JOTE,DIST.DARJEELING,WEST BENGAL,PIN -734429",DARJEELING,KOLKATA,WEST BENGAL,8170927071
39,BANDHAN BANK LIMITED,BDBL0001047,BERHAMPORE,"34 S.N.BHATTACHARJEE ROAD,DIST.MURSHIDABAD,WEST BENGAL,PIN-742101",MURSHIDABAD,KOLKATA,WEST BENGAL,9830045201
40,BANDHAN BANK LIMITED,BDBL0001048,KADUBARI,"VILL KADUBARI,P.O.GAZOL,DIST.MALDA,GAZOLE,WEST BENGAL,PIN - 732124",MALDA,KOLKATA,WEST BENGAL,9851715743
41,BANDHAN BANK LIMITED,BDBL0001049,HAJRAPOTA,"HAZRAPOTA,MIRA BAZAR,P.O.PLASSEY NEAR ROP CAMP DIST.NADIA,WEST BENGAL,PIN-741156",NADIA,KOLKATA,WEST BENGAL,7710065538
42,BANDHAN BANK LIMITED,BDBL0001050,NALDUGARI,"VILL-CHARMANDAL,PO-NALDUGARI,DIST.NORTH 24 PARGANAS,WEST BENGAL,PIN -743297",NORTH 24 PARGANAS,KOLKATA,WEST BENGAL,9609879499
43,BANDHAN BANK LIMITED,BDBL0001051,BASIRHAT,"VILL-MIRZAPUR,P.O.BASIRHAT COLLEGE,DIST.NORTH 24 PARGANAS,WEST BENGAL,PIN -743412",NORTH 24 PARGANAS,KOLKATA,WEST BENGAL,66090909
44,BANDHAN BANK LIMITED,BDBL0001052,KUTIPARA,"VILL KUTIPARA,P.O.BAGULA,HANSHKHALI,WEST BENGAL,PIN-741502",NADIA,KOLKATA,WEST BENGAL,8609828600
45,BANDHAN BANK LIMITED,BDBL0001053,SIMULIA,"NEAR KALI BARI,VILL. & P.O.SIMULIA,DIST.NORTH 24 PARGANAS,WEST BENGAL,PIN-743426",NORTH 24 PARGANAS,KOLKATA,WEST BENGAL,8336062049
46,BANDHAN BANK LIMITED,BDBL0001054,PURBA JAGANANANDAPUR,"VILL.PURBA JAGANANANDAPUR,P.O.BETHUADAHARI,STATION PARA GROUND FLOOR,NAKASHIPARA,WEST BENGAL,PIN -741126",NADIA,KOLKATA,WEST BENGAL,965313336
47,BANDHAN BANK LIMITED,BDBL0001055,GANTI,"VILL GANTI,P.O.KATILPUR,DIST.BANKURA,WEST BENGAL,PIN -722141",BANKURA,KOLKATA,WEST BENGAL,9732865558
48,BANDHAN BANK LIMITED,BDBL0001056,CHAMRAIL,"APARNA BHAWAN,P.O & VILL CHAMRAIL,DIST.HOWRAH,WEST BENGAL,PIN -711114",HOWRAH,KOLKATA,WEST BENGAL,9860749385
49,BANDHAN BANK LIMITED,BDBL0001057,SHARRANG,"VILL.SHARRANG,PO JAHALDA,DIST.PURBA MEDINIPUR,WEST BENGAL,PIN - 721143",EAST MEDINIPUR,KOLKATA,WEST BENGAL,9732827416
50,BANDHAN BANK LIMITED,BDBL0001058,RAJAPUR,"VILL RAJAPUR,P.O-TALDI,PS-CANNING,DIST-SOUTH 24 PARGANAS,WEST BENGAL,PIN-743376",SOUTH 24 PARGANAS,KOLKATA,WEST BENGAL,8371973008
51,BANDHAN BANK LIMITED,BDBL0001059,UTTAR GARDAHA,"FIRST FLOOR VILL UTTAR GARDAHA,P.O.HAROA,WEST BENGAL,PIN -743425",NORTH 24 PARGANAS,KOLKATA,WEST BENGAL,9153283018
52,BANDHAN BANK LIMITED,BDBL0001060,GANAK BANDHI,"VILL GANAKBANDHI,P.O.AMLAGORA,GARBETA,DIST.PASCHIM MEDINIPUR,WEST BENGAL,PIN - 721121",WEST MEDINIPUR,KOLKATA,WEST BENGAL,8001410370
53,BANDHAN BANK LIMITED,BDBL0001061,MIRBAZAR,"VILL MIR BAZAR,P.O.PANCHLA,NEAR AZIM HIGH SCHOOL,WEST BENGAL,PIN - 711322",HOWRAH,KOLKATA,WEST BENGAL,66090909
54,BANDHAN BANK LIMITED,BDBL0001062,SONATALA,"VILL & P.O.- SONATALA,OPP.TARUN SANGHA CLUB,DIST-HOWRAH,WEST BENGAL,PIN-711412",HOWRAH,KOLKATA,WEST BENGAL,8972231558
55,BANDHAN BANK LIMITED,BDBL0001063,BAGNAN,"O.T.ROAD WEST,OPP PASCHIMBANGA GRAMIN BANK,P.O.BAGNAN,DIST.HOWRAH,WEST BENGAL,PIN-711303",HOWRAH,KOLKATA,WEST BENGAL,9046079490
56,BANDHAN BANK LIMITED,BDBL0001064,KASIMPUR,"VILL.KASHIMPUR,P.O.HEMTABAD,DIST.NORTH DINAJPUR,WEST BENGAL,PIN - 733144",NORTH DINAJPUR,KOLKATA,WEST BENGAL,956333720
57,BANDHAN BANK LIMITED,BDBL0001065,SARBERA,"VILLSARBERA,P.O.SAT BANKURA,DIST.PASCHIM MEDINIPUR,WEST BENGAL,PIN -721253",WEST MEDINIPUR,KOLKATA,WEST BENGAL,983608335
58,BANDHAN BANK LIMITED,BDBL0001066,PAMLIA,"VILL & MOUZA-PUMLIA,P.O.CHAKDAH,DIST.NADIA,WEST BENGAL,PIN -741222",NADIA,KOLKATA,WEST BENGAL,8541074697
59,BANDHAN BANK LIMITED,BDBL0001067,GURDHA,"VILL-GURDAHA,P.O.BADURIA,DIST.NORTH 24 PARGANAS,WEST BENGAL,PIN-743401",NORTH 24 PARGANAS,KOLKATA,WEST BENGAL,8145231887
60,BANDHAN BANK LIMITED,BDBL0001068,BEJUAR,"SK.KAMARUDDIN,VILL BOIJUAR,P.O.TUNGIDIGHI,DIST.UTTAR DINAJPUR,WEST BENGAL,PIN - 733215",NORTH DINAJPUR,KOLKATA,WEST BENGAL,8436523683
61,BANDHAN BANK LIMITED,BDBL0001069,"GUZARPUR, GHOSHPARA","SHREE KRISHNA APPARTEMENT,1ST FLOOR,KALATALA,VILL GUZARPUR,P.O.AMTA,DIST.HOWRAH,WEST BENGAL,PIN - 711401",HOWRAH,KOLKATA,WEST BENGAL,9647204361
62,BANDHAN BANK LIMITED,BDBL0001070,RATANPUR,"P.O.BINDOLE,UTTAR DINAJPUR,WEST BENGAL,PIN-733156",NORTH DINAJPUR,KOLKATA,WEST BENGAL,7602774422
63,BANDHAN BANK LIMITED,BDBL0001071,BARASAT CHAMPADALI MORE,"ASOKE NILOY,77,VIVEKANANDA ROAD,BARASAT CHAMPADALI,P.O.BARASAT,KOLKATA,WEST BENGAL,PIN -700124",NORTH 24 PARGANAS,KOLKATA,WEST BENGAL,9051733633
64,BANDHAN BANK LIMITED,BDBL0001072,BALARAMBATI,"BALARAMBATI,SINGUR,P.O.BALARAMBATI,DIST.HOOGHLY,WEST BENGAL,PIN-712409",HOOGHLY,KOLKATA,WEST BENGAL,8013679698
65,BANDHAN BANK LIMITED,BDBL0001073,CHAK KANTHALIA,"VILL CHALK KANTALIABARASAT ROAD,P.O.SEWLI TELINI PARA,WEST BENGAL,PIN -700121",NORTH 24 PARGANAS,KOLKATA,WEST BENGAL,7890369026
66,BANDHAN BANK LIMITED,BDBL0001074,NATNA,"VILL NATNA,P.O.NATNA PATABUKA,DIST.NADIA,KARIMPUR,WEST BENGAL,PIN-741122",NADIA,KOLKATA,WEST BENGAL,9775251695
67,BANDHAN BANK LIMITED,BDBL0001075,KAMLAI,"VILL & P.O.KAMALAI,WEST BENGAL,PIN-733143",NORTH DINAJPUR,KOLKATA,WEST BENGAL,8172073442
68,BANDHAN BANK LIMITED,BDBL0001076,PORSA,"VILL PORSA,P.O.ITAHAR,UTTAR DINAJPUR,WEST BENGAL,PIN - 733128",NORTH DINAJPUR,KOLKATA,WEST BENGAL,9475719160
69,BANDHAN BANK LIMITED,BDBL0001077,BHAKTINAGAR,"VILL BHAKTINAGAR,P.O.PHANSIDEWA,DIST.DARJEELING,WEST BENGAL,PIN-734434",DARJEELING,KOLKATA,WEST BENGAL,8370891826
70,BANDHAN BANK LIMITED,BDBL0001078,DUBRAJPUR,"BASAKPARA,P.O.DUBRAJPUR,DIST.BIRBHUM,WEST BENGAL,PIN-731123",BIRBHUM,KOLKATA,WEST BENGAL,8942082244
71,BANDHAN BANK LIMITED,BDBL0001079,KANTABON,"VILL KANTABON,P.O.HATKRISHNANAGAR,DIST.BANKURA,WEST BENGAL,PIN-722206",BANKURA,KOLKATA,WEST BENGAL,7797580229
72,BANDHAN BANK LIMITED,BDBL0001080,BANGUR AVENUE,KANVNKKAAWSNAPIN-700055,NORTH 24 PARGANAS,KOLKATA,WEST BENGAL,9732004848
73,BANDHAN BANK LIMITED,BDBL0001081,JOYNAGAR,"410 NS ROAD,JOYNAGAR,MOZILPUR,P.O -JOYNAGAR,SOUTH 24 PARGANAS,WEST BENGAL,PIN-743337",SOUTH 24 PARGANAS,KOLKATA,WEST BENGAL,9874307113
74,BANDHAN BANK LIMITED,BDBL0001082,NALPUKUR BAGANATI,"VILL NALPUKUR,NEAR COLLEGE MORE,P.O.BHANGAR,DIST.SOUTH 24 PARGANAS,WEST BENGAL PIN -743502",SOUTH 24 PARGANAS,KOLKATA,WEST BENGAL,7797623008
75,BANDHAN BANK LIMITED,BDBL0001083,JAMSEDPUR,"PP TOWER,RAM MANDIR AREA,BISTUPUR,JAMSHEDPUR,JHARKHAND,PIN -831001",EAST SINGHBHUM,PATNA,JHARKHAND,9934318058
76,BANDHAN BANK LIMITED,BDBL0001084,RUDEL,"VILL RUDEL RASHOKHOWAHAT,SILIGURI MORE,P.O.RASHOKHOWAHAT,WEST BENGAL,PIN-733201",NORTH DINAJPUR,KOLKATA,WEST BENGAL,8759612990
77,BANDHAN BANK LIMITED,BDBL0001085,GANGAPUR,"VILL GANGAPUR NILGANJ ROAD,P.O.DUTTAPUKUR,DIST.NORTH 24 PARAGANAS,WEST BENGAL,PIN - 743248",NORTH 24 PARGANAS,KOLKATA,WEST BENGAL,9804439660
78,BANDHAN BANK LIMITED,BDBL0001086,DIAMOND HARBOUR,"MADHABPUR,HOLDING NO.83,P.O-DIAMOND HARBOUR,SOUTH 24 PARGANAS,WEST BENGAL,PIN -743331",SOUTH 24 PARGANAS,KOLKATA,WEST BENGAL,9434649887
79,BANDHAN BANK LIMITED,BDBL0001087,NABADWIP,"110/6 NS ROADPOURASABHA MORE,NABADWIP,DIST.NADIA,WEST BENGAL,PIN-741302",NADIA,KOLKATA,WEST BENGAL,9433307634
80,BANDHAN BANK LIMITED,BDBL0001088,RANCHI,"ANAND COMPLEX,OLD HB ROAD,P.O.LALPUR RANCHI,JHARKHAND,PIN-834001",RANCHI,PATNA,JHARKHAND,9386727262
81,BANDHAN BANK LIMITED,BDBL0001089,KALYANI,"B/8/33,C/A,WARD NO.12,KALYANI,G.P.ROAD,NADIA,WEST BENGAL,PIN -741235",NADIA,KOLKATA,WEST BENGAL,7044061824
82,BANDHAN BANK LIMITED,BDBL0001090,RAIGANJ,"P.O.RAIGANJ,M.G.ROAD,NEAR SBI,DIST.UTTAR DINAJPUR,WEST BENGAL,PIN -733134",NORTH DINAJPUR,KOLKATA,WEST BENGAL,8116341718
83,BANDHAN BANK LIMITED,BDBL0001091,SAINTHIA,"SAINTHIA-SURI MIN ROAD,P.O.SAINTHIA,DIST.BIRBHUM,WEST BENGAL,PIN-731234",BIRBHUM,KOLKATA,WEST BENGAL,9735423267
84,BANDHAN BANK LIMITED,BDBL0001092,DAKSHIN PARANGERPARA,"VILL DAKSHIN PARANGERPARA,P.O.FALAKATA,DIST.ALIPURDUAR,WEST BENGAL,PIN-735211",JALPAIGURI,KOLKATA,WEST BENGAL,9832860345
85,BANDHAN BANK LIMITED,BDBL0001093,DAKSHIN NARATHALI,"VILL DAKHIN KAMAKHAGURI,P.O.KAMAKHAGURI,DIST.JALPAIGURI,W.BENGAL,PIN -736202",JALPAIGURI,KOLKATA,WEST BENGAL,8372057023
86,BANDHAN BANK LIMITED,BDBL0001094,MIRZAPUR,"TRIVENI CAMPUS,RATAN GANJ,MIRZAPUR,KATRA KOTWALI,DIST.MIRZAPUR,UTTAR PRADESH,PIN-231001",MIRZAPUR,KANPUR,UTTAR PRADESH,9934079800
87,BANDHAN BANK LIMITED,BDBL0001095,DOIGRUNG,"VILL 2 NO.DOIGRUNG,P.O.LETEKUJAN,GOLAGHAT,ASSAM,PIN -785613",JORHAT,GUWAHATI,ASSAM,66090909
88,BANDHAN BANK LIMITED,BDBL0001096,AHMEDPUR,"VILL & P.O.AHMADPUR BABU PARA,DIST.BIRBHUM,WEST BENGAL,PIN-731201",BIRBHUM,KOLKATA,WEST BENGAL,9126370500
89,BANDHAN BANK LIMITED,BDBL0001097,AMTALA,"VILL & PO - AMTALA,DIST.-MURSHIDABAD,WEST BENGAL,PIN -742 121",MURSHIDABAD,KOLKATA,WEST BENGAL,8372930527
90,BANDHAN BANK LIMITED,BDBL0001098,ARARIA,"GROUND FLOOR,ZERO MILE ROAD,NEAR KOSHIPOOL,WARD NO.-20,P.O.ARARIA,BIHAR,PIN-854311",ARARIA,PATNA,BIHAR,9334491282
91,BANDHAN BANK LIMITED,BDBL0001099,"AURANGABAD, BIHAR","M.G.ROAD,P.O-AURANGABAD,DIST.-AURANGABAD,BIHAR,PIN-824101",AURANGABAD,PATNA,BIHAR,8755037666
92,BANDHAN BANK LIMITED,BDBL0001100,BABHANGAMA,"VILL& P.O.BABHANGAMA,DIST.BHAGALPUR,BIHAR,PIN-853201",BHAGALPUR,PATNA,BIHAR,66090909
93,BANDHAN BANK LIMITED,BDBL0001101,BABHNOULI,"VILL BABHNAULI,P.O.LANGARPURA,DIST.SIWAN,BIHAR,PIN -841239",SARAN,PATNA,BIHAR,66090909
94,BANDHAN BANK LIMITED,BDBL0001102,BAHADURGANJ,"MAIN ROAD HARINAGAR CHOWK,FAIZI COMPLEX,P.O-BAHADURGANJ,DIST.KISHANGANJ,BIHAR,PIN-855101",KISHANGANJ,PATNA,BIHAR,9308111353
95,BANDHAN BANK LIMITED,BDBL0001103,BANKA,"PANCH MUKHI,BAJARANGWALI CHAWLK,KATORIYA ROAD,VIJOY NAGAR,BANKA,BIHAR,PIN-813102",BANKA,PATNA,BIHAR,9973341222
96,BANDHAN BANK LIMITED,BDBL0001104,BARIPADA,"STATION BAZAR,P.O.BARIPADA,DIST.MAYURBHANJ,ODISHA,PIN - 757001",MAYURBHANJ,BHUBANESWAR,ODISHA,7381086986
97,BANDHAN BANK LIMITED,BDBL0001105,BEGUSARAI,S,BEGUSARAI,PATNA,BIHAR,8877002200
98,BANDHAN BANK LIMITED,BDBL0001106,BELAKOBA,"BELSANNA NAGAR,SONAR BARI PRADHAN PARA,P.O.BELOCOBA,DIST.JALPAIGURI,WEST BENGAL,PIN 735133",JALPAIGURI,KOLKATA,WEST BENGAL,9474936203
99,BANDHAN BANK LIMITED,BDBL0001107,BELDANGA,"BARUA NAZRUL PALLY,P.O.BELDANGA,DIST.MURSHIDABAD,WEST BENGAL,PIN -742 133",MURSHIDABAD,KOLKATA,WEST BENGAL,9647438008
100,BANDHAN BANK LIMITED,BDBL0001108,BETTIAH,"SHIVPURI COLLONY,NEAR SUPRIYA CINEMA ROAD,P.O.BETTIAH,DIST.WEST CHAMPARAN,BIHAR,PIN -845438",WEST CHAMPARAN,PATNA,BIHAR,8521140924
101,BANDHAN BANK LIMITED,BDBL0001109,BHADRAK TOWN,"FIRST FLOOR,ALLAHABAD BANK COMPLEX,AT - NORIPUR,P.O.AND DIST.BHADRAK,ODISHA,PIN - 756100",BHADRAK,BHUBANESWAR,ODISHA,66090909
102,BANDHAN BANK LIMITED,BDBL0001110,BHAGALPUR,"RENUKA COMPLEX,1ST FLOOR,PATAL BABU ROAD,BESIDE AXIS BANK,P.O-BHAGALPUR,DIST.BHAGALPUR,BIHAR,PIN-812001",BHAGALPUR,PATNA,BIHAR,9304490871
103,BANDHAN BANK LIMITED,BDBL0001111,BIHARSHARIF,"RAM-RAJ COMPLEX,RAMCHANDRAPUR,LEHARI THANA,BIHAR,PIN - 803101",NALANDA,PATNA,BIHAR,9570057000
104,BANDHAN BANK LIMITED,BDBL0001112,BIJNOR,"SHAKTI CHOWK,NAI BASTI ROAD,P.O.BIJNOR,UTTAR PRADESH,PIN - 246701",BIJNOR,KANPUR,UTTAR PRADESH,9012395779
105,BANDHAN BANK LIMITED,BDBL0001113,CHAIBASA,"SENTOLA,NEAR YASHODA TALKIES,P.O.CHAIBASA,DIST.SINGHBHUMW,JHARKHAND,PIN-833201",WEST SINGHBHUM,PATNA,JHARKHAND,9955973866
106,BANDHAN BANK LIMITED,BDBL0001114,CHAKIA,"VARDHAN CPMPLEX,SAHEBGANJ ROAD,P.O.BARA CHAKIA,DIST.EAST CHAMPARAN,BIHAR,PIN-845412",EAST CHAMPARAN,PATNA,BIHAR,7250465675
107,BANDHAN BANK LIMITED,BDBL0001115,CHALANTAPARA,"VILL.&P.O.CHALANTAPARA,JOGIGHOPA,DIST.BONGAIGAON,ASSAM.ASSAMPIN-783382",BONGAIGAON,GUWAHATI,ASSAM,9707271416
108,BANDHAN BANK LIMITED,BDBL0001116,CHANDRAPUR,"VILL CHANDRAPUR P.O & DIST HAILAKANDI,ASSAM,PIN -788163",HAILAKANDI,GUWAHATI,ASSAM,8876173207
109,BANDHAN BANK LIMITED,BDBL0001117,CHAPRA,"KASHI BAZAAR CHAPRA,P.O.BHAGWAN BAZAR,DIST.SARAN,BIHAR,PIN-841301",SARAN,PATNA,BIHAR,7050817920
110,BANDHAN BANK LIMITED,BDBL0001118,CHOPDA,"PLOT NO - 18,SHARADCHANDRIKA,AKKA COLONY,YAWAL ROAD,CHOPDA,MAHARASHTRA,PIN - 425107",JALGAON,MUMBAI,MAHARASHTRA,8751816716
111,BANDHAN BANK LIMITED,BDBL0001119,CHOWRANGEE,"VILL.-BALARAMPUR CHOWRANGEE,P.O.BALARAMPURHAT,TUFANGANJ,DIST.COOCHBEHAR,WEST BENGAL,PIN - 736168",COOCH BEHAR,KOLKATA,WEST BENGAL,9593313806
112,BANDHAN BANK LIMITED,BDBL0001120,"DAHALI , BIJAYNAGAR","VILL.DAHALI HALIGAON,P.O.BATARHAT,ASSAM,PIN -781122",KAMRUP,GUWAHATI,ASSAM,9854648945
113,BANDHAN BANK LIMITED,BDBL0001121,DARBHANGA,"MIRZAPUR ROAD,RAJKUMARGANJ,P.O. & DIST.DARBHANGA,BIHAR,PIN-846004",DARBHANGA,PATNA,BIHAR,9304930973
114,BANDHAN BANK LIMITED,BDBL0001122,DEHRADUN,"ROAD NO.2,NAGAR NIGAM COMPLEX,DEHRADUN,UTTARAKHAND,PIN - 248001",DEHRADUN,KANPUR,UTTARAKHAND,9897404034
115,BANDHAN BANK LIMITED,BDBL0001123,DEOGHAR,"HOTEL MANORAMA,INTERNATIONAL SATSANG CHOWK,POST & DIST.-DEOGHAR,JHARKHAND,PIN-814112",DEOGHAR,PATNA,JHARKHAND,9955357988
116,BANDHAN BANK LIMITED,BDBL0001124,DHAMNAGAR,"IN FRONT OF DHAMNAGAR THANA,NEAR UCO BANK,P.O.- DHAMNAGAR,DIST.BHADRAK,ODISHA,PIN -756117",BHADRAK,BHUBANESWAR,ODISHA,9153644100
117,BANDHAN BANK LIMITED,BDBL0001125,DHANBAD,"HARI MANGAL PLAZA,DHANSAR,P.O.DHANSAR,DIST.DHANBAD,JHARKHAND,PIN-828106",DHANBAD,PATNA,JHARKHAND,9709301084
118,BANDHAN BANK LIMITED,BDBL0001126,DHANESWARPUR,"VILL& PO DHANESWARPUR DAKSHINBA,DIST.PASCHIM MEDINIPUR,WEST BENGAL PIN - 721166",WEST MEDINIPUR,KOLKATA,WEST BENGAL,9775531189
119,BANDHAN BANK LIMITED,BDBL0001127,DHUPARGURI,"VILL DHOPARGURI,P.O.HAJO,ASSAM,PIN - 781102",KAMRUP,GUWAHATI,ASSAM,9954983964
120,BANDHAN BANK LIMITED,BDBL0001128,DUDHNOI,"VILL THEKASUPART-I,P.O DUDHNOI,DIST.GOALPARA,ASSAM,PIN-783124",GOALPARA,GUWAHATI,ASSAM,7663913700
121,BANDHAN BANK LIMITED,BDBL0001129,DUM DUM NAGER BAZAR,"66/2,DUM DUM ROAD,GROUND FLOOR,KOLKATA - 700074",NORTH 24 PARGANAS,KOLKATA,WEST BENGAL,8697719773
122,BANDHAN BANK LIMITED,BDBL0001130,DUNLOP,"137/1,B.T.ROAD,NANAKSAR TOWER,KOLKATA,WEST BENGAL,PIN 700108",NORTH 24 PARGANAS,KOLKATA,WEST BENGAL,66090909
123,BANDHAN BANK LIMITED,BDBL0001131,FULTALA GULZARBAGH,"VILLFULTALA,NEAR BUS STAND,P.O.JIAGANJ,DIST.MURSHIDABAD,WEST BENGAL,PIN-742123",MURSHIDABAD,KOLKATA,WEST BENGAL,9563943400
124,BANDHAN BANK LIMITED,BDBL0001132,GADARPUR,"SUKHIJA BHAWAN,MAINROAD,GADARPUR,UTTARAKHAND,PIN -263152",UDHAM SINGH NAGAR,KANPUR,UTTARAKHAND,8923353749
125,BANDHAN BANK LIMITED,BDBL0001133,GANDHI COLONY,"GANDI COLONY,LALWALA ROAD,P.O.DEOBAND,DIST.SAHARANPUR,UTTAR PRADESH,PIN - 247554",SAHARANPUR,KANPUR,UTTAR PRADESH,8931011565
126,BANDHAN BANK LIMITED,BDBL0001134,GHUSIA KURD,"VILL.-GHOSIA KURD NEAR PATEL COLLEGE,P.O-GHOSIA KALA,DIST.-ROTASH,BIHAR,PIN-802212",ROHTAS,PATNA,BIHAR,8864002715
127,BANDHAN BANK LIMITED,BDBL0001135,GIRIDIH,"RAJA BANGLA,MAIN ROAD,P.O. & DIST.GIRIDIH,JHARKHAND,PIN -815301",GIRIDIH,PATNA,JHARKHAND,9534800900
128,BANDHAN BANK LIMITED,BDBL0001136,GONAWA,"VILL. & P.O GONAWA,DIST.NAWADA,BIHAR,PIN - 805110",NAWADA,PATNA,BIHAR,8768688091
129,BANDHAN BANK LIMITED,BDBL0001137,GOPALPUR,"UJJAL MANDAL,VILL.GOPALPUR,P.O.NAYABAZAR,DAKHIN DINAJPUR,WEST BENGAL,PIN - 733142",SOUTH DINAJPUR,KOLKATA,WEST BENGAL,9734837371
130,BANDHAN BANK LIMITED,BDBL0001138,HAJIPUR,"BUBNA CENTRE,1ST FLOOR,RAJENDRA CHOWK,HAJIPUR TOWN,BIHAR,PIN-844101",VAISHALI,PATNA,BIHAR,9199388988
131,BANDHAN BANK LIMITED,BDBL0001139,HALDIBARI,"MITRA MARKET COMPLEX,WARD NO 10,P.O.HALDIBARI,DIST.COOCHBEHAR,WEST BENGAL,PIN -735122",COOCH BEHAR,KOLKATA,WEST BENGAL,7602588797
132,BANDHAN BANK LIMITED,BDBL0001140,HAMILTONGANJ,"VILL FORWORD NAGAR,P.O.HAMILTONGONJ,DIST.-ALIPURDUAR,WEST BENGAL,PIN -735214",JALPAIGURI,KOLKATA,WEST BENGAL,8759959592
133,BANDHAN BANK LIMITED,BDBL0001141,HARHARIA,"VILLHARHARIA,P.O.ISLAMPUR,DIST.MURSHIDABAD,WEST BENGAL,PIN-742304",MURSHIDABAD,KOLKATA,WEST BENGAL,7407504004
134,BANDHAN BANK LIMITED,BDBL0001142,HAZARIBAG,"SIDDHARTH TOWERS,1ST FLOOR,PRINCE HOTEL CAMPUS,OPP.CIVIL COURT,SADAR,HAZARIBAGH,JHARKHAND,PIN-825301",HAZARIBAG,PATNA,JHARKHAND,9102989965
135,BANDHAN BANK LIMITED,BDBL0001143,HILSA,"JOGIPUR MORE,AUTO STAND,BESIDES SBI,HILSA,DIST -NALANDA,BIHAR,PIN - 801302",NALANDA,PATNA,BIHAR,9735216512
136,BANDHAN BANK LIMITED,BDBL0001144,HOGLABARI,"VILL HOGLABARI,P.O.PUNDIBARI,DIST.COOCHBEHAR,WEST BENGAL,PIN-736165",COOCH BEHAR,KOLKATA,WEST BENGAL,8535996910
137,BANDHAN BANK LIMITED,BDBL0001145,IDAR,"B -CITY CENTRE,IDAR HIMATNAGAR,H.W ROAD,SABAR SIT KENDRA,IDAR,DIST -SABARKANTHA,GUJARAT,PIN -383430",SABARKANTHA,AHMEDABAD,GUJARAT,8401260755
138,BANDHAN BANK LIMITED,BDBL0001146,JAJPUR TOWN,"AT-BADABAZAR,NEAR SADABRATA MATHA,P.O.JAJPUR TOWN,DIST.JAJPUR,ODISHA,PIN - 755001",JAJPUR,BHUBANESWAR,ODISHA,9937312181
139,BANDHAN BANK LIMITED,BDBL0001147,JALALABAD NAGAR,"VILL JALALABAD,P.O.ASARGANJ,DIST.MUNGER,BIHAR,PIN-813201",MUNGER,PATNA,BIHAR,9122940895
140,BANDHAN BANK LIMITED,BDBL0001148,JALESWAR,"1 ST FLOOR,AT-DEULIPANCHUGHANTA,COURT BAZAR,NEAR COURT,JALESWAR,P.O.JALESWAR,DIST.BALASORE,ODISHA,PIN - 756032",BALASORE,BHUBANESWAR,ODISHA,7381054630
141,BANDHAN BANK LIMITED,BDBL0001149,KAHALGAON,"BIKRAMSHILA NAGAR,KALPANA CINEMA ROAD,P.O.KAHALGAON,DIST.BHAGALPUR,BIHAR,PIN-813203",BHAGALPUR,PATNA,BIHAR,8864076804
142,BANDHAN BANK LIMITED,BDBL0001150,KAKRATALI,"1 ST FLOOR,H/O DIPAK GUPTA,VILL.KAKRATOLI,P.O.TALAP,DOOM DOOMA,ASSAM,PIN -786156",TINSUKIA,GUWAHATI,ASSAM,66090909
143,BANDHAN BANK LIMITED,BDBL0001151,KALDOBA,"VILL KALDOBA PART-II,P.O.AGOMANI,DIST.DHUBRI,ASSAM,PIN NO -783335",DHUBRI,GUWAHATI,ASSAM,9707087925
144,BANDHAN BANK LIMITED,BDBL0001152,"KANKARBAGH, PATNA","DOCTOR S COLONY,LOHIANAGAR,KANKARBAGH,PATNA,BIHAR,PIN-800020",PATNA,PATNA,BIHAR,9102963581
145,BANDHAN BANK LIMITED,BDBL0001153,KARJAT,"NEW JAIN MANDIR,MAHAVIR PET KARJAT,TAL KARJAT,DIST.RAIGAD,STATION ROAD,KARJAT,MAHARASHTRA,PIN-410201",RAIGAD,MUMBAI,MAHARASHTRA,66090909
146,BANDHAN BANK LIMITED,BDBL0001154,KARMALA,"OPPOSITE ELECTRICITY OFFICE AND BUS STAND,GATE NO.3,RATHOD HEIGHTS,KARMALA,DIST.SOLAPUR,MAHARASHTRA,PIN-413 203",SOLAPUR,MUMBAI,MAHARASHTRA,66090909
147,BANDHAN BANK LIMITED,BDBL0001155,KASHIPUR,"CHAMUNDA BIHAR,RAMNAGAR ROAD,NEAR DENA BANK,KASIPUR,UTTARAKHAND,PIN - 244713",UDHAM SINGH NAGAR,KANPUR,UTTARAKHAND,7830111460
148,BANDHAN BANK LIMITED,BDBL0001156,KENDUKANA,"VILL KENDUKONA,P.O.PUTHIMARI,ASSAM,PIN-781380",KAMRUP,GUWAHATI,ASSAM,66090909
149,BANDHAN BANK LIMITED,BDBL0001157,KHAGARIA,"M.G.ROAD,WARD NO.-22,P.O.AND DIST.-KHAGARIYA,BIHAR,PIN-851204",KHAGARIA,PATNA,BIHAR,66090909
150,BANDHAN BANK LIMITED,BDBL0001158,KHAGRABARI,"VILL VIBEKANANDA PALLY,P.O.MAYNAGURI,DIST.JALPAIGURI,WEST BENGAL,PIN-735224",JALPAIGURI,KOLKATA,WEST BENGAL,7699562653
151,BANDHAN BANK LIMITED,BDBL0001159,KIRNAHAR,"KIRNAHAR CHOURASTA,P.O.KIRNAHAR,DIST.BIRBHUM,WEST BENGAL,PIN -731302",BARDHAMAN,KOLKATA,WEST BENGAL,9732790164
152,BANDHAN BANK LIMITED,BDBL0001160,KONHAULI SANGRAM,"VILL KONHOULI SANGRAM,P.O.BANIAPUR,DIST.SARAN,BIHAR,PIN -841403",SARAN,PATNA,BIHAR,9939805726
153,BANDHAN BANK LIMITED,BDBL0001161,KRISHNAPUR,"YEOLE PLAZA,DESHMUKHWADI,PACHORA,DIST - JALGAON,MAHARASHTRA,PIN - 424201",JALGAON,MUMBAI,MAHARASHTRA,66090909
154,BANDHAN BANK LIMITED,BDBL0001162,KUKRAN,"VILL.-KUKROAN,P.O.AMARIKUKROAN,DIST.-PURNIA,BIHAR,PIN-854205",PURNEA,PATNA,BIHAR,7282821080
155,BANDHAN BANK LIMITED,BDBL0001163,MADHEPURA,"BYPASS BUS STAND ROAD,P.O. & DIST.MADHEPURA,BIHAR,PIN-852113",MADHEPURA,PATNA,BIHAR,8051241241
156,BANDHAN BANK LIMITED,BDBL0001164,MALAHI,"VILL BICHALI MALAHI,P.O-BARH,DIST.PATNA,BIHAR,PIN-803213",PATNA,PATNA,BIHAR,9097232688
157,BANDHAN BANK LIMITED,BDBL0001165,MALLIKPUR,"VILLRADHABAGMALOPARA,P.O.LALGOLA,DIST.MURSHIDABAD,WEST BENGAL,PIN-742148",MURSHIDABAD,KOLKATA,WEST BENGAL,7407791132
158,BANDHAN BANK LIMITED,BDBL0001166,MANDRO,"VILL & P.O.MANDRO,DIST.-GODDA,JHARKHAND,PIN - 813208",BHAGALPUR,PATNA,BIHAR,763138330
159,BANDHAN BANK LIMITED,BDBL0001167,MARATIBPUR,"VILL MARATIBPUR,P.O-KURSAKANTA,DIST.ARARIA,BIHAR,PIN-854331",ARARIA,PATNA,BIHAR,9973696267
160,BANDHAN BANK LIMITED,BDBL0001168,MATHABHANGA,"PASCHIM PARA HOSPITAL ROAD,VILL & P.O -MATHABHANGA,DIST.-COOCHBEHAR,WEST BENGAL,PIN - 736146",COOCH BEHAR,KOLKATA,WEST BENGAL,66090909
161,BANDHAN BANK LIMITED,BDBL0001169,MEERUT,"SHREE RAM TOWER,PLOT NO 2/4/6,SECTOR 1,GARH ROAD.OPP SBI ZONAL OFFICE,MEERUT,UTTAR PRADESH,PIN - 250004",MEERUT,KANPUR,UTTAR PRADESH,9621983322
162,BANDHAN BANK LIMITED,BDBL0001170,MOHANPUR,"VILL.KHADARAMAL,P.O.MOHANPUR,DIST.-GODDA,JHARKHAND,PIN - 814154",GODDA,PATNA,JHARKHAND,9122682182
163,BANDHAN BANK LIMITED,BDBL0001171,MOHOL,"DSK SHOPPING COMPLEX,DB KALASE MARG,P.O.MOHOL,DIST.SOLAPUR,MAHARASHTRA,PIN - 413 213",SOLAPUR,MUMBAI,MAHARASHTRA,9423592015
164,BANDHAN BANK LIMITED,BDBL0001172,MUKTARPUR,"VILL MUKTARPUR,DIST.HOOGHLY,WEST BENGAL,PIN-712401",HOOGHLY,KOLKATA,WEST BENGAL,8768257876
165,BANDHAN BANK LIMITED,BDBL0001173,MUNDAMALA,"VILL MUNDAMALA P.O.PATHARKANDI,DIST.KARIMGANJ,ASSAM,PIN -788724",KARIMGANJ,GUWAHATI,ASSAM,66090909
166,BANDHAN BANK LIMITED,BDBL0001174,MUNGER,"GANDHI CHOWK PURAB SARAI ROAD,P.O. & DIST.MUNGER,BIHAR,PIN -811201",MUNGER,PATNA,BIHAR,7250791478
167,BANDHAN BANK LIMITED,BDBL0001175,NA ALI,"VILL.NA-ALI,PO & DIST.SIVASAGAR,ASSAM,PIN-785640",SIVASAGAR,GUWAHATI,ASSAM,8822548784
168,BANDHAN BANK LIMITED,BDBL0001176,NABI NAGAR,"VILL.-NABI NAGAR,P.O-BELHOWRI,P.S-DULIN BAZAR,DIST.-PATNA,BIHAR,PIN - 801102",PATNA,PATNA,BIHAR,7070970487
169,BANDHAN BANK LIMITED,BDBL0001177,NAHARKATIA,"NAHARKATIA MORAN BUS STAND,P.O.- NAHARKATIA,ASSAM,PIN -786610",DIBRUGARH,GUWAHATI,ASSAM,7086019766
170,BANDHAN BANK LIMITED,BDBL0001178,NAZIRA,"WARD NO-9,NAZIRA TOWN,P.O NAZIRA,ASSAM,PIN - 785685",SIVASAGAR,GUWAHATI,ASSAM,8472908430
171,BANDHAN BANK LIMITED,BDBL0001179,NOTUNPARA,"VILL.NATUNPARA MOLLAPARA,P.O.DUMKAL,DIST.MURSHIDABAD,WEST BENGAL,PIN -742303",MURSHIDABAD,KOLKATA,WEST BENGAL,9564196057
172,BANDHAN BANK LIMITED,BDBL0001180,PAITHAN,"COURT ROAD,YASHWANT NAGAR,P.O.PAITHAN,DIST.AURANGABAD,MAHARASHTRA,PIN - 431 107",AURANGABAD,MUMBAI,MAHARASHTRA,66090909
173,BANDHAN BANK LIMITED,BDBL0001181,PAROO,"VILL. & P.O.PAROO,THANA ROAD,DIST.-MUZAFFARPUR,BIHAR,PIN - 842112",MUZAFFARPUR,PATNA,BIHAR,733154355
174,BANDHAN BANK LIMITED,BDBL0001182,POWAKHALI,"VILL.-SISAGACHHI,P.O-POWAKHALI,DIST.KISHANGANJ,BIHAR,PIN-855108",KISHANGANJ,PATNA,BIHAR,9564255639
175,BANDHAN BANK LIMITED,BDBL0001183,PURNEA,"BHATTA BAZAR,KALI BARI CHOWK,P.O.BHATTA BAZAR,DIST.PURNIA,PURNIA,BIHAR,PIN-854301",PURNEA,PATNA,BIHAR,9709302159
176,BANDHAN BANK LIMITED,BDBL0001184,RAGHUNATHPUR - DONWAN,"VILL.RAGHUNATHPUR-GONWAN,P.O.SAKRA,DIST.MUZAFFARPUR,BIHAR,PIN - 843105",MUZAFFARPUR,PATNA,BIHAR,8507913696
177,BANDHAN BANK LIMITED,BDBL0001185,RAJNAGAR,"VILL & P.O.-RAJNAGAR,DIST.BIRBHUM,WEST BENGAL,PIN-731130",BIRBHUM,KOLKATA,WEST BENGAL,8436134797
178,BANDHAN BANK LIMITED,BDBL0001186,RAJPIPLA,"DIVINE HEIGHTS,MG ROAD,OPPOSITE COLLECTOR OFFICE,P.O.RAJPIPLA,DIST.NARMADA,GUJARAT,PIN -393145",NARMADA,AHMEDABAD,GUJARAT,9157548029
179,BANDHAN BANK LIMITED,BDBL0001187,RAMGARH CANTT,"N.H-33,NEAR SARAGARHI GATE,JHANDA CHOWK,RAMGARH CANTT,JHARKHAND,PIN - 829122",RAMGARH,PATNA,JHARKHAND,9709555755
180,BANDHAN BANK LIMITED,BDBL0001188,RANGIA,"WARD NO.04,NT ROAD NEAR JAMA MASJID,P.O.RANGIA,ASSAM,PIN -781354",KAMRUP,GUWAHATI,ASSAM,9436768884
181,BANDHAN BANK LIMITED,BDBL0001189,RAXAUL,"MASKARA COMPLEX,MAIN ROAD,OPPOSITE P.O.RAXAUL,DIST.EAST CHAMPARAN,BIHAR,PIN-845305",EAST CHAMPARAN,PATNA,BIHAR,9939337995
182,BANDHAN BANK LIMITED,BDBL0001190,ROORKEE,"22/A RAMNAGAR GALI,P.O.ROORKEE,DIST -HARIDWAR,UTTARAKHAND,PIN - 247667",HARIDWAR,KANPUR,UTTARAKHAND,8459302489
183,BANDHAN BANK LIMITED,BDBL0001191,RUDRAPUR,"THE KL SQUARE,D1-D2.13,WARD -13,KASHUPUR BYEPASS ROAD,P.O.- RUDRAPUR,DIST.- UDAM SINGH NAGAR,UTTRAKHAND,PIN -263153",UDHAM SINGH NAGAR,KANPUR,UTTARAKHAND,9690991991
184,BANDHAN BANK LIMITED,BDBL0001192,SAHARSA,"PURAB BAZAR,NEAR MISSION CHURCH,P.O.AND DIST.-SAHARSA,BIHAR,PIN-852201",SAHARSA,PATNA,BIHAR,66090909
185,BANDHAN BANK LIMITED,BDBL0001193,SAHEBGANJ,EGNJMNOEBTNDT-MZFFPBPN-843125,MUZAFFARPUR,PATNA,BIHAR,8409836043
186,BANDHAN BANK LIMITED,BDBL0001194,SAHPUR UNDI,"SAHAPUR UNDI,KOBI CHAWK,NEAR BLOCK OFFICE,PATORY,BIHAR,PIN-848504",SAMASTIPUR,PATNA,BIHAR,9525198893
187,BANDHAN BANK LIMITED,BDBL0001195,SALEMPUR,"WARD NO.12,DEORIA MAIN ROAD,BESIDE BANK OF BARODA,VILL P.O.SALEMPUR,DIST.DEORI,UTTAR PRADESH,PIN - 274509",DEORIA,KANPUR,UTTAR PRADESH,66090909
188,BANDHAN BANK LIMITED,BDBL0001196,SAMASTIPUR,IDGDPSMIPII880,SAMASTIPUR,PATNA,BIHAR,9771418918
189,BANDHAN BANK LIMITED,BDBL0001197,SANTIPUR,"NS ROAD,BAIGACHI ROAD,P.O.SANTIPUR,DIST -NADIA,WEST BENGAL,PIN-741404",NADIA,KOLKATA,WEST BENGAL,9734422892
190,BANDHAN BANK LIMITED,BDBL0001198,SARASWATIPUR,"FIRST FLOOR,VILL SARASWATIPUR,NEAR DEULAHAT,P.O -DEHURDA,G.P.-DEULA,DIST.-BALASORE,ODISHA,PIN-756036",BALASORE,BHUBANESWAR,ODISHA,7787995004
191,BANDHAN BANK LIMITED,BDBL0001199,SHAMLI,"DELHI ROAD,OPP PETROL PUMP INDIAN OIL,SHAMLI,UTTAR PRADESH,PIN - 247776",MUZAFFARNAGAR,KANPUR,UTTAR PRADESH,9126897101
192,BANDHAN BANK LIMITED,BDBL0001200,SHIKANDARPUR,"VILL SHIKANDARPUR,P.O.JAMUNAPUR,BIHTA,PATNA,BIHAR,PIN - 801103",PATNA,PATNA,BIHAR,7870449713
193,BANDHAN BANK LIMITED,BDBL0001201,SILLOD,"OPP.DR.ZAKIR HUSSAIN NAGAR BUSTAND,P.O.SILLOD,MAHARASHTRA,PIN - 431 112",AURANGABAD,MUMBAI,MAHARASHTRA,66090909
194,BANDHAN BANK LIMITED,BDBL0001202,SIWAN,DDDT-846,SIWAN,PATNA,BIHAR,66090909
195,BANDHAN BANK LIMITED,BDBL0001203,SORO,"FIRST FLOOR,DURGA MARKET COMPLEX,ADANGA BAZAR,NEAR UCO BANK,CHATRAPUR,P.O.SORO,DIST.BALASORE,ODISHA,PIN - 756045",BALASORE,BHUBANESWAR,ODISHA,9907675737
196,BANDHAN BANK LIMITED,BDBL0001204,SUJAPUR,"VILL SUJAPUR,P.O.RAGHUNATHGANJ,DIST.MURSHIDABAD,PIN-742225",MURSHIDABAD,KOLKATA,WEST BENGAL,9088011307
197,BANDHAN BANK LIMITED,BDBL0001205,TETELISARA,AAATEESAADSNAGAONASSAMN-782426,NAGAON,GUWAHATI,ASSAM,9613147457
198,BANDHAN BANK LIMITED,BDBL0001206,UDA KISHANGANJ,"VILL P.O.UDAKISHUNGANJ,DIST.MADHEPURA,BIHAR,PIN - 852220",MADHEPURA,PATNA,BIHAR,7070792811
199,BANDHAN BANK LIMITED,BDBL0001207,VAIJAPUR,"OPP.MSEB OFFICE,NASIK-AURANGABAD HIGHWAY,NEAR SBH BANK,VAIJAPUR TOWN,MAHARASHTRA,PIN - 423 701",AURANGABAD,MUMBAI,MAHARASHTRA,9609035183
200,BANDHAN BANK LIMITED,BDBL0001208,VIRAMGAM,"1ST FLOOR,SUBH ARCADE,HANSALPUR CHOKRI,NEAR IOC PUMPING STATION,VIRAMGAM ROAD,P.O.HANSALPUR,GUJARAT,PIN -382150",AHMEDABAD,AHMEDABAD,GUJARAT,9173441289
201,BANDHAN BANK LIMITED,BDBL0001209,DEWANHAT,"VILL & P.O.DEWANHAT,DIST.COOCHBEHAR,WEST BENGA,PIN-736134",COOCH BEHAR,KOLKATA,WEST BENGAL,7076419247
202,BANDHAN BANK LIMITED,BDBL0001210,MALPULA,"VILL MALPUTA,PO MANIPUR,DIST.MORIGAON,ASSAM,PIN - 782105",MORIGAON,GUWAHATI,ASSAM,9613970555
203,BANDHAN BANK LIMITED,BDBL0001211,ANDUL,"JOY JAYANTEE COMPLEX,GROUND FLOOR,ANDUL PURBA PARA BUS STOP,PO - ANDUL MOURI,SANKRAIL,HOWRAH,WEST BENGAL,PIN - 711302",HOWRAH,KOLKATA,WEST BENGAL,8001037825
204,BANDHAN BANK LIMITED,BDBL0001212,MANASADWIP,"VILL MANASADWIP,P.O.KHASMAHAL,DIST.SOUTH 24 PARGANAS,WEST BENGAL,PIN -743373",SOUTH 24 PARGANAS,KOLKATA,WEST BENGAL,8100193679
205,BANDHAN BANK LIMITED,BDBL0001213,CHANDIGARH,"SCO 149 150,SECTOR 9 C,MADHYA MARG,CHANDIGARH,PIN 160009",CHANDIGARH,CHANDIGARH,PUNJAB,66090909
206,BANDHAN BANK LIMITED,BDBL0001214,CHAS,"P.O.-CHAS,DIST.BOKARO,JHARKHAND,PIN-827013",BOKARO,PATNA,JHARKHAND,66090909
207,BANDHAN BANK LIMITED,BDBL0001215,KALKAJI,"GROUND FLOOR,L-12,KALKAJI,NEW DELHI,PIN -110019",NEW DELHI,NEW DELHI,DELHI,9911144521
208,BANDHAN BANK LIMITED,BDBL0001216,TEZPUR,"MAHABHAIRAB ROAD,OPPOSITE DARRANG COLLEGE,P.O.TEZPUR,DIST.SONITPUR,ASSAM,PIN-784001",SONITPUR,GUWAHATI,ASSAM,66090909
209,BANDHAN BANK LIMITED,BDBL0001217,MUGHALSARAI,"H.NO.584,G.T.ROAD,NAIBASTI,MUGHAL SARAI,DIST.-CHANDOULI,UTTAR PRADESH,PIN -232101",CHANDAULI,KANPUR,UTTAR PRADESH,9334003277
210,BANDHAN BANK LIMITED,BDBL0001218,NISHIGANJ,"VILL.&P.O-NISHIGANJ,P.S-MATHABHANGA,DIST.-COOCHBEHAR,P.S-MATHABHANGA,WEST BENGAL,PIN-736157",COOCH BEHAR,KOLKATA,WEST BENGAL,7076065551
211,BANDHAN BANK LIMITED,BDBL0001219,DHUBRI,"C.R.DAS ROADNEAR HARI SABHA PARA ZIA COMMERCIAL COMPLEX P.O. & DIST.DHUBRI,ASSAM,PIN-783301",DHUBRI,GUWAHATI,ASSAM,9435100786
212,BANDHAN BANK LIMITED,BDBL0001220,MUZAFFARPUR,"SHANKAR NAGAR,CLUB ROAD,P.O-RAMNA,DIST.MUZAFFARPUR,BIHAR,PIN -842002",MUZAFFARPUR,PATNA,BIHAR,8521914067
213,BANDHAN BANK LIMITED,BDBL0001221,JAMTARA,"NEW TOWN,P.O.JAMTARA,JHARKHAND,PIN - 815351",JAMTARA,PATNA,JHARKHAND,9835508009
214,BANDHAN BANK LIMITED,BDBL0001222,DAWGAON,"VILL.DAWGAON,NH-15,ABOVE LAXMI AUTO RIDER,P.O.BISWANATH CHARIALI,ASSAM,PIN -784176",SONITPUR,GUWAHATI,ASSAM,9706378951
215,BANDHAN BANK LIMITED,BDBL0001223,DINHATA,"GODHULI BAZAR,WORD NO-6,P.O.DINHATA,DIST.COOCHBEHAR,WEST BENGAL,PIN-736135",COOCH BEHAR,KOLKATA,WEST BENGAL,66090909
216,BANDHAN BANK LIMITED,BDBL0001224,MALIGAON,"JASHODA ANANTA APARTMENT,BORIPARA,NEAR MALIGAON FLYOVER,MALIGAON,GUWAHATI,ASSAM,PIN -781012",KAMRUP,GUWAHATI,ASSAM,8402919093
217,BANDHAN BANK LIMITED,BDBL0001225,SITAMARHI,"1ST FLOOR,SARDAR BAZAR MAIN ROAD,ABOVE KHADIMS SHOWROOM,P.O -SITAMARHI,BIHAR,PIN -843302",SITAMARHI,PATNA,BIHAR,9771494598
218,BANDHAN BANK LIMITED,BDBL0001226,SF ROAD,"ANAND MANGAL SQUARE,GROUND FLOOR,S.F.ROAD,P.O -SILIGURI,DIST.DARJEELING,WEST BENGAL,PIN -734005",DARJEELING,KOLKATA,WEST BENGAL,66090909
219,BANDHAN BANK LIMITED,BDBL0001227,KANCHRAPARA,"396,KGR PATH S,P.O.KANCHRAPARA,DIST.NORTH 24 PARGANAS,PIN-743145",NORTH 24 PARGANAS,KOLKATA,WEST BENGAL,7044924976
220,BANDHAN BANK LIMITED,BDBL0001228,PALTAN BAZAR,"PURBI COMPLEX,NEAR PAN BAZAR FLYOVER,AT ROAD,GUWAHATI,ASSAM,PIN -781008",KAMRUP,GUWAHATI,ASSAM,8876569793
221,BANDHAN BANK LIMITED,BDBL0001229,MADHYARANG,"VILL MADHYARANG,PS-KHANAKUL,PO-RAJHATI,DIST-HOOGHLY,WEST BENGAL,PIN-712417",HOOGHLY,KOLKATA,WEST BENGAL,9062107767
222,BANDHAN BANK LIMITED,BDBL0001230,INDORE,"A SOUARE 2/5 SOUTH,P.O.INDORE TUKOGONJ,MADHYA PRADESH,PIN - 45200",INDORE,BHOPAL,MADHYA PRADESH,8878971241
223,BANDHAN BANK LIMITED,BDBL0001231,DAKBANGLOW,"VILL -HOUSE NAGAR,DAK BUNGLOW,P.O.TINPUKURIA,DIST.MURSHIDABAD,WEST BENGAL PIN - 742202",MURSHIDABAD,KOLKATA,WEST BENGAL,9126781561
224,BANDHAN BANK LIMITED,BDBL0001232,DIHIGRAM,"VILL DIHIGRAM,P.O.DAFAHAT,DIST.MURSHIDABAD,WEST BENGAL,PIN -742224",MURSHIDABAD,KOLKATA,WEST BENGAL,66090909
225,BANDHAN BANK LIMITED,BDBL0001233,KAWAKHARI,"VILL KAWAKHARI,MEDICAL MORE,P.O.SUSHRUT NAGAR,DIST.DARJEELING,WEST BENGAL,PIN 734012",DARJEELING,KOLKATA,WEST BENGAL,8927187925
226,BANDHAN BANK LIMITED,BDBL0001234,MALBAZAR,"CALTEX MORE,P.O.MALBAZAR,DIST.JALPAIGURI.WEST BENGAL,PIN -735221",JALPAIGURI,KOLKATA,WEST BENGAL,9051223366
227,BANDHAN BANK LIMITED,BDBL0001235,BIRPARA,"BIRPARA MG ROAD,P.O.BIRPARA,DIST.- ALIPURDUAR,WEST BENGAL,PIN-735204",JALPAIGURI,KOLKATA,WEST BENGAL,9734107944
228,BANDHAN BANK LIMITED,BDBL0001236,BARANAGAR,"312,GOPAL LAL TAGORE ROAD,KOLKATA,WEST BENGAL,PIN - 700036",KOLKATA,KOLKATA,WEST BENGAL,9836321177
229,BANDHAN BANK LIMITED,BDBL0001237,GHUTIARISHARIF,"VILL -HALDAR PARA,P.O.BANSRA,DIST.SOUTH 24 PARGANAS,WEST BENGAL,PIN - 743363",SOUTH 24 PARGANAS,KOLKATA,WEST BENGAL,9647324259
230,BANDHAN BANK LIMITED,BDBL0001238,KUSUMGRAM,"P.O.KUSHUMGRAM,DIST.-BURDWAN,WEST BEGAL,PIN -713422",BARDHAMAN,KOLKATA,WEST BENGAL,9564743986
231,BANDHAN BANK LIMITED,BDBL0001239,NUNGI,"WARD-28,MAHESHTALA MUNICIPALITY,P.O.BATANAGAR,DIST-SOUTH 24 PGS,WEST BENGAL,PIN - 700140",SOUTH 24 PARGANAS,KOLKATA,WEST BENGAL,8296261587
232,BANDHAN BANK LIMITED,BDBL0001240,TARARAT,"VILL. & P.O.DHAMUA,DIST.- SOUTH 24 PGS,WEST BENGAL,PIN -743355",SOUTH 24 PARGANAS,KOLKATA,WEST BENGAL,7890688309
233,BANDHAN BANK LIMITED,BDBL0001241,SITALKUCHI,"VILL & P.O -SITALKUCHI OPPOSIT POLICE STATION,DIST.COOCHBEHAR,WEST BENGAL,PIN-736158",COOCH BEHAR,KOLKATA,WEST BENGAL,9800900926
234,BANDHAN BANK LIMITED,BDBL0001242,PATIRAM,"NIHARIKA MARKET,VILL P.O.PATIRAMNEAR POLICE PHARI DIST.SOUTH DINAJPUR,WEST BENGAL,PIN - 733133",SOUTH DINAJPUR,KOLKATA,WEST BENGAL,8436982274
235,BANDHAN BANK LIMITED,BDBL0001243,JALPAIGURI,"HIMANGINI COMPLEX,GROUND FLOOR,WARD NO.6,P.O.KADAMTALA JALPAIGURI,DIST.JALPAIGURI,WEST BENGAL,PIN - 735101",JALPAIGURI,KOLKATA,WEST BENGAL,9733008481
236,BANDHAN BANK LIMITED,BDBL0001244,BIRATI,"69/1,M.B ROAD,P.O.BIRATI,WEST BENGAL,KOLKATA,WEST BENGAL,PIN - 700051",NORTH 24 PARGANAS,KOLKATA,WEST BENGAL,9830147999
237,BANDHAN BANK LIMITED,BDBL0001245,CHILAKHANA,"VILL. & P.O.CHILAKHANA,DIST.COOCHBEHAR,WEST BENGAL,PIN -736159",COOCH BEHAR,KOLKATA,WEST BENGAL,9733004474
238,BANDHAN BANK LIMITED,BDBL0001246,CHANGRABANDHA,"MERCHAND ROAD,VILL & P.O.CHANGRABANDA,DIST.COOCHBEHAR,WEST BENGAL,PIN - 735301",COOCH BEHAR,KOLKATA,WEST BENGAL,7063310360
239,BANDHAN BANK LIMITED,BDBL0001247,KHAMAR SITAI,"VILL KHAMAR SITAI,P.O-SITAI,DIST.COOCHBEHAR,WEST BENGAL,PIN -736167",COOCH BEHAR,KOLKATA,WEST BENGAL,9734988497
240,BANDHAN BANK LIMITED,BDBL0001248,KALIYAGAR,"VILL KALIYAGARH,P.O.BALAGARH,DIST.HOOGHLY,WEST BENGAL,PIN-712501",HOOGHLY,KOLKATA,WEST BENGAL,9732771390
241,BANDHAN BANK LIMITED,BDBL0001249,SHANTINIKETAN,"GROUND FLOOR,BICHITRA APARTMENT,STATION ROAD,P.O.BOLPUR,DIST.BIRBHUM,PIN-731204",BIRBHUM,KOLKATA,WEST BENGAL,66090909
242,BANDHAN BANK LIMITED,BDBL0001250,BEHALA,"GROUND FLOOR AND FIRST FLOOR,738-2,DIAMOND HARBOUR ROAD,PS THAKURPUKUR,KOLKATA,WEST BENGAL,PIN 700008",SOUTH 24 PARGANAS,KOLKATA,WEST BENGAL,66090909
243,BANDHAN BANK LIMITED,BDBL0001251,SILIGURI,"78,RAJA RAM MOHAN ROY ROAD,WARD NO.12,HAKIM PARA,P.O.SILIGURI,DIST.DARJEELING,WEST BENGAL,PIN -734001",JALPAIGURI,KOLKATA,WEST BENGAL,9800002655
244,BANDHAN BANK LIMITED,BDBL0001252,FULCHARI,VILL FULCHARI P.O KAMALPUR DIST.DHALAI TRIPURA PIN - 799 285,DHALAI,GUWAHATI,TRIPURA,9862417768
245,BANDHAN BANK LIMITED,BDBL0001253,AGARTALA,H.G.B ROAD OPP - G.P.O AGARTALA WEST TRIPURA PIN - 799 001,WEST TRIPURA,GUWAHATI,TRIPURA,9774044858
246,BANDHAN BANK LIMITED,BDBL0001254,AMARPUR,VILL BIRBAL DASPARA WARD NO.10 P.O AMARPUR DIST GOMATI TRIPURA PIN - 799 101,SOUTH TRIPURA,GUWAHATI,TRIPURA,66090909
247,BANDHAN BANK LIMITED,BDBL0001255,BARDOWALI,NEAR BORDOWALI PETROL PUMP P.O AD NAGAR AGARTALA TRIPURA PIN - 799 003,WEST TRIPURA,GUWAHATI,TRIPURA,9436503441
248,BANDHAN BANK LIMITED,BDBL0001256,BASPOKUR,VILL BASPOKUR P.O JATRAPUR DIST.SIPAHIJALA TRIPURA PIN - 799 132,SIPAHIJALA,GUWAHATI,TRIPURA,9862976346
249,BANDHAN BANK LIMITED,BDBL0001257,BHARAT CHANDRA NAGAR,"VILL B C NAGAR,PO-BELONIA,PS -BELONIA,SOUTH TRIPURA,PIN-799 155",SOUTH TRIPURA,GUWAHATI,TRIPURA,8014775767
250,BANDHAN BANK LIMITED,BDBL0001258,BISHALGARH,"BISHALGARH,TRIPURA,PIN 799 102",SIPAHIJALA,GUWAHATI,TRIPURA,9774095005
251,BANDHAN BANK LIMITED,BDBL0001259,BAMUTIA,"VILL BERIMURA,PO -BAMUTIA,PS -LEFUNGA,TRIPURA,PIN - 799 211",WEST TRIPURA,GUWAHATI,TRIPURA,9089802879
252,BANDHAN BANK LIMITED,BDBL0001260,JALAFA,"VILL & PO PASCHIM JALEFA PS SABROOM DIST SOUTH TRIPURA,PIN - 799 145",SOUTH TRIPURA,GUWAHATI,TRIPURA,9485060912
253,BANDHAN BANK LIMITED,BDBL0001261,KANTHALTALI,"MADHUBAN,KANTHALTALI BAZAR,PO-RANIRKHAMER,DIST.TRIPURA WEST,PIN-799 003",WEST TRIPURA,GUWAHATI,TRIPURA,9089297920
254,BANDHAN BANK LIMITED,BDBL0001262,LAKE CHOMOHANI,"RASARAJ SWEET SHOP,OPP.ST/SC/OBC BUILDING,LAKE CHOWMOHONI,P.O - AGARTALA,TRIPURA,PIN - 799 001",WEST TRIPURA,GUWAHATI,TRIPURA,9774824754
255,BANDHAN BANK LIMITED,BDBL0001263,MELAGARH,"MELAGHAR BAZAR,DIST - SEPHIJALA,TRIPURA,PIN - 799 115",SIPAHIJALA,GUWAHATI,TRIPURA,8415804058
256,BANDHAN BANK LIMITED,BDBL0001264,NARAYANPUR BAZAR,"VILL NARYANPUR,P.O AIRPORT,DIST WEST TRIPURA,TRIPURA,PIN - 799 009",WEST TRIPURA,GUWAHATI,TRIPURA,9485013150
257,BANDHAN BANK LIMITED,BDBL0001265,RAMCHANDRAGHAT,"VILL PURBA RAMCHANDRAHGHAT,PO RAMCHANDRAGHAT,TRIPURA,PIN - 799 207",KHOWAI,GUWAHATI,TRIPURA,9862482954
258,BANDHAN BANK LIMITED,BDBL0001266,RANIRGAON,"VILL RANIRGAON,P.O MAJLISHPUR,DIST.WEST TRIPURA,PIN 799035",WEST TRIPURA,AGARTALA,TRIPURA,66090909
259,BANDHAN BANK LIMITED,BDBL0001267,SINGINALA,"VILL SINGINALA,P.O - SALEMA,DIST - DHALAI,TRIPURA,PIN - 799 278",DHALAI,GUWAHATI,TRIPURA,9402173811
260,BANDHAN BANK LIMITED,BDBL0001268,TUCHINDRAI,"VILL PURBA HOWAIBARI,P.O - HOWAIBARI,DIST -KHOWAI,PIN - 799 205",KHOWAI,GUWAHATI,TRIPURA,9089742841
261,BANDHAN BANK LIMITED,BDBL0001269,UDAIPUR,"V.M ROAD,UDAIPUR,P.O - R K PUR,GOMATI,TRIPURA,PIN - 799 120",GOMATI,GUWAHATI,TRIPURA,8974025044
262,BANDHAN BANK LIMITED,BDBL0001270,BARAMATI,"MAHATI COMPLEX,SHRIRAM ROAD,BHIGWAN ROAD,PO BARAMATI,NEAR NIRA CANOL STORE ROOM,DIST.PUNE,MAHARASHTRA,PIN 413102",PUNE,PUNE,MAHARASHTRA,66090909
263,BANDHAN BANK LIMITED,BDBL0001271,GANGAPUR,"VILL. & P.O.-GANGAPUR,DIST.AURANGABAD,MAHARASHTRA,PIN - 431 109",AURANGABAD,MUMBAI,MAHARASHTRA,9157998698
264,BANDHAN BANK LIMITED,BDBL0001272,KEDGAON,"PRATIK COMPLEX,PLOT NO.04,AHMEDNAGAR-PUNE ROAD,MOTINAGAR,KEDGAON,DIST.AHMEDNAGAR,MAHARASHTRA,PIN - 414 005",AHMEDNAGAR,MUMBAI,MAHARASHTRA,66090909
265,BANDHAN BANK LIMITED,BDBL0001273,KOLHAPUR,"SHOP NO.7,8,9,10,UPPER GROUND FLOOR,VIJAYA HEIGHTS,OPPOSITE - SHARDA LODGE,LAXMIPURI,KOLHAPUR,MAHARASHTRA,PIN - 416 002",KOLHAPUR,MUMBAI,MAHARASHTRA,9021182503
266,BANDHAN BANK LIMITED,BDBL0001274,RAHATA,"SAMBHAV ELECTRONICS,CHITALI ROAD,P.O.-RAHATA,DIST.AHMEDNAGAR,MAHARASHTRA,PIN - 423 107",AHMEDNAGAR,MUMBAI,MAHARASHTRA,66090909
267,BANDHAN BANK LIMITED,BDBL0001275,PAKUR,"BHULAN PRASAD BHAGAT,WARD NO.10,AT -HARINDANGA BAZAR,P.O. & DIST.PAKUR,JHARKHAND,PIN - 816107",PAKUR,PATNA,JHARKHAND,9609600984
268,BANDHAN BANK LIMITED,BDBL0001276,SANGOLA,"KACHERI ROAD,NEAR OLD POLICE CHOWKEY,SANGOLA,DIST.SOLAPUR,MAHARASHTRA,PIN - 413 307",SOLAPUR,MUMBAI,MAHARASHTRA,66090909
269,BANDHAN BANK LIMITED,BDBL0001277,SATARA,5UUAPETHSATAAMAHAASHTAPIN-415002,SATARA,MUMBAI,MAHARASHTRA,66090909
270,BANDHAN BANK LIMITED,BDBL0001278,DHITORA,"VILL.DHITORA,P.O.MURARAI,DIST.MURSHIDABAD,WEST BENGAL,PIN -731219",BIRBHUM,KOLKATA,WEST BENGAL,9836594028
271,BANDHAN BANK LIMITED,BDBL0001279,HAMIDHATI PILKHANDI,"VILLHAMIDHATI PILKHUDI,P.O.SALAR,DIST.MURSHIDABAD,WEST BENGAL,PIN -742401",MURSHIDABAD,KOLKATA,WEST BENGAL,8001667468
272,BANDHAN BANK LIMITED,BDBL0001280,KANDI,"P.O.KANDI,KALABAGAN,KANDI LODGE,NR GIRLS SCHOOL,DIST.MURSHIDABAD,WEST BENGAL,PIN-742137",MURSHIDABAD,KOLKATA,WEST BENGAL,9735986802
273,BANDHAN BANK LIMITED,BDBL0001281,KURAPARA,"VILLKURAPARA NAGAR,P.O.NAGAR,KHARGRAM,DIST.MURSHIDABAD,WEST BENGAL,PIN-742159",MURSHIDABAD,KOLKATA,WEST BENGAL,8768705949
274,BANDHAN BANK LIMITED,BDBL0001282,MANIKYAHAR,"VILL MANIKYAHAR,SAKTIPUR,DIST.MURSHIDABAD,WEST BENGAL,PIN-742163",MURSHIDABAD,KOLKATA,WEST BENGAL,9609831764
275,BANDHAN BANK LIMITED,BDBL0001283,NARASINGHAPUR,"VILL NARASINGHAPUR,P.O.SAGARPARA,DIST.MURSHIDABAD,MOUZA-NARASINGHAPUR,WEST BENGAL,PIN-742306",MURSHIDABAD,KOLKATA,WEST BENGAL,8504999201
276,BANDHAN BANK LIMITED,BDBL0001284,SANTOSHPUR,"VILL SANTOSHPUR,P.O.SAGARDIGHI,DIST.MURSHIDABAD,WEST BENGAL,PIN-742226",MURSHIDABAD,KOLKATA,WEST BENGAL,7384545824
277,BANDHAN BANK LIMITED,BDBL0001285,BALLIA,"KADAM CHAURAHA MISHR NEWRI,INFRONT OF SATRI SARAY POLICE CHOWKI,DIST.BALLIA,UTTAR PRADESH,PIN - 277001",BALLIA,KANPUR,UTTAR PRADESH,9919538111
278,BANDHAN BANK LIMITED,BDBL0001286,BUXAR,"WARD NO.14,THANA ROAD,DIST.BUXAR,BIHAR,PIN 802101",BUXAR,BUXAR,BIHAR,66090909
279,BANDHAN BANK LIMITED,BDBL0001287,CHACHYA,"VILL CHACHIYA,P.O.CHACHIYA,DIST.BALLIA,UTTAR PRADESH.PIN-221711",BALLIA,KANPUR,UTTAR PRADESH,8477995625
280,BANDHAN BANK LIMITED,BDBL0001288,GHAZIPUR,"KOTHI SHIV SAHAI,LALDARWAZA,P.O.GHAZIPUR,DIST.GHAZIPUR,UTTAR PRADESH,PIN 233001",GHAZIPUR,GHAZIPUR,UTTAR PRADESH,66090909
281,BANDHAN BANK LIMITED,BDBL0001289,MOHAMMADABAD,"VILL MOHAMMDABAD,P.O.CHAKIA,DIST.CHANDOULI,UTTAR PRADESH,PIN-232103",CHANDAULI,KANPUR,UTTAR PRADESH,8535080722
282,BANDHAN BANK LIMITED,BDBL0001290,NAI BAZAR,"GULORA,NAYA BAZAR ROAD,VILL NAYA BAZAR,DIST.BHADOHI,UTTAR PRADESH,PIN - 221409",BALLIA,KANPUR,UTTAR PRADESH,9120299560
283,BANDHAN BANK LIMITED,BDBL0001291,RAGHAVPUR,"VILL.RAGHAVPUR,P.O.CHOWRI CHOWRAHA,DIST.GORAKHPUR,UTTAR PRADESH,PIN - 273201",GORAKHPUR,KANPUR,UTTAR PRADESH,8948072446
284,BANDHAN BANK LIMITED,BDBL0001292,RUDRAPUR,"VILL. & P.O.RUDRAPUR,ADARSH CHOWRAHA,DIST.DEORI,UTTAR PRADESH,PIN - 274204",DEORIA,KANPUR,UTTAR PRADESH,9800459972
285,BANDHAN BANK LIMITED,BDBL0001293,VARANASI,"K-47/1,BISHESHWARGANJ,KATUAPURA,VARANASI,UTTAR PRADESH,PIN - 221001",VARANASI,KANPUR,UTTAR PRADESH,66090909
286,BANDHAN BANK LIMITED,BDBL0001294,BAGUIATI,"DC-114/1 NARAYANTALA W,P.O.DESHBANDHU NAGAR,BAGUIATI,KOLKATA,WEST BENGAL,PIN -700059",NORTH 24 PARGANAS,KOLKATA,WEST BENGAL,9874018421
287,BANDHAN BANK LIMITED,BDBL0001295,GIRISH PARK,"187 C.R.AVENUE GIRISH PARK,KOLKATA,WEST BENGAL,PIN 700007",KOLKATA,KOLKATA,WEST BENGAL,66090909
288,BANDHAN BANK LIMITED,BDBL0001296,SODEPUR,MBSEUKKEBEGP-7000,NORTH 24 PARGANAS,KOLKATA,WEST BENGAL,8697719773
289,BANDHAN BANK LIMITED,BDBL0001297,GOSABA,"VILL. & P.O.ARAMPUR,DIST.SOUTH 24 PGS,WEST BENGAL,PIN -743370",SOUTH 24 PARGANAS,KOLKATA,WEST BENGAL,7699156072
290,BANDHAN BANK LIMITED,BDBL0001298,UDHWA,"UDHWA,P.O.UDHWA,RADHANAGAR,JHARKHAND PIN - 816108",SAHIBGANJ,PATNA,JHARKHAND,8863014294
291,BANDHAN BANK LIMITED,BDBL0001299,CANNING,"I&AI,IT-SOUTH24ARAA,WETBEA,I-743329",SOUTH 24 PARGANAS,KOLKATA,WEST BENGAL,8372968630
292,BANDHAN BANK LIMITED,BDBL0001300,KAKDWIP,"VILL. & P.O.KAKDWIP,RATHTALA,DIST.SOUTH 24 PARGANAS,WEST BENGAL,PIN - 743374",SOUTH 24 PARGANAS,KOLKATA,WEST BENGAL,8868802803
293,BANDHAN BANK LIMITED,BDBL0001301,KHARISRINAGAR,"VILL.KHARISRINAGAR,P.O.KASHINAGAR,DIST.SOUTH 24 PARGANAS,WEST BENGAL,PIN - 743379",SOUTH 24 PARGANAS,KOLKATA,WEST BENGAL,9932743422
294,BANDHAN BANK LIMITED,BDBL0001302,BIJAYGANJ BAZAR,"VILL.BIJOYGANJ BAZAR,DIST.SOUTH 24 PARGANAS,WEST BENGAL,PIN - 743345",SOUTH 24 PARGANAS,KOLKATA,WEST BENGAL,8334813972
295,BANDHAN BANK LIMITED,BDBL0001303,INDIRA NAGAR LUCKNOW,"SPACE NO.1111,RAISED GROUND FLOOR,LEKHRAJ DOLLAR COMPLEX,FAIZABAD ROAD,INDIRA NAGAR,LUCKNOW,UTTAR PRADESH,PIN -226016",LUCKNOW,MORADABAD,UTTAR PRADESH,66090909
296,BANDHAN BANK LIMITED,BDBL0001304,SIKANDRA,"VILL AND P.O.SIKANDRA,DIST.JAMUI,JAMUI ROAD,BIHAR,PIN 811315",JAMUI,BHAGALPUR,BIHAR,66090909
297,BANDHAN BANK LIMITED,BDBL0001305,BARAUNI,"RAJENDRA ROAD,BARAUNI,BIHAR,PIN - 851112",BEGUSARAI,PATNA,BIHAR,66090909
298,BANDHAN BANK LIMITED,BDBL0001306,GIDHOUR,"VILL & P.O.-GIDHAUR,NEAR POLICE STATION,DIST.JAMUI,BIHAR,PIN-811305",JAMUI,PATNA,BIHAR,7261015599
299,BANDHAN BANK LIMITED,BDBL0001307,LAKHI SARAI,"DALPATTI MOHALLA,BAZAR SAMITI,P.O. & DIST.-LAKHI SARAI,BIHAR,PIN - 811311",LAKHISARAI,PATNA,BIHAR,9801669053
300,BANDHAN BANK LIMITED,BDBL0001308,BANGALIPARA,"VILL& P.O.BANGALIPARA,DIST.DHUBRI ASSAM,PIN -783348",DHUBRI,GUWAHATI,ASSAM,8575283790
301,BANDHAN BANK LIMITED,BDBL0001309,BARPETA TOWN,"ADNO.5,BAPETATOWN,FISTFLOO,BAPETA,ASSAM,PIN-781301",BARPETA,GUWAHATI,ASSAM,7086043656
302,BANDHAN BANK LIMITED,BDBL0001310,BARPETA ROAD,MAIN ROAD BARPETA ROADAMTAL PS -BARPETA ROAD.DIST-BARPETA.ASSAM PIN -781315,BARPETA,GUWAHATI,ASSAM,8011002339
303,BANDHAN BANK LIMITED,BDBL0001311,BONGAIGAON,"50,BONGAIGAON TOWN,WARD NO.3,P.O.BONGAIGAON,OPP.DC OFFICE,DIST.-BONGAIGAON,ASSAM,PIN - 783380",BONGAIGAON,GUWAHATI,ASSAM,9864180936
304,BANDHAN BANK LIMITED,BDBL0001312,KAWATIKA,"VILL KAWATIKADOTARI,P.O.BIJNI,ASSAM,PIN -783390",CHIRANG,GUWAHATI,ASSAM,8822812977
305,BANDHAN BANK LIMITED,BDBL0001313,KENDUGURI,VILL PO BAMKAKHATA.PS PATACHRAKUCHI DIST -BARPETA ASSAM.PIN NO -781326,BARPETA,GUWAHATI,ASSAM,9864072288
306,BANDHAN BANK LIMITED,BDBL0001314,UJANPETLA,"VILL UJANPETLA,PART-I,P.O.UJANPETLA,DIST.DHUBRI,ASSAM,PIN-783332",KOKRAJHAR,GUWAHATI,ASSAM,7399392601
307,BANDHAN BANK LIMITED,BDBL0001315,AMILA,"VILL -AMILA BAZAR,P.O.AMILA,DIST.BURDWAN,WEST BENGAL,PIN -713423",BARDHAMAN,KOLKATA,WEST BENGAL,9647565709
308,BANDHAN BANK LIMITED,BDBL0001316,BABLA,"VILL BABLA,P.O.GALSI,DIST.BURDWAN,WEST BENGAL,PIN -713406",BARDHAMAN,KOLKATA,WEST BENGAL,7666503441
309,BANDHAN BANK LIMITED,BDBL0001317,BURDWAN,"HALDAR MARKET,48,GT ROAD,BIRHATA,DIST.BURDWAN,WEST BENGAL,PIN - 713101",BARDHAMAN,KOLKATA,WEST BENGAL,66090909
310,BANDHAN BANK LIMITED,BDBL0001318,CHOWBERIA,"VILLCHOWBERIA,P.O.PANCHRA,DIST.BURDWAN,WEST BENGAL,PIN-713401",BARDHAMAN,KOLKATA,WEST BENGAL,8145671410
311,BANDHAN BANK LIMITED,BDBL0001319,DAINHAT,"DEWANGANJ,WARD NO.7,HOLDING NO.50,P.O.DAINHAT,DIST.BURDWAN,WEST BENGAL,PIN -713502",BARDHAMAN,KOLKATA,WEST BENGAL,9093353105
312,BANDHAN BANK LIMITED,BDBL0001320,"DURGAPUR, BIDHANAGAR","A-5,A-6,SSB SARANI,DURGAPUR BIDHANNAGAR PHANRI,WEST BENGAL,PIN -713212",BARDHAMAN,KOLKATA,WEST BENGAL,9593888774
313,BANDHAN BANK LIMITED,BDBL0001321,YASHAPUR,"YASHAPUR,PURBAPARA BAIDYAPUR GOTAN MADHABDIHI,BURDWAN -712410",BARDHAMAN,KOLKATA,WEST BENGAL,9775253173
314,BANDHAN BANK LIMITED,BDBL0001322,JALUIDANGA,"VILL.JALUIDANGA,P.O.SAMUDRAGARH,DIST.BURDWAN,WEST BENGAL,PIN-713519",BARDHAMAN,KOLKATA,WEST BENGAL,8768173999
315,BANDHAN BANK LIMITED,BDBL0001323,TINNA,"VILL. & P.O.TINNA,DIST.HOOGHLY,WEST BENGAL,PIN-712149",HOOGHLY,KOLKATA,WEST BENGAL,8514891158
316,BANDHAN BANK LIMITED,BDBL0001324,CHILKIRHAT,"VILL. & P.O.CHILKITHAT,DIST.COOCHBEHAR,WEST BENGAL,PIN - 736157",COOCH BEHAR,KOLKATA,WEST BENGAL,9593910360
317,BANDHAN BANK LIMITED,BDBL0001325,COOCHBEHAR,"NRIPENDRA NARAYAN ROAD,COOCHBEHAR,KOTWALI,WEST BENGAL,PIN -736101",COOCH BEHAR,KOLKATA,WEST BENGAL,7797966377
318,BANDHAN BANK LIMITED,BDBL0001326,"STATION CHOUPATHI, COOCHBEHAR","MIRNALINEE BUILDING,N.N.ROAD - SUNITY ROAD CROSSING,NEAR CIRCUIT HOUSE STATION,CHOUPATHI KOTWALI,WEST BENGAL,PIN -736101",COOCH BEHAR,KOLKATA,WEST BENGAL,9475521706
319,BANDHAN BANK LIMITED,BDBL0001327,TUFANGANJ,"MAIN ROAD,1ST FLOOR,P.O.TUFANGANJ,DIST.COOCHBEHAR,WEST BENGAL,PIN -736159",COOCH BEHAR,KOLKATA,WEST BENGAL,66090909
320,BANDHAN BANK LIMITED,BDBL0001328,UTTAR LAUCHAPRA,"VILL.LAUCHAPRA UTTAR,P.O.BALAIRHAT,DIST.COOCHBEHAR,WEST BENGAL,PIN -736132",COOCH BEHAR,KOLKATA,WEST BENGAL,9564472264
321,BANDHAN BANK LIMITED,BDBL0001329,BALASORE,"FIRST FLOOR,BASANTI NIBAS,NEAR BUS STAND,AT-BHASKARGANJ,P.O.SAHADEBKHUNTA,DIST.BALASORE,ODISHA,PIN - 756001",BALASORE,BHUBANESWAR,ODISHA,66090909
322,BANDHAN BANK LIMITED,BDBL0001330,CUTTACK,"1STFLOOR,OMKARBUILDING,NEARCHANDITEMPLE,ICICIBANKCOMPLEX,CHANDIROAD,CUTTACK,ODISHA,PIN-753001",CUTTACK,CUTTACK,ODISHA,66090909
323,BANDHAN BANK LIMITED,BDBL0001331,KHURDA,"KHURDA MAIN ROAD,BESIDE IDBI BANK,P.O. & DIST.KHURDA,ODISHA,PIN - 752055",KHORDHA,BHUBANESWAR,ODISHA,9338807652
324,BANDHAN BANK LIMITED,BDBL0001332,GOGRI JAMALPUR,"NEAR BLOCK OFFICE,P.O.JAMALPUR GOGRI,BIHAR,PIN 851203",KHAGARIA,BHAGALPUR,BIHAR,66090909
325,BANDHAN BANK LIMITED,BDBL0001333,AMBALA CITY,"3821/2,HOSPITAL ROAD,AMBALA CITY,OPP.SURYA HOTEL NEAR UNITED BANK,HARYANA,PIN - 133003",AMBALA,NEW DELHI,HARYANA,8877241476
326,BANDHAN BANK LIMITED,BDBL0001334,BARAUT,"BINAULI ROAD,RAJPUT RAWAITI COLLEGE,U.P,PIN -250611",BAGPAT,KANPUR,UTTAR PRADESH,7792903185
327,BANDHAN BANK LIMITED,BDBL0001335,BHATINDA,"HOUSE NO - 3115,OPP.DIST COURTS,BATHINDA,PUNJAB,PIN - 151005",BATHINDA,CHANDIGARH,PUNJAB,9318606892
328,BANDHAN BANK LIMITED,BDBL0001336,BULANDSHAHAR,"434,CIVIL LINES,RAJA BABU ROAD,NEAR KAMNA JEWELLERS,BULAND SHAHAR,UTTAR PRADESH,PIN - 203001",BULANDSHAHAR,KANPUR,UTTAR PRADESH,9818923508
329,BANDHAN BANK LIMITED,BDBL0001337,SAHIBGANJ,"COLLEGE ROAD,NEAR CHAITHI DURGA MANDIR,SAHIBGANJ,JHARKHAND,PIN - 816101",SAHIBGANJ,PATNA,JHARKHAND,9199200634
330,BANDHAN BANK LIMITED,BDBL0001338,HAPUR,"84,FREEGANJ ROAD HAPUR,UTTAR PRADESH,PIN - 245101",SITAPUR,KANPUR,UTTAR PRADESH,9005586111
331,BANDHAN BANK LIMITED,BDBL0001339,MODINAGAR,"OPP SUGAR MILL,KARAMCHARS GATE,P.O.MODI NAGAR,DIST.GHAZIABAD,UTTAR PRADESH,PIN -201204",GHAZIABAD,KANPUR,UTTAR PRADESH,9911182989
332,BANDHAN BANK LIMITED,BDBL0001340,SHILLONG,"POLICE BAZAR,BESIDE WOODLAND SHOWROOM,SHILLONG,MEGHALAYA,PIN -793001",EAST KHASI HILLS,GUWAHATI,MEGHALAYA,66090909
333,BANDHAN BANK LIMITED,BDBL0001341,PANIPAT,"OPPOSITE KASHI GIRI MANDIR,SAUNLI ROAD,P.S - PANIPATH,DIST PANIPATH,HARYANA,PIN -132103",PANIPAT,NEW DELHI,HARYANA,9005586111
334,BANDHAN BANK LIMITED,BDBL0001342,PATIALA,"GROUND FLOOR,SCO 11,CHOTTI BARA DARI,PATIALA,PUNJAB,PIN - 147001",PATIALA,CHANDIGARH,PUNJAB,9876902502
335,BANDHAN BANK LIMITED,BDBL0001343,REWARI,"H.NO.7685 32,DHARUHERA CHOWK,DELHI ROAD,DIST.REWARI,HARYANA,PIN 123401",SONEPAT,DELHI,HARYANA,66090909
336,BANDHAN BANK LIMITED,BDBL0001344,SONEPAT,"149/20,INDRA COLONY,NEAR I.T OFFICE,ATLAS ROAD,SONEPAT,HARYANA,PIN -131001",SONIPAT,NEW DELHI,HARYANA,7508610720
337,BANDHAN BANK LIMITED,BDBL0001345,GARIA,"112/1,RAJA S.C.MULLICK ROAD,GARIA,KOLKATA,WEST BENGAL,PIN -700047",SOUTH 24 PARGANAS,KOLKATA,WEST BENGAL,9830878775
338,BANDHAN BANK LIMITED,BDBL0001346,GARIAHAT,"157A,RASHBEHARI AVENUE,KOLKATA,WEST BENGAL,PIN -700029",KOLKATA,KOLKATA,WEST BENGAL,9883451977
339,BANDHAN BANK LIMITED,BDBL0001347,HARIDEVPUR,"39,M.G ROAD,KOLKATA,WEST BENGAL PIN -700082",SOUTH 24 PARGANAS,KOLKATA,WEST BENGAL,9903828444
340,BANDHAN BANK LIMITED,BDBL0001348,GURGAON,"SCO 56 OLD JUDICIAL COMPLEX,CIVIL LINES,SECTOR 15,HARYANA,GURGAON 122 001",UGO,DELHI,HARYANA,66090909
341,BANDHAN BANK LIMITED,BDBL0001349,TOLLYGUNGE,"78/1,NETAJI SUBHAS CHANDRA BOSE ROAD,1ST FLOOR,KOLKATA,WEST BENGAL,PIN -700040",KOLKATA,KOLKATA,WEST BENGAL,8820246352
342,BANDHAN BANK LIMITED,BDBL0001350,ALIPURDUAR,"MARWARYPATTY,ALIPURDUAR,WARD NO.-10,P.O.ALIPURDUAR,DIST.-ALIPURDUAR,WEST BENGAL,PIN -736121",JALPAIGURI,KOLKATA,WEST BENGAL,9830712771
343,BANDHAN BANK LIMITED,BDBL0001351,DHUPGURI,"NETAJI PARA,WARD NO.-14,P.O.DHUPGURI,DIST.-JALPAIGURI,WEST BENGAL,PIN-735210",JALPAIGURI,KOLKATA,WEST BENGAL,9832097937
344,BANDHAN BANK LIMITED,BDBL0001352,JAIGAON,"NAZMA ENGINEERING WORKS,N.S ROAD,DARAGAON,DIST.- ALIPURDUAR,WEST BENGAL,PIN - 736182",JALPAIGURI,KOLKATA,WEST BENGAL,66090909
345,BANDHAN BANK LIMITED,BDBL0001353,BORPARA BOKO,"VILL.BARPARA,P.O.BOKO,DIST.KAMRUP,ASSAM,PIN - 781123",KAMRUP,GUWAHATI,ASSAM,7399812972
346,BANDHAN BANK LIMITED,BDBL0001354,NALBARI,"P.O.NALBARI,WARD NO.7,ASSAM,PIN-781335",NALBARI,GUWAHATI,ASSAM,66090909
347,BANDHAN BANK LIMITED,BDBL0001355,KARNAL,"SCO - 229,SECTOR - 12,PART 1,URBAN ESTATE,P.S - CIVIL LINES,KARNAL,HARYANA,PIN -132001",KARNAL,DELHI,HARYANA,66090909
348,BANDHAN BANK LIMITED,BDBL0001356,BONGAON,"JESSORE ROADNEAR BATA MORE,OPP.KUMUDINI SCHOOL,NORTH 24 PGS,WEST BENGAL,PIN-743235",NORTH 24 PARGANAS,KOLKATA,WEST BENGAL,9874111772
349,BANDHAN BANK LIMITED,BDBL0001357,CHANDANNAGORE,"JAGADHHATRI APRATMENT,RASHBEHARI AVENUE,FATAKGORA,STATION ROAD,P.O.CHANDANNAGORE,DIST.HOOGHLY,WEST BENGAL,PIN-712136",HOOGHLY,KOLKATA,WEST BENGAL,9674924001
350,BANDHAN BANK LIMITED,BDBL0001358,DANKUNI,"TN MUKHERJEE ROAD,LICHUBAGAN,DANKUNI,DIST.HOOGHLY,WEST BENGAL,PIN-712311",HOOGHLY,KOLKATA,WEST BENGAL,9433502849
351,BANDHAN BANK LIMITED,BDBL0001359,DHANIAKHALI,"MADANMOHANTALA,DHANIAKHALI NEAR SONI MANDIR P.O DHANIAKHALI,DIST.HOOGHLY,WEST BENGAL,PIN-712302",HOOGHLY,KOLKATA,WEST BENGAL,9775733819
352,BANDHAN BANK LIMITED,BDBL0001360,MAHESHPUR,"VILL. & P.O.MAHESHPUR,NAPI.BISPOTA,ARAMBAG,DIST.HOOGHLY,WEST BENGAL,PIN -712413",HOOGHLY,KOLKATA,WEST BENGAL,9508278265
353,BANDHAN BANK LIMITED,BDBL0001361,BETUL,"GANESH WARD J H COLLEGE ROAD OPP.AXIS BANK POST BETUL P.O.BETUL,M.P,PIN - 460001",BETUL,BHOPAL,MADHYA PRADESH,9584255558
354,BANDHAN BANK LIMITED,BDBL0001362,BHOPAL,"C-9,PADAMNABH NAGAR,ASHOKA GARDEN ROAD,OPP ROYAL ENFIELD SHOWROOM P.O.GOVINDPURA BHOPAL,MADHYA PRADESH,PIN -462023",BHOPAL,BHOPAL,MADHYA PRADESH,7587727064
355,BANDHAN BANK LIMITED,BDBL0001363,BINA,"NEAR MAHAVEER CHOWK MALL GODAM ROAD,BINA,MADHYA PRADESH,PIN - 470113",SAGAR,BHOPAL,MADHYA PRADESH,9993723287
356,BANDHAN BANK LIMITED,BDBL0001364,HARDA,"SARDAR BALLAV BHAI PATEL WARD,INDORE ROAD,INFONT OF NETAJI SUBHASH CHANDRA BOSE PRIMARY SCHOOL,HARDA,MADHYA PRADESH,PIN 461331",HARDA,BHOPAL,MADHYA PRADESH,7566204476
357,BANDHAN BANK LIMITED,BDBL0001365,HOSHANGABAD,RTUDCMLXO-MPRTCBUSSTDHSHGBDMDHYPRDSHPI-461001,HOSHANGABAD,BHOPAL,MADHYA PRADESH,9039394662
358,BANDHAN BANK LIMITED,BDBL0001366,KHANDWA,"B T COLLEGE ROAD,MOGHAT THANA,NEAR BANK OF INDIA,KHANDWA,MADHYA PRADESH,PIN -450001",KHANDWA,BHOPAL,MADHYA PRADESH,66090909
359,BANDHAN BANK LIMITED,BDBL0001367,DOBSON ROAD,"AMBIKA POINT,1ST FLOOR,27 MOULANA ABUL KALAM AZAD ROAD DOBSON ROAD,GOLABARI,WEST BENGAL,HOWRAH -711101",HOWRAH,KOLKATA,WEST BENGAL,9830235352
360,BANDHAN BANK LIMITED,BDBL0001368,AMODIYA,"162 SEERVIMOHALLA,VILL.AMODIYA,P.O.RAJGARH,DIST.DHAR,MADHYA PRADESH,PIN -454116",JHABUA,INDORE,MADHYA PRADESH,66090909
361,BANDHAN BANK LIMITED,BDBL0001369,BHANPURA,"BAPNA MARG BHANPURA P.O.BHANPURA,MADHYA PRADESH,PIN - 458775",MANDSAUR,BHOPAL,MADHYA PRADESH,7042976856
362,BANDHAN BANK LIMITED,BDBL0001370,BIAORA,"176,OLD BUNDIKHALI ROAD,GUNA NAKA,JUNA BIAORA,MADHYA PRADESH,PIN - 465674",RAJGARH,BHOPAL,MADHYA PRADESH,9111229088
363,BANDHAN BANK LIMITED,BDBL0001371,BIMAKHEDI,"PATIDAR SADAN,NEAR TO BIMAKHEDI RAILWAY CROSSING,JAORA RATLAM,MADHYA PRADESH,PIN-457226",RATLAM,BHOPAL,MADHYA PRADESH,8436227650
364,BANDHAN BANK LIMITED,BDBL0001372,GUNA,"ROYAL MEIGHTS BUILDING,OPPOSITE HDFC BANK,AB ROAD,GUNA,MADHYA PRADESH,PIN -473001",GUNA,BHOPAL,MADHYA PRADESH,66090909
365,BANDHAN BANK LIMITED,BDBL0001373,SHIVPURI,"RAJESHWARI ROAD,P.O.SHIVPURI,MADHYA PRADESH,PIN - 473551",SHIVPURI,BHOPAL,MADHYA PRADESH,9536620500
366,BANDHAN BANK LIMITED,BDBL0001374,AJMER,"DEEPAK ELECTRICAL & SALES AGENCY,NEAR LIC OF INDIA,KUTCHERY ROAD,P.O.AJMER,MADHYA PRADESH,PIN -305001",AJMER,JAIPUR,RAJASTHAN,9719731900
367,BANDHAN BANK LIMITED,BDBL0001375,BARAN,"OPP.DALLA JI KI DHARAMSALA,HOSPITAL ROAD,P.O.BARAN,RAJASTHAN,PIN - 325205",BARAN,JAIPUR,RAJASTHAN,9983340605
368,BANDHAN BANK LIMITED,BDBL0001376,BIKANER,"RATTAN PADAM ARCADE,OPP.HARYANA HOTEL,GANGA SAIHAR ROAD,P.O. & DIST.BIKANER,RAJASTHAN - 334001",BIKANER,JAIPUR,RAJASTHAN,9983326828
369,BANDHAN BANK LIMITED,BDBL0001377,DAUSA,"NEAR TIWADI DHAM KANTO OPP.CHOUDHURY PETROL PUMP,AGRA ROAD,P.O. & DIST.DAUSA,PIN - 33303",DAUSA,JAIPUR,RAJASTHAN,66090909
370,BANDHAN BANK LIMITED,BDBL0001378,JODHPUR,"K.P.TOWER,PLOT NO.17,UPPER CHAPASNI ROAD,NEAR BOMBAY MOTOR,JODHPUR,RAJASTHAN,PIN 342024",JODHPUR,JAIPUR,RAJASTHAN,66090909
371,BANDHAN BANK LIMITED,BDBL0001379,KOTA,"AMAN BUSINESS TOWER,2 KA 33,VIGYAN NAGAR,JHALWAR ROAD,KOTA,RAJASTHAN,PIN - 324007",KOTA,JAIPUR,RAJASTHAN,9314856057
372,BANDHAN BANK LIMITED,BDBL0001380,NAGAUR,"UDIT MANSION,NEAR KETH SINGH MOTOR COMPANY,SHIVBARI,P.O.NAGAUR,RAJASTHAN,PIN-341001",JAIPUR,JAIPUR,RAJASTHAN,9887550321
373,BANDHAN BANK LIMITED,BDBL0001381,UDAIPUR,"HIRANMAGRI,SEC NO.3 MAIN ROAD,29/452,RAJASTHAN,UDAIPUR,PIN -313002",UDAIPUR,JAIPUR,RAJASTHAN,9982217611
374,BANDHAN BANK LIMITED,BDBL0001382,KHUMTAI,"1 NO.KHUMTAI VILLAGE,P.O.MORANHAT,DIST.SHIVSAGAR,CHANDAN COMPLEX,1ST FLOOR,ASSAM,PIN - 789670",DIBRUGARH,GUWAHATI,ASSAM,7399193123
375,BANDHAN BANK LIMITED,BDBL0001383,BOREARA,"AT BORERA GAON,P.O.TITABOR,DIST.JORHAT,ASSAM,PIN -785630",JORHAT,GUWAHATI,ASSAM,9401155816
376,BANDHAN BANK LIMITED,BDBL0001384,DIBRUGARH,WGLMROPPSPBPODBUGASSMP-786001,DIBRUGARH,GUWAHATI,ASSAM,66090909
377,BANDHAN BANK LIMITED,BDBL0001385,GOLAI,"GROUND FLOOR,1 NO.GOLAI,P.O.DIGBOI,DIGBOI,ASSAM -786171",TINSUKIA,GUWAHATI,ASSAM,9508556918
378,BANDHAN BANK LIMITED,BDBL0001386,LUDHIANA,"HOUSE NO B II/ 1371,ARYA SCHOOL ROAD,SABJEE MANDI,LUDHINA,PUNJAB,PIN - 141008",LUDHIANA,CHANDIGARH,PUNJAB,9660952482
379,BANDHAN BANK LIMITED,BDBL0001387,JORHAT,"K.B ROAD,P.O.JORHAT,ASSAM,PIN -785002",JORHAT,GUWAHATI,ASSAM,9706008595
380,BANDHAN BANK LIMITED,BDBL0001388,BUNDASHIL,"VILL -BUNDASHIL,P.O.BADARPUR,DIST.KARIMGANJ,ASSAM,PIN - 788806",KARIMGANJ,GUWAHATI,ASSAM,66090909
381,BANDHAN BANK LIMITED,BDBL0001389,KALINAGAR,"VILL -KALINAGAR,NEAR OLD S.R OFFICE,P.O -RAMKRISHNA NAGAR,ASSAM,PIN - 788166",KARIMGANJ,GUWAHATI,ASSAM,9854237185
382,BANDHAN BANK LIMITED,BDBL0001390,KARIMGANJ,"ATASI VILLA,SILCHAR ROAD,NEAR A.S.T.C.BUS STAND,ASSAM,PIN - 788710",KARIMGANJ,GUWAHATI,ASSAM,9435723656
383,BANDHAN BANK LIMITED,BDBL0001391,LAKHIPUR,"VILL LAKHIPUR P.O.KALAIN,DIST.CACHAR,ASSAM,PIN -788815",CACHAR,GUWAHATI,ASSAM,9854237185
384,BANDHAN BANK LIMITED,BDBL0001392,NANDIRGRAM,"VILL NAGDIRGRAM P.O.KABUGANJ,DIST.CACHAR,ASSAM PIN - 788121",CACHAR,GUWAHATI,ASSAM,9436334594
385,BANDHAN BANK LIMITED,BDBL0001393,BASANTAPUR,"VILL & P.O.BASANTPUR,DIST.SUPAUL,BIHAR,PIN-854340",SUPAUL,PATNA,BIHAR,8084693777
386,BANDHAN BANK LIMITED,BDBL0001394,CHAHATPUR,"VILLCHAHATPUR,P.O.PALASI,DIST.ARARIA,BIHAR,PIN-854333",ARARIA,PATNA,BIHAR,7261017385
387,BANDHAN BANK LIMITED,BDBL0001395,FORBESGANJ,"WARD NO.-09,IN FRONT OF POLICE STATION,P.O.FORBESGANJ,DIST.ARARIA,BIHAR,PIN - 854318",ARARIA,PATNA,BIHAR,7699726808
388,BANDHAN BANK LIMITED,BDBL0001396,KADWA,"VILL. & P.O.KADWA,DIST.KATIHAR,BIHAR,PIN - 855114",KATIHAR,PATNA,BIHAR,7766042296
389,BANDHAN BANK LIMITED,BDBL0001397,KATHAMATHA,"VILL KATHAMATHA,P.O.DHANPATGANJ,DIST.KISHANGANJ,BIHAR,PIN - 855115",KISHANGANJ,PATNA,BIHAR,7781843854
390,BANDHAN BANK LIMITED,BDBL0001398,KATIHAR,"DURGASTHAN CHOWK,P.O.KATIHAR,DIST.KATIHAR,BIHAR,PIN-854105",KATIHAR,PATNA,BIHAR,9931031441
391,BANDHAN BANK LIMITED,BDBL0001399,DEBAGRAM,"VILL & P.O.DEBOGRAM,DIST.NADIA,WEST BENGAL,PIN-741137",NADIA,KOLKATA,WEST BENGAL,9175376729
392,BANDHAN BANK LIMITED,BDBL0001400,GORIBPUR,"VILL & MOUZA-GORIBPUR,P.O.NATNA,DIST.NADIA,WEST BENGAL,PIN-741160",NADIA,KOLKATA,WEST BENGAL,9732347287
393,BANDHAN BANK LIMITED,BDBL0001401,KRISHNANAGAR,"15,D L ROY ROAD,P.O.KRISHNANAGAR,DIST.NADIA,WEST BENGAL,PIN -741101",NADIA,KOLKATA,WEST BENGAL,9051751999
394,BANDHAN BANK LIMITED,BDBL0001402,"DURGAPUR ,MALDA","VILL DURGAPUR,P.O.BALUPUR,DIST.MALDA,WEST BENGAL,PIN -732205",MALDA,KOLKATA,WEST BENGAL,66090909
395,BANDHAN BANK LIMITED,BDBL0001403,KALIACHAK,"OPP.KALIACHAK P.S,VILL & P.O.- KALIACHAK,WEST BENGAL,PIN - 732201",MALDA,KOLKATA,WEST BENGAL,9647831900
396,BANDHAN BANK LIMITED,BDBL0001404,BARAGACHHIA,"VILL BAROGACHHIYA,P.O.CHANCHAL,DIST.MALDA,WEST BENGAL,PIN - 732123",MALDA,KOLKATA,WEST BENGAL,9614593701
397,BANDHAN BANK LIMITED,BDBL0001405,MALIOR,"VILL & PO.MALIOR,DIST -MALDA,WEST BENGAL,PIN - 732125",MALDA,KOLKATA,WEST BENGAL,9563721320
398,BANDHAN BANK LIMITED,BDBL0001406,BAGHA JATIN,"B/7,BAGHA JATIN,RAJA SUBODH CHANDRA MULLICK ROAD,KOLKATA,WEST BENGAL,PIN - 700092",KOLKATA,KOLKATA,WEST BENGAL,66090909
399,BANDHAN BANK LIMITED,BDBL0001407,BISHNUPUR,"RN CHAKRABORTY ROAD,BALIAPARA,P.O.BISHNUPUR,WEST BENGAL,PIN - 722122",BANKURA,KOLKATA,WEST BENGAL,9830453037
400,BANDHAN BANK LIMITED,BDBL0001408,CHAPABONI,"VILL CHAPABANI,P.O.NEW DIGHA,WEST BENGAL,PIN-721428",EAST MEDINIPUR,KOLKATA,WEST BENGAL,9679286763
401,BANDHAN BANK LIMITED,BDBL0001409,HALDIA,"VILL & P.O.KHANJANCHAK,HALDIA,DIST.PURBA MEDINIPUR,WEST BENGAL,PIN -721602",EAST MEDINIPUR,KOLKATA,WEST BENGAL,9830080770
402,BANDHAN BANK LIMITED,BDBL0001410,MATH CHANDIPUR,"VILL CHANDIPUR,P.O.MATH CHANDIPUR,DIST.PURBA MEDINIPUR,WEST BENGAL,PIN-721659",EAST MEDINIPUR,KOLKATA,WEST BENGAL,7797574275
403,BANDHAN BANK LIMITED,BDBL0001411,KANTHI,"VILL DHANDIGHI,DIGHA ROAD,P.O.CONTAI,DIST.PURBA MEDINIPUR,WEST BENGAL,PIN -721401",EAST MEDINIPUR,KOLKATA,WEST BENGAL,9830035393
404,BANDHAN BANK LIMITED,BDBL0001412,LALPUR,"VILL. & P.O.MANGURIA LALPUR,HURA,DIST.PURULIA,PIN - 723101",PURULIA,KOLKATA,WEST BENGAL,9734465595
405,BANDHAN BANK LIMITED,BDBL0001413,MAMUDPUR,"VILL.MAMUDPUR,P.O.DASPUR,DIST.PASCHIM MEDINIPUR,WEST BENGAL,PIN - 721211",WEST MEDINIPUR,KOLKATA,WEST BENGAL,9830308232
406,BANDHAN BANK LIMITED,BDBL0001414,MOHAMMADPUR,"BELDA,NEAR POLICE STATION,MOUZA - MOHAMMADPUR,P.O.- BELDA,DIST - PASCHIM MEDNIPUR,WEST BENGAL,PIN - 721424",WEST MEDINIPUR,KOLKATA,WEST BENGAL,8017963545
407,BANDHAN BANK LIMITED,BDBL0001415,PAIKPARI,"VILL & P.O.PAIKPARI,WEST BENGAL,DIST.PURBA MEDINIPUR,PIN -721134",EAST MEDINIPUR,KOLKATA,WEST BENGAL,9564624534
408,BANDHAN BANK LIMITED,BDBL0001416,PATHAR MOHORA,"VILL.PATHARMOHARA,P.O.MANBAZAR,DIST.PURULIA,WEST BENGAL,PIN -723131",PURULIA,KOLKATA,WEST BENGAL,7699336189
409,BANDHAN BANK LIMITED,BDBL0001417,PURULIA,"1ST FLOOR,NH-32,RAJ COMPLEX,RANCHI ROAD,NEAR MAYUR HOTEL,P.O. & DIST.PURULIA,WEST BENGAL,PIN-723101",PURULIA,KOLKATA,WEST BENGAL,9564600601
410,BANDHAN BANK LIMITED,BDBL0001418,TAMLUK,"VILL.DAHARPUR,P.O.TAMLUK,WARD NO.16 OLD-13,DIST.PURBA MEDINIPUR,WEST BENGAL,PIN - 721636",EAST MEDINIPUR,KOLKATA,WEST BENGAL,66090909
411,BANDHAN BANK LIMITED,BDBL0001419,AMALNER,"PLOT NO.52/12,MAHARANA PRATAP MARG,NEAR PNB,AMALNER,DIST.JALGAON,MAHARASHTRA,PIN-425401",JALGAON,MUMBAI,MAHARASHTRA,7710065545
412,BANDHAN BANK LIMITED,BDBL0001420,BOXIPUR RAVER,"GROUND FLOOR,NAMDEVNAGAR,BOXIPUR,P.O - RASALPUR,MAHARASHTRA,PIN -425508",JALGAON,MUMBAI,MAHARASHTRA,9733216083
413,BANDHAN BANK LIMITED,BDBL0001421,KAMTI,"224 KAMTI GRAM P.O.AAMGAON CHHOTA GADARWADA,DIST.NARSINGHPUR,MADHYA PRADESH,PIN 487551",NARSINGHPUR,BHOPAL,MADHYA PRADESH,66090909
414,BANDHAN BANK LIMITED,BDBL0001422,SATNA,"OM TOWER,KRISHNA NAGAR,STATION ROAD WARD NO.22,NEAR SINDHI DHARAM SHALA,SATNA,MADHYA PRADESH,PIN - 485001",SATNA,BHOPAL,MADHYA PRADESH,66090909
415,BANDHAN BANK LIMITED,BDBL0001423,TAKALI PRACHA,"KHARJAI ROAD,AT TAKALI PRACHA,SURAHI BUNGALOW,P.O.OZAR,TAL - CHALISHGAON,DIST.JALGAON,MAHARASHTRA,PIN - 424101",JALGAON,MUMBAI,MAHARASHTRA,9096695165
416,BANDHAN BANK LIMITED,BDBL0001424,DELAPEER,"WAZID CHAND HOUSE,1 KAILASHPURAM,DELAPEER CHAURAHA,BAREILLY,UTTAR PRADESH,PIN -243122",BAREILLY,MORADABAD,UTTAR PRADESH,66090909
417,BANDHAN BANK LIMITED,BDBL0001425,CHHUTMALPUR,"SONA COMPLEX,CHHUTMALPUR SAHARANPUR,UTTAR PRADESH,PIN - 247662",SAHARANPUR,KANPUR,UTTAR PRADESH,66090909
418,BANDHAN BANK LIMITED,BDBL0001426,DHAMPUR,"312,WARD NO - 2,TEACHER S COLONY,OPP.BHARAT MOTORS,KALAGARH ROAD,N.H - 74,P.O.DHAMPUR,DIST - BIJNOR,UTTAR PRADESH - 246761",BIJNOR,KANPUR,UTTAR PRADESH,7870642308
419,BANDHAN BANK LIMITED,BDBL0001427,MORADABAD,"NEAR JAIPUR GOLDEN TRANSPORT COMPANY,KAPOOR COMPANY CHAURAHA,MORADABAD,UTTAR PRADESH,PIN 244001",MORADABAD,MORADABAD,UTTAR PRADESH,66090909
420,BANDHAN BANK LIMITED,BDBL0001428,RAMPUR,"M J COMPLEX,NEAR SHAGBAD GATE,RAMPUR,P.O.RAMPUR,UTTAR PRADESH,PIN 244901",RAMPUR,MORADABAD,UTTAR PRADESH,66090909
421,BANDHAN BANK LIMITED,BDBL0001429,ARERAJ,"ARERAJ CHAWK,MAIN CHAWK,P.O.ARERAJ,EAST CHAMPARAN,PIN-845411,BIHAR",EAST CHAMPARAN,PATNA,BIHAR,66090909
422,BANDHAN BANK LIMITED,BDBL0001430,BHAGWANPUR,"VILL.RUSULPUR SOHAWAN,P.O.BHAGWANPUR,DIST.VAISHALI,BIHAR,PIN - 844114",VAISHALI,PATNA,BIHAR,9832395524
423,BANDHAN BANK LIMITED,BDBL0001431,DALSINGSARAI,"NEAR 32 RAIL GATE,BLOCK ROAD DALSINGSARAI,P.O.DALSINGSARAI,DIST.- SAMASTIPUR,BIHAR,PIN -848114",SAMASTIPUR,PATNA,BIHAR,7677692360
424,BANDHAN BANK LIMITED,BDBL0001432,DHUM NAGAR,"VILL.-DHUM NAGAR,DHUM NAGAR CHOWK,P.O.NARKATIAGANJ,DIST.WEST CHAMPARAN,BIHAR,PIN - 835455",WEST CHAMPARAN,PATNA,BIHAR,8809363395
425,BANDHAN BANK LIMITED,BDBL0001433,MOTIHARI,"1ST FLOOR,ABHIMANYU COMPLEX,PUNCH MANDIR ROAD,PITHAN PATTI,MOTIHARI,EAST CHAMPARAN,BIHAR,PIN-845401",EAST CHAMPARAN,PATNA,BIHAR,66090909
426,BANDHAN BANK LIMITED,BDBL0001434,AMONI,"VILL & P.O.AMONI,DIST.NAGAON,ASSAM,PIN-782138",NAGAON,GUWAHATI,ASSAM,66090909
427,BANDHAN BANK LIMITED,BDBL0001435,NAGAON,"A.T.ROAD,MARWARIPATTY,NAGAON,ASSAM,PIN -782001",NAGAON,GUWAHATI,ASSAM,8486215925
428,BANDHAN BANK LIMITED,BDBL0001436,NATUN GAON,"VILL NATUNGAON HOSPITAL ROAD,P.O.JAGI ROAD,DIST.MARIGAON,ASSAM,PIN -782410",MORIGAON,GUWAHATI,ASSAM,9864719945
429,BANDHAN BANK LIMITED,BDBL0001437,PUB DHANIRAM PATHER,"VILL PUB DHANIRAMPATHAR,P.O.HOJAI,DIST.NAGAON,ASSAM,PIN -782435",NAGAON,GUWAHATI,ASSAM,7399753480
430,BANDHAN BANK LIMITED,BDBL0001438,TATIKATA,"VILL TATIKATA PATHAR,P.O MOIRABARI,ASSAM,DIST.MORIGAON,PIN-782126",MORIGAON,GUWAHATI,ASSAM,9508844206
431,BANDHAN BANK LIMITED,BDBL0001439,ARRAH,"JAI PRAKASH CHAUDHARI COMPLEX,BYPASS MOD,NEAR SAPNA CINEMA HALL,ARA,FIRST FLOOR,BIHAR,PIN -802301",BHOJPUR,PATNA,BIHAR,8409345117
432,BANDHAN BANK LIMITED,BDBL0001440,DARIYAPUR,"RAMTOLAPUR,VILL DARIYAPUR,P.O-HATIDAH,DIST.-PATNA,BIHAR,PIN-83301",BHOJPUR,PATNA,BIHAR,8768370267
433,BANDHAN BANK LIMITED,BDBL0001441,JEHANABAD,"PATNA GAYA ROAD,P.O.JEHANABAD,DIST.JEHANABAD,BIHAR,PIN-804408",JEHANABAD,PATNA,BIHAR,8877528119
434,BANDHAN BANK LIMITED,BDBL0001442,"BORING ROAD, PATNA","BORING ROAD,NEAR KRISHNA APARTMENT,SHREE KRISHNAPURI THANA,PATNA,BIHAR,PIN - 800001",PATNA,PATNA,BIHAR,9934828840
435,BANDHAN BANK LIMITED,BDBL0001443,SHEIKHPURA,"CHANDNICHAWK,VILL & P.O-SHEIKHPURA,DIST.SHEIKHPURA,BIHAR,PIN-811105",SHEIKHPURA,PATNA,BIHAR,9122764014
436,BANDHAN BANK LIMITED,BDBL0001444,BALOD,"GANJ PARA,OPP DURGA MANDIR,DURG-BALOD ROAD,BALOD,CHHATTISGARH,PIN - 491226",BALOD,BHOPAL,CHHATTISGARH,8982625535
437,BANDHAN BANK LIMITED,BDBL0001445,BEMETARA,"WARD NO 07,MAIN DURG ROAD,INFRONT OF RATAN TALKIES,P.O.BEMETARA,CHHATTISGARH,PIN - 491335",BEMETARA,BHOPAL,CHHATTISGARH,7583002000
438,BANDHAN BANK LIMITED,BDBL0001446,BHATAPARA,"MAIN ROAD,MAHARANI CHOWK,BHATAPARA,DIST.BALODA BAZAR,CHHATTISGARH,PIN - 493118",RAIPUR,RAIPUR,CHHATTISGARH,8109446339
439,BANDHAN BANK LIMITED,BDBL0001447,BILASPUR,"RAO TRADE CENTRE,NEAR VALRAJ PETROL PUMP,LINK ROAD,CIVIL LINES,BILASPUR,CHHATTISGARH,PIN 495001",BILASPUR,RAIPUR,CHHATTISGARH,66090909
440,BANDHAN BANK LIMITED,BDBL0001448,DHAMTARI,"BESIDES VIVEKANAND NETRALAYA,OPP NEHRU GARDEN,RATNA BANDHA ROAD,DHAMTARI,CHHATTISGARH,PIN - 493773",DHAMTARI,BHOPAL,CHHATTISGARH,9423402029
441,BANDHAN BANK LIMITED,BDBL0001449,DONGARGARH,"WARD NO.10,KHANDUAPARA,STATION ROAD,DONGARGARH,CHHATTISGARH,PIN - 491445",RAJNANDGAON,BHOPAL,CHHATTISGARH,8334005144
442,BANDHAN BANK LIMITED,BDBL0001450,DURG,"OPP.MENNONITE CHURCH,NEAR DURG ROADWAYS,G.E.ROAD,DURG,CHHATTISGARH,PIN - 491001",RAIPUR,BHOPAL,CHHATTISGARH,8120387755
443,BANDHAN BANK LIMITED,BDBL0001451,KANKER,"N.H.30,UP DOWN ROAD,MAHURBAND PARA,P.O.KANKER,CHHATTISGARH,PIN - 494334",KANKER,BHOPAL,CHHATTISGARH,9826148051
444,BANDHAN BANK LIMITED,BDBL0001452,EGARKUNDA,"VILL EGARKUNDA,P.O.KUMARDHUBI,DIST.DHANBAD,JHARKHAND,PIN - 828203",DHANBAD,PATNA,JHARKHAND,8434400633
445,BANDHAN BANK LIMITED,BDBL0001453,RAIRANGPUR,"P.O-RAIRANGPUR,DIST.-MAYURBHANJ ODISHA,PIN-757043",MAYURBHANJ,BHUBANESWAR,ODISHA,66090909
446,BANDHAN BANK LIMITED,BDBL0001454,DALKHOLA,"PLOT NO.756& 757,OPP NATIONAL INSURANCE OF INDIA,P.O.DALKHOLA,DIST.UTTAR DINAJPUR,WEST BENGAL,PIN-733201",NORTH DINAJPUR,KOLKATA,WEST BENGAL,8350020790
447,BANDHAN BANK LIMITED,BDBL0001455,ISLAMPUR,"N.S.TOWER,N.S.ROAD,ISLAMPUR,NORTH DINAJPUR,WEST BENGAL,PIN-733202",NORTH DINAJPUR,KOLKATA,WEST BENGAL,9832341272
448,BANDHAN BANK LIMITED,BDBL0001456,KALIYAGANJ,"N.S.ROAD UTTARCHIRAIL,P.O.KALIYAGANJ,NORTH DINAJPUR,WEST BENGAL,PIN -733129",NORTH DINAJPUR,KOLKATA,WEST BENGAL,9733826111
449,BANDHAN BANK LIMITED,BDBL0001457,KISHANGANJ,"VILL.TEOSA BALICHUKA,P.O.KISHANGANJ,DIST.KISHANGANJ,BIHAR,PIN - 855107",KISHANGANJ,PATNA,BIHAR,9431411373
450,BANDHAN BANK LIMITED,BDBL0001458,RASIDPUR,"VILL.RASIDPUR,P.O.BUNIADPUR,SOUTH DINAJPUR,WEST BENGAL,PIN -733121",SOUTH DINAJPUR,KOLKATA,WEST BENGAL,9932577455
451,BANDHAN BANK LIMITED,BDBL0001459,TIN MILE,"TINMILE ROAD,P.O.SONAPUR HAT,DIST.NORTH DINAJPUR,WEST BENGAL,PIN - 733214",NORTH DINAJPUR,KOLKATA,WEST BENGAL,9614780293
452,BANDHAN BANK LIMITED,BDBL0001460,DALURBANDH,"DALURBANDH,DVC PARA,P.O.PANDAVESHWAR,DIST.BURDWAN,WEST BENGAL,PIN -713346",BARDHAMAN,KOLKATA,WEST BENGAL,9635742850
453,BANDHAN BANK LIMITED,BDBL0001461,NUTANHAT,"NATUNHAT BLOCK MORE,P.O.NATUNHAT,DIST.BURDWAN,WEST BENGAL,PIN -713147",BARDHAMAN,KOLKATA,WEST BENGAL,9584755032
454,BANDHAN BANK LIMITED,BDBL0001462,PAIKPARA,"VILL & P.O.PAIKPARA,DIST.BIRBHUM,WEST BENGAL,PIN-731220",BIRBHUM,KOLKATA,WEST BENGAL,9851927161
455,BANDHAN BANK LIMITED,BDBL0001463,SEORAKURI,"VILL & P.O.SEHERAKURI,DIST.BIRBHUM,WEST BENGAL,PIN -731127",BIRBHUM,KOLKATA,WEST BENGAL,7797631571
456,BANDHAN BANK LIMITED,BDBL0001464,SUNDIPUR,"VILL SUNDIPUR AND RAMRAMPUR SUNDIPUR MORE,P.O.RAMPURHAT,DIST.BIRBHUM,WEST BENGAL,PIN-731224",BIRBHUM,KOLKATA,WEST BENGAL,66090909
457,BANDHAN BANK LIMITED,BDBL0001465,SURI,"RABINDRA PALLY,SURI DUBRAJPUR MAIN ROAD,P.O.SURI,DIST.BIRBHUM,WEST BENGAL,PIN -731101",BIRBHUM,KOLKATA,WEST BENGAL,9830607661
458,BANDHAN BANK LIMITED,BDBL0001466,BAGDOGRA,"LOWER BAGDOGRA,MAIN ROAD NH-31,P.O.BAGDOGRA,DIST.DARJEELING,WEST BENGAL,PIN - 734422",DARJEELING,KOLKATA,WEST BENGAL,9800900926
459,BANDHAN BANK LIMITED,BDBL0001467,GANGTOK,"HUNGRY JACK PLAZA,FIRST FLOOR,NH -31-A,GANGTOK,P.O.GANGTOK,DIST.EAST SIKKIM,SIKKIM,PIN - 737101",EAST SIKKIM,GANGTOK,SIKKIM,9832518169
460,BANDHAN BANK LIMITED,BDBL0001468,KALIMPONG,"THANA DEARA DAIRY,SHARMA BUILDING,P.O.KALIMPONG,DIST.DARJEELING,WEST BENGAL,PIN -734301",DARJEELING,KOLKATA,WEST BENGAL,9831619139
461,BANDHAN BANK LIMITED,BDBL0001469,KURSEONG,"8,A.K MUKHERJEE ROAD,WARD NO.13,P.O.KURSEONG,DIST.DARJEELING,WEST BENGAL,PIN - 734203",DARJEELING,KOLKATA,WEST BENGAL,9932971727
462,BANDHAN BANK LIMITED,BDBL0001470,ANDAR,"VILL & P.O.ANDAR,DIST.-SIWAN,BIHAR,PIN-841231",SIWAN,PATNA,BIHAR,8409890451
463,BANDHAN BANK LIMITED,BDBL0001471,BAHRAULI,"VILL & P.O.BAHRAULI,MASRAKH,DIST.-SARAN,BIHAR,PIN -841417",SARAN,PATNA,BIHAR,8863831828
464,BANDHAN BANK LIMITED,BDBL0001472,GOPALGANJ,"SHYAM SUPER COMPLEX,NEAR SBI CHOWK,P.O.GOPALGANJ,DIST.GOPALGANJ,BIHAR,PIN - 841228",GOPALGANJ,PATNA,BIHAR,9934664887
465,BANDHAN BANK LIMITED,BDBL0001473,PARSA,"VILL JAMINPUR,P.O.PARSA,DIST.SARAN,BIHAR,PIN -841219",SARAN,PATNA,BIHAR,9534147918
466,BANDHAN BANK LIMITED,BDBL0001474,AHMEDABAD,"3RD EYE,SHOP NO.3 & 4,C.G.ROAD,NEAR CG SQUARE MALL,PANCHVATI CROSS ROAD,GUJARAT,PIN 380006",AHMEDABAD,AHMEDABAD,GUJARAT,26405079
467,BANDHAN BANK LIMITED,BDBL0001475,ANAND,"SHREEJI SANKALP,100 FEET ROAD,NEAR BACHPAN SCHOOL,P.O. & DIST.ANAND,GUJARAT,PIN-388001",ANAND,AHMEDABAD,GUJARAT,9824000474
468,BANDHAN BANK LIMITED,BDBL0001476,BARDOLI,"SWASTIK SQUARE,OPP.TO DHIRAJ SONS,GANDHI ROAD,P.O.BARDOLI,DIST.SURAT,GUJARAT,PIN - 394601",SURAT,VADODARA,GUJARAT,66090909
469,BANDHAN BANK LIMITED,BDBL0001477,BHARUCH,"EMERALD BUSINESS HUB ROHINI CONSTRUCTION,OPPOSITE ICICI BANK,SHEVASHRAM ROAD,BESIDE RELIENCE MALL,BHARUCH,GUJARAT,PIN - 392001",BHARUCH,VADODARA,GUJARAT,66090909
470,BANDHAN BANK LIMITED,BDBL0001478,SURENDRANAGAR,"FORTUNE AVENUE,GROUND FLOOR,NR.KUNTHUNATH DERASAR,AMBA MECH ROAD,SURENDRANAGAR,GUJARAT,PIN - 363001",SURENDRANAGAR,AHMEDABAD,GUJARAT,9016905409
471,BANDHAN BANK LIMITED,BDBL0001479,UNJHA,"STATION ROAD,OPPOSITE DENA BANK,P.O.UNJHA,GUJARAT,PIN -384170",MEHSANA,AHMEDABAD,GUJARAT,8488869428
472,BANDHAN BANK LIMITED,BDBL0001480,VADODARA,"SHOP NO.7 AND 8,PANCHAM HIGH STREET,NEAR MANISHA CROSS ROAD,OLD PADRA ROAD,VADODARA,GUJARAT,PIN -390007",VADODARA,VADODARA,GUJARAT,66090909
473,BANDHAN BANK LIMITED,BDBL0001481,VAPI,"FORTUNE MALL,SHOP NO.3 B,P.O.VAPI,GUJARAT,PIN - 396191",VALSAD,VADODARA,GUJARAT,66090909
474,BANDHAN BANK LIMITED,BDBL0001482,BOKAKHAT,"VILL & P.O.BOKAKHAT,WARD NO.2,DIST-GOLAGHAT,LANDMARK OPPOSITE CHANDRAMA CINEMA HALL,ASSAM,PIN -785612",GOLAGHAT,GUWAHATI,ASSAM,9706094223
475,BANDHAN BANK LIMITED,BDBL0001483,MISAMARI,"VILL MISSAMARI,P.O.HALEM,DIST.SONITPUR,ASSAM,PIN -784170",SONITPUR,GUWAHATI,ASSAM,8822657606
476,BANDHAN BANK LIMITED,BDBL0001484,DERGAON,"VILL HABIALGAON,P.O.GANAKPUKHURI,DIST.GOLAGHAT,ASSAM,PIN -785622",GOLAGHAT,GUWAHATI,ASSAM,66090909
477,BANDHAN BANK LIMITED,BDBL0001485,GOLAGHAT,"GF ROAD,P.O.BENGENAKHOWA,OPPOSITE HONDA SHOW ROOM,DIST.GOLAGHAT,ASSAM,PIN -785702",GOLAGHAT,GUWAHATI,ASSAM,9954943213
478,BANDHAN BANK LIMITED,BDBL0001486,GAMARIGURI,"VILL MIKIR POTTI,GOMARIGURI GAON,P.O.MERAPANI,DIST.GOLAGHAT,ASSAM,PIN-785705",GOLAGHAT,GUWAHATI,ASSAM,66090909
479,BANDHAN BANK LIMITED,BDBL0001487,NORTH LAKHIMPUR,"CD ROAD,WARD-3M,P.O.NORTH LAKHIMPUR,DIST.LAKHIMPUR,ASSAM,PIN -787001",LAKHIMPUR,GUWAHATI,ASSAM,66090909
480,BANDHAN BANK LIMITED,BDBL0001488,MANGALDAI,"MG ROAD,NEAR MANGALDOI POLICE STATION,P.O.MANGALDOI,DIST.DARANG,ASSAM,PIN -784125",DARRANG,GUWAHATI,ASSAM,66090909
481,BANDHAN BANK LIMITED,BDBL0001489,MITHAM BANGALI,"VILL MITHAM BANGALI,P.O.DHEKIAJULI,DIST.SONITPUR,ASSAM,PIN -784110",SONITPUR,GUWAHATI,ASSAM,9613869272
482,BANDHAN BANK LIMITED,BDBL0001490,VIPATPURA,"VILL VIPATPURA,P.O.MAGARDHA,DIST.NARSINGHPUR,MADHYA PRADESH,PIN 487001",NARSINGHPUR,BHOPAL,MADHYA PRADESH,66090909
483,BANDHAN BANK LIMITED,BDBL0001491,TENGAHOLA SARUPATHAR,"VILL 1 NO TENGAHOLA.P.O.GOHAINGAON,GOLAGHAT,ASSAM,PIN 785601",GOLAGHAT,GUWAHATI,ASSAM,8256011379
484,BANDHAN BANK LIMITED,BDBL0001492,JAMUGURIHAT,"VILLTUPIA BARMATA,P.O.NAHARBARI,DIST.SONITPUR,ASSAM,PIN-784182",SONITPUR,GUWAHATI,ASSAM,9613173108
485,BANDHAN BANK LIMITED,BDBL0001493,GAKUL NAGAR,"B.S.D.M.TRIPURA,GAKULNAGAR NEAR RASTARMATHA,P.O.-BISHALGARH,DIST -SEPAHIJOLA,TRIPURA,PIN-799102",SIPAHIJALA,GUWAHATI,TRIPURA,9862395772
486,BANDHAN BANK LIMITED,BDBL0001494,NAIHATI,"79/1/1,SANJIB CHANDRA CHATTERJEE ROAD,P.O.NAIHATI,DIST.NORTH 24 PARAGANAS,WEST BENGAL,PIN 743165",NORTH 24 PARGANAS,KOLKATA,WEST BENGAL,66090909
487,BANDHAN BANK LIMITED,BDBL0001495,BARRACKPORE,"43/A,S.N.BANERJEE ROAD,BARRACKPORE,KOLKATA,WEST BENGAL,PIN-700120",NORTH 24 PARGANAS,KOLKATA,WEST BENGAL,9836808295
488,BANDHAN BANK LIMITED,BDBL0001496,THAKURPUKUR,"8A,DIAMOND HARBOUR ROAD,SOUTH END TRADE CENTER,1ST FLOOR,BLOCK - C,KOLKATA,WEST BENGAL,PIN 700063",KOLKATA,DHAKURIA,WEST BENGAL,66090909
489,BANDHAN BANK LIMITED,BDBL0001497,ULUBERIA,"KOHINROOR BUILDING,O.T.ROAD,BAZARPARA,ULUBERIA,DIST.HOWRAH,WEST BENGAL,PIN - 711316",HOWRAH,KOLKATA,WEST BENGAL,9830124124
490,BANDHAN BANK LIMITED,BDBL0001498,EAST PATEL NAGAR,"PLOT NO.30,BUILDING-28,GROUND FLOOR,P.O.EAST PATEL NAGAR,NEW DELHI,PIN -110008",CENTRAL DELHI,NEW DELHI,DELHI,9873390540
491,BANDHAN BANK LIMITED,BDBL0001499,MANDSAUR,"FLAT NO.- 102,SHOP NO.- 3,4,5,6,CITY CENTER,TIRUPATI,NAGAR,STATION ROAD,MANDSAUR,MADHYA PRADESH,PIN -458001",MANDSAUR,BHOPAL,MADHYA PRADESH,8251080008
492,BANDHAN BANK LIMITED,BDBL0001500,KHARGONE,"SHOW ROOM NO.C/16,C-BLOCK,GROUND FLOOR,RADHA VALLABH MARKET,NEAR DHFL KHARGONE 451001",KHARGONE,BHOPAL,MADHYA PRADESH,66090909
493,BANDHAN BANK LIMITED,BDBL0001501,SHUJALPUR,"PLOT NO.32,WARD NO 15,SHASTRI MARG,P.O.SHUJALPUR,MADHYA PRADESH,PIN 465333",SHAJAPUR,INDORE,MADHYA PRADESH,66090909
494,BANDHAN BANK LIMITED,BDBL0001502,CHAHATA,"1 ST FLOOR,TRIMURTY PHARMACEUTICALS COMPLEX,SHANTI BAZAR,VILL.CHAHATA,P.O.JARAKA,DIST.JAJPUR,ODISHA,PIN 755050",JAJPUR,CUTTACK,ODISHA,66090909
495,BANDHAN BANK LIMITED,BDBL0001503,USTHI,"VILL AND P.O.-USTHI,DIST-SOUTH 24 PARGANAS,WEST BENGAL,PIN-743375",SOUTH 24 PARGANAS,KOLKATA,WEST BENGAL,66090909
496,BANDHAN BANK LIMITED,BDBL0001504,JAGDUAR,"JOGDUAR TINI ALI,P.O.TEOK,DIST.JORHAT,ASSAM,PIN 785112",JORHAT,JAGDUAR,ASSAM,66090909
497,BANDHAN BANK LIMITED,BDBL0001505,BELIAGHATA,"4A,HEMCHANDRA NASKAR ROAD,BELEGHATA,KOLKATA,WEST BENGAL,PIN-700010",KOLKATA,KOLKATA,WEST BENGAL,9836054979
498,BANDHAN BANK LIMITED,BDBL0001506,TINSUKIA,"OPP.RAILWAY STATION,P.O.RUPAI SIDING,CHIRAPATTY,TINSUKIA,ASSAM,PIN -786125",TINSUKIA,GUWAHATI,ASSAM,66090909
499,BANDHAN BANK LIMITED,BDBL0001507,DARJEELING,"HOTEL ANAND PALACE BUILDING,DR.S.M DAS ROAD,P.O.DARJEELING,OPP.RINK MALL,DARJEELING,WEST BENGAL,PIN 734101",DARJEELING,KOLKATA,WEST BENGAL,9475424383
500,BANDHAN BANK LIMITED,BDBL0001508,RANAGHAT,"12,S V SARANI,P.O.RANAGHAT,NADIA,WEST BENGAL,PIN 741201",NADIA,KRISHNANAGAR,WEST BENGAL,66090909
501,BANDHAN BANK LIMITED,BDBL0001509,CHINSURAH,"VIVEKANANDA ROAD,PIPULPATI MORE,DIST.HOOGHLY,WEST BENGAL,PIN - 712103",HOOGHLY,KOLKATA,WEST BENGAL,9007056462
502,BANDHAN BANK LIMITED,BDBL0001510,KHOLAGHATA,"VILL KHOLAGHATA,P.O KALARIA,DIST.SOUTH 24 PARGANAS,WEST BENGAL,PIN 743363",SOUTH 24 PARGANAS,BARUIPUR,WEST BENGAL,66090909
503,BANDHAN BANK LIMITED,BDBL0001511,BHADURA,"VILL AND PO BHADURA,DIST.SOUTH 24 PARGANAS,WEST BENGAL,PIN 743504",SOUTH 24 PARGANAS,BARUIPUR,WEST BENGAL,66090909
504,BANDHAN BANK LIMITED,BDBL0001512,NAGDA,"123,MAHIDPUR ROAD,NEAR BUSSTAND,NAGDA,MADHYA PRADESH,PIN - 456335",UJJAIN,BHOPAL,MADHYA PRADESH,9981475002
505,BANDHAN BANK LIMITED,BDBL0001513,NEEMUCH,"PLOT NO.20/2 TRIMURTI BHAWAN,INFRONT OF THE TOWN HALL,DASHERA MAIDAN,NEEMUCH CANT,MADHYA PRADESH,PIN - 458441",NEEMUCH,BHOPAL,MADHYA PRADESH,9981515224
506,BANDHAN BANK LIMITED,BDBL0001514,SHAJAPUR,"OPP LIC OFFICE,STATION ROAD,SHAJAPUR,MADHYA PRADESH,PIN - 465001",SHAJAPUR,BHOPAL,MADHYA PRADESH,7869183686
507,BANDHAN BANK LIMITED,BDBL0001515,UJJAIN,"48,KAMALA NEHRU MARG,FREEGANJ,P.O.TOWER FREEGANG,UJJAIN,MADHYA PRADESH,PIN - 456106",UJJAIN,BHOPAL,MADHYA PRADESH,66090909
508,BANDHAN BANK LIMITED,BDBL0001516,ALWAR,"YATISH CHANDRA,142,VASANT VIHAR,SCHEME NO.3,P.O. & DIST.ALWAR,KOTWALI,RAJASTHAN,PIN - 301001",ALWAR,JAIPUR,RAJASTHAN,8094107354
509,BANDHAN BANK LIMITED,BDBL0001517,BHILWARA,TNSPHUILIBIJTI3.,BHILWARA,JAIPUR,RAJASTHAN,66090909
510,BANDHAN BANK LIMITED,BDBL0001518,JAIPUR,"B-89 GOUTAM MARG,HANUMAN NAGAR,P.O.VAISHALI NAGAR,RAJASTHAN,PIN -302021",JAIPUR,JAIPUR,RAJASTHAN,9001291672
511,BANDHAN BANK LIMITED,BDBL0001519,ROLSAHABSAR,"VILL & P.O.ROLSAHEBSAR,FATEHPUR,DIST.SIKAR,RAJASTHAN,PIN-332304",SIKAR,JAIPUR,RAJASTHAN,8609126616
512,BANDHAN BANK LIMITED,BDBL0001520,SIKAR,"STATION ROAD,NEAR FAGALVA PETROL PUMP,P.O. & DIST.SIKAR,RAJASTHAN,PIN -332001",SIKAR,JAIPUR,RAJASTHAN,66090909
513,BANDHAN BANK LIMITED,BDBL0001521,TONK,"NEAR JAIN NASIA,KOTA ROAD,DIST.TONK,RAJASTHAN,PIN -304001",ALWAR,JAIPUR,RAJASTHAN,66090909
514,BANDHAN BANK LIMITED,BDBL0001522,KAILASHAHAR,"KAILASHAHAR THANA ROAD,P.O.KAILASHAHAR,DIST.UNAKOTI,TRIPURA,PIN - 788722",NORTH TRIPURA,GUWAHATI,TRIPURA,825893338
515,BANDHAN BANK LIMITED,BDBL0001523,KALACHARRA,"VILL KALACHARA P.O BAGARICHARA,DIST KARIMGANJ,ASSAM,PIN - 788727",KARIMGANJ,GUWAHATI,ASSAM,9859150431
516,BANDHAN BANK LIMITED,BDBL0001524,KOLASIB,"12,DIAKKAWN TOWN VILL & P.O.KOLASHIB,MIZORZM,PIN - 796081",KOLASIB,GUWAHATI,MIZORAM,66090909
517,BANDHAN BANK LIMITED,BDBL0001525,KUMARGHAT,"KAILASHAHAR PRIMARY MARKETING CO-OPERATIVE SOCIETY LTD,KUMARGHAT UNOKOTI,1ST FLOOR,P.O -KUMARGHAT,TRIPURA,PIN - 799264",NORTH TRIPURA,GUWAHATI,TRIPURA,9436925920
518,BANDHAN BANK LIMITED,BDBL0001526,NORTH FULBARI,"VILL NORTH FULBARI,P.O PREMTALA CHURAIBARI,DIST.NORTH TRIPURA,PIN 799262",NORTH TRIPURA,KARIMGANJ,TRIPURA,66090909
519,BANDHAN BANK LIMITED,BDBL0001527,PANGRAM,"P.O PANGRAM III,CACHAR,ASSAM,PIN - 788030",CACHAR,GUWAHATI,ASSAM,66090909
520,BANDHAN BANK LIMITED,BDBL0001528,SILCHAR,"SHYAMAPRASAD ROAD,P.O.SILCHAR,DIST.CACHAR,ASSAM,PIN-788001",CACHAR,GUWAHATI,ASSAM,66090909
521,BANDHAN BANK LIMITED,BDBL0001529,TULAGRAM,"VILL TULAGRAM P.O.SONAIMUKH,DIST.CACHAR,ASSAM,PIN -788119",CACHAR,GUWAHATI,ASSAM,9402352830
522,BANDHAN BANK LIMITED,BDBL0001530,MIRGANJ,"VILL.-MIRGANJ,P.O.JORGAMA,DIST.MADHEPURA,BIHAR,PIN-852122",MADHEPURA,PATNA,BIHAR,7282849640
523,BANDHAN BANK LIMITED,BDBL0001531,BALURGHAT,"SUSHMA RESIDENCY,NEAR TOWN CLUB,NELSON MANDALA SARANI,P.O.BALURGHAT,DIST.SOUTH DINAJPUR,WEST BENGAL,PIN - 730001",SOUTH DINAJPUR,KOLKATA,WEST BENGAL,9733224877
524,BANDHAN BANK LIMITED,BDBL0001532,KHARAGPUR,"HOLDING NO.253/219/181,KHASJUNGAL,JL NO.142,OPPOSITE AXIS BANK,MALANCHA ROAD,P.O.NIMPURA,KHARAGPUR,DIST.PASCHIM MEDINIPUR,WEST BENGAL,PIN -721304",WEST MEDINIPUR,KOLKATA,WEST BENGAL,9593100300
525,BANDHAN BANK LIMITED,BDBL0001533,NIMBHORA KHURD,"NIMBHORE KHURD,DEEPNAGAR,BHUSAVAL,MAHARASHTRA,PIN-425307",JALGAON,MUMBAI,MAHARASHTRA,66090909
526,BANDHAN BANK LIMITED,BDBL0001534,VASHI,"GANESH TOWER,SHOP NO 17,PLOT NO,SECTOR 1,VASHI,MUMBAI-400703",MUMBAI SUBURBAN,MUMBAI,MAHARASHTRA,9004031864
527,BANDHAN BANK LIMITED,BDBL0001535,HALDWANI,"AOITALLIANDOBASTI,NEASAIHOSPITAL,MUKHANICHOUAHA,HALDWANI,UTTAAKHAND,PIN263139",NAINITAL,MORADABAD,UTTARAKHAND,66090909
528,BANDHAN BANK LIMITED,BDBL0001536,HARIDWAR,"N368/213,OPP.SAINIASHRAM,JWALAPURRAD,HARIDWAR,O.JWALAPUR,UTTRAKHAND,PIN-249407",HARIDWAR,KANPUR,UTTARAKHAND,66090909
529,BANDHAN BANK LIMITED,BDBL0001537,KHATIMA,"OPP.CIVIL HOSPITAL,SITARGANJ ROAD,KHATIMA,DIST.U.S NAGAR,UTTARAKHAND,PIN 262308",UDHAM SINGH NAGAR,KHATIMA,UTTARAKHAND,66090909
530,BANDHAN BANK LIMITED,BDBL0001538,SAHARANPUR,"3/135,DEHRADUN ROAD,P.O.SAHARANPUR,UTTAR PRADESH,PIN -247001",SAHARANPUR,MURADABAD,UTTAR PRADESH,66090909
531,BANDHAN BANK LIMITED,BDBL0001539,ROSERA,"1ST FLOOR,NAYAK PLAZA,NAYAK CHOWK BEHIND SHANKAR PLAZA NORTH SIDE,ROSERA,BIHAR,PIN 848210",SAMASTIPUR,MUZAFFARPUR,BIHAR,66090909
532,BANDHAN BANK LIMITED,BDBL0001540,BANKURA,"438,PROVINCIAL ROAD,INDRAGORA,BANKURA,WEST BENGAL,PIN-722101",BANKURA,BANKURA,WEST BENGAL,66090909
533,BANDHAN BANK LIMITED,BDBL0001541,KHAR ROAD,"GROUND FLOOR,SHOP NO 1,2 AND 7,KAILASH CO-OP HSG SOC LTD,OPP-KHAR POLICE STATION,SV ROAD,KHAR WEST,MUMBAI-400052",MUMBAI,MUMBAI,MAHARASHTRA,66090909
534,BANDHAN BANK LIMITED,BDBL0001542,DEHRI ON SONE,"BEHIND DR.R.P SINGH,NEW DILLIAN,P.O-DEHRI -ON -SONE,BIHAR,PIN -821307",ROHTAS,PATNA,BIHAR,66090909
535,BANDHAN BANK LIMITED,BDBL0001543,GAYA,"RAJA NIWAS,SWARAJPURI ROAD,P.O.GAYA,BIHAR,PIN-823001",GAYA,PATNA,BIHAR,66090909
536,BANDHAN BANK LIMITED,BDBL0001544,MOHANIA,"SAHEED MARKET,STUAR GANJ,VILL. & P.O.MOHANIA,DIST.KAIMUR,PIN-821109,BIHAR",KAIMUR BHABUA,PATNA,BIHAR,9748517518
537,BANDHAN BANK LIMITED,BDBL0001545,KORBA,"PLOT NO.768,KOSA-BADI,ITI APPROACH ROAD,KORBA,CHHATTISHGARH,PIN -495678",KORBA,RAIPUR,CHHATTISGARH,66090909
538,BANDHAN BANK LIMITED,BDBL0001546,KAWARDHA,"INFRONT OF ICICI BANK,DARRIPARA,WARD 20,P.O.KAWARDHA,CHHATTISGARH,PIN - 491995",KAWARDHA,BHOPAL,CHHATTISGARH,9993545245
539,BANDHAN BANK LIMITED,BDBL0001547,MAHASAMUND,"KHAIRABADA,BTI ROAD,MAHASAMUND,CHHATTISGARH,PIN -493445",RAIPUR,RAIPUR,CHHATTISGARH,66090909
540,BANDHAN BANK LIMITED,BDBL0001548,MUNGELI,"ANDURJWARD,DAUPARA,BILASPUR ROAD,MUNGELI-THANA,P.O.MUNGELI,CHHATTISGARH,PIN - 495334",MUNGELI,BHOPAL,CHHATTISGARH,7389934129
541,BANDHAN BANK LIMITED,BDBL0001549,RAIPUR,"UPPER GROUND FLOOR,KRISHNA COMPLEX,JAIL ROAD,RAIPUR,CHHATTISGARH,PIN - 492001",RAIPUR,BHOPAL,CHHATTISGARH,8878026026
542,BANDHAN BANK LIMITED,BDBL0001550,RAJNANDGAON,"OPP.BAJRANG HOTEL,OLD BUS STAND,P.O.RAJNANDGAON,CHHATTISGARH,PIN 491441",RAJNANDGAON,RAIPUR,CHHATTISGARH,66090909
543,BANDHAN BANK LIMITED,BDBL0001551,MALKHARODA,"VEER CHOWK,MALKHARODA,P.O -MALKHARODA,DIST.JANJGIR CHAMPA,CHHATTISGARH,PIN - 495691",JANJGIR-CHAMPA,BHOPAL,CHHATTISGARH,8817936018
544,BANDHAN BANK LIMITED,BDBL0001552,SARKHO,"VILLSARKHON,P.O.SARKHON,DIST-JANJGIR CHAMPA,CHHATTISGARH,PIN - 495668",JANJGIR-CHAMPA,BHOPAL,CHHATTISGARH,8103874319
545,BANDHAN BANK LIMITED,BDBL0001553,SHEORINARAYAN,"WARD NO-12,BHOGAPARA,PULIA ROAD,P.O.SEORINARAYAN,DIST.JANJGIR CHAMPA,CHHATTISGARH,PIN - 495557",JANJGIR-CHAMPA,BHOPAL,CHHATTISGARH,9091682353
546,BANDHAN BANK LIMITED,BDBL0001554,JAMANIGURI,"SHAHAVAJ ALAM,VILL.JAMNIGURI,P.O.PIPRITHAN,DIST.KISHANGANJ,BIHAR,PIN-855116",KISHANGANJ,PATNA,BIHAR,9800750212
547,BANDHAN BANK LIMITED,BDBL0001555,DHAMSANA,"SHOP NO.105,OPP.DHAMSANA GRAM PANCHAYAT OFFICE,DIST.GANDHINAGAR,GUJARAT,PIN -382740",GANDHINAGAR,VADODARA,GUJARAT,66090909
548,BANDHAN BANK LIMITED,BDBL0001556,VALETVA,"VILL. & P.O.VALETVA,TALUKA - NADIAD,DIST.KHEDA,GUJARAT,PIN -388440",ANAND,AHMEDABAD,GUJARAT,9173364022
549,BANDHAN BANK LIMITED,BDBL0001557,SURAT,"SHOP NO.G-1-2-3-4-5,ANNAPURNA TEXTILE MARKET,RING ROAD,P.O.AND DIST.SURAT,GUJARAT,PIN-395003",SURAT,VADODARA,GUJARAT,66090909
550,BANDHAN BANK LIMITED,BDBL0001558,JITPURA,"JITPURA,TALUKA UMRETH,P.O.ODE,DIST.ANAND,GUJARAT,PIN-388210",ANAND,AHMEDABAD,GUJARAT,9157049950
551,BANDHAN BANK LIMITED,BDBL0001559,CHEMBUR,"SRINAGAR HERITAGE,SHOP NO.1,11TH ROAD,OFF CENTRAL AVENUE ROAD,CHEMBUR,MAHARASHTRA,PIN 400071",MUMBAI,MUMBAI,MAHARASHTRA,66090909
552,BANDHAN BANK LIMITED,BDBL0001560,KALYAN,"SHREE KESHAV, GROUND & FIRST FLOOR, HARIHAR TIMBER COMPOUND, BAZAR PETH ROAD, OPP ACHARYA ATRE RANG MANDIR, KALYAN(W) , DIST. THANE, MAHARASHTRA, PIN 421301",THANE,MUMBAI,MAHARASHTRA,66090909
553,BANDHAN BANK LIMITED,BDBL0001561,JALGAON,"GROUND FLOOR,5 DHAKE COLONY,KHAJA MIYA ROAD,JALGAON,PS JILHA PETH,MAHARASHTRA,PIN 425001",JALGAON,MUMBAI,MAHARASHTRA,66090909
554,BANDHAN BANK LIMITED,BDBL0001562,PRABHADEVI,"GROUND FLOOR,MADHUKUNJ BUILDING,S G ROAD,P O PRABHADEVI,MUMBAI,MAHARASHTRA,PIN 400025",MUMBAI,MUMBAI,MAHARASHTRA,66090909
555,BANDHAN BANK LIMITED,BDBL0001563,THANE,"SHOP NO.2 PART,M/S WOOD PLAZA,GOLDEN DYES COMPOUND,OPP.NAVNEET MOTORS,GOKUL NAGAR,THANE W,MAHARASHTRA,PIN 400601",THANE,MUMBAI,MAHARASHTRA,9867671140
556,BANDHAN BANK LIMITED,BDBL0001564,MULUND,"VIKAS PARADISE,SHOP NO.4,5,AND 6,GROUND FLOOR,LBS MARG,MULUND WEST,MUMBAI,MAHARASHTRA,PIN 400080",THANE,MUMBAI,MAHARASHTRA,66090909
557,BANDHAN BANK LIMITED,BDBL0001565,VITHALWADI,"GROUND FLOOR,NEAR WATER TANK,DEHUGAON,TAL HAVELI,VITTALWADI ROAD,DISTRICT PUNE,MAHARASHTRA,PIN-412109",PUNE,PUNE,MAHARASHTRA,66090909
558,BANDHAN BANK LIMITED,BDBL0001566,KICHHA,"RUDRAPUR ROAD,OPP.BANK OF BARODA,KICHHA,UDHAM SINGH NAGAR,UTTARAKHAND,PIN 263148",UDHAM SINGH NAGAR,MORADABAD,UTTARAKHAND,66090909
559,BANDHAN BANK LIMITED,BDBL0001567,KUCHAMAN CITY,"DIDWANA ROAD,NEAR P.W.D.OFFICE,P.0.KUCHAMAN CITY,NAGAUR,RAJASTHAN,PIN -341508",NAGAUR,JAIPUR,RAJASTHAN,66090909
560,BANDHAN BANK LIMITED,BDBL0001568,KOTPUTLI,"MANSI MARKET,KRISHNA TAKIES ROAD,OPP.HERA MOTI CINEMA,N.H.NO.8,KOTPUTLI,RAJASTHAN,PIN -303108",JAIPUR,JAIPUR,RAJASTHAN,8696948593
561,BANDHAN BANK LIMITED,BDBL0001569,LAKE GARDENS,"188/13,PRINCE ANWAR SHAH ROAD,KOLKATA,WEST BENGAL,PIN-700045",KOLKATA,KOLKATA,WEST BENGAL,66090909
562,BANDHAN BANK LIMITED,BDBL0001570,RANIGANJ,"NSB ROAD RANIGANJ,P.O.RANIGANJ,WEST BENGAL,PIN -713347",BARDHAMAN,KOLKATA,WEST BENGAL,66090909
563,BANDHAN BANK LIMITED,BDBL0001571,SITARGANJ,"OPP AXIS BANK, KICHHA ROAD,SITARGANJ,UDHAMSINGH NAGAR,UTTARAKHAND,PIN262405",UDHAMSING NAGAR,SITARGANJ,UTTARAKHAND,66090909
564,BANDHAN BANK LIMITED,BDBL0001572,MOGRA,"VILL. & P.O.MOGRA,GT ROAD-AMODGHATA,DIST.HOOGHLY,WEST BENGAL,PIN - 712148",HOOGHLY,KOLKATA,WEST BENGAL,9088636595
565,BANDHAN BANK LIMITED,BDBL0001573,EMDI,"VILL&P.OEMDI,DIST.RAJSAMAND,RAJASTHAN,PIN313342",RAJSAMAND,JAIPUR,RAJASTHAN,66090909
566,BANDHAN BANK LIMITED,BDBL0001574,NEW ALIPORE,"19/2,SHAHAPUR COLONY,BLOCK J,NEW ALIPORE,WARD NO.-81,KOLKATA,WEST BENGAL -700053",SOUTH 24 PARGANAS,KOLKATA,WEST BENGAL,8334892277
567,BANDHAN BANK LIMITED,BDBL0001575,JANGALBARI,"NEAR MEDICAL SQUARE,JANGALBARI,PO.NAYAHAT,DIST.PURI,ODISHA,PIN -752107",PURI,CUTTACK,ODISHA,66090909
568,BANDHAN BANK LIMITED,BDBL0001576,CHOUGACHA,"MOUJA-CHOUGACHHA,NO.142,GOYALBADI PURBA & MADHYAPARA,DEULI,CHAKDAHA,NADIA,WEST BENGAL -741222",NADIA,KOLKATA,WEST BENGAL,9635333208
569,BANDHAN BANK LIMITED,BDBL0001577,ASHIANA NAGAR,"ASHIANA NAGAR MAIN ROAD,ASIANA MORE,OPP.PUSPANJALI KUNJ APPARTMENT,P.O.ASHIANA,DIST.PATNA,BIHAR,PIN 800025",PATNA,PATNA,BIHAR,66090909
570,BANDHAN BANK LIMITED,BDBL0001578,SAPANPUR,"1ST FLOOR,OPP.SRI RAM NURSING HOME,AT.SAPANPUR,P.O.SISUA,DIST.CUTTACK,ODISHA,PIN 754202",CUTTACK,CUTTACK,ODISHA,66090909
571,BANDHAN BANK LIMITED,BDBL0001579,NARSINGARH,"VILL-KOKPARA DHALBHUMGARH,PO - DHALBHUMGARH,DIST - EAST SINGHBHUM,STATE-JHARKHAND.PIN - 832302",EAST SINGHBHUM,NARSINGARH,JHARKHAND,66090909
572,BANDHAN BANK LIMITED,BDBL0001580,BIDHAN SARANI,"159B,BIDHAN SARANI,KOLKATA,WEST BENGAL,PIN - 700006",KOLKATA,KOLKATA,WEST BENGAL,66090909
573,BANDHAN BANK LIMITED,BDBL0001581,BORKHAMTI,"VILL KUHIAR BARI,NARAYANPUR,P.O -DIKRONG,DIST.LAKHIMPUR,PIN-784164",LAKHIMPUR,GUWAHATI,ASSAM,9485148009
574,BANDHAN BANK LIMITED,BDBL0001582,LALBAGH,"G 1,SHALIMAR SQUARE,B.N.ROAD,P.O.LALBAGH,LUCKNOW,UTTAR PRADESH,PIN 226001",LUCKNOW,MORADABAD,UTTAR PRADESH,66090909
575,BANDHAN BANK LIMITED,BDBL0001583,KANDIVALI,"GROUND FLOOR,KRISHNA KUNJ,S.V.P ROAD,NEAR CHITRA TOWER,KANDIVALI WEST,MUMBAI,MAHARASHTRA,PIN 400067",MUMBAI SUBURBAN,MUMBAI,MAHARASHTRA,66090909
576,BANDHAN BANK LIMITED,BDBL0001584,ANDHERI,"SHOP NO 2,GROUND FLOOR,HOLAR SAMAJ CHS,PLOT NO 11,S H O,FOUR BUNGALOWS,J P ROAD,ANDHERI W,MUMBAI,MAHARASHTRA,PIN 400053",MUMBAI,MUMBAI,MAHARASHTRA,66090909
577,BANDHAN BANK LIMITED,BDBL0001585,"RAJNAGAR, GAZIABAD","GROUND FLOOR,C-3,RDC,GHAZIABAD,DIST.-GHAZIABAD,UTTAR PRADESH,PIN - 201002",GHAZIABAD,GHAZIABAD,UTTAR PRADESH,66090909
578,BANDHAN BANK LIMITED,BDBL0001586,SHIV MANDIR,"K P SINGHA MARKET COMPLEX,SHIV MANDIR BAZAR,P.O.KADAMTALA,DIST.DARJEELING,WEST BENGAL,PIN 734011",DARJEELING,SILIGURI,WEST BENGAL,66090909
579,BANDHAN BANK LIMITED,BDBL0001587,GOURISHAIL,"VILL-GOURISHAIL,PO-GANGSARA,DIST-NADIA,PS-GANGNAPUR,NADIA,WEST BENGAL,PIN 741233",I,KRISHNANAGAR,WEST BENGAL,66090909
580,BANDHAN BANK LIMITED,BDBL0001588,CHUADANGA,"VILL CHUADANGA,P.O.GOURIPUR,DIST.NADIA,WEST BENGAL,PIN 741223",NADIA,KRISHNANAGAR,WEST BENGAL,66090909
581,BANDHAN BANK LIMITED,BDBL0001589,ICHAPORE,"113,GHOSHPARA ROAD,ICHAPORE,NORTH 24 PARAGANAS,WEST BENGAL,PIN 700125",NORTH 24 PARGANAS,BARASAT,WEST BENGAL,66090909
582,BANDHAN BANK LIMITED,BDBL0001590,SHAKESPEARE SARANI,"NEW B K MARKET,16B,SHAKESPEARE SARANI,KOLKATA WEST BENGAL,PIN 700071",KOLKATA,DHAKURIA,WEST BENGAL,66090909
583,BANDHAN BANK LIMITED,BDBL0001591,CANNAUGHT PLACE,3LSBLG9STBHMGNDLH.,NEW DELHI,DELHI,DELHI,66090909
584,BANDHAN BANK LIMITED,BDBL0001592,KALYANI NAGAR,"THE CEREBRUM,133 WADGAON SHERI,KALYANI NAGAR,PUNE,PUNE,MAHARASTRA,PIN 411014",PUNE,PUNE,MAHARASHTRA,66090909
585,BANDHAN BANK LIMITED,BDBL0001593,BHANDARKAR ROAD,"A1.1,A1.2 HEREKAR PARK,KETKAR ROAD,OFF BHANDARKAR ROAD,NEAR KAMALA NEHRU PARK,DECCAN GYMKHANA,PUNE,MAHARASHTRA,PIN -411 004",PUNE,PUNE,MAHARASHTRA,66090909
586,BANDHAN BANK LIMITED,BDBL0001594,BELGHORIA,"QUEEN TOWER,75,FEEDER ROAD,BELGHARIA BATA MORH,OPP BANK OF BARODA BRANCH,KOLKATA,WEST BENGAL,PIN - 700056",NORTH 24 PARGANAS,KOLKATA,WEST BENGAL,9836671494
587,BANDHAN BANK LIMITED,BDBL0001595,CHINAR PARK,"ATGHARA CHINAR PARK,P.O.GOPALPUR,BAGUIATI,KOLKATA,WEST BENGAL,PIN -700136",NORTH 24 PARGANAS,KOLKATA,WEST BENGAL,9836754488
588,BANDHAN BANK LIMITED,BDBL0001596,NEW TOWN,"PLOT NO BG/12,ACTION AREA-1B,NEW TOWN,RAJARHAT,NORTH 24 PARGANAS,WEST BENGAL,PIN - 700156",NORTH 24 PARGANAS,BARASAT,WEST BENGAL,66090909
589,BANDHAN BANK LIMITED,BDBL0001597,SALT LAKE SECTOR I,"BE-89,SALT LAKE CITY,SECTOR - I,KOLKATA,WEST BENGAL PIN - 700064",NORTH 24 PARGANAS,KOLKATA,WEST BENGAL,9830552008
590,BANDHAN BANK LIMITED,BDBL0001598,SALT LAKE SECTOR III,"GD -336,SECTOR -III,SALT LAKE CITY,KOLKATA,WEST BENGAL,PIN -700106",NORTH 24 PARGANAS,KOLKATA,WEST BENGAL,9830291418
591,BANDHAN BANK LIMITED,BDBL0001599,MUKUNDAPUR,"P-12,MUKUNDAPUR MAIN ROAD,EAST JADAVPUR,KOLKATA,WEST BENGAL,PIN - 700099",SOUTH 24 PARGANAS,KOLKATA,WEST BENGAL,7044094464
592,BANDHAN BANK LIMITED,BDBL0001600,SANTOSHPUR,"A - 158,SURVEY PARK,SANTOSHPUR,KOLKATA,WEST BENGAL,PIN - 700075",SOUTH 24 PARGANAS,KOLKATA,WEST BENGAL,9903495917
593,BANDHAN BANK LIMITED,BDBL0001601,NOIDA,"C-31,SECTOR - 18,NOIDA,UTTAR PRADESH,PIN - 201301",GHAZIABAD,KANPUR,UTTAR PRADESH,9653233690
594,BANDHAN BANK LIMITED,BDBL0001602,AMTALA,"VILL DAKSHIN KANYANAGAR,P.O.KANYANAGAR,DIST.SOUTH 24 PGS,WEST BENGAL.PIN-743398",SOUTH 24 PARGANAS,KOLKATA,WEST BENGAL,9831307144
595,BANDHAN BANK LIMITED,BDBL0001603,SARAT BOSE ROAD,"19C,SARAT BOSE ROAD,GROUND FLOOR,KOLKATA,WEST BENGAL,PIN - 700020",KOLKATA,KOLKATA,WEST BENGAL,9830664476
596,BANDHAN BANK LIMITED,BDBL0001604,RASHBEHARI,"148,R.B AVENUE,OPPOSITE PRIYA CINEMA,KOLKATA,WEST BENGAL,PIN -700029",KOLKATA,KOLKATA,WEST BENGAL,9830446053
597,BANDHAN BANK LIMITED,BDBL0001605,SEALDAH,"TIRUSHIVAM,56/2,ACHARYA PRAFULLA CHANDRA ROAD,KOLKATA,WEST BENGAL,PIN - 700009",KOLKATA,KOLKATA,WEST BENGAL,9883588363
598,BANDHAN BANK LIMITED,BDBL0001606,MYLAPORE,"117,DR.RADHAKRISHNAN SALAI,P.O.MYLAPORE,CHENNAI,TAMILNADU,PIN - 600004",CHENNAI,CHENNAI,TAMIL NADU,9962027782
599,BANDHAN BANK LIMITED,BDBL0001607,EDAPPALLY,"CHAKKAPPAN CENTRE,EDAPALLY PAKKATTAPADY ROAD,P.S KALAMASSERRY KOCHI,KERALA,PIN 682024",RAUA,KERALA,KERALA,66090909
600,BANDHAN BANK LIMITED,BDBL0001608,KUKATPALLY,"MIG 13 14,DHARMAREDDY COLONY,OPP JNTU GATE,KPHB,KUKATPALLY,HYDERABAD,PIN 500072",RANGA REDDY,HYDERABAD,TELANGANA,66090909
601,BANDHAN BANK LIMITED,BDBL0001609,INDIRA NAGAR,"25,RAMPLAZA,CMH ROAD,P.O.INDIRANAGAR,BIRRAMANGALA,II ND STAGE,BANGALORE - 560038",BANGALORE,BANGALORE,KARNATAKA,8884333703
602,BANDHAN BANK LIMITED,BDBL0001610,KANPUR,"SAI AVENUE,111/425 A,80 FT ROAD,ASHOK NAGAR,KANPUR,UTTAR PRADESH,PIN 208012",KANPUR,MORADABAD,UTTAR PRADESH,66090909
603,BANDHAN BANK LIMITED,BDBL0001611,ALLAHABAD,"2 2 COPPER ROAD,ALLAHABAD,UTTAR PRADESH,PIN 211001",ALLAHABAD,MORADABAD,UTTAR PRADESH,66090909
604,BANDHAN BANK LIMITED,BDBL0001612,T. NAGAR,"40,SOUTH WEST BOAGH ROAD,P.O.T NAGAR,CHENNAI,TAMIL NADU,PIN - 600017",CHENNAI,CHENNAI,TAMIL NADU,66090909
605,BANDHAN BANK LIMITED,BDBL0001613,TAMBARAM,"263 OLD NO.27,MUDICHUR ROAD,TAMBARAM WEST,CHENNAI,TAMIL NADU,PIN - 600045",KANCHIPURAM,CHENNAI,TAMIL NADU,8012922444
606,BANDHAN BANK LIMITED,BDBL0001614,BANNERGHATTA MAIN ROAD,"6,BANNERGHATTA MAIN ROAD,GURUPPAN PALAYA,KEB LAYOUT,BANGALORE,KARNATAKA,PIN - 560029",BANGALORE,BANGALORE,KARNATAKA,9743395800
607,BANDHAN BANK LIMITED,BDBL0001615,KHARGHAR,"SHOP NO.7 AND 8,PLOT NO 29,RADHA KRISHNA COMPLEX,SECTOR 11,KHARGAHAR,DIST RAIGAD,MAHARASHTRA",RAIGAD,MUMBAI,MAHARASHTRA,66090909
608,BANDHAN BANK LIMITED,BDBL0001616,AMRITSAR,"BURJ PUNJAB SCO - 9,DISTRICT SHOPPING COMPLEX,RANJIT AVENUE,AMRITSAR,CIVIL LINES,PUNJUB,PIN -143 001",AMRITSAR,CHANDIGARH,PUNJAB,8288010237
609,BANDHAN BANK LIMITED,BDBL0001617,JALANDHAR,"MULTANI TOWERS,SCO 33,COURT ROAD,PUDA COMPLEX,JALANDHAR,PUNJAB,PIN - 144 008",JALANDHAR,CHANDIGARH,PUNJAB,66090909
610,BANDHAN BANK LIMITED,BDBL0001618,NASIK,"NEXUS POINT,RAMRAJYA,COLLEGE ROAD,NEAR BHONSLA MILITARY SCHOOL,NASIK,MAHARASHTRA,PIN -422005",NASHIK,MUMBAI,MAHARASHTRA,9890290474
611,BANDHAN BANK LIMITED,BDBL0001619,NAGPUR,"PLOT NO.12,C A ROAD,NEAR L G SHOW ROOM,NAGPUR,MAHARASHTRA,PIN 440002",NAGPUR,MUMBAI,MAHARASHTRA,66090909
612,BANDHAN BANK LIMITED,BDBL0001620,TRICHY,"NO.M-4,THILLAINAGAR MAIN ROAD,THILLAI NAGAR,TRICHY,TAMIL NADU,PIN - 620018",TIRUCHIRAPPALLI,TRICHY,TAMIL NADU,66090909
613,BANDHAN BANK LIMITED,BDBL0001621,THIRUVANANTHAPURAM,"GROUND FLOOR,ESCUBE,TC 40 / 1710-1,ATTANKULANGARA,MANACAUD,P.O - THIRUVANANTHAPURAM,KERALA,PIN - 695009",THIRUVANANTHAPURAM,KERALA,KERALA,66090909
614,BANDHAN BANK LIMITED,BDBL0001622,KOZHIKODE,"GROUND FLOOR,METRO MAGNA,PARAYANCHERY,KUTHIRAVATTOM POST,MAVOOR ROAD,KOZHIKODE,KERALA,PIN - 673016",KOZHIKODE,KOZHIKODE,KERALA,66090909
615,BANDHAN BANK LIMITED,BDBL0001623,KORAMANGALA,"MOKSHA MANSION,NO.151,SARJAPURA,NEAR JAKKASAN DRA BUS STOP,KORAMANGALA,1ST BLOCK,BANGALORE,KARNATAKA,PIN-560034",BANGALORE,BANGALORE,KARNATAKA,9886718867
616,BANDHAN BANK LIMITED,BDBL0001624,SECUNDERABAD,"LEGEND CRYSTAL,SHOP NO.3,GROUND FLOOR,PERNDERGHAST ROAD,SECUNDERABAD,TELENGANA,PIN 500003",HYDERABAD,ANDHRA PRADESH,TELANGANA,66090909
617,BANDHAN BANK LIMITED,BDBL0001625,DALHOUSIE,"6,N.S ROAD,BCCI BUILDING,KOLKATA,WEST BENGAL,PIN-700001",KOLKATA,KOLKATA,WEST BENGAL,9830050027
618,BANDHAN BANK LIMITED,BDBL0001626,DURGAPUR CITY CENTER,"HOTEL CITI RESIDENCY,SAHID KHUDIRAM SARANI,P.O.CITY CENTRE,DURGAPUR,WEST BENGAL,PIN 713216",BARDHAMAN,BURDWAN,WEST BENGAL,66090909
619,BANDHAN BANK LIMITED,BDBL0001627,IMPHAL,"HOTEL WHITE PALACE BUILDING,113,M.G AVENUE,THANGAL BAZAR,DISTRICT -IMPHAL WEST,MANIPUR,PIN-795001",IMPHAL WEST,IMPHAL,MANIPUR,66090909
620,BANDHAN BANK LIMITED,BDBL0001628,DIMAPUR,"CITY TOWER BUILDING,NEAR CITY TOWER CIRCULAR ROAD,DIMAPUR,NAGALAND-797112",DIMAPUR,GUWAHATI,NAGALAND,879473342
621,BANDHAN BANK LIMITED,BDBL0001629,NARIMAN POINT,"UNIT NO G-5,GROUND FLOOR,DALAMAL TOWER,PLOT NO-211,FREE PRESS JOURNAL MARG,NARIMAN POINT,MUMBAI-400021",MUMBAI,MUMBAI,MAHARASHTRA,66090909
622,BANDHAN BANK LIMITED,BDBL0001630,BRAHMAPUR,"530,BRAHMAPUR ROAD,PO-BRAMHAPUR, PS-BANSDRONI,SOUTH 24 PARGANAS,WEST BENGAL, PIN-700096",SOUTH 24 PARGANAS,DHAKURIA,WEST BENGAL,66090909
623,BANDHAN BANK LIMITED,BDBL0001631,KUSPATA GHATAL,"VILL KUSHPATA,P.O.GHATAL,DIST.PASCHIM MEDINIPUR,WEST BENGAL,PIN-721212",EAST MEDINIPUR,KOLKATA,WEST BENGAL,8103174584
624,BANDHAN BANK LIMITED,BDBL0001632,SHONDANGA,"VILL SHONDANGA,P.O.SHONDANGA,DIST.NADIA,WEST BENGAL,PIN 741125",NADIA,KRISHNANAGAR,WEST BENGAL,66090909
625,BANDHAN BANK LIMITED,BDBL0001633,BAJEPRATAPPUR,"BAJEPRATAPPUR,KATWA ROAD,P.O.BAJRPRATAPPUR NDDF,WEST BENGAL,PIN - 713101",BARDHAMAN,KOLKATA,WEST BENGAL,66090909
626,BANDHAN BANK LIMITED,BDBL0001634,BAREILLY,"GROUND FLOOR,R S TOWERS,165,CIVIL LINES,STATION ROAD,OPP HOTEL BAREILLY PALACE,BAREILLY,UTTAR PRADESH,PIN 243001",BAREILLY,MORADABAD,UTTAR PRADESH,66090909
627,BANDHAN BANK LIMITED,BDBL0001635,S R NAGAR,"26 A MIG,MUNICIPAL NO.7 1 397 5 A,SANJEEVA REDDY NAGAR COLONY,HYDERABAD,TELENGANA,PIN 500038",HYDERABAD,HYDERABAD,TELANGANA,66090909
628,BANDHAN BANK LIMITED,BDBL0001636,"ZOO ROAD, GUWAHATI","TRISUL TOWER,Z.N.ROAD ZOO NARENGI ROAD,GUWAHATI,PIN - 781021",KAMRUP,GUWAHATI,ASSAM,66090909
629,BANDHAN BANK LIMITED,BDBL0001637,MADHAVPURA,"VILL MADHAVPURA,P.O.RAJPARDI,TALUKA JHAGADIA,SHOP NO-10,11,BUIILDING A B,RAJPARDI GUJRAT,PIN-393115",ANAND,AHMEDABAD,GUJARAT,66090909
630,BANDHAN BANK LIMITED,BDBL0001638,PREET VIHAR,"80,DEFENCE ENCLAVE,VIKAS MARG,NEW DELHI -110092",EAST DELHI,DELHI,DELHI,66090909
631,BANDHAN BANK LIMITED,BDBL0001639,GANDHINAGAR,"GROUNDR FLOOR,MANILAL CHAMBER,PLOT NO 282,SECTOR 16,GH ROAD NR TORRENT POWER OFFICE,GANDHINAGAR,GUJARAT,PIN - 382016",GANDHINAGAR,VADODARA,GUJARAT,66090909
632,BANDHAN BANK LIMITED,BDBL0001640,PARK STREET,"HALL AND ANDERSON LTD,BANGUR BFL ESTATE,31,CHOWRANGHEE ROAD,KOLKATA,WEST BENGAL.PIN-700016",KOLKATA,KOLKATA,WEST BENGAL,66090909
633,BANDHAN BANK LIMITED,BDBL0001641,DWARKA NAGAR,"DOOR NO 47-10-26,RAMS PLAZA,2ND LANE,DWARKA NAGAR,VISHAKAPATTANAM,ANDHRA PRADESH.PIN-530016",VISHAKAPATTANAM,DWARKA NAGAR,ANDHRA PRADESH,66090909
634,BANDHAN BANK LIMITED,BDBL0001642,KHOWAI,"SUBHASH PARK,P.O& P.S KHOWAI,DIST WEST TRIPURA,TRIPURA,PIN-799201",WEST TRIPURA,KHOWAI,TRIPURA,66090909
635,BANDHAN BANK LIMITED,BDBL0001643,NICCO PARK,"JHEEL MEEL,SECTOR IV,SALT LAKE CITY,KOLKATA,WEST BENGAL,PIN 700106",NORTH 24 PARGANAS,KOLKATA,WEST BENGAL,66090909
636,BANDHAN BANK LIMITED,BDBL0001644,JANGIPARA,"FIRST FLOOR,VILL& PO -JANGIPARA,NEAR LIC OFFICE DIST HOOGHLY,WEST BENGAL,PIN-712404",HOOGHLY,HOOGHLY,WEST BENGAL,66090909
637,BANDHAN BANK LIMITED,BDBL0001645,BHANDARHATI,"GROUND FLLOOR,VILL& PO -BHANDARHATI,P.S DHANIAKHALI DIST-HOOGHLY,WEST BENGAL,PIN-712301",HOOGHLY,HOOGHLY,WEST BENGAL,66090909
638,BANDHAN BANK LIMITED,BDBL0001646,RANIHATI,"FIRST FLOOR,ROYAL COMPLEX,VILL RANIHATI,PO -JOY NAGAR,PS PANCHLA,HOWRAH,WEST BENGAL,PIN-711322",HOWRAH,HOWRAH,WEST BENGAL,66090909
639,BANDHAN BANK LIMITED,BDBL0001647,BAGANDA,"GROUND FLOOR,VILL-RANMAHAL,PO -DHULASIMLA,PS-ULUBERIA,NEAR BAGANDA,DIST.-HOWRAH,WEST BENGAL,PIN -711315",HOWRAH,HOWRAH,WEST BENGAL,66090909
640,BANDHAN BANK LIMITED,BDBL0001648,GUMA,GROUND FLOOR GUMA CHOWMATHA NORTH 24 PARAGANAS WEST BENGAL PIN 743704,NORTH 24 PARAGANAS,HABRA,WEST BENGAL,66090909
641,BANDHAN BANK LIMITED,BDBL0001649,MASLANDAPUR,"FIRST FLOOR,VILL-SADPUR,PO -MASLANDAPUR,PS HABRA,DIST NORTH 24 PARAGANAS,WEST BENGAL,PIN 743289",NORTH 24 PARAGANAS,HABRA,WEST BENGAL,66090909
642,BANDHAN BANK LIMITED,BDBL0001650,DARIAPUR,"FIRST FLOOR,VILL. & PO -DARIAPUR,CHANDIGARH GRAM PANCHAYAT,PS-AMDANGA,NORTH 24 PARAGANAS,WEST BENGAL,PIN-743711",NORTH 24 PARAGANAS,BARASAT,WEST BENGAL,66090909
643,BANDHAN BANK LIMITED,BDBL0001651,RAMPUR MORE,"GROUND FLOOR,VILL-RAMPUR,PO -ARKHALI AMDANGA,PS-AMDANGA,SADHANPUR GRAM PANCHAYAT,NORTH 24 PARAGANAS,WEST BENGAL,PIN-743221",NORTH 24 PARAGANAS,BARASAT,WEST BENGAL,66090909
644,BANDHAN BANK LIMITED,BDBL0001652,AMINPUR BAZAR,"GROUND FLOOR,AMINPUR BAZAR,PO SONDALIA,PS SASHAN,BLOCK 2,FALTI,BELIAGHATA GRAM PANCHAYAT,NORTH 24 PARAGANAS,WEST BENGAL,PIN 743423",NORTH 24 PARAGANAS,BARASAT,WEST BENGAL,66090909
645,BANDHAN BANK LIMITED,BDBL0001653,BARAKAR BAZAR,"GROUND FLOOR,G T ROAD,HANUMAN CHARAI,BARAKAR,KULTI,BURDWAN,WEST BENGAL,PIN 713324",BURDWAN,BURDWAN,WEST BENGAL,66090909
646,BANDHAN BANK LIMITED,BDBL0001654,NEAMATPUR BAZAR,"GROUND FLOOR,JOG PHARMACY,G T ROAD,NEAMATPUR,SITARAMPUR,DIST - BURDWAN,WEST BENGAL,PIN 713359",BURDWAN,BURDWAN,WEST BENGAL,66090909
647,BANDHAN BANK LIMITED,BDBL0001655,BOGPUR,"BOGPUR,PO -CHAKBAMAN GORIA,DIST -BURDWAN,WEST BENGAL,PIN -713513",BURDWAN,BURDWAN,WEST BENGAL,66090909
648,BANDHAN BANK LIMITED,BDBL0001656,PRATAPPUR,"PRATAPPUR GP,VILL KHATGORIA,PO JAMGORA,DIST BURDWAN,PIN 713385",BURDWAN,BURDWAN,WEST BENGAL,66090909
649,BANDHAN BANK LIMITED,BDBL0001657,CHAMPAHATI,OCPDSO4GNWEBENGN40,SOUTH 24 PARGANAS,BARUIPUR,WEST BENGAL,66090909
650,BANDHAN BANK LIMITED,BDBL0001658,DHOSHA,"VILL - CHANDENESWAR DHOSA,PO - DHOSA,PS -JOYNAGAR,DIST SOUTH 24 PARGANAS,WEST BENGAL,PIN-743396",SOUTH 24 PARGANAS,BARUIPUR,WEST BENGAL,66090909
651,BANDHAN BANK LIMITED,BDBL0001659,RAMCHANDRAKHALI,"VILL -RAMCHANDRAKHALI,PO -SONAKHALI,PS - BASANTI,DIST SOUTH 24 PARGANAS,WEST BENGAL,PIN -743312",SOUTH 24 PARGANAS,BARUIPUR,WEST BENGAL,66090909
652,BANDHAN BANK LIMITED,BDBL0001660,BAKRAHAT,"FIRST FLOOR,VILL. & PO -BAKRAHAT,P.S BISHNUPUR,DIST.-SOUTH 24 PARGANAS,WEST BENGAL,PIN 743377",SOUTH 24 PARGANAS,DHAKURIA,WEST BENGAL,66090909
653,BANDHAN BANK LIMITED,BDBL0001661,SARISHAHAT,"FIRST FLOOR,VILL. & PO -SARISHA,P.S DIAMOND HARBOUR,DIST.-SOUTH 24 PARGANAS,WEST BENGAL,PIN 743368",SOUTH 24 PARGANAS,DHAKURIA,WEST BENGAL,66090909
654,BANDHAN BANK LIMITED,BDBL0001662,JHINKIRHAT,"GROUND FLOOR,VILL. & PO -MOHANPUR,MOHANPUR GRAM PANCHAYAT,P.S-MOGRAHAT,DIST - SOUTH24 PARGANAS,WEST BENGAL,PIN 743610",SOUTH 24 PARGANAS,DHAKURIA,WEST BENGAL,66090909
655,BANDHAN BANK LIMITED,BDBL0001663,SAHARARHAT,"FIRST FLOOR,VILL. & PO -SAHARARHAT,BELSINGHA GRAM PANCHAYAT ( II),P.S-FALTA,DIST.-SOUTH 24 PARGANAS,WEST BENGAL,PIN 743504",SOUTH 24 PARGANAS,DHAKURIA,WEST BENGAL,66090909
656,BANDHAN BANK LIMITED,BDBL0001664,KHAGRAMURI - MAHISGOT,"FIRST FLOOR,VILL. & PO -NAHAZARI,KHAGRAMURI GRAM PANCHAYAT,P.S-BISHNUPUR,DIST.-SOUTH24 PARGANAS,WEST BENGAL,PIN 700104",SOUTH 24 PARGANAS,DHAKURIA,WEST BENGAL,66090909
657,BANDHAN BANK LIMITED,BDBL0001665,NEPALGANJ,"FIRST FLOOR,VILL.-RAGHABPUR,PO -NEPALGANJ,P.S-BISHNUPUR,DIST.-SOUTH24 PARGANAS,WEST BENGAL,PIN 700103",SOUTH 24 PARGANAS,DHAKURIA,WEST BENGAL,66090909
658,BANDHAN BANK LIMITED,BDBL0001666,UKHRA,SLRANANABHAWANANANDAMREMGRADUKHRADISBURDWANWESBENGALPIN73363,BURDWAN,BURDWAN,WEST BENGAL,66090909
659,BANDHAN BANK LIMITED,BDBL0001667,GOPALPUR MORE,GROUND FLOOR GOPALPUR MORE PO SIKRIA KULINGRAM PS BASIRHAT NORTH 24 PARGANAS WEST BENGAL PIN 743428,NORTH 24 PARAGANAS,HABRA,WEST BENGAL,66090909
660,BANDHAN BANK LIMITED,BDBL0001668,DOMAHANI,GROUND FLOOR VILL AND PO DOMANI BAZAR DIST BURDWAN WEST BENGAL PIN 713334,BURDWAN,BURDWAN,WEST BENGAL,66090909
661,BANDHAN BANK LIMITED,BDBL0001669,GOSAIRHAT,GROUND FLOOR CHHOTO DHAPER CHATRA P O GOSSAIRHAT BANDAR P S SITALKUCHI DIST COOCHBEHAR WEST BENGAL PIN 736172,COOCHBEHAR,DHUPGURI,WEST BENGAL,66090909
662,BANDHAN BANK LIMITED,BDBL0001670,KALJANI,"GROUND FLOOR,VILL.P.O-KALJANI,DIST.- COOCHBEHAR,P.S-KOTWALI,WEST BENGAL 736133",COOCHBEHAR,DHUPGURI,WEST BENGAL,66090909
663,BANDHAN BANK LIMITED,BDBL0001671,SALKUMARHAT,"VILL - MUNSHIPARA,PO - SALKUMARHAT,DIST ALIPURDUAR,PIN - 736204",ALIPURDUAR,DHUPGURI,WEST BENGAL,66090909
664,BANDHAN BANK LIMITED,BDBL0001672,SHILBARIHAT,GROUND FLOOR VILL SHILBARIHAT PO SHILBARIHAT PS ALIPURDUAR DIST ALIPURDUAR WEST BENGAL PIN 736204,ALIPURDUAR,DHUPGURI,WEST BENGAL,66090909
665,BANDHAN BANK LIMITED,BDBL0001673,BANDEL,UDF1SSIRDMNDUPIUG7113.,HOOGHLY,HOOGHLY,WEST BENGAL,66090909
666,BANDHAN BANK LIMITED,BDBL0001674,MANKUNDU,"18,MANKUNDU STATION ROAD SHAMBHUR MORE PO-CHANDANNAGORE HOOGHLY-712136",HOOGHLY,HOOGHLY,WEST BENGAL,66090909
667,BANDHAN BANK LIMITED,BDBL0001675,JAGATBALLAVPUR,ALAMEEN MARKET 1ST FLOOR VILL AND PO BARGACHIA PS JAGATBALLAVPUR DIST HOWRAH WEST BENGAL PIN 711404,HOWRAH,HOWRAH,WEST BENGAL,66090909
668,BANDHAN BANK LIMITED,BDBL0001676,KANTAGACHI RAIDIGHI,FIRST FLOOR VILL KANTAGACHI RAIDIGHI PO NAUL PS SHYAMPUR BLOCK SHYAMPUR 2 DIST HOWRAH WEST BENGAL PIN 711312,HOWRAH,HOWRAH,WEST BENGAL,66090909
669,BANDHAN BANK LIMITED,BDBL0001677,PAIKBASHA,FIRST FLOOR VILL PAIKBASHA PO JHIKIRA PS JOYPUR DIST HOWRAH WEST BENGAL PIN 711401,HOWRAH,HOWRAH,WEST BENGAL,66090909
670,BANDHAN BANK LIMITED,BDBL0001678,PURASH,FIRST FLOOR VILLAGE PURASH PO KANPUR PS AMTA DISTRICT HOWRAH WEST BENGAL PIN 711410,HOWRAH,HOWRAH,WEST BENGAL,66090909
671,BANDHAN BANK LIMITED,BDBL0001679,BARGRAM,FIRST FLOOR MAMTAJ BHAVAN VILL AND PO BARGRAM PS SHYAMPUR DIST HOWRAH WEST BENGAL PIN 711312,HOWRAH,HOWRAH,WEST BENGAL,66090909
672,BANDHAN BANK LIMITED,BDBL0001680,CHARIAL BAZAR,"FIRST FLOOR,224,MG ROAD,WARD NO - 18,BUDGE BUDGE,WEST BENGAL,PIN - 700137",SOUTH 24 PARGANAS,DHAKURIA,WEST BENGAL,66090909
673,BANDHAN BANK LIMITED,BDBL0001681,KESHIARY,"VILL& PO-KESHIARY,P.S.-KESHIARY,DIST-PASCHIM MEDINIPUR",WEST MEDINIPUR,MEDINIPUR,WEST BENGAL,66090909
674,BANDHAN BANK LIMITED,BDBL0001682,RAMBAG,"VILL-RAMBAG,PO - BHAGAWANGOLA,PIN-742135,WEST BENGAL",MURSHIDABAD,BERHAMPORE,WEST BENGAL,66090909
675,BANDHAN BANK LIMITED,BDBL0001683,MEMARI,GROUND FLOOR PO AND PS MEMARI MEMARI KALITALA DIST BARDHAMAN WEST BENGAL PIN 713146,BARDHAMAN,BURDWAN,WEST BENGAL,66090909
676,BANDHAN BANK LIMITED,BDBL0001684,RUPNARAYANPUR,GROUND FLOOR KAAJALI APARTMENT HCL ROAD NEAR KALI MANDIR PS SALANPUR DIST BARDHAMAN WEST BENGAL PIN 713386,BARDHAMAN,BURDWAN,WEST BENGAL,66090909
677,BANDHAN BANK LIMITED,BDBL0001685,DISERGARH GHAT,"GROUND FLOOR,DISERGARH GHAT,KILLBURN MORE,KULTI,DIST BURDWAN,PIN 713333",BURDWAN,BURDWAN,WEST BENGAL,66090909
678,BANDHAN BANK LIMITED,BDBL0001686,GAYESHPUR,UF1APEHUPSKDNP71WEBE.,NADIA,BARASAT,WEST BENGAL,66090909
679,BANDHAN BANK LIMITED,BDBL0001687,BARANACHINA,"GROUND FLOOR,VILL P.O -BARANACHINA,ANCHAL PUTIMARI - 2.P.S DINHATA,DIST.- COOCHBEHAR,WEST BENGAL,PIN 736174",COOCHBEHAR,COOCHBEHAR,WEST BENGAL,66090909
680,BANDHAN BANK LIMITED,BDBL0001688,CHARALJANI NATABARI,"GROUND FLOOR,VILL P.O -CHARALJANI,P.S TUFANGANJ,DIST.- COOCHBEHAR,WEST BENGAL,PIN 736156",COOCHBEHAR,COOCHBEHAR,WEST BENGAL,66090909
681,BANDHAN BANK LIMITED,BDBL0001689,KHALISA GOSANIMARI,"GROUND FLOOR,VILL -KHALISA GOSANIMARI,P.O -GOSANIMARI,P.S DINHATA,DIST.- COOCHBEHAR,WEST BENGAL,PIN 736145",COOCHBEHAR,COOCHBEHAR,WEST BENGAL,66090909
682,BANDHAN BANK LIMITED,BDBL0001690,AZIMGANJ,"GROUND FLOOR,VILL PO-AZIMGANJ,PS-JIAGANJ,DIST-MURSHIDABAD,PIN-742122",MURSHIDABAD,BERHAMPORE,WEST BENGAL,66090909
683,BANDHAN BANK LIMITED,BDBL0001691,DUBOPARA,"VILL-DUBOPARA,PO-CHONYA,HARIHARPARA PIN-742185,WEST BENGAL",MURSHIDABAD,BERHAMPORE,WEST BENGAL,66090909
684,BANDHAN BANK LIMITED,BDBL0001692,LALBAGH(MURSHIDABAD),"First Floor, 328 No. Kalandarbag.(Golabag), P.O.- Murshidabad, Lalbag, Pin-742149, West Bengal",MURSHIDABAD,BERHAMPORE,WEST BENGAL,66090909
685,BANDHAN BANK LIMITED,BDBL0001693,KHUNTI,"FIRST FLOOR,BASANT COMPLEX,NETAJI CHOWK,MAIN ROAD KHUNTI,P.S-KHUNTI,JHARKHAND,PIN 835210",KHUNTI,RANCHI,JHARKHAND,66090909
686,BANDHAN BANK LIMITED,BDBL0001694,SARAIKELA,"FIRST FLOOR,WARD NO.-7,LAHRITOLA,SARAIKELA,JHARKHAND-833219",SARAIKELA,RANCHI,JHARKHAND,66090909
687,BANDHAN BANK LIMITED,BDBL0001695,KATRASGARH,"FIRST FLOOR,KALALI PHATAK,KATRAS,P.O-KATRASGARH,DHANBAD,JHARKHAND 828114",DHANBAD,RANCHI,JHARKHAND,66090909
688,BANDHAN BANK LIMITED,BDBL0001696,JAMALPUR,"VILLAGE HALARA,P.O AND P.S.JAMALPUR,NEAR JAMALPUR BDO OFFICE,DIST BARDHAMAN,WEST BENGAL,PIN 713408",BARDHAMAN,BURDWAN,WEST BENGAL,66090909
689,BANDHAN BANK LIMITED,BDBL0001697,AIZAWL,"E-5,PETERS STREET,KHATLA,PS-AIZAWL,DIST-AIZAWL,MIZORAM,PIN-796001",AIZAWL,AIZAWL,MIZORAM,66090909
690,BANDHAN BANK LIMITED,BDBL0001698,BADKULLA,"FIRST FLOOR,DIGNAGAR ROAD,GHOSH PARA,PO BADKULLA STATION ROAD,PS-TAHERPUR,NADIA,WEST BENGAL,PIN 741121",NADIA,KRISHNANAGAR,WEST BENGAL,66090909
691,BANDHAN BANK LIMITED,BDBL0001699,BALLYGUNGE,"RUD&FIRSTFLR,59A,BALLYGUGECIRCULARRAD,KLKATA,WESTBEGAL,PI-700019",OKT,DHAKURIA,WEST BENGAL,66090909
692,BANDHAN BANK LIMITED,BDBL0001700,BOHAR I,"BOHAR I GRAM PANCHAYAT,HARINDANGA,SONTALA,DISTRICT BARDHAMAN,WEST BENGAL,PIN 713422",BARDHAMAN,BURDWAN,WEST BENGAL,66090909
693,BANDHAN BANK LIMITED,BDBL0001701,EKMA,"1ST FLOOR, BLOCK ROAD, EKMA, DIST SARAN, BIHAR, PIN-841208",SARAN,SIWAN,BIHAR,66090909
694,BANDHAN BANK LIMITED,BDBL0001702,FULIA,"PO VILL-BELEMATH,PS SANTIPUR,NADIA,WEST BENGAL,PIN 741402",NADIA,KRISHNANAGAR,WEST BENGAL,66090909
695,BANDHAN BANK LIMITED,BDBL0001703,GORAKHPUR,"GROUND FLOOR,TRIMURTI PLAZA,OPPOSITE RAM PRASAD BISMIL PARK,9 PARK ROAD,GORAKHPUR,PIN-273001",OAHU,VARANASI,UTTAR PRADESH,66090909
696,BANDHAN BANK LIMITED,BDBL0001704,ITANAGAR,"E SECTOR, OPP CIVIL SECRETARIAT, ITANAGAR, DIST PAPUM PARE, ARUNACHAL PRADESH, PIN 791111",PAPUM PARE,TEZPUR,ANDHRA PRADESH,66090909
697,BANDHAN BANK LIMITED,BDBL0001705,KESTOPUR,"TULSI BHAWAN,GROUND FLOOR,BE 7,RABINDRAPALLY,KRISHNAPUR,PO PRAFULLAKANAN,PS. BAGUIHATI,KOLKATA,WEST BENGAL,PIN 700101",NORTH 24 PARGANAS,BARASAT,WEST BENGAL,66090909
698,BANDHAN BANK LIMITED,BDBL0001706,KUCHAIKOTE,"JAGPATI COMPLEX, GROUND FLOOR, VILL PO. KUCHAIKOTE, DIST. GOPALGANJ, BIHAR, PIN. 841501",GOPALGANJ,SIWAN,BIHAR,66090909
699,BANDHAN BANK LIMITED,BDBL0001707,MADANPUR,"MADANPUR,MAHESHVIDYA MANDIR,PO PLUS PS ANDAL,DISTRICT BARDHAMAN,WEST BENGAL,PIN 713321",BARDHAMAN,BURDWAN,WEST BENGAL,66090909
700,BANDHAN BANK LIMITED,BDBL0001708,NAUTAN,"1ST FLOOR, NARAYAN BHAWAN, VILL. PO NAUTAN, PS. MARHOURA, DIST. SARAN, BIHAR, PIN. 841401",SARAN,SIWAN,BIHAR,66090909
701,BANDHAN BANK LIMITED,BDBL0001709,SANKO,"OLD GP OFFICE,VILL KULGORIA,PO SANKO,DISTRICT BARDHAMAN,WEST BENGAL,PIN 713141",BARDHAMAN,BURDWAN,WEST BENGAL,66090909
702,BANDHAN BANK LIMITED,BDBL0001710,SREERAMPUR,"GROUND FLOOR,VILL SREERAMPUR,PO RAJARMATH,PS CHAKDAHA,NADIA,WEST BENGAL,PIN 741222",NADIA,KRISHNANAGAR,WEST BENGAL,66090909
703,BANDHAN BANK LIMITED,BDBL0001711,SRIRAMPUR,"SRIRAMPUR GP,VILL SRIRAMPUR,PO PLUS PS ANDAL,DISTRICT BARDHAMAN,WEST BENGAL,PIN 713321",BARDHAMAN,BURDWAN,WEST BENGAL,66090909
704,BANDHAN BANK LIMITED,BDBL0001712,APCAR GARDEN,"EHINANDANENCLAVE,SENRALEIGHROAD,NEAAILWAYBIDGE,BEIDEEVELANDNUINGHOME,APCAGADEN,AANOL,BADHAMAN,WETBENGAL,PIN713304",ADAA,BURDWAN,WEST BENGAL,66090909
705,BANDHAN BANK LIMITED,BDBL0001714,BHATJANGLA,IOBJNGSOIRISNNGRDISNDIWESBENGIN741102,I,KRISHNANAGAR,WEST BENGAL,66090909
706,BANDHAN BANK LIMITED,BDBL0001715,GOPALPUR II,IOGPPRSRNRTH24RGNSWESTBENGIN743445,OT4PAAGANAS,BARASAT,WEST BENGAL,66090909
707,BANDHAN BANK LIMITED,BDBL0001716,HIJALGORA,"GROUND FLOOR, HIJALGORA GRAM PANCHAYAT, VILL & PO - HIJALGORA, PS - JAMURIA, DISTRICT -BURDWAN, WEST BENGAL, PIN-713362",BARDHAMAN,BURDWAN,WEST BENGAL,66090909
708,BANDHAN BANK LIMITED,BDBL0001717,HINGHNARA,"IOU,S,ISNI,WESBENG,IN741223",I,KRISHNANAGAR,WEST BENGAL,66090909
709,BANDHAN BANK LIMITED,BDBL0001718,KURMUN,"KURMUN GP, BALGONA, BURDWAN, KALITALA PANCHAYAT ROAD, HATTALA DURGA MANDIR, BARDHAMAN, WEST BENGAL, PIN 713407",BARDHAMAN,BURDWAN,WEST BENGAL,66090909
710,BANDHAN BANK LIMITED,BDBL0001719,JIKODDA,"VILL-KRISHNANAGAR,PO MAHURA DIST-BIRBHUM,WEST BENGAL,PIN-731216",BIRBHUM,SHATINIKETAN,WEST BENGAL,66090909
711,BANDHAN BANK LIMITED,BDBL0001720,HATISHALA,"P O-HATISHALA,PS-KOLKATA LEATHER COMPLEX DIST SOUTH24 PARGANAS,WEST BENGAL PIN 700135",SOUTH24 PARGANAS,BARASAT,WEST BENGAL,66090909
712,BANDHAN BANK LIMITED,BDBL0001721,GORABAZAR,"GROUND FLOOR, 39/1 POST OFFICE ROAD, DUM DUM, NORTH 24 PARGANAS, WEST BENGAL, PIN-700028",NORTH 24 PARGANAS,BARASAT,WEST BENGAL,66090909
713,BANDHAN BANK LIMITED,BDBL0001722,ASOKNAGAR,"BUILDING MORE,ASOKNAGAR,PO ASOKNAGAR,DIST NORTH 24 PARGANAS,WEST BENGAL,PIN 743222",NORTH 24 PARGANAS,KOLKATA,WEST BENGAL,66090909
714,BANDHAN BANK LIMITED,BDBL0001723,MAHMOORGANJ,"GROUND FLOOR, B 37/117-H, BLOCK-B, SHAPURI HEIGHTS,MAHMOORGANJ,VARANASI,UTTAR PRADESH, PIN-221010",VARANASI,VARANASI,UTTAR PRADESH,66090909
715,BANDHAN BANK LIMITED,BDBL0001724,SHYAMAL CROSS ROAD,"GR. FLOOR, 22,23 AND 24, THE GRAND MONARCH COMPLEX, ANAND NAGAR ROAD, SATELLITE, AHMEDABAD, GUJARAT, PIN-380015",AHMEDABAD,VADODARA,GUJARAT,66090909
716,BANDHAN BANK LIMITED,BDBL0001725,ADAJAN,"GROUND FLOOR SHOP NO 1 TO 6 OM SHOPPING COMPLEX, OPP PRIME ARCADE ANAND MAHAL ROAD, ADAJAN, SURAT, GUJARAT-395009",SURAT,VADODARA,GUJARAT,66090909
717,BANDHAN BANK LIMITED,BDBL0001726,DWARKA,"PLOT NO 48, SEC 12B, DWARKA, NEW DELHI, PIN-110075",SOUTH WEST DELHI,DELHI,DELHI,66090909
718,BANDHAN BANK LIMITED,BDBL0001727,GREATER KAILASH,"19-GROUND FLOOR,KAILASH ENCLAVE,NEAR EAST OF KAILASH METRO STATION IN FORNT OF PILLAR NO 76,SOUTH DELHI, DELHI,PIN-110048",SOUTH DELHI,DELHI,DELHI,66090909
719,BANDHAN BANK LIMITED,BDBL0001728,JANAKPURI,"GROUND FLOOR,BLOCK A3, HOUSE NO34,JANKPURI,NEW DELHI,DELHI,PIN-110058",WEST DELHI,NEW DELHI,DELHI,66090909
720,BANDHAN BANK LIMITED,BDBL0001729,GREATER NOIDA,"KASANA TOWERS,B 1,ALPHA COMMERCIAL BUILDING,GROUND AND FIRST FLOOR,ALPHA 1 GREATER NOIDA,UTTAR PRADESH,PIN 201308",GAUTAM BUDDHA NAGAR,GREATER NOIDA,UTTAR PRADESH,66090909
721,BANDHAN BANK LIMITED,BDBL0001730,JAMMU,"SHOP NO 2 GROUND AND FIRST FLOOR,NEW K.C COMPLEX,RESIDENCY ROAD, JAMMU,JAMMU AND KASHIMR,PIN-180001",JAMMU,DELHI,JAMMU AND KASHMIR,66090909
722,BANDHAN BANK LIMITED,BDBL0001731,SHIMLA,"FRIST FLOOR,CHHAJTA HEIGHTS,SANJAULI CHOWK,SHIMLA,HIMACHAL PARDESH PIN-1710006",SHIMLA,CHANDIGARH,HIMACHAL PRADESH,66090909
723,BANDHAN BANK LIMITED,BDBL0001732,BALIGUDA,"GROUND FLOOR,PO VILL-CHAKULIYA,NORTH DINAJPUR,WEST BENGAL,PIN-733211",NORTH DINAJPUR,KOLKATA,WEST BENGAL,66090909
724,BANDHAN BANK LIMITED,BDBL0001733,TEPAGAON,"GROUND FLOOR,VILL TEPAGAON,PO DASPARA,NORTH DINAJPUR,WEST BENGAL,PIN-733206",NORTH DINAJPUR,KOLKATA,WEST BENGAL,66090909
725,BANDHAN BANK LIMITED,BDBL0001734,COIMBATORE,"GROUND FLOOR,SRINIVASA TOWERS,45 DR.RAJENDRA PRASAD ROAD,100 FEET ROAD,GANDHIPURAM,COIMBATORE,TAMILNADU PIN-641012",COIMBATORE,CHENNAI,TAMIL NADU,66090909
726,BANDHAN BANK LIMITED,BDBL0001735,EGARA,"COMMUNITY HALL,CHOWMATHA,NEWEGARA,LAND MARK KALI MONDIR, PS- RANIGANJ, DIST-BARDHAMAN, WEST BENGAL, PIN- 713323",BARDHAMAN,BURDWAN,WEST BENGAL,66090909
727,BANDHAN BANK LIMITED,BDBL0001736,KALIKAPUR,"GROUND FLOOR&FRIST FLOOR,1188/A/1,PURBACHAL MAIN ROAD,KOLKATA,PS-GARFA,WESTBENGAL,PIN-700078",KOLKATA,KOLKATA,WEST BENGAL,66090909
728,BANDHAN BANK LIMITED,BDBL0001737,BORJORA,"FIRST FLOOR, VILL PO-BARJORA, DIST-BANKURA, WEST BENGAL,PIN-722202",BARDHAMAN,BURDWAN,WEST BENGAL,66090909
729,BANDHAN BANK LIMITED,BDBL0001738,CHAKDAHA,"CHAKDAHA,LALPUR,NEAR NABIN SANGHA,PO - CHAKDAHA,PS - CHAKDAHA,DISTRICT - NADIA,WEST BENGAL,PIN-741222",NADIA,KRISHNANAGAR,WEST BENGAL,66090909
730,BANDHAN BANK LIMITED,BDBL0001739,KOHIMA,"ANGAMI PUBLIC ORGANISATION BUILDING,PHULBARI,OPPOSITE OKING HOSPITAL,KOHIMA,NAGALAND,PIN-797001",KOHIMA,NAGAON,NAGALAND,66090909
731,BANDHAN BANK LIMITED,BDBL0001740,ROHINI,"GROUND FLOOR,BLOCK A,UNIT NO 25,NORTH EX MALL,SECTOR 09,ROHINI,DELHI 110085",WEST DELHI,DELHI,DELHI,66090909
732,BANDHAN BANK LIMITED,BDBL0001741,ALIGARH,"PLOT NO 2,494,PATELMARG,RAMGHATRAD,ALIGARH,UTTARRADESH,IN202001",ALIGARH,MORADABAD,UTTAR PRADESH,66090909
733,BANDHAN BANK LIMITED,BDBL0001742,AZAMGARH,"312-2,PANDIT DEEN DAYAL CHOWK CIVIL LINES,AZAMGARH,KOTWALI-AZAMGARH,UTTAR PRADESH,PIN-276001",AZAMGARH,VARANASI,UTTAR PRADESH,66090909
734,BANDHAN BANK LIMITED,BDBL0001743,AGRA,"4/S-118/8,MARUTI TOWER,SANJAY PLACE,AGRA,PS-HARI PARVAT,UTTAR PRADESH.PIN-282003",AGRA,MORADABAD,UTTAR PRADESH,66090909
735,BANDHAN BANK LIMITED,BDBL0001744,DULIAJAN,"T.M TOWER GROUND FLOOR,STATION ROAD,DAILY BAZAR,DULIAJAN,DIST-DIBRUGARH,ASSAM,PIN-786602",DIBRUGARH,JORHAT,ASSAM,66090909
736,BANDHAN BANK LIMITED,BDBL0001745,MAIN ROAD,"GROUND FLOOR,BLOCK-B,UNIT II,CITADEL,BESIDE ICICI BANK,MAINROAD,RANCHI,JHARKHAND,PIN-834001",RANCHI,RANCHI,JHARKHAND,66090909
737,BANDHAN BANK LIMITED,BDBL0001746,SAMBALPUR,"SHOP NO 101,104 AND 105,SAHEJ PLAZA,GOLE BAZAR,GAIETY ROAD,SAMBALPUR,ODISHA,PIN-768001",SAMBALPUR,SAMBALPUR,ODISHA,66090909
738,BANDHAN BANK LIMITED,BDBL0001747,JHARSUGUDA,"UPPER GROUNDFLOOR,SHREEJI CITY COMPLEX,NEAR DURGA MANDIR,BEHERAMALL,JHARSUGUDA.ODISHA,PIN-768203",JHARSUGUDA,JHARSUGUDA,ODISHA,66090909
739,BANDHAN BANK LIMITED,BDBL0001748,JHARGRAM,"RAGHUNATHPUR,MAIN ROAD,PS-JHARGRAM,WEST BENGAL,PIN721507",WEST MIDNAPORE,MIDNAPORE,WEST BENGAL,66090909
740,BANDHAN BANK LIMITED,BDBL0001749,DHAKURIA,"14 B,GARIAHAT ROAD S,NEXT TO STATE BANK OF INDIA,PS LAKE PS,KOLKATA,WEST BENGAL,PIN 700031",KOLKATA,KOLKATA,WEST BENGAL,66090909
741,BANDHAN BANK LIMITED,BDBL0001750,MALLESWARAM,"GROUND FLOOR,NO 223,G.R ARCAADE,SAMPIGEROAD,14TH CROSS,MALLESWARAM,BANGALORA,KARNATAKA,PIN-560003.",BANGALORE URBAN,BANGALORE,KARNATAKA,66090909
742,BANDHAN BANK LIMITED,BDBL0001751,CHANDRA LAYOUT,"UJJINI PEGASUS,1557,8TH CROSS CHANDRA LAYOUT,BANGALORE,KARNATAKA,PIN-560041",BANGALORE URBAN,BANGALORE,KARNATAKA,66090909
743,BANDHAN BANK LIMITED,BDBL0001752,THRISSUR,"GROUND FLOOR,SREE LAXMI BUIDING,SHORNUR ROAD,PO-THIRUVAMBODY,THRISSUR,KERALA,PIN-680022",THRISSUR,CHENNAI,KERALA,66090909
744,BANDHAN BANK LIMITED,BDBL0001753,ANNA NAGAR,"NEW NO-Q60,OLD NO-Q99,THIRD AVENUE,Q BLOCK,ANNA NAGAR,CHENNAI,TAMILNADU,PIN-600040",CHENNAI,CHENNAI,TAMIL NADU,66090909
745,BANDHAN BANK LIMITED,BDBL0001754,SILVASSA,"GRFLOOR,SHOPNO-20,21,85 AND 86.LANDMARK-BULDING-A2 SRNO-1/2/2.TOKARKHADA,SILVASSA,DADRA AND NAGAR HAVELI,GUJARAT,PIN-396230",DADRA AND NAGAR HAVELI,VADODARA,GUJARAT,66090909
746,BANDHAN BANK LIMITED,BDBL0001755,VALLABH VIDYANAGAR,"INAMDAR HOUSE,OPP BHAIKAKA STATUE,NEAR ICICI BANK,MOTA BAZAR,VALLABH VIDYA NAGAR,DIST ANAND,GUJARAT,PIN 388120",ANAND,ANAND,GUJARAT,66090909
747,BANDHAN BANK LIMITED,BDBL0001756,PIMPRI CHINCHWAD,"CST NO-3187,S NO-186,SHOP NO-11,12,15,16,17,18,19,20,GOKHALE PLAZA,OPP RAMAKRISHAN MORE,NATYAGRUH CHINCHWAD,PUNE,MAHARASHTRA,PIN-411033",PUNE,PUNE,MAHARASHTRA,66090909
748,BANDHAN BANK LIMITED,BDBL0001757,LODNA,"COMMUNITY HALL,LODNA GP BUILDING,VILL KAPSIT,PO KHANDOGHOSH,DIST BURDWAN,WEST BENGAL,PIN 713142",BARDHAMAN,BURDWAN,WEST BENGAL,66090909
749,BANDHAN BANK LIMITED,BDBL0001758,RAMPURHAT,"305/905,NEAR NEW BUS STAND,PO - RAMPURHAT,PS - RAMPURHAT,DISTRICT - BIRBHUM,WEST BENGAL,PIN-731224",BIRBHUM,SHANTINIKETAN,WEST BENGAL,66090909
750,BANDHAN BANK LIMITED,BDBL0001759,"KADAMTALA ,PANCHANANTALA","GROUND FLOOR,56,60/1,KANTAPUKUR 3RD BYE LANE,BANTRA,HOWRAH,WEST BENGAL,PIN - 711101",HOWRAH,HOWRAH,WEST BENGAL,66090909
751,BANDHAN BANK LIMITED,BDBL0001760,KHARDAHA,"HEMMANSION,27/16,IC ROAD,RAHARA,KHARDAHA,PO-RAHARA.PS-KHARDAHA,WESTBENGAL,PIN-700118",NORTH24PRAGANAS,BARASAT,WEST BENGAL,66090909
752,BANDHAN BANK LIMITED,BDBL0001761,BHUJ,"M.B BHAGAT COMPLEX,LAL TEKRY,BHUJ-KUTCH,GUJARAT,PIN-370001",KACHCHH,VADODARA,GUJARAT,66090909
753,BANDHAN BANK LIMITED,BDBL0001762,KOTHRUD,"GROUND & MEZZANINE FLOOR,SURVEY NO.1/2,DHANUKAR COLONY ROAD, KOTHRUD,PUNE,MAHARASHTRA,PIN-411038",PUNE,PUNE,MAHARASHTRA,66090909
754,BANDHAN BANK LIMITED,BDBL0001763,BHILAI,"GROUND FLOOR, SHIVNATH COMPLEX, PLOT NO -32, G.E.ROAD, SUPELA, BHILAI, CHHATTISGARH, PIN-490023",DURG,RAIPUR,CHHATTISGARH,66090909
755,BANDHAN BANK LIMITED,BDBL0001764,SAGAR,"H.NO-18,KALI TIGADDA,GOPALGANJ,SAGAR MADHYA PRADESH,PIN 470001",SAGAR,SAGAR,MADHYA PRADESH,66090909
756,BANDHAN BANK LIMITED,BDBL0001765,GWALIOR,"GROUND FLOOR,THE EMPIRE,G-2,33-CITY CENTRE,GWALIOR,MADHYA PRADESH,PIN-474011",GWALIOR,INDORE,MADHYA PRADESH,66090909
757,BANDHAN BANK LIMITED,BDBL0001766,DEORIA,"BARHAJ ROAD,NEAR AXIS BANK,P.S.KOTWALI,DEORIA,UTTAR PRADESH,PIN 274001",DEORIA,DEORIA,UTTAR PRADESH,66090909
758,BANDHAN BANK LIMITED,BDBL0001767,G. S. ROAD,"FIRST FLOOR,BIBEKANANDA COMPLEX,F-02,G.S ROAD,OPP.RAJIV BHAWAN,BHANGAGARH,GUWAHATI,ASSAM,PIN-781005",KAMRUP,GUWAHATI,ASSAM,66090909
759,BANDHAN BANK LIMITED,BDBL0001768,HATIGAON,"HATIGAON ROAD,NEAR HATIGAON POLICE STATION,DIST - KAMRUP,ASSAM,PIN - 781038","KAMRUP,METRO",GUWAHATI,ASSAM,66090909
760,BANDHAN BANK LIMITED,BDBL0001769,SURVEY,"FIRST FLOOR,A G TOWER,BASISTHA BELTOLA ROAD,DISPUR,ASSAM,PIN 781006",KAMRUP,GUWAHATI,ASSAM,66090909
761,BANDHAN BANK LIMITED,BDBL0001770,ROURKELA,"SAHEJ SUCCESS,GROUND FLOOR,NEAR NEW COURT,UDIT NAGAR,PS UDIT NAGAR,DIST-SUNDARGARH,ROURKELA,ODISHA,PIN 769012",SUNDARGARH,SUNDARGARH,ODISHA,66090909
762,BANDHAN BANK LIMITED,BDBL0001771,MOKDUMPUR,"11,11,10 B D G ROAD,WARD NO 8,PO MOKDUMPUR,PS ENGLISH BAZAR,DISTRICT MALDA,WEST BENGAL,PIN 732101",MALDA,MALDA,WEST BENGAL,66090909
763,BANDHAN BANK LIMITED,BDBL0001772,BALLY,"50,GHOSES LANE,BELURMATH,PS-BALLY,HOWRAH,WEST BENGAL-711202",HOWRAH,HOWRAH,WEST BENGAL,66090909
764,BANDHAN BANK LIMITED,BDBL0001773,DAKSHINESWAR,"1,RAMKRISHNA PARAMHANSADEB ROAD,DAKSHINESWAR,KOLKATA,WEST BENGAL,PIN-700035",KOLKATA,BARASAT,WEST BENGAL,66090909
765,BANDHAN BANK LIMITED,BDBL0001774,LAJPATH NAGAR,"B-25,LAJPAT NAGAR-II,NEW DELHI,PIN-110024",SOUTH DELHI,DELHI,DELHI,66090909
766,BANDHAN BANK LIMITED,BDBL0001775,MAYUR VIHAR,"P 9 AND P 10,PANDAV NAGAR,MAYUR VIHAR,PHASE 1,NEW DELHI 110091",EAST DELHI,DELHI,DELHI,66090909
767,BANDHAN BANK LIMITED,BDBL0001776,MODEL TOWN,"HOUSE NO.9 BLOCK -B,GUJRANWALA TOWN PART 1,NEAR MODEL TOWN METRO STATION,MODEL TOWN,NEW DELHI,PIN 110009",NORTH WEST DELHI,DELHI,DELHI,66090909
768,BANDHAN BANK LIMITED,BDBL0001777,PUNJABI BAGH,"GROUND FLOOR,PLOT NO 56,ROAD NO 43,NEAR CENTRAL MARKET,PUNJABI BAGH,NEW DELHI 110026",WEST DELHI,DELHI,DELHI,66090909
769,BANDHAN BANK LIMITED,BDBL0001778,VASANT KUNJ,"PAWA PRESIDENTIAL BUSINESS PARK,TOWER NO6,LSC,C9,VASANT KUNJ ,NEW DELHI, PIN 110070",SOUTH WEST DELHI,SOUTH WEST DELHI,DELHI,66090909
770,BANDHAN BANK LIMITED,BDBL0001779,FARIDABAD,"GROUND FLOOR, SCO-32, SECTOR 16, HUDA MARKET, FARIDABAD, HARYANA, PIN-121002",FARIDABAD,FARIDABAD,HARYANA,66090909
771,BANDHAN BANK LIMITED,BDBL0001780,PANCHKULA URBAN ESTATE,"SCO 51,SECTOR 11,PANCHKULA,HARYANA,PIN 134109",PANCHKULA,PANCHKULA,HARYANA,66090909
772,BANDHAN BANK LIMITED,BDBL0001781,YAMUNANAGAR,"GROUND FLOOR,GANPATI BUILDING,YAMUNANAGAR MAIN ROAD,OPP HOTEL MADHU,YAMUNANAGAR,HARYANA,PIN 135001",YAMUNANAGAR,YAMUNANAGAR,HARYANA,66090909
773,BANDHAN BANK LIMITED,BDBL0001782,PHAGWARA,"HANDA CITY CENTRE,OPPOSITE BUS STAND,G.T.ROAD,PHAGWARA,PUNJAB,PIN 144401",KAPURTHALA,KAPURTHALA,PUNJAB,66090909
774,BANDHAN BANK LIMITED,BDBL0001783,HOSHIARPUR,"UNIT NO.UGF-1 AND UNIT NO.F.F.1A,THE MALL COMPLEX SUTEHRI ROAD,HOSHIARPUR,PUNJAB,PIN 146001",HOSHIARPUR,HOSHIARPUR,PUNJAB,66090909
775,BANDHAN BANK LIMITED,BDBL0001784,GURDASPUR,"GROUND FLOOR,HOUSH NO - 646/7,TIBRI ROAD,PO - GURDASPUR,GURDASPUR,PUNJAB,PIN 143521",GURDASPUR,GURDASPUR,PUNJAB,66090909
776,BANDHAN BANK LIMITED,BDBL0001785,HUBBALLI,"SATELLITE COMPLEX,SHOP NO A1,A2,A3,A4,KOPPIKAR ROAD,HUBLI,DHARWAD,KARNATAKA,PIN 580020",DHARWAD,BANGALORE,KARNATAKA,66090909
777,BANDHAN BANK LIMITED,BDBL0001786,BASAVANAGUDI,"NO-52,SUBBRAM SHETTY ROAD,NETKALLAPA CIRCLE,BASAVANAGUDI,BANGALORE,KARNATAKA,PIN-560004",BANGALORE URBAN,BANGALORE,KARNATAKA,66090909
778,BANDHAN BANK LIMITED,BDBL0001787,AUNDH,"LOTUS COURT 127,1,7,OFF ITI ROAD,OPP HOTEL SARJA,ANUDH,PUNE,MAHARASHTRA,PIN 411007",PUNE,PUNE,MAHARASHTRA,66090909
779,BANDHAN BANK LIMITED,BDBL0001788,LILUAH,"GROUND FLOOR,265/A/2 G T ROAD,LILUAH,BALLY,HOWRAH,WEST BENGAL,PIN -711204",HOWRAH,HOWRAH,WEST BENGAL,66090909
780,BANDHAN BANK LIMITED,BDBL0001789,KATWA,"27/1 CIRCUS MAIDAN KATWA,LANDMARK ABHINAV CLOTHING SHOP,PS-KATWA,DISTRICT-BARDHAMAN,WEST BENGAL,PIN - 713130",BARDHAMAN,BURDWAN,WEST BENGAL,66090909
781,BANDHAN BANK LIMITED,BDBL0001790,KOTTAYAM,"GROUND FLOOR,CENTURY TOWERS,NEAR YMCA,MC ROAD KOTTAYAM,KOTTAYAM WEST,KERALA,PIN 686001",KOTTAYAM,KOTTAYAM,KERALA,66090909
782,BANDHAN BANK LIMITED,BDBL0001791,PUDUCHERRY,"315,MMA SALAI,NALLITHOPPU,DIST PUDUCHERRY,PUDUCHERRY,PIN 605005",PUDUCHERRY,PUDUCHERRY,PUDUCHERRY,66090909
783,BANDHAN BANK LIMITED,BDBL0001792,MADURAI,"DOOR NO 38,1,GROUND AND FIRST FLOOR,SRI LAKSHMI NIVAS,KRISHNA RAO TANK STREET,MADURAI,TAMILNADU,PIN 625001",MADURAI,CHENNAI,TAMIL NADU,66090909
784,BANDHAN BANK LIMITED,BDBL0001793,CHANDPUR,"GROUND FLOOR,VILL AND PO-CHANDPUR,PS-NOWDA,DIST-MURSHIDABAD,PIN-742121",MURSHIDABAD,BERHAMPORE,WEST BENGAL,66090909
785,BANDHAN BANK LIMITED,BDBL0001794,HIJOL,"GROUND FLOOR,VILL AND PO-NATUNGRAM,PS-KANDI,DIST-MURSHIDABAD,WESTBENGAL,PIN-742140",MURSHIDABAD,BERHAMPORE,WEST BENGAL,66090909
786,BANDHAN BANK LIMITED,BDBL0001795,BHARATPUR,"BHARATPUR GRAM PANCHAYET,P O BOULASINI,PS DEBRA,DIST WEST MEDINIPUR,WEST BENGAL,PIN 721156",WEST MIDNAPORE,MIDNAPORE,WEST BENGAL,66090909
787,BANDHAN BANK LIMITED,BDBL0001796,DILSUKHNAGAR,"11-9-7/A/1 LAXMI NAGAR,NAGOLE ROAD,SAROOR NAGAR,HYDERABAD,RANGA REDDY,TELANGANA,PIN 500035",RANGA REDDY,RANGA REDDY,TELANGANA,66090909
788,BANDHAN BANK LIMITED,BDBL0001797,MYSURU,"FIRST FLOOR,NO.2767,NEW NO D 4,TEMPLE ROAD,VANI VILAS MOHALLA,MYSORE,KARNATAKA,PIN 570002",MYSORE,BANGALORE,KARNATAKA,66090909
789,BANDHAN BANK LIMITED,BDBL0001798,BURNPUR,"GROUND FLOOR AND FIRST FLOOR,24 STATION ROAD,BURNPUR,PS HIRAPUR,DIST BARDHAMAN,WEST BENGAL,PIN 713325",BARDHAMAN,BURDWAN,WEST BENGAL,66090909
790,BANDHAN BANK LIMITED,BDBL0001799,CHANDNI CHOWK,"GROUND FLOOR,BILDING NO.235,FATEPURI,CHANDNI CHOWK,DELHI,PIN-110006",NEW DELHI,DELHI,DELHI,66090909
791,BANDHAN BANK LIMITED,BDBL0001800,UDUPI,"ROYAL AVENUE,OLD POST OFFICE ROAD,DIANA CIRCLE,UDUPI,DIST - UDUPI,KARNATAKA,PIN.576101",UDIPI,UDIPI,KARNATAKA,66090909
792,BANDHAN BANK LIMITED,BDBL0001801,KOLLAM,"CHIRAYIL TOWER,RESIDENCY ROAD,PO-KADAPPAKADA,KOLLAM,KERLA,PIN-691008",KOLLAM,KOLLAM,KERALA,66090909
793,BANDHAN BANK LIMITED,BDBL0001802,THIRUVALLA,"CHERIANS BULDING,CROSS JUNCTION,THIRUVALLA,PATHANAMTHITTA,KERALA,PIN-689101",PATHANAMTHITTA,PATHANAMTHITTA,KERALA,66090909
794,BANDHAN BANK LIMITED,BDBL0001803,PANAJI,"OFF 18TH JUNE ROAD,NEAR MATHIAS PLAZA,PANAJI,NORTH GOA,GOA,PIN 403001",NORTH GOA,PANAJI,GOA,66090909
795,BANDHAN BANK LIMITED,BDBL0001804,MARGAO,"SHOP NO 4,5,6,PACHECOS LOTUS CITY CENTRE,BEHIND MARGAON POLICE STATION,MARGAON,SOUTH GOA,GOA,PIN 403601",SOUTH GOA,MARGAO,GOA,66090909
796,BANDHAN BANK LIMITED,BDBL0001805,GANDHIDHAM,"SONA TOWER,PLOT NO.254,WARD - 10/B,GANDHIDHAM,KACHCHH,GUJRAT,PIN-370201",KACHCHH,VADODARA,GUJARAT,66090909
797,BANDHAN BANK LIMITED,BDBL0001806,PORBANDAR,"KUSUM VATIKA RAILWAY STATION ROAD,NEAR ANANAD HOSPITAL,PORBANDAR,GUJARAT,PIN - 360575",PORBANDAR,VADODARA,GUJARAT,66090909
798,BANDHAN BANK LIMITED,BDBL0001807,ULHASNAGAR,"MURLIWALA COMPLEX,KALYAN-AMBERNATH ROAD,SHIVAJI CHOWK,NEAR ASHOK ANIL THEATRE,ULHASNAGAR,DIST.-THANE,MAHARASHTRA,PIN-421003",THANE,THANE,MAHARASHTRA,66090909
799,BANDHAN BANK LIMITED,BDBL0001808,DHARAVI,"GROUND FLOOR,UNIT NO-12& 13,SUBHASH CHANDRA BOSE CHS,OPP-ONGC 11/HIGH,SION BANDRA LINK ROAD,DHARAVI,MUMBAI,MAHARASHTRA,PIN-400017",MUMBAI,MUMBAI,MAHARASHTRA,66090909
800,BANDHAN BANK LIMITED,BDBL0001809,GHATKOPAR,"SHOP NO-1& 2 TRIKAL,BUILDING NO.309,90 FT ROAD,GHATKOPAR-EAST,MUMBAI,MAHARASHTRA,PIN-400077",MUMBAI,MUMBAI,MAHARASHTRA,66090909
801,BANDHAN BANK LIMITED,BDBL0001810,BASAVESHWARNAGAR,"106,BHIMAJYOTHI HOUSING SOCIETY LTD,WEST OF CHORD ROAD,BASAVESHWARNAGAR,NEAR SHANKAR MUTT,BANGALORE,KARNATAKA,PIN 560079",BANGALORE URBAN,BANGALORE,KARNATAKA,66090909
802,BANDHAN BANK LIMITED,BDBL0001811,BALADIA,"REVENUE SUR NO.282,PLOT NO.3,OPP.BANK OF INDIA,AT.BALADIA,BHUJ,DIST.-KUTCH,GUJARAT,PIN-370427",KACHCHH,KACHCHH,GUJARAT,66090909
803,BANDHAN BANK LIMITED,BDBL0001812,GURUR,"GURUR GRAM PANCHAYET,PO - HETYAKOLE,PS BUNDWAN,DIST - PURULIA,WEST BENGAL,PIN - 723129",PURULIA,PURULIA,WEST BENGAL,66090909
804,BANDHAN BANK LIMITED,BDBL0001813,DHADKA,"DHADKA GRAM PANCHAYET,PO DHADKA,P.S BUNDWAN,DIST PURULIA,PIN 723129",PURULIA,MIDNAPORE,WEST BENGAL,66090909
805,BANDHAN BANK LIMITED,BDBL0001814,DAK BUNGLOW,"PATNA MALL,1ST FLOOR,NEAR DAK BUNGLOW CHAURAHA,KOTWALI,PATNA,BIHAR,PIN 800001",PATNA,PATNA,BIHAR,66090909
806,BANDHAN BANK LIMITED,BDBL0001815,JABALPUR,"990/991,OPP -D.N.JAIN COLLEGE,WRIGHT TOWN,JABALPUR,MADHYA PRADESH,PIN-482002",JABALPUR,JABALPUR,MADHYA PRADESH,66090909
807,BANDHAN BANK LIMITED,BDBL0001816,GHAZIABAD,"ORANGE COURT SQUARE,UPPER GROUND FLOOR,SHOP NO 25/26,INDIRAPURAM,GHAZIABAD,UTTARPRADESH,PIN-201014",GHAZIABAD,GHAZIABAD,RAJASTHAN,66090909
808,BANDHAN BANK LIMITED,BDBL0001817,SIBSAGAR,"SANKARLAL AGARWALLA,TEMPLE ROAD,SIBSAGAR,WARD NO-12,SIBSAGAR,ASSAM,PIN 785640",SIBSAGAR,SIBSAGAR,ASSAM,66090909
809,BANDHAN BANK LIMITED,BDBL0001818,SASARAM,"J.P.S.BUILDING OLD GT ROAD,NEAR SAHU TALKIES,SARARAM,SASARAM,ROHTAS,BIHAR,PIN 821115",ROHTAS,ROHTAS,BIHAR,66090909
810,BANDHAN BANK LIMITED,BDBL0001819,DALTONGANJ,"MAHENDRA ARCADE,POST OFFICE ROAD,ZILA SCHOOL CHOWK,DALTONGANJ,PALAMU,JHARKHAND,PIN 822101",PALAMU,PALAMU,JHARKHAND,66090909
811,BANDHAN BANK LIMITED,BDBL0001820,DUMKA,"BHAGALPUR ROAD,DUDHANI,DUMKA,JHARKHAND,PIN - 814101",DUMKA,DUMKA,JHARKHAND,66090909
812,BANDHAN BANK LIMITED,BDBL0001821,SARAIDHELA,"SWASTIKA COMPLEX,NEAR PRAGATI NURSING HOME,MAIN ROAD,SARAIDHELA,DHANBAD,JHARKHAND,PIN 828127",DHANBAD,DHANBAD,JHARKHAND,66090909
813,BANDHAN BANK LIMITED,BDBL0001822,TOPSIA,"TIRUMALA 22,EAST TOPSIA ROAD,KOLKATA,PS-TILJALA,WEST BENGAL,PIN-700046",KOLKATA,KOLKATA,WEST BENGAL,66090909
814,BANDHAN BANK LIMITED,BDBL0001823,SINTHEE,"24 A,KALICHARAN GHOSH ROAD,PO-SINTHEE,PS -SINTHEE,KOLKATA,WEST BENGAL,PIN-700050",KOLKATA,KOLKATA,WEST BENGAL,66090909
815,BANDHAN BANK LIMITED,BDBL0001824,DOMJUR,"DOMJUR HOUSE,VILL AND PO DAKSHIN JHAPARDAHA,LAND MARK DOMJUR BAZAR,DIST HOWRAH,WEST BENGAL,PIN 711405",HOWRAH,HOWRAH,WEST BENGAL,66090909
816,BANDHAN BANK LIMITED,BDBL0001825,ROHTAK,"GROUND FLOOR,ANAND PLAZA,DELHI ROAD,ROHTAK,HARYANA,PIN-124001",ROHTAK,ROHTAK,HARYANA,66090909
817,BANDHAN BANK LIMITED,BDBL0001826,HISAR,"SCF,39,URBAN ESTATE-II,HISAR,HARYANA,PIN 125001",HISAR,HISAR,HARYANA,66090909
818,BANDHAN BANK LIMITED,BDBL0001827,DHARMSALA,"GROUND FLOOR AND FIRST FLOOR,OBC BANK BUILDING,KATWALI BAZAR,DHARAMSHALA,HIMACHAL PRADESH,PIN 176215",KANGRA,KANGRA,HIMACHAL PRADESH,66090909
819,BANDHAN BANK LIMITED,BDBL0001828,SAS NAGAR MOHALI,"GROUND FLOOR AND FIRST FLOOR,SCF-11,PHASE-3 B 2,SECTOR-60,MOHALI,PUNJAB,PIN 160059",SAHIBZADA AJIT SINGH NAGAR,SAHIBZADA AJIT SINGH NAGAR,PUNJAB,66090909
820,BANDHAN BANK LIMITED,BDBL0001829,NAKODAR,"GROUND FLOOR,SHANKAR ROAD,OPPOSITE-ARYA SCHOOL,NAKODAR,DIST-JALANDHAR,PUNJAB,PIN-144040",JALANDHAR,JALANDHAR,PUNJAB,66090909
821,BANDHAN BANK LIMITED,BDBL0001830,KAPURTHALA,"SCF-13& 14 C,NEXT TO LONDON HOTEL,SULTANPUR ROAD,KAPURTHALA,PUNJAB-144601",KAPURTHALA,KAPURTHALA,PUNJAB,66090909
822,BANDHAN BANK LIMITED,BDBL0001831,MOGA,"KHASRA NO-2467-2471,KHEVAT NO-555,GT ROAD,OPP - NEW GRAIN MARKET,MOGA,PUNJAB,PIN-142001",MOGA,MOGA,PUNJAB,66090909
823,BANDHAN BANK LIMITED,BDBL0001832,VIJAYAWADA,"D.NO-32-22-7,R-3,NO-151,N.T. HANUMAN STREET,SHIVALAYAN STREET,SATYANARYANPURA,VIJAYWADA,PIN-520011",KRISHNA,VIJAYAWADA,ANDHRA PRADESH,66090909
824,BANDHAN BANK LIMITED,BDBL0001833,MANGALURU,"GROUND FLOOR,EXCEL MISCHIEF MALL,K S RAO ROAD,MANGALORE,KARNATAKA,PIN-575001",DAKSHIN KANNAD,DAKSHIN KANNAD,KARNATAKA,66090909
825,BANDHAN BANK LIMITED,BDBL0001834,WHITEFIELD,"GROUND FLOOR,UNIT-G2/2,ANMOLCARLSON COURT,NO1,WHITEFIELD,MAIN ROAD,BANGALORE,KARNATAKA,PIN-560066",BANGALORE URBAN,BANGALORE,KARNATAKA,66090909
826,BANDHAN BANK LIMITED,BDBL0001835,VELLORE,"18 B/OLD NO,71/NEW NO,ANNA SALAI,VELLORE,TAMILNADU,PIN 632001",VELLORE,VELLORE,TAMIL NADU,66090909
827,BANDHAN BANK LIMITED,BDBL0001836,RAJKOT,"GROUND FLOOR,MAKER1,JAWAHAR MAIN ROAD,NEAR GALAXY HOTEL,RAJKOT,GUJARAT,PIN 360001",RAJKOT,RAJKOT,GUJARAT,66090909
828,BANDHAN BANK LIMITED,BDBL0001837,NADIAD,"SHOP NO 1 AND 2,BEVERLY ARCADE,NR.MAHA GUJARAT CIRCLE COLLEGE ROAD,NADIAD,KHEDA,GUJARAT,PIN 387001",KHEDA,KHEDA,GUJARAT,66090909
829,BANDHAN BANK LIMITED,BDBL0001838,BORIVALI,"GROUND FLOOR,TIARA,OFF CHANDAVARKAR LANE,OFF I T ROAD,MAHARASTRA LANE,BORIVALI WEST,MUMBAI,MAHARASTRA,PIN 400092",MUMBAI,MUMBAI,MAHARASHTRA,66090909
830,BANDHAN BANK LIMITED,BDBL0001839,LOBA,"TARULIYA MORE,LOBA GRAM PANCHAYAT,PO JHIRUL,PS DUBRAJPUR,DIST-BRIBHUM,WEST BENGAL,PIN-731124",BIRBHUM,BIRBHUM,WEST BENGAL,66090909
831,BANDHAN BANK LIMITED,BDBL0001840,CHURAMANIPUR,"CHURAMANIPUR GRAM PANCHAYAT,VILL - BHULANPUR,PO-JAMGURI,PS-ONDA,BANKURA,WEST BENGAL,PIN 722144",BANKURA,BANKURA,WEST BENGAL,66090909
832,BANDHAN BANK LIMITED,BDBL0001841,ADYAAR,"GROUND FLOOR,122 KAMRAJ AVENUE,2ND STREET,ADYAR,CHENNAI,TAMILNADU,PIN -600020",CHENNAI,CHENNAI,TAMIL NADU,66090909
833,BANDHAN BANK LIMITED,BDBL0001842,JAIPURC-SCHEME,"GROUND FLOOR,GT GALLERIA,ASHOK MARG,C-SCHEME,JAIPUR,RAJASTHAN,PIN-302001",JAIPUR,JAIPUR,RAJASTHAN,66090909
834,BANDHAN BANK LIMITED,BDBL0001843,CIT ROAD,"GROUND FLOOR AND FIRST FLOOR,P 8,NANIGOPAL ROY CHOUDHURY AVENUE,CIT ROAD,KOLKATA,PIN 700014",KOLKATA,KOLKATA,WEST BENGAL,66090909
835,BANDHAN BANK LIMITED,BDBL0001844,SECUNDERABAD CANTONMENT,"PREMISES NO.10-3-18,ROAD TO TUKURAM GATE,EAST MARADPALLY,SECUNDERABAD,TELANGANA,PIN-500026",RANGA REDDY,SECUNDERABAD,TELANGANA,66090909
836,BANDHAN BANK LIMITED,BDBL0001845,JAUNPUR,"GROUND FLOOR,HOUSE NO 130A,HUSSENABAD,NEAR WAZIDPUR TIRAHA,PS-LINE BAZAR JAUNPUR,UTTAR PRADESH,PIN-222002",KANPUR,LUCKNOW,UTTAR PRADESH,66090909
837,BANDHAN BANK LIMITED,BDBL0001846,ANGUL,"GROUND AND FRIST FLOOR, 147,OM TOWER,SANKAR CINEMA ROAD,NEAR ICICI BANK,ANGUL,DIST-ANGUL,ORISSA,PIN-759122",ANGUL,ANGUL,ODISHA,66090909
838,BANDHAN BANK LIMITED,BDBL0001847,NUNGAMBAKKAM,"NEW NO.48,OLD NO - 151,KODAMBAKKAM HIGH ROAD,NUNGAMBAKKAM,CHENNAI,TAMILNADU,PIN-600034",CHENNAI,CHENNAI,TAMIL NADU,66090909
839,BANDHAN BANK LIMITED,BDBL0001848,MIRA-BHAYANDAR,"G-4,POONAM RESIDENCY,BUILDING NO 97-98 AND 103-104,CO-OPERATIVE HOUSING SOCIETY,SHANTI PARK,MIRA ROAD,THANE,MAHARASHTRA,PIN-401107",THANE,THANE,MAHARASHTRA,66090909
840,BANDHAN BANK LIMITED,BDBL0001849,HINJEWADI,"ALFA,SHOWROOM NO-2,SRNO-18/4,TALUKA MULSHI,HINJEWADI,PUNA,MAHARASHTRA,PIN-411057",PUNE,PUNA,MAHARASHTRA,66090909
841,BANDHAN BANK LIMITED,BDBL0001850,GOREGAON,"GROUND FLOOR,MEZZANINE AND BASEMENT,WALFORT HOUSE,SV ROAD,GOREGAON WEST,MUMBAI,MAHARASHTRA,PIN-400062",MUMBAI,MUMBAI,MAHARASHTRA,66090909
842,BANDHAN BANK LIMITED,BDBL0001851,PANVEL,"SHOP NO.1 AND 4,GROUND AND MEZZAINE FLOOR,SUNDARAM BUILDING,128,MIDDLE CLASS CHSL,OLD PANVEL,DIST.RAIGAD,MAHARASHTRA,PIN-410206",MUMBAI,MUMBAI,MAHARASHTRA,66090909
843,BANDHAN BANK LIMITED,BDBL0001852,RANGIRKHARI,"PUGALIA NIWAS,RANGIRKHARI,OPP-SANJOY MARKET,SILCHAR,PS-SILCHAR,CACHAR,ASSAM,PIN-788005",CACHAR,SILCHAR,ASSAM,66090909
844,BANDHAN BANK LIMITED,BDBL0001853,SILPUKHURI,"G.N.B ROAD,SILPUKHURI,GUWAHATI CLUB,PS-LATASIL,KAMRUP METROPOLITAN,ASSAM,PIN-781003",KAMRUP METROPOLITAN,GUWAHATI,ASSAM,66090909
845,BANDHAN BANK LIMITED,BDBL0001854,ULTADANGA,"P-158,NAZRUL ISLAM AVENUE,KOLKATA,WESTBENGAL,PIN-700054",KOLKATA,KOLKATA,WEST BENGAL,66090909
846,BANDHAN BANK LIMITED,BDBL0001855,SALT LAKE SECTOR II,"AJ-27,SALT LAKE CITY,SECTOR-II,NEAR KATHGOLA ISLAND,BIDHAN NAGAR-EAST,NORTH 24 PARGANAS,WEST BENGAL,PIN - 700091",NORTH 24 PARGANAS,KOLKATA,WEST BENGAL,66090909
847,BANDHAN BANK LIMITED,BDBL0001857,MADHUBANI,"MAIN ROAD,OPP-WATSON HIGH SCHOOL,MADHUBANI,LANDMARK-NORTH OF BAZAR INDIA,BIHAR,PIN-847211",MADHUBANI,MJZAFFARPUR,BIHAR,66090909
848,BANDHAN BANK LIMITED,BDBL0001858,DRIVE IN ROAD,"GROUND FLOOR,ISHWAR COMPLEX,OPP GURUKUL TOWER,DRIVE IN ROAD,AHMEDABAD,GUJARAT,PIN-380052",AHMEDABAD,AHMEDABAD,GUJARAT,66090909
849,BANDHAN BANK LIMITED,BDBL0001859,NIKOL,"GROUND FLOOR NO.4,5,6,GOKUL RESIDENCY,NR.RASPAN ARCADE,NR.BHAKTAI ROAD,OPP.ANDHRA BANK,NIKOL,AHMEDABAD,GUJARAT,PIN - 382350",AHMEDABAD,AHMEDABAD,GUJARAT,66090909
850,BANDHAN BANK LIMITED,BDBL0001860,KARELI BAUG,"HOTEL DASH CONTINENTAL,VIP ROAD,KARELIBAUG,VADODARA,GUJARAT,PIN-390018",VADODARA,SURAT,GUJARAT,66090909
851,BANDHAN BANK LIMITED,BDBL0001861,MEHSANA,"GROUND FLOOR,JIGAR COMPLEX,OPP.MEHSANA URBAN CO-OP BANK,MAHESANA HIGHWAY,NEAR RAJKAMAL PETROL PUMP,MEHSANA,GUJARAT,PIN - 384002",MAHESANA,AHMEDABAD,GUJARAT,66090909
852,BANDHAN BANK LIMITED,BDBL0001862,BHAVNAGAR,"G-1,KRUSHNA DARSHAN,PARIMAL CHOWK,WAGHAWADI ROAD,BHAVNAGAR,GUJARAT,PIN-364002",BHAVNAGAR,AHMEDABAD,GUJARAT,66090909
853,BANDHAN BANK LIMITED,BDBL0001863,YELAHANKA,"805 13TH MAIN,A SECTOR,80 FEET ROAD,YELAHANKA NEW TOWN,BANGALORE,KARNATAKA,PIN-560064",BANGALORE URBAN,BANGALORE,KARNATAKA,66090909
854,BANDHAN BANK LIMITED,BDBL0001864,KALYAN NAGAR,"UPPER GROUND FLOOR,513,4TH CROSS,2ND BLOCK,CMR ROAD,HRBR LAYOUT,KALYAN NAGAR,BANGALORE,KARNATAKA,PIN-560043",BANGALORE URBAN,BANGALORE,KARNATAKA,66090909
855,BANDHAN BANK LIMITED,BDBL0001865,TUMAKURU,"SILVER LANDMARK THE HUT COMPLEX F-2,F-3,IST FLOOR,M.G.ROAD,TUMAKURU,KARNATAKA,PIN-572102",TUMKUR,BANGALORE,KARNATAKA,66090909
856,BANDHAN BANK LIMITED,BDBL0001866,MG ROAD,"UNIT NO S-112B,FRIST FLOOR,SOUTH BLOCK-MANIPAL CENTER,47-DICKENSON ROAD,BANGALORE,PIN-560042.",BANGALORE URBAN,BANGALORE,KARNATAKA,66090909
857,BANDHAN BANK LIMITED,BDBL0001867,KANNUR,"EMAD TOWER,FORT ROAD,KANNUR POLICE STATION,KANNUR,KERALA,PIN-670001",KANNUR,KOCHI,KERALA,66090909
858,BANDHAN BANK LIMITED,BDBL0001868,VELACHERRY,"3A/1,CEE DEE YES ENCLAVE,THARAMANI,100FT ROAD,TANSINAGAR,VELACHERRY,CHENNAI,TAMILNADU,PIN-600042",CHENNAI,CHENNAI,TAMIL NADU,66090909
859,BANDHAN BANK LIMITED,BDBL0001869,PURASAWAKKAM,"155/68,GROUND FLOOR,MILLERS ROAD,KILPAUK,PURASAWAKKAM VILLAGE,CHENNAI,TAMILNADU,PIN-600010",CHENNAI,CHENNAI,TAMIL NADU,66090909
860,BANDHAN BANK LIMITED,BDBL0001870,TIRUNELVELI,"NO-24,B1,SN HIGH ROAD,TIRUNELVELI JUNCTION,SRI PURAM,TIRUNELVELI,TAMIL NADU,PIN - 627001",TIRUNELVALI,CHENNAI,TAMIL NADU,66090909
861,BANDHAN BANK LIMITED,BDBL0001871,NAGERCOIL,"GROUND FLOOR,1/1 SLB SOUTH ROAD,R.V.PURAM,NAGERCOIL,KANYAKUMARI,TAMIL NADU,PIN-629001",KANYAKUMARI,CHENNAI,TAMIL NADU,66090909
862,BANDHAN BANK LIMITED,BDBL0001872,BANJARA HILLS,"PLOT NO-8-2-686/4A,1ST FLOOR,BS SPACES,RD.NO-12,BANJARA HILLS,NBT NAGAR ,HYDRABAD,TELENGANA,PIN-50034",HYDRABAD,HYDRABAD,TELANGANA,66090909
863,BANDHAN BANK LIMITED,BDBL0001873,MADHAPUR,"PLOT NO-31,DOOR NO -1-118,31,GROUND FLOOR,ROHINI LAYOUT,OPPOSITE-CYBER TOWER,MADHAPUR,HYDERABAD,TELENGANA,PIN-500081",HYDERABAD,HYDERABAD,TELANGANA,66090909
864,BANDHAN BANK LIMITED,BDBL0001874,CHANDA NAGAR,"UPPER GROUND FLOOR,HOUSE NO 2-83,AND 2-85,CHANDANAGAR,OPP KARUR VYASA BANK,HYDERABAD,TELENGANA,PIN-500050",HYDERABAD,HYDERABAD,TELANGANA,66090909
865,BANDHAN BANK LIMITED,BDBL0001875,VANASTHALIPURAM,"MAYTRI HOUSE,PLOT NO-1 AND 2,BATA BUILDING,PANAMA CROSS ROAD,VANASTHALIPURAM,RANGAREDDY,TELENGANA,PIN-500070",RANGAREDDY,HYDERABAD,TELANGANA,66090909
866,BANDHAN BANK LIMITED,BDBL0001876,NAYA RAIPUR,"P3 A/156,SECTOR 27,NAYA RAIPUR,RAIPUR,CHATTISGARH,PIN-492002",RAIPUR,RAIPUR,CHHATTISGARH,66090909
867,BANDHAN BANK LIMITED,BDBL0001877,"BHOPAL, NEW MARKET","GROUND FLOOR,PLOT NO.06,MALVIYA NAGAR,BHOPAL,MADHYA PRADESH,PIN-462026",BHOPAL,BHOPAL,MADHYA PRADESH,66090909
868,BANDHAN BANK LIMITED,BDBL0001878,"INDORE,VIJAYNAGAR","15,PU-3,SCHEME NO - 54,GROUND FLOOR,MAN HOUSE,A.B.ROAD,INDORE,MADHYA PRADESH,PIN-452008",INDORE,INDORE,MADHYA PRADESH,66090909
869,BANDHAN BANK LIMITED,BDBL0001879,RATLAM,"90,STATION ROAD,RATLAM,PS-RATLAM RATLAM,MADHYA PRADESH,PIN-457001",RATLAM,RAIPUR,MADHYA PRADESH,66090909
870,BANDHAN BANK LIMITED,BDBL0001880,DEWAS,"SHIVASHISH COLPLEX,A/4,CIVIL LINE,DEWAS,PS-KOTWALI,DEWAS,MADHYAPRADESH,PIN-455001",DEWAS,INDORE,MADHYA PRADESH,66090909
871,BANDHAN BANK LIMITED,BDBL0001881,CHHINDWARA,"PARASIA ROAD,OPP-POOJA HOTEL,CHHINDWARA,MADHAYA PRADESH,PIN-480001",CHHINDWARA,BHOPAL,MADHYA PRADESH,66090909
872,BANDHAN BANK LIMITED,BDBL0001882,KATNI,"PLOT NO.23,COMMERCIAL COMPLEX(GF),OPP.BANK OF INDIA,HOUSING BOARD COLONY SHANTI NAGAR,PS MADHAV NAGAR,KATNI,MADHYA PRADESH,PIN 483504",KATNI,KATNI,MADHYA PRADESH,66090909
873,BANDHAN BANK LIMITED,BDBL0001883,NAJAFGARH,"1668,C - 1,THANA ROAD,NAJAFGARH,NEW DELHI,DELHI,PIN-110043",NEW DELHI,DELHI,DELHI,66090909
874,BANDHAN BANK LIMITED,BDBL0001884,ASHOK VIHAR,"B-2/17,PHASE - 2,ASHOK VIHAR,DELHI,PIN-110052",NEW DELHI,DELHI,DELHI,66090909
875,BANDHAN BANK LIMITED,BDBL0001885,"KOTA, GUMANPURA","GROUND FLOOR,288 SHOPPING CENTRE,GUMANPURA,KOTA,RAJASTHAN,PIN-324007",KOTA,JAIPUR,RAJASTHAN,66090909
876,BANDHAN BANK LIMITED,BDBL0001886,"JAIPUR,TONK ROAD","KAILLASH TOWER,KHASRA NO-112,NEAR DURGAPURA BUS STAND,MIAN TONK ROAD,JAIPUR,RAJASTHAN,PIN-302018",JAIPUR,JAIPUR,RAJASTHAN,66090909
877,BANDHAN BANK LIMITED,BDBL0001887,MATHURA,"G.S TOWER,NEAR FIRE STATION,NAGAR PALIKA MARKET KRISHNANAGAR,BHUTESHWAR ROAD,MATHURA,UTTAR PRADESH,PIN-281001",MATHURA,MORADABAD,UTTAR PRADESH,66090909
878,BANDHAN BANK LIMITED,BDBL0001888,MUZAFFARNAGAR,"170,CIVIL LINES NORTH,OPPOSITE RAILWAY STATION,MUZAFFARNAGAR,UTTAR PRADESH,PIN-251001",MUZAFFARNAGAR,LUCKNOW,UTTAR PRADESH,66090909
879,BANDHAN BANK LIMITED,BDBL0001889,FAIZABAD,"4106-4110,CIVIL LINES,FAIZABAD,PS-CIVIL LINES,FAIZABAD,UTTAR PRADESH,PIN-224001",FAIZABAD,KANPUR,UTTAR PRADESH,66090909
880,BANDHAN BANK LIMITED,BDBL0001890,"DEHRADUN, RAJPUR ROAD","56,RAJPUR ROAD,CITY CENTER,OPP -HOTEL MADHUBAN,DEHRADUN,UTTARAKHAND,PIN-248001",DEHRA DUN,DEHRADUN,UTTARAKHAND,66090909
881,BANDHAN BANK LIMITED,BDBL0001891,BERHAMPUR,"GROUND FLOOR,SRI NARAYAN PLAZA,ASKA ROAD,BERHAMPUR,GANJAM,ODISHA,PIN-760006",GANJAM,BHUBANESWAR,ODISHA,66090909
882,BANDHAN BANK LIMITED,BDBL0001892,SHIVAMOGGA,"509,1ST FLOOR,BEDRE COMPLEX,NEHRU ROAD SHIVAMOGGA,KARNATAKA,PIN-577201",SHIMOGA,BANGALORE,KARNATAKA,66090909
883,BANDHAN BANK LIMITED,BDBL0001893,ERODE,"GROUND FLOOR,NO.7,CUTCHERY STREET,PANNEERSELVAM PARK,TOWN POLICE STATION,ERODE,TAMIL NADU,PIN-638001",ERODE,CHENNAI,TAMIL NADU,66090909
884,BANDHAN BANK LIMITED,BDBL0001894,SALEM,"NO.A8 4/34, BHARATHI STREET,SWARNAPURI,SALEM,TAMIL NADU,PIN-636004",SALEM,SWARNAPURI,TAMIL NADU,66090909
885,BANDHAN BANK LIMITED,BDBL0001895,MANINAGAR,"ASHWAMEGH PEARL,RAMBAGH CROSS ROADS,NEAR SARDAR PATEL HOSPITAL,MANINAGAR,AHMEDABAD,GUJARAT,PIN -380008",AHMEDABAD,AHMEDABAD,GUJARAT,66090909
886,BANDHAN BANK LIMITED,BDBL0001896,ASHRAM ROAD,"GROUND FLOOR,SHOP NO 3 AND 4,SCARLET BUSINESS HUB,OPP ANKUR SCHOOR,FATEHPUR,PALDI,AHMEDABAD,GUJARAT,PIN - 380007",AHMEDABAD,AHMEDABAD,GUJARAT,66090909
887,BANDHAN BANK LIMITED,BDBL0001897,RS PURAM,"GROUND FLOOR,NO.180,TV SAMY-WEST RS PURAM,COIMBATORE,TAMIL NADU,PIN-641002",COIMBATORE,CHENNAI,TAMIL NADU,66090909
888,BANDHAN BANK LIMITED,BDBL0001898,RISHIKESH,"HOUSE NO-259,DEHRADUN ROAD,RISHIKESH,DEHRADUN,UTTRAKHAND,PIN-249201",DEHRADUN,DEHRADUN,UTTARAKHAND,66090909
889,BANDHAN BANK LIMITED,BDBL0001899,SAKCHI,"OM PLAZA,GROUND FLOOR,96 SNP AREA,SAKCHI,JAMSHEDPUR,EAST SINGHBHUM,JHARKHAND,PIN-831001",EAST SINGHBHUM,RANCHI,JHARKHAND,66090909
890,BANDHAN BANK LIMITED,BDBL0001900,UNNAO,"PLOT NO.01-A UDA COLONY MOTI NAGAR,UNNAO,PS-KOTWALI,UNNAO,UTTAR PRADESH,PIN-209801",UNNAO,LUCKNOW,UTTAR PRADESH,66090909
891,BANDHAN BANK LIMITED,BDBL0001901,"PAKHOWAL ROAD, LUDHIANA","GROUND FLOOR,SCO-146 AND 147,GROUND FLOOR,FEROZE GANDHI MARKET,PAKHOWAL ROAD,LUDHIANA,PUNJAB PIN-141001",LUDHIANA,CHANDIGARH,PUNJAB,66090909
892,BANDHAN BANK LIMITED,BDBL0001902,NAVSARI,"SHOP NO-1-4.GROUND FLOOR,SWISS COTTAGE,ASHA NAGAR,MAIN ROAD,DIST-NAVSARI,PS-NAVSARI TOWN,GUJARAT,PIN-396445",NAVSARI,SURAT,GUJARAT,66090909
893,BANDHAN BANK LIMITED,BDBL0001903,PRADHAN NAGAR,"NIVEDITA ROAD,PRADHAN NAGAR,SILIGURI,DIST-DARJEELING,WESTBENGAL-734003",DARJEELING,SILIGURI,WEST BENGAL,66090909
894,BANDHAN BANK LIMITED,BDBL0001904,RADHIKAPUR,"RADHIKAPUR GRAM PANCHAYAT,PO-RADHIKAPUR,PS-KALIYAGANJ,DITS-UTTAR DINAJPUR,WEST BENGAL,PIN-733129",UTTAR DINAJPUR,RAIGANJ,WEST BENGAL,66090909
895,BANDHAN BANK LIMITED,BDBL0001905,BAHADURGARH,"15A,WARD NO.21,PLOT NO.4,GURU NANAK COLONY,BAHADURGARH,JHAJJAR,HARYANA,PIN-124507",JHAJJAR,DELHI,HARYANA,66090909
896,BANDHAN BANK LIMITED,BDBL0001906,BAGHPAT,"GROUND FLOOR,APURVA TOWER,DELHI SAHARANPUR ROAD,NEAR NEEOJPUR ROAD,DIST-BAGHPAT,UTTAR PRADESH-250609",BAGHPAT,MORADABAD,UTTAR PRADESH,66090909
897,BANDHAN BANK LIMITED,BDBL0001907,BARABANKI,"C/244-245,SHIVA PLAZA,OPP BUS STAND DEWA ROAD,CIVIL LINES,KOTWALI NAGAR,BARABANKI,UTTAR PRADESH,PIN - 225001",BARABANKI,LUCKNOW,UTTAR PRADESH,66090909
898,BANDHAN BANK LIMITED,BDBL0001908,GOMTINAGAR LUCKNOW,"1/5,VIVEK KHAND,GOMTI NAGAR,LUCKNOW,UTTAR PRADESH,PIN-226010",LUCKNOW,LUCKNOW,UTTAR PRADESH,66090909
899,BANDHAN BANK LIMITED,BDBL0001909,"GOVINDNAGAR,KANPUR","126/13/150-A,GOVIND NAGAR,DIST-KANPUR,UTTAR PRADESH,PIN-208006",KANPUR NAGAR,LUCKNOW,UTTAR PRADESH,66090909
900,BANDHAN BANK LIMITED,BDBL0001910,KIDWAINAGAR,"UPPER GROUND FLOOR,133/230,M BLOCK,MARBLE MARKET,JUHI POLICE STATION,KIDWAI NAGAR,KANPUR,UTTAR PRADESH,PIN-208023",KANPUR NAGAR,LUCKNOW,UTTAR PRADESH,66090909
901,BANDHAN BANK LIMITED,BDBL0001911,PADRAUNA,"MANGAL BHAWAN,CHHAWNI ROAD,PADRAUNA,DIST-KHUSHI NAGAR,UTTAR PRADESH,PIN-274304",KUSHINAGAR,LUCKNOW,UTTAR PRADESH,66090909
902,BANDHAN BANK LIMITED,BDBL0001912,PRATAPGARH,"PLOT NO -660,BELLA GHAT, PARGANA TEHSIL SADAR,NEAR GAZI CHAURAHA,BALIPUR,DIST-PRATAPGARH,UTTAR PRADESH,PIN-23001",PRATAPGARH,LUCKNOW,UTTAR PRADESH,66090909
903,BANDHAN BANK LIMITED,BDBL0001913,RAE BARELI,"505 KA KUTCHERY MAIN ROAD,RAE BARELI KOTWALI MAIN,DIST.-RAE BARELI,UTTAR PRADESH,PIN - 229001",RAE BARELI,LUCKNOW,UTTAR PRADESH,66090909
904,BANDHAN BANK LIMITED,BDBL0001914,VIKASH NAGAR LUCKNOW,"UPPER GROUND FLOOR-2,C.O - 4,SHEKHUPURA YOJANA,KURSI ROAD,VIKASH NAGAR,LUCKNOW,UTTAR PRADESH,PIN-226022",LUCKNOW,LUCKNOW,UTTAR PRADESH,66090909
905,BANDHAN BANK LIMITED,BDBL0001915,PATHANKOT,"B-24/210,SACHDEVA BUILDING,HOTEL JEWEL,DHANGU ROAD,PATHANKOT,PUNJAB-145001",PATHANKOT,CHANDIGARH,PUNJAB,66090909
906,BANDHAN BANK LIMITED,BDBL0001916,BHIWANI,"PLOT NO-100-AB,OPP BHARDWAJ NURSING HOME,AGRASEN CHOWK,BHIWANI,HARYANA,PIN-127021",BHIWANI,DELHI,HARYANA,66090909
907,BANDHAN BANK LIMITED,BDBL0001917,DIMORUGURI,"VILL-DIMORUGURI,BALIBHUIN,PO-DIMORUGURI,PS-NAGAON SADDAR,DIST-NAGAON,ASSAM,PIN-782003",NAGAON,NAGAON,ASSAM,66090909
908,BANDHAN BANK LIMITED,BDBL0001918,JIRIBAM,"KALINAGAR,WARD NO-03,JIRIBAM TOWN,PO AND PS-JIRIBAM,DIST-JIRIBAM,STATE-MANIPUR,PIN-795116",IMPHAL EAST,SILCHAR,MANIPUR,66090909
909,BANDHAN BANK LIMITED,BDBL0001919,BHAWANIPUR,"GROUND FLOOR,1/A,BASANTA BOSE ROAD,P.S.- BHAWANIPUR,KOLKATA,WEST BENGAL,PIN-700002",KOLKATA,KOLKATA,WEST BENGAL,66090909
910,BANDHAN BANK LIMITED,BDBL0001920,TALCHER,"HANDIDHUA,P.O TALCHER,P.S COLLIERY POLICE STATION,ANGUL,ODISHA,PIN-759100",ANGUL,BHUBANESWAR,ODISHA,66090909
911,BANDHAN BANK LIMITED,BDBL0001921,BARGARH,"GROUND FLOOR,BANDUTIKRA CHOWK,WARD.NO.10,BARGARH,ODISHA,PIN-768028",BARGARH,BHUBANESWAR,ODISHA,66090909
912,BANDHAN BANK LIMITED,BDBL0001922,BALANGIR,"GROUND FLOOR,PLOT NO 928/13,14,CLUB PARA,NEAR OBC BANK,BALANGIR,ODISHA-767001",BALANGIR,BHUBANESWAR,ODISHA,66090909
913,BANDHAN BANK LIMITED,BDBL0001923,DHENKANAL,"GROUND FLOOR,PLOT NO-2174,WARD NO-15,MUKTADEIPUR SASAN,JAGANNATH ROAD,DHENKANAL,ODISHA,PIN-759001",DHENKANAL,BHUBANESWAR,ODISHA,66090909
914,BANDHAN BANK LIMITED,BDBL0001924,KENDUJHAR,"DR.PATNAIK ESTATE,NH6,COLLEGE SQUARE,ADJACENT TO AXIS BANK,KENDUJHAR GARH,KENDUJHAR,ODISHA,PIN-758001",KENDUJHAR,BHUBANESWAR,ODISHA,66090909
915,BANDHAN BANK LIMITED,BDBL0001925,NAYAGARH,"PLOT NO-1881,SINDURIA,NAYAGARH(MAIN ROAD),NAYAGARH TOWN,NEAR GOVT. HIGH SCHOOL,NAYAGARH,ODISHA,PIN-752069",NAYAGARH,BHUBANESWAR,ODISHA,66090909
916,BANDHAN BANK LIMITED,BDBL0001926,SUNDARGARH,"IQBAL BHAWAN,BANK SQUARE,OPP.HEAD POST OFFICE,PO-SUNDARGARH,DIST-SUNDARGARH,ODISHA,PIN-770001",SUNDARGARH,BHUBANESWAR,ODISHA,66090909
917,BANDHAN BANK LIMITED,BDBL0001927,SUPAUL,"ARUN THAKUR COMPLEX,1ST FLOOR,WARD NO.9,LOHIYA NAGAR,DISTRICT-SUPAUL,BIHAR,PIN-852131",SUPAUL,KATIHAR,BIHAR,66090909
918,BANDHAN BANK LIMITED,BDBL0001928,GOGAMUKH,"VILL - GOGAMUKH CHARIALI,P.O. & P.S.- GOGAMUKH,DIST.- DHEMAJI,ASSAM,PIN - 787034",DHEMAJI,TEZPUR,ASSAM,66090909
919,BANDHAN BANK LIMITED,BDBL0001929,FARAKKA,"VIII-NTPC MORE,PO-NABARUN,PS-FARAKKA,DIST-MURSHIDABAD,WEST BENGAL,PIN-742236",MURSHIDABAD,MALDA,WEST BENGAL,66090909
920,BANDHAN BANK LIMITED,BDBL0001930,PANSKURA,"1ST FLOOR,VILL-BAHARGRAM,P.O& P.S-PANSKURA,WARD NO.10,DIST.-EAST MIDNAPORE,WEST BENGAL,PIN - 721152",PURBA MIDNAPORE,MIDNAPORE,WEST BENGAL,66090909
921,BANDHAN BANK LIMITED,BDBL0001931,RAGHUNATHPUR,"HOLDING NO232,WARD NO13,RAGHUNATHPUR MAIN ROAD,RAGHUNATHPUR,DIST-PURULIA,WEST BENGAL,PIN-723133",PURULIA,BURDWAN,WEST BENGAL,66090909
922,BANDHAN BANK LIMITED,BDBL0001932,RAIGARH,"UPPER GROUND FLOOR,SHOP NO.G 03,ADITYA BUSINESS PARK,JAGATPUR,DIST - RAIGARH,CHATTISGARH,PIN-496001",RAIGARH,RAIPUR,CHHATTISGARH,66090909
923,BANDHAN BANK LIMITED,BDBL0001933,DEESA,"SHOP NO.1-7,L&M COMPLEX,OPP.AMBEDKAR STATUE,AIRPORT CHAR RASTA,DEESA,DIST.-BANAS KANTHA GUJARAT,PIN-385535",BANAS KANTHA,AHMEDABAD,GUJARAT,66090909
924,BANDHAN BANK LIMITED,BDBL0001934,JAMNAGAR,"ANAND II,PARK COLONY,OPP.FEDERAL BANK,JAMNAGAR,GUJURAT,PIN-361008",JAMNAGAR,AHMEDABAD,GUJARAT,66090909
925,BANDHAN BANK LIMITED,BDBL0001935,PATAN,"SANTOKBA HALL,NEAR PALIKA BAZAR,RAJMAHAL ROAD,DIST.-PATAN,GUJARAT,PIN-384265",PATAN,AHMEDABAD,GUJARAT,66090909
926,BANDHAN BANK LIMITED,BDBL0001936,BANGARAPET,"NO.1,KATHA NO.202/10,2984/10,2616/10,KUMBARAPALYA VICINITY,KOLAR MAIN ROAD,BANGRAPET TMC LIMIT,DIST-KOLAR,KARNATAK,PIN-563114",KOLAR,BANGLORE,KARNATAKA,66090909
927,BANDHAN BANK LIMITED,BDBL0001937,BELGAUM,"CTS NO.13,GANESH EMPIRE,KHANPURA ROAD,TILAKWADI,DIST-BELGAUM,KARNATAKA,PIN-590006",BELGAUM,BANGLORE,KARNATAKA,66090909
928,BANDHAN BANK LIMITED,BDBL0001938,BIJAPUR,"CTS NO-854/855,MAHAVEER ROAD,RUNWAL PLAZA VIJAYAPURA,KARNATAKA,PIN-586101",BIJAPUR,VIJAYAPURA,KARNATAKA,66090909
929,BANDHAN BANK LIMITED,BDBL0001939,CHITRADURGA,"JAGALUR MAHALINGAPPA TOWERS,B D ROAD,DIST-CHITRADURGA,KARNATAKA,PIN - 577501",CHITRADURGA,CHITRADURGA,KARNATAKA,66090909
930,BANDHAN BANK LIMITED,BDBL0001940,AHMADNAGAR,"MARC SQUARE,MANMAD ROAD,ADJACENT TO KANKARIYA MOTOR,SAVEDI AHMADNAGAR,MAHARASHTRA,PIN-414003",AHMADNAGAR,AURANGABAD,MAHARASHTRA,66090909
931,BANDHAN BANK LIMITED,BDBL0001941,DAVANAGERE,"RAJANAHALLY MADDURAYAPPA JEWELLERY MART,DAYANANDA BUILDINGS,MANDIPETH,DIST-DAVANGERE,KARNATAKA-577001",DAVANGERE,BANGLORE,KARNATAKA,66090909
932,BANDHAN BANK LIMITED,BDBL0001942,MANDYA,"D-5/39/1121/4,1ST FLOOR,LAXMI COMPLEX,ADJACENT HDFC BANK,ASHOKNAGAR,MC ROAD,MANDYA,KARNATAKA,PIN-571401",MANDYA,BANGALORE,KARNATAKA,66090909
933,BANDHAN BANK LIMITED,BDBL0001943,PORT BLAIR,"GROUND FLOOR,HOTEL GURU INTERNATIONAL,OPP TO C.E OFFICE,A.P.W.D PORT BLAIR,ABERDEEN BAZAR,DIST-SOUTH ANDAMAN,ANDAMAN AND NICOBAR ISLAND,PIN-744101",SOUTH ANDAMAN,CHENNAI,ANDAMAN AND NICOBAR ISLAND,66090909
934,BANDHAN BANK LIMITED,BDBL0001944,SHADOL,"340/18,KARTAR COTTAGE,NEAR K SQUARE MALL,BURHAR ROAD,SHADOL,MADHYAPRADESH,PIN-484001",SHADOL,BHOPAL,MADHYA PRADESH,66090909
935,BANDHAN BANK LIMITED,BDBL0001945,KOWDIAR,"T.C 5/1640(2),NEAR TRAFFIC SIGNAL,AMBALAMUKKU,PEROORKADA,PO-THIRUVANANTHAPURAM,PEROORKADA POLICE STATION,KERALA,PIN-695005",THIRUVANANTHAPURAM,THIRUVANANTHAPURAM,KERALA,66090909
936,BANDHAN BANK LIMITED,BDBL0001947,ILLAMBAZAR,"GROUND FLOOR,RATANTI BHAWAN,VILLAGE/PO-ILLAMBAZAR,BIRBHUM,WEST BENGAL-731214",BIRBHUM,SHANTINIKETAN,WEST BENGAL,66090909
937,BANDHAN BANK LIMITED,BDBL0001948,KANCHEEPURAM,"GROUND FLOOR,NO.45/H,KARUKKINIL AMARMATHAVAL KOIL STREET,KANCHEEPURAM TOWN,TAMILNADU,PIN-631501",KANCHEEPURAM,CHENNAI,TAMIL NADU,66090909
938,BANDHAN BANK LIMITED,BDBL0001949,DHULE,"GROUND FLOOR,2068/9B,LANE NO.6,PET PAROLA ROAD,DIST-DHULE,MAHARASHTRA,PIN-424001",DHULE,AURANGABAD,MAHARASHTRA,66090909
939,BANDHAN BANK LIMITED,BDBL0001950,DOMBIVLI EAST,"GROUND FLOOR,SHOP NO.1,RACHNA PRIDE CHS,BABASAHEB JOSHI MARG,PHADKE CROSS ROAD,DIST-THANE,DOMBIVLI(E),MAHARASHTRA,PIN-421201",THANE,MUMBAI,MAHARASHTRA,66090909
940,BANDHAN BANK LIMITED,BDBL0001951,SHIRDI,"GROUND FLOOR,HOTEL SAICHAYA,PIMPALWADI ROAD,P.S-SHIRDI,AHMADNAGAR,MAHARASHTRA,PIN-423109",AHMADNAGAR,AURANGABAD,MAHARASHTRA,66090909
941,BANDHAN BANK LIMITED,BDBL0001953,KOKRAJHAR,"WARD NO 4,JD ROAD,1ST FLOOR,KOKRAJHAR,BTAD,PO KOKRAJHAR,ASSAM,PIN-783370",KOKRAJHAR,KOKRAJHAR,ASSAM,66090909
942,BANDHAN BANK LIMITED,BDBL0001955,MAHNAR,"NEAR JEEP STAND,FIRST FLOOR,HOUSE NO-35,AMRPALI MARG,PO/PS-MAHNAR,DIST-VAISHALI,BIHAR,PIN-844506",VAISHALI,MAHNAR,BIHAR,66090909
943,BANDHAN BANK LIMITED,BDBL0001956,ARWAL,"ARWAL,WASILPUR,ARWAL ROAD,WARD NO 05,PATNA AURANGABAD ROAD,OPP GA HIGH SCHOOL,ARWAL,BIHAR,PIN-804401",ARWAL,ARWAL,BIHAR,66090909
944,BANDHAN BANK LIMITED,BDBL0001957,SECTOR,"GROUND FLOOR,SEC-337-338,SEC-35B,CHANDIGARH,PIN-160035,",CHANDIGARH,SECTOR,CHANDIGARH,66090909
945,BANDHAN BANK LIMITED,BDBL0001958,RAIPUR II,"SHESH BAADAA,BESIDE ANDHRA BANK,KANKALI TALAB ROAD,TATYAPARA,RAIPUR,GOLBAZAR POLICE STATION,PIN-492001,CHHATTISGARH",RAIPUR,RAIPUR,CHHATTISGARH,66090909
946,BANDHAN BANK LIMITED,BDBL0001959,SULENGA,"LOK SHIKSHA KENDRA,SULENGA-GORIYA,GRAM PANCHAYAT BHAWAN,SULENGA-GORIYA,BLOCK-NARAYANPUR,DIST-NARAYANPUR,CHHATTISGARH,PIN-494661",NARAYANPUR,GORIYA,CHHATTISGARH,66090909
947,BANDHAN BANK LIMITED,BDBL0001961,SOHNA ROAD,"SHOP NO 25,GROUND AND FIRST FLOOR,UNITECH SHOPPING CENTRE,F-BLOCK,SOUTH CITY-2,SECTOR 49,SOHNA ROAD,GURGAON,HARYANA - 122018",GURGAON,GURGAON,HARYANA,66090909
948,BANDHAN BANK LIMITED,BDBL0001962,SEONI,"HOUSE NO 118,AZAD WARD,SEONI,MADHA PRADESH,PIN-480661",SEONI,SEONI,MADHYA PRADESH,66090909
949,BANDHAN BANK LIMITED,BDBL0001963,CHHATARPUR,"GARG PLAZA,OPPOSITE STADIUM,PANNA ROAD,CHHATARPUR,MADHYA PRADESH,PIN-471001",CHHATARPUR,CHHATARPUR,MADHYA PRADESH,66090909
950,BANDHAN BANK LIMITED,BDBL0001964,SEHORE,"HOUSE NO14,INFRONT OF HERO MOTOCORP SHOWROOM,SENKDAKHEDI ROAD,SEHORE,KOTWALI SEHORE,MADHYA PRADESH,PIN 466001",SEHORE,SEHORE,MADHYA PRADESH,66090909
951,BANDHAN BANK LIMITED,BDBL0001965,JHABUA,"RATI TALAI,NEHRU MARG,WARD NO 8,NEAR PNB BANK,JHABUA,MADHYA PRADESH,PIN-457661",JHABUA,JHABUA,MADHYA PRADESH,66090909
952,BANDHAN BANK LIMITED,BDBL0001967,AGAR,"HOUSE NO - 232, KOTA ROAD, RANI SATI MARG, AGAR, MADHYA PRADESH, PIN- 465441",AGAR,AGAR,MADHYA PRADESH,66090909
953,BANDHAN BANK LIMITED,BDBL0001969,VIVEK VIHAR,"UPPER GROUND FLOOR,C-65,VIVEK VIHAR,PHASE-1,NEW DELHI,PIN-110095",EAST DELHI,VIVEK VIHAR,DELHI,66090909
954,BANDHAN BANK LIMITED,BDBL0001970,PITAMPURA,"UPPER GROUND FLOOR, 12, ENGINEERS ENCLAVE, ROAD NO.44, PITAMPURA, NEW DELHI, PIN- 110034.",NORTH WEST DELHI,PITAMPURA,DELHI,66090909
955,BANDHAN BANK LIMITED,BDBL0001971,KIRTI NAGAR,"87/1,BLOCK2,WHS,KRITI NAGAR,NEW DELHI-110015",WEST DELHI,KIRTI NAGAR,DELHI,66090909
956,BANDHAN BANK LIMITED,BDBL0001972,NARAINA,"E43,GROUND FLOOR,NARAINA VIHAR,NEW DELHI,PIN-110028",WEST DELHI,NARAINA VIHAR,DELHI,66090909
957,BANDHAN BANK LIMITED,BDBL0001973,VIKASPURI,"GROUND FLOOR,C-366,VIKASPURI,DELHI-110018",WEST DELHI,VIKSPURI,DELHI,66090909
958,BANDHAN BANK LIMITED,BDBL0001975,RAYAGADA,"AXIS BANK ROAD,NEAR GAJALAXMI PUJA JUNCTION,RAYAGADA,ORISSA,PIN-765001",RAYAGADA,RAYAGADA,ODISHA,66090909
959,BANDHAN BANK LIMITED,BDBL0001976,JAGATSINGHPUR,"PLOT NO 1353,1682,HOLDING NO 397,NEAR AXIS BANK,JAGATSINGHPUR BRANCH,MAIN ROAD,JAGATSINGHPUR,ODISHA,PIN-754103",JAGATSINGHPUR,JAGATSINGHPUR,ODISHA,66090909
960,BANDHAN BANK LIMITED,BDBL0001977,CHANDRASEKHARPUR,"MARUTI CORNER,PLOT NO 516,1755,1ST FLOOR,KIIT SQUARE,PATIA,BHUBANESWER",KHURDA,BHUBANESWER,ODISHA,66090909
961,BANDHAN BANK LIMITED,BDBL0001979,NUAPADA,"ROUND FLOOR,WN-9,TELEIPADA,MIN ROAD,NAUPADA,ODISHA,PIN-766105",NUAPADA,NUAPADA,ODISHA,66090909
962,BANDHAN BANK LIMITED,BDBL0001982,JEYPORE,"BAIL ROAD,JAMAL COLONY JEYPORE,POLICE STATION ,ORISSA,PIN-764001",KORAPUT,JEYPORE,ODISHA,66090909
963,BANDHAN BANK LIMITED,BDBL0001983,SECTOR,"B1A,PLOT NO18,SECTOR 51NOIDA,GAUTAM BUDDH NAGAR,UTTAR PRADESH PIN 201301",GAUTAM BUDHHA NAGAR,GAUTAM BUDDH NAGAR,UTTAR PRADESH,66090909
964,BANDHAN BANK LIMITED,BDBL0001984,"SECTOR,NOIDA","GROUND AND BASEMENT FLOOR,BLOCKA3,SECTOR110.NOIDA,GAUTAM BUDDHNAGAR,UTTAR PRADESH PIN201305",GAUTAM BUDHHA NAGAR,GAUTAM BUDDH NAGAR,UTTAR PRADESH,66090909
965,BANDHAN BANK LIMITED,BDBL0001985,BASTI,"GROUNDFLOOR,ANSAR BUILDING,MURALIJOAT,KOTWALI ROAD,BASTI,UTTARPRADESH,PIN 272001",BASTI,BASTI,UTTAR PRADESH,66090909
966,BANDHAN BANK LIMITED,BDBL0001986,KANNAUJ,"H.NO-YUSUFPUR BHAGWAN,MAKRAND NAGAR ROAD,ADJACENT TO SBI BANK,KANNAUJ,UTTAR PRADESH-209726",KANNAUJ,KANNAUJ,UTTAR PRADESH,66090909
967,BANDHAN BANK LIMITED,BDBL0001987,BAHRAICH,.5GUDDCHPULBCUD78.,BAHRAICH,BAHRAICH,UTTAR PRADESH,66090909
968,BANDHAN BANK LIMITED,BDBL0001988,LAKHIMPUR,"GROUND FLOOR, SRI MANGAL PLAZA, MOHALLA- AGHAPURAM, KHERI ROAD, RAJAPUR, NEAR MANDI SAMITI, LAKHIMPUR, KHERI, UTTAR PRADESH, PIN- 262701",KHERI,LAKHIMPUR,UTTAR PRADESH,66090909
969,BANDHAN BANK LIMITED,BDBL0001989,JHANSI,"555/1 & 556/2, CHITRA BKD COLLEGE ROAD, OPP. DHYANCHAND STADIUM, CIVIL LINES, JHANSI, UTTAR PRADESH, PIN-284001",JHANSI,JHANSI,UTTAR PRADESH,66090909
970,BANDHAN BANK LIMITED,BDBL0001991,AGRA II,"UPPER GROUD FLOOR, 30/80 B, MUGHAL APARTMENTS, FATEHABAD ROAD, AGRA, UTTAR PRADESH, PIN-282001",AGRA,AGRA,UTTAR PRADESH,66090909
971,BANDHAN BANK LIMITED,BDBL0001993,KAKINADA,"SRI SUBHODAYA COMPLEX, MAIN ROAD, KAKINADA, ANDHRA PRADESH, PIN  533462",EAST GODAVARI,KAKINADA,ANDHRA PRADESH,66090909
972,BANDHAN BANK LIMITED,BDBL0001994,SHAHJAHANPUR,"GROUND FLOOR, 60A, GATUKA LODGE COMPOUND, GOVIND GANJ, SHAHJAHANPUR, UTTAR PRADESH-242001",SAHJHANPUR,SHAHJAHANPUR,UTTAR PRADESH,66090909
973,BANDHAN BANK LIMITED,BDBL0001995,MAU,"SAGAR HIEGHTS, SADAR CHOWK, MAU, UTTAR PRADESH, PIN- 275101",MAU,MAU,UTTAR PRADESH,66090909
974,BANDHAN BANK LIMITED,BDBL0001996,ALLAHABAD CHOWK,"UPPER GROUND FLOOR,32 A,JOHNSTON GANJ,JOHNSTON GANJ CROSSING,ALLAHABAD,UTTAR PRADESH,211003",ALLAHABAD,ALLAHABAD,UTTAR PRADESH,66090909
975,BANDHAN BANK LIMITED,BDBL0001997,KALNA,"GROUND FLOOR,NEWAMBIKANURSING HOME,STKK ROAD,BAIDYAPUR MORE,KALNA,DIST PURBA BARDHAMAN,WEST BENGAL,PIN-713409",PURBA BARDHAMAN,KALNA,WEST BENGAL,66090909
976,BANDHAN BANK LIMITED,BDBL0001998,SINGUR,"S.N.MALLICK ROAD,PS-PO-SINGUR,SINGUR NUTAN BAZAR,DIST-HOOGHLY,PIN-712409",HOOGLY,SINGUR,WEST BENGAL,66090909
977,BANDHAN BANK LIMITED,BDBL0002001,BURRABAZAR,"41A KALI KRISHNA TAGORE STREET,POSTA,STATE WEST BENGAL,PIN-700007",KOLKATA,KOLKATA,WEST BENGAL,66090909
978,BANDHAN BANK LIMITED,BDBL0002002,BANDHAN BANK,"115-7A,BIDHAN SARANI,NEAR TALA,KOLKATA,WEST BENGAL,PIN-700004",KOLKATA,SHYAMBAZAR,WEST BENGAL,66090909
979,BANDHAN BANK LIMITED,BDBL0002003,HILL CART ROAD,"BHARAT BHAWAN,HILL CART ROAD,SILIGURI,DIST DARJEELING,WEST BENGAL 734001",DARJEELING,SILIGURI,WEST BENGAL,66090909
980,BANDHAN BANK LIMITED,BDBL0002004,GORA BAZAR,"1/3 K.K BANERJEE ROAD,PO BERHAMPORE,MURSHIDABAD,PO BERHAMPORE,MURSHIDABAD,WEST BENGAL,PIN-742101",MURSHIDABAD,GORA BAZAR,WEST BENGAL,66090909
981,BANDHAN BANK LIMITED,BDBL0002005,NALHATI,"NALHATI GEDUA PAKURTALA MORE,SBI BULDING,NALHATI,BIRBHUM,WEST BENGAL,PIN-731243",BIRBHUM,NALHATI,WEST BENGAL,66090909
982,BANDHAN BANK LIMITED,BDBL0002006,HALISAHAR,"HALISAHAR,PO NABANAGAR,COI K.P GUPTA ROAD,PS - BIZPUR,DIST-24 PARGANAS N,PIN - 743136",NORTH 24 PARGANAS,BIZPUR,WEST BENGAL,66090909
983,BANDHAN BANK LIMITED,BDBL0002007,KAMALGAZI,"DREAMLIGHT ONI SHELTER,FRIST FLOOR,602,NSCBOSE ROAD,DAKSHIN KUMAR KHALI,KAMALGAZI,PS-SONAPUR,DIST-SOUTH24 PARGANAS,WEST BENGAL,PIN-700103",SOUTH 24 PARGANAS,KAMALGAZI,WEST BENGAL,66090909
984,BANDHAN BANK LIMITED,BDBL0002011,MECHEDA,"SANTIPUR,PO-MECHEDA,PS-KTPP,DIST-PURBA MIDNAPORE,WEST BENGAL,PIN-721137",PURBA MIDNAPORE,MECHEDA,WEST BENGAL,66090909
985,BANDHAN BANK LIMITED,BDBL0002012,DEBRA,"VILL-HAIPATH,PO DEBRA BAZAR,PS-DEBRA,WEST BENGAL,PIN-721126",PASCHIM MIDNAPORE,DEBRA,WEST BENGAL,66090909
986,BANDHAN BANK LIMITED,BDBL0002013,BAIDYABATI,"KRISHNA BHABAN,119 GT ROAD,MITRA BAGAN,BAIDYABATI,DIST-HOOGHLY,WEST BENGAL,PIN-712222",HOOGHLY,BAIDYABATI,WEST BENGAL,66090909
987,BANDHAN BANK LIMITED,BDBL0002015,RISHRA,"37/01,N.K,BANERJEE STREET,RISHRA,PO RISHRA,PO-RISHRA,HOOGLY,WEST BENGAL,PIN-712248",HOOGHLY,RISHRA,WEST BENGAL,66090909
988,BANDHAN BANK LIMITED,BDBL0002016,CHANDRAKONA TOWN,"VILL GONSAIBZAR,PO CHANDRAKONA,PS-CHANDRAKONA,DIST PASCHIM MEDINIPUR,WEST BENGAL,PIN-721201",PASCHIM MIDNAPORE,CHANDRAKONA TOWN,WEST BENGAL,66090909
