,BANK NAME,IFSC,OFFICE,ADDRESS,DISTRICT,CITY,STATE,PHONE
0,THE GUJARAT STATE COOPERATIVE BANK LIMITED,GSCB0000001,RTGS-HO,"SARDAR VALLABHBHAI PATEL SAHAKAR BHAVANNR.SHASTRINAGAR BRTS BUS STOP,NARANPURA,AHMEDABAD - 380 013",AHMEDABD,AHMEDABAD,GUJARAT,27459013
1,THE GUJARAT STATE COOPERATIVE BANK LIMITED,GSCB0ADC001,AHMEDABD DISTRICT CO-OP. BANK LTD.,"AHMEDABD DISTRICT CO-OP. BANK LTD., NEAR GANDHI BRIDGE, OPP INCOME TAX",AHMADABAD,AHMEDABAD,GUJARAT,27542608
2,THE GUJARAT STATE COOPERATIVE BANK LIMITED,GSCB0AMR001,AMRELI JILLA SAHAKARI BANK LTD.,"AMRELI JILLA SAHAKARI BANK LTD., BHOJALRAM BHAVAN ,RAJMAHEL ROAD,AMRELI",AMRELI,AMRELI,GUJARAT,223624
3,THE GUJARAT STATE COOPERATIVE BANK LIMITED,GSCB0BKD001,BANASKANTHA DISTRICT CENTRAL CO-OP. BANK LTD.,"BANASKANTHA DISTRICT CENTRAL CO-OP. BANK LTD., BANAS BHAVAN, DISA HIGHWAY, PALANPUR - 385001",BANASKANTHA,PALANPUR,GUJARAT,255212
4,THE GUJARAT STATE COOPERATIVE BANK LIMITED,GSCB0BRC001,BHARUCH DISTRICT CENTRAL CO-OP. BANK LTD,"BHARUCH DISTRICT CENTRAL CO-OP. BANK LTD., STATION ROAD . BHARUCH",BHARUCH,BHARUCH,GUJARAT,240268
5,THE GUJARAT STATE COOPERATIVE BANK LIMITED,GSCB0BRD001,BARODA CENTRAL CO-OP. BANK LTD.,"BARODA CENTRAL CO-OP. BANK LTD., SAYAJIGUNJ STATION ROAD,VADODARA",BARODA,BARODA,GUJARAT,2362641
6,THE GUJARAT STATE COOPERATIVE BANK LIMITED,GSCB0BVN001,BHAVNAGAR DISTRICT CENTRAL CO-OP. BANK LTD,"BHAVNAGAR DISTRICT CENTRAL CO-OP. BANK LTD., 13 SAHKAR BHAVAN , GANGAJALIYA TALAV, BHAVNAGAR",BHAVNAGAR,BHAVNAGAR,GUJARAT,2512874
7,THE GUJARAT STATE COOPERATIVE BANK LIMITED,GSCB0GRKB01,THE GUJARAT RAJYA KARMACHARI COOP BANK LTD,THE GUJARAT RAJYA KARMACHARI CO OP BANK LTD. A.2 M.S BUILDING. LAL DARWAJA . AHMEDABAD 380001,AHMADABAD,AHMEDABAD,GUJARAT,25506384
8,THE GUJARAT STATE COOPERATIVE BANK LIMITED,GSCB0JMN001,JAMNAGAR DISTRICT CENTRAL CO-OP. BANK LTD,"JAMNAGAR DISTRICT CENTRAL CO-OP. BANK LTD., RANJIT RAOD, JAMNAGAR - 3610001",JAMNAGAR,JAMNAGAR,GUJARAT,2678508
9,THE GUJARAT STATE COOPERATIVE BANK LIMITED,GSCB0JND001,JUNAGADH JILLA SAHAKARI BANK LTD.,"JUNAGADH JILLA SAHAKARI BANK LTD., VANJARI CHOWK, M. G. ROAD, JUNAGADH.",JUNAGADH,JUNAGADH,GUJARAT,2627292
10,THE GUJARAT STATE COOPERATIVE BANK LIMITED,GSCB0KDT001,KODINAR TALUKA CO-OP. BANKING UNION LTD,"KODINAR TALUKA CO-OP. BANKING UNION LTD., BANKING UNION ROAD. KODINAR",KODINAR,KODINAR,GUJARAT,221404
11,THE GUJARAT STATE COOPERATIVE BANK LIMITED,GSCB0KTC001,KATCH DISTRICT CENTRAL CO-OP. BANK LTD.,"KATCH DISTRICT CENTRAL CO-OP. BANK LTD., VIJAYNAGAR, HOSPITAL ROAD . KATCH",KATCH,BHUJ,GUJARAT,9427434820
12,THE GUJARAT STATE COOPERATIVE BANK LIMITED,GSCB0MSN001,MEHSANA DISTRICT CENTRAL CO-OP. BANK LTD,"MEHSANA DISTRICT CENTRAL CO-OP. BANK LTD., RAJ MAHEL ROAD, OPP. FUVARA",MEHSANA,MEHSANA,GUJARAT,221377
13,THE GUJARAT STATE COOPERATIVE BANK LIMITED,GSCB0PDC001,PANCHMAHAL DISTRICT CO-OP. BANK LTD.,"PANCHMAHAL DISTRICT CO-OP. BANK LTD., PRABHA ROAD, GODHRA -389001",PANCHMAHAL,GODHRA,GUJARAT,249247
14,THE GUJARAT STATE COOPERATIVE BANK LIMITED,GSCB0RJT001,RAJKOT DISTRICT CENTRAL CO-OP. BANK LTD.,"RAJKOT DISTRICT CENTRAL CO-OP. BANK LTD., JILLA BANK BHAVAN . KASTURBA ROAD , RAJKOT",RAJKOT,RAJKOT,GUJARAT,2231651
15,THE GUJARAT STATE COOPERATIVE BANK LIMITED,GSCB0SKB001,SABARKANTHA DISTRICT CENTRAL CO-OP. BANK LTD.,"SABARKANTHA DISTRICT CENTRAL CO-OP. BANK LTD., SAHKAR VIKAS BHAVAN,STATION ROAD.HIMMATNAGAR",SABARKANTHA,HIMMATNAGAR,GUJARAT,245323
16,THE GUJARAT STATE COOPERATIVE BANK LIMITED,GSCB0SNR001,SURENDRANAGAR DISTRICT CENTRAL CO-OP. BANK LTD,"SURENDRANAGAR DISTRICT CENTRAL CO-OP. BANK LTD., SAHKAR BHAVAN . M.G.ROAD.SURENDRANAGAR",SURENDRANAGAR,SURENDRANAGAR,GUJARAT,235789
17,THE GUJARAT STATE COOPERATIVE BANK LIMITED,GSCB0UAMODN,THE AMOD NAGRIC COOPEARATIVE BANK LTD.,"THE AMOD NAGRIC COOPERATIVE BANK LTD.,H.O.AMOD-392 110, DIST.BHARUCH,GUJARAT",BHARUCH,AMOD,GUJARAT,245278
18,THE GUJARAT STATE COOPERATIVE BANK LIMITED,GSCB0UAPANI,APANI SAHAKARI BANK LTD,"APANI SAHAKARI BANK LTD.,HATHINO CHORO,AHMEDABAD  380 001 DIST AHMEDABAD.",AHMEDABAD,AHMEDABAD,GUJARAT,22130488
19,THE GUJARAT STATE COOPERATIVE BANK LIMITED,GSCB0UBABRA,"NAGRIK SAHAKARI BANK LTD.,BABRA","NAGRIK SAHAKARI BANK LTD.,BABRA,TRIVENI,NR.GAYATRI MANDIR,BABRA-365421,DIST.AMRELI",AMRELI,BABRA,GUJARAT,233481
20,THE GUJARAT STATE COOPERATIVE BANK LIMITED,GSCB0UBAGAS,SHREE BAGASRA NAGRIK SAHAKARI BANK LTD,"SHREE BAGASRA NAGRIK SAHAKARI BANK LTD.,KAMDHENU,BHAYANI ROAD,BAGASRA-365440,DIST-AMRELI.",AMRELI,BAGASARA,GUJARAT,222193
21,THE GUJARAT STATE COOPERATIVE BANK LIMITED,GSCB0UBARIA,SHRI BARIA NAGRIK SAHAKARI BANK LTD,"SHRI BARIA NAGRIK SAHAKARI BANK LTD., HO POST BOX NO.3,DEVGADH BARIA-389380,DIST.DAHOD.",DAHOD,DEVGADH BARIA,GUJARAT,220251
22,THE GUJARAT STATE COOPERATIVE BANK LIMITED,GSCB0UBHABH,THE BHABHAR VIBHAG NAGRIK SAHAKARI BANK LTD,"THE BHABHAR VIBHAG NAGRIK SAHAKARI BANK LTD.,STATION ROAD,MAHADEVPURA,AT & PO TA.BHABHAR-385320, DIST.BANASKANTHA",BANASKANTHA,BHABHAR JUNA VAS,GUJARAT,222014
23,THE GUJARAT STATE COOPERATIVE BANK LIMITED,GSCB0UBMCBL,THE BAPUNAGAR MAHILA CO OPERATIVE BANK LTD,"THE BAPUNAGAR MAHILA CO OPERATIVE BANK LTD., VIBHAG-6, SATADHARNAGAR, NR.KHODIYARNAGAR,N.H.8, AHMEDABAD-382350",AHMADABAD,AHMEDABAD,GUJARAT,65497572
24,THE GUJARAT STATE COOPERATIVE BANK LIMITED,GSCB0UBNSBL,BALASINOR NAGRIK SAHAKARI BANK LTD,"BALASINOR NAGRIK SAHAKARI BANK LTD.P.B.NO.1,SAHAKAR BHAVAN,BALASINOR 388 255, DIST.MAHISAGAR",AHMADABAD,AHMEDABAD,GUJARAT,266058
25,THE GUJARAT STATE COOPERATIVE BANK LIMITED,GSCB0UBOTAD,SHREE BOTAD MERCANTILE COOP BANK LTD,"SHREE BOTAD MERCANTILE COOP BANK LTD.VEPAR BHAVAN,TOWER CHOWK,BOTAD-364 710, DIST.BHAVNAGAR",BHAVNAGAR,BOTAD,GUJARAT,252257
26,THE GUJARAT STATE COOPERATIVE BANK LIMITED,GSCB0UCCCBL,THE CHANASMA COMM COOP BANK LTD,"LAXMI BHUVAN,P.B.NO.5, AT POST CHANASMA 384220, DIST. PATAN . NORTH GUJARAT",AHMADABAD,AHMEDABAD,GUJARAT,222778
27,THE GUJARAT STATE COOPERATIVE BANK LIMITED,GSCB0UCHANA,THE CHANASMA NAGARIK SAHAKARI BANK LTD,"THE CHANASMA NAGARIK SAHAKARI BANK LTD.KACHERI ROAD, CHANASMA-384220 DIST.PATAN",PATAN,CHANASMA,GUJARAT,222047
28,THE GUJARAT STATE COOPERATIVE BANK LIMITED,GSCB0UCHAPI,THE CHHAPI NAGARIK SAHAKARI BANK LTD,AT & PO.CHHAPI-385210 TA VADGAM DIST.BANASKANTHA GUJARAT,BANASKANTHA,VADGAM,GUJARAT,270288
29,THE GUJARAT STATE COOPERATIVE BANK LIMITED,GSCB0UCNSBL,THE CHARADA NAGRIK SAHAKARI BANK LTD.,"THE CHARADA NAGRIK SAHAKARI BANK LTD.,AT CHARADA-382 810 TA.MANSA, DIST.GANDHINAGAR",AHMADABAD,AHMEDABAD,GUJARAT,288305
30,THE GUJARAT STATE COOPERATIVE BANK LIMITED,GSCB0UCOBML,THE COOPERATIVE BANK OF MEHSANA LTD,"THE CO.OPERATIVE BANK OF MEHSANA LTD.RAJMAHEL ROAD,MEHSANA384001",AHMADABAD,AHMEDABAD,GUJARAT,221211
31,THE GUJARAT STATE COOPERATIVE BANK LIMITED,GSCB0UDAHOD,THE DAHOD URBAN COOPERATIVE BANK LTD,"THE DAHOD URBAN COOPERATIVE BANK LTD. 1ST FLOOR,SHETH SHRI GIRDHARLAL SAHAKAR BHAVAN,APMC,MARKET YARD,DAHOD-389151",DOHAD,DAHOD,GUJARAT,246294
32,THE GUJARAT STATE COOPERATIVE BANK LIMITED,GSCB0UDHARM,THE DHARMAJ PEOPLES  COOPERATIVE BANK LTD,"THE DHARMAJ PEOPLES CO OPERATIVE BANK LTD,P.O.BOX NO.7 POST, DHARMAJ 388430 , DIST ANAND GUJARAT",ANAND,DHARMAJ,GUJARAT,244240
33,THE GUJARAT STATE COOPERATIVE BANK LIMITED,GSCB0UDNSBL,THE DHINOJ  NAGARIK SAH  BANK LTD,"THE DHINOJ NAGRIK SAHAKARI BANK LTD.NAGARIK BANK BHAVAN,BAZAR, DHINOR 384225,TA.CHANASMA,DIST.PATAN",AHMADABAD,AHMEDABAD,GUJARAT,263070
34,THE GUJARAT STATE COOPERATIVE BANK LIMITED,GSCB0UDPCBL,THE DHRANGADHRA PEOPLES CO-OPERATIVE BANK LTD,"THE DHRANGADHRA PEOPLES CO-OPERATIVE BANK LTD.,KALPVRUX, MANDVI CHOWK, DHRANGADHRA-363310. DIST.SURENDRANAGAR.",AHMADABAD,AHMEDABAD,GUJARAT,281901
35,THE GUJARAT STATE COOPERATIVE BANK LIMITED,GSCB0UGACBL,GUJARAT AMBUJA COOP BANK LTD,"GUJARAT AMBUJA CO.OP.BANK LTD.NAVRANG TOWER,SATADHAR CHAR RASTA,SOLA ROAD,AHMEDABAD 380061",AHMADABAD,AHMEDABAD,GUJARAT,27452224
36,THE GUJARAT STATE COOPERATIVE BANK LIMITED,GSCB0UGCCBL,THE GODHRA CITY CO OPERATIVE BANK LTD,"THE GODHRA CITY CO OPERATIVE BANK LTD. NR.POLICE CHOWKI,POST BOX NO.53 GODHRA 389001 DIST.PANCHMAHAL.",PANCH MAHALS,GODHRA,GUJARAT,240083
37,THE GUJARAT STATE COOPERATIVE BANK LIMITED,GSCB0UGMCBL,THE GANDHIDHAM MERCANTILE COOP BANK LTD,"THE GANDHIDHAM MERCANTILE COOP BANK LTD.,GMCB BHAVAN,PLOT NO.12,SECTOR NO.9,GANDHIDHAM - 370 201 DIST.KACHCHH",KACHCHH,GANDHIDHAM,GUJARAT,230944
38,THE GUJARAT STATE COOPERATIVE BANK LIMITED,GSCB0UGNSBL,GONDAL NAGRIK SAHAKARI BANK LTD,"GONDAL NAGRIK SAHAKARI BANK LTD.SAMARPAN,MANDVI CHOWK,GONDAL 360 311, DIST.RAJKOT",AHMADABAD,AHMEDABAD,GUJARAT,220115
39,THE GUJARAT STATE COOPERATIVE BANK LIMITED,GSCB0UGVNBL,THE GHOGHAMBA  VIBHAG NAGRIK SAHAKARI BANK LTD,"THE GHOGHAMBA VIBHAG NAGRIK SAHAKARI BANK LTD.,TA.GHOGHAMBA-389365, DIST.PANCHMAHAL",PANCHMAHAL,GHOGHUMBA,GUJARAT,244708
40,THE GUJARAT STATE COOPERATIVE BANK LIMITED,GSCB0UHALOL,THE HALOL URBAN COOP BANK LTD,"THE HALOL URBAN CO.OP.BANK LTD.,RABARI FALIA,PAVAGADH ROAD,HALOL-389 350.,DIST.PANCHMAHALS",PANCHMAHALS,HALOL,GUJARAT,220060
41,THE GUJARAT STATE COOPERATIVE BANK LIMITED,GSCB0UHARIJ,THE HARIJ NAGRIK SAHAKARI BANK LTD.,"THE HARIJ NAGRIK SAHAKARI BANK LTD.LAXMI NIVAS,MAIN BAZAR,HARIJ-384 240,DIST.PATAN,GUJARAT",PATAN,HARIJ,GUJARAT,223291
42,THE GUJARAT STATE COOPERATIVE BANK LIMITED,GSCB0UHMCBL,THE HALOL MERCANTILE COOP BANK LTD,"THE HALOL MERCANTILE COOP BANK LTD.,SAHYOG,PAVAGADH ROAD,HALOL-389350,DIST.PANCHMAHAL,P.B.NO.20",PANCHMAHAL,HALOL,GUJARAT,220658
43,THE GUJARAT STATE COOPERATIVE BANK LIMITED,GSCB0UIDARB,THE IDAR NAGARIK SAHAKARI BANK LTD.,"THE IDAR NAGARIK SAHAKARI BANK LTD.,UMA SHANKAR JOSHI MARG,MAHAVIR MARKET,JAWANPURA,IDAR-383430,DIST.SABARKANTHA,GUJARAT.",SABARKANTHA,IDAR,GUJARAT,250777
44,THE GUJARAT STATE COOPERATIVE BANK LIMITED,GSCB0UJALOD,THE JHALOD URBAN COOPERATIVE BANK LTD,"THE JHALOD URBAN COOPERATIVE BANK LTD.,P.B.NO.3,JHALOD-389 170, DIST.DAHOD,GUJARAT",DAHOD,JHALOD,GUJARAT,225143
45,THE GUJARAT STATE COOPERATIVE BANK LIMITED,GSCB0UJAMNA,THE JAMNAGAR MAHILA SAHAKARI BANK LTD,"THE JAMNAGAR MAHILA SAHAKARI BANK LTD.,MANEK CENTRE, PANDIT NEHRU MARG, JAMNAGAR-361008",JAMNAGAR,JAMNAGAR,GUJARAT,2557672
46,THE GUJARAT STATE COOPERATIVE BANK LIMITED,GSCB0UJANTA,THE JANTA COOP BANK LTD,"THE JANATA COOP BANK LTD, H.O NAWABAZAR ,GODHRA - -389001, PANCHMAHAL",PANCHMAHALS,GODHRA,GUJARAT,246752
47,THE GUJARAT STATE COOPERATIVE BANK LIMITED,GSCB0UJPCBL,THE JAMBUSAR PEOPLES CO.OP.BANK LTD.,"THE JAMBUSAR PEOPLES CO.OP.BANK LTD.,JAMBUSAR - 392 150, DIST.BHARUCH",AHMADABAD,AHMEDABAD,GUJARAT,220098
48,THE GUJARAT STATE COOPERATIVE BANK LIMITED,GSCB0UKALOL,THE KALOL URBAN COOP BANK LTD,"THE KALOL URBAN COOP BANK LTD., GOHYA BAZAR,BANK BUILDING COOP MEMORIAL HALL,KALOL-389330 DIST.PANCHMAHAL",PANCHMAHALS,KALOL,GUJARAT,235337
49,THE GUJARAT STATE COOPERATIVE BANK LIMITED,GSCB0UKALYA,THE KALYAN COOP BANK LTD,"THE KALYAN COOP BANK LTD, JAGJIVAN BHAVAN, BEHIND RLY. STATION,KALOL-382721 N.G. DIST.GANDHINAGAR",GANDHINAGAR,KALOL,GUJARAT,223361
50,THE GUJARAT STATE COOPERATIVE BANK LIMITED,GSCB0UKAPAD,THE KAPADWANJ PEOPLES COOP BANK LTD,"THE KAPADWANJ PEOPLES COOP BANK LTD.,DANIWADA,GANDHI CHOWK,KAPADWANJ-387 620.,DIST.KHEDA",KHEDA,KAPADWANJ,GUJARAT,252248
51,THE GUJARAT STATE COOPERATIVE BANK LIMITED,GSCB0UKMCBL,THE KOSAMBA  MERC COOP BANK LTD,"THE KOSAMBA MERCANTILE CO.OP.BANK LTD.SHREE NIDHI,TARSADI KOSAMBA R.S. 394120,TA.MANGROL,DIST.SURAT",AHMADABAD,AHMEDABAD,GUJARAT,232455
52,THE GUJARAT STATE COOPERATIVE BANK LIMITED,GSCB0UKNSBL,THE KHAMBHAT NAGARIK SAHAKARI BANK LTD,"THE KHAMBHAT NAGARIK SAHAKARI BANK LTD STAMBHTIRTH,VADAPOLE,KHAMBHAT-388 620 DIST.ANAND",AHMADABAD,AHMEDABAD,GUJARAT,220495
53,THE GUJARAT STATE COOPERATIVE BANK LIMITED,GSCB0UKPCBL,THE  KHEDA  PEOPLES COOPERATIVE BANK LTD,"THE KHEDA PEOPLES COOPERATIVE BANK LTD.,BAZAR,KHEDA-387411 DIST.KHEDA",KHEDA,KHEDA,GUJARAT,222026
54,THE GUJARAT STATE COOPERATIVE BANK LIMITED,GSCB0ULAKHW,THE LAKHWAD NAGRIK SAHAKARI BANK LTD.,"THE LAKHWAD NAGRIK SAHAKARI BANK LTD.,AT&PO.LAKHWAD,TA&DIST.MEHSANA-384 001",MAHESANA,MAHESANA,GUJARAT,237075
55,THE GUJARAT STATE COOPERATIVE BANK LIMITED,GSCB0ULALBA,LALBAUG CO-OPERATIVE BANK LTD,"LALBAUG CO-OPERATIVE BANK LTD,MANJALPUR,VADODARA-390011,DIST VADODARA.",VADODARA,VADODARA,GUJARAT,2642041
56,THE GUJARAT STATE COOPERATIVE BANK LIMITED,GSCB0ULAXMI,SHRI LAXMI MAHILA SAHAKARI BANK LTD,"SHRI LAXMI MAHILA SAHAKARI BANK LTD.,3,NAVDURGA SOCIETY,OPP.PRASHANT CINEMA,MEHSANA-384 002",MAHESANA,MAHESANA,GUJARAT,242514
57,THE GUJARAT STATE COOPERATIVE BANK LIMITED,GSCB0ULNSBL,SHREE LODRA NAGRIK SAHKARI BANK LTD,"SHREE LODRA NAGRIK SAHKARI BANK LTD.LODRA 382 835, TA.MANSA, DIST.GANDHINAGAR",AHMADABAD,AHMEDABAD,GUJARAT,285173
58,THE GUJARAT STATE COOPERATIVE BANK LIMITED,GSCB0ULUCBL,THE LIMBASI URBAN CO OP BANK LTD,"THE LIMBASI URBAN CO.OP.BANK LTD. LIMBASI 387 520 TA.MATAR, DIST.KHEDA",AHMADABAD,AHMEDABAD,GUJARAT,283625
59,THE GUJARAT STATE COOPERATIVE BANK LIMITED,GSCB0UMAHIL,THE MAHILA VIKAS COOP BANK LTD.,"THE MAHILA VIKAS COOP BANK LTD.,SWAMINARAYAN AVENUE,SWAMINARAYAN CHOWK,BHATTHA,PALDI,AHMEDABAD-380 007",AHMEDABAD,AHMEDABAD,GUJARAT,26607046
60,THE GUJARAT STATE COOPERATIVE BANK LIMITED,GSCB0UMALPU,THE MALPUR NAGARIK SAHAKARI BANK LTD,"THE MALPUR NAGARIK SAHAKARI BANK LTD.,AT.PO.TA.MALPUR DIST.ARAVALLI",SABARKANTHA,MALPUR,GUJARAT,223036
61,THE GUJARAT STATE COOPERATIVE BANK LIMITED,GSCB0UMANBL,THE MANSA NAGARIK SAHAKARI BANK LTD,"THE MANSA NAGARIK SAHAKARI BANK LTD.,MARKET YARD,MANSA - 382 845,DIST.GANDHINAGAR.",GANDHINAGAR,MANSA,GUJARAT,270737
62,THE GUJARAT STATE COOPERATIVE BANK LIMITED,GSCB0UMCCBL,MARKETYARD COMM COOP BANK LTD,"NAVA GANJ BAZAR, UNJHA 384 170 , NORTH GUJARAT",AHMADABAD,AHMEDABAD,GUJARAT,254198
63,THE GUJARAT STATE COOPERATIVE BANK LIMITED,GSCB0UMEHSA,THE MEHSANA JILLA PANCHAYAT KARMACHARI COOP BANK LTD.,"THE MEHSANA JILLA PANCHAYAT KARMACHARI COOP BANK LTD.B/H MAHATMA GANDHI SHOPPING CENTER,RAJMAHEL ROAD,MEHSANA-384001",MAHESANA,MAHESANA,GUJARAT,221378
64,THE GUJARAT STATE COOPERATIVE BANK LIMITED,GSCB0UMNCBL,THE MEGHRAJ NAGARIK SAHAKARI BANK LTD,"THE MEGHRAJ NAGARIK SAHAKARI BANK LTD.MEGHRAJ-383350,DIST.SABARKANTHA.",AHMADABAD,AHMEDABAD,GUJARAT,244570
65,THE GUJARAT STATE COOPERATIVE BANK LIMITED,GSCB0UMNSBL,THE MANDAL NAGRIK SAHAKARI BANK LTD,THE MANDAL NAGRIK SAHAKARI BANK LTD.MANDAL-382130 DIST.AHMEDABAD,AHMADABAD,AHMEDABAD,GUJARAT,253820
66,THE GUJARAT STATE COOPERATIVE BANK LIMITED,GSCB0UNNCBL,THE NARODA NAGRIK COOP BANK LTD,"THE NARODA NAGRIK COOP BANK LTD. NARODA BANK BHAVAN, GURUKUL MEMNAGAR ROAD. AHMEDABAD 380052",AHMADABAD,AHMEDABAD,GUJARAT,27481408
67,THE GUJARAT STATE COOPERATIVE BANK LIMITED,GSCB0UODEBK,THE ODE URBAN COOP BANK LTD,"THE ODE URBAN COOP BANK LTD., SARDAR PATEL BHAVAN, BAZAR ODE-388 210, DIST-ANAND GUJARAT",ANAND,ODE,GUJARAT,282532
68,THE GUJARAT STATE COOPERATIVE BANK LIMITED,GSCB0UPATAN,PATAN NAGARIK SAHAKARI BANK LTD,"PATAN NAGARIK SAHAKARI BANK LTD.,NEAR MILAN TALKIES,PATAN (N.G.) 384 265",PATAN,PATAN,GUJARAT,220377
69,THE GUJARAT STATE COOPERATIVE BANK LIMITED,GSCB0UPIJBL,THE PIJ  PEOPLES COOP BANK LTD,"THE PIJ PEOPLES COOP BANK LTD.,BANK BUILDING,MAIN BAZAR,TA.VASO,DIST.KHEDA,AT POST.PIJ-387230",KHEDA,PIJ,GUJARAT,2582668
70,THE GUJARAT STATE COOPERATIVE BANK LIMITED,GSCB0UPMCBL,PROGRESSIVE MERCANTILE CO.OP.BANK LTD.,"PROGRESSIVE MERCATILE CO.OP.BANK LTD.,PROGRESSIVE BANK BHAVAN,670/1,STATION ROAD,AHMEDABAD-380 002.",AHMADABAD,AHMEDABAD,GUJARAT,22135228
71,THE GUJARAT STATE COOPERATIVE BANK LIMITED,GSCB0UPNSBL,THE PADRA NAGAR NAG SAH BANK LTD,"THE PADRA NAGAR NAGARIK SAHAKARI BANK LTD.ZANDA BAZAR,PADRA 391 440, DIST.BARODA",AHMADABAD,AHMEDABAD,GUJARAT,222278
72,THE GUJARAT STATE COOPERATIVE BANK LIMITED,GSCB0UPORBA,PORBANDAR COMMERCIAL COOP BANK LTD,"PORBANDAR COMMERCIAL COOP BANK LTD.,KASTURBA GANDHI ROAD,OPP.NAGAR PALIKA BUILDING,PORBANDAR-360575,GUJARAT",PORBANDAR,PORBANDAR,GUJARAT,2245896
73,THE GUJARAT STATE COOPERATIVE BANK LIMITED,GSCB0URAJUL,THE RAJULA NAGARIK SAHAKARI BANK LTD,"THE RAJULA NAGARIK SAHAKARI BANK LTD MAHATMA GANDHI ROAD,LIBRARY BUILDING,OPP.VEGETABLE MARKET,RAJULA-365560 DIST.AMRELI",AMRELI,RAJULA,GUJARAT,222121
74,THE GUJARAT STATE COOPERATIVE BANK LIMITED,GSCB0URANDH,THE RANDHEJA COMMERCIAL COOP BANK LTD,"THE RANDHEJA COMMERCIAL COOP BANK LTD.MARKET YARD,RANDHEJA-382620,TA & DIST. GANDHINAGAR.",GANDHINAGAR,RANDHEJA,GUJARAT,23975382
75,THE GUJARAT STATE COOPERATIVE BANK LIMITED,GSCB0URNSBL,THE RAJPIPLA  NAGRIK SAHAKARI BANK LTD.,"THE RAJPIPLA NAGRIK SAHAKARI BANK LTD.,STATION ROAD,RAJPIPLA-393 145, DIST.NARMADA",AHMADABAD,AHMEDABAD,GUJARAT,220040
76,THE GUJARAT STATE COOPERATIVE BANK LIMITED,GSCB0USARSA,THE SARSA PEOPLES CO OPERATIVE BANK LTD.,"THE SARSA PEOPLES CO OPERATIVE BANK LTD.,P.B.NO.32,SARSA-388365,TA & DIST.ANAND",ANAND,ANAND,GUJARAT,272141
77,THE GUJARAT STATE COOPERATIVE BANK LIMITED,GSCB0USATHM,THE SATHAMBA PEOPLES COOP BANK LTD,"THE SATHAMBA PEOPLES CO.OP.BANK LTD.,AT SATHAMBA -383340 TA.BAYAD, DIST.SABARKANTHA.",SABARKANTHA,SATHAMBA,GUJARAT,284251
78,THE GUJARAT STATE COOPERATIVE BANK LIMITED,GSCB0USAURA,THE SAURASHTRA CO.OPERATIVE BANK LTD.,"THE SAURASHTRA CO.OPERATIVE BANK LTD.,2ND FLOOR,BANKS BUILDING,NIKOL ROAD,OPP.BHIDBHANJAN HANUMAN TEMPLE,BAPUNAGAR,AHMEDABAD-380024",AHMADABAD,AHMEDABAD,GUJARAT,22745288
79,THE GUJARAT STATE COOPERATIVE BANK LIMITED,GSCB0USAVAR,SHREE SAVARKUNDLA NAGRIK SAHAKARI BANK LTD.,"SHREE SAVARKUNDLA NAGRIK SAHAKARI BANK LTD.NADI BAZAR,SAVARKUNDLA-364515,DIST.AMRELI,GUJARAT",AMRELI,SAVARKUNDLA,GUJARAT,242091
80,THE GUJARAT STATE COOPERATIVE BANK LIMITED,GSCB0USAVLI,SHREE SAVLI  NAGRIK SAHKARI  BANK LTD,"SHREE SAVLI NAGRIK SAHAKARI BANK LTD.,MATHNO TEKRO,GANDHI CHOWK,SAVLI-391770,DIST.BARODA",VADODRA,SAVLI,GUJARAT,222235
81,THE GUJARAT STATE COOPERATIVE BANK LIMITED,GSCB0USBNBL,SHREE BHAVNAGAR NAGRIK SAHAKARI BANK LTD,"SHREE BHAVNAGAR NAGRIK SAHKARI BANK LTD.14 GANGAJALIYA TALAV,BHAVNAGAR 364 001",AHMADABAD,AHMEDABAD,GUJARAT,2513702
82,THE GUJARAT STATE COOPERATIVE BANK LIMITED,GSCB0USDJSB,SHREE DHANDHUKA JANTA SAHAKARI BANK LTD,"SHREE DHANDHUKA JANTA SAHAKARI BANK LTD,STATION ROAD,DHANDHUKA,DIST-AHMEDABAD",AHMADABAD,DHANDHUKA,GUJARAT,222346
83,THE GUJARAT STATE COOPERATIVE BANK LIMITED,GSCB0USGUNJ,SARDARGUNJ MERCANTILE COOP BANK LTD,"SARDARGUNJ MERCANTILE COOP BANK LTD.,P.B.NO.94,SARDAR CHAMBERS,ANAND - 388001.",ANAND,ANAND,GUJARAT,240273
84,THE GUJARAT STATE COOPERATIVE BANK LIMITED,GSCB0USHNBL,SHIHORI NAGARIK SAHAKARI BANK LTD.,"SHIHORI NAGARIK SAHAKARI BANK LTD. SHIHORI,TA.KANKREJ, DIST.BANASKANTHA - 385550",AHMADABAD,AHMEDABAD,GUJARAT,233070
85,THE GUJARAT STATE COOPERATIVE BANK LIMITED,GSCB0USJSBL,SHRI JANATA SAHAKARI BANK LTD,"SHRI JANATA SAHAKARI BANK LTD.,BANK ROAD,HALOL-389 350, DIST.PANCHMAHAL.",AHMADABAD,AHMEDABAD,GUJARAT,220599
86,THE GUJARAT STATE COOPERATIVE BANK LIMITED,GSCB0USMCBL,THE SARDAR GUNJ MERC COOP BANK LTD,"THE SARDAR GUNJ MERCANTILE CO.OP.BANK LTD. H.O. SARDARGUNJ, PATAN 384 265 , NORTH GUJARAT",AHMADABAD,AHMEDABAD,GUJARAT,220265
87,THE GUJARAT STATE COOPERATIVE BANK LIMITED,GSCB0USMNBL,SHREE MORBI NAGARIK SAHAKARI BANK LTD,"SHREE MORBI NAGARIK SAHAKARI BANK LTD.,OPP.LOHANA VIDHYARTHI BHAVAN,VASANT PLOT,MORBI-363641",RAJKOT,MORVI,GUJARAT,222118
88,THE GUJARAT STATE COOPERATIVE BANK LIMITED,GSCB0USNCBL,SARASPUR NAGARIK CO.OP.BANK LTD.,"SARASPUR NAGARIK CO.OP.BANK LTD. 1,DARSHAN SOCIETY,STADIUM COMMERCE ROAD,NAVRANGPURA,AHMEDABAD-380009",AHMADABAD,AHMEDABAD,GUJARAT,26461630
89,THE GUJARAT STATE COOPERATIVE BANK LIMITED,GSCB0USNSBL,THE SINOR NAGARIK SAHAKARI BANK LTD,"THE SINOR NAGARIK SAHAKARI BANK LTD. SAHAKAR DEEP, SINOR 391115 DIST.BARODA",AHMADABAD,AHMEDABAD,GUJARAT,264344
90,THE GUJARAT STATE COOPERATIVE BANK LIMITED,GSCB0USRDAR,SARDAR VALLABHBHAI SAHAKARI BANK LTD,"SARDAR VALLABHBHAI SAHAKARI BANK LTD.,HARIOM TOWER BUILDING PANCHWATI ROAD,B/H. GAJJAR HALL,LAW GARDEN,AHMEDABAD-380006",AHMADABAD,AHMEDABAD,GUJARAT,26404575
91,THE GUJARAT STATE COOPERATIVE BANK LIMITED,GSCB0USSNBL,THE SALAL SARVODAY NAGARIK SAHAKARI BANK LTD.,"THE SALAL SARVODAY NAGARIK SAHAKARI BANK LTD.AT & PO.SALALA-383120,TA.PRANTIJ,DIST.SABARKANTHA.",AHMADABAD,AHMEDABAD,GUJARAT,240455
92,THE GUJARAT STATE COOPERATIVE BANK LIMITED,GSCB0USUCBL,THE SANTRAMPUR URBAN CO-OPERATIVE BANK LTD,"THE SANTRAMPUR URBAN CO-OPERATIVE BANK LTD.,TOWER ROAD, SANTRAMPUR -389260. DIST. MAHISAGAR.",AHMADABAD,AHMEDABAD,GUJARAT,220044
93,THE GUJARAT STATE COOPERATIVE BANK LIMITED,GSCB0UTBNBL,THE BARDOLI  NAGRIK SAH BANK LTD,"UPALI BAZAR, BARDOLI 394 601, DIST.SURAT",AHMADABAD,AHMEDABAD,GUJARAT,229238
94,THE GUJARAT STATE COOPERATIVE BANK LIMITED,GSCB0UTBSBL,THE BECHRAJI NAGARIK SAHAKARI BANK LTD,"THE BECHRAJI NAGARIK SAHAKARI BANK LTD.,BECHRAJI-384210,TA.BECHRAJI, DIST.MEHSANA( N.G.)",MEHSANA,BECHRAJI,GUJARAT,286370
95,THE GUJARAT STATE COOPERATIVE BANK LIMITED,GSCB0UTCUBL,TARAPUR CO-OPERATIVE URBAN BANK LTD.,"TARAPUR CO-OPERATIVE URBAN BANK LTD.BANK BUILDING,BAZAR,TARAPUR-388 180. DIST.ANAND",AHMADABAD,AHMEDABAD,GUJARAT,255510
96,THE GUJARAT STATE COOPERATIVE BANK LIMITED,GSCB0UTHNBL,THE HANSOT NAGARIC SAHAKARI BANK LTD,"THE HANSOT NAGARIC SAHAKARI BANK LTD.MAHARSHI ARVIND MARG, AT& PO -HANSOT-393030 DIST.BHARUCH",BHARUCH,HANSOT,GUJARAT,262006
97,THE GUJARAT STATE COOPERATIVE BANK LIMITED,GSCB0UTKNBL,THE KHERALU NAGARIK SAHAKARI BANK LTD,"THE KHERALU NAGARIK SAHAKARI BANK LTD.,NAGARIK BHAVAN,BAZAR, KHERALU (N.G.) - 384325",AHMADABAD,AHMEDABAD,GUJARAT,230145
98,THE GUJARAT STATE COOPERATIVE BANK LIMITED,GSCB0UTKSBL,THE KARJAN NAGRIK SAHAKARI BANK LTD,"THE KARJAN NAGRIK SAHAKARI BANK LTD.,NAVA BAZAR,OPP.NILKANTHESHWAR MAHADEV,KARJAN-391 240 DIST.BARODA",AHMADABAD,AHMEDABAD,GUJARAT,232415
99,THE GUJARAT STATE COOPERATIVE BANK LIMITED,GSCB0UTLUCB,THE LIMDI URBAN COOP BANK LTD,"THE LIMDI URBAN COOP BANK LTD., LIMDI-389180,DIST.DAHOD.",DAHOD,LIMDI,GUJARAT,236136
100,THE GUJARAT STATE COOPERATIVE BANK LIMITED,GSCB0UTMNBL,THE MANDVI NAGRIK SAHAKARI BANK LTD,"THE MANDVI NAGRIK SAHAKARI BANK LTD.MAIN ROAD,MANDVI-394160,DIST.SURAT",AHMADABAD,AHMEDABAD,GUJARAT,222054
101,THE GUJARAT STATE COOPERATIVE BANK LIMITED,GSCB0UTNSBL,THE TALOD NAGRIK SAHAKARI BANK LTD,TALOD 383 215 TAL.TALOD DIST.SABARKANTHA,AHMADABAD,AHMEDABAD,GUJARAT,220685
102,THE GUJARAT STATE COOPERATIVE BANK LIMITED,GSCB0UTPCBL,THE PRAGATI CO.OP.BANK LTD.,"THE PRAGATI CO.OP.BANK LTD.,HO THARA-385555 TA-KANKREJ,DIST.BANASKANTHA (N.G.)",BANASKANTHA,THARA,GUJARAT,222258
103,THE GUJARAT STATE COOPERATIVE BANK LIMITED,GSCB0UTPNBL,THE PATDI NAGRIK SAHAKARI BANK LTD.,"THE PATDI NAGRIK SAHAKARI BANK LTD., MAIN BAZAR,PATDI-382765, DIST.SURENDRANAGAR.GUJARAT",AHMADABAD,AHMEDABAD,GUJARAT,227004
104,THE GUJARAT STATE COOPERATIVE BANK LIMITED,GSCB0UTSNBL,THE SARVODAYA NAGRIK SAHKARI BANK LTD,"THE SARVODAYA NAGRIK SAHKARI BANK LTD., POLO GROUND, HIMMATNAGAR - 383 001, DIST.SABARKANTHA",AHMADABAD,AHMEDABAD,GUJARAT,242170
105,THE GUJARAT STATE COOPERATIVE BANK LIMITED,GSCB0UTVNBL,THE VIJAPUR NAGARIK SAHAKARI BANK LTD.,"THE VIJAPUR NAGARIK SAHAKARI BANK LTD.,MARKET YARD,VIJAPUR-382870,DIST.MEHSANA.",AHMADABAD,AHMEDABAD,GUJARAT,220049
106,THE GUJARAT STATE COOPERATIVE BANK LIMITED,GSCB0UUCOBL,THE UNITED CO-OPERATIVE BANK LTD,"MANIBHADRA AVENUE,SHYAMPRASAD MUKHERJEE BRIDGE CORNER,VEJALPUR,AHMEDABAD 380 051",AHMADABAD,AHMEDABAD,GUJARAT,26761599
107,THE GUJARAT STATE COOPERATIVE BANK LIMITED,GSCB0UUNABK,THE UNA PEOPLES COOP BANK LTD,"THE UNA POEPLES COOP BANK LTD OPP.K.V.SCHOOL,DHRUV COMPLEX,UNA-362 560,DIST.GIR-SOMNATH",GIR SOMNATH,UNA,GUJARAT,222527
108,THE GUJARAT STATE COOPERATIVE BANK LIMITED,GSCB0UUNION,THE UNION COOPERATIVE BANK LTD,"THE UNION COOPERATIVE BANK LTD.,UCB BHAVAN, NR.MTS BUS STOP, AHMEDABAD - 382 330.",AHMADABAD,AHMEDABAD,GUJARAT,22837500
109,THE GUJARAT STATE COOPERATIVE BANK LIMITED,GSCB0UUNJBL,UNJHA NAGARIK SAHAKARI BANK LTD,"UNJHA NAGARIK SAHAKARI BANK LTD,GUNJ BAZAR,UNJHA 384170. NORTH GUJARAT",AHMADABAD,AHMEDABAD,GUJARAT,253731
110,THE GUJARAT STATE COOPERATIVE BANK LIMITED,GSCB0UUNSBL,THE UNAVA NAGRIK SAHAKARI BANK LTD,"THE UNAVA NAGRIK SAHKARI BANK LTD.MARKET YARD ,ON AHMEDABAD-ABU ROAD STATE HIGHWAY,UNAVA-384160,TALUKA UNJHA,DIST-MEHSANA N.G.",AHMADABAD,AHMEDABAD,GUJARAT,255900
111,THE GUJARAT STATE COOPERATIVE BANK LIMITED,GSCB0UVEJAL,THE VEJALPUR NAGRIK SAHAKARI BANK LTD,"THE VEJALPUR NAGRIK SAHAKARI BANK LTD.,VEJALPUR-389 340 DIST PANCHMAHAL.",PANCHMAHAL,GODHRA,GUJARAT,234011
112,THE GUJARAT STATE COOPERATIVE BANK LIMITED,GSCB0UVEPAR,THE VEPAR UDHYOG VIKAS SAHAKARI BANK LTD,"THE VEPAR UDHYOG VIKAS SAHAKARI BANK LTD.,VIKAS BHAVAN,JHALOD-389 170,DIST.DAHOD,GUJARAT",DAHOD,JHALOD,GUJARAT,226144
113,THE GUJARAT STATE COOPERATIVE BANK LIMITED,GSCB0UVIRAM,THE VIRAMGAM MERCANTILE COOP BANK LTD,"THE VIRAMGAM MERCANTILE COOP BANK LTD.,MOHANBHAI PATEL MARG,VIRAMGAM-382 150.",AHMADABAD,VIRAMGAM,GUJARAT,233531
114,THE GUJARAT STATE COOPERATIVE BANK LIMITED,GSCB0UVIRPU,SHREE VIRPUR URBAN SAHAKARI BANK LTD,"SHREE VIRPUR URBAN SAHAKARI BANK LTD.,VIRPUR-388 260, TA.VIRPUR, DIST.KHEDA",KHEDA,VIRPUR,GUJARAT,277446
115,THE GUJARAT STATE COOPERATIVE BANK LIMITED,GSCB0UVNGBL,VADNAGAR NAGARIK SAHAKARI BANK LTD,"VADNAGAR NAGARIK SAHAKARI BANK LTD.,NANI MATOR BAZAR,VADNAGAR-384355 DIST.MEHSANA (N.G.)",MAHESANA,VADNAGAR,GUJARAT,222058
116,THE GUJARAT STATE COOPERATIVE BANK LIMITED,GSCB0UVNSBL,THE VADALI NAGARIK SAHAKARI BANK LTD,THE VADALI NAGARIK SAHAKARI BANK LTD.AT PO.TA.VADALI-383235 DIST.SABARKANTHA,AHMADABAD,AHMEDABAD,GUJARAT,222064
117,THE GUJARAT STATE COOPERATIVE BANK LIMITED,GSCB0UVPCBL,THE VERAVAL PEOPLES CO.OP.BANK LTD.,"THE VERAVAL PEOPLES CO.OP.BANK LTD.,VRUNDAVAN,OPP.S.T.BUS STATION AREA,NR.SHUBHAM TOWER,VERAVAL-362266",AHMADABAD,AHMEDABAD,GUJARAT,244123
118,THE GUJARAT STATE COOPERATIVE BANK LIMITED,GSCB0VDC001,VALSAD DISRICT CENTRAL CO-OP. BANK LTD.,"VALSAD DISRICT CENTRAL CO-OP. BANK LTD., SAHAKAR SADAN, KACHERI ROAD, B/H COURT BUILDING, VALSAD - 396001",VALSAD,VALSAD,GUJARAT,248725
