,BANK NAME,IFSC,OFFICE,ADDRESS,DISTRICT,CITY,STATE,PHONE
0,KAVERI GRAMEENA BANK,KGRB0000001,RTGS-HO,"328 JAYALAKSHMI ARCADE,NARAYANASHASHTRY ROADMYSURU TALUK",MYSURU,MYSURU,KARNATAKA,2469589
1,KAVERI GRAMEENA BANK,KGRB0000002,BILIKERE,BILIKEREHUNSUR TALUK,MYSURU,MYSURU,KARNATAKA,240236
2,KAVERI GRAMEENA BANK,KGRB0000004,SATHEGALA,SATHEGALAKOLLEGALA TALUK,CHAMARAJANAGARA,CHAMARAJANAGARA,KARNATAKA,262111
3,KAVERI GRAMEENA BANK,KGRB0000005,KITTUR,KITTURPERIYAPATNA TALUK,MYSURU,MYSURU,KARNATAKA,285562
4,KAVERI GRAMEENA BANK,KGRB0000006,HAMPAPURA-KRN,HAMPAPURA KRN K R NAGARA TALUK,MYSURU,MYSURU,KARNATAKA,293111
5,KAVERI GRAMEENA BANK,KGRB0000007,ANTHARASANTHE,ANTHARASANTHEH D KOTE TALUK,MYSURU,MYSURU,KARNATAKA,264168
6,KAVERI GRAMEENA BANK,KGRB0000008,KAMPLAPURA,KAMPLAPURAPERIYAPATNA TALUK,MYSURU,MYSURU,KARNATAKA,210650
7,KAVERI GRAMEENA BANK,KGRB0000009,BEGUR,BEGURGUNDLUPET TALUK,CHAMARAJANAGARA,CHAMARAJANAGARA,KARNATAKA,231247
8,KAVERI GRAMEENA BANK,KGRB0000010,COWDALLY,COWDALLYKOLLEGALA TALUK,CHAMARAJANAGARA,CHAMARAJANAGARA,KARNATAKA,270231
9,KAVERI GRAMEENA BANK,KGRB0000011,HEDIYALA,HEDIYALANANJANAGUD TALUK,MYSURU,MYSURU,KARNATAKA,238557
10,KAVERI GRAMEENA BANK,KGRB0000012,ASPATHREKAVAL,ASPATHREKAVALHUNSUR TALUK,MYSURU,MYSURU,KARNATAKA,245227
11,KAVERI GRAMEENA BANK,KGRB0000013,GARGESHWARI,GARGESHWARIT NARASIPURA TALUK,MYSURU,MYSURU,KARNATAKA,261819
12,KAVERI GRAMEENA BANK,KGRB0000014,HARAVE,HARAVECHAMARAJA NAGARA TALUK,CHAMARAJANAGARA,CHAMARAJANAGARA,KARNATAKA,235202
13,KAVERI GRAMEENA BANK,KGRB0000015,NAGARLE,NAGARLENANJANAGUD TALUK,MYSURU,MYSURU,KARNATAKA,232534
14,KAVERI GRAMEENA BANK,KGRB0000016,HANAGODU,HANAGODUHUNSUR TALUK,MYSURU,MYSURU,KARNATAKA,243131
15,KAVERI GRAMEENA BANK,KGRB0000017,BHERIYA,BHERYAK R NAGARA TALUK,MYSURU,MYSURU,KARNATAKA,280259
16,KAVERI GRAMEENA BANK,KGRB0000018,HEAD OFFICE ONE,A2IAAAEDTAEMUU,MYSURU,MYSURU,KARNATAKA,0
17,KAVERI GRAMEENA BANK,KGRB0000019,KANAGAL,KANAGALPERIYAPATNA TALUK,MYSURU,MYSURU,KARNATAKA,270023
18,KAVERI GRAMEENA BANK,KGRB0000020,HANGALA,HANGALAGUNDLUPET TALUK,CHAMARAJANAGARA,CHAMARAJANAGARA,KARNATAKA,233020
19,KAVERI GRAMEENA BANK,KGRB0000021,MATAKERE,MATAKEREH D KOTE TALUK,MYSURU,MYSURU,KARNATAKA,266986
20,KAVERI GRAMEENA BANK,KGRB0000022,NATANAHALLY,NATANAHALLYK R NAGARA TALUK,MYSURU,MYSURU,KARNATAKA,282064
21,KAVERI GRAMEENA BANK,KGRB0000023,YERAHALLY,YERAHALLY H D KOTE TALUK,MYSURU,MYSURU,KARNATAKA,255061
22,KAVERI GRAMEENA BANK,KGRB0000024,HEBBAL,HEBBALK R NAGARA TALUK,MYSURU,MYSURU,KARNATAKA,263489
23,KAVERI GRAMEENA BANK,KGRB0000025,SINGANALLUR,SINGANALLURKOLLEGALA TALUK,CHAMARAJANAGARA,CHAMARAJANAGARA,KARNATAKA,263082
24,KAVERI GRAMEENA BANK,KGRB0000026,BANDALLY,BANDALLYKOLLEGALA TALUK,CHAMARAJANAGARA,CHAMARAJANAGARA,KARNATAKA,265066
25,KAVERI GRAMEENA BANK,KGRB0000028,RANGASAMUDRA,RANGASAMUDRAT NARASIPURA TALUK,MYSURU,MYSURU,KARNATAKA,275481
26,KAVERI GRAMEENA BANK,KGRB0000029,KODAGALLY,KODAGALLYT NARASIPURA TALUK,MYSURU,MYSURU,KARNATAKA,275073
27,KAVERI GRAMEENA BANK,KGRB0000030,MADAPURA,MADAPURAH D KOTE TALUK,MYSURU,MYSURU,KARNATAKA,268008
28,KAVERI GRAMEENA BANK,KGRB0000031,HANASOGE,HANASOGEK.R.NAGARA TALUK,MYSURU,MYSURU,KARNATAKA,215005
29,KAVERI GRAMEENA BANK,KGRB0000032,NAGANAHALLY-MYS,NAGANAHALLY MYSOREMYSURU TALUK,MYSURU,MYSURU,KARNATAKA,2591429
30,KAVERI GRAMEENA BANK,KGRB0000033,HAMPAPURA-HDK,HAMPAPURAH D KOTE TALUK,MYSURU,MYSURU,KARNATAKA,267844
31,KAVERI GRAMEENA BANK,KGRB0000034,KYATHANAHALLY,KYATHANAHALLYH D KOTE TALUK,MYSURU,MYSURU,KARNATAKA,266324
32,KAVERI GRAMEENA BANK,KGRB0000035,VARUNA,VARUNAMYSURU TALUK,MYSURU,MYSURU,KARNATAKA,2599612
33,KAVERI GRAMEENA BANK,KGRB0000036,SARAGUR,SARAGURH D KOTE TALUK,MYSURU,MYSURU,KARNATAKA,265100
34,KAVERI GRAMEENA BANK,KGRB0000037,THURUGANUR,THURUGANURT.NARASIPURA TALUK,MYSURU,MYSURU,KARNATAKA,275400
35,KAVERI GRAMEENA BANK,KGRB0000038,UDIGALA,UDIGALA CHAMARAJA NAGARA TALUK,CHAMARAJANAGARA,CHAMARAJANAGARA,KARNATAKA,237063
36,KAVERI GRAMEENA BANK,KGRB0000039,HADINARU,HADINARUNANJANAGUD TALUK,MYSURU,MYSURU,KARNATAKA,239525
37,KAVERI GRAMEENA BANK,KGRB0000040,BEECHANAHALLY,"NAGASHETTI COMPLEX,BEECHANAHALLYH D KOTE TALUK",MYSURU,MYSURU,KARNATAKA,268376
38,KAVERI GRAMEENA BANK,KGRB0000041,HEMMARGALA,"MPSC BUILDING,HEMMARGALANANJANAGUD TALUK",MYSURU,MYSURU,KARNATAKA,235579
39,KAVERI GRAMEENA BANK,KGRB0000042,HEGGADEVANAKOTE,"H B ROAD,H.D.KOTEH D KOTE TALUK",MYSURU,MYSURU,KARNATAKA,255264
40,KAVERI GRAMEENA BANK,KGRB0000043,ARAKALAVADI,ARAKALAVADICHAMARAJA NAGARA TALUK,CHAMARAJANAGARA,CHAMARAJANAGARA,KARNATAKA,236063
41,KAVERI GRAMEENA BANK,KGRB0000044,BOMMALAPURA,"HANATHRAM BUILDING,BOMMALAPURAGUNDLUPET TALUK",CHAMARAJANAGARA,CHAMARAJANAGARA,KARNATAKA,239046
42,KAVERI GRAMEENA BANK,KGRB0000046,KABBALLI GUNDLPET,KABBALLI VILLAGE & POSTGUNDLUPET TALUK,CHAMARAJANAGARA,CHAMARAJANAGARA,KARNATAKA,235512
43,KAVERI GRAMEENA BANK,KGRB0000047,KASUVINAHALLY,"KASUVINAHALLY,NEAR BUS STANDNANJANAGUD TALUK",MYSURU,MYSURU,KARNATAKA,239073
44,KAVERI GRAMEENA BANK,KGRB0000048,HURA,HURANANJANAGUD TALUK,MYSURU,MYSURU,KARNATAKA,231413
45,KAVERI GRAMEENA BANK,KGRB0000049,UMMATHUR,"UMMATHUR, NANJANAGUD MAIN ROADCHAMARAJA NAGARA TALUK",CHAMARAJANAGARA,CHAMARAJANAGARA,KARNATAKA,234684
46,KAVERI GRAMEENA BANK,KGRB0000050,HINKAL,"HINKAL,HUNSUR ROADMYSURU TALUK",MYSURU,MYSURU,KARNATAKA,2469528
47,KAVERI GRAMEENA BANK,KGRB0000051,SIDDARAMANAHUNDI,S R HUNDIMYSURU TALUK,MYSURU,MYSURU,KARNATAKA,2594544
48,KAVERI GRAMEENA BANK,KGRB0000052,UDAYAPURA,CHANNARAYAPATNA ROADCHANNARAYAPATNA TALUK,HASSAN,HASSAN,KARNATAKA,272067
49,KAVERI GRAMEENA BANK,KGRB0000053,DODDAKADANUR,ANNECHAKENEHALLY ROADHOLENARASIPURA TALUK,HASSAN,HASSAN,KARNATAKA,276502
50,KAVERI GRAMEENA BANK,KGRB0000054,DODDAKUNCHE,DODDAKUNCHE HOLENARASIPURA TALUK,HASSAN,HASSAN,KARNATAKA,266370
51,KAVERI GRAMEENA BANK,KGRB0000055,HANUR,OLD SANTHEPET STREET HANURKOLLEGALA TALUK,CHAMARAJANAGARA,CHAMARAJANAGARA,KARNATAKA,268936
52,KAVERI GRAMEENA BANK,KGRB0000056,HULIKAL,HULIKALARKALGUD TALUK,HASSAN,HASSAN,KARNATAKA,252837
53,KAVERI GRAMEENA BANK,KGRB0000058,KABBALLI-CRP,KABBALLI CRPCHANNARAYAPATNA TALUK,HASSAN,HASSAN,KARNATAKA,231539
54,KAVERI GRAMEENA BANK,KGRB0000059,HAGARE,HAGARE BELUR TALUK,HASSAN,HASSAN,KARNATAKA,258138
55,KAVERI GRAMEENA BANK,KGRB0000060,SIDDAPURA,SIDDAPURAARKALGUD TALUK,HASSAN,HASSAN,KARNATAKA,226598
56,KAVERI GRAMEENA BANK,KGRB0000061,BYLAHALLY,BYLAHALLY AT POSTHASSAN TALUK,HASSAN,HASSAN,KARNATAKA,226110
57,KAVERI GRAMEENA BANK,KGRB0000062,HASSAN,"SHANKAR MATT ROAD,10TH CROSS, K.R.PURAMHASSAN TALUK",HASSAN,HASSAN,KARNATAKA,268201
58,KAVERI GRAMEENA BANK,KGRB0000063,SALAGAME,SALAGAME POSTHASSAN TALUK,HASSAN,HASSAN,KARNATAKA,255911
59,KAVERI GRAMEENA BANK,KGRB0000064,HOLENARASIPURA,PETE BEEDIHOLENARASIPURA TALUK,HASSAN,HASSAN,KARNATAKA,272352
60,KAVERI GRAMEENA BANK,KGRB0000065,DODDABEMMATHI,DODDABEMMATHIARKALGUD TALUK,HASSAN,HASSAN,KARNATAKA,0
61,KAVERI GRAMEENA BANK,KGRB0000066,MUDALAHIPPE,MUDALAHIPPEHOLENARASIPURA TALUK,HASSAN,HASSAN,KARNATAKA,258076
62,KAVERI GRAMEENA BANK,KGRB0000067,MATTANAVILE,MATTANAVILECHANNARAYAPATNA TALUK,HASSAN,HASSAN,KARNATAKA,246560
63,KAVERI GRAMEENA BANK,KGRB0000068,BYCHANAHALLY,HN PURA- ARKALGUD MAIN ROADARKALGUD TALUK,HASSAN,HASSAN,KARNATAKA,241801
64,KAVERI GRAMEENA BANK,KGRB0000069,KATTAYA,KATTAYAHASSAN TALUK,HASSAN,HASSAN,KARNATAKA,220404
65,KAVERI GRAMEENA BANK,KGRB0000070,THOLALU,THOLALUBELUR TALUK,HASSAN,HASSAN,KARNATAKA,246509
66,KAVERI GRAMEENA BANK,KGRB0000071,SAKALESHPURA,"B.M.ROAD,NEAR TEMPLESAKALESHPUR TALUK",HASSAN,HASSAN,KARNATAKA,243177
67,KAVERI GRAMEENA BANK,KGRB0000072,AGGUNDA,"HUIYAR ROAD,AGGUNDA ARASIKERE TALUK",HASSAN,HASSAN,KARNATAKA,238652
68,KAVERI GRAMEENA BANK,KGRB0000074,UDBOOR,UDBOORMYSURU TALUK,MYSURU,MYSURU,KARNATAKA,2597729
69,KAVERI GRAMEENA BANK,KGRB0000075,CHIKKUR,CHIKKUR AT POSTARASIKERE TALUK,HASSAN,HASSAN,KARNATAKA,224130
70,KAVERI GRAMEENA BANK,KGRB0000076,KURUVANKA,KURUVANKA ARASIKERE TALUK,HASSAN,HASSAN,KARNATAKA,254362
71,KAVERI GRAMEENA BANK,KGRB0000077,CHANNAPURA,CHANNAPURA AT POSTALUR TALUK,HASSAN,HASSAN,KARNATAKA,219131
72,KAVERI GRAMEENA BANK,KGRB0000078,BAGE,"BAGE AT POST, PETROL BUNK PREMISES ,BAGE HAND POSTSAKALESHPUR TALUK",HASSAN,HASSAN,KARNATAKA,247032
73,KAVERI GRAMEENA BANK,KGRB0000079,ADAGUR,ADAGURBELUR TALUK,HASSAN,HASSAN,KARNATAKA,228433
74,KAVERI GRAMEENA BANK,KGRB0000080,SANENAHALLY,SANENAHALLYBELUR TALUK,HASSAN,HASSAN,KARNATAKA,228512
75,KAVERI GRAMEENA BANK,KGRB0000081,UCHANGI,VIA YESLURSAKALESHPUR TALUK,HASSAN,HASSAN,KARNATAKA,251071
76,KAVERI GRAMEENA BANK,KGRB0000082,KAMASAMUDRA,KAMASAMUDRAARASIKERE TALUK,HASSAN,HASSAN,KARNATAKA,251071
77,KAVERI GRAMEENA BANK,KGRB0000083,KALGUNDI,KALGUNDI AT POSTARASIKERE TALUK,HASSAN,HASSAN,KARNATAKA,267611
78,KAVERI GRAMEENA BANK,KGRB0000084,BAGESHPURA,ARASIKERE ROADARASIKERE TALUK,HASSAN,HASSAN,KARNATAKA,238493
79,KAVERI GRAMEENA BANK,KGRB0000085,BELAGUMBA,BELAGUMBA AT POSTARASIKERE TALUK,HASSAN,HASSAN,KARNATAKA,239274
80,KAVERI GRAMEENA BANK,KGRB0000086,UNDIGANALU,"UNDIGANALU,JAVAGAL ROADARASIKERE TALUK",HASSAN,HASSAN,KARNATAKA,229472
81,KAVERI GRAMEENA BANK,KGRB0000087,KITTANAKERE,KITTANAKEREARASIKERE TALUK,HASSAN,HASSAN,KARNATAKA,236206
82,KAVERI GRAMEENA BANK,KGRB0000088,CHANDAKAVADI,CHANDAKAVADICHAMARAJA NAGARA TALUK,CHAMARAJANAGARA,CHAMARAJANAGARA,KARNATAKA,233640
83,KAVERI GRAMEENA BANK,KGRB0000089,JODIGUBBI,JODIGUBBIHOLENARASIPURA TALUK,HASSAN,HASSAN,KARNATAKA,269093
84,KAVERI GRAMEENA BANK,KGRB0000090,MAKODU,MAKODUPERIYAPATNA TALUK,MYSURU,MYSURU,KARNATAKA,277677
85,KAVERI GRAMEENA BANK,KGRB0000091,YELANDUR,"BR HILLS ROAD,YELANDURYELANDUR TALUK",CHAMARAJANAGARA,CHAMARAJANAGARA,KARNATAKA,240966
86,KAVERI GRAMEENA BANK,KGRB0000092,KATTEPURA,KATTEPURA VILLAGE & POSTARKALGUD TALUK,HASSAN,HASSAN,KARNATAKA,0
87,KAVERI GRAMEENA BANK,KGRB0000093,THERANYA,THERANYAHOLENARASIPURA TALUK,HASSAN,HASSAN,KARNATAKA,266383
88,KAVERI GRAMEENA BANK,KGRB0000094,CHIDRAVALLY,CHIDRAVALLYT NARASIPURA TALUK,MYSURU,MYSURU,KARNATAKA,278005
89,KAVERI GRAMEENA BANK,KGRB0000095,GOWDALLY,GOWDALLYYELANDUR TALUK,CHAMARAJANAGARA,CHAMARAJANAGARA,KARNATAKA,240595
90,KAVERI GRAMEENA BANK,KGRB0000096,MAVATHUR,MAVATHURK R NAGARA TALUK,MYSURU,MYSURU,KARNATAKA,0
91,KAVERI GRAMEENA BANK,KGRB0000097,MARGUR SHIVARA,MARGUR SHIVARA AT POSTCHANNARAYAPATNA TALUK,HASSAN,HASSAN,KARNATAKA,259236
92,KAVERI GRAMEENA BANK,KGRB0000098,ALATHUR,ALATHURGUNDLUPET TALUK,CHAMARAJANAGARA,CHAMARAJANAGARA,KARNATAKA,210747
93,KAVERI GRAMEENA BANK,KGRB0000099,ANNUR,ANNURH D KOTE TALUK,MYSURU,MYSURU,KARNATAKA,240577
94,KAVERI GRAMEENA BANK,KGRB0000101,DEVALAPURA,DEVALAPURAMYSURU TALUK,MYSURU,MYSURU,KARNATAKA,2599046
95,KAVERI GRAMEENA BANK,KGRB0000102,PADUVALAHIPPE,PADUVALAHIPPEHOLENARASIPURA TALUK,HASSAN,HASSAN,KARNATAKA,275257
96,KAVERI GRAMEENA BANK,KGRB0000103,MELLAHALLY,MELLAHALLYMYSURU TALUK,MYSURU,MYSURU,KARNATAKA,2593307
97,KAVERI GRAMEENA BANK,KGRB0000104,KALIYUR,KALIYUR VILLAGET NARASIPURA TALUK,MYSURU,MYSURU,KARNATAKA,212345
98,KAVERI GRAMEENA BANK,KGRB0000105,CHAMRAJANAGARA,"DEVIATION ROAD,CHAMARAJANAGARACHAMARAJA NAGARA TALUK",CHAMARAJANAGARA,CHAMARAJANAGARA,KARNATAKA,222111
99,KAVERI GRAMEENA BANK,KGRB0000106,ALAGANCHI,"BANNARI AMMAN SUGAR FACTORY PREMISES,ALAGANCHINANJANAGUD TALUK",MYSURU,MYSURU,KARNATAKA,235189
100,KAVERI GRAMEENA BANK,KGRB0000107,K S GADDIGE,K S GADDIGEHUNSUR TALUK,MYSURU,MYSURU,KARNATAKA,242234
101,KAVERI GRAMEENA BANK,KGRB0000108,MARTALLY,MARTALLYKOLLEGALA TALUK,CHAMARAJANAGARA,CHAMARAJANAGARA,KARNATAKA,271108
102,KAVERI GRAMEENA BANK,KGRB0000110,CHANNARAYAPATNA,"MADHU COMPLEX,MYSORE ROADCHANNARAYAPATNA TALUK",HASSAN,HASSAN,KARNATAKA,252558
103,KAVERI GRAMEENA BANK,KGRB0000111,NITTUR,NITTURHASSAN TALUK,HASSAN,HASSAN,KARNATAKA,242231
104,KAVERI GRAMEENA BANK,KGRB0000112,KESTHUR,KESTHURYELANDUR TALUK,CHAMARAJANAGARA,CHAMARAJANAGARA,KARNATAKA,261120
105,KAVERI GRAMEENA BANK,KGRB0000114,CHANDRAVADI,CHANDRAVADINANJANAGUD TALUK,MYSURU,MYSURU,KARNATAKA,231063
106,KAVERI GRAMEENA BANK,KGRB0000116,SOMANAHALLY,SOMANAHALLYHOLENARASIPURA TALUK,HASSAN,HASSAN,KARNATAKA,269141
107,KAVERI GRAMEENA BANK,KGRB0000117,KOLLEGALA,"SAPTHAGIRI COMPLEX, NEAR BUS STANDKOLLEGALA TALUK",CHAMARAJANAGARA,CHAMARAJANAGARA,KARNATAKA,266111
108,KAVERI GRAMEENA BANK,KGRB0000118,NACHANAHALLYPALYA J.P.NAGAR,"SHIVABASAPPA COMPLEX,10TH MAIN 10TH CROSS,E BLOCK J P NAGAR MYSURU-570031MYSURU TALUK",MYSURU,MYSURU,KARNATAKA,2469534
109,KAVERI GRAMEENA BANK,KGRB0000119,T.NARASIPURA,T.NARASIPURAT.NARASIPURA TALUK,MYSURU,MYSURU,KARNATAKA,260184
110,KAVERI GRAMEENA BANK,KGRB0000120,ARASIKERE,"K.P.S BUILDING, SAINATHA ROADARASIKERE TALUK",HASSAN,HASSAN,KARNATAKA,230030
111,KAVERI GRAMEENA BANK,KGRB0000121,DATTAGALLY,"SRI.CHAKRAVARTHI COMPLEX, HIG 976. VIVEKANANADA RD, NR VIVEKANANDA CIRCLE MYSURU",MYSURU,MYSURU,KARNATAKA,2469525
112,KAVERI GRAMEENA BANK,KGRB0000122,KRISHNARAJANAGARA,"WARD-17/68, NEXT TO PETROL BUNK,OPPOSITE,AMBEDKAR CIRCLEK R NAGARA TALUK",MYSURU,MYSURU,KARNATAKA,262910
113,KAVERI GRAMEENA BANK,KGRB0000123,NANJANAGUD,"1251 PAATASAALA STREET ,R M CIRCLE,NANJANAGUDNANJANAGUD TALUK",MYSURU,MYSURU,KARNATAKA,224098
114,KAVERI GRAMEENA BANK,KGRB0000124,PERIYAPATNA,BETTADAPURA ROADPERIYAPATNA TALUK,MYSURU,MYSURU,KARNATAKA,273025
115,KAVERI GRAMEENA BANK,KGRB0000125,BELUR,"GURAPPA GOWDA STREET,TEMPLE ROAD BELUR TALUK",HASSAN,HASSAN,KARNATAKA,222733
116,KAVERI GRAMEENA BANK,KGRB0000126,ARAKALAGUD,ARAKALGUD ARKALGUD TALUK,HASSAN,HASSAN,KARNATAKA,221045
117,KAVERI GRAMEENA BANK,KGRB0000127,GUNDLUPET,GUNDLUPETGUNDLUPET TALUK,CHAMARAJANAGARA,CHAMARAJANAGARA,KARNATAKA,223438
118,KAVERI GRAMEENA BANK,KGRB0000128,KUVEMPUNAGARA-HSN,"NEAR MINI VIDAN SOUDHA,HASSANHASSAN TALUK",HASSAN,HASSAN,KARNATAKA,265557
119,KAVERI GRAMEENA BANK,KGRB0000129,YERAGANAHALLY,"575 1ST FLR,DR.RAJKUMAR RD,NR TERASIAN COLLEGE CIRCLE,YERAGANAHALLY MYSURU",MYSURU,MYSURU,KARNATAKA,4243355
120,KAVERI GRAMEENA BANK,KGRB0000130,THONACHIKOPPALU LAYOUT,"446 NEW KANTHA RAJA URS ROAD, T.K.LAYOUT MYSURU TALUK",MYSURU,MYSURU,KARNATAKA,2469527
121,KAVERI GRAMEENA BANK,KGRB0000131,HEBBAL LAYOUT,"NO.235, M.G.KOPPAL MAIN ROADMYSURU TALUK",MYSURU,MYSURU,KARNATAKA,2469526
122,KAVERI GRAMEENA BANK,KGRB0000132,HUNSUR,"NO.1319,CHANDRA COMPLEX,B.M.ROADHUNSUR TALUK",MYSURU,MYSURU,KARNATAKA,253922
123,KAVERI GRAMEENA BANK,KGRB0000133,SSPURAM TUMAKURU,"3RD CROSS,GIRISH KARNAD ROAD,M.C.COLONYTUMAKURU TALUK",TUMAKURU,TUMAKURU,KARNATAKA,2272674
124,KAVERI GRAMEENA BANK,KGRB0000134,KOLALA,SRI BASAVESHWARA COLLEGE ROADKORATAGERE TALUK,TUMAKURU,TUMAKURU,KARNATAKA,236992
125,KAVERI GRAMEENA BANK,KGRB0000135,SIRIVARA,"HEBBUR-GUBBI MAIN RAOD,SIRIVARATUMAKURU TALUK",TUMAKURU,TUMAKURU,KARNATAKA,2299555
126,KAVERI GRAMEENA BANK,KGRB0000136,TIPTUR,B.H.ROADTIPTUR TALUK,TUMAKURU,TUMAKURU,KARNATAKA,250358
127,KAVERI GRAMEENA BANK,KGRB0000137,MATHIGATTA,MATHIGHATTACHIKKANAYAKANAHALLY TALUK,TUMAKURU,TUMAKURU,KARNATAKA,257708
128,KAVERI GRAMEENA BANK,KGRB0000138,JAYACHAMARAJAPURA,JAYACHAMARAJAPURACHIKKANAYAKANAHALLY TALUK,TUMAKURU,TUMAKURU,KARNATAKA,266090
129,KAVERI GRAMEENA BANK,KGRB0000139,MUGANAYAKANAKOTE,MUGANAYAKANAKOTEGUBBI TALUK,TUMAKURU,TUMAKURU,KARNATAKA,235224
130,KAVERI GRAMEENA BANK,KGRB0000140,SANTHEMAVATHUR,SANTHEMAVATHUR KUNIGAL TALUK,TUMAKURU,TUMAKURU,KARNATAKA,292077
131,KAVERI GRAMEENA BANK,KGRB0000141,MALLASANDRA,MALLASANDRA TUMAKURU TALUK,TUMAKURU,TUMAKURU,KARNATAKA,2206513
132,KAVERI GRAMEENA BANK,KGRB0000142,BRAHMASANDRA GATE,BRAHMASANDRA GATESIRA TALUK,TUMAKURU,TUMAKURU,KARNATAKA,272145
133,KAVERI GRAMEENA BANK,KGRB0000143,KODIGENAHALLY,KODIGENAHALLY MADHUGIRI TALUK,TUMAKURU,TUMAKURU,KARNATAKA,279570
134,KAVERI GRAMEENA BANK,KGRB0000144,KONDETHIMMANAHALLY,KONDETHIMMANAHALLYPAVAGADA TALUK,TUMAKURU,TUMAKURU,KARNATAKA,233665
135,KAVERI GRAMEENA BANK,KGRB0000145,HOYISALAKATTE,HOYISALAKATTECHIKKANAYAKANAHALLY TALUK,TUMAKURU,TUMAKURU,KARNATAKA,9886493665
136,KAVERI GRAMEENA BANK,KGRB0000146,BELADHARA,BELADHARATUMAKURU TALUK,TUMAKURU,TUMAKURU,KARNATAKA,2245625
137,KAVERI GRAMEENA BANK,KGRB0000147,KORA,KORATUMAKURU TALUK,TUMAKURU,TUMAKURU,KARNATAKA,2242143
138,KAVERI GRAMEENA BANK,KGRB0000148,CHENNAKESHAVAPURA,CHENNAKESHAVAPURAPAVAGADA TALUK,TUMAKURU,TUMAKURU,KARNATAKA,249133
139,KAVERI GRAMEENA BANK,KGRB0000149,GARANI,GARANI MADHUGIRI TALUK,TUMAKURU,TUMAKURU,KARNATAKA,9902263012
140,KAVERI GRAMEENA BANK,KGRB0000150,NYAYADAKUNTE,NYAYADAKUNTE PAVAGADA TALUK,TUMAKURU,TUMAKURU,KARNATAKA,244870
141,KAVERI GRAMEENA BANK,KGRB0000151,PAVAGADA,OPPOSITE MUNCIPAL OFFICEPAVAGADA TALUK,TUMAKURU,TUMAKURU,KARNATAKA,244870
142,KAVERI GRAMEENA BANK,KGRB0000152,UTHRIDURGA,"B.H.MUTT ROAD,UTHRIDURGA KUNIGAL TALUK",TUMAKURU,TUMAKURU,KARNATAKA,227015
143,KAVERI GRAMEENA BANK,KGRB0000153,BIDARE,BIDAREGUBBI TALUK,TUMAKURU,TUMAKURU,KARNATAKA,235901
144,KAVERI GRAMEENA BANK,KGRB0000154,CHIKKATHOTLUKERE,CHIKKATHOTLUKERETUMAKURU TALUK,TUMAKURU,TUMAKURU,KARNATAKA,2245558
145,KAVERI GRAMEENA BANK,KGRB0000155,HUNASEGATTA,HUNASEGATTATIPTUR TALUK,TUMAKURU,TUMAKURU,KARNATAKA,265264
146,KAVERI GRAMEENA BANK,KGRB0000156,HULLEKERE,HULLEKERE TURUVEKERE TALUK,TUMAKURU,TUMAKURU,KARNATAKA,285229
147,KAVERI GRAMEENA BANK,KGRB0000157,D KYMARA,D KYMARAMADHUGIRI TALUK,TUMAKURU,TUMAKURU,KARNATAKA,8861243920
148,KAVERI GRAMEENA BANK,KGRB0000158,MAVINAHALLY,"HEBBUR C.S.PURA ROAD,MAVINAHALLYGUBBI TALUK",TUMAKURU,TUMAKURU,KARNATAKA,241570
149,KAVERI GRAMEENA BANK,KGRB0000159,DODDAHULIKUNTE,DODDAHULIKUNTESIRA TALUK,TUMAKURU,TUMAKURU,KARNATAKA,270085
150,KAVERI GRAMEENA BANK,KGRB0000160,HOSAKERE,HOSAKEREGUBBI TALUK,TUMAKURU,TUMAKURU,KARNATAKA,243430
151,KAVERI GRAMEENA BANK,KGRB0000161,NIDASALE,NIDASALEKUNIGAL TALUK,TUMAKURU,TUMAKURU,KARNATAKA,223964
152,KAVERI GRAMEENA BANK,KGRB0000162,THEETHA,THEETHAKORATAGERE TALUK,TUMAKURU,TUMAKURU,KARNATAKA,266940
153,KAVERI GRAMEENA BANK,KGRB0000163,KANDIKERE,KANDIKERECHIKKANAYAKANAHALLY TALUK,TUMAKURU,TUMAKURU,KARNATAKA,266940
154,KAVERI GRAMEENA BANK,KGRB0000164,YELANADU,YELANADUCHIKKANAYAKANAHALLY TALUK,TUMAKURU,TUMAKURU,KARNATAKA,234517
155,KAVERI GRAMEENA BANK,KGRB0000165,AKKIRAMAPURA,"VIA HOLAVANAHALLY, AKKIRAMPURAKORATAGERE TALUK",TUMAKURU,TUMAKURU,KARNATAKA,0
156,KAVERI GRAMEENA BANK,KGRB0000166,THEERTHAPURA,THEERTHAPURA CHIKKANAYAKANAHALLY TALUK,TUMAKURU,TUMAKURU,KARNATAKA,0
157,KAVERI GRAMEENA BANK,KGRB0000167,KORATAGERE,KORATAGEREKORATAGERE TALUK,TUMAKURU,TUMAKURU,KARNATAKA,240848
158,KAVERI GRAMEENA BANK,KGRB0000168,NAGALAMADIKE,NAGALAMADIKEPAVAGADA TALUK,TUMAKURU,TUMAKURU,KARNATAKA,240848
159,KAVERI GRAMEENA BANK,KGRB0000169,GUBBI,"1ST FLOOR, SMS BUILDING, M.G.ROAD, GUBBISIRA TALUK",TUMAKURU,TUMAKURU,KARNATAKA,223281
160,KAVERI GRAMEENA BANK,KGRB0000170,TURUVEKERE,"BIRLA CORNER,TURUVEKERETURUVEKERE TALUK",TUMAKURU,TUMAKURU,KARNATAKA,287613
161,KAVERI GRAMEENA BANK,KGRB0000171,MADHUGIRI,"SUKRUTH ARCADE,T.A.P.C.M.S. OPPOSITE,TUMKUR ROADMADHUGIRI TALUK",TUMAKURU,TUMAKURU,KARNATAKA,282119
162,KAVERI GRAMEENA BANK,KGRB0000172,SIRA,"SBM ROAD, SIRA SIRA TALUK",TUMAKURU,TUMAKURU,KARNATAKA,276485
163,KAVERI GRAMEENA BANK,KGRB0000173,MGROAD TUMKUR,"HONNAKAMALA CREST,GENERAL KARIYAPPA ROAD, M.G.ROAD TUMAKURU TALUK",TUMAKURU,TUMAKURU,KARNATAKA,2257240
164,KAVERI GRAMEENA BANK,KGRB0000174,CHIKKANAYAKANAHALLY,"1ST FLOOR, OPP.DVP GOVT. HIGH SCHOOL,CHIKKANAYAKANAHALLY TALUK",TUMAKURU,TUMAKURU,KARNATAKA,267676
165,KAVERI GRAMEENA BANK,KGRB0000175,TEPPADA BEGUR,TEPPADA BEGURNELAMANGALA TALUK,BENGALURU RURAL,BENGALURU RURAL,KARNATAKA,27733515
166,KAVERI GRAMEENA BANK,KGRB0000176,SOLUR,SOLURMAGADI TALUK,RAMANAGARA,RAMANAGARA,KARNATAKA,27757173
167,KAVERI GRAMEENA BANK,KGRB0000177,HOSAHALLY,HOSAHALLIDODDABALLAPURA TALUK,BENGALURU RURAL,BENGALURU RURAL,KARNATAKA,27656073
168,KAVERI GRAMEENA BANK,KGRB0000178,MUGABALA,MUGABALAHOSAKOTE TALUK,BENGALURU RURAL,BENGALURU RURAL,KARNATAKA,27905636
169,KAVERI GRAMEENA BANK,KGRB0000179,KALKUNTE,VIA KADUGODI HOSAKOTE TALUK,BENGALURU RURAL,BENGALURU RURAL,KARNATAKA,9900059534
170,KAVERI GRAMEENA BANK,KGRB0000180,SINGARAJAPURA,VIA HONGANUR CHANNAPATNA TALUK,RAMANAGARA,RAMANAGARA,KARNATAKA,27264840
171,KAVERI GRAMEENA BANK,KGRB0000181,ARADESHAHALLY,"KUNDANA HOBLI,JALIGE POSTDEVANAHALLY TALUK",BENGALURU RURAL,BENGALURU RURAL,KARNATAKA,9901939606
172,KAVERI GRAMEENA BANK,KGRB0000182,ARUDI,ARUDIDODDABALLAPURA TALUK,BENGALURU RURAL,BENGALURU RURAL,KARNATAKA,7899840949
173,KAVERI GRAMEENA BANK,KGRB0000183,MAGADI,"NEAR KALYA GATE, MAGADI TALUK",RAMANAGARA,RAMANAGARA,KARNATAKA,27745502
174,KAVERI GRAMEENA BANK,KGRB0000184,MALLIMAKANAPURA,NANDAGUDI ROADHOSAKOTE TALUK,BENGALURU RURAL,BENGALURU RURAL,KARNATAKA,27900098
175,KAVERI GRAMEENA BANK,KGRB0000185,KYLANCHA,KYLANCHA POSTRAMANAGARA TALUK,RAMANAGARA,RAMANAGARA,KARNATAKA,27201366
176,KAVERI GRAMEENA BANK,KGRB0000186,CHIKKAMUDAVADI,RAMANAGARA - KANAKAPURA MAIN RAODKANAKAPURA TALUK,RAMANAGARA,RAMANAGARA,KARNATAKA,27559553
177,KAVERI GRAMEENA BANK,KGRB0000187,KOLLIGANAHALLY,"VIA HAROHALLY, KANAKAPURA TALUK",RAMANAGARA,RAMANAGARA,KARNATAKA,9242642907
178,KAVERI GRAMEENA BANK,KGRB0000188,DASAVARA,MALUR HOBLICHANNAPATNA TALUK,RAMANAGARA,RAMANAGARA,KARNATAKA,27265452
179,KAVERI GRAMEENA BANK,KGRB0000189,HOSADURGA,HOSADURGAKANAKAPURA TALUK,RAMANAGARA,RAMANAGARA,KARNATAKA,9663758465
180,KAVERI GRAMEENA BANK,KGRB0000190,CHENNARAYAPATNA DEVANAHALLI,"VIA VIJAYAPURA, DEVANAHALLY TALUK",BENGALURU RURAL,BENGALURU RURAL,KARNATAKA,27644543
181,KAVERI GRAMEENA BANK,KGRB0000191,KARAHALLY,KARAHALLYDEVENAHALLY TALUK,BENGALURU RURAL,BENGALURU RURAL,KARNATAKA,27646385
182,KAVERI GRAMEENA BANK,KGRB0000192,LAKSHMIPURA,VIA V G DODDYRAMANAGARA TALUK,RAMANAGARA,RAMANAGARA,KARNATAKA,27286500
183,KAVERI GRAMEENA BANK,KGRB0000193,JAKKASANDRA,"BANGALORE KANAKAPURA ROAD,VIA HAROHALLYKANAKAPURA TALUK",RAMANAGARA,RAMANAGARA,KARNATAKA,27503375
184,KAVERI GRAMEENA BANK,KGRB0000194,KANAKAPURA,BHOODIKERI ROAD KANAKAPURA TALUK,RAMANAGARA,RAMANAGARA,KARNATAKA,27524188
185,KAVERI GRAMEENA BANK,KGRB0000195,DEVANHALLY,"RK FLAZA,GIRIYAMMA CIRCLE,22ND WARD,NEAR COURT,SULIBELE ROADDEVANAHALLY TALUK",BENGALURU RURAL,BENGALURU RURAL,KARNATAKA,27682972
186,KAVERI GRAMEENA BANK,KGRB0000196,HOSAKOTE,"1ST MAIN ROAD, T.G.EXTN. HOSAKOTE TALUK",BENGALURU RURAL,BENGALURU RURAL,KARNATAKA,27932505
187,KAVERI GRAMEENA BANK,KGRB0000197,CHANNAPATNA,"BANGALORE MYSORE ROAD, KUVEMPUNAGAR, CHANNAPATNA TALUK",RAMANAGARA,RAMANAGARA,KARNATAKA,27254810
188,KAVERI GRAMEENA BANK,KGRB0000198,DODDABALLAPURA,"ARASAPPA COMPLEX, HEMAVATHIPETEDODDABALLAPURA TALUK",BENGALURU RURAL,BENGALURU RURAL,KARNATAKA,27625149
189,KAVERI GRAMEENA BANK,KGRB0000199,RAJANKUNTE,"SINGANAYAKANAHALLY PO,BENGALURU NORTH TALUK",BENGALURU URBAN,BENGALURU URBAN,KARNATAKA,28468307
190,KAVERI GRAMEENA BANK,KGRB0000200,BELLANDUR,BELLANDURBENGALURU EAST TALUK,BENGALURU URBAN,BENGALURU URBAN,KARNATAKA,28439762
191,KAVERI GRAMEENA BANK,KGRB0000201,KOTHANUR,KOTHANURBENGALURU EAST TALUK,BENGALURU URBAN,BENGALURU URBAN,KARNATAKA,28465349
192,KAVERI GRAMEENA BANK,KGRB0000202,HAVANOOR,HAVANOORBENGALURU NORTH TALUK,BENGALURU URBAN,BENGALURU URBAN,KARNATAKA,28398529
193,KAVERI GRAMEENA BANK,KGRB0000203,DASANPURA,"DASANPURA,VIA NELAMANGALABENGALURU NORTH TALUK",BENGALURU URBAN,BENGALURU URBAN,KARNATAKA,22795569
194,KAVERI GRAMEENA BANK,KGRB0000204,HUSKUR,"HUSKUR VILLAGE AND POST,VIA BOMMASANDRA INDL.AREAANEKAL TALUK",BENGALURU URBAN,BENGALURU URBAN,KARNATAKA,7899840929
195,KAVERI GRAMEENA BANK,KGRB0000205,HENNAGARA,"HENNAGARA GATE,BOMMAANDRA POSTANEKAL TALUK",BENGALURU URBAN,BENGALURU URBAN,KARNATAKA,27831774
196,KAVERI GRAMEENA BANK,KGRB0000206,KUMBALAGODU,BANGALORE - MYSORE ROADBENGALURU SOUTH TALUK,BENGALURU URBAN,BENGALURU URBAN,KARNATAKA,28437474
197,KAVERI GRAMEENA BANK,KGRB0000207,MYLANAHALLY,MYLANAHALLYBENGALURU NORTH TALUK,BENGALURU URBAN,BENGALURU URBAN,KARNATAKA,0
198,KAVERI GRAMEENA BANK,KGRB0000208,YELAHANKA,NO 1 KHB COLONY GANDHINAGAR B B ROAD YELAHANKA OLD TOWNBENGALURU NORTH TALUK,BENGALURU URBAN,BENGALURU URBAN,KARNATAKA,28563154
199,KAVERI GRAMEENA BANK,KGRB0000209,MALATHAHALLY,"IST FLOOR, ULLAL ROAD BENGALURU NORTH TALUK",BENGALURU URBAN,BENGALURU URBAN,KARNATAKA,23240552
200,KAVERI GRAMEENA BANK,KGRB0000210,BANSHANKARI,"2236, OPP. SRI LAKSHMI VENKATESWARA KALYANA MANTAPA, 23RD CROSS,2ND STAGE, BANASHANKARIBENGALURU SOUTH TALUK",BENGALURU URBAN,BENGALURU URBAN,KARNATAKA,26768788
201,KAVERI GRAMEENA BANK,KGRB0000211,NELAMANGALA,"OLD MYSORE BANK ROAD, OPP. MINI VIDHANA SOUDHA NELAMANGALA TALUK",BENGALURU RURAL,BENGALURU RURAL,KARNATAKA,27723451
202,KAVERI GRAMEENA BANK,KGRB0000212,BYRAMANGALA,"BIDADI - HAROHALLY ROAD,BIDADI HOBLIRAMANAGAR TALUK",RAMANAGARA,RAMANAGARA,KARNATAKA,27283731
203,KAVERI GRAMEENA BANK,KGRB0000213,RAMANAGARA,"MAGADI ROAD, KEMPEGOWDA CIRCLE RAMANAGARA TALUK",RAMANAGARA,RAMANAGARA,KARNATAKA,27273021
204,KAVERI GRAMEENA BANK,KGRB0000214,BHOGADI,"NO.719, MYSORE GADDIGE ROAD,MYSURU TALUK",MYSURU,MYSURU,KARNATAKA,2469517
205,KAVERI GRAMEENA BANK,KGRB0000215,SRIRAMPURA,"NO. 14, MANANDAVADI VIVEKANANDA NAGAR ROMYSURU TALUK",MYSURU,MYSURU,KARNATAKA,2469529
206,KAVERI GRAMEENA BANK,KGRB0000216,HANUMANTHAPURA,"NEAR TUDA OFFICE,BELAGUMBA ROAD,HANUMANTHAPURATUMAKURU TALUK",TUMAKURU,TUMAKURU,KARNATAKA,2279377
207,KAVERI GRAMEENA BANK,KGRB0000217,ANEKAL,"MR COMPLEX,1ST FLOOR,MIRJA ROAD,562106ANEKAL TALUK",BENGALURU URBAN,BENGALURU URBAN,KARNATAKA,27841543
208,KAVERI GRAMEENA BANK,KGRB0000218,NONAVINAKERE,NONAVINAKERETIPTUR TALUK,TUMAKURU,TUMAKURU,KARNATAKA,258200
209,KAVERI GRAMEENA BANK,KGRB0000219,THANISANDRA,HEMANNA COMPLEX BANGALORE EAST TALUK,BENGALURU URBAN,BENGALURU URBAN,KARNATAKA,28465717
210,KAVERI GRAMEENA BANK,KGRB0000220,KUNIGAL,"RAGHU COMPLEX,KUNIGALKUNIGAL TALUK",TUMAKURU,TUMAKURU,KARNATAKA,221173
211,KAVERI GRAMEENA BANK,KGRB0000221,YELAWALA,YELAWALAMYSURU TALUK,MYSURU,MYSURU,KARNATAKA,2402838
212,KAVERI GRAMEENA BANK,KGRB0000222,URIDIGERE,URDIGERETUMAKURU TALUK,TUMAKURU,TUMAKURU,KARNATAKA,2265255
213,KAVERI GRAMEENA BANK,KGRB0000223,BYADARAHALLI,"RATHNA COMPLEX,SITE NO./1/A(76),BALAJI LAYOUT, HEROHALLY SUB DIV,MAGADI MAIN RD",BENGALURU URBAN,BENGALURU URBAN,KARNATAKA,23286968
214,KAVERI GRAMEENA BANK,KGRB0000224,IMMADIHALLY,"KH NO.25, 1ST FLOOR, WHITE FIELD MAIN ROADBENGALURU EAST TALUK",BENGALURU URBAN,BENGALURU URBAN,KARNATAKA,28454382
215,KAVERI GRAMEENA BANK,KGRB0000225,CHANNAPATNA HASSAN,"BEHIND GOVT. PU COLLEGEHN PURA ROAD, CHANNAPATNA",HASSAN,HASSAN,KARNATAKA,243031
216,KAVERI GRAMEENA BANK,KGRB0000226,BANNIKUPPE,KASABA HOBLIHUNSUR TALUK,MYSURU,MYSURU,KARNATAKA,244344
217,KAVERI GRAMEENA BANK,KGRB0000227,BETTADAPURA,BETTADAPURAPERIYAPATNA TALUK,MYSURU,MYSURU,KARNATAKA,275300
218,KAVERI GRAMEENA BANK,KGRB0000228,NAGAVALLI,"T.P ROAD, 1ST MAIN,NAGAVALLITUMAKURU TALUK",TUMAKURU,TUMAKURU,KARNATAKA,2248588
219,KAVERI GRAMEENA BANK,KGRB0000229,HEGGERE,"S.P COMPLEX, B.H ROAD,HEGGERETUMAKURU TALUK",TUMAKURU,TUMAKURU,KARNATAKA,2206101
220,KAVERI GRAMEENA BANK,KGRB0000230,BILLAPURA GATE,"R&R COMPLEX,EXIDE GATE,SARJAPURA MAIN ROAD,SARJAPURA POST,ANEKAL TALUK",BENGALURU URBAN,BENGALURU URBAN,KARNATAKA,27823030
221,KAVERI GRAMEENA BANK,KGRB0000231,HULLAHALLI,HURA ROAD YASHODHA COMPLEXNANJANAGUD TALUK,MYSURU,MYSURU,KARNATAKA,220777
222,KAVERI GRAMEENA BANK,KGRB0000232,AJJIPURA,"MYSURU MAIN ROAD,AJJIPURAKOLLEGALA TALUK",CHAMARAJANAGARA,CHAMARAJANAGARA,KARNATAKA,269090
223,KAVERI GRAMEENA BANK,KGRB0000233,BELWADI,BELAWADIMYSURU TALUK,MYSURU,MYSURU,KARNATAKA,2408699
224,KAVERI GRAMEENA BANK,KGRB0000234,HALEBIDU,HALEBIDUBELUR TALUK,HASSAN,HASSAN,KARNATAKA,273015
225,KAVERI GRAMEENA BANK,KGRB0000235,MIDAGESHI,MIDAGESHI MADHUGIRI TALUK,TUMAKURU,TUMAKURU,KARNATAKA,278676
226,KAVERI GRAMEENA BANK,KGRB0000236,HONNAVALLI,HONNAVALLITIPTUR TALUK,TUMAKURU,TUMAKURU,KARNATAKA,264400
227,KAVERI GRAMEENA BANK,KGRB0000237,AVALAHALLI,"OLD MADRAS ROAD,BANGALORE EAST TALUKBENGALURU EAST TALUK",BENGALURU URBAN,BENGALURU URBAN,KARNATAKA,28471004
228,KAVERI GRAMEENA BANK,KGRB0000238,MANDUR,"10TH MAIN VIVEKANANDA ROAD,BANGALORE EASBENGALURU EAST TALUK",BENGALURU URBAN,BENGALURU URBAN,KARNATAKA,28470435
229,KAVERI GRAMEENA BANK,KGRB0000239,DODDATHOGURU,"393, ELECTRONIC CITY (POST),BEGUR HOBLIBENGALURU SOUTH TALUK",BENGALURU URBAN,BENGALURU URBAN,KARNATAKA,28520358
230,KAVERI GRAMEENA BANK,KGRB0000240,CHIKKABASTHI,"SITE NO.2 & 3, 1ST FLOOR,10TH MAIN,SONNENAHALLI CIRCLE,DODDABASTHI ROADBENGALURU NORTH TALUK",BENGALURU URBAN,BENGALURU URBAN,KARNATAKA,22718626
231,KAVERI GRAMEENA BANK,KGRB0000241,KONANUR,KONANURARAKALGUD TALUK,HASSAN,HASSAN,KARNATAKA,226090
232,KAVERI GRAMEENA BANK,KGRB0000242,SATHYAMANGALA,"B. KATIHALLI, OFF ARSIKERE ROADHASSAN TALUK",HASSAN,HASSAN,KARNATAKA,240124
233,KAVERI GRAMEENA BANK,KGRB0000243,KALLUR CROSS,KALLUR CROSSGUBBI TALUK,TUMAKURU,TUMAKURU,KARNATAKA,0
234,KAVERI GRAMEENA BANK,KGRB0000244,BATTARA MARENAHALLI,BUDIGERE POSTDEVANAHALLI TALUK,BENGALURU RURAL,BENGALURU RURAL,KARNATAKA,9611333113
235,KAVERI GRAMEENA BANK,KGRB0000245,ALANAHALLY,"T.NARASIPURA ROAD, MYSOREMYSURU TALUK",MYSURU,MYSURU,KARNATAKA,2469542
236,KAVERI GRAMEENA BANK,KGRB0000246,THANNIRU HALLA,"THANNIRU HALLA,BELUR CIRCLEHASSAN TALUK",HASSAN,HASSAN,KARNATAKA,257222
237,KAVERI GRAMEENA BANK,KGRB0000247,CHIKMAGALUR,I G ROAD CHIKMAGALUR CITYCHIKMAGALUR TALUK,CHIKMAGALUR,CHIKMAGALUR,KARNATAKA,235367
238,KAVERI GRAMEENA BANK,KGRB0000248,GUDDEHOSUR,VIA-KUSHALNAGARSOMAWARAPETE TALUK,KODAGU,KODAGU,KARNATAKA,279120
239,KAVERI GRAMEENA BANK,KGRB0000249,MUGULAVALLI,MUGULAVALLICHIKAMAGLUR TALUK,CHIKMAGALUR,CHIKMAGALUR,KARNATAKA,248654
240,KAVERI GRAMEENA BANK,KGRB0000250,SAMSE,"SAMSE,VIA-KALASAMUDIGERE TALUK",CHIKMAGALUR,CHIKMAGALUR,KARNATAKA,249220
241,KAVERI GRAMEENA BANK,KGRB0000251,KOYNADU,KOYNADUMADIKERI TALUK,KODAGU,KODAGU,KARNATAKA,239711
242,KAVERI GRAMEENA BANK,KGRB0000252,PERAJE,PERAJEMADIKERI TALUK,KODAGU,KODAGU,KARNATAKA,234611
243,KAVERI GRAMEENA BANK,KGRB0000253,NAPOKLU,OPPOSITE POLICE STATIONMADIKERI TALUK,KODAGU,KODAGU,KARNATAKA,263515
244,KAVERI GRAMEENA BANK,KGRB0000254,MALLENAHALLI,MALLENAHALLICHIKMAGALUR TALUK,CHIKMAGALUR,CHIKMAGALUR,KARNATAKA,257035
245,KAVERI GRAMEENA BANK,KGRB0000255,KANCHIGALBIDARE,KANCHIGALBIDAREKADUR TALUK,CHIKMAGALUR,CHIKMAGALUR,KARNATAKA,233111
246,KAVERI GRAMEENA BANK,KGRB0000256,SHANTHAVERI,SHANTHAVERITARIKERE TALUK,CHIKMAGALUR,CHIKMAGALUR,KARNATAKA,267095
247,KAVERI GRAMEENA BANK,KGRB0000257,KUMBUR,"VIA SOMAWARAPETE, SOMAWARAPETE TALUKSOMAWARAPETE TALUK",KODAGU,KODAGU,KARNATAKA,275140
248,KAVERI GRAMEENA BANK,KGRB0000258,SHIRANGALA,"VIA-KUDIGE, SOMAWARAPETE TALUKSOMAWARAPETE TALUK",KODAGU,KODAGU,KARNATAKA,276277
249,KAVERI GRAMEENA BANK,KGRB0000259,HALMATHUR,HALMATHURKOPPA TALUK,CHIKMAGALUR,CHIKMAGALUR,KARNATAKA,232169
250,KAVERI GRAMEENA BANK,KGRB0000260,AGALAGANDI,VIA-SRINGERIKOPPA TALUK,CHIKMAGALUR,CHIKMAGALUR,KARNATAKA,242072
251,KAVERI GRAMEENA BANK,KGRB0000261,NEMMARU,NEMMARUSRINGERI TALUK,CHIKMAGALUR,CHIKMAGALUR,KARNATAKA,257011
252,KAVERI GRAMEENA BANK,KGRB0000262,VOKKALAGERE,"VIA-YAGATI,VAKKALAGERE VILLAGE & POSTKADUR TALUK",CHIKMAGALUR,CHIKMAGALUR,KARNATAKA,249120
253,KAVERI GRAMEENA BANK,KGRB0000263,MUGUTHIHALLI,MUGUTHIHALLICHIKMAGALUR TALUK,CHIKMAGALUR,CHIKMAGALUR,KARNATAKA,224531
254,KAVERI GRAMEENA BANK,KGRB0000264,VIRAJPETE,NEAR KSRTC BUS STANDVIRAJPETE TALUK,KODAGU,KODAGU,KARNATAKA,257928
255,KAVERI GRAMEENA BANK,KGRB0000265,CHETTIMANI,VIA BHAGAMANDALAMADIKERI TALUK,KODAGU,KODAGU,KARNATAKA,236019
256,KAVERI GRAMEENA BANK,KGRB0000266,SUNTIKOPPA,VIA MADIKERISOMAWARAPETE TALUK,KODAGU,KODAGU,KARNATAKA,262957
257,KAVERI GRAMEENA BANK,KGRB0000267,LAKYA,LAKYACHIKMAGALUR TALUK,CHIKMAGALUR,CHIKMAGALUR,KARNATAKA,244555
258,KAVERI GRAMEENA BANK,KGRB0000268,UDDEBORANAHALLI,UDDEBORANAHALLICHIKMAGALUR TALUK,CHIKMAGALUR,CHIKMAGALUR,KARNATAKA,225020
259,KAVERI GRAMEENA BANK,KGRB0000269,KOTTIGEHARA,KOTTIGEHARAMUDIGERE TALUK,CHIKMAGALUR,CHIKMAGALUR,KARNATAKA,232042
260,KAVERI GRAMEENA BANK,KGRB0000270,AMBLE,AMBLE VILLAGE AND POSTCHIKMAGALUR TALUK,CHIKMAGALUR,CHIKMAGALUR,KARNATAKA,234505
261,KAVERI GRAMEENA BANK,KGRB0000271,ANEGERE,ANEGEREKADUR TALUK,CHIKMAGALUR,CHIKMAGALUR,KARNATAKA,262111
262,KAVERI GRAMEENA BANK,KGRB0000272,BEGURU,BEGURUTARIKERE TALUK,CHIKMAGALUR,CHIKMAGALUR,KARNATAKA,251111
263,KAVERI GRAMEENA BANK,KGRB0000273,JOLDAL,JOLDALCHIKMAGALUR TALUK,CHIKMAGALUR,CHIKMAGALUR,KARNATAKA,262059
264,KAVERI GRAMEENA BANK,KGRB0000274,MUDIGERE,G T K TOWERS K M ROAD MUDIGEREMUDIGERE TALUK,CHIKMAGALUR,CHIKMAGALUR,KARNATAKA,221591
265,KAVERI GRAMEENA BANK,KGRB0000275,BHARATHIBAIL,POST-B.HOSAHALLIMUDIGERE TALUK,CHIKMAGALUR,CHIKMAGALUR,KARNATAKA,267077
266,KAVERI GRAMEENA BANK,KGRB0000276,SHANUVALLI,VIA HARIHARAPURAKOPPA TALUK,CHIKMAGALUR,CHIKMAGALUR,KARNATAKA,241038
267,KAVERI GRAMEENA BANK,KGRB0000277,KUNKANADU,KUNKANADUKOPPA TALUK,CHIKMAGALUR,CHIKMAGALUR,KARNATAKA,258535
268,KAVERI GRAMEENA BANK,KGRB0000278,DEVARAPURA,VIA-GONIKOPPALVIRAJPETE TALUK,KODAGU,KODAGU,KARNATAKA,247102
269,KAVERI GRAMEENA BANK,KGRB0000279,KARMADU,KARMADUVIRAJPETE TALUK,KODAGU,KODAGU,KARNATAKA,272293
270,KAVERI GRAMEENA BANK,KGRB0000280,KIRGOOR,KIRGOORVIRAJPETE TALUK,KODAGU,KODAGU,KARNATAKA,275776
271,KAVERI GRAMEENA BANK,KGRB0000281,MADIKERI,COLLEGE ROADMADIKERI TALUK,KODAGU,KODAGU,KARNATAKA,229951
272,KAVERI GRAMEENA BANK,KGRB0000282,HAKATHUR,HAKATHURMADIKERI TALUK,KODAGU,KODAGU,KARNATAKA,227305
273,KAVERI GRAMEENA BANK,KGRB0000283,TOLURUSHETTALLI,TOLURUSHETTALLISOMAWARAPETE TALUK,KODAGU,KODAGU,KARNATAKA,288766
274,KAVERI GRAMEENA BANK,KGRB0000284,SINDIGERE BIDARE,KALASAPURA POSTKADUR TALUK,CHIKMAGALUR,CHIKMAGALUR,KARNATAKA,237024
275,KAVERI GRAMEENA BANK,KGRB0000285,MALALI CHENNENAHALLI,MALALI CHENNENAHALLITARIKERE TALUK,CHIKMAGALUR,CHIKMAGALUR,KARNATAKA,240142
276,KAVERI GRAMEENA BANK,KGRB0000286,HIREMAGALUR,JYOTHI NAGAR POSTCHIKMAGALUR TALUK,CHIKMAGALUR,CHIKMAGALUR,KARNATAKA,236471
277,KAVERI GRAMEENA BANK,KGRB0000287,KANATHI,VIA-ALDURCHIKMAGALUR TALUK,CHIKMAGALUR,CHIKMAGALUR,KARNATAKA,253036
278,KAVERI GRAMEENA BANK,KGRB0000288,GONIKOPPAL,"GOWRI COMPLEX, MYSORE ROAD, GONIKOPPALVIRAJPETE TALUK",KODAGU,KODAGU,KARNATAKA,248001
279,KAVERI GRAMEENA BANK,KGRB0000289,BALEHONNUR,"SRNIVASA BLDG, OPP BUS STAND, BALEHONNURN R PURA TALUK",CHIKMAGALUR,CHIKMAGALUR,KARNATAKA,250707
280,KAVERI GRAMEENA BANK,KGRB0000290,ZILLAPANCHAYATH,"K.M.ROAD,JYOTHI NAGAR POST, CHIKMAGALUR CHIKMAGALUR TALUK",CHIKMAGALUR,CHIKMAGALUR,KARNATAKA,220965
281,KAVERI GRAMEENA BANK,KGRB0000291,KOPPA,"MAIN ROAD,MAMCOS BLDG,FIRST FLOOR,NEAR BUS STANDKOPPA TALUK",CHIKMAGALUR,CHIKMAGALUR,KARNATAKA,223205
282,KAVERI GRAMEENA BANK,KGRB0000292,KADUR,"OPP CHETHANA HOSPITAL,T B ROADKADUR TALUK",CHIKMAGALUR,CHIKMAGALUR,KARNATAKA,221472
283,KAVERI GRAMEENA BANK,KGRB0000293,SOMWARPET,"THYAGARAJA ROAD, SOMWARPETSOMAWARAPET TALUK",KODAGU,KODAGU,KARNATAKA,284650
284,KAVERI GRAMEENA BANK,KGRB0000294,SAKHARAYAPATNA,"K M ROAD, NEAR POLICE STATIONKADUR TALUK",CHIKMAGALUR,CHIKMAGALUR,KARNATAKA,244788
285,KAVERI GRAMEENA BANK,KGRB0000295,KUSHALNAGAR,"SHYLAJA ARCADE IB ROAD,KUSHALANAGARSOMAWARAPET TALUK",KODAGU,KODAGU,KARNATAKA,271144
286,KAVERI GRAMEENA BANK,KGRB0000296,BIRUR,"AREKAL COMPLEX,NEAR KSRTC BUS STAND,K M ROADKADUR TALUK",CHIKMAGALUR,CHIKMAGALUR,KARNATAKA,255722
287,KAVERI GRAMEENA BANK,KGRB0000297,NARASIMARAJAPURA,"DHANYA COMPLEX, MAIN ROAD,NEAR BUS STANN R PURA TALUK",CHIKMAGALUR,CHIKMAGALUR,KARNATAKA,220775
288,KAVERI GRAMEENA BANK,KGRB0000298,TARIKERE,"RANGANATH COMPLEX, B.H.ROADTARIKERE TALUK",CHIKMAGALUR,CHIKMAGALUR,KARNATAKA,222121
289,KAVERI GRAMEENA BANK,KGRB0000299,AJJAMPURA,"NEAR WATER TANK, GANDHI CIRCLE, AJJAMPURTARIKERE TALUK",CHIKMAGALUR,CHIKMAGALUR,KARNATAKA,245005
290,KAVERI GRAMEENA BANK,KGRB0000300,SHRIMANGALA,"MATS COMPLEX,NEAR BUS STAND,MAIN ROAD, SHRIMANAGALA, VIRAJPETE TALUK",KODAGU,KODAGU,KARNATAKA,246070
291,KAVERI GRAMEENA BANK,KGRB0000301,BAVIKERE,"NEAR BUS STAND,RANGENAHALLI POSTTARIKERE TALUK",CHIKMAGALUR,CHIKMAGALUR,KARNATAKA,255395
292,KAVERI GRAMEENA BANK,KGRB0000302,JAYAPURA,"MAIN ROAD, VIA-BALEHONNURKOPPA TALUK",CHIKMAGALUR,CHIKMAGALUR,KARNATAKA,245040
293,KAVERI GRAMEENA BANK,KGRB0000303,ALLAMPURA,"ALLAMPURA,KAIMARA POSTCHIKMAGALUR TALUK",CHIKMAGALUR,CHIKMAGALUR,KARNATAKA,222201
294,KAVERI GRAMEENA BANK,KGRB0000304,KODLIPETE,"N M ROAD, KODLIPETESOMWARPET TALUK",KODAGU,KODAGU,KARNATAKA,280290
295,KAVERI GRAMEENA BANK,KGRB0000305,MANDYA,"SAHYADRI COMPLEX,100FT ROAD,MANDYAMANDYA TALUK",MANDYA,MANDYA,KARNATAKA,225773
296,KAVERI GRAMEENA BANK,KGRB0000306,YADAGANAHALLI,YADAGANAHALLIMADDUR TALUK,MANDYA,MANDYA,KARNATAKA,293435
297,KAVERI GRAMEENA BANK,KGRB0000307,MALAVALLI,"MYSORE ROAD, MALAVALLIMALAVALLI TALUK",MANDYA,MANDYA,KARNATAKA,242576
298,KAVERI GRAMEENA BANK,KGRB0000308,KALAMUDDANADODDI,"BHARATHI NAGAR,MADDUR-MALAVALLY ROADMADDUR TALUK",MANDYA,MANDYA,KARNATAKA,235450
299,KAVERI GRAMEENA BANK,KGRB0000309,KOOLAGERE,MADDUR-MALAVALLI ROADMADDUR TALUK,MANDYA,MANDYA,KARNATAKA,237078
300,KAVERI GRAMEENA BANK,KGRB0000310,HALAGUR,HALAGURMALAVALLI TALUK,MANDYA,MANDYA,KARNATAKA,295537
301,KAVERI GRAMEENA BANK,KGRB0000311,ARALAKUPPE,ARALAKUPPEPANDAVAPURA TALUK,MANDYA,MANDYA,KARNATAKA,254114
302,KAVERI GRAMEENA BANK,KGRB0000312,SARANGI,SARANGIK R PET TALUK,MANDYA,MANDYA,KARNATAKA,210333
303,KAVERI GRAMEENA BANK,KGRB0000313,BRAHMADEVARAHALLI,NAGAMANGALANAGAMANGALA TALUK,MANDYA,MANDYA,KARNATAKA,280007
304,KAVERI GRAMEENA BANK,KGRB0000314,HADLI,HADLIMALAVALLI TALUK,MANDYA,MANDYA,KARNATAKA,246117
305,KAVERI GRAMEENA BANK,KGRB0000315,TENDEKERE,TENDEKEREK R PET TALUK,MANDYA,MANDYA,KARNATAKA,211286
306,KAVERI GRAMEENA BANK,KGRB0000316,KIKKERI,KIKKERIK R PET TALUK,MANDYA,MANDYA,KARNATAKA,265474
307,KAVERI GRAMEENA BANK,KGRB0000317,DODDABEDARAHALLI,DODDABEDARAHALLIPANDAVAPURA TALUK,MANDYA,MANDYA,KARNATAKA,269144
308,KAVERI GRAMEENA BANK,KGRB0000318,SUNKATHONNUR,SUNKATHONNURPANDAVAPURA TALUK,MANDYA,MANDYA,KARNATAKA,215828
309,KAVERI GRAMEENA BANK,KGRB0000319,THAGGAHALLI,THAGGAHALLIMANDYA TALUK,MANDYA,MANDYA,KARNATAKA,234093
310,KAVERI GRAMEENA BANK,KGRB0000320,HOLALU MALLIGERE,HOLALU MALLIGEREMANDYA TALUK,MANDYA,MANDYA,KARNATAKA,275636
311,KAVERI GRAMEENA BANK,KGRB0000321,SATHANUR,SATHANURMANDYA TALUK,MANDYA,MANDYA,KARNATAKA,223041
312,KAVERI GRAMEENA BANK,KGRB0000322,VISWAMANAVA EDUCATIONAL INSTITUTION BRANCH,"VISHWAMANAVA CAMPUS , KOMMERAHALLI VILLAGEMANDYA TALUK",MANDYA,MANDYA,KARNATAKA,223041
313,KAVERI GRAMEENA BANK,KGRB0000323,KRISHNARAJAPET,K R PETK.R.PET TALUK,MANDYA,MANDYA,KARNATAKA,262832
314,KAVERI GRAMEENA BANK,KGRB0000324,SRIRANGAPATNA,SRIRANGA PATNA SRIRANGA PATNA TALUK,MANDYA,MANDYA,KARNATAKA,262951
315,KAVERI GRAMEENA BANK,KGRB0000325,KOPPA MADDUR,KOPPAMADDUR TALUK,MANDYA,MANDYA,KARNATAKA,8277443141
316,KAVERI GRAMEENA BANK,KGRB0000326,BESAGARAHALLI,BESAGARAHALLIMADDUR TALUK,MANDYA,MANDYA,KARNATAKA,278746
317,KAVERI GRAMEENA BANK,KGRB0000327,MADDUR,MADDURMADDUR TALUK,MANDYA,MANDYA,KARNATAKA,233138
318,KAVERI GRAMEENA BANK,KGRB0000328,ANEGOLA,ANEGOLAK R PET TALUK,MANDYA,MANDYA,KARNATAKA,261511
319,KAVERI GRAMEENA BANK,KGRB0000329,GANJIGERE,GANJIGEREK R PET TALUK,MANDYA,MANDYA,KARNATAKA,211289
320,KAVERI GRAMEENA BANK,KGRB0000330,BANDIHOLE,BANDIHOLEK R PET TALUK,MANDYA,MANDYA,KARNATAKA,200557
321,KAVERI GRAMEENA BANK,KGRB0000331,HARIHARAPURA,HARIHARAPURAK R PET TALUK,MANDYA,MANDYA,KARNATAKA,200140
322,KAVERI GRAMEENA BANK,KGRB0000332,JAKKANAHALLI,JAKKANAHALLIPANDAVAPURA TALUK,MANDYA,MANDYA,KARNATAKA,209001
323,KAVERI GRAMEENA BANK,KGRB0000333,PANDAVAPURA,PANDAVAPURAPANDAVAPURA TALUK,MANDYA,MANDYA,KARNATAKA,255549
324,KAVERI GRAMEENA BANK,KGRB0000334,NAGAMANGALA,NAGAMANGALANAGAMANGALA TALUK,MANDYA,MANDYA,KARNATAKA,285005
325,KAVERI GRAMEENA BANK,KGRB0000335,CHINAKURALI,CHINAKURALIPANDAVAPURA TALUK,MANDYA,MANDYA,KARNATAKA,268484
326,KAVERI GRAMEENA BANK,KGRB0000336,SHIVALLI,SHIVALLIMANDYA TALUK,MANDYA,MANDYA,KARNATAKA,277244
327,KAVERI GRAMEENA BANK,KGRB0000337,CHANDUPURA,CHANDUPURAMANDYA TALUK,MANDYA,MANDYA,KARNATAKA,237221
328,KAVERI GRAMEENA BANK,KGRB0000338,ALENAHALLY,ALENAHALLYK R PET TALUK,MANDYA,MANDYA,KARNATAKA,200135
329,KAVERI GRAMEENA BANK,KGRB0000339,VIJAYAPURA,"MELUR ROAD (OLD CANARA BANK ROAD),DEVANAHALLY TALUK",BENGALURU RURAL,BENGALURU RURAL,KARNATAKA,27668068
330,KAVERI GRAMEENA BANK,KGRB0000340,CHIKKAJALA,"SUB REGISTER OFFICE ROAD,CHIKKAJALA POST,BENGALURU NORTH TALUK",BENGALURU URBAN,BENGALURU URBAN,KARNATAKA,28477041
331,KAVERI GRAMEENA BANK,KGRB0000341,ABBIGERE,"ABBIGERE BRANCH,ABBIGERE,CHIKKABANAVARA MAIN ROAD,BANGALORE -560090BENGALURU NORTH TALUK",BENGALURU URBAN,BENGALURU URBAN,KARNATAKA,23253599
332,KAVERI GRAMEENA BANK,KGRB0000342,ANDRAHALLI,"NO.51,SREENIDHI COMPLEX,KARNATAKA D GROUP EMPLOYEES LAYOUT,ANDRAHALLI MAIN RD",BENGALURU URBAN,BENGALURU URBAN,KARNATAKA,23245270
333,KAVERI GRAMEENA BANK,KGRB0000343,VIJAYAPURA-CKM,VIJAYAPURA POSTCHIKMAGALUR TALUK,CHIKMAGALUR,CHIKMAGALUR,KARNATAKA,232690
334,KAVERI GRAMEENA BANK,KGRB0000344,CHICKPET-TMK,"S.S COMPLEX, CHIKPET MAIN ROADTUMAKURU TALUK",TUMAKURU,TUMAKURU,KARNATAKA,2261610
335,KAVERI GRAMEENA BANK,KGRB0000345,GOKULA EXTN,"80 FEET BUDDI HALLY MAIN ROAD,GOKUL EXTENSIONTUMAKURU TALUK",TUMAKURU,TUMAKURU,KARNATAKA,2285070
336,KAVERI GRAMEENA BANK,KGRB0000346,K R PURAM-BLR,"57,NAGAPPA COMPLEX,NEAR SBI,DEVASANDRA MAIN ROAD,OPP TO BANK OF BARODABENGALURU EAST TALUK",BENGALURU URBAN,BENGALURU URBAN,KARNATAKA,25619975
337,KAVERI GRAMEENA BANK,KGRB0000347,CHANNASANDRA-BLR,"33, SAI LOTUS,BEML MAIN ROAD,RAJARAJESHWARI NAGARBENGALURU SOUTH TALUK",BENGALURU URBAN,BENGALURU URBAN,KARNATAKA,28611582
338,KAVERI GRAMEENA BANK,KGRB0000348,HIRISAVE,HIRISAVECHANNARAYAPATNA TALUK,HASSAN,HASSAN,KARNATAKA,226622
339,KAVERI GRAMEENA BANK,KGRB0000349,MEKERI,"VSSN BANK BUILDING,MEKERIMADIKERI TALUK",KODAGU,KODAGU,KARNATAKA,0
340,KAVERI GRAMEENA BANK,KGRB0000351,HOSAHUNDI,"S.G.S.ASHRAM, KASAB HOBLI, MYSURU TALUK",MYSURU,MYSURU,KARNATAKA,2901009
341,KAVERI GRAMEENA BANK,KGRB0000352,KADAKOLA,KADAKOLAMYSURU TALUK,MYSURU,MYSURU,KARNATAKA,2596078
342,KAVERI GRAMEENA BANK,KGRB0000356,PANDIT HALLY,"PANDITHALLI,MALAVALLI TALUK,MANDYA DISTRICT 571421",MANDYA,MANDYA,KARNATAKA,0
343,KAVERI GRAMEENA BANK,KGRB0000357,HULIVANA,MANDYA-KERAGODU MAIN ROADMANDYA TALUK,MANDYA,MANDYA,KARNATAKA,275655
344,KAVERI GRAMEENA BANK,KGRB0000359,KONDAJJI,KONDAJJITURVEKERE TALUK,TUMAKURU,TUMAKURU,KARNATAKA,285628
345,KAVERI GRAMEENA BANK,KGRB0000360,KALENAHALLI,KALENAHALLIMANDYA TALUK,MANDYA,MANDYA,KARNATAKA,7899841266
346,KAVERI GRAMEENA BANK,KGRB0000361,BEERIHUNDI,"BEERIHUNDI,KS GADDIGE ROADMYSURU TALUK",MYSURU,MYSURU,KARNATAKA,2903170
347,KAVERI GRAMEENA BANK,KGRB0000362,SALIGRAMA,SALIGRAMAK R NAGARA TALUK,MYSURU,MYSURU,KARNATAKA,283311
348,KAVERI GRAMEENA BANK,KGRB0000363,HANUMANTHAPURA,"OLD PANCHAYATH BUILDING,GORUR ROADHASSAN TALUK",HASSAN,HASSAN,KARNATAKA,243333
349,KAVERI GRAMEENA BANK,KGRB0000364,CHUNCHANAKATTE,CHUNCHANKATTEK R NAGARA TALUK,MYSURU,MYSURU,KARNATAKA,281133
350,KAVERI GRAMEENA BANK,KGRB0000365,KESARMADU,KESARMADU POSTTUMAKURU TALUK,TUMAKURU,TUMAKURU,KARNATAKA,9480433137
351,KAVERI GRAMEENA BANK,KGRB0000366,K.PALASANDRA,"HIGH SCHOOL ROAD,K.PALASANDRATUMAKURU TALUK",TUMAKURU,TUMAKURU,KARNATAKA,2246358
352,KAVERI GRAMEENA BANK,KGRB0000367,CHANDRAPPA CIRCLE,"CHANDRAPPA CIRCLE,AJJANAHALLI DHAKALECHUNCHANAKUPPE POST TAVAREKERE HOBLI,BENGALURU SOUTH TALUK",BENGALURU URBAN,BENGALURU URBAN,KARNATAKA,28438388
353,KAVERI GRAMEENA BANK,KGRB0000368,BHANDIGADI,BHANDIGADI POSTKOPPA TALUK,CHIKMAGALUR,CHIKMAGALUR,KARNATAKA,244177
354,KAVERI GRAMEENA BANK,KGRB0000369,SHANIVARASANTHE,"KCR CIRCLE,SHANIVARASANTHESOMAWARPET TALUK",KODAGU,KODAGU,KARNATAKA,283369
355,KAVERI GRAMEENA BANK,KGRB0000370,BYRAPURA,BYRAPURA AT POSTALUR TALUK,HASSAN,HASSAN,KARNATAKA,218900
356,KAVERI GRAMEENA BANK,KGRB0000371,DEVANUR,"SGM POLYTECHNIC BUILDING,DEVANURNANJANGUD TALUK",MYSURU,MYSURU,KARNATAKA,221222
357,KAVERI GRAMEENA BANK,KGRB0000372,BILIDEGALU,BILIDEGALU AT POSTMANDYA TALUK,MANDYA,MANDYA,KARNATAKA,0
358,KAVERI GRAMEENA BANK,KGRB0000373,THIRUMALASHETTALLI,"THIRUMALASETTY CROSS(CIRCLE), THIRUMALASETTYHALLYHOSAKOTE TALUK",BENGALURU RURAL,BENGALURU RURAL,KARNATAKA,28549111
359,KAVERI GRAMEENA BANK,KGRB0000375,SULEBELE,"SULIBELE BRANCH,HOSAKOTE TALUK",BENGALURU RURAL,BENGALURU RURAL,KARNATAKA,27951030
360,KAVERI GRAMEENA BANK,KGRB0000376,VENKATAGIRI KOTE,"VENKATAGIRIKOTE BRANCH,DEVANAHALLY TALUK",BENGALURU RURAL,BENGALURU RURAL,KARNATAKA,0
361,KAVERI GRAMEENA BANK,KGRB0000377,KOTHATHI,KOTHATHIMANDYA TALUK,MANDYA,MANDYA,KARNATAKA,296009
362,KAVERI GRAMEENA BANK,KGRB0000378,KESTHUR,KESTHUR AT POSTMADDUR TALUK,MANDYA,MANDYA,KARNATAKA,279090
363,KAVERI GRAMEENA BANK,KGRB0000379,BASRALU,BASRALUMANDYA TALUK,MANDYA,MANDYA,KARNATAKA,276500
364,KAVERI GRAMEENA BANK,KGRB0000380,KIRUGAVALU,KIRUGAVALU AT POSTMALAVALLI TALUK,MANDYA,MANDYA,KARNATAKA,249349
365,KAVERI GRAMEENA BANK,KGRB0000381,HEBBALE,OPPOSITE GRAMA PANCHAYATH HEBBALEVIA KUSHALANAGARA,KODAGU,KODAGU,KARNATAKA,276345
366,KAVERI GRAMEENA BANK,KGRB0000382,YEDIYUR,YEDIYURKUNIGAL TALUK,TUMAKURU,TUMAKURU,KARNATAKA,228622
367,KAVERI GRAMEENA BANK,KGRB0000383,MANCHALAKUPPE,MANCHALAKUPPETUMAKURU TALUK,TUMAKURU,TUMAKURU,KARNATAKA,9482160383
368,KAVERI GRAMEENA BANK,KGRB0000384,RANTVALALU,RANTWALAMADHUGIRI TALUK,TUMAKURU,TUMAKURU,KARNATAKA,0
369,KAVERI GRAMEENA BANK,KGRB0000385,NITTUR,NITTURGUBBI TALUK,TUMAKURU,TUMAKURU,KARNATAKA,230666
370,KAVERI GRAMEENA BANK,KGRB0000386,ALDUR,"OPPOSITE GANAPATHI TEMPLE,MAIN ROADCHIKMAGALUR TALUK",CHIKMAGALUR,CHIKMAGALUR,KARNATAKA,250225
371,KAVERI GRAMEENA BANK,KGRB0000387,K.HONNALAGERE,K.HONNALAGEREMADDUR TALUK,MANDYA,MANDYA,KARNATAKA,271522
372,KAVERI GRAMEENA BANK,KGRB0000389,JANNAPURA,JANNAPURA VILLAGEMUDIGERE TALUK,CHIKMAGALUR,CHIKMAGALUR,KARNATAKA,240040
373,KAVERI GRAMEENA BANK,KGRB0000390,KERALAPURA,"SANTHE BEEDI,KERALAPURAARAKALAGUD TALUK",HASSAN,HASSAN,KARNATAKA,231555
374,KAVERI GRAMEENA BANK,KGRB0000391,N.BELATHUR,N.BELATHURH D KOTE TALUK,MYSURU,MYSURU,KARNATAKA,264450
375,KAVERI GRAMEENA BANK,KGRB0000392,THYAMAGONDLU,"SANTHEBEEDI,THYMGONDLUNELAMANGALA TALUK",BENGALURU RURAL,BENGALURU RURAL,KARNATAKA,27732392
376,KAVERI GRAMEENA BANK,KGRB0000393,RAVANDUR,RAVANDURPERIYAPATNA TALUK,MYSURU,MYSURU,KARNATAKA,277477
377,KAVERI GRAMEENA BANK,KGRB0000394,DODDARASINAKERE,DODDARASINAKEREMADDUR TALUK,MANDYA,MANDYA,KARNATAKA,235060
378,KAVERI GRAMEENA BANK,KGRB0000395,ARAKERE,ARAKERE VILLAGESRIRANGAPATNA TALUK,MANDYA,MANDYA,KARNATAKA,259444
379,KAVERI GRAMEENA BANK,KGRB0000396,BELAKAWADI,BELAKAWADI VILLAGEMALAVALLI TALUK,MANDYA,MANDYA,KARNATAKA,0
380,KAVERI GRAMEENA BANK,KGRB0000397,KADABAGERE,"POST SANGAMESHWARPETE, KADABAGERECHIKMAGALURU TALUK",CHIKMAGALUR,CHIKMAGALUR,KARNATAKA,252436
381,KAVERI GRAMEENA BANK,KGRB0000398,BHUVANAHALLY,"H.NO.01, SRI RANGA COMPLEX ,AIRPORT ROADHASSAN TALUK",HASSAN,HASSAN,KARNATAKA,241888
382,KAVERI GRAMEENA BANK,KGRB0000399,Y N HOSAKOTE,"NEAR GRAMA PANCHAYAT OFFICE,M.G ROAD Y.N.HOSAKOTE POSTPAVAGADA TALUK",TUMAKURU,TUMAKURU,KARNATAKA,247232
383,KAVERI GRAMEENA BANK,KGRB0000400,BANAVARA,"SRI DURGAMBHA TRADERS BUILDING,DEVANUR ROADARASIKERE TALUK",HASSAN,HASSAN,KARNATAKA,235244
384,KAVERI GRAMEENA BANK,KGRB0000401,JAVAGAL,"JAVAGAL, NEAR BY JAVAGAL BUS STANDARASIKERE TALUK",HASSAN,HASSAN,KARNATAKA,0
385,KAVERI GRAMEENA BANK,KGRB0000402,MELAPURA,MELAPURA BRANCHSRIRANGAPATNA TALUK,MANDYA,MANDYA,KARNATAKA,0
386,KAVERI GRAMEENA BANK,KGRB0000403,NARAYANAPURA,NARAYANAPURAPANDAVAPURA TALUK,MANDYA,MANDYA,KARNATAKA,0
387,KAVERI GRAMEENA BANK,KGRB0000404,HESARAGHATTA,MADURE MAIN ROAD NEAR SPR HOTELBENGALURU NORTH TALUK,BENGALURU URBAN,BENGALURU URBAN,KARNATAKA,28466066
388,KAVERI GRAMEENA BANK,KGRB0000405,KONANAKUNTE,"33,CHUNCHGHATTA MAIN ROAD,OLD BANK COLONYBENGALURU SOUTH TALUK",BENGALURU URBAN,BENGALURU URBAN,KARNATAKA,26322914
389,KAVERI GRAMEENA BANK,KGRB0000406,SHIVANI R S,SHIVANI RAILWAY STATIONTARIKERE TALUK,CHIKMAGALUR,CHIKMAGALUR,KARNATAKA,246023
390,KAVERI GRAMEENA BANK,KGRB0000407,MANUGANAHALLI,"BILIKERE HOBLI,MANUGANAHALLIHUNSUR TALUK",MYSURU,MYSURU,KARNATAKA,240005
391,KAVERI GRAMEENA BANK,KGRB0000408,AMRUTHAPURA,AMRUTHAPURATARIKERE TALUK,CHIKMAGALUR,CHIKMAGALUR,KARNATAKA,242290
392,KAVERI GRAMEENA BANK,KGRB0000409,LINGADAHALLI,"NEAR BUS STAND, LINGADAHALLITARIKERE TALUK",CHIKMAGALUR,CHIKMAGALUR,KARNATAKA,254455
393,KAVERI GRAMEENA BANK,KGRB0000410,HARAVE,HARAVEHUNSUR TALUK,MYSURU,MYSURU,KARNATAKA,249008
394,KAVERI GRAMEENA BANK,KGRB0000411,LAKKAVALLI,LAKKAVALLI POSTTARIKERE TALUK,CHIKMAGALUR,CHIKMAGALUR,KARNATAKA,239325
395,KAVERI GRAMEENA BANK,KGRB0000413,B.H. ROAD APMC YARD ARASIKERE,B.H. ROAD APMC YARD ARASIKEREARSIKERE TALUK,HASSAN,HASSAN,KARNATAKA,234646
396,KAVERI GRAMEENA BANK,KGRB0000414,BALELE,SHRI SHRI COMPLEX BALELEVIRAJAPETE TALUK,KODAGU,KODAGU,KARNATAKA,272414
397,KAVERI GRAMEENA BANK,KGRB0000416,HEMAVATHINAGARA,"500A,GEETHA TRADERS NEAR SHANTHINAGAR CIRCLE,TEJUR ROADHASSAN TALUK",HASSAN,HASSAN,KARNATAKA,245645
398,KAVERI GRAMEENA BANK,KGRB0000417,CHIKKAMULAGOODU,"MPCS BUILDING,MAIN RAOD,CHIKKAMULAGOODU VILLAGE & POSTMALAVALLI TALUK",MANDYA,MANDYA,KARNATAKA,240800
399,KAVERI GRAMEENA BANK,KGRB0000418,CHOWDANAKUPPE,CHOWDANAKUPPEKUNIGAL TALUK,TUMAKURU,TUMAKURU,KARNATAKA,0
400,KAVERI GRAMEENA BANK,KGRB0000419,SRINGERI,BHARATHI BEEDISRINGERI TALUK,CHIKMAGALUR,CHIKMAGALUR,KARNATAKA,250218
401,KAVERI GRAMEENA BANK,KGRB0000421,DODDAYENNEGERE,DODDAYENNEGERECHIKKANAYAKANAHALLY TALUK,TUMAKURU,TUMAKURU,KARNATAKA,8088328144
402,KAVERI GRAMEENA BANK,KGRB0000422,AMMATHI,"OLD CANARA BANK BUILDING,VIRAJPETE ROAD, AMMATHIVIRAJPETE TALUK",KODAGU,KODAGU,KARNATAKA,252067
403,KAVERI GRAMEENA BANK,KGRB0000423,HALLEGERE,HALLEGERE BRANCHMANDYA TALUK,MANDYA,MANDYA,KARNATAKA,273333
404,KAVERI GRAMEENA BANK,KGRB0000424,THOVINAKERE,"BADAVANAHALLI ROAD,THOVINAKEREKORATAGERE TALUK",TUMAKURU,TUMAKURU,KARNATAKA,0
405,KAVERI GRAMEENA BANK,KGRB0000425,MAHADESWARAPURA,PANDAVAPURA TALUKMAHADESWARAPURA BRANCH,MANDYA,MANDYA,KARNATAKA,251251
406,KAVERI GRAMEENA BANK,KGRB0000426,BELAVATHA,"721,PUSHPAGIRI MAIN ROAD,BELAVATHA VILLAGE,RBI POSTMYSURU TALUK",MYSURU,MYSURU,KARNATAKA,2469550
407,KAVERI GRAMEENA BANK,KGRB0000427,CHIKBIDREKAL,"NO 50 VENKATESHWARA NELAYA,NELAYA NEAR ANDANNAPPA BUILDING (WHITE HOUSE)CHIKKABIDARAKALLU MAIN ROADBENGALURU NORTH TALUK",BENGALURU URBAN,BENGALURU URBAN,KARNATAKA,9480010821
408,KAVERI GRAMEENA BANK,KGRB0000428,TAVAREKERE,TAVAREKEREBENGALURU SOUTH TALUK,BENGALURU URBAN,BENGALURU URBAN,KARNATAKA,28430070
409,KAVERI GRAMEENA BANK,KGRB0000429,MUGALOOR,"MUGALOOR,KUGUR POST,SARJAPURA HOBLI ANEKAL TALUK",BENGALURU URBAN,BENGALURU URBAN,KARNATAKA,7899840916
410,KAVERI GRAMEENA BANK,KGRB0000430,KENGERI SATELITE TOWN,"6,OUTER RING ROAD,OPPOSITE TO SHIRKE APARTMENTBENGALURU SOUTH TALUK",BENGALURU URBAN,BENGALURU URBAN,KARNATAKA,28486663
411,KAVERI GRAMEENA BANK,KGRB0000431,KERAGODU,KERAGODU BRANCHMANDYA TALUK,MANDYA,MANDYA,KARNATAKA,272555
412,KAVERI GRAMEENA BANK,KGRB0000432,THUMBADI,THUMBADIKORTAGERE TALUK,TUMAKURU,TUMAKURU,KARNATAKA,0
413,KAVERI GRAMEENA BANK,KGRB0000433,ARALAGUPPE,ARALAGUPPETIPTUR TALUK,TUMAKURU,TUMAKURU,KARNATAKA,261044
414,KAVERI GRAMEENA BANK,KGRB0000434,SATHAGALLY,"SATHAGALLY, NO. 142,BALAJI COMPLEX,MAHADEVPURA MAIN ROAD,RING ROADMYSURU TALUK",MYSURU,MYSURU,KARNATAKA,2469538
415,KAVERI GRAMEENA BANK,KGRB0000435,BANNUR-SANTHEMALA,"MAHADESHWARA COMPLEX,MYSORE-MALAVALLY ROADT.NARSIPURA TALUK",MYSURU,MYSURU,KARNATAKA,275557
416,KAVERI GRAMEENA BANK,KGRB0000436,JAYAPURA,"NO. J.135/A,126/A,MAVINAHALLI ROAD,JAYAPURAMYSURU TALUK",MYSURU,MYSURU,KARNATAKA,2595800
417,KAVERI GRAMEENA BANK,KGRB0000437,K.C.LAYOUT,"212,MAIN ROADMYSURU TALUK",MYSURU,MYSURU,KARNATAKA,2469596
418,KAVERI GRAMEENA BANK,KGRB0000438,SHARADADEVINAGARA,"4,NEW KANTHARAJ URS ROAD,ANAND LAYOUTMYSURU TALUK",MYSURU,MYSURU,KARNATAKA,2469566
419,KAVERI GRAMEENA BANK,KGRB0000439,LOKANAYAKA NAGARA,"365 AHALYA COMPLEX,HEBBAL MAIN ROADMYSURU TALUK",MYSURU,MYSURU,KARNATAKA,2511475
420,KAVERI GRAMEENA BANK,KGRB0000440,BALLENAHALLI,"BALLENAHALLI VILLAGE & POST,BOOKANAKERE HOBLIK R PET TALUK",MANDYA,MANDYA,KARNATAKA,0
421,KAVERI GRAMEENA BANK,KGRB0000441,KOPPA,"71/2 KOPPA GRAMA,HARANAHALLI HOBLIPERIYAPATNA TALUK",MYSURU,MYSURU,KARNATAKA,252229
422,KAVERI GRAMEENA BANK,KGRB0000442,HALLIMYSORE,"SALIGRAMA MAIN ROAD,HALLIMYSORE AT POSTHOLENARSIPURA TALUK",HASSAN,HASSAN,KARNATAKA,260040
423,KAVERI GRAMEENA BANK,KGRB0000443,TERAKANAMBI,"COLLEGE ROAD, TERAKANAMBIGUNDLUPET TALUK",CHAMARAJANAGARA,CHAMARAJANAGARA,KARNATAKA,232293
424,KAVERI GRAMEENA BANK,KGRB0000444,DEVEERAMMANAHALLY,DEVEERAMMANAHALLYNANJANGUD TALUK,MYSURU,MYSURU,KARNATAKA,228229
425,KAVERI GRAMEENA BANK,KGRB0000445,KALALE,KALALENANJANGUD TALUK,MYSURU,MYSURU,KARNATAKA,238222
426,KAVERI GRAMEENA BANK,KGRB0000446,RAJIV NAGAR,"1643 1ST STAGE,DEVANUR EXTENSION,RAJIV NAGAR,N R MOHALLA,MYSURU TALUK",MYSURU,MYSURU,KARNATAKA,2452266
427,KAVERI GRAMEENA BANK,KGRB0000447,SOMANAHALLI,AKKIHEBBAL BHERYA/MAYSORE MAIN ROADK R PET TALUK,MANDYA,MANDYA,KARNATAKA,0
428,KAVERI GRAMEENA BANK,KGRB0000450,PILLENAHALLI,"OPPOSITE TO GRAMA PANCHAYAT BUILDING,PILLENAHALLI VILLAGE,SAKHARAYAPATNA HOBLIKADUR TALUK",CHIKMAGALUR,CHIKMAGALUR,KARNATAKA,0
429,KAVERI GRAMEENA BANK,KGRB0000455,KALLAHALLI-V.V.NAGARA,BENGALURU - MYSORE ROADMANDYA TALUK,MANDYA,MANDYA,KARNATAKA,223455
430,KAVERI GRAMEENA BANK,KGRB0000456,MAKAVALLI,MAKAVALLIK R PET TALUK,MANDYA,MANDYA,KARNATAKA,9448356663
431,KAVERI GRAMEENA BANK,KGRB0000457,BYADRAHALLY SATELLITE,"BYADARAHALLI,MALAVALLI TALUK,MANDYA DISTRICT 571421",MANDYA,MANDYA,KARNATAKA,0
432,KAVERI GRAMEENA BANK,KGRB0000458,ANTHARAVALLI SATELLITE BRANCH,ANTHARAVALLIMALAVALLI TALUK,MANDYA,MANDYA,KARNATAKA,0
433,KAVERI GRAMEENA BANK,KGRB0000459,TALAKADU,TALAKADUT.NARSIPURA TALUK,MYSURU,MYSURU,KARNATAKA,273310
434,KAVERI GRAMEENA BANK,KGRB0000460,HANUMANTHANAGARA,"47 1ST STAGE,HUDCO LAYOUT,BANNIMANTAP,MYSOREMYSURU TALUK",MYSURU,MYSURU,KARNATAKA,2469546
435,KAVERI GRAMEENA BANK,KGRB0000461,KUNTHUR,KUNTHURKOLLEGALA TALUK,CHAMARAJANAGARA,CHAMARAJANAGARA,KARNATAKA,261044
436,KAVERI GRAMEENA BANK,KGRB0000462,PUTTENAHALLI,"RAYNAAUV MANSION,34/A,1ST FLOOR,6TH CROSS,JP NAGAR,7TH PHASE,PUTTENAHALLIBENGALURU SOUTH TALUK",BENGALURU URBAN,BENGALURU URBAN,KARNATAKA,26548787
437,KAVERI GRAMEENA BANK,KGRB0000463,LAGGERE,"455 MASTI ARCADE,LAGGERE MAIN ROAD,NEAR LAGGERE CIRCLEBENGALURU NORTH TALUK",BENGALURU URBAN,BENGALURU URBAN,KARNATAKA,28398251
438,KAVERI GRAMEENA BANK,KGRB0000464,KALYANANAGAR,"7TH MAIN,80 FEET ROAD,OPP.NILIGIRIS,2ND BLOCK,KALYANANAGAR(HRBR LAYOUT)BENGALURU EAST TALUK",BENGALURU URBAN,BENGALURU URBAN,KARNATAKA,8867058678
439,KAVERI GRAMEENA BANK,KGRB0000467,JYOTHI NAGAR,"OPPOSITE APMC, POST-JYOTHINAGAR, CHIKMAGALUR TALUK",CHIKMAGALUR,CHIKMAGALUR,KARNATAKA,221334
440,KAVERI GRAMEENA BANK,KGRB0000469,HALAGANAHALLI,HALAGANAHALLI VILLAGEPERIYAPATNA TALUK,MYSURU,MYSURU,KARNATAKA,0
441,KAVERI GRAMEENA BANK,KGRB0000471,SIDDAPURA,MAIN ROAD SIDDAPURVIRAJPET TALUK,KODAGU,KODAGU,KARNATAKA,267100
442,KAVERI GRAMEENA BANK,KGRB0000472,MENASE,MENASESRINGERI TALUK,CHIKMAGALUR,CHIKMAGALUR,KARNATAKA,251333
443,KAVERI GRAMEENA BANK,KGRB0000474,CHAMUNDI BETTA,"94A OPP. SRI. CHAMUNDESHWARI TEMPLE,MAIN ROADMYSURU TALUK",MYSURU,MYSURU,KARNATAKA,2590080
444,KAVERI GRAMEENA BANK,KGRB0000475,CHAPPARADAHALLY,CHAPPARADAHALLYPERIYAPATNA TALUK,MYSURU,MYSURU,KARNATAKA,255055
445,KAVERI GRAMEENA BANK,KGRB0000476,DORNAHALLI,DORNAHALLIK R NAGARA TALUK,MYSURU,MYSURU,KARNATAKA,0
446,KAVERI GRAMEENA BANK,KGRB0000477,B H KYMARA,B.H.KYMARAN.R.PURA TALUK,CHIKMAGALUR,CHIKMAGALUR,KARNATAKA,228277
447,KAVERI GRAMEENA BANK,KGRB0000478,KALASA,KALASAMUDIGERE TALUK,CHIKMAGALUR,CHIKMAGALUR,KARNATAKA,274101
448,KAVERI GRAMEENA BANK,KGRB0000485,MELEKOTE ROAD,"MELEKOTE ROADIST FLOOR, ABOVE SREE VINAYAKA ENTERPRISES,MELEKOTE MAIN ROAD,TUMKUR",TUMAKURU,TUMAKURU,KARNATAKA,2200230
449,KAVERI GRAMEENA BANK,KGRB0000486,VIJAYANAGAR THIRD STAGE,64 INDU NIVAS A 1ST BLOCK VIJAYANAGAR 3RD STAGEMYSURU TALUK,MYSURU,MYSURU,KARNATAKA,2469595
450,KAVERI GRAMEENA BANK,KGRB0000490,CHAMUNDIPURAM,2775 NARAYANA SHASTRI ROAD OPPOSITE TO MITHRI HOSPITAL CHAMUNDIPURAM MYSURU TALUK,MYSURU,MYSURU,KARNATAKA,2469691
451,KAVERI GRAMEENA BANK,KGRB0000491,SARASWATHIPURAM,SARASWATHIPURAMMYSURU TALUK,MYSURU,MYSURU,KARNATAKA,0
452,KAVERI GRAMEENA BANK,KGRB0000494,KATTIGENAHALLI,"BAGALUR MAIN ROAD,DWARAKANAGAR,KATTIGENAHLLI,IAF POSTBENGALURU NORTH TALUK",BENGALURU RURAL,BENGALURU RURAL,KARNATAKA,0
453,KAVERI GRAMEENA BANK,KGRB0000495,GOVINDA SHETTY PALYA,"ANK BUILDING FIRST FLOOR,GS PALYA MAIN ROAD,KONAPPANA AGRAHARA GRAM PANCHAYAT,ELECTRONIC CITY POSTBENGALURU SOUTH TALUK",BENGALURU URBAN,BENGALURU URBAN,KARNATAKA,28523349
454,KAVERI GRAMEENA BANK,KGRB0000496,KODATHI,KODATHI GATE,BENGALURU URBAN,BENGALURU URBAN,KARNATAKA,0
455,KAVERI GRAMEENA BANK,KGRB0000497,MOSALE HOSAHALLI,MOSALEHOSAHALLI NEAR BUS STOPHASSAN TALUK,HASSAN,HASSAN,KARNATAKA,0
456,KAVERI GRAMEENA BANK,KGRB0000498,GUTHALU,"SHIVLEELA COMPLEX,M.C.ROAD,FACTORY CIRCLE,GUTHHALUMANDYA TALUK",MANDYA,MANDYA,KARNATAKA,223723
457,KAVERI GRAMEENA BANK,KGRB0000500,V.V.MOHALLA,"VV MOHALLA,K D ROAD,MYSURUMYSURU TALUK",MYSURU,MYSURU,KARNATAKA,0
458,KAVERI GRAMEENA BANK,KGRB0000501,RO MYSORE,"HIG 976, SHREE CHAKRAVARTHI COMPLEX,VIVEKANANDA MAIN ROAD,VIVEKANANDA CIRCLE",MYSURU,MYSURU DISTRICT-570023,KARNATAKA,0
459,KAVERI GRAMEENA BANK,KGRB0000502,RO HASSAN,SHANKAR MATT ROAD K R PURAM HASSAN,HASSAN,HASSAN DISTRICT-573201,KARNATAKA,0
460,KAVERI GRAMEENA BANK,KGRB0000503,RO TUMKUR,"6TH MAIN,BEHIND SBM,SADASHIVANAGARA",TUMAKURU,TUMAKURU DISTRICT-572101,KARNATAKA,0
461,KAVERI GRAMEENA BANK,KGRB0000504,RO BANGALORE,"221,MANJU MANSION,6TH BLOCK,2ND STAGE,80FEET RING",BANGALORE,BENGALURU URBAN DISTRICT-560072,KARNATAKA,0
462,KAVERI GRAMEENA BANK,KGRB0000505,RO CHIKAMAGALUR,"MODAALA TOWERS (NEXT TO ASHRAYA HOSPITAL),NAIDU STREET ",CHIKMAGALUR,CHIKMAGALUR DISTRICT-577101,KARNATAKA,0
463,KAVERI GRAMEENA BANK,KGRB0000506,RO MANDYA,"PB NO 41, DOOR NO 1201,V.V NAGAR, 2ND CROSS ASHOKE NAGAR,OPP TO SAROVARA HOTEL.",MANDYA,MANDYA DISTRICT-571401,KARNATAKA,0
464,KAVERI GRAMEENA BANK,KGRB0000507,RO CHAMARAJANAGARA,"1ST CROSS, SHANKARPURA,NEAR SHRI RAM MANDIR",CHAMRAJANAGARA,CHAMARAJANAGARA DISTRICT-571313,KARNATAKA,0
465,KAVERI GRAMEENA BANK,KGRB0000508,RO MADIKERI,"RAGHUPATHI ARCADE, GANAPATHI STREET",MADIKERI,KODAGU DISTRICT-571201,KARNATAKA,0
466,KAVERI GRAMEENA BANK,KGRB0000509,RO RAMANAGARA,"SHREYA,1612,NEXT TO PUNJAB NATIONAL BANK,NEAR BGS ROTARY HOSPITAL,BM ROAD,VIVEKANANDA NAGARA,RAMANAGARA",RAMANAGARA,RAMANAGARA DISTRICT-562139,KARNATAKA,0
467,KAVERI GRAMEENA BANK,KGRB0000511,GAYATHRIPURAM,GAYATHRIPURAMMYSURU TALUK,MYSURU,MYSURU,KARNATAKA,0
468,KAVERI GRAMEENA BANK,KGRB0000512,VIJAYANAGARA FOUR STAGE,"475 SUVARNA GIRI NILAYA,1ST PHASE,VIJAYANAGAR 4TH STAGE,MYSURUMYSURU TALUK",MYSURU,MYSURU,KARNATAKA,0
469,KAVERI GRAMEENA BANK,KGRB0000513,LALBAHADURSHASTRY NAGARA,"128 2ND STAGE,NEAR RAJASHEKAR HOSPITAL,T.NARASIPURA ROADMYSURU TALUK",MYSURU,MYSURU,KARNATAKA,0
470,KAVERI GRAMEENA BANK,KGRB0000514,RAMAKRISHNA NAGARA,RAMAKRISHNA NAGARAMYSURU DISTRICT,MYSURU,MYSURU,KARNATAKA,0
471,KAVERI GRAMEENA BANK,KGRB0000515,KODIPALYA,"71 SOWGANGA COMPLEX,HEMMIGEPURA MAIN ROADBENGALURU SOUTH TALUK",BENGALURU URBAN,BENGALURU URBAN,KARNATAKA,0
472,KAVERI GRAMEENA BANK,KGRB0000516,ANANTHAPURA,"97 1ST FLOOR,SRI LAKSHMI NARASIMHASWAMY BUILDING,ANANTHAPURA MAIN ROAD,ANANTHAPURA,ATTUR WARD NO.03,YELAHANKABENGALURU NORTH TALUK",BENGALURU URBAN,BENGALURU URBAN,KARNATAKA,0
473,KAVERI GRAMEENA BANK,KGRB0000517,THATTEKERE,THATTEKEREHUNSUR TALUK,MYSURU,MYSURU,KARNATAKA,0
474,KAVERI GRAMEENA BANK,KGRB0000518,PANCHAVALLI,"NEAR PETROL BUNK,HUNSUR-VIRAJPETE ROADPERIYAPATNA TALUK",MYSURU,MYSURU,KARNATAKA,0
475,KAVERI GRAMEENA BANK,KGRB0000519,SALUR,SALUR MUTT ROADKOLLEGALA TALUK,CHAMARAJANAGARA,CHAMARAJANAGARA,KARNATAKA,0
476,KAVERI GRAMEENA BANK,KGRB0000520,KODIGEHALLI,"16 HR COMPLEX, KODIGEHALLY MAIN ROADBENGALURU NORTH TALUK",BENGALURU URBAN,BENGALURU URBAN,KARNATAKA,0
477,KAVERI GRAMEENA BANK,KGRB0000521,RAMAMURTHY NAGAR,"5C 410 PUNARVASU,RAMAMURTGY NAGAR MAIN ROAD, DOORAVANI NAGAR POSTBENGALURU EAST TALUK",BENGALURU URBAN,BENGALURU URBAN,KARNATAKA,0
478,KAVERI GRAMEENA BANK,KGRB0000522,WEAVERS COLONY,"715 7TH CROSS, WEAVERS COLONY,BANNERGATTA ROAD, BEHIND - GANESHA TEMPLE, BENGALURU NORTH TALUK",BENGALURU URBAN,BENGALURU URBAN,KARNATAKA,0
479,KAVERI GRAMEENA BANK,KGRB0000523,HEBBAL KEMPAPURA,"753-8-3-13,JAJI ARCADE,1ST FLOOR,4TH MAIN ROAD,COFFEE BOARD LAYOUT MAIN ROAD,HEBBAL KEMPAPURABENGALURU NORTH TALUK",BENGALURU URBAN,BENGALURU URBAN,KARNATAKA,0
480,KAVERI GRAMEENA BANK,KGRB0000524,SRINAGAR,"06,SAIPRIYA,17TH MAIN ROAD,MUNESHWARA BLOCK,SRINAGARA,BENGALURU.BENGALURU SOUTH TALUK",BENGALURU URBAN,BENGALURU URBAN,KARNATAKA,0
481,KAVERI GRAMEENA BANK,KGRB0000525,UTTARAHALLI,"8/2(56/4),KENGERI MAIN ROAD,UTTARAHALLIBENGALURU SOUTH TALUK",BENGALURU URBAN,BENGALURU URBAN,KARNATAKA,0
482,KAVERI GRAMEENA BANK,KGRB0000526,VIJAYANAGAR,"426/C,1ST FLOOR,L.S.ARCADE,8TH MAIN ROAD,NEXT TO TRAFFIC POLICE STATIONBENGALURU NORTH TALUK",BENGALURU URBAN,BENGALURU URBAN,KARNATAKA,23301010
483,KAVERI GRAMEENA BANK,KGRB0000527,NANDINI LAYOUT,"56 4TH BLOCK,10TH MAIN ROAD,NANDINI LAYOUTBENGALURU NORTH TALUK",BENGALURU URBAN,BENGALURU URBAN,KARNATAKA,0
484,KAVERI GRAMEENA BANK,KGRB0000528,HULIMAVU,"16 K.M.M.H. PETRONASS,AVANI SRINGERI NAGARA,HULIMAVUBENGALURU SOUTH TALUK",BENGALURU URBAN,BENGALURU URBAN,KARNATAKA,0
485,KAVERI GRAMEENA BANK,KGRB0000532,CCPC BENGALURU,"6 SAIPRIYA,17TH MAIN ROAD,MUNESHWARA BLOCK,SRINAGARA,BENGALURU, BENGALURU SOUTH TALUK",BENGALURU URBAN,BENGALURU URBAN,KARNATAKA,26748880
486,KAVERI GRAMEENA BANK,KGRB0000533,PRASHANTHNAGARA-TUMAKUR,"PRASHANTH NAGARA MAIN RD,DEVARAYAPATNA NEW EXT,1ST FL,HANUMAN ARCADE",TUMAKURU,TUMAKURU,KARNATAKA,0
487,KAVERI GRAMEENA BANK,KGRB0000534,VIJAYANAGARA FOURTH STAGE TWO PHASE,"10066,K.P.ARCADE,80 FEET ROAD,VIJAYANAGAR 4TH STAGE,2ND PHASE,MYSURUMYSURU TALUK",MYSURU,MYSURU,KARNATAKA,2469549
488,KAVERI GRAMEENA BANK,KGRB0000536,YELAHANKA FOURTH PHASE,"38/1, 38/2, GROUND FLOOR, VINAYAKA HIGH POINT, 4TH PHASE, NEAR MANASA TRINITY HEART HOSPITAL, YELAHANKA NEW TOWNBENGALURU NORTH TALUK",BENGALURU URBAN,BENGALURU URBAN,KARNATAKA,0
489,KAVERI GRAMEENA BANK,KGRB0000537,HOSAKEREHALLY,"9 ITTAMADU MAIN ROAD , HOSAKEREHALLY , B.S.K 3RD STAGEBENGALURU SOUTH TALUK",BENGALURU URBAN,BENGALURU URBAN,KARNATAKA,0
490,KAVERI GRAMEENA BANK,KGRB000RTGS,MYSORE MAIN BRANCH,CA-20 VIJAY NAGAR SECOND STAGE MYSORE,MYSURU,MYSURU,KARNATAKA,0
