,BANK NAME,IFSC,OFFICE,ADDRESS,DISTRICT,CITY,STATE,PHONE
0,UTKARSH SMALL FINANCE BANK,UTKS0001001,ASHOK VIHAR,1ST FLR PL NO 107 108 HOUSE NO SA 37 BY 20 RLG COMPLEX VASUDEV NAGAR PAHARIA VARANASI 221007,VARANASI,VARANASI,UTTAR PRADESH,7752802002
1,UTKARSH SMALL FINANCE BANK,UTKS0001002,SIGRA,CAREOFMSPUSHPASINGHD56BY1561RAJANSAHINAGAROPPOSITESAGUNSWEETSDISTVARANASI221010,VARANASI,VARANASI,UTTAR PRADESH,7897075586
2,UTKARSH SMALL FINANCE BANK,UTKS0001003,HARAHUA,CARE OF NANHERAM MAURYA SON OF JAGERAM MAURYA VILL KOIRAJPUR POST HARAHUA DIST VARANASI 221202,VARANASI,VARANASI,UTTAR PRADESH,9794843382
3,UTKARSH SMALL FINANCE BANK,UTKS0001004,JANSA,"MR.ANIL GIRI,BHADOHI ROAD JANSA BAZAR DIST-VARANASI PIN-221405",VARANASI,VARANASI,UTTAR PRADESH,9794843392
4,UTKARSH SMALL FINANCE BANK,UTKS0001005,SINDHORA,"VILLAGE- SINDHORA, PARAGANA- KOLASLA, TEHSIL-PINDRA, DISTRICT- VARANASI, STATE- UTTAR PRADESH, PIN CODE- 221208",VARANASI,VARANASI,UTTAR PRADESH,7752802050
5,UTKARSH SMALL FINANCE BANK,UTKS0001006,CHANDWAK,"ARAZI NO.- 47,MAUZA-MANIYAREPUR,PARAGANA - KERAKAT,TAHSIL-KERAKAT,CHANDAVAK,DIST - JAUNPUR,E FI-CODE-2221 29",JAUNPUR,JAUNPUR,UTTAR PRADESH,7457929624
6,UTKARSH SMALL FINANCE BANK,UTKS0001007,PERMANATPUR,"ARAZI NO.108/81/1,AREA 1875 SQ.FT,MAUZA - UMARPUR,HARIBANDHANPUR,PARAGANA - HAVELI,TEHSIL - SADAR,PARMANATHPUR,DISTRICT - JUANPUR,STATE - UTTAR PRADESH,PIN CODE-222002",JAUNPUR,JAUNPUR,UTTAR PRADESH,7318016335
7,UTKARSH SMALL FINANCE BANK,UTKS0001008,HANUMANGANJ,"ARAZI NO.- 121,VILLAGE - PATTI GHEENA OR LALAPUR,PARAGANA - JHUSI,TEHSIL - PHOOLPUR,DISTRICT - ALLAHABAD,PIN CODE - 221505",ALLAHABAD,ALLAHABAD,UTTAR PRADESH,7607999431
8,UTKARSH SMALL FINANCE BANK,UTKS0001009,MARIAHU,"PLOT NO.229,VILLAGE - RANIPUR ( SEUR),MARIAHU,PARGANA AND TEHSIL - MARIAHU,DISTRICT - JAUNPUR,STATE - UTTAR PRADESH,PIN CODE - 222161",JAUNPUR,MARIAHU,UTTAR PRADESH,9794839609
9,UTKARSH SMALL FINANCE BANK,UTKS0001010,GHAZIPUR,"PLOT NO -155 SA,VILLAGE - FATEHPUR SIKANDARPUR DEHAT,PARAGANA GHAZIPUR,TEHSIL - GHAZIPUR,LANKA BYPASS ROAD,DISTRICT GAZIPUR UTTAR PRADESH,PIN CODE 233001",GAZIPUR,GHAZIPUR,UTTAR PRADESH,8756702485
10,UTKARSH SMALL FINANCE BANK,UTKS0001011,ALOPIBAGH,"GROUND FLOOR,HOUSE NO.47/8,ALOPIBAGH,DISTRICT - ALLAHABAD,STATE - UTTAR PRADESH,PIN CODE - 211006",ALLAHABAD,ALLAHABAD,UTTAR PRADESH,7457951203
11,UTKARSH SMALL FINANCE BANK,UTKS0001012,JALALPUR,"NO - 53,VILLAGE - SUNDARPUR,PARAGANA - HAVELI,TEHSIL - CHUNAR,POST - JAMUHAR,JAMUI,DISTRICT - MIRZAPUR,STATE - UTTAR PRADESH,PIN CODE-231301",MIRZAPUR,MIRZAPUR,UTTAR PRADESH,8853098625
12,UTKARSH SMALL FINANCE BANK,UTKS0001013,GOPIGANJ,"UTKARSH SMALL FINANCE BANK LIMITED,KANJIHOUSE ROAD,JAKHAU,GOPIGANJ,BHADOHI,PIN-221303",SANT RAVIDAS NAGAR,GOPIGANJ,UTTAR PRADESH,9794461587
13,UTKARSH SMALL FINANCE BANK,UTKS0001014,AURAI,"ARAZI NO - 107,VILLAGE - AURAI,TALUKA - ASNAO,TEHSIL - AURAI,DISTRICT - SANT RAVIDAS NAGAR,BHADOHI,STATE - UTTAR PRADESH,PIN CODE - 221301",MIRZAPUR,MIRZAPUR,UTTAR PRADESH,7080103842
14,UTKARSH SMALL FINANCE BANK,UTKS0001015,GAUHANIA,"ARAZI NO - 428 GA,MAUZA - GAUHANIYA,ARAILL,TEHSIL - BARA,DISTRICT - ALLAHABAD,STATE - UTTAR PRADESH,PIN CODE - 212107",ALLAHABAD,ALLAHABAD,UTTAR PRADESH,7607999340
15,UTKARSH SMALL FINANCE BANK,UTKS0001016,KARCHHANA,"GROUND FLOOR,ARAZI NO.214,AREA - 080 HECTARE,AND ARAZI NO.215,AREA - 0.130 HECTATE,MAUZA - HINDUPUR,PARAGANA - ARAIL,TAHSIL - KARCHHANA,DISTRICT - ALLAHABAD,PIN CODE-212301",ALLAHABAD,ALLAHABAD,UTTAR PRADESH,9794839611
16,UTKARSH SMALL FINANCE BANK,UTKS0001017,KASIMABAD,"MAUZA - SONVARSHA URF KASIMABAD,PARAGANA - JAHARABAD,TAHSIL - KASIMABAD,DISTRICT-GHAZIPUR - STATE - UTTAR PRADESH,PIN CODE-233230",GHAZIPUR,GHAZIPUR,UTTAR PRADESH,7897994722
17,UTKARSH SMALL FINANCE BANK,UTKS0001018,MIRZAPUR,"UTKARSH SMALL FINANCE BANK LIMITED,JOGIYABARI ROAD NEAR AMBEDAKAR PARKALY GHURAHU PATTI MIRZAPUR(UP),PIN CODE 231001",MIRZAPUR,MIRZAPUR,UTTAR PRADESH,0
18,UTKARSH SMALL FINANCE BANK,UTKS0001019,MACHHLISHAHAR,"MAUZA- GHISUA KHAS, PARAGANA- GHISUA, TAHSIL- MACHHALI SHAHAR, DISTRICT- JAUNPUR, STATE- UTTAR PRADESH, PIN CODE- 222143",JAUNPUR,JAUNPUR,UTTAR PRADESH,7897994727
19,UTKARSH SMALL FINANCE BANK,UTKS0001020,SULTANPUR,"C/O UNITED ASSOCIATE PAYAGIPUR,SULTANPUR UP PIN CODE 228001",SULTANPUR,SULTANPUR,UTTAR PRADESH,8953183761
20,UTKARSH SMALL FINANCE BANK,UTKS0001021,NANDGANJ,"GROUND FLOOR, , MAUZA- BARAHPUR, (SAIDPUR), TEHSIL- SAIDPUR, DISTRICT- GHAZIPUR, STATE- UTTAR PRADESH, PIN CODE- 233302",GHAZIPUR,GHAZIPUR,UTTAR PRADESH,9794839907
21,UTKARSH SMALL FINANCE BANK,UTKS0001022,CHAUBEYPUR,"MAUZA - BARSADHA,PARGANA - KATEHAR,TEHSIL-SADAR,DISTRICT - VARANASI,STATE - UTTAR PRADESH,PIN CODE-221104",VARANASI,VARANASI,UTTAR PRADESH,7752802009
22,UTKARSH SMALL FINANCE BANK,UTKS0001023,JAMUI,"NO.- 53,VILLAGE - SUNDARPUR,PARAGANA - HAVELI,TEHSIL - CHUNAR,POST - JAMUHAR,JAMUI,DISTRICT - MIRZAPUR,STATE - UTTAR PRADESH,PIN CODE-231301",MIRZAPUR,MIRZAPUR,UTTAR PRADESH,9794839903
23,UTKARSH SMALL FINANCE BANK,UTKS0001024,LAMBHUA,"FIRST FLOOR,ARAZI NO.691,AREA NO.4 VISWA OF 0.054 HEC.MAUZA - LAMBHUA,PARAGANA - CHANDA,TAHSIL - LAMBHUA,DISTRICT - SULTANPUR,UTTAR PRADESH,PIN CODE - 222302",SULTANPUR,SULTANPUR,UTTAR PRADESH,9956010932
24,UTKARSH SMALL FINANCE BANK,UTKS0001025,"GIRDHARGANJ, GORAKHPUR","PLOT NO-294,FMAHADEJHARKHANDIYJANAUNDERUHUSINGANDDEVELPMENTAUTHRITY,GRDHARGANJBAZAR,DERIARAD,DISTRICT-GRAKHPUR,INCDE-273008",GORAKHPUR,GORAKHPUR,UTTAR PRADESH,7317514153
25,UTKARSH SMALL FINANCE BANK,UTKS0001026,CHAURI CHAURA,"VILL-CHAURA, PARAGANA-HAVELI, POST- CHAURI CHAURA, NEAR THANA  CHAURI CHAURA MEN ROAD DIST- GORAKHPUR, UP PIN CODE 273201",GORAKHPUR,GORAKHPUR,UTTAR PRADESH,7607999327
26,UTKARSH SMALL FINANCE BANK,UTKS0001027,CHAURI,"PLOT NO-520,VILLAGE-MANIKPUR,ARAGANA-BHADHI,TALUKA-ASNA,TEHSIL-BHADHI,DISTRICT-SANTRAVIDASNAGAR,BHADHI,STATE-UTTARRADESH,INCDE-221402","SANT RAVIDAS NAGAR, BHADOHI","SANT RAVIDAS NAGAR, BHADOHI",UTTAR PRADESH,9794861580
27,UTKARSH SMALL FINANCE BANK,UTKS0001028,HANDIA,"C/O MRS.AYASHA BEGAM,FIRST FLOOR,WARD - 2,VILL - BHAIRAPUR,THANA HANDIA,TAHSIL - HANDIA,DIST-ALLAHABAD PIN-221503",ALLAHABAD,ALLAHABAD,UTTAR PRADESH,7525039769
28,UTKARSH SMALL FINANCE BANK,UTKS0001029,SAIDPUR,"YADAV CHAK,BHETRI MOD SAIDPUR GHAZIPUR UP PIN CODE-233304",GHAZIPUR,SAIDPUR,UTTAR PRADESH,8173001128
29,UTKARSH SMALL FINANCE BANK,UTKS0001030,CHAKIA,"ARAZI NO.30,NEAR BHARDWAJ CLINIC,WARD NO - 7,VILLAGE - DIREHU,PARAGANA-KERAMNGRAOUR,TEHSIL - CHAKIA,DISTRICT - CHANDAULI,STATE - UTTAR PRADESH,PIN CODE - 232103",CHANDAULI,CHANDAULI,UTTAR PRADESH,9519203666
30,UTKARSH SMALL FINANCE BANK,UTKS0001031,CHANDAULI,"WARD NO-14,VILLAGE - JASURI,PARAGANA-MAJHWAR,TEHSIL - CHANDAULI,DISTRICT - CHANDAULI,STATE - UTTAR PRADESH,PIN CODE - 232104",CHANDAULI,CHANDAULI,UTTAR PRADESH,8340745165
31,UTKARSH SMALL FINANCE BANK,UTKS0001032,AZAMGARH,"SIDHARI AZAMGARH,UP,PIN CODE - 276001",AZAMGARH,AZAMGARH,UTTAR PRADESH,7752802049
32,UTKARSH SMALL FINANCE BANK,UTKS0001033,PIPRAICH,"WORD NO.10 VIJAY CHAUK PIPRAICH GORAKHPUR,273152",GORAKHPUR,GORAKHPUR,UTTAR PRADESH,9102999474
33,UTKARSH SMALL FINANCE BANK,UTKS0001034,DULLAHPUR,"DULLAHPUR STATION,NEAR ALLAHABAD BANK,PIN CODE - 275202",GHAZIPUR,DULLAHPUR,UTTAR PRADESH,9598069276
34,UTKARSH SMALL FINANCE BANK,UTKS0001035,NAUPEDWA,"PLOT NO.- 182,VILLAGE - MOHAMMADPUR CHAK ENGLISH,PARAGANA - RARI,TEHSIL - SADAR,DISTRICT - JAUNPUR,STATE - UTTAR PRADESH,PIN CODE - 222109",JAUNPUR,JAUNPUR,UTTAR PRADESH,8853098384
35,UTKARSH SMALL FINANCE BANK,UTKS0001036,KADIPUR,"NH-54,NARAYANPARA,KADIPUR,DIST - SULTANPUR UP PIN CODE - 228145",SULTANPUR,SULTANPUR,UTTAR PRADESH,7897078568
36,UTKARSH SMALL FINANCE BANK,UTKS0001037,ETWA PUTLIGARH,"C/OMR.SHYAMDEVMAURYACHAUBEGHAT,NEARINCOMETAXOFFICEPOST-PUTLIGHAR,DIST-MIRZAPUR,PINCODE231001",MIRZAPUR,MIRZAPUR,UTTAR PRADESH,7607999355
37,UTKARSH SMALL FINANCE BANK,UTKS0001038,SORAON,"PLOT NO - 858,VILLAGE - SORAO,PARAGANA - SORAO,TEHSIL - SORAO,FRONT OF SARDAR PATEL HOTEL,SORAO,DISTRICT - ALLAHABAD,UTTAR PRADESH,PIN CODE - 212502",ALLAHABAD,SORAON,UTTAR PRADESH,7722024984
38,UTKARSH SMALL FINANCE BANK,UTKS0001039,NARAYANPUR,"ARAZI NO.- 317& 318,MAUZA - JAMALPUR,BARAIPUR,PARAGANA - BHUILEE,TEHSIL - CHUNAR,DISTRICT - MIRZAPUR,STATE - UTTAR PRADESH,PIN CODE - 231305",MIRZAPUR,MIRZAPUR,UTTAR PRADESH,7607770840
39,UTKARSH SMALL FINANCE BANK,UTKS0001040,ALINAGAR,NEAR RR MEMORIAL HOSPITAL 232108,CHANDAULI,ALINAGAR,UTTAR PRADESH,7897298596
40,UTKARSH SMALL FINANCE BANK,UTKS0001041,KOIRAUNA,"C/O SHIVANAND PANDEY,FIRST FLOOR,VILL-KHEDOPUR,THANA-KOIRAUNA,NEAR PETROL PUMP KSK,DIST - BHADOHI,PIN CODE - 221309",HDH,GYANPUR,UTTAR PRADESH,9794843391
41,UTKARSH SMALL FINANCE BANK,UTKS0001042,KUREBHAR,"GROUND FLOOR,ARAZI NO.238,SIDDHI GANESHPUR,PARAGANA - BAROUSA,TAHSIL - SADAR,DISTRICT - SULTANPUR,STATE - UTTAR PRADESH,PIN CODE - 228151",SULTANPUR,SULTANPUR,UTTAR PRADESH,9956017646
42,UTKARSH SMALL FINANCE BANK,UTKS0001043,KAURIRAM,"GROUND FLOOR,ARAZI NO.37 MIN,VILLAGE - BALUA BUJURG,PARAGANA - BHAUWAPAR,TEHSIL - BANSGAON,DISTRICT - GORAKHPUR,PIN CODE - 273413",GORAKHPUR,GORAKHPUR,UTTAR PRADESH,9984717072
43,UTKARSH SMALL FINANCE BANK,UTKS0001044,BEHEA,"FIRST FLOOR, UMRAOGANJ, RAJABAZAR, NEAR POWER HOUSE P.S. BIHIYA, DISTRICT BHOJPUR BIHAR 802152",BHOJPUR,BEHEA,BIHAR,9102997985
44,UTKARSH SMALL FINANCE BANK,UTKS0001045,JAMALPUR,"MOHALLA SIKANDARPUR,PARAGANA BHUALI TAHSIL - CHUNAR DIS MIRZAPUR PIN - 231302 NAGAR HOSPITAL ROAD DIS-BALARAMPUR CG PIN-497225,PUSTIKA 15914 PATWARI CIRCLE 22 KHESARA720",MIRZAPUR,JAMALPUR,UTTAR PRADESH,0
45,UTKARSH SMALL FINANCE BANK,UTKS0001046,DANAPUR,GOLA ROAD NEAR AXIS BANK DANAPUR PATNA 801503,PATNA,PATNA,BIHAR,7091593532
46,UTKARSH SMALL FINANCE BANK,UTKS0001047,ARRAH,"JAIN COLLEGE,PURVI GET NORTH COMPLEX,THANA - NAWADA,DIST-BHOJPUR BIHAR PIN CODE - 802301",BHOJPUR,ARRAH,BIHAR,7091599435
47,UTKARSH SMALL FINANCE BANK,UTKS0001048,LALGANJ,"HOUSE NO - 44,WARD NO.- 2,VILLAGE - HANUMANGARH,MAIN BYPASS,PANCHAYAT KATGHAR,LALGANJ,NEAR DHEERA CHAUK,HANUMANGORDHI,DIST - AZAMGARH,UP,276202",AZAMGARH,LALGANJ,UTTAR PRADESH,7234901535
48,UTKARSH SMALL FINANCE BANK,UTKS0001049,KHUTAHAN,"CHAK NO - 1965-I,PLOT NO - 1647/8/2 VILLAGE - PILKICHHA,PARAGANA - ANGULI,TEHSIL - SHAHGANJ,ALLAHABAD ROAD,KHUTHAN,DISTRICT - JAUNPUR,STATE-UP,PIN CODE - 223104",JAUNPUR,JAUNPUR,UTTAR PRADESH,9794843365
49,UTKARSH SMALL FINANCE BANK,UTKS0001050,MEHNAGAR,"C/O MR.ASHOK PANDEY WARD N.8,JWAHAR NAGAR,HOUS NO.189 MEHNAGAR,AZAMGARH-276204",AZAMGARH,AZAMGARH,UTTAR PRADESH,9794839614
50,UTKARSH SMALL FINANCE BANK,UTKS0001051,DEORIA,"GROUND FLOOR H.NO 392,WARD NO 23,GORAKHPUR ROAD UTTAR PRADESH 274001",DEORIA,DEORIA,UTTAR PRADESH,8756702468
51,UTKARSH SMALL FINANCE BANK,UTKS0001052,BIHTA,GR FLR MANOJ SINGH NEAR DURGA MANDIR PITAMBAR NAGAR NH 30 POST BIHTA THANA BIHTA PATNA 801103,PATNA,PATNA,BIHAR,7091599439
52,UTKARSH SMALL FINANCE BANK,UTKS0001053,PIRO,VILLAGE IBRAHIMPUR P.S - PIRO WARD NO.8 POST PIRO DISTRICT BHOJPUR BIHAR PIN CODE -802207,BHOJPUR,PIRO,BIHAR,7541811490
53,UTKARSH SMALL FINANCE BANK,UTKS0001054,JAMALPUR,"MOHALLA - MAZUA SIKANDARPUR,PARAGANA-BHUALI,TAHSIL - CHUNAR,DISTRICT - MIRZAPUR,STATE - UTTAR PRADESH,PIN - 231302",MIRZAPUR,MIRZAPUR,UTTAR PRADESH,7752802010
54,UTKARSH SMALL FINANCE BANK,UTKS0001055,BARHAJ,"WARD WEST WARD NO.- 21,POST-BARAHAJ,DISTRICT-DEORIA,UTTAR PRADESH,PIN CODE-274601",DEORIA,DEORIA,UTTAR PRADESH,7318250367
55,UTKARSH SMALL FINANCE BANK,UTKS0001057,BUXAR,"FIRST FLOOR, MAIN ROAD, GOLAMBER CHOWK, BUXAR, BIHAR 802101",BUXAR,BUXAR,BIHAR,7766915450
56,UTKARSH SMALL FINANCE BANK,UTKS0001058,NANDAN - PURANA BHOJPUR,"VILLAGE NANDAN,P.S - DUMRAON,BHOJPUR,DISTRICT - BUXAR,BIHAR PIN CODE-802119,KHATA NO - 555,KHESARA NO - 1803",BUXAR,NANDAN - PURANA BHOJPUR,BIHAR,7091193528
57,UTKARSH SMALL FINANCE BANK,UTKS0001059,DHARAHARA - DEHRIONSONE,"UTKARSH SMALL FINANCE BANK,C/O KRISHNA PRASAD SINGH MUHALLA - PALIROAD MAHAVIR BIGHA,POST - DEHRI ON SONE,THANA - DEHRI ON SONE,DISTT - ROHTAS,BIHAR PIN-821307",ROHTAS,DHARAHARA - DEHRIONSONE,BIHAR,9507803245
58,UTKARSH SMALL FINANCE BANK,UTKS0001060,TAKIA - SASARAM,"UTKARSH SMALL FINANCE BANK,C/O-ANU VERMA W/O - BISWANATH PRASAD VERMA MUHLA-COMPANY SARAI CIVIL LINE,NEAR-IDBI BANK,SASARAM,DIST - ROHTAS,821115",ROHTAS,TAKIA - SASARAM,BIHAR,7544018140
59,UTKARSH SMALL FINANCE BANK,UTKS0001061,KUDRA,"FIRST FLOOR,MAUZA SAKARI,ANCHAL KUDRA,DISTRICT KAIMUR,(BHABUA),BIHAR,PIN CODE-821108",KAIMUR,KAIMUR,BIHAR,7260812131
60,UTKARSH SMALL FINANCE BANK,UTKS0001062,BABURA,"KHATA NO - 9,KHESARA NO - 495,VILLAGE - BABURA,ANCHAL - BHABUA,P.S - BHABUA,WARD NO - 14,NEAR MASZID,BHABHUA,DIST - KAIMOOR,BIHAR,PIN CODE-821101",KAIMOOR,KAIMOOR,BIHAR,7766913455
61,UTKARSH SMALL FINANCE BANK,UTKS0001063,MANOHARPUR - DURGAWATI,"UTKARSH SMALL FINANCE BANK,C/O BECHU SAHA,POST -DURGAWATI,THANA-DURGAWATI DISTT-KAIMUR,BIHAR PIN CODE 821105",KAIMUR,MANOHARPUR - DURGAWATI,BIHAR,9721892230
62,UTKARSH SMALL FINANCE BANK,UTKS0001064,RAMGARH BR,"C/O-JITENDRA TIWARI VILL,POST,-RAMGARH, NEAR MADHYA BIHAR GRAMIN BANK, DISTT- KAIMUR, STATE-BIHAR, PIN CODE-821110",KAIMOOR,KAIMOOR,JHARKHAND,7355242991
63,UTKARSH SMALL FINANCE BANK,UTKS0001065,BRAHMPUR,"UTKARSH SMALL FINANCE BANK-BRAHMPUR,BRAHMPUR CHAURASTA OSSO PALACE BUXAR ROAD BRAHMPUR BHOJPUR.",BUXAR,BRAHMPUR,BIHAR,7033693917
64,UTKARSH SMALL FINANCE BANK,UTKS0001066,HATA,"ARAZI NO9,GEWGHNTH,PRGNSHT,TEHSHT,BGHNTHCHURH,H28,HT,DSTRCTKUSHNGR,STTEUP,PNCODE27203",KUSHINAGAR,KUSHINAGAR,UTTAR PRADESH,7380450969
65,UTKARSH SMALL FINANCE BANK,UTKS0001067,MEJA ROAD,"PANDEY MARKET,PATEL CHAURAHA MEJA ROAD,ALLAHABAD UP PIN CODE-212302",ALLAHABAD,ALLAHABAD TICO TOWN,UTTAR PRADESH,8756702477
66,UTKARSH SMALL FINANCE BANK,UTKS0001068,MANAURI,"C/O DEO NARAYAN PATHAK,VIL - PURAMUSTI,THANA-PURAMUFTI,MANAURI ROAD ALLAHABAD UP PIC CODE-212208",ALLAHABAD,ALLAHABAD,UTTAR PRADESH,7897095049
67,UTKARSH SMALL FINANCE BANK,UTKS0001069,KURAN SARAI,"UTKARSH SMALL FINANCE BANK-KURAN SARAI,NIRMAL TIWARI MARHILA ROAD KURAN SARAI POST KURAN SARAI BUXAR",BUXAR,KURAN SARAI,BIHAR,0
68,UTKARSH SMALL FINANCE BANK,UTKS0001070,KOCHAS,"C/O OMPRAKASH SINGH,AT - BALAJI NAGAR,SASARAM ROAD,OPP - MAHENDRA TRACKTER AGENCY KOCHASPO&PS - KOCHAS,DIS-ROHTAS PIN CODE 821109",ROHTAS,KOCHAS,BIHAR,7766913452
69,UTKARSH SMALL FINANCE BANK,UTKS0001071,CHHAPRA,"WARD NO.30,HAL NO.- 03,CIRCLE NO.26,MAUZA - SHYAMCHAK,P.S.- BHAGWAN BAZAR,DISTRICT - SARAN,STATE - BIHAR,PIN CODE - 841301",SARAN,SARAN,BIHAR,9102999375
70,UTKARSH SMALL FINANCE BANK,UTKS0001072,GARKHA,"UTKARSH SMALL FINANCE BANK-GARKHA,ASHOK KUMAR UPADHYA VILL RAIPURA POST GARKHA SARAN BIHAR",SARAN,GARKHA,BIHAR,7280027239
71,UTKARSH SMALL FINANCE BANK,UTKS0001073,BANIYAPUR,"UTKARSH SMALL FINANCE BANK-BANIYAPUR,C/O - DEEPAK KUMAR SINGH S/O - HARENDRA SINGH VILL - KANHOLI SANGRAM POST - BANIAPUR,THANA - BANIAPUR DISTRICT SARAN,BIHAR PIN CODE-841402",SARAN,BANIYAPUR,BIHAR,7273000780
72,UTKARSH SMALL FINANCE BANK,UTKS0001074,NOKHA,"UTKARSH SMALL FINANCE BANK,C/O LATE BISWANATH SHARMA,SARVODY NAGAR,WARDA NO-10,POPS - NOKHA,DIS-ROHTAS PIN CODE 802215",ROHTAS,NOKHA,BIHAR,9973459914
73,UTKARSH SMALL FINANCE BANK,UTKS0001075,BHARWARI,"WARD NO.10,INDIRA NAGAR,NAYA BAZAR,BHARWARI,DISTRICT - KAUSHAMBI,STATE - UTTAR PRADESH,PIN CODE 212201",KAUSHAMBI,KAUSHAMBI,UTTAR PRADESH,7607999335
74,UTKARSH SMALL FINANCE BANK,UTKS0001076,BHATANI,"GROUND FLOOR,PLOT NO-840 VILLAGE,HATWANKAHANI,TAPPA - BHATANI PARAGANA - SALEMPUR MAJHAULI,TEHSIL - SALEMPUR,DISTRICT - DEORIA,STATE-UTTAR PRADESH PIN CODE-274701",DEORIA,DEORIA,UTTAR PRADESH,8433272724
75,UTKARSH SMALL FINANCE BANK,UTKS0001077,SAHJANWA,"C/O MR.JHINKU PRASAD YADAVN,H-28,NEAR FISHKING PETROL PUMP,PIPRA,SAHAJNWA,GORAKHPUR UP PIN CODE-273209",GORAKHPUR,GORAKHPUR,UTTAR PRADESH,7054202418
76,UTKARSH SMALL FINANCE BANK,UTKS0001078,PANCHKOSI,"1ST FLOOR SA20 BY 206 H 2 1 CHANDRA CHARMUHANI ASHAPUR WARD SARNATH,VARANASI 221007",VARANASI,VARANASI,UTTAR PRADESH,8756399760
77,UTKARSH SMALL FINANCE BANK,UTKS0001079,SATNA,K/V V.K.CHAURASIYA SANGRAM COLONY NEAR BY BADI SARSWATI SCHOOL DIST.SATNA MADHYA PRADESH PIN -485001,SATNA,SATNA,MADHYA PRADESH,7869801576
78,UTKARSH SMALL FINANCE BANK,UTKS0001080,JAGJEETPUR,"VILL-DEVPUR,MUSTAHKAM,PARAGANA JWALAPUR,TEH.AND DISTRICT - HARIDWAR,STATE - UTTARAKHAND PIN CODE-249408",HARIDWAR,HARIDWAR,UTTARAKHAND,8756702474
79,UTKARSH SMALL FINANCE BANK,UTKS0001081,BIHSARA,"ARAZI NO.948 KHA,AREA 13 BISWA 1 DHOOR,MAUZA - VIHSADA KALAN,PARAGANA - KANTIT,TEHSIL - SADAR,DISTRICT - MIRZAPUR,STATE - UTTAR PRADESH,PIN CODE-231303",MIRZAPUR,MIRZAPUR,UTTAR PRADESH,7607999353
80,UTKARSH SMALL FINANCE BANK,UTKS0001082,MAIHAR,"MAUZA - HARMANPUR,WARD NO.- 24,TEHSIL - MAIHAR,DISTRICT - SATNA,STATE - MADHYA PRADESH,PIN CODE - 486771,KHESARA NO.- 67/2",SATNA,SATNA,MADHYA PRADESH,7999505447
81,UTKARSH SMALL FINANCE BANK,UTKS0001084,JHABREDA,"UTKARSH SMALL FINANCE BANK LTD,NEW MANDI,JATOL RAOD,JHABREDA 247665",HARIDWAR,JHABREDA,UTTARAKHAND,8756887846
82,UTKARSH SMALL FINANCE BANK,UTKS0001085,DIGHWARA,"PLOT NO.226 KHATA NO.108 THANA NO 142 TOUZI NO.3143 VILLAGE RAIPATTI,PARAGANA - KASMAR,P.S DIGHWARA",SARAN,DIGHWARA,BIHAR,7766915165
83,UTKARSH SMALL FINANCE BANK,UTKS0001086,SILHAURI,"GROUND FLOOR,CHHAPRA MADHAURA,MAIN ROAD,SILHAURI,DIST-SARAN,BIHAR 841418",SARAN,CHAPRA,BIHAR,7766915175
84,UTKARSH SMALL FINANCE BANK,UTKS0001087,ROORKEE,"ABADI KHESARA NO- 446,DOUBL FPHK B PUBLC SCHOOL VLLG MOHNPU MOHMMDPU ROOK THSL ROOK DST HDW STT U PN COD 27667",HARIDWAR,HARIDWAR,UTTARAKHAND,7080304889
85,UTKARSH SMALL FINANCE BANK,UTKS0001088,REWA,"NEW BUS STAND SAMAAN NAKA PANI TANKI SANJY NAGAR,PATEL HOUSE,NEAR UTSAV MARRIG GARDEN,REWA M.P PIN.486001",REWA,REWA,MADHYA PRADESH,7869801586
86,UTKARSH SMALL FINANCE BANK,UTKS0001089,SONEPUR,"UTKARSH SMALL FINANCE BANK-SONEPUR,GITA DEVI W/O KRISHNA MURARI PRASAD,GOLA BAZAR,POST-SONPUR,THANA-SONPUR,DISTT - SARAN,PIN-841101",SARAN,SONEPUR,BIHAR,9955192953
87,UTKARSH SMALL FINANCE BANK,UTKS0001090,MANGAWAN,"KHESRA NO.- 114/2/7,VILLAGE - AMIRATI 14,PAT,HALKA NO - AAMBI,R.I.S.- MANGAWAN,TEHSIL - MANGAWAN,DISTRICT - REWA,STATE - MADHYA PRADESH,PIN CODE - 486114",REWA,MANGAWAN,MADHYA PRADESH,7247007401
88,UTKARSH SMALL FINANCE BANK,UTKS0001091,HARBERTPUR,"KHESRA NO-1363/2,VILLAG-DHAKANIANDMPI-106,WADNO-02,NAGAPALIKAPAIDHADHBTPU,THSIL-VIKASNAGA,DISTICT-DHADUN,STAT-U,PINCOD-248142",DEHRADUN,DEHRADUN,UTTARAKHAND,9519410485
89,UTKARSH SMALL FINANCE BANK,UTKS0001092,BANGRA,UDFVEUBTHMKSIN8110,SARAN,CHAPRA,BIHAR,7766915456
90,UTKARSH SMALL FINANCE BANK,UTKS0001093,GAZIPUR DELHI,"C/O MR.RAJENDRA KUMAR GUPTA,G -115,GAZIPUR,NEW DELHI,110096",EAST DELHI,GAZIPUR DELHI,DELHI,8800047198
91,UTKARSH SMALL FINANCE BANK,UTKS0001094,GEETA VATIKA,"ARAZI NO - 1426 MIN,MAUZA - BASHARATPUR,PARAGANA - HAVELI,KHAJANCHI CHOWK,FATMA BYPASS ROAD,GEETA VATIKA,DISTRICT - GORAKHPUR,STATE-UP,PIN CODE - 273003",GORAKHPUR,GORAKHPUR,UTTAR PRADESH,7080701453
92,UTKARSH SMALL FINANCE BANK,UTKS0001095,NAINI,PLOT NO 2 ARAZI NO.114/10MI VILLAGE NAINI TALUKA NAINI DADRI PARAGANA ARAILTEHSIL KARCHHANA MUKTA VIHAR KALA COMPLEX DISTRICT ALLAHABAD STATE UP PIN-211010,ALLAHABAD,NAINI,UTTAR PRADESH,9794843381
93,UTKARSH SMALL FINANCE BANK,UTKS0001096,PATHARDEWA,"KUCHAYA,NEAR POST OFFICE,NEAR CINEMA HALL ROAD,PATHARDEWA,DEORIA,PIN CODE 274401",DEORIA,PATHARDEWA,UTTAR PRADESH,8318688805
94,UTKARSH SMALL FINANCE BANK,UTKS0001097,BHATPARRANI,"GROUND FLOOR,ARAZI NO.- 522 MIN,VILLAGE - KEHUNIYA,TAHSIL - BHATPAR,RANI,PARAGANA - SALEMPUR ( MAJHAULI ) DISTRICT - DEORIA,UTTAR PRADESH,PIN CODE - 274702",DEORIA,DEORIA,UTTAR PRADESH,9519562974
95,UTKARSH SMALL FINANCE BANK,UTKS0001098,MANJHI,PLOT NO 3670 KHATA NO1657 THANA NO 215 TAUZI NO.3612 ABD 3613 VILLAGE MAJHI POST MAJHI P.S MAJHI,AA,MANJHI,BIHAR,7091193516
96,UTKARSH SMALL FINANCE BANK,UTKS0001099,UMRAHA,CARE OF MR BAL JI PRASADA VILLAGE UMARAHA MARKET POST UMARAHA VARANASI 221007,VARANASI,VARANASI,UTTAR PRADESH,7897299731
97,UTKARSH SMALL FINANCE BANK,UTKS0001100,PARASA,"BHOLA SINGH COMPLEX,HOSPITAL ROAD,VILLAGE - SHANKARDEEH,THANA - PARASA,DISTRICT - SARAN,STATE - BIHAR,PINC CODE-841219",SARAN,SARAN,BIHAR,7781002422
98,UTKARSH SMALL FINANCE BANK,UTKS0001101,PREM NAGAR,"SMITH NAGAR,PREM NAGAR DEHARADUN PIN - 248001",DEHRA DUN,PREM NAGAR,UTTARAKHAND,8756332223
99,UTKARSH SMALL FINANCE BANK,UTKS0001102,AMARPATAN,"KHASARA NO - 164/4,BHOO ADHIKAR RIN PUSTIK NO - O-47126,VILL - UMARAHI MATHURIYAN,TEHSIL - AMARPATAN,H NO - 33 KH,SUBHASH CHOWK AMARPATAN,DIST - SATNA,MP,485775",SATNA,AMARPATAN,MADHYA PRADESH,7024632104
100,UTKARSH SMALL FINANCE BANK,UTKS0001103,MAUGANJ,"VILLAGE-GHUREHATA KALA - 258,PAT.HALKA NO.- GHUREHATA 37,R.I.C.- MAUGANJ,TEHSIL - REWA,DISTRICT - REWA,STATE - MADHYA PRADESH,PIN CODE - 486331",REWA,REWA,MADHYA PRADESH,7869801587
101,UTKARSH SMALL FINANCE BANK,UTKS0001104,"TARWARA MOD, SIWAN","MAUZA - DAUDPUR,P.S - SIWAN,DISTRICT - SIWAN,STATE - BIHAR,PIN CODE-841226,KHATA NO - 10/1,KHESARA NO - 158,THANA NO - 115,TAUZI NO - 755",SIWAN,SIWAN,BIHAR,7091599467
102,UTKARSH SMALL FINANCE BANK,UTKS0001105,MAIRWA,"MAUZA - LANGARPURA,PARAGANA - CHAUPAR,P.S - MAIRWA,DISTRICT - SIWAN,STATE - BIHAR,PIN CODE-841239",SIWAN,MAIRWA,BIHAR,7369017139
103,UTKARSH SMALL FINANCE BANK,UTKS0001106,SAHSON,"GROUND FLOOR,PLOT NO.167,MAUZA SAHSON,POST - SAHSON,PARAGANA - JHUSI,TAHSIL - PHOOLPUR DISTRICT - ALLAHABAD,STATE - UTTAR PRADESH,PIN CODE-221507",ALLAHABAD,ALLAHABAD,UTTAR PRADESH,7752902446
104,UTKARSH SMALL FINANCE BANK,UTKS0001107,GHUTANI,"GROUND FLOOR,MAUZA-GHUTANI,PARAGANA - CHAUPAR,P.S.- GHUTANI,DISTRICT -SIWAN,STATE - BIHAR","SIWAN, STATE- BIHAR","SIWAN, STATE- BIHAR",BIHAR,7091599290
105,UTKARSH SMALL FINANCE BANK,UTKS0001108,DILSHAD GARDEN,"H.N -127,GALI NO.5,D -BLOCK,HARSH VIHAR,DILSHAD GARDEN,NEW DELHI,INDIA,PIN - 110096",EAST DELHI,DILSHAD GARDEN,DELHI,7290088432
106,UTKARSH SMALL FINANCE BANK,UTKS0001109,KAKARMATTA,CAREOFDRRKSINGHN10BY72E25NEWCOLONYKAKARMATTA221004,VARANASI,VARANASI,UTTAR PRADESH,8756702489
107,UTKARSH SMALL FINANCE BANK,UTKS0001110,KASYA,MS.GYATRI DEVI W/O RAM WARD NO 8 CIVIL LINE KASYA KUSHINAGAR 274402,KUSHI NAGAR,KASYA,UTTAR PRADESH,8948195499
108,UTKARSH SMALL FINANCE BANK,UTKS0001111,CHHUTAMALPUR,"VILLAGE - FATEHPUR BHADO,PARAGANA - HARORA,TEHSIL - BEHAT,NEAR DEHRADUN ROAD,PHATEHPUR,DIST - SHARANPUR,STATE - UTTAR PRADESH,PIN CODE-247886,KHASRA NO.- 645",SHAHARANPUR,SHAHARANPUR,BIHAR,7080701492
109,UTKARSH SMALL FINANCE BANK,UTKS0001112,DEURIYA,"VILLAGE-DEORIA,DEORIA,MAHARAJGANJ,DISTRICT - SIWAN,BIHAR,PIN CODE-841238,TAUZI NO - 1630,THANA NO.- 153,KHATA NO - 343",SIWAN,SIWAN,BIHAR,7766913475
110,UTKARSH SMALL FINANCE BANK,UTKS0001113,BASANTPUR,"UTKARSH SMALL FINANCE BANK-BASANTPUR, C/O PAPPU GUPTA SIPAH ROAD BASANTPUR NEAR SHAKHI MAHILA SANSTHAN DISTT- SIWAN STATE - BIHAR.",SIWAN,BASANTPUR,BIHAR,7070722947
111,UTKARSH SMALL FINANCE BANK,UTKS0001114,SIRATHU,"PLOT NO.236KA,237KA&238KA VILLAGE SIRATHU,PARAGANA KADA,TEHSIL SIRATHU CHHAILPUR,SIRATHU DISTRICT KAUSHAMBI STATE-UP PIN CODE-212217",KAUSHAMBI,SIRATHU,UTTAR PRADESH,7522800124
112,UTKARSH SMALL FINANCE BANK,UTKS0001115,KARAWAL NAGAR,CARE OF VIMLA DEVI U BY 23 A 20 FOOTAD ROAD F4 LOK VIHAR SHLV VIHAR KARAWAL NAGAR NEW DELHI 110094,DELHI,DELHI,DELHI,9650085773
113,UTKARSH SMALL FINANCE BANK,UTKS0001116,BELTHARA ROAD,"PLOT NO - 556,VILL - SIYAR,TEHSIL - BELTHARA ROAD,MISHRAULI ROAD,NEAR PURVANCHAL HALL BELTHARA ROAD,DISTRICT - BALLIA,STATE - UTTAR PRADESH,PIN CODE 221715",BALLIA,BELTHARA ROAD,UTTAR PRADESH,7318076597
114,UTKARSH SMALL FINANCE BANK,UTKS0001117,PAONTA SAHIB,"WARD NO.13,HOUSE NO.22,OLD 4 UP SAMPADA SHAMSHERPUR,PAONTA SAHIB,DISTRICT -SIRMAUR,STATE -HIMANCHAL PRADESH,PIN CODE -173025",SIRMAUR,SIRMAUR,HIMACHAL PRADESH,7833054721
115,UTKARSH SMALL FINANCE BANK,UTKS0001118,KHANPUR - BADHARIYA,"UTKARSH SMALL FINANCE BANK-BADHARIYA,C/O JAIPRKASH SINGH KHANPUR GOPALGANJ ROAD POST THANA BADHARIYA DISTT SIWAN STATE BIHAR",SIWAN,KHANPUR - BADHARIYA,BIHAR,7781002196
116,UTKARSH SMALL FINANCE BANK,UTKS0001119,BURARI,"HN.167 A BLACK NEAR GOPESHWAR MANDIR,BHAGAT COLONY,SANT NAGAR,BURARI,DELHI -110084",NORTH DELHI,BURARI,DELHI,8130995548
117,UTKARSH SMALL FINANCE BANK,UTKS0001120,NANGLOI,"HO.NO.40,NANGLOI EXTENSION -2A,NEW DELHI,INDIA,PIN -110041",WEST DELHI,NANGLOI,DELHI,8168023938
118,UTKARSH SMALL FINANCE BANK,UTKS0001121,UTTAM NAGAR,"PILLAR NO -741,B -127,UTTAM NAGAR,NEW DELHI,INDIA,PIN - 110059",WEST DELHI,UTTAM NAGAR,DELHI,9540310563
119,UTKARSH SMALL FINANCE BANK,UTKS0001122,"KOTWARI MOD, RASRA","ARAZI/PLOT NO - 3181, VILLAGE- RASRA, PARAGANA- LAKHANESHWAR, NAI BASTI KOTWARI MODE, DISTRICT - BALLIA, P.O - RASRA, PIN CODE - 221712",BALLIA,"KOTWARI MOD, RASRA",UTTAR PRADESH,9161212959
120,UTKARSH SMALL FINANCE BANK,UTKS0001123,BALLIYA,"BAHADURPUR,NEAR NAGARNIGAM BOARD,BALLIYA,PIN CODE 270001",BALLIA,BALLIYA,UTTAR PRADESH,7317514157
121,UTKARSH SMALL FINANCE BANK,UTKS0001124,GOPALGANJ,"UTKARSH SMALL FINANCE BANK-GOPALGANJ,C/O ADARSH BARNWAL,SHRI BALAJI ENTERPRISES SADHU CHOWK ( MACHARIYA BABA GALI)WARD NO 6 POST - GOPAL GANJ - BIHAR",GOPALGANJ,GOPALGANJ,BIHAR,6200274632
122,UTKARSH SMALL FINANCE BANK,UTKS0001125,LAKSAR,"KHASARA NO.274 M,WARD NO.06 SIMALI UNDER MUNICIPALITY LAKSAR,PARAGANA - MANGLAUR,TEHSIL - LAKSAR,DISTRICT - HARIDWAR,STATE - UTTRAKHAND,PIN CODE - 247663",HARIDWAR,HARIDWAR,UTTARAKHAND,7525024067
123,UTKARSH SMALL FINANCE BANK,UTKS0001126,SIKANDARPUR,C/O SMT TARA DEVI MELAKE MOHLLA POST SIKANDARPUR DIS BALLIA 277303,BALLIA,BALLIA,UTTAR PRADESH,7459810909
124,UTKARSH SMALL FINANCE BANK,UTKS0001127,BHORE,"MAUZA - BHORE,THANA - BHORE,DISTRICT-GOPALGANJ,BIHAR,PIN CODE-841426",GOPALGANJ,GOPALGANJ,BIHAR,7541817421
125,UTKARSH SMALL FINANCE BANK,UTKS0001128,CHAHANIA,"ARAZI NO.396/3,AREA 10 AERE I.E.1078 S.Q.I.E.100.18 SQ.METER,VILLAGE - KHANDWARI,PARAGANA - MAHUWARI,TEHSIL - SAKALDIHA,DISTRICT - CHANDAULI STATE - UTTAR PRADESH,PIN CODE-232109",CHANDAULI,CHANDAULI,UTTAR PRADESH,9519203726
126,UTKARSH SMALL FINANCE BANK,UTKS0001129,MIRZAPUR,"VILLAGE - MIRZAPUR,PARAGANA - DANGASHI,P.S-BARAULI,DISTRICT - GOPALGANJ,STATE - BIHAR,PIN CODE-841405,KHATA NO - 26,KHESARA NO - 50,THANA NO - 427,TAUZI NO - 2199",GOPALGANJ,GOPALGANJ,BIHAR,7542035180
127,UTKARSH SMALL FINANCE BANK,UTKS0001130,TAMKUHI ROAD,"KHOTA NO-1095&1100,MUZ-PKDIYPURBPTTI,TPP-MEHDWL,PRGN-SINDHUWJOVN,TEHSIL-TMKUHIRJ,DISTRICT-USHINGRSTTE-UP,PINCODE-274406",KUSHINAGAR,KUSHINAGAR,UTTAR PRADESH,7080302944
128,UTKARSH SMALL FINANCE BANK,UTKS0001131,RISHIKESH,MAYA MARKET GUMANIWALA NEAR UTTARAKHAND CO -OPRATIVE BANK RISHIKESH UTTARAKHAND 249201,DEHRA DUN,RISHIKESH,UTTARAKHAND,7607999433
129,UTKARSH SMALL FINANCE BANK,UTKS0001132,BADARPUR,"J -13 SAURABH VIHAR JAITPUR BADARPUR,NEW DELHI,INDIA,PIN.CODE -110044",SOUTH DELHI,BADARPUR,DELHI,7492851579
130,UTKARSH SMALL FINANCE BANK,UTKS0001133,DATTWADI,"C/O SATISH MORE SURAKSHA NAGAR,BEHIND ASHA HOSPITAL,DATTAWADI,NAGPUR,PIN -440023",NAGPUR,DATTWADI,MAHARASHTRA,7722024904
131,UTKARSH SMALL FINANCE BANK,UTKS0001134,KATOL,"THAKUR COMPLEX STATION ROAD KATOL DIST NAGPUR,441302",NAGPUR,KATOL,MAHARASHTRA,7722024907
132,UTKARSH SMALL FINANCE BANK,UTKS0001135,BARIYARPUR - MOTIHARI,"CO / MR.NAGESHWAR PRATAP SINGH,CHOTA BARIYARPUR,THANA CHATAUNI,DIS.OURVI CHAMAPRAN - STATE BIHAR PIN CODE - 845401",PURBI CHAMPARAN,BARIYARPUR - MOTIHARI,BIHAR,6203136807
133,UTKARSH SMALL FINANCE BANK,UTKS0001136,KATANI,"WARD NO.- 16,DURGA CHAUK MAUZA RAFI AHMAD KIDWAI,KHIRAHANI,DIST - KATANI,MP,PIN CODE-483501",KATANI,KATANI,MADHYA PRADESH,7869801741
134,UTKARSH SMALL FINANCE BANK,UTKS0001137,ARERAJ,"VILLAGE - YOGIYAD JANERAWA,P.S - GOBINDGANJ,ARERAJ,DIST - EAST CHAMPARAN,STATE - BIHAR - 845411,KHATA NO-240,KHESARA NO - 1121,THANA NO - 103,TAUZI NO - 951",EAST CHAMPARAN,EAST CHAMPARAN,BIHAR,7541811472
135,UTKARSH SMALL FINANCE BANK,UTKS0001138,BARA CHAKIA,"MR.SUNIL KUMAR SINGH,NEAR STATE BANK OLD MOTIHARI ROAD CHAKIYA DIS PRUVI CHAMPARAN 845412",CHAMPARAN,BARA CHAKIA,BIHAR,7541811577
136,UTKARSH SMALL FINANCE BANK,UTKS0001139,GADARWARA,RAJENDRA BABU WARD CHICHLI ROAD GADARWARA NARSINGHPUR MADHYA PRADESH INDIA PIN -487551,NARSIMHAPUR,GADARWARA,MADHYA PRADESH,9575150226
137,UTKARSH SMALL FINANCE BANK,UTKS0001140,SIHORA,"BESIDE CHANDRADEVI SCHOOL JWALAMUKHI ROAD,SIHORA DIST JABALPUR PIN CODE 483225",JABALPUR,SIHORA,MADHYA PRADESH,9669371080
138,UTKARSH SMALL FINANCE BANK,UTKS0001141,"BALLABHGARH, FARIDABAD","1H -87 2ND FLOOR,NEAR GOLDY BAKERY.NIT FARIDABAD.INDIA,PIN -121001",FARIDABAD,"BALLABHGARH, FARIDABAD",HARYANA,8527092404
139,UTKARSH SMALL FINANCE BANK,UTKS0001142,NARELA,"GALI NO -1 GAUTAM COLONY,HOUSE NO -4912 NARELA,DELHI -110042",NORTHWEST DELHI,NARELA,DELHI,8708519470
140,UTKARSH SMALL FINANCE BANK,UTKS0001143,SAONER,WARD NO -6 OPP.PHC NEAR PADMAVATI HOSPITAL PIN -441107,NAGPUR,SAONER,MAHARASHTRA,7722067939
141,UTKARSH SMALL FINANCE BANK,UTKS0001144,NANDANVAN,SHREE G S PALACE FLAT NO.201 GOPAL KRISHNA NAGAR WATHODA PANDHAN ROAD NAGPUR 440009,NAGPUR,NAGPUR,MAHARASHTRA,7722024906
142,UTKARSH SMALL FINANCE BANK,UTKS0001145,MAHARAJGANJ,"PLOT NO - 1967,VILLAGE - DHANEWA DHANEI,KASMARIYA,TEHSIL - MAHARAJGANJ,MAU PAKAR CHAURAHA,MICHALAUL ROAD,NEAR DURGA MANDIR,DISTRICT - MAHARAJGANJ,UP,273303",MAHARAJGANJ,MAHARAJGANJ,UTTAR PRADESH,9519410472
143,UTKARSH SMALL FINANCE BANK,UTKS0001146,ORA - AURANGABAD,"UTKARSH SMALL FINANCE BANK,C/O - PRADEEP KUMAR,MAHATHANIVAS,NEW AREA MAHARAJGANJ ROAD,AURANGABAD POPS - AURANGABAD DISTT - AURANGABAD,BIHAR,PIN CODE 824101",AURANGABAD,ORA - AURANGABAD,BIHAR,7544018326
144,UTKARSH SMALL FINANCE BANK,UTKS0001147,MANKAPUR,"LAXMI PLAZA,MANKAPUR SQUARE,SAONER ROAD DISTRICT-NAGPUR,STATE-MAHARASHTRA, PIN CODE-440030",NAGPUR,NAGPUR,MAHARASHTRA,7722024931
145,UTKARSH SMALL FINANCE BANK,UTKS0001148,KUTUMBA,"MAUZA-KUTUMBA ( YAMUNA TALAB),P.S.KUTUMBA,DISTRICT - AURANGABAD,STATE - BIHAR,PIN,BIHAR,PIN CODE - 801301",AURANGABAD,KUTUMBA,BIHAR,8114516474
146,UTKARSH SMALL FINANCE BANK,UTKS0001149,BETTIAH,"VILL - CHHAWANI BETTIAH,PARAGANA - MAJHAUA,P.S BETTIAH,DISTRICT - WEST CHAMPARAN,STATE - BIHAR,PIN CODE-845455,KHATA NO - 205,KHESARA NO - 195/5-6,THANA NO - 127",WEST CHAMPARAN,WEST CHAMPARAN,BIHAR,7463886597
147,UTKARSH SMALL FINANCE BANK,UTKS0001150,JAKIYARI,"MAUZA-JOKIHAT,P.S-RAXOUL,DISTRICT-EASTCHAMPARAN,STATE-BIHAR,PINCODE-845305",PURBI CHAMPARAN,JAKIYARI,BIHAR,9523590839
148,UTKARSH SMALL FINANCE BANK,UTKS0001151,KAPTANGANJ,"ARAZI KHATA NO.- 00318,VILLAGE - BASAHIYA OR KAPTANGANJ,DISTRICT - KUSHINAGAR,STATE - UTTAR PRADESH,PIN CODE - 279301",KUSHINAGAR,PADRAUNA,UTTAR PRADESH,8853099892
149,UTKARSH SMALL FINANCE BANK,UTKS0001152,CHANPATIYA,"MAUZA - TIKULIYA,THANA - CHANPATIYA,SUB REGISTRY - BETTIAH,DISTRICT - WEST CHAMPARAN,BIHAR,PIN CODE-845449",WEST CHAMPARAN,WEST CHAMPARAN,BIHAR,7033694282
150,UTKARSH SMALL FINANCE BANK,UTKS0001153,PADRAUNA,"ARAZI-3430,MUZ-PDRUN,WRDCHHWN,TPP-PKD,GNGRN,TEHSL-PDRUN,DSTRCT-KUSHNGR,STTE-UTTRPRDESH,PNCODE-274304",KUSHINAGAR,KUSHINAGAR,UTTAR PRADESH,7460050369
151,UTKARSH SMALL FINANCE BANK,UTKS0001154,BADHALGANJ,"240 NARAHARPUR,BARAHALGANJ,DISTRICT GORAKHPUR,UP,PIN CODE-273402",GORAKHPUR,GORAKHPUR,UTTAR PRADESH,7525016186
152,UTKARSH SMALL FINANCE BANK,UTKS0001155,GARHA JABALPUR,"VILLAGE- CHAWANPUR, P.C. NO. 04, R.N.M. JABALPUR-1,MOHALLA- GULAUA CHOWK, GARHA ROAD, POST-INDA GHANDHI WARD, TAHSIL AND DISTRICT- JABALPUR STATE- MADHYA PRADESH, PIN CODE 482003",JABALPUR,JABALPUR,MADHYA PRADESH,7024147503
153,UTKARSH SMALL FINANCE BANK,UTKS0001156,RAMTEK,"C/O MR.RAMESH PANDURANGJI SUNWANI,HOUS NO.482,WARD NO.2,BHAGYASHREE COLONY,MAUDA ROAD,RAMTEK MH,PIN-441406",NAGPUR,RAMTEK,MAHARASHTRA,7722024937
154,UTKARSH SMALL FINANCE BANK,UTKS0001157,KHALILABAD,"KHATA NO - 394,ARAZI NO - 1573,MAUZA - KHALILABAD,TAPPA - DAKHIN HAVELI,PARAGANA - MAGAHAR PURAB,TEHSIL - KHALILABAD,DISTRICT - SANTKABIR NAGAR,STATE-UP,PIN CODE-272175",SANTKABIR NAGAR,SANTKABIR NAGAR,UTTAR PRADESH,8756399715
155,UTKARSH SMALL FINANCE BANK,UTKS0001158,SHERGHATI,"MAUZA -SHERGHATI,P.S.SHERGHATI,DIST - GAYA,STATE - BIHAR,PIN CODE - 824211,KHATA NO - 748,KHESARA NO - 1729,THANA NO - 762,TAUZI NO - 6947",GAYA,GAYA,BIHAR,7763802927
156,UTKARSH SMALL FINANCE BANK,UTKS0001159,REPURA - DAUDNAGAR,"UTKARSH SMALL FINANCE BANK,C/O RISHIKANT SINGH ANUMANDAL ROAD POST BAKHARUA DUADNAGAR,DISTT - AURANGABAD,BIHAR PIN 824143",AURANGABAD,REPURA - DAUDNAGAR,BIHAR,7541817410
157,UTKARSH SMALL FINANCE BANK,UTKS0001160,NARKATIYAGANJ,"C/O GANESH PRASAD WARD NO -11 NAYA TOLA PRAKASH NAGAR NARKATIYAGANJ, DISTT  WEST CHAMPARAN, BIHAR.",WEST CHAMPARAN,WEST CHAMPARAN,BIHAR,9523095867
158,UTKARSH SMALL FINANCE BANK,UTKS0001161,GOH,"MAUZA - GOH,P.S- GOH,PARAGANA - GOH, DISTRICT- AURANGABAD,BIHAR,PIN CODE-844203,KHATA NO- 603,KHESARA NO- 1800& 1801,THANA NO- 194,TAUZI NO.- 4964",AURANGABAD,AURANGABAD,BIHAR,8873224286
159,UTKARSH SMALL FINANCE BANK,UTKS0001162,SUGAULI,"MAUZA-SUGAULI,P.S.SUGAULI,DISTRICT EAST CHAMPARAN,BIHAR,PIN CODE 845456,KHESARA NO-3172",EAST CHAMPARAN,SUGAULI,BIHAR,7033298686
160,UTKARSH SMALL FINANCE BANK,UTKS0001163,NARKHED,"BHAURAO SHUKHADEV GAJBE PLOT NO 137 IUDP COLONY WARD NO 17 NEAR BUS STOP NARKHED,441304",NAGPUR,NARKHED,MAHARASHTRA,7391093693
161,UTKARSH SMALL FINANCE BANK,UTKS0001164,MOTIPUR,"VILLAGE - SINGAILA,PARAGANA - BISHARA,P.S - MOTIPUR,VARURAJ ROAD,MOTIPUR DIST - MUZAFFARPUR,BIHAR,PIN CODE - 843111,KHATA NO - 49,KHESARA NO - 235,THANA NO - 224",MUZAFFARPUR,MUZAFFARPUR,BIHAR,7541817410
162,UTKARSH SMALL FINANCE BANK,UTKS0001165,RAFIGANJ,"C/O DILIP KUMAR -ABDULPUR BABUGANJ PO,PS- RAFIGANJ, DISTT AURANGABAD, STATE- BIHAR, PIN-824125",AURANGABAD,AURANGABAD,BIHAR,9801853311
163,UTKARSH SMALL FINANCE BANK,UTKS0001166,PANAGAR,"MAUZA - PANAGAR,P.S.PANAGAR,DISTRICT - JABALPUR,N.B.- 212,HALKA NO.- 11,MANDAL - PANAGAR,TEHSIL - PANAGAR,DISTRICT - JABALPUR,STATE - MADHYA PRADESH,PIN CODE - 483220",JABALPUR,JABALPUR,MADHYA PRADESH,7869801745
164,UTKARSH SMALL FINANCE BANK,UTKS0001167,MADANPUR,VILLAGE MADANPUR P.S MADANPUR DISTRICT-AURANGABAD STATE BIHAR PIN CODE - 824208 KHESARA NO 656 KHATA NO148 THANA NO.785 TAUZI NO-1453,AURANGABAD,MADANPUR,BIHAR,9621189551
165,UTKARSH SMALL FINANCE BANK,UTKS0001168,YAVATMAL URBAN,"C/O SACHIN BHOYAR PLOT NO 3/2 RAVIRAJ NAGAR,NEAR SAVITRIBAI FULE HIGH SCHOOL MAHAJAN COLLEGE ROAD VADGAON YAVATMAL PIN -445001",YAVATMAL,YAVATMAL URBAN,MAHARASHTRA,7722024944
166,UTKARSH SMALL FINANCE BANK,UTKS0001169,DUDAHI,"FIRST FLOOR,VILLAGE - PADRAUNA MADURAHI,TAPPA - RAMPUR ROGTA,PARAGANA - SIDHUWA JOVANA,TEHSIL - TAMKUHIRAJ,DISTRICT - KUSHINAGAR,STATE - UTTAR PRADESH,PIN CODE-274302",KUSHINAGAR,KUSHINAGAR,UTTAR PRADESH,7459810926
167,UTKARSH SMALL FINANCE BANK,UTKS0001170,BANK ROAD,"LAND KHATA NO - 83 OLD AND NEW 206,MAUZA - SALEMPUR,BELHARIYA,BALEBAN ROAD,PARGANA - SANAUT,P S -TEKARI,DISTRICT - GAYA,STATE - BIHAR,PIN CODE-824236",GAYA,GAYA,BIHAR,7763802914
168,UTKARSH SMALL FINANCE BANK,UTKS0001171,YAVATMALRURAL,"C/O -VILAS K.BORKAR,HOUSE NO - 89,WARD NO - 5,FIRST FLORE,JAWAHAR NAGR,BEHIND ZULELAL PRIDE HOTEL,YAVATMAL - 445001",YAVATMAL,YAVATMALRURAL,MAHARASHTRA,7722024945
169,UTKARSH SMALL FINANCE BANK,UTKS0001172,URWA BAZAAR,"Plot No 448, Village Urwa Bazar, Tappa Kurmaut, Paragana Dhuriyapar, District Gorakhpur, State Uttar Pradesh, Pin code 273407",GORAKHPUR,GORAKHPUR,UTTAR PRADESH,7525016200
170,UTKARSH SMALL FINANCE BANK,UTKS0001173,KORADI,HOUSE NO 115 WARD NO3 VANJARI BHAVAN KORADI NAGPUR 441111,NAGPUR,KORADI,MAHARASHTRA,8805150409
171,UTKARSH SMALL FINANCE BANK,UTKS0001174,GAYA,"UTKARSH SMALL FINANCE BANK,C/O - DR.KRISHNA MURARI,H.NO-21 NEAR POWER GRID,A.P COLONY DIS - GAYA,BIHAR PIN - 823001",GAYA,GAYA,BIHAR,7763802946
172,UTKARSH SMALL FINANCE BANK,UTKS0001175,SUSTA,VILLAGE - MAJHAULI DHARAMDAS P.S SADAR SAMASTIPUR ROAD KACHHI DISTRICT MUZAFFARPUR STATE BIHAR PIN CODE 843102,MUZAFFARPUR,SUSTA,BIHAR,6394667026
173,UTKARSH SMALL FINANCE BANK,UTKS0001176,KASHIPUR,"SHIV NAGAR,RAM NAGAR ROAD,KASHIPUR,UTTRAKHAND,INDIA,PIN - 244713",UDHAM SINGH NAGAR,KASHIPUR,UTTARAKHAND,7983496939
174,UTKARSH SMALL FINANCE BANK,UTKS0001177,RAMPURA,"VILLAGE- RAMPURA, TEHSIL- RUDRAPUR, DISTRICT- UDHAM SINGH NAGAR, STATE- UTTRAKHAND, KHESARA NO.- 28/2 MIN",UTTRAKHAND,RUDRAPUR,UTTARAKHAND,7080701477
175,UTKARSH SMALL FINANCE BANK,UTKS0001178,SISWA BAZAR,"PLOT NO - 479 KHA,VILL- KOTHIBHAR NAGAR KSHETRA,PARAGANA -TILPUR,TEHSIL - NICHLAUL,JAISWAL NAGAR,KOTHIBHAR THANA,SISWA BAZAR,DIST-MAHARAJGANJ,UP,PIN CODE-273163",MAHARAJGANJ,MAHARAJGANJ,UTTAR PRADESH,7897348097
176,UTKARSH SMALL FINANCE BANK,UTKS0001179,PALWAL,H.N-B/2/146 KRISHAN COLONY NEAR RAHUL NURSING HOMEPALWAL HARYANA INDIA PIN-121102,PALWAL,PALWAL,HARYANA,7082903250
177,UTKARSH SMALL FINANCE BANK,UTKS0001180,BASTI,"FIRST FLOOR,MURLIJOT,ANSAR COLONY,AKPANGI,PURANI BASTI,DIST -BASTI UTTAR PRADESH -272002",BASTI,BASTI,UTTAR PRADESH,9839714243
178,UTKARSH SMALL FINANCE BANK,UTKS0001181,SONIPAT,"HOUSE NO.710/29,MAHLANA ROAD,MALVIYA NAGAR,GALI NO.2,MAHLANA ROAD,DISTRICT - SONIPATH,HARYANA,PIN CODE 131001",SONIPAT,SONIPAT,HARYANA,7082912597
179,UTKARSH SMALL FINANCE BANK,UTKS0001182,BAHADURGARH,"SHASTRI NAGAR,BAHADURGARH,COMMERCIAL TOWER,NAJABGARH ROAD,NEAR CENTRAL BANK,BAHADURGARH,DISTRICT - JHAJJAR,STATE - HARYANA,PIN CODE - 124507",JHAJJAR,BAHADURGARH,HARYANA,9599280388
180,UTKARSH SMALL FINANCE BANK,UTKS0001183,HINGNA,"FLOT NO.1/C ADM,KHATA NO.135,HOUSE NO.433/2,WARD NO.4,BHOSLEWADI BUS STOP,KAWDAS ROAD,HINGA DIST - NAGPUR,MAHARASHTRA -441110",NAGPUR,NAGPUR,MAHARASHTRA,7722024943
181,UTKARSH SMALL FINANCE BANK,UTKS0001184,BILHARI,"MANDLA ROAD,NEAR ICE FACTORY BILAHARI,JABALPUR PIN CODE 482020",JABALPUR,BILHARI,MADHYA PRADESH,7247007438
182,UTKARSH SMALL FINANCE BANK,UTKS0001185,SITARGANJ,"3/953,SUBHASH NAGAR NEAR BEDI GENERAL STORE HALDWANI NAINITAL U.K INDIA PIN-263139",UDHAM SINGH NAGAR,SITARGANJ,UTTARAKHAND,7897064853
183,UTKARSH SMALL FINANCE BANK,UTKS0001186,KARELI,SHUBHAM COLONY NEAR B.S.L SCHOOL KARELI DISS.NARSHINGPUR MADHYA PRADESH INDIA PIN -487221,NARSIMHAPUR,KARELI,MADHYA PRADESH,9516560052
184,UTKARSH SMALL FINANCE BANK,UTKS0001187,GADARPUR,"SAKENIYA MOD,GADARPUR,UTTRAKHAND,INDIA,263152",UDHAM SINGH NAGAR,GADARPUR,UTTARAKHAND,9870712898
185,UTKARSH SMALL FINANCE BANK,UTKS0001188,WARDHA,C/O ASHOKRAO BUTE MURAKAWADI LAHARI NAGAR NEAR NALWADI WARDHA DIST.WARDHA PIN - 442001,WARDHA,WARDHA,MAHARASHTRA,7722096901
186,UTKARSH SMALL FINANCE BANK,UTKS0001189,DARVHA,C/O RAMDHAN CHAVHAN SEVAKRUPA NAGAR PUSAD BYPASS ROAD DARVHA PIN CODE.445202,YAVATMAL,DARVHA,MAHARASHTRA,7722024951
187,UTKARSH SMALL FINANCE BANK,UTKS0001190,HINGANGHAT,C/O GANESHRAO SONONE PLOT NO 34 SANT TUKDOJI WARD NEAR RAILWAY CROSSING HINGANGHAT 442301,WARDHA,HINGANGHAT,MAHARASHTRA,7722024970
188,UTKARSH SMALL FINANCE BANK,UTKS0001191,ARVI,"ARVI BRANCH,DEVULKAR LAY OUT AMBIKA NAGAR ARVI - 442201",WARDHA,ARVI,MAHARASHTRA,7722024980
189,UTKARSH SMALL FINANCE BANK,UTKS0001192,ARNI,"C/O MANGESH ADUGULWAR HOUSE NO.6558/28 D.K CHINTAWAR LAYOUT NEAR MAHULI HOSPITAL ARNI,DIST.YAVATMAL PIN-445103",YAVATMAL,ARNI,MAHARASHTRA,7722024954
190,UTKARSH SMALL FINANCE BANK,UTKS0001193,DILDARNAGAR,"OLD ARAZI NO. 881/2 NEW ARAZI NO. 2016 KHA, MAUZA- USHIYA ( TOWN AREA), PARAGANA-JAMANIA, TEHSIL- SEWRAI, DISTRICT- GHAZIPUR, STATE- UTTAR PRADESH, PIN CODE-232326",GHAZIPUR,GHAZIPUR,UTTAR PRADESH,7390050202
191,UTKARSH SMALL FINANCE BANK,UTKS0001194,GYANBABU CHOWK,"GROUND FLOOR,MAUZA - MOTIHARI KOLHUARWA,THANA - MOTIHARI,DISTRICT - EAST CHAMPARAN,BIHAR",EAST CHAMPARAN,EAST CHAMPARAN,BIHAR,7280027163
192,UTKARSH SMALL FINANCE BANK,UTKS0001195,HALDWANI,"CHORGALIYA ROAD,NEAR MAHARANA PRATAP CHOWK,SITARGANJ,U.S.NAGAR -261405",NAINITAL,HALDWANI,UTTARAKHAND,7983105967
193,UTKARSH SMALL FINANCE BANK,UTKS0001196,MANPUR,"C/O-JITENDRA KUMAR SINGH,MULLAHA-SIDHARATHPURI COLONY,STREET NO-1,POST-MANPUR,PLOICE STATION MOFASIL,DISTT-GAYA,STATE-BIHAR,PIN CODE- 823003",GAYA,GAYA,BIHAR,7763802946
194,UTKARSH SMALL FINANCE BANK,UTKS0001197,SARAIYA,"MAUZA - SHADIPUR,P.S - PARU,BLOCK ROAD,SARAIYA,DISTRICT - MUZAFFARPUR,STATE - BIHAR,PIN CODE - 843126",MUZAFFARPUR,SARAIYA,BIHAR,0
195,UTKARSH SMALL FINANCE BANK,UTKS0001198,KURHANI,"FIRST FLOOR,MAUZA KUDHANI,THANA - KUDHANI,DISTRICT - MUZAFFARPUR,STATE-BIHAR,PIN CODE-844120",MUZAFFARPUR,MUZAFFARPUR,BIHAR,7070092476
196,UTKARSH SMALL FINANCE BANK,UTKS0001199,SARFUDDINPUR,"GROUND FLOOR,MAUZA - MAIDAPUR,THANA - BOCHAHA,DISTRICT - MUZAFFARPUR,STATE - BIHAR,PIN CODE-843118",MUZAFFARPUR,MUZAFFARPUR,BIHAR,7541812267
197,UTKARSH SMALL FINANCE BANK,UTKS0001200,GOTEGAON,"FIRST FLOOR,KHASARA NO 86,MAIN ROAD,NEHARU WARD,GOTEGAON,DISTRICT - NARSINGHPUR,MADHYA PRADESH,PIN CODE-487118",NARSINGHPUR,GOTEGAON,MADHYA PRADESH,7024156723
198,UTKARSH SMALL FINANCE BANK,UTKS0001201,GONAWA - NAWADA,"UTKARSH SMALL FINANCE BANK,C/O-PREM PRAKASH,NEAR-AGRWAL PETROPUMP,POST - NAWADA,DISTT-NAWADA,BIHAR,PIN 805110",NAWADA,GONAWA - NAWADA,BIHAR,7766913441
199,UTKARSH SMALL FINANCE BANK,UTKS0001202,FATEHPUR,"MAUZA - RUPIN,PARAGANA - MAHER,P.S.BARACHATI PRESENTLY - FATEHPUR,DISTRICT - GAYA,BIHAR,PIN CODE - 824232",GAYA,FATEHPUR,BIHAR,8789262994
200,UTKARSH SMALL FINANCE BANK,UTKS0001203,FATUHA,STATION ROAD FATHUA DIST PATNA PIN CODE 803202,PATNA,PATNA,BIHAR,7541812266
201,UTKARSH SMALL FINANCE BANK,UTKS0001204,PUNAWAN - WAZIRGANJ,"C/O MUKESH KUMAR,PLOT NO.506,DAKHIN GANW,NEAR-WAZIRGANJ NAHAR POST - WAZIRGANJ,DISTT GAYA,BIHAR,PIN-805131",GAYA,PUNAWAN - WAZIRGANJ,BIHAR,7070192612
202,UTKARSH SMALL FINANCE BANK,UTKS0001205,KHATIMA,"MELA GHAT ROAD,NEAR RAILWAY CROSSING,AWAS VIKAS,KHATIMA,UDDHAM SINGH NAGAR,U.K",UDHAM SINGH NAGAR,KHATIMA,UTTARAKHAND,9005327776
203,UTKARSH SMALL FINANCE BANK,UTKS0001206,"WORK SHOP ROAD, YAMUNA NAGAR","NO - 14,PROPERTY ID NO - 277C176U141,ISHWAR NAGAR,YAMUNA NAGAR,TEHSIL - JAGADHRI,DISTRICT - YAMUNA NAGAR,STATE - HARYANA,PIN CODE - 135001",YAMUNA NAGAR,YAMUNA NAGAR,HARYANA,8572821506
204,UTKARSH SMALL FINANCE BANK,UTKS0001207,SIRDALA,"MAUZA - KUSHAN,P.S- SIRDALA,DISTRICT- NAWADA,STATE- BIHAR,PIN CODE-805127,KHATA NO.- 173,KHESRA NO- 375& 376,THANA NO- 90",NAWADA,NAWADA,BIHAR,7766913477
205,UTKARSH SMALL FINANCE BANK,UTKS0001208,BAIJNATHPUR - KHIZERSARAI,"UTKARSH SMALL FINANCE BANK,C/O SAKAL DEV SHARMA LAXMI NARAYA NIWAS ANUMANDAL ROD,KHIZERSARAI THANA KHIZERSARAI,POST KHIZERSARAI DIS-GAYA,BIHAR,PIN 824233",GAYA,BAIJNATHPUR - KHIZERSARAI,BIHAR,7541811597
206,UTKARSH SMALL FINANCE BANK,UTKS0001209,PATAN,"WARD NO-15,SHAHPURA ROAD PATAN TEHSIL PATAN,IN FRONT OF CIVIL COURT DISST JABALPUR,M.P PIN-483113",JABALPUR,PATAN,MADHYA PRADESH,7389934678
207,UTKARSH SMALL FINANCE BANK,UTKS0001210,BANSI,"PLOT NO.- 160 MIN,AREA - 2160 SQ.FT. ( 1050 SQ.FT.AREA OFFERED FOR LESSEE ),MAUZA - RAMGARH,TAPP - KURADAN,PARAGANA - BANSI PURAB,TEHSIL - BANSI,DISTRICT - SIDDHARTH NAGAR,STATE - PIN CODE - 272207",SIDDHARTHNAGAR,SIDDHARTHNAGAR,UTTAR PRADESH,9794839788
208,UTKARSH SMALL FINANCE BANK,UTKS0001211,NAUGARH,"ARAZI NO - 43 GHA AREA 1360 SQ.FT.MAUZA - TETARI BAZAR,TAPPA - THARAULI,PARAGANA - NAUGARH,TEHSIL - NAUGARH,DISTRICT - SIDDHARTHNAGAR,STATE - PIN CODE - 272207",SIDDHARTHNAGAR,SIDDHARTHNAGAR,UTTAR PRADESH,9794861593
209,UTKARSH SMALL FINANCE BANK,UTKS0001212,LADWA,"LADWA,TEHSIL LADWA,BAVEN ROAD,NEAR CIVIL HOSPITAL,POST - LADWA,DISTRICT - KURUKSHETRA,HARYANA,PIN CODE - 136132",KURUKSHETRA,KURUKSHETRA,HARYANA,8572821504
210,UTKARSH SMALL FINANCE BANK,UTKS0001213,PANDHARKAWADA,"C/O SUREKHA KANOJIYA,SINGHANIYA LAYOUT,CHALBARDI ROAD,PHANDARKAWDA,TAHSIL KELAPUR,DIS.YAVATMAL,MH,INDIA,PIN -445302",YAVATMAL,PANDHARKAWADA,MAHARASHTRA,7722024993
211,UTKARSH SMALL FINANCE BANK,UTKS0001214,WANI,"C/O LINGA REDDYENDELAR,SANDHAKAR WADI,NEAR RK HIGHT,BUILDING WANI,DIST.YAVATMAL PIN -445304",YAVATMAL,WANI,MAHARASHTRA,7722024995
212,UTKARSH SMALL FINANCE BANK,UTKS0001215,RUDHAULI,"VILLAGE- RUDHAULI KALA,( MAGAHAR WEST),TEHSIL- RUDHAULI, DISTRICT- BASTI, STATE- UTTAR PRADESH, PIN CODE 272151",BASTI,BASTI,UTTAR PRADESH,7318250363
213,UTKARSH SMALL FINANCE BANK,UTKS0001216,BAIRIYA,VILLAGE MANPUR BAIRIYA PARAGANA AZIMABAD P.S.PHULWARI SHARIF PRESENT P.S.GAURICHAK NEAR PREM LOK MISSION SCHOOL BARIYA DIST - PATNA STATE BIHAR PINCODE-800007,PATNA,BAIRIYA,BIHAR,7985906611
214,UTKARSH SMALL FINANCE BANK,UTKS0001217,DHOLI,"MAUZA - SHAMBHUNATHPUR DHOLI,P.S.SAKARA,PUSHA ROAD,DISTRICT - MUZAFFARPUR,STATE - BIHAR,PIN CODE-843121",MUZAFFARPUR,DHOLI,BIHAR,703369390
215,UTKARSH SMALL FINANCE BANK,UTKS0001218,AMRAVATI RURAL,"PLOT NO.13,SACCHIDANAND COLONY,FARSHI STOP,AMRAVATI,MAHARASHTRA INDIA,PIN - 444606",AMRAVATI,AMRAVATI RURAL,MAHARASHTRA,7722096959
216,UTKARSH SMALL FINANCE BANK,UTKS0001219,MORSHI,"DURGA COLONY,NEAR DURDARSHAN TOWER,SIMBHORA ROAD MORHSI",AMRAVATI,MORSHI,MAHARASHTRA,7722067956
217,UTKARSH SMALL FINANCE BANK,UTKS0001220,WARUD,"PLOT NO 51/2A,OPPOSIT NAGSEN BUDDHA VIHAR MULTAI ROAD SHAHU MAHARAJ COLONY WARUD,444906",AMRAVATI,WARUD,MAHARASHTRA,9764560203
218,UTKARSH SMALL FINANCE BANK,UTKS0001221,ACHALPUR,"PLAT NO 25 RAJESHWAR NAGAR NEAR BHAMKAR HOSPITAL PARATWADA,DIST - AMARAVATI,PIN CODE 444805",AMRAVATI,ACHALPUR,MAHARASHTRA,0
219,UTKARSH SMALL FINANCE BANK,UTKS0001222,PULGAON,CHINTAMANI COLONY PANCHDHARA ROAD PULGAON -442306,WARDHA,PULGAON,MAHARASHTRA,7722067915
220,UTKARSH SMALL FINANCE BANK,UTKS0001223,DHAMANGAON,"PLOT NO.19,C/O KISHOR TADAS,SAI NAGAR PARSODI ROAD DHAMANGAON -444709",AMRAVATI,DHAMANGAON,MAHARASHTRA,8379002779
221,UTKARSH SMALL FINANCE BANK,UTKS0001224,CHANDUR RAILWAY,"PLOT NO.875,BYPASS ROAD,PATRIKAR COLONY,CHANDUR RLY.PIN -444904",AMRAVATI,CHANDUR RAILWAY,MAHARASHTRA,7722067937
222,UTKARSH SMALL FINANCE BANK,UTKS0001225,BARARA,"PLOT NO.40/4,PREET NAGAR,BARARA,NEAR GOVT.SR.SEC.SCHOOL BARARA,DISTRICT -AMBALA,STATE -HARYANA,PIN CODE -133201",AMBALA,AMBALA,HARYANA,7082903242
223,UTKARSH SMALL FINANCE BANK,UTKS0001226,KURUKSHETRA,"DARRA KALAN,NEAR GOL BANK, VISHNU COLONY, THANESAR, RAILWAY ROAD, TEHSIL- THANESAR, DISTRICT-KURUKSHETRA, STATE -HARAYANA, PIN CODE-136118",KURUKSHETRA,KURUKSHETRA,HARYANA,8572821310
224,UTKARSH SMALL FINANCE BANK,UTKS0001227,SHAHDOL,SHIVAM KALONI KOTMA TIRAHA SAHDOL MADHYA PRADESH INDIA PIN -484001,SHAHDOL,SHAHDOL,MADHYA PRADESH,7000380980
225,UTKARSH SMALL FINANCE BANK,UTKS0001228,BURHAR,"VILLAGE - DHANPURI,MUNICIPAL AREA WARD NO 01 DHANPURI CENERAL NO - 38,HALKA PATWARI,DHANPURI,NO.- 25,TEHSIL - BURHAR,DISTRICT - SHAHDOL,STATE - MP,484114",SHAHDOL,BURHAR,MADHYA PRADESH,0
226,UTKARSH SMALL FINANCE BANK,UTKS0001229,ANUPPUR,"VILLAGE - SAMATPUR,HALKA - PATWARI ANUPPUR,TEHSIL - ANUPPUR,DISTRICT - ANUPPUR,STATE - MADHYA PRADESH,PIN CODE-484224",ANUPPUR,ANUPPUR,MADHYA PRADESH,7389510395
227,UTKARSH SMALL FINANCE BANK,UTKS0001230,CHANDUR BAZAR,"PLOT NO.54,SHIKSHAK COLONY,BELORA ROAD,CHANDUR BAZAR,MAHARASHTRA,INDIA PIN -444704",AMRAVATI,CHANDUR BAZAR,MAHARASHTRA,7722024917
228,UTKARSH SMALL FINANCE BANK,UTKS0001231,SAMASTIPUR,"VILLAGE - CHAKNOOR,P.S - SAMASTIPUR,DISTRICT - SAMASTIPUR,STATE - BIHAR,PIN CODE - 848101,KHATA NO - 519,KHESARA NO - 2446& 2447,THANA NO - 174",SAMSTIPUR,SAMSTIPUR,BIHAR,7033693903
229,UTKARSH SMALL FINANCE BANK,UTKS0001232,MAHUA,"MAUZA - SINGHARAI,PARAGANA - BISARA,P.S - MAHUA,MUZAFFARPUR ROAD,DISTRACT - VAISHALI,STATE - BIHAR,PIN CODE - 844122",VAISHALI,VAISHALI,BIHAR,9102992756
230,UTKARSH SMALL FINANCE BANK,UTKS0001233,BARNI,"MAUZA - BARNI,P.S.DHANARUA,DIST - PATNA,STATE - BIHAR,PIN CODE - 804452,KHATA NO - 788,KHESARA NO - 1696 AND 1693,THANA NO - 145",PATNA,PATNA,BIHAR,7033693948
231,UTKARSH SMALL FINANCE BANK,UTKS0001234,AUTA,"AOUTA RAGHURAM,MAHAVIR ASTHAAN CHOWK,POST OFFICE MOKAMA GHAAT DISTRICT PATNA PIN CODE 803303",PATNA,AUTA,BIHAR,9523590859
232,UTKARSH SMALL FINANCE BANK,UTKS0001235,CHANDI,"VILLAGE - BHAGWANPUR,PARAGANA - PILICH,P.S - CHANDI,DISTRICT - NALANDA,STATE - BIHAR,PIN CODE - 803108,KHATA NO - 146,KHESARA NO - 208,THANA NO - 294",NALANDA,NALANDA,BIHAR,7033693949
233,UTKARSH SMALL FINANCE BANK,UTKS0001236,NARAINGARH,"GROUND FLOOR,KHEWAT-221,KHATAUNI NO.239,KHESRA NO.9/18/3/4,RAIPUR VIRAN,HB NO.302,TEHSIL-NARAINGARH,DISTRICT - AMBALA,STATE - HARYANA,PIN CODE - 134203",AMBALA,NARAINGARH,HARYANA,8572820673
234,UTKARSH SMALL FINANCE BANK,UTKS0001237,MEHDAWAL,"MUHALLA THAKURDWORA,WARD NO-1 MEHDAWAL SANT KABIR NAGAR,DIST.SANT KABIR NAGAR,UTTAR PRADESH PIN CODE-272271",SANT KABIR NAGAR,MEHDAWAL,UTTAR PRADESH,7897092638
235,UTKARSH SMALL FINANCE BANK,UTKS0001238,WARISALIGANJ,"C/O ARVIND KUMAR, THANA MORE WARISALIGANJ,NEAR-PUUNJAB NATIONAL BANK POST,PS- WARISALIGANJ DISTT-NAWADA,STATE- BIHAR, PIN 805130",NAWADA,NAWADA,BIHAR,9097455166
236,UTKARSH SMALL FINANCE BANK,UTKS0001239,AKBARPUR,"UTKARSH SMALL FINANCE BANK,C/O ARJUN PANDIT,NEAR OF HIGH SCHOOL,AKBARPUR HATTPAR THANA AKBARPUR,POST - AKBARPUR DIS NAWADA,BIHAR,805126",NAWADA,AKBARPUR,BIHAR,7033694088
237,UTKARSH SMALL FINANCE BANK,UTKS0001240,DAHAUR,"VILL-JAL GOVIND P.S.BARH PARAGANA GEYASPUR NEAR PNB POST OFFICE ACHUARA DAHOUR-DIST PATNA STATE BIHAR,PIN CODE 803213",PATNA,DAHAUR,BIHAR,7033693938
238,UTKARSH SMALL FINANCE BANK,UTKS0001241,NAGGAL,"GROUND FLOOR,HOUSE NO.23/16,15,14,NEW HOUSE NO.442/C-867,VILLAGE -NAGGAL,TEHSIL -AMBALA,DISTRICT -AMBALA,STATE -HARYANA,PIN CODE -135004",AMBALA,AMBALA,HARYANA,8572820676
239,UTKARSH SMALL FINANCE BANK,UTKS0001242,DALSINGH SARAI,"MAUZA - WAJIDPUR GADO,PARAGANA - SARAISA,P.S - DALSINGH SARAI,DIST - SAMSTIPUR,STATE - BIHAR,PIN CODE-848114,KHATA NO - 36,KHESRA NO - 1403,THANA NO - 68,TAUZI NO - 4261",SAMSTIPUR,SAMSTIPUR,BIHAR,7033694101
240,UTKARSH SMALL FINANCE BANK,UTKS0001243,ATRAULI,"VILLAGE - BHORAJPUR KALAN ROAD-HAIDARPUR ROAD,PARGANA - ATRAULIA,TEHSIL - BUDHANPUR,DISTT - AZAMGARH,STATE - UTTAR PRADESH PIN-223223",AZAMGARH,AZAMGARH,UTTAR PRADESH,7607999331
241,UTKARSH SMALL FINANCE BANK,UTKS0001244,GURARU,"KHATA NO.-255,BEARING PLOT NO.3250,KITA TULSI ASTHAN,AREA 03 DECIMAL,MAUZA - RAUNA,TOLA-SHANKAR BIGHA,P.S.-KONCH,P.O.- MAJHIAWAN,ANCHAL - GURARU DISTRICT - GAYA,STATE - BIHAR,PIN CODE-824118",GAYA,GAYA,BIHAR,7033694086
242,UTKARSH SMALL FINANCE BANK,UTKS0001245,HARRAIYA,"GROUND FLOOR,VILLAGE - MURADIPUR,TAPPA - PURAINA,PARAGANA - AMORA,TEHSIL - HARRAIYA,DISTRACT - BASTI,STATE - UTTAR PRADESH,PIN CODE",BASTI,BASTI,UTTAR PRADESH,7897998776
243,UTKARSH SMALL FINANCE BANK,UTKS0001246,SILAO,"SAKIN USHA NIWASH, EKANGARSARAI, BIHAR SHARIF ROAD NH-110, DIST. NALANDA, PIN CODE 801301",BIHAR SHARIF,SILAO,BIHAR,9102992766
244,UTKARSH SMALL FINANCE BANK,UTKS0001247,ILTEFATGANJ,"VILLAGE-GIGINA,POST - ILTIFATGANJ,TAHSIL - TANDA,DISTRICT - AMBEDAKAR NAGAR,UTTAR PRADESH,PIN CODE-224145",AMBEDAKAR NAGAR,AMBEDAKAR NAGAR,UTTAR PRADESH,7755006531
245,UTKARSH SMALL FINANCE BANK,UTKS0001248,BARBIGHA,"UTKARSH SMALL FINANCE BANK-BARBIGHA,BIHARR SARIFF ROAD NEAR BHARAT PETROL PUMP BARBIGHA BIHAR-811101",SHEIKHPURA,BARBIGHA,BIHAR,9102999374
246,UTKARSH SMALL FINANCE BANK,UTKS0001249,AKBARPUR -UP,"VILLAGE - MOHASINPUR,MANSOORPUR,PARAGANA - AKBARPUR TAHSIL - AKABARPUR,POST - BANGAO DEHWA,DISTRICT - AMBEDKARNAGAR,UP,PIN CODE-224122",AMBEDAKAR NAGAR,AMBEDAKAR NAGAR,UTTAR PRADESH,7234901352
247,UTKARSH SMALL FINANCE BANK,UTKS0001250,KARNAL,"HOUSE NO.161,SANT NAGAR,KAITHAL ROAD,DISTRICT - KARNAL,STATE - HARYANA,PIN CODE-132001",KARNAL,KARNAL,HARYANA,7082018702
248,UTKARSH SMALL FINANCE BANK,UTKS0001251,BILASPUR,"BILASPUR,H.B.NO.279,TEHSIL - BILASPUR,GOPAL MOCHAN ROAD,DISTRICT - YAMUNA NAGAR,STATE-HARYANA,PIN CODE-135102",YAMUNANAGAR,BILASPUR,HARYANA,8222818102
249,UTKARSH SMALL FINANCE BANK,UTKS0001252,SILAO,"VILLAGE- SILAO, P.S- SILAO, EAST OF MASZID, WARD NO-06, BIHAR ROAD,SILAO, DISTRICT-NALANDA, BIHAR- 803117, KHATA NO- 209, KHESARA NO- 1505, THANA NO- 420, TAUZI NO- 13003",NALANDA,SILAO,BIHAR,7903429852
250,UTKARSH SMALL FINANCE BANK,UTKS0001253,GOSAIGANJ,"VILLAGE - DHAMAPATTI,PARAGANA - MIJHAURA,POST - GOSAIGANJ,TAHSIL - BHITI,DISTRICT - AMBEDKARNAGAR,STATE - UTTAR PRADESH,PIN CODE-224141",AMBEDAKAR NAGAR,AMBEDAKAR NAGAR,UTTAR PRADESH,7522801115
251,UTKARSH SMALL FINANCE BANK,UTKS0001254,DARSHAN NAGAR,"VILLAGE - ASHAPUR,PARGANA - HAVALI AWADH,POST - DARSHAN NAGAR,TAHSIL AND DISTRICT - FAIZABAD,UTTAR PRADESH,PIN CODE - 224135",FAIZABAD,FAIZABAD,UTTAR PRADESH,7752902449
252,UTKARSH SMALL FINANCE BANK,UTKS0001255,KHATOPUR CHOWK,"VILL - RAJA DUMARI,P.S - BEGUSARAI,EAST OF NAVODAYA SCHOOL,WARD NO - 45,DIST - BEGUSARAI,STATE - BIHAR-851129,KHATA NO-75,KHESARA NO-378,THANA NO - 338,TAUZI NO - 681",BEGUSARAI,BEGUSARAI,BIHAR,7485094984
253,UTKARSH SMALL FINANCE BANK,UTKS0001256,PHULWARIYA,AWADH TRIBUTE ROAD PHULWARIYA POST OFFICE BARAUNI DISTRICT BEGUSARAI BIHAR PIN CODE 851112,BEGUSARAI,PHULWARIYA,BIHAR,9576068912
254,UTKARSH SMALL FINANCE BANK,UTKS0001257,BALLIA BIHAR,"FIRST FLOOR,TAUZI NO -7796/4075,KHATA NO -1741,KHASRA NO -3825,WARD NO -15,PHOOL CHAUK,MAUZA-LAKHMINIA,THANA NO -627,PARAGANA -BALLIA,P S -BALLIA,DISTRICT - BEGUSARAI,STATE - BIHAR,PIN CODE -851211",BEGUSARAI,BEGUSARAI,BIHAR,9102999466
255,UTKARSH SMALL FINANCE BANK,UTKS0001258,GHARAUNDA,"PLOT NO -604/4,WARD NO -4/5,RAMNAGAR,TELU SINGH COLONY,SUDESH ARAIPURA ROAD,GHARAUNDA,DISTRICT - KARNAL,HARYANA,PIN CODE-132114",KARNAL,GHARAUNDA,HARYANA,9587719716
256,UTKARSH SMALL FINANCE BANK,UTKS0001259,KHAGARIA,"DR.ARUN NIVAS JAIL ROAD SAMIR NAGAR KOSHI COLLAGE KHAGARIA DIST - KHAGARIA,BIHAR PIN CODE - 851205",KHAGARIA,KHAGARIA,BIHAR,9304450376
257,UTKARSH SMALL FINANCE BANK,UTKS0001260,KARANJA LAD,"C/O AJAY PARLIKAR,NEAR HP PETROL,DARVHA BYPASS ROAD,KARANJA LAD 444105",WASHIM,KARANJA LAD,MAHARASHTRA,7722067984
258,UTKARSH SMALL FINANCE BANK,UTKS0001261,MASHAK CHAK,WARD NO.7(OLD ) AND 20 ( NEW ) MAUZA MASHAKCHAK P.S.ADAMPUR DISTRICT BHAGALPUR UNDER MUNICIPAL CORPORATION BHAGAPUR STATE-BIHAR PIN CODE-812001,BHAGALPUR,BHAGALPUR,BIHAR,8271271538
259,UTKARSH SMALL FINANCE BANK,UTKS0001262,ROSERA,"GROUND FLOOR, MAUZA- MAHAMMADINAGAR RORESA, THANA NO. 69, TAUZI NO.- 6424, PARAGANA-KASAMA, DISTRICT- SAMASTIPUR, BIHAR, PIN CODE-848210.",SAMASTIPUR,SAMASTIPUR,BIHAR,7091598852
260,UTKARSH SMALL FINANCE BANK,UTKS0001263,BOOTY MORE,"C/O-MR JITENDRA KUMAR,S/O - MR.SHAMBHU NARAYAN SINGH,MAA KAMAKHYA BHAWAN,GRAM - BADGAYI BARIYATU ROAD,THANA SADAR,DIST RANCHI JHARKHAND,PIN-835217",RANCHI,BOOTY MORE,JHARKHAND,8825379370
261,UTKARSH SMALL FINANCE BANK,UTKS0001264,RATU ROAD,"SMT.SUSHEELA SHARAM,W/O DWARIKA PRASHAD DEVI MANDAP ROAD,HESAL,RANCHI,THANA-SUKHEDEV NAGAR DIST.RANCHI ( JHARKHAND),PIN-834005",RANCHI,RATU ROAD,JHARKHAND,9523095851
262,UTKARSH SMALL FINANCE BANK,UTKS0001265,GOGARI,"WARD NO.16 JAMALPUR,GOGARI NEAR PURANI SHIV MANDIR,DISTRCT KHAGARIA,BIHAR,PIN CODE-851203",KHAGARIA,GOGARI,BIHAR,7091593208
263,UTKARSH SMALL FINANCE BANK,UTKS0001266,BAKHRI,"C/O PARMANAND SINGH,NEAR SBI BANK,MAKHACHAK,POST - BAKHARI DIST-BEGUSARAI,BIHAR,PIN CODE - 848208",BEGUSARAI,BAKHARI,BIHAR,7091593209
264,UTKARSH SMALL FINANCE BANK,UTKS0001267,KAITHAL,"PATTI KAISTH SETH,AGGARSAIN PURAM,INSIDE MUNICIPAL LIMITS OF KAITHAL TOWN,AMBALA ROAD,DISTRICT -KAITHAL,STATE -HARYANA,PIN CODE -136027",KAITHAL,KAITHAL,HARYANA,7082008959
265,UTKARSH SMALL FINANCE BANK,UTKS0001268,TUMSAR,"C/O,RAMPAL SING RAJPUT,NEAR SAI TEMPLE,GOVARDHAN NAGAR,TUMSAR MAHARASHTRA,INDIA,PIN - 441912",BHANDARA,TUMSAR,MAHARASHTRA,7722067987
266,UTKARSH SMALL FINANCE BANK,UTKS0001269,CHHINDWARA,"MAUZA - KUKUDA JAGAT,NAGAR NIHAM,WARD NO.- 4,P.H.NO.- 19/11,B.NO.- 62,R.I.C- CHHINDWARA,KHATA NO.- 19/11,TEHSIL - CHHINDWARA,DISTRICT - CHHINDWARA,STATE - MADHYA PRADESH,PIN CODE - 480001",CHHINDWARA,CHHINDWARA,MADHYA PRADESH,7024261136
267,UTKARSH SMALL FINANCE BANK,UTKS0001270,HATIA,"C/O ABHISHEK SINHA S/O ANIL KUMAR SINHA HOUSE NO 238,WARD NO27,SHIVPURI,KILBURN COLONY,HINOO RANCHI,PIN-834002 JHARKHAND",RANCHI,HATIA,JHARKHAND,9716774242
268,UTKARSH SMALL FINANCE BANK,UTKS0001271,PARASIYA,"WARD NO.15,SINDHI MOHALL NEAR,MAHARASHTA BANK,PARASIYA CHHINDWARA MADHYA PRADESH INDIA PIN -480441",CHHINDWARA,PARASIYA,MADHYA PRADESH,9753155726
269,UTKARSH SMALL FINANCE BANK,UTKS0001272,DIMNA,"C/O SANJAY KUMAR S/O BRIJNANDAN PRASAD SANKOSAI HOUSE NO 36 MANGO JAMSHEDPUR,DIST - PURBI SINGHBHUM JHARKHAND,PIN-831012",PURBI SINGHBHUM,DIMNA,JHARKHAND,8709693084
270,UTKARSH SMALL FINANCE BANK,UTKS0001273,ASSANDH,"VILLAGE - ASSANDH,TEHSIL - ASSANDH,HOUSE NO - 309,WARD NO 15 KAITHAL ROAD,DISTRICT KARNAL,STATE - HARYANA,PIN CODE 132039",KARNAL,ASSANDH,HARYANA,9058367250
271,UTKARSH SMALL FINANCE BANK,UTKS0001274,KALAMB,"PLOT NO.12,KEWATE LAY OUT,NEAR CHINTAMANI MANDIR,ATHAVADI BAZAR,KALAMB,YAVATMAL-445401",YAVATMAL,YAVATMAL,MAHARASHTRA,7722067926
272,UTKARSH SMALL FINANCE BANK,UTKS0001275,DARYAPUR,"C/O -BHASKAR YADAV,PLOT NO 448,NEAR MULE HOUSE SAINAGAR,DARYAPUR.PIN -444803",AMRAVATI,DARYAPUR,MAHARASHTRA,7722067989
273,UTKARSH SMALL FINANCE BANK,UTKS0001276,SAUSAR,"NEAR BUS STOP WARD NO 15 NAGPUR ROAD SAUSAR,DIS CHINDWARA ( MP ) PIN NO 480106",CHHINDWARA,SAUSAR,MADHYA PRADESH,7024248051
274,UTKARSH SMALL FINANCE BANK,UTKS0001277,MAU,"FIRST FLOOR,CHAK NO.- 1093,ARAZI NO.- 1624/2,AREA NO.- 0.011 HECTARE,MAU MUSTKIL,SHIVAPUR TIRAHA,MAU,POST-MAU,TAHSIL - MAU DIST - CHITRAKUT,TATE - UTTAR PRADESH,PIN CODE-210209",CHITRAKUT,CHITRAKUT,UTTAR PRADESH,7318016330
275,UTKARSH SMALL FINANCE BANK,UTKS0001278,MANDLA,"BESIDE -PREETI,TALKIES,NEAR -HANUMAN TEMPLE,CIVI,LINE MANDLA,PIN NO.481661",MANDLA,MANDLA,MADHYA PRADESH,7024261120
276,UTKARSH SMALL FINANCE BANK,UTKS0001279,NAINPUR,"SEONI ROAD,CHANDRASHEKHAR WARD,NANINPUR DIST MANDLA,PIN CODE 481776",MANDLA,NAINPUR,MADHYA PRADESH,9755737132
277,UTKARSH SMALL FINANCE BANK,UTKS0001280,ROBERTSGANJ,"MAUZA - KAMHARI,PARAGANA - BADHAR,TAHSIL - ROBERTSGANJ,DISTRICT - SONBHADRA,STATE - UTTAR PRADESH,PIN CODE-231216",SONBHADRA,SONBHADRA,UTTAR PRADESH,7318089289
278,UTKARSH SMALL FINANCE BANK,UTKS0001281,KAHALGAON,"VILL-KAHALGAON,P.S - KAHALGAON ARARIA,NEAR PURANI REGISTRY OFFICE,HATH ROAD,KAHALGAON,DIST - BHAGALPUR,STATE - BIHAR-813203,KHATA NO-206,KHESARA NO-104/3,THANA NO-267",BHAGALPUR,BHAGALPUR,BIHAR,7091599415
279,UTKARSH SMALL FINANCE BANK,UTKS0001282,SULTANGANJ,C/O PARMANAND SAH S/O DEVDHAR SAH ADDRESS BAIPAS ROAD SULTANGANJ,BHAGALPUR,SULTANGANJ,BIHAR,7485094935
280,UTKARSH SMALL FINANCE BANK,UTKS0001283,BAHERI,"MAUZA - RASALPUR SOHRAN,BAHERI,PARAGANA - HAWI,P.S - BAHERI,DIST - DARBHANGA,STATE - BIHAR,PIN CODE-847105,KHATA NO-791,KHESARA NO - 4926,THANA NO-81,TAUZI NO - 6564",DARBHANGA,DARBHANGA,BIHAR,7091599416
281,UTKARSH SMALL FINANCE BANK,UTKS0001284,BETUL,"VILLAGE - BADNOORDHANA,PATEL WARD,BETUL,P.H.NO - 53,SETTLEMENT NO - 467,KHASRA NO - 2/6,TEHSIL - BETUL,DISTRICT - BETUL,MP,PIN CODE - 460001",BETUL,BETUL,MADHYA PRADESH,7869801575
282,UTKARSH SMALL FINANCE BANK,UTKS0001285,MURTIJAPUR,"HOUSE NO 551,2ND FLOOR OF BANK OF BARODA,TIDKE NAGAR,KARANJA ROAD,MURTIZAPUR,MAHARASHTRA,PIN -444107",AKOLA,MURTIJAPUR,MAHARASHTRA,7722067933
283,UTKARSH SMALL FINANCE BANK,UTKS0001286,MULTAI,"VILLAGE - MUTALI,P.H.NO - 26,B.NO - 310,TEHSIL - MULTAI,KHESARA NO - 217,HARI NAI AMBEDAKAR WARD,BETUL ROAD,MULTAI,DISTRICT - BETUL,STATE - MADHYA PRADESH,460661",BETUL,MULTAI,MADHYA PRADESH,7247007421
284,UTKARSH SMALL FINANCE BANK,UTKS0001287,ORIYA\HAZARIBAGH,"KHATA NO-18, KHASRA NO- 2617,VILLAGE- ORIYA, THANA NO-152, THANA- MUFFASIL,DISTRICT- HAZARIBAGH, JHARKHAND, PIN CODE-825301",HAZARIBAGH,HAZARIBAGH,JHARKHAND,7485094981
285,UTKARSH SMALL FINANCE BANK,UTKS0001288,GHORAWAL,"GROUND FLOOR, ARAZI NO.- 1057KHA, AREA NO. 0 38 HECTARE, MAUZA-GHORAWAL, PARAGANA-BADHAR, TEHSIL- GHORAWAL, DISTRICT- SONEBHADRA, STATE- UTTAR PRADESH, PIN CODE-231210",SONBHADRA,SONBHADRA,UTTAR PRADESH,7318089269
286,UTKARSH SMALL FINANCE BANK,UTKS0001289,RAMGARH UP,"C/O MR.KAMLESH S/O RAMKUMARVILLAGE-RAMGARH,PO-RAMGARH,THAN - PANNU GANJ,DIS - SONBHADRA,PIN-231213",SONBHADRA,ROBERTSGANJ,UTTAR PRADESH,7318089287
287,UTKARSH SMALL FINANCE BANK,UTKS0001290,SHAHPUR PATORI,"VILLAGE - SHAHPUR URF BHAGWANPUR CHAKSIMA,PARAGANA - SARAISA,P.S - PATORI,CHANDAN CHOWK PATORI,DISTRICT SAMASTIPUR,BIHAR,PIN CODE 848504",SAMASTIPUR,SHAHPUR PATORI,BIHAR,7542032153
288,UTKARSH SMALL FINANCE BANK,UTKS0001291,PANDHURNA,"SUBHASH WARD NEAR SARASWATI SHISHU MANDIR SCHOOL,TEH,PANDHURNA DISST,CHHINDWARA -PIN - 480334",CHHINDWARA,PANDHURNA,MADHYA PRADESH,7247005830
289,UTKARSH SMALL FINANCE BANK,UTKS0001292,PEHOWA,"NEAR DAMESH PETROL PUMP,VILLAGE -PEHOWA,TEHSIL -PEHOWA,AMBALA ROAD,PEHOWA DISTRICT - KURUKSHETRA,STATE -HARYANA,PIN CODE - 136128",KURUKSHETRA,PEHOWA,HARYANA,8570049239
290,UTKARSH SMALL FINANCE BANK,UTKS0001293,PARSUDIH,"C/O-MRS RINKI SAMAL,W/O - ADITYA KUMAR SAMAL,HOUSE NUM - 93,CO - OPRATIVE SOCITY COLONY PARSUDIH,NEAR BAZAR SAMITI,POST - TATA NAGAR,THANA PARSUDIH ( JAMSHEDPUR),PIN-831002",PURBI SINGHBHUM,PARSUDIH,JHARKHAND,7280027352
291,UTKARSH SMALL FINANCE BANK,UTKS0001294,GOLA,"C/O- MRS. MAMTA PODDAR, W/O- MR. PANCHAM CHANDRA PODDAR, MAIN ROAD GOLA, NH-23, DIST RAMGARH(JHARKHAND), PIN-829122,",RAMGARH,RAMGARH,JHARKHAND,7485095028
292,UTKARSH SMALL FINANCE BANK,UTKS0001295,MURAMKALAN - RAMGARH - JH,"C/O-MR.SITA RAM SAHU,S/O - LATE MR.DHANESHWAR SAHU,PATRATU BASTI,NEAR DURGAMANDIR BEHIND BLOCK,RAMGARH(JHARKHAND),PIN-829122",RAMGARH,MURAMKALAN - RAMGARH - JH,JHARKHAND,7070894534
293,UTKARSH SMALL FINANCE BANK,UTKS0001296,RAJAPUR,"ARAZINO-664,MAUZA-RAJAPURMUSTKIL,PARAGANA-RAJAPUR,TEHSIL-RAJAPUR,DISTRICT-CHITRAKOOT,STATE-UTTARPRADESH,PINCODE-210207",CHRIAKOOT,CHRIAKOOT,UTTAR PRADESH,7318089293
294,UTKARSH SMALL FINANCE BANK,UTKS0001297,KARWI,"PLOT NO - 27/2,29MI& 29MI.TOTAL AREA 1.287 HECTARE KARVI SARKAR,DWARIKAPUR,WARD NO - 16,KEHSIL - KARVI,MATGANJAN NAGAR,KARVI,DISTRICT - CHITRAKOOT,STATE - UP,210205",CHITRAKOOT,KARWI,UTTAR PRADESH,7522800124
295,UTKARSH SMALL FINANCE BANK,UTKS0001298,AKOLA,"C/O SERVEY NO 34/1 INFRONT OF PWD WORKSHOP,MANGLURPIR ROAD,KAULKHED AKOLA MAHARASHTRA PIN 444001",AKOLA,AKOLA,MAHARASHTRA,9284705863
296,UTKARSH SMALL FINANCE BANK,UTKS0001299,AMARPUR,"GROUND FLOOR,MAUZA - BANAHARA,THANA NO.- 328,P.S.-AMARPUR,DISTRICT - BANKA,STATE - BIHAR,PIN CODE - 813101",BANKA,AMARPUR,BIHAR,7280027335
297,UTKARSH SMALL FINANCE BANK,UTKS0001300,CHAURAI,JHANDA MOHLLA WORD NO -15 NEAR JAIN MANDIR CHAURAI DISST.CHHINDWARA MADHYA PRADESH INDIA PIN -480115,CHHINDWARA,CHAURAI,MADHYA PRADESH,7247005816
298,UTKARSH SMALL FINANCE BANK,UTKS0001301,SEONI,BARAPATHAR TUTI PULIYA ROAD NATRAJ BULDING SEONI MADHYA PRADESH INDIA PINCODE -480661,SEONI,SEONI,MADHYA PRADESH,7247005821
299,UTKARSH SMALL FINANCE BANK,UTKS0001302,PUSAD,C/O LALSING RATHOD KRALA ROAD SHRIRAMPUR PUSAD DIST YAVATMAL 445204,YAVATMAL,PUSAD,MAHARASHTRA,7722096897
300,UTKARSH SMALL FINANCE BANK,UTKS0001303,"DELHI MOD, DARBHANGA","MAUZA - BASUDEOPUR,P.S - DARBHANGA,DIST - DARBHANGA,STATE - BIHAR,PIN CODE - 846005,KHATA NO - 1757,KHESARA NO - 1785 AND 1794,THANA NO - 449,TAUZI - 8534",DARBHANGA,DARBHANGA,BIHAR,7903882875
301,UTKARSH SMALL FINANCE BANK,UTKS0001304,BANKA,"FIRST FLOOR,WARD NO.5,KHATA NO 23& 37,KHASARA NO 6& 7,MAHARANA COMPLEX,KATORIYA ROAD,MAUZA - BOGARIA,MUHALLA - BIJAY NAGAR,THANA - BANKA,DISTRICT - BANKA,STATE - BIHAR,PIN CODE 813102",BANKA,BANKA,BIHAR,9811148660
302,UTKARSH SMALL FINANCE BANK,UTKS0001305,LAKHISARAI,"RAMKANT SINGH S/O SIYA SINGH,PURANI BAZAR,BEHIND BHARAT GAS,WARD NO.08,LAKKHISARAI,DIST-LAKHISARAI,PIN-811311",LAKHISARAI,LAKHISARAI,BIHAR,7323801506
303,UTKARSH SMALL FINANCE BANK,UTKS0001306,BARAMASIA - BARGANDA,"MR.PARTHO MUKHARJI S/O LATE SHIBU DAS MUKHARJI,PROFESSOR COLONY,NEAR R.K MAHILA COLLEGE,SHIVE SAIFALI BHAWAN,NEW BARGNDA GIRIDIH.PIN-815301",GIRIDIH,BARAMASIA - BARGANDA,JHARKHAND,7485094983
304,UTKARSH SMALL FINANCE BANK,UTKS0001307,CHAIBASA,"C/O - MR.GANESH KARWA,NEW COLONY TUNGARI,NEAR SANSANG MANDIR,DIST WEST SINGHBHUM JHARKHAND,PIN-833201",PASCHIMI SINGHBHUM,CHAIBASA,JHARKHAND,9525564848
305,UTKARSH SMALL FINANCE BANK,UTKS0001308,AMARWARA,KAILASH SAHU S/O BUDDHA SINGH WARD NO.14 NEAR GURUKUL SCHOOL AMARWARA DIST.CHHINDWARA MADHYA PRADESH PIN CODE-480221,CHHINDWARA,AMARWARA,MADHYA PRADESH,9074925878
306,UTKARSH SMALL FINANCE BANK,UTKS0001309,PATTI,"ARAZI NO.29,MAUZA BAHELIYAPUR,PARGANA AND TEHSIL PATTI,PRATAPGARH,UTTAR PRADESH 230134",PRATAPGARH,PRATAPGARH,UTTAR PRADESH,7318076511
307,UTKARSH SMALL FINANCE BANK,UTKS0001310,BIRGAON,KABIR NAGAR PHASE-1 NEAR ADARSH CHOWK HOUSE NO -HIG DELUX / 70 RAIPUR-492001,RAIPUR,BIRGAON,CHHATTISGARH,7024244594
308,UTKARSH SMALL FINANCE BANK,UTKS0001311,JAMALPUR BR,"MAUZA - NAYAGAON,P.S-EAST COLONY,D D TULSI ROAD,POST - JAMALPUR,DIST - MUNGER-811814,KHATA NO-32,KHESARA NO-2439,THANA NO-11,TAUZI NO - 5439,AREA - 1 KATHA,WARD NO - 5",MUNGER,MUNGER,BIHAR,7280021704
309,UTKARSH SMALL FINANCE BANK,UTKS0001312,GHATSILA,"GROUND FLOOR,PLOT NO.713 SUB - PLOT NO.713/6,NEAR CIVIL COURT,PHULDUNGARI,DHARAMBAHAL,GHATSHILA,DISTRICT - EAST SINGHBHUM,STATE-JHARKHAND,PIN CODE-832303",EAST SINGHBHUM,EAST SINGHBHUM,JHARKHAND,7485094857
310,UTKARSH SMALL FINANCE BANK,UTKS0001313,MAHNAR,"UPPER GROUND FLOOR,THANA NO.-545,HALKA NO.-8,WARD NO.-3,NEW WARD NO.-4,KHATA NO.2424,THANA ROAD,SHAKUNTALA PALACE,MAHNAR,DISTRICT - VAISHALI,STATE - BIHAR,PIN CODE-844506",VAISHALI,VAISHALI,BIHAR,7091599411
311,UTKARSH SMALL FINANCE BANK,UTKS0001314,ABHANPUR,"MAUZA-1 URLA ABHANPUR,THANA - ABHANPUR,TEHSIL - ABHANPUR,DISTRICT - RAIPUR,STATE - CHHATTISGARH,PIN CODE - 493661",RAIPUR,RAIPUR,CHHATTISGARH,9993105053
312,UTKARSH SMALL FINANCE BANK,UTKS0001315,JAMUI - BIHAR,"SUDHIR KUMAR VILL-BODHBAN TALAB,KHORA ROAD,JAMUI,P.S-JAMUI,DIST-JAMUI PIN-811307",JAMUI,JAMUI - BIHAR,BIHAR,9811148660
313,UTKARSH SMALL FINANCE BANK,UTKS0001316,RAGHUNATHPUR,"TAUJI NO 3712,THANA NO 384,KHATA NO 613,SURVEY NO1798,AREA 06 KHATA NO 2,DHUR 10 KATHA,VILL-RAGHUNATHPUR,SABJI BAZAR,DIS- SIWAN,PIN CODE-841504",SIWAN,SIWAN,BIHAR,7070895569
314,UTKARSH SMALL FINANCE BANK,UTKS0001317,RAIPUR,"VASUNDHRANAGAR,CHANGORABHATAHOUSENO-A/34RINGROAD1RAIPUR,PIN-492001",RAIPUR,RAIPUR,CHHATTISGARH,7247244801
315,UTKARSH SMALL FINANCE BANK,UTKS0001318,KALYANDIH - PACHAMBA,"C/O SUNIL KUMAR SINGH NEAR KAMAL SINHA CLINIC,KRISHNA NAGAR WARD NO.6 PACHAMBA,GIRIDIH,JHARKHAND-815312",GIRIDIH,KALYANDIH - PACHAMBA,JHARKHAND,7485095673
316,UTKARSH SMALL FINANCE BANK,UTKS0001319,SARAIKELA JAMSHEDPUR,"WARD NO.-8,GARAJE CHAUK,SRAIKELA DIST - WEST SINGHBHUM,JHARKHAND,PIN CODE-833219",WEST SINGHBHUM,WEST SINGHBHUM,JHARKHAND,7369024003
317,UTKARSH SMALL FINANCE BANK,UTKS0001320,"MAIN BRANCH, BARHI","NEAR HERO AGENCY,MOHALLA UJJAINA,PARGANA BARSOAT,KODARMA ROAD,THANA-GARHI RAKWA 16 DECIMAL BARHI,DISTRICT-HAZARIBAGH,STATE - JHARKHAND,PIN CODE-825405",HAZARIBAGH,HAZARIBAGH,BIHAR,9708155910
318,UTKARSH SMALL FINANCE BANK,UTKS0001321,BANMANKHI,"WARD NO -08,KHATA NO -170,MAUZA -CHAKALA,MUHALLA MAIN BAZAR,PARAGANA,DHARAMPUR,THANA - BANMANKHI,DHIR MARKET,DIST - PURNIA,BIHAR,PIN CODE -854202",PURNIA,PURNIA,BIHAR,7319942539
319,UTKARSH SMALL FINANCE BANK,UTKS0001322,SIKANDRA,"MAUZA - SIKANDRA,P.S.SIKANDRA,PARAGANA - BIST HAJARI,DISTRICT-JAMUI,STATE - BIHAR,PIN CODE - 811315",JAMUI,SIKANDRA,BIHAR,7091599506
320,UTKARSH SMALL FINANCE BANK,UTKS0001323,KODERMA,"NEAR DUDHI MATI CHOWK KODERMA,DIST - KODERMA JHARKHAND,PIN 825410",KODERMA,KODERMA,JHARKHAND,9102992745
321,UTKARSH SMALL FINANCE BANK,UTKS0001324,RANIGANJ,"PLOT NO -204,VILLAGE - DARIYAPUR,PARAGANA - PATTI,TEHSIL - RANIGANJ,GAURAGANJ ROAD,DARIYAPUR,RANIGANJ,DISTRICT-PRATAPGARH,STATE - UTTAR PRADESH,PIN CODE-230304",PRATAPGARH,PRATAPGARH,UTTAR PRADESH,8756399797
322,UTKARSH SMALL FINANCE BANK,UTKS0001325,KATIHAR,"W/O SURESH KUMAR GUPTA,HOUSE NO - 145,HOLDING NO - 264,BARMASIYA,P -T CHOWK,DIST - KATIHAR,PIN 854105",KATIHAR,KATIHAR,BIHAR,7369024757
323,UTKARSH SMALL FINANCE BANK,UTKS0001326,PURNIA,"THANA NO.-100/1,KHATA NO.-401,WARD NO.-42,RAJ COMPLAX,ABDULLA NAGAR,THANA - SADAR,PARAGNA - HAWELI NAWAIYAT,NEAR SHARDA TAKIZ KALIGHAT DIST - PURNIA,BIHAR,PIN CODE-854302",PURNIA,PURNIA,BIHAR,7319942537
324,UTKARSH SMALL FINANCE BANK,UTKS0001327,RAJDHANWAR,"C/O-MR. PRAMOD KUMAR, S/O- MR. MOTILAL SAHU, NEAR GHANDHI CHAUK BLOCK, RAJDHANWAR, DIST- GIRIDIH JHARKHAND, PIN-815301",GRIDIH,GRIDIH,JHARKHAND,7070194075
325,UTKARSH SMALL FINANCE BANK,UTKS0001328,ARANG,"VILLAGE- ARANG, WARD NO-54( MORDHWAJ WARD NO-1,ARANG TEHSIL- ARANG,KHRORA ROAD,NEAR KALE MOD, DISTRICT- RAIPUR,STATE- CHHATTISGARH PIN CODE-493441, KHASERA NO- 3361/4",RAIPUR,RAIPUR,CHHATTISGARH,9109187823
326,UTKARSH SMALL FINANCE BANK,UTKS0001329,CHOPAN,"PLOT NO.- 852,MARUZA - SENDHURIYA,PARAGANA - AGORI,TAHSIL - ROBERTSGANJ,DISTRICT - SONEBHADRA,STATE - UTTAR PRADESH,PIN CODE-231205",SONEBHADRA,SONEBHADRA,UTTAR PRADESH,7080304954
327,UTKARSH SMALL FINANCE BANK,UTKS0001330,MARIHAN,"FIRST FLOOR,ARAZI NO.285,AREA 2 BISWA 10 DHOOR,MAUZA - PATEWAR,PARAGANA-KANTIT,TEHSIL - MADIHAN,DISTRICT-MIRZAPUR,STATE - UTTAR PRADESH,PIN CODE-231310",MIRZAPUR,MIRZAPUR,UTTAR PRADESH,7318083517
328,UTKARSH SMALL FINANCE BANK,UTKS0001331,HALDI POKHAR,"C/O-MR.JYOTSANA SARKAR,W/O-MR.PRAMOD KUMAR SARKAR,HALDIPOKHAR,DIST-EAST SINGHBHUM,JHARKHAND,PIN-833219",PURBI SINGHBHUM,HALDI POKHAR,JHARKHAND,7485094982
329,UTKARSH SMALL FINANCE BANK,UTKS0001332,MADHEPURA,W/O RAM DEV YADAV VIJAYPURI MOHALLA WARD NO.18 DISTRICT -MADHEPURA PIN-852113,MADHEPURA,MADHEPURA,BIHAR,7319942545
330,UTKARSH SMALL FINANCE BANK,UTKS0001333,WASHIM,"MAUZA - WASHIM,SURVEY NO.530/1 SHEET NO.-88 C S NO.- 5094,WARD NO.- 4,SHOP NO.- 18& 19,PUSAD NAKA,TURKE COMPLEX,DISTRICT - WASHIM,STATE - MAHARASHTRA,PIN CODE - 444505",WASHIM,WASHIM,MAHARASHTRA,7722067998
331,UTKARSH SMALL FINANCE BANK,UTKS0001334,BAGODAR,"C/O-MR. SURENDRA KUMAR GUPTA S/O-LATE KISHORE LAL OPPOSITE VAISHNAVI DEVI MANDIR JARMUNE BAGODAR, DIST- GIRIDIH (JHARKHAND), PIN-825322",GRIDIH,GRIDIH,JHARKHAND,9102992746
332,UTKARSH SMALL FINANCE BANK,UTKS0001335,PHUSRO,"C/O-MRS.KANCHAN SINGH,W/O - MR.SALESHWAR KUMAR SINGH,NEAR DAMODAR BRIDGE,DAMODAR NAGAR,PHUSRO,DIST - BOKARO(JHARKHAND),PIN-829144",BOKARO,PHUSRO,JHARKHAND,7903377132
333,UTKARSH SMALL FINANCE BANK,UTKS0001336,RANIGANJ,"VILLAGE - BARBANA RANIGANJ,PARAGANA - HAVELI,P.S.- RANIGANJ,DIWANTOLA,RANIGANJ,DISTRICT - ARARIYA,STATE - BIHAR,854334,KHATA NO - 287,KHESARA NO-982 AND 1013,THANA NO-64",ARARIA,RANIGANJ,BIHAR,7463842224
334,UTKARSH SMALL FINANCE BANK,UTKS0001337,KURSELA,"SHRI NILESH KUMAR GUPTA NH - 31,KURSELA,POST -AYODHYA NAGAR BAZAR,POLICE STATION -KURSELA DIST KATIHAR PIN - 854101",KATIHAR,KURSELA,BIHAR,7070895889
335,UTKARSH SMALL FINANCE BANK,UTKS0001338,AMBHORA - GONDIA,"C/O,HIREN VYAS,SHRREJI KUNJ,PLOT NO.09,FLAT NO.101,MAHAVIR COLONY,BEHIND LOHIYA WARD,TIRODA ROAD,KUDWA,GONDIA.PIN-441614",GONDIA,AMBHORA - GONDIA,MAHARASHTRA,7722096899
336,UTKARSH SMALL FINANCE BANK,UTKS0001339,SAMALKHA,"HATHWALA ROAD NEAR POLICE CHAUKI,SAMALKHA,PANIPAT - 132101",PANIPAT,SAMALKHA,HARYANA,7082719781
337,UTKARSH SMALL FINANCE BANK,UTKS0001340,CHAS,"VILLAGE - KURRA,KURRADIH,POST - KURRA,P.S-PINDRAJORA,P.S - 99,KHATA NO-03,PLOT NO-1884,DIST-BOKARO,STATE - HARKHAND,PIN CODE-827013",BOKARO,BOKARO,JHARKHAND,7485094852
338,UTKARSH SMALL FINANCE BANK,UTKS0001341,JALGAON,"SURVEY NO 482/2,PLOT NO -2,1ST FLOOR,SUYOG COLONY,NEAR GIRNA WATER TANK DIST -JALGAON.MAHARASHTRA -425002",JALGAON,JALGAON,MAHARASHTRA,7447415705
339,UTKARSH SMALL FINANCE BANK,UTKS0001342,TILDA,"KHARORA ROAD,WARD NO 6,BEHIND JAY HARDWARE,TILDA,RAIPUR -493114",RAIPUR,TILDA,CHHATTISGARH,7471116062
340,UTKARSH SMALL FINANCE BANK,UTKS0001343,PACHORA,SR.NO 50/2A PLOAT NO.36 GADGEBABA NAGAR NEAR RELIANCE PETROL PUMP MAHARASHTRA INDIA -424201,JALGAON,PACHORA,MAHARASHTRA,7722024964
341,UTKARSH SMALL FINANCE BANK,UTKS0001344,RUNISAIDPUR,"FIRST FLOOR,MAUZA - MORSAND BAKHARA,THANA - RUNNISAIDPUR,SUB REGISTRY - BELSAND,DISTRICT - SITAMADHI,STATE - BIHAR,PIN CODE-843328",SITAMADHI,SITAMADHI,BIHAR,7463881557
342,UTKARSH SMALL FINANCE BANK,UTKS0001345,DUMKA,"MAUZA BANDARJORI NO12 TALUK GHAT DUMKA,MUNICIPAL WARD NO16(OLD ) NEW ( 22 ) OF BASOURI JAMABANDI NO 30/20 PLOT NO4 PART LIC CHAUK,PIN - 814101",DUMKA,DUMKA,JHARKHAND,0
343,UTKARSH SMALL FINANCE BANK,UTKS0001346,MADHUBANI,"MAUZA - BEHAT,AMBEDAKAR CHOWK,BENIPATTI,DISTRICT - MADHUBANI,BIHAR,PIN CODE-847223,THANA NO.- 184,KHATA NO.198,KHESARA NO.1438",MADHUBANI,MADHUBANI,BIHAR,9364273727
344,UTKARSH SMALL FINANCE BANK,UTKS0001347,KURUD,"MAUZA KURUD,MUHALLA - SANJAY NAGAR,WARD NO.1,THANA - KURUD,DISTRICT - DHAMATARI,STATE - CHHATTISHGARH,PIN CODE-493663",DHAMATARI,DHAMATARI,CHHATTISGARH,7583893548
345,UTKARSH SMALL FINANCE BANK,UTKS0001348,CHATRO,"MAUZA - CHATRO,P.S.- DEORI,P.S.NO - 527,TOUZI NO - 213,KHATA N - 52,PLOT NO - 1913,VILLAGE - CHATRO,POST - CHATRO,P.S-DEORI,DIST - GRIDI,JHARKHAND,PIN CODE-815314",GRIDIH,GRIDIH,JHARKHAND,7091599429
346,UTKARSH SMALL FINANCE BANK,UTKS0001349,JHANJHARPUR,"VILLAGE -BEHAT,P.S-BEHAT JHANJHARPUR DISTRICT - MADHUBANI STATE - BIHAR,PIN CODE-847403",MADHUBANI,JHANJHARPUR,BIHAR,7485094908
347,UTKARSH SMALL FINANCE BANK,UTKS0001350,DHAMTARI,"MURAHA BHAWAN, PG COLLEGE ROAD, NEAR DCB BANK, RATNABANDHA, DHAMTARI, PINCODE - 493773.",DHAMTARI,DHAMTARI,CHHATTISGARH,7471117452
348,UTKARSH SMALL FINANCE BANK,UTKS0001352,ALLAHABAD,"4/2 A GROUND FLOOR,2 SARDAR PATEL MARG,ALLAHABAD",ALLAHABAD,ALLAHABAD,UTTAR PRADESH,7522000874
349,UTKARSH SMALL FINANCE BANK,UTKS0001353,FRASER ROAD,"GROUND FLOOR1,FRASER ROAD TOWN,SOUTH GANDHI MAIDAN,PATNA,BIHAR -800001",PATNA,PATNA,BIHAR,7000467856
350,UTKARSH SMALL FINANCE BANK,UTKS0001354,BANK ROAD,"GROUND FLOOR,LAHIRI BUILDING,BANK ROAD,PO -GORAKHPUR - HO,DISTRICT -GORAKHPUR,UTTAR PRADESH -273001",GORAKHPUR,GORAKHPUR,UTTAR PRADESH,9919677554
351,UTKARSH SMALL FINANCE BANK,UTKS0001356,ARRAH,UPPER GR FLR PLOT NO 516 THANA NO 237 MAHAJAN TOLI SHIVGANJ AARAH DIST BHOJPUR PIN 802301,BHOJPUR,BHOJPUR,BIHAR,9128600600
352,UTKARSH SMALL FINANCE BANK,UTKS0001359,NAJAFGARH,1626 BY E1 THANA ROAD NAJAFGARH 110043,DELHI,DELHI,DELHI,28017021
353,UTKARSH SMALL FINANCE BANK,UTKS0001360,MUZAFFARPUR,ZILA SCHOOL PARISHAD HATHI CHOWK NEAR ASG EYE HOSPITAL MUZAFFARPUR BIHAR 842001,MUZAFFARPUR,MUZAFFARPUR,BIHAR,9534866664
354,UTKARSH SMALL FINANCE BANK,UTKS0001362,DEORIA,"GROUND FLOOR H.NO 392, WARD NO 23, GORAKHPUR ROAD UTTAR PRADESH 274001",DEORIA,DEORIA,UTTARAKHAND,8756702468
355,UTKARSH SMALL FINANCE BANK,UTKS0001363,JAUNPUR,PLOTNO41BY2ALLAHABADVARANASIMAINROADWAJIDPURTIRAHAJAUNPUR222002,JAUNPUR,JAUNPUR,UTTAR PRADESH,7897420223
356,UTKARSH SMALL FINANCE BANK,UTKS0001371,ROORKEE,"GROUND FLOOR, CIVIL LINES, ROORKEE, UTRAKHAND 247667",ROORKEE,ROORKEE,UTTAR PRADESH,9639641221
357,UTKARSH SMALL FINANCE BANK,UTKS0001372,RANCHI,"GROUND FLOOR, NARAYANI COMPLEX, 5 MAIN ROAD, RANCHI-834001, JHARKHAND",RANCHI,RANCHI,JHARKHAND,7897074410
358,UTKARSH SMALL FINANCE BANK,UTKS0001374,FARIDABAD,"GROUND AND BASEMENT FLOOR,SHOP NO 5,OPPOSITE GHAZAL HOTEL,NEAR 1& 2 CHOWK,D2/5,NH-2,FARIDABAD,HARYANA -121001",FARIDABAD,FARIDABAD,HARYANA,9918130777
359,UTKARSH SMALL FINANCE BANK,UTKS0001375,VARANASI GODOWLIA,"UTKARSH SMALL FINANCE BANK, GROUND FLOOR, D37/37,37 A,111,164,SPICE KCM CINEPLEX,GADOWILA-MAIDAGIN ROAD, BARA DEO,PO-LUXA, DISTRICT VARANASI, UTTAR PARDESH, PIN-221001",VARANASI,VARANASI,UTTAR PRADESH,9648093697
360,UTKARSH SMALL FINANCE BANK,UTKS0001376,GURUGRAM,RUDFLRADBASEMETSCUM762HUDAMARKETSEC15LLURURAMHARYAA122001,GURUGRAM,GURUGRAM,HARYANA,9559003338
361,UTKARSH SMALL FINANCE BANK,UTKS0001377,SAGUNA MORE,GROUND FLOOR PLOT NUMBER 202 VASHIKUNJ COMPLEX NEAR SAGUNA MORE PATNA 801503,PATNA,PATNA,BIHAR,9102405957
362,UTKARSH SMALL FINANCE BANK,UTKS0001378,MANESAR,SHOP NUM 8 9 29 EROS CORPORATE PARK IMT MANESAR GURUGRAM PIN 122050 HARYANA,GURUGRAM,GURUGRAM,HARYANA,9718823978
363,UTKARSH SMALL FINANCE BANK,UTKS0001379,LAKADGANJ,GROUNDFLOORHONEYARJUNKAUSHALYATOWERPLOTNO268CENTRALAVENUEROADLAKADGANJNAGPUR440008,NAGPUR,NAGPUR,MAHARASHTRA,9766938390
364,UTKARSH SMALL FINANCE BANK,UTKS0001380,BARH,STATION ROAD BARH PATNA BIHAR 803213,PATNA,PATNA,BIHAR,8271907330
365,UTKARSH SMALL FINANCE BANK,UTKS0001381,HASDIHA,"FIRST FLOOR, MAUZA- HATGAR, S.C. KASBA JAMABANDI NO. 1, PLOT NO. 46, AREA 4, KHATA NO, 4 DHUR, VILLAGE- HATGAR, P.S.- HANSDIHA, ANCHAL- SARAIYAHAT, DISTRICT- DUMKA, STATE- JHARKHAND, PIN CODE- 814145",DUMKA,DUMKA,JHARKHAND,7485808721
366,UTKARSH SMALL FINANCE BANK,UTKS0001382,JARMUNDI,"MAUZA - JARMUNDI,TAUZI NO - 445,THANA NO-141 OF BASOURI JARMABANDI NO-177/17,PLOT NO - 576 NEAR UCO BANK,JARMUNDI DIST - DUMKA JHARKHAND,PIN CODE-814141",DUMKA,JARMUNDI,JHARKHAND,7485094856
367,UTKARSH SMALL FINANCE BANK,UTKS0001383,GODDA,"MAUZA - GOURI GHAT O.504,JAMABANDI NO - 31,PLOT NO - 877,P.S - GODDA,ANCHAL - GODDA,DIST - GODDA,STATE - JHARKHAND,PIN CODE - 814133",GODDA,GODDA,JHARKHAND,7280027246
368,UTKARSH SMALL FINANCE BANK,UTKS0001384,VARANASI,"GROUND FLOOR D-59 BY 71,A-1,MOHALLAH SHIVPURWA,MEHMOORGANJ,VARANASI,UTTAR PRADESH 221010",VARANASI,VARANASI,UTTAR PRADESH,9721321591
369,UTKARSH SMALL FINANCE BANK,UTKS0001385,CHEMBUR,"BEST COMMERCIAL BUILDING,OPPOSITE CR.AMBEDKAR UDYAN,CENTRAL AVENUE ROAD,CHEMBUR,MUMBAI-400071",MUMBAI,MUMBAI,MAHARASHTRA,9820682658
370,UTKARSH SMALL FINANCE BANK,UTKS0001386,PUSA ROAD,"GROUND FLOOR 9 B PUSA ROAD,RAJENDRA PARK,NEW DELHI 110060",NEW DELHI,NEW DELHI,DELHI,9871340606
371,UTKARSH SMALL FINANCE BANK,UTKS0001387,CHALISGAON,"BRANCH OFFICE PLOT NO.29,NEAR KHARJAI NAKA,OPPOSITE BANDHAN BANK,AT - TAKLI,POST - OZAR,TAH - CHALISGAON,DIST - JALGAON,MAHARASHTRA,INDIA,PIN 424101",JALGAON,CHALISGAON,MAHARASHTRA,7391093690
372,UTKARSH SMALL FINANCE BANK,UTKS0001390,SONIPAT,"GROUND AND FIRST FLOOR,215,SONIPAT,HARYANA-131001",SONIPAT,SONIPAT,HARYANA,9811237790
373,UTKARSH SMALL FINANCE BANK,UTKS0001391,YAMUNANAGAR,"UPPER GROUND FLOOR,38 39,NEHRU PARK ROAD,YAMUNA NAGAR,HARYANA 135001",YAMUNANAGAR,YAMUNANAGAR,HARYANA,8006006280
374,UTKARSH SMALL FINANCE BANK,UTKS0001392,BASTI,"GROUND FLOOR,89 A,PIKAURA SHIV GULAM,MALVIYA ROAD,BASTI,UTTAR PRADESH,PIN 272001",BASTI,BASTI,UTTAR PRADESH,9839714243
375,UTKARSH SMALL FINANCE BANK,UTKS0001393,AMBALA,"GROUND FLOOR,5406 BY 2 3,PANJABI MOHALLA,AMBALA CANTT.133001,HARYANA",AMBALA,AMBALA,HARYANA,9910636699
376,UTKARSH SMALL FINANCE BANK,UTKS0001395,DHANBAD,"UPPER GROUND FLOOR,PLOT NO 649,652654,683,694698& 714,KHATA NO 43 AND 44,MOUZA DHANBAD,NO 51,PODDAR TOWER,SHASTRI NAGAR,DHANBAD,JHARKHAND 826001",DHANBAD,DHANBAD,JHARKHAND,7519447080
377,UTKARSH SMALL FINANCE BANK,UTKS0001396,RAMGARH,"GROUND FLOOR,BUILDING NUMBER JC 9 BY1,MAHATMA GANDHI CHOWK,MAIN ROAD,RAMGARH CANTT,DISTRICT RAMGARH,JHARKHAND,PIN 829122",RAMGARH,RAMGARH CANTT,JHARKHAND,8336071332
378,UTKARSH SMALL FINANCE BANK,UTKS0001397,HARIDWAR,"GROUND FLOOR,YOGI VIHAR,OPPOSITE AXIS BANK,JWALAPUR MAIN ROAD,HARIDWAR,UTTARAKHAND -249407",HARIDWAR,HARIDWAR,UTTARAKHAND,8191811444
379,UTKARSH SMALL FINANCE BANK,UTKS0001398,BOKARO,"GROUND FLOOR,B 15,CITY CENTER,SECTOR 4,BOKARO STEEL CITY,DISTRICT-BOKARO,JHARKHAND,PIN 827004",BOKARO,BOKARO,JHARKHAND,9801927770
380,UTKARSH SMALL FINANCE BANK,UTKS0001399,DARBANGHA,"GROUND FLOOR AND FIRST FLOOR,HOLDING NUMBER 605,WARD NO 19,RAJKUMARGANJ,DARBHANGA,BIHAR,PIN 846004",DARBHANGA,DARBHANGA,BIHAR,7488351104
381,UTKARSH SMALL FINANCE BANK,UTKS0001400,RAIPUR,"GROUND FLOOR,17BY 2 GORE PARISAR,CIVIL LINES,RAIPUR,CHHATISGARH,PIN 492001",RAIPUR,RAIPUR,CHHATTISGARH,7712427055
382,UTKARSH SMALL FINANCE BANK,UTKS0001401,LAJPATNAGAR,GROUND FLOOR K-91 LAIPAT NAGAR -IL DELHI-110024,NEW DELHI,NEW DELHI,DELHI,8755731000
383,UTKARSH SMALL FINANCE BANK,UTKS0001402,LALGANJ,"GROUND FLOOR,PLOT NO 131,AGARPUR,MUZAFFARPUR ROAD,LALGANJ,DISTRICT-VAISHALI,PIN 844121",VAISHALI,HAJIPUR,BIHAR,9956354455
384,UTKARSH SMALL FINANCE BANK,UTKS0001403,BIHAR SHARIFF,"GROUND FLOOR,HOLDING N0 603,BHAINSASUR,RANCHI ROAD,BIHAR SHARIF,DIST-NALANDA,BIHAR,PIN-803101",NALANDA,BIHAR SHARIFF,BIHAR,233150
385,UTKARSH SMALL FINANCE BANK,UTKS0001404,RASRA,"BHAGAT SINGH ROAD,RASRA,DIST BALLIA 221712",BALLIA,RASRA,UTTAR PRADESH,8948711222
386,UTKARSH SMALL FINANCE BANK,UTKS0001405,BHABUA,"UPPER GROUND FLOOR,PATEL CHOWK,WARD NO 3,BHABHUA,DISTRICT KAIMUR,BIHAR,PIN 821101",KAIMUR,KAIMUR,BIHAR,8960091742
387,UTKARSH SMALL FINANCE BANK,UTKS0001406,BELA PRATAPGARH,"UPPER GROUND FLOOR 237,TRESAURY CHAURAHA,CIVIL LINE,PRATAPGARH,UTTAR PRADESH,PIN 230001",PRATAPGARH,PRATAPGARH,UTTAR PRADESH,8400400627
388,UTKARSH SMALL FINANCE BANK,UTKS0001407,JAMSHEDPUR,DF1RMDBTMD(TG)KDPI-811,JAMSHEDPUR,JAMSHEDPUR,JHARKHAND,0
389,UTKARSH SMALL FINANCE BANK,UTKS0001408,KANKARBAGH,&STR4HSGTTRPTPIN-86,PATNA,PATNA,BIHAR,0
390,UTKARSH SMALL FINANCE BANK,UTKS0001410,RUDRAPUR,"GROUND FLOOR,PLOT NO.22 AVAS VIKAS COLONY,RUDRAPUR,UTTARAKHAND,DISTRICT UDHAM SINGH NAGAR,263153",UDHAMSINGHNAGAR,RUDRAPUR,UTTARAKHAND,9410348146
391,UTKARSH SMALL FINANCE BANK,UTKS0001412,KANKER,"MAUZA- BARDEBHATAWRNO-18,GHNICHOWK,SRONRO,KNKER,TEHSIL-KNKER,DISRIC-KNKER,CHHISGRH,PINCOE-494334,KHESRNO-465/3/K/5",KANKER,KANKER,CHHATTISGARH,0
392,UTKARSH SMALL FINANCE BANK,UTKS0001413,NAGAR UNTARI,"IN FRONT OF THE THANA NEAR NIRMAL KALPATARU COMLEX,NAGAR UNTARI DIST - GARHWA,JHARKHAND PIN CODE-822121",GARHWA,NAGAR UNTARI,JHARKHAND,9123189895
393,UTKARSH SMALL FINANCE BANK,UTKS0001414,GOVINDPUR,"PLOT NO 358 359 KHATA NO 36 VILLAGE AMARPUR,GARG COMPLEX UPAR BAZAR,P.S.- GOVINDPUR P.S 165,DISTRICT-DHANBAD JHARKHAND PIN CODE-828108",DHANBAD,GOVINDPUR,JHARKHAND,9131989811
394,UTKARSH SMALL FINANCE BANK,UTKS0001415,WADRAF NAGAR,VILL-WADRAFNAGAR P.S.TEHSIL WANDRAF NAGAR HOSPITAL ROAD NEAR CENTRAL BANK DIS-BALARAMPUR CHHATTISGARH PIN-497225 BHU ADHIKAR& RIN PUSTIKA 15914 PATWARI CIRCLE 22 KHESARA720,BALARAMPUR,WADRAF NAGAR,CHHATTISGARH,9109187825
395,UTKARSH SMALL FINANCE BANK,UTKS0001416,JASHPUR,"VILLAGE - JASHPUR,P.S - JASHPUR,TEHSIL - JASHPUR PALACE ROAD,BANKITOLI NEAR PNB,DISTRICT JASHPUR,PIN CODE - 496331",JASHPUR,JASHPUR,CHHATTISGARH,9109187825
396,UTKARSH SMALL FINANCE BANK,UTKS0001417,PAKUR,PLOT NO.1222 VILLAGE - PAKUR TEHSIL PAKUR NEW COURT ROAD RAVINDRA MURTI CHOWK PAKUR DISTRICT-DUMKA JHARKHAND PIN CODE-806107,DUMKA,PAKUR,JHARKHAND,8009873335
397,UTKARSH SMALL FINANCE BANK,UTKS0001418,UDAYPUR,"VILLAGE - DUMAR DIH,P.S. & TEHSIL-UDAYPUR,BILASHPUR ROAD,NEAR TEHSIL,UDAYPUR,DISTRICT - SURGUJA,CHHATTISGARH,PIN CODE - 497116",SARGUJA,UDAYPUR,CHHATTISGARH,9109187825
398,UTKARSH SMALL FINANCE BANK,UTKS0001419,PANKI,"VILLAGE - PANKI,P.S.- PANKI DALTONGANJ ROAD,DISTRICT PALAMAU,STATE - JHARKHAND PIN CODE - 822122P.S.NO 468 KHATA NO165PLOT NO1106",PALAMAU,PANKI,JHARKHAND,7541811475
399,UTKARSH SMALL FINANCE BANK,UTKS0001420,PADWA MOD,"PLOT NO.126KHATA NO117 VILLAGEPANDWA,P.S.PANDWA REHLAP.S198PADWA MODPOST RAJHARADISTRICTPALAMAU STATEJHARKHANDPIN CODE822124",PALAMAU,PADWA MOD,JHARKHAND,7541811475
400,UTKARSH SMALL FINANCE BANK,UTKS0001421,RAMANUGANJ,"PLOT NO-75,WARD NO.1 NEAR INDIAN OIL PETROL PUMP DIS-BALARAMPUR RAMANUGANJ CHHATTISHGARH PIN-497220",BALARAMPUR,RAMANUGANJ,CHHATTISGARH,9109187825
401,UTKARSH SMALL FINANCE BANK,UTKS0001422,JAPLA,"VILLAGE DHARHARA,POST - JAPLA,P.S HUSAINABAD,NEAR GIRLS HIGHSCHOOL,HAIDAR NAGAR ROAD,JAPLA,DISTRICT PALAMAU,STATE-JHARKHAND,PIN CODE 822116,KHATA NO.165& 166,PLOT NO",PALAMAU,JAPLA,JHARKHAND,7541811475
402,UTKARSH SMALL FINANCE BANK,UTKS0001423,GARIYABAND,"HIGH SCHOOL ROAD,WARD NO 1,GARIABAND,CHHATISHGARH PIN CODE -493887",GARIYABAND,GARIYABAND,CHHATTISGARH,8103712675
403,UTKARSH SMALL FINANCE BANK,UTKS0001424,MERAL,"VILLAGE - GONDA,P.S - MERAL,NEAR HIGH SCHOOL,MERAL,DISTRICT - GARHAWA,STATE - JHARKHAND,PIN CODE - 822114,KHATA NO - 154,PLOT NO - 776",GARHWA,MERAL,JHARKHAND,7541811475
404,UTKARSH SMALL FINANCE BANK,UTKS0001425,GARHAWA,"VILL SONPUR WA,P.S.GARHWA,PARAGANA GARHWA,NEAR R.K.PUBLIC SCHOOL,DIST-GARHWA,JHARKHAND,PIN CODE822114,KHATA NO.129,KHESARA NO 616,619,THANA NO.242,PIN CODE 23120",GARHWA,GARHAWA,JHARKHAND,7541811475
405,UTKARSH SMALL FINANCE BANK,UTKS0001426,MOHAMMADGANJ,"MOHAMMADGANJ,POST P.S.- MOHAMMADGANJ NEAR MOHAMDGANJ STATION DISTRICT - PALAMAU,STATE JHARKHAND,PIN 822120",PALAMAU,MOHAMMADGANJ,JHARKHAND,7541811475
406,UTKARSH SMALL FINANCE BANK,UTKS0001427,BALRAMPUR,"VILLAGE - BALRAMPUR,P.S.AND TEHSIL - BALRAMPUR,CIRCLE NO - 00012,KHASRA NO - 326,WARD NO.1 CHANCHLA NIWAS,DISTRICT BALRAMPUR,STATE - CHHATTISGARH,497119",BALRAMPUR,BALRAMPUR,CHHATTISGARH,9109187825
407,UTKARSH SMALL FINANCE BANK,UTKS0001428,BARHARWA,"VILLAGE - JHIKITYA,TAUZI NO - 110,THANA NO - 26 OF BASOURI JAMABANDI NO.-87,PLOT NO - 441,BINDU DHAM PATH,POST - BARHARWA,DIST - SAHIBGANJ,JHARKHAND,PIN CODE-816101",SAHEBGANJ,BARHARWA,JHARKHAND,8009873335
408,UTKARSH SMALL FINANCE BANK,UTKS0001429,SAHEBGANJ,"SUBHASH CHOWK,IN FRONT OF SAHEBGANJ POLICE STATION,DISTRICT SAHEBGANJ,JHARKHAND,PIN CODE 816109",SAHEBGANJ,SAHEBGANJ,JHARKHAND,7766913417
409,UTKARSH SMALL FINANCE BANK,UTKS0001430,DUDDHI,"PLOT NO.385 KA,VILLAGE - DUDDHI TEHSIL - DUDDHI,RAM NAGAR ROAD DUDDHI DISTRICT SONBHADRA UTTAR PRADESH,PIN CODE 23120",SONBHADRA,DUDDHI,UTTAR PRADESH,7766915158
410,UTKARSH SMALL FINANCE BANK,UTKS0001431,MAHGAMA,"LIC OFFICE BUILDING,POST - MAHGAMA,DIST - GODDA,JHARKHAND,PIN CODE - 814154",GODDA,MAHGAMA,JHARKHAND,7766913417
411,UTKARSH SMALL FINANCE BANK,UTKS0001432,DALTONGANJ,"VILLAGE - SUDAHA,P.S - SADAR MEDININAGAR,PLOT NO - 843,NEAR GAYATRI MANDIR,BAIYRIA CHOWK SUDANA,DISTRICT - PALAMAU,STATE - JHARKHAND,PIN CODE -822101",PALAMU,DALTONGANJ,JHARKHAND,7541811475
412,UTKARSH SMALL FINANCE BANK,UTKS0001433,ANJANI - ERSTWHILE ANPARA,"VILL - ANJANI,POST - JARAHA,BLOCK - MAURRPUR,TEHSIL - DUDDHI,DISTRICT - SONBHADRA,UTTAR PRADESH,PIN CODE - 231223",SONBHADRA,ANJANI - ERSTWHILE ANPARA,UTTAR PRADESH,7766915158
413,UTKARSH SMALL FINANCE BANK,UTKS0001434,SITAMARHI,"C/O SHARDENDU SHARMA,PUNAURA,WARD NO - 10,PUNAURA,DISTRICT - SITAMADHI,BIHAR,PIN CODE-843302",SITAMARHI,SITAMARHI,BIHAR,7485095338
414,UTKARSH SMALL FINANCE BANK,UTKS0001501,LUCKNOW,"UNIT NUMBER 201 ( PART),202 ( PART),203 ( PART ) UPPER GROUND FLOOR,TRIDENT BUILDING,10 RANA PRATAP MARG,HAZRATGANJ,LUCKNOW",LUCKNOW,LUCKNOW,UTTAR PRADESH,9792014222
415,UTKARSH SMALL FINANCE BANK,UTKS0001503,JALIKHAN,"UTKARSH SMALL FINANCE BANK LTD,VILLAGE-JALIKHAN,POST OFFICE BANGIDHAR,TEHSIL -SALT,DIST -ALMORA,UTTRAKHAND -263676",ALMORA,SULT,UTTARAKHAND,9958407384
416,UTKARSH SMALL FINANCE BANK,UTKS0001504,MOHALLA WRIGHT TOWN EXT.,"GROUND FLOOR,PLOT NO 2/B-1 HOUSE NO 1187 -1188,DIVERSION PLOT NO 527,DIVERSION SHEET NO 154-A,MOHALLA WRIGHT TOWN,JABALPUR -482001",JABALPUR,JABALPUR,MADHYA PRADESH,9329129535
417,UTKARSH SMALL FINANCE BANK,UTKS0001505,KANPUR,"PLOT NO - 119/538,A MOHALLA DARSHANPURWA FAZALGANJ,GUMTI NO 5,POST -KAUSHALPURI,DISTRICT -KANPUR,STATE -UTTAR PRADESH 208012",KANPUR,KANPUR,UTTAR PRADESH,9919992498
418,UTKARSH SMALL FINANCE BANK,UTKS0001506,BAREILLY,"GROUND FLOOR,PLOT NO -148 CIVIL LINES,BAREILLY STATE -UTTAR PRADESH,PIN -243001",BAREILLY,BAREILLY,UTTAR PRADESH,7376263928
419,UTKARSH SMALL FINANCE BANK,UTKS0001507,MORADABAD,"GROUND FLOOR,HOUSE NO 0809153 B,AGARWAL COMPLEX,NEAR PILI KOTHI,ROAD -KANTH ROAD,POST -CIVIL LINE,DISTRICT -MORADABAD,STATE -UTTAR PRADESH,PIN -244001",MORADABAD,MORADABAD,UTTAR PRADESH,9415868382
420,UTKARSH SMALL FINANCE BANK,UTKS0001508,PANCHKULA,"UTKARSH SMALL FINANCE BANK,SCO -6P,SECTOR -10,PANCHKULA -134109",PANCHKULA,PANCHKULA,HARYANA,9811114554
421,UTKARSH SMALL FINANCE BANK,UTKS0001509,BHOPAL,"UTKARSH SMALL FINANCE BANK,GROUND FLOOR,PLOT NO.178,MAHARANA PRATAP NAGAR,ZONE 2,BHOPAL,MADHYA PRADESH,PIN -462016",BHOPAL,BHOPAL,MADHYA PRADESH,7697602185
422,UTKARSH SMALL FINANCE BANK,UTKS0001510,KOLKATA,"UTKARSH SMALL FINANCE BANK,GROUND FLOOR BC -28 SALT LAKE CITY,SECTOR -1,NEAR BIDHAN NAGAR POST OFFICE,WATER TANK NO.3,SALT LAKE CITY,KOLKATA -700064",KOLKATA,KOLKATA,WEST BENGAL,9836955559
423,UTKARSH SMALL FINANCE BANK,UTKS0001511,BHAGALPUR,"GROUND FLOOR,SUMAN PLAZA,NETAJI SHUBHASH CHANDRA BOSE ROAD,NH-80,TILKA MANJHI,POST OFFICE - BHAGALPUR,DISTRICT - BHAGALPUR,BIHAR PIN-812001",BHAGALPUR,BHAGALPUR,BIHAR,8969126150
424,UTKARSH SMALL FINANCE BANK,UTKS0001512,PREET VIHAR,"GROUND FLOOR,9,PARK END,PANJATANI CO-OP HOUSE BUILDING SOCIETY LTD,VIKAS MARG,DELHI-110092",DELHI,DELHI,DELHI,8130799513
425,UTKARSH SMALL FINANCE BANK,UTKS0001513,LANKA,"GROUND FLOOR,B/36/10,PJR SHEETAL COMPLEX,DURGAKUND,DIST VARANASI,STATE - UTTAR PRADESH,PIN - 221005",VARANASI,VARANASI,UTTAR PRADESH,9598057580
426,UTKARSH SMALL FINANCE BANK,UTKS0001514,NOIDA,"F-20,SECTOR-18,NOIDA,U.P.-201301",GAUTAM BUDDH NAGAR,NOIDA,UTTAR PRADESH,8006512410
427,UTKARSH SMALL FINANCE BANK,UTKS0001515,INDORE,"SHOP NO.G-1,G-6,G-9,GROUND FLOOR,MANGAL CITY MALL& HOTEL,PLOT NO-A-1,SCHEME NO.54,PU-4 COMMERCIAL,INDORE,MADHYA PRADESH-452010",INDORE,INDORE,MADHYA PRADESH,9589611171
428,UTKARSH SMALL FINANCE BANK,UTKS0001516,AGRA,"SHOP NO.G-12& B-12,FRIENDS WASAN PLAZA,17/2/4,SANJAY PLACE,AGRA,UTTAR PRADESH-282002",AGRA,AGRA,UTTAR PRADESH,9984050022
429,UTKARSH SMALL FINANCE BANK,UTKS0001517,DEHRADUN,GROUND FLOOR MUNICIPAL NUMBER 1 ASHOK VIHAR GMS ROAD KHASRA NO 504/2 MIN MAUZA KANWALI PARGANA CENTRAL DOON DISTT DEHRADUN UTTARAKHAND 248001,DEHRADUN,DEHRADUN,UTTARAKHAND,9719028884
430,UTKARSH SMALL FINANCE BANK,UTKS0001518,MEERUT,"G-1,G-2,G-3,VARDHMAN PLAZA,PANCHVATI,SHIV SAROVAR,GARH ROAD MEERUT,UTTAR PRADESH PIN-250002",MEERUT,MEERUT,UTTAR PRADESH,9540284445
431,UTKARSH SMALL FINANCE BANK,UTKS0001519,PUNJABI BAGH,"PLOT NO.38,ADARSH BHAWAN,CO-OPERATIVE HOUSE BUILDINGSOCIETY LTD.ON NORTH WEST,AVENUE ROAD,PUNJABI BAGHEXTENSION,NEAR PUNJABI BAGH NEW DELHI - 110026",NEW DELHI,DELHI,DELHI,8527177765
432,UTKARSH SMALL FINANCE BANK,UTKS0001520,TILAK NAGAR,"MUNICIPAL NO.WZ-1128 MEENAKSHI GARDEN,POST-MEENAKSHI,GARDEN,THANA HARI NAGAR,DISTRICT WEST DELHI,DELHI-110018",WEST DELHI,DELHI,DELHI,9811137476
433,UTKARSH SMALL FINANCE BANK,UTKS0001522,GHAZIABAD,"D-17, RAJ NAGAR DISTRICT CENTER (RDC), GHAZIABAD,UP-201001",GHAZIABAD,GHAZIABAD,UTTAR PRADESH,9958407384
434,UTKARSH SMALL FINANCE BANK,UTKS0001525,HAJIPUR,"FLAT NO.G-1 SARYU RESIDENCY,BAGHMALI MAIN ROAD,TOWN HAJIPUR,DISTRICT VAISHALI,BIHAR - 844101",VAISHALI,HAJIPUR,BIHAR,7781006223
435,UTKARSH SMALL FINANCE BANK,UTKS0001530,"SAKCHI,JAMSHEDPUR",TISCO LEASE HOLDING NO.66 PENNAR,EAST SINGHBHUM,JAMSHEDPUR,JHARKHAND,7091091451
