,BANK NAME,IFSC,OFFICE,ADDRESS,DISTRICT,CITY,STATE,PHONE
0,PRAGATHI KRISHNA GRAMIN BANK,PKGB0010500,HO BELLARY,"P.B.NO 55,32,SANGANAKAL ROAD,GANDHINAGAR,BELLARY",BELLARY,BELLARY,KARNATAKA,236403
1,PRAGATHI KRISHNA GRAMIN BANK,PKGB0010503,RO SHIMOGA,"P.B. NO 136, K.V.VENKATARAMAIH ROAD,NEAR HOT,SHIMOGA",SHIMOGA,SHIMOGA,KARNATAKA,279103
2,PRAGATHI KRISHNA GRAMIN BANK,PKGB0010504,RO BELLARY,"MODI CHAMBERS , I I CROSS , GANDHINAGAR,BELLARY",BELLARY,BELLARY,KARNATAKA,254008
3,PRAGATHI KRISHNA GRAMIN BANK,PKGB0010506,RO CHITRADURGA,"P B NO 70 , I.U.D.P. LAY-OUT, N.H-4,CHITRADURGA",CHITRADURGA,CHITRADURGA,KARNATAKA,234374
4,PRAGATHI KRISHNA GRAMIN BANK,PKGB0010508,DAVANAGEREREGIONAL OFFICE,"NO,2766, CHAITRA COMPLEX ,MAMAS JOINT ROAD,DAVANAGERE",DAVANGERE,DAVANGERE,KARNATAKA,233494
5,PRAGATHI KRISHNA GRAMIN BANK,PKGB0010509,REGIONAL OFFICE GULBARGA,KUSHNOOR ROAD GULBARGA,GULBARGA,GULBARGA,KARNATAKA,224055
6,PRAGATHI KRISHNA GRAMIN BANK,PKGB0010510,REGIONAL OFFICE BIDAR,"HAVAPPA COMPLEX,SHIVANAGAR,UDGIR ROAD,BIDAR",BIDAR,BIDAR,KARNATAKA,226060
7,PRAGATHI KRISHNA GRAMIN BANK,PKGB0010511,REGIONAL OFFICE YADGIR,"KHAJA COMPLEX CHITTAPUR ROAD,YADGIR",YADGIR,YADGIR,KARNATAKA,225363
8,PRAGATHI KRISHNA GRAMIN BANK,PKGB0010512,REGIONAL OFFICE KOLAR,"NO.900, BEHIND ST.ANNE SCHOOL, SULTHAN,KOLAR-REGIONAL OFFICE",KOLAR,KOLAR,KARNATAKA,222473
9,PRAGATHI KRISHNA GRAMIN BANK,PKGB0010513,KOPPAL REGIONAL OFFICE,"OPP D.C OFFICE COMPLEX,HOSPET ROAD,KOPPAL REGIONAL OFFICE",KOPPAL,KOPPAL,KARNATAKA,221318
10,PRAGATHI KRISHNA GRAMIN BANK,PKGB0010514,RO RAICHUR,"REGIONAL OFFICE,RAICHUR",RAICHUR,RAICHUR,KARNATAKA,232543
11,PRAGATHI KRISHNA GRAMIN BANK,PKGB0010516,ABBALUDU,"THE MANAGER, PRAGATHI KRISHNA GRAMIN BANK, ABBULODU BRANCH, SIDLAGHATTA TALUK, CHIKKABALLAPURA DISTRICT, PIN562 105",CHIKKABALLAPURA,SIDLAGHATTA,KARNATAKA,258518
12,PRAGATHI KRISHNA GRAMIN BANK,PKGB0010517,ADDAGAL,"THE MANAGER, PRAGATHI KRISHNA GRAMIN BANK, ADDAGAL BRANCH, SRINIVASAPURA TALUK, KOLAR DISTRICT, PIN563 161",KOLAR,SRINIVASPURA,KARNATAKA,247641
13,PRAGATHI KRISHNA GRAMIN BANK,PKGB0010518,ANAVATTI,"THE MANAGER,PRAGATHI KRISHNA GRAMIN BANK,ANAVATTI BRANCH, SORABA TALUK, SHIVAMOGGA DISTRICT, PIN 577 413,",SHIMOGA,SORABA,KARNATAKA,267234
14,PRAGATHI KRISHNA GRAMIN BANK,PKGB0010519,ANEHOSUR,"THE MANAGER,PRAGATHI KRISHNA GRAMIN BANK,ANE HOSUR BRANCH,LINGASUGUR TALUK,RAICHUR DISTRICT,PIN 584 122",RAICHUR,LINGASUGUR,KARNATAKA,287147
15,PRAGATHI KRISHNA GRAMIN BANK,PKGB0010520,APMC YARD,"THE MANAGER,PRAGATHI KRISHNA GRAMIN BANK,SINDHANURAPMC YARD,SINDHANUR TALUK,RAICHUR DISTRICT,PIN584 128",RAICHUR,SINDHANUR,KARNATAKA,221402
16,PRAGATHI KRISHNA GRAMIN BANK,PKGB0010521,ARALIHALLY,ARALIHALLY,SHIMOGA,BHADRAVATHI,KARNATAKA,242804
17,PRAGATHI KRISHNA GRAMIN BANK,PKGB0010522,ARANAKATTE,"THE MANAGER,PRAGATHI KRISHNA GRAMIN BANK,ARANAKATTE BRANCH,HIRIYUR TALUK,CHITRADURGA DISTRICT,PIN577 596",CHITRADURGA,HIRIYUR,KARNATAKA,281969
18,PRAGATHI KRISHNA GRAMIN BANK,PKGB0010523,ARASIKERE,"THE MANAGER, PRAGATHI KRISHNA GRAMIN BANK,1ST FLOOR,MAIN ROAD, ARASIKERE BRANCH, HARAPANAHALLY TALUK,DAVANAGERE DISTRICT PIN - 583125,",DAVANGERE,HARAPANAHALLY,KARNATAKA,270094
19,PRAGATHI KRISHNA GRAMIN BANK,PKGB0010524,AREHALLI,"THE MANAGER,PRAGATHI KRISHNA GRAMIN BANK,AREHALLI BRANCH,HOLALKERE TALUK,CHITRADURGA DISTRICT,PIN577 518",CHITRADURGA,HOLALKERE,KARNATAKA,275380
20,PRAGATHI KRISHNA GRAMIN BANK,PKGB0010525,ARKERA,"THE MANAGER,PRAGATHI KRISHNA GRAMIN BANK,ARKERA BRANCH,DEODURGA TALUK,RAICHUR DISTRICT,PIN 584 111",RAICHUR,DEODURGA,KARNATAKA,269048
21,PRAGATHI KRISHNA GRAMIN BANK,PKGB0010526,ATTIGERE,"THE MANAGER,PRAGATHI KRISHNA GRAMIN BANK, ATTIGERE BRANCH, DAVANGERE TALUK,DAVANGERE DISTRICT, PIN577 574,",DAVANGERE,DAVANGERE,KARNATAKA,267267
22,PRAGATHI KRISHNA GRAMIN BANK,PKGB0010527,AVANI,"THE MANAGER, PRAGATHI KRISHNA GRAMIN BANK, VIA DEVARAYASAMUDRAM, AVANI BRANCH563 141, MULBAGALU TALUK, KOLAR DISTRICT",KOLAR,MULBAGALU,KARNATAKA,230025
23,PRAGATHI KRISHNA GRAMIN BANK,PKGB0010528,AVINAHALLI,"THE MANAGER, PRAGATHI KRISHNA GRAMIN BANK, AVINAHALLI BRANCH, SAGARA TALUK,SHIVAMOGGA DISTRICT, PIN 577 401,",SHIMOGA,SAGARA,KARNATAKA,255858
24,PRAGATHI KRISHNA GRAMIN BANK,PKGB0010529,B.DURGA,"THE MANAGER,PRAGATHI KRISHNA GRAMIN BANK,B. DURGA BRANCH,HOLALKERE TALUK,CHITRADURGA DISTRICT,PIN 577 518",CHITRADURGA,HOLALKERE,KARNATAKA,284361
25,PRAGATHI KRISHNA GRAMIN BANK,PKGB0010530,B G KERE,"THE MANAGER,PRAGATHI KRISHNA GRAMIN BANK,B G KERE BRANCH,MOLAKALMURU TALUK,CHITRADURGA DISTRICT,PIN577 529",CHITRADURGA,MOLAKALMURU,KARNATAKA,272191
26,PRAGATHI KRISHNA GRAMIN BANK,PKGB0010531,B T CROSS,"THE MANAGER,PRAGATHI KRISHNA GRAMIN BANK,B T CROSS BRANCH,MOLAKALMURU TALUK,CHITRADURGA DISTRICT,PIN577 540",CHITRADURGA,MOLAKALMURU,KARNATAKA,212589
27,PRAGATHI KRISHNA GRAMIN BANK,PKGB0010532,BACHIGONDANHALLI,"THE MANAGER, PRAGATHI KRISHNA GRAMIN BANK,BACHI GONDANA HALLIH B HALLI TALUKBELLARY DISTRICT PIN583 238",BELLARY,HAGARIBOMMANAHALLI,KARNATAKA,233082
28,PRAGATHI KRISHNA GRAMIN BANK,PKGB0010533,BADA,"THE MANAGER, PRAGATHI KRISHNA GRAMIN BANK, BADA BRANCH, DAVANGERE TALUK&DISTRICT,PIN577 574,",DAVANGERE,DAVANGERE,KARNATAKA,210330
29,PRAGATHI KRISHNA GRAMIN BANK,PKGB0010534,BADAMAKANAHALLI,BADAMAKANAHALLI,KOLAR,BANGARPET,KARNATAKA,212325
30,PRAGATHI KRISHNA GRAMIN BANK,PKGB0010535,BAGALWAD,"THE MANAGER,PRAGATHI KRISHNA GRAMIN BANK,BAGALWADA BRANCH,MANVI TALUK,RAICHUR DISTRICT,PIN584 120",RAICHUR,MANVI,KARNATAKA,272037
31,PRAGATHI KRISHNA GRAMIN BANK,PKGB0010536,BAGEPALLY,"THE MANAGER, PRAGATHI KRISHNA GRAMIN BANK, K G BUILDING,DVG ROAD, BAGEPALLI TOWN561 207, BAGEPALLI TALUK, CHIKKABALLAPURA DISTRICT",CHIKKABALLAPURA,BAGEPALLI,KARNATAKA,283057
32,PRAGATHI KRISHNA GRAMIN BANK,PKGB0010537,BAGURU,"THE MANAGER,PRAGATHI KRISHNA GRAMIN BANK,BAGURU BRANCH,HOSADURGA TALUK,CHITRADURGA DISTRICT,PIN577 515",CHITRADURGA,HOSADURGA,KARNATAKA,286005
33,PRAGATHI KRISHNA GRAMIN BANK,PKGB0010538,BAHADDURGHATTA,"THE MANAGER,PRAGATHI KRISHNA GRAMIN BANK,BAHADDURGHATTA BRANCH,CHITRADURGA TALUK,CHITRADURGA DISTRICT,PIN577 519",CHITRADURGA,CHITRADURGA,KARNATAKA,247607
34,PRAGATHI KRISHNA GRAMIN BANK,PKGB0010539,BALLALA SAMUDRA,"THE MANAGER,PRAGATHI KRISHNA GRAMIN BANK,BALLALA SAMUDRA BRANCH,HOSADURGA TALUK,CHITRADURGA DISTRICT,PIN573 114",CHITRADURGA,HOSADURGA,KARNATAKA,245534
35,PRAGATHI KRISHNA GRAMIN BANK,PKGB0010540,BALLATGI,"THE MANAGER,PRAGATHI KRISHNA GRAMIN BANK,BALLATAGI BRANCH,MANVI TALUK,RAICHUR DISTRICT,PIN584 123",RAICHUR,MANVI,KARNATAKA,242499
36,PRAGATHI KRISHNA GRAMIN BANK,PKGB0010541,BANAPURA,"THE MANAGER, PRAGATHI KRISHNA GRAMIN BANK,GOTUR POST VIA MOKABANAPURA BRANCH BELLARY TALUK & DISTPIN583 117",BELLARY,BELLARY,KARNATAKA,296612
37,PRAGATHI KRISHNA GRAMIN BANK,PKGB0010542,BANVIKAL,"THE MANAGER, PRAGATHI KRISHNA GRAMIN BANK,BANAVIKAL BRANCH KUDLIGI TALUKBELLARY DISTRICT PIN583 126",BELLARY,KUDLIGI,KARNATAKA,229022
38,PRAGATHI KRISHNA GRAMIN BANK,PKGB0010543,BANDI,"THE MANAGER,PRAGATHI KRISHNA GRAMIN BANK,BANDI BRANCH,YELBURGA TALUK, KOPPAL DISTRICT,PIN584 131",KOPPAL,YELBURGA,KARNATAKA,288471
39,PRAGATHI KRISHNA GRAMIN BANK,PKGB0010544,BANDRI,"THE MANAGER,PRAGATHI KRISHNA GRAMIN BANK, VASAVI BANDRI BRANCH SANDUR TALUK BELLARYDISTRICTPIN583 124",BELLARY,SANDUR,KARNATAKA,277345
40,PRAGATHI KRISHNA GRAMIN BANK,PKGB0010545,BANGARPET,"THE MANAGER, PRAGATHI KRISHNA GRAMIN BANK, BAPNA COMPLEX,KUVEMPU CIRCLE, BANGARPET TOWN563 114, BANGARPET TOWN, KOLAR DISTRICT",KOLAR,BANGARPET,KARNATAKA,257733
41,PRAGATHI KRISHNA GRAMIN BANK,PKGB0010546,BASAPATNA,"THE MANAGER, PRAGATHI KRISHNA GRAMIN BANK,BASAPATNA BRANCH, GANGAVATHI TALUK, KOPPAL DISTRICT,PIN583 235",KOPPAL,GANGAVATHI,KARNATAKA,238207
42,PRAGATHI KRISHNA GRAMIN BANK,PKGB0010547,BASAVANAKOTE,"THE MANAGER, PRAGATHI KRISHNA GRAMIN BANK,BASAVANAKOTE BRANCH, JAGALUR TALUK, DAVANGERE DISTRICT, PIN577 513,",DAVANGERE,JAGALUR,KARNATAKA,246592
43,PRAGATHI KRISHNA GRAMIN BANK,PKGB0010548,BASETTIHALLI,"THE MANAGER, PRAGATHI KRISHNA GRAMIN BANK, BASHETTIHALLI BRANCH, SIDLAGHATTA TALUK, CHIKKABALLAPURA DIST, PIN562 105",CHIKKABALLAPURA,SIDLAGHATTA,KARNATAKA,257820
44,PRAGATHI KRISHNA GRAMIN BANK,PKGB0010549,BILLUR,"THE MANAGER, PRAGATHI KRISHNA GRAMIN BANK, BILLUR BRANCH, BAGEPALLI TALUK, CHIKKABALLAPURA DIST, PIN563 124",CHIKKABALLAPURA,BAGEPALLI,KARNATAKA,288850
45,PRAGATHI KRISHNA GRAMIN BANK,PKGB0010550,BELAGERE,"THE MANAGER,PRAGATHI KRISHNA GRAMIN BANK,BELAGERE BRANCH,CHALLAKERE TALUK,CHITRADURGA DISTRICT,PIN577 522",CHITRADURGA,CHALLAKERE,KARNATAKA,266556
46,PRAGATHI KRISHNA GRAMIN BANK,PKGB0010551,BELAMARANAHALLI,BELAMARANAHALLI,KOLAR,KOLAR,KARNATAKA,231092
47,PRAGATHI KRISHNA GRAMIN BANK,PKGB0010552,BELLARY ROADHOSPET,"THE MANAGER, PRAGATHI KRISHNA GRAMIN BANK,D NO.39/1 1ST FLOOR J P NAGARBELLARY ROAD BRANCHHOSPET TOWN583 201 BELLARY DISTRICT",BELLARY,HOSPET,KARNATAKA,265936
48,PRAGATHI KRISHNA GRAMIN BANK,PKGB0010553,BELLODI,"THE MANAGER,PRAGATHI KRISHNA GRAMIN BANK,BELLODI BRANCH, HARIHARA TALUK, DAVANAGERE DISTRICT,PIN577 601,",DAVANGERE,HARIHARA,KARNATAKA,280548
49,PRAGATHI KRISHNA GRAMIN BANK,PKGB0010554,BENAKANAHALLI,"THE MANAGER, PRAGATHI KRISHNA GRAMIN BANK, BENAKANAHALLIBRANCH, HONNALI TALUK,DAVANAGERE DISTRICT, PIN577 224,",DAVANGERE,HONNALI,KARNATAKA,242528
50,PRAGATHI KRISHNA GRAMIN BANK,PKGB0010555,BETHUR,"THE MANAGER,PRAGATHI KRISHNA GRAMIN BANK,BETHUR BRANCH, DAVANAGERE TALUK & DISTIRCT,PIN577 002,",DAVANGERE,DAVANGERE,KARNATAKA,277114
51,PRAGATHI KRISHNA GRAMIN BANK,PKGB0010556,BEVOOR,"THE MANAGER,PRAGATHI KRISHNA GRAMIN BANK, BEVOOR BRANCH,YELBURGA TALUK,KOPPAL DISTRICT, PIN583 237",KOPPAL,YELBURGA,KARNATAKA,227617
52,PRAGATHI KRISHNA GRAMIN BANK,PKGB0010557,BHADRAVATHI,"THE MANAGER, PRAGATHI KRISHNA GRAMIN BANK,1ST FLOOR, TALUK OFFICE ROAD, BHADRAVATHI TOWN,SHIVAMOGGA DISTRICT, PIN577 301,",SHIMOGA,BHADRAVATHI,KARNATAKA,269389
53,PRAGATHI KRISHNA GRAMIN BANK,PKGB0010558,BHAGYANAGAR KOPPAL,"THE MANAGER, PRAGATHI KRISHNA GRAMIN BANK, BHAGYANAGARBRANCH,KOPPAL TALUK &DISTRICT,PIN538 213",KOPPAL,KOPPAL,KARNATAKA,234129
54,PRAGATHI KRISHNA GRAMIN BANK,PKGB0010559,BIDARAKERE,"THE MANAGER,PRAGATHI KRISHNA GRAMIN BANK,BIDARKERE BRANCH, JAGALUR TALUK, DAVANGERE DISTRICT, PIN577 521,",DAVANGERE,JAGALUR,KARNATAKA,269677
55,PRAGATHI KRISHNA GRAMIN BANK,PKGB0010560,BOODIVAL CAMP,"THE MANAGER,PRAGATHI KRISHNA GRAMIN BANK,BOODIVAL CAMP BRANCH,SINDHANUR TALUK,RAICHUR DISTRICT,PIN584 167",RAICHUR,SINDHANUR,KARNATAKA,256824
56,PRAGATHI KRISHNA GRAMIN BANK,PKGB0010561,BUDUGUMPAG,"THE MANAGER,PRAGATHI KRISHNA GRAMIN BANK,BUDUGUMPA G BRANCH,GANGAVATHI TALUK,KOPPAL DISTRICT, PIN583 229",KOPPAL,GANGAVATHI,KARNATAKA,275810
57,PRAGATHI KRISHNA GRAMIN BANK,PKGB0010562,BUDUGUMPAK,"THE MANAGER,PRAGATHI KRISHNA GRAMIN BANK,BUDUGUMPA K, BRANCH,KOPPAL TALUK &DISTRICT, PIN583 228",KOPPAL,KOPPAL,KARNATAKA,277772
58,PRAGATHI KRISHNA GRAMIN BANK,PKGB0010563,BURUDUGUNTE,"THE MANAGER, PRAGATHI KRISHNA GRAMIN BANK, BURUDUGUNTE BRANCH, CHINTHAMANI TALUK, CHIKKABALLAPURA DISTRICT, PIN563 159",CHIKKABALLAPURA,CHINTAMANI,KARNATAKA,247624
59,PRAGATHI KRISHNA GRAMIN BANK,PKGB0010564,BYADARAHALLY,"THE MANAGER,PRAGATHI KRISHNA GRAMIN BANK,BYEDARAHALLY BRANCH,HIRIYUR TALUK,CHITRADURGA DISTRICT,PIN577 546",CHITRADURGA,HIRIYUR,KARNATAKA,206197
60,PRAGATHI KRISHNA GRAMIN BANK,PKGB0010565,CHIKKAGONDANAHALLI,"THE MANAGER,PRAGATHI KRISHNA GRAMIN BANK,CHIKKAGONDANAHALLI BRANCH,CHITRADURGA TALUK,CHITRADURGA DISTRICT,PIN563 161",CHITRADURGA,CHITRADURGA,KARNATAKA,252032
61,PRAGATHI KRISHNA GRAMIN BANK,PKGB0010566,CHITRANAYAKANA HALLY,"THE MANAGER,PRAGATHI KRISHNA GRAMIN BANK,CHITRANAYAKANA HALLY,CHALLAKERE TALUK,CHITRADURGA DISTRICT,PIN563 161",CHITRADURGA,CHALLAKERE,KARNATAKA,200042
62,PRAGATHI KRISHNA GRAMIN BANK,PKGB0010567,CHALGERA,"THE MANAGER, PRAGATHI KRISHNA GRAMIN BANK, CHALAGERA BRANCH,KUSTAGI TALUK,KOPPAL DISTRICT,PIN584 120",KOPPAL,KUSTAGI,KARNATAKA,288119
63,PRAGATHI KRISHNA GRAMIN BANK,PKGB0010568,CHALLAKERE,"THE MANAGER,PRAGATHI KRISHNA GRAMIN BANK,BANGALORE ROAD,CHALLAKERE TOWN,CHITRADURGA DISTRICT,PIN577 522",CHITRADURGA,CHALLAKERE,KARNATAKA,222358
64,PRAGATHI KRISHNA GRAMIN BANK,PKGB0010569,CHANDRABANDA,"THE MANAGER,PRAGATHI KRISHNA GRAMIN BANK,CHANDRABANDA BRANCH,RAICHUR TALUK,RAICHUR DISTRICT,PIN584 102",RAICHUR,RAICHUR,KARNATAKA,280193
65,PRAGATHI KRISHNA GRAMIN BANK,PKGB0010570,CHANNAGIRI,"THE MANAGER, PRAGATHI KRISHNA GRAMIN BANK, MURUGHARAJENDRA COMPLEX, CHANNAGIRI TOWN,DAVANGERE DISTRICT, PIN577 213,",DAVANGERE,CHANNAGIRI,KARNATAKA,228186
66,PRAGATHI KRISHNA GRAMIN BANK,PKGB0010571,CHEEMANGALA,"THE MANAGER, PRAGATHI KRISHNA GRAMIN BANK, CHEEMANGALA BRANCH, SIDLAGHATTA TALUK, CHIKKABALLAPURA DISTRICT, PIN562 102",CHIKKABALLAPURA,SIDLAGHATTA,KARNATAKA,257487
67,PRAGATHI KRISHNA GRAMIN BANK,PKGB0010572,CHELLAGURKI,"THE MANAGER, PRAGATHI KRISHNA GRAMIN BANK,CHELLAGURKE BRANCHBELLARY TALUK BELLARY DISTRICTPIN583 111",BELLARY,BELLARY,KARNATAKA,295452
68,PRAGATHI KRISHNA GRAMIN BANK,PKGB0010573,CHELLUR,"THE MANAGER,PRAGATHI KRISHNA GRAMIN BANK,CHELLUR BRANCH,GANGAVATHI TALUK, KOPPAL DISTRICT,PIN583 117",KOPPAL,GANGAVATHI,KARNATAKA,258447
69,PRAGATHI KRISHNA GRAMIN BANK,PKGB0010574,CHELUR,"THE MANAGER, PRAGATHI KRISHNA GRAMIN BANK, CHELUR BRANCH, BAGEPALLI TALUK, CHIKKABALLAPURA DIST, PIN563 124",CHIKKABALLAPURA,BAGEPALLI,KARNATAKA,280172
70,PRAGATHI KRISHNA GRAMIN BANK,PKGB0010575,CHIGATERI,"THE MANAGER,PRAGATHI KRISHNA GRAMIN BANK,CHIGATERI BRANCH, HARAPANAHALLI TALUK, DAVANAGERE DISTRICT, PIN584 127,",DAVANGERE,HARAPANAHALLY,KARNATAKA,274893
71,PRAGATHI KRISHNA GRAMIN BANK,PKGB0010576,CHIKALAPARVI,"THE MANAGER,PRAGATHI KRISHNA GRAMIN BANK,CHIKALAPARVI BRANCH,MANVI TALUK,RAICHUR DISTRICT,PIN584 123",RAICHUR,MANVI,KARNATAKA,202722
72,PRAGATHI KRISHNA GRAMIN BANK,PKGB0010577,CHICKBALLAPUR,"THE MANAGER, PRAGATHI KRISHNA GRAMIN BANK, TAPCMS COMPLEX,B B ROAD, , CHIKKABALLAPURA TOWN, CHIKKABALLAPURA DISTRICT, PIN562 101",CHIKKABALLAPURA,CHIKKABALLAPURA,KARNATAKA,271015
73,PRAGATHI KRISHNA GRAMIN BANK,PKGB0010578,CHIKKABENNUR,"THE MANAGER,PRAGATHI KRISHNA GRAMIN BANK,CHIKKABANNUR BRANCH,CHITRADURGA TALUK,CHITRADURGA DISTRICT,PIN577 541",CHITRADURGA,CHITRADURGA,KARNATAKA,245853
74,PRAGATHI KRISHNA GRAMIN BANK,PKGB0010579,CHIKKAYAMMIGANUR,"THE MANAGER,PRAGATHI KRISHNA GRAMIN BANK,CHIKKAYAMMIGANUR BR,HOLALKERE TALUK,CHITRADURGA DISTRICT,PIN577 523",CHITRADURGA,HOLALKERE,KARNATAKA,207250
75,PRAGATHI KRISHNA GRAMIN BANK,PKGB0010580,CHILAKALLANERPU,"THE MANAGER, PRAGATHI KRISHNA GRAMIN BANK, CHILAKALANERPU BRANCH, CHINTHAMANI TALUK, CHIKKABALLAPURA DIST, PIN563 153",CHIKKABALLAPURA,CHINTAMANI,KARNATAKA,256001
76,PRAGATHI KRISHNA GRAMIN BANK,PKGB0010581,CHINTAMANI,"THE MANAGER, PRAGATHI KRISHNA GRAMIN BANK, NANDI COMPLEX,VASAVI CHOULTRY RD, CHINTHAMANI TOWN, CHIKKABALLAPURA DISTRICT, PIN563 125",CHIKKABALLAPURA,CHINTAMANI,KARNATAKA,252246
77,PRAGATHI KRISHNA GRAMIN BANK,PKGB0010582,CHORANUR,"THE MANAGER, PRAGATHI KRISHNA GRAMIN BANK,CHORNUR BRANCH SANDUR TALUK BELLARY DISTRICT PIN583 128",BELLARY,SANDUR,KARNATAKA,272501
78,PRAGATHI KRISHNA GRAMIN BANK,PKGB0010583,COLLEGE ROAD HOSPET,"THE MANAGER, PRAGATHI KRISHNA GRAMIN BANK,NEAR SHANBHOGE CIRCLE COLLEGE ROADHOSPET TOWN PIN583 201",BELLARY,HOSPET,KARNATAKA,227257
79,PRAGATHI KRISHNA GRAMIN BANK,PKGB0010584,COWL BAZAR,"THE MANAGER, PRAGATHI KRISHNA GRAMIN BANK,JUMMA MASJID COMPLEXCOUL BAZAR BELLARY TOWN583 102BELLARY DISTRICT",BELLARY,BELLARY,KARNATAKA,240395
80,PRAGATHI KRISHNA GRAMIN BANK,PKGB0010585,DEVARABELAKERE,"THE MANAGER,PRAGATHI KRISHNA GRAMIN BANK, D B KERE BRANCH, HARIHARA TALUK, DAVANGERE DISTRICT, PIN - 577 002,",DAVANGERE,HARIHARA,KARNATAKA,293136
81,PRAGATHI KRISHNA GRAMIN BANK,PKGB0010586,D S HALLY,"D S HALLY,CHITRADURGA TQ",CHITRADURGA,CHITRADURGA,KARNATAKA,246151
82,PRAGATHI KRISHNA GRAMIN BANK,PKGB0010587,DT VATTY,"THE MANAGER,PRAGATHI KRISHNA GRAMIN BANK,DTVATTY,HOSADURGA TALUK,CHITRADURGA DISTRICT,PIN - 577 533",CHITRADURGA,HOSADURGA,KARNATAKA,285672
83,PRAGATHI KRISHNA GRAMIN BANK,PKGB0010588,DALASANUR,"THE MANAGER, PRAGATHI KRISHNA GRAMIN BANK, DALASANUR BRANCH, SRINIVASAPURA TALUK, KOLAR DISTRICT, PIN - 563 126",KOLAR,SRINIVASPURA,KARNATAKA,249570
84,PRAGATHI KRISHNA GRAMIN BANK,PKGB0010589,HOSPET DAM ROAD,"THE MANAGER, PRAGATHI KRISHNA GRAMIN BANK,1ST FLOOR MANJUNATHA COMPLEXDAM ROAD BRANCHHOSPET TOWN - 583 201BELLARY DISTRICT",BELLARY,HOSPET,KARNATAKA,265936
85,PRAGATHI KRISHNA GRAMIN BANK,PKGB0010590,P J EXTENSION DVG,"78/5 1ST FLOOR, RAITHRA BEEDI ,AKKAMAHADEVI ROAD,DAVNGERE",DAVANGERE,DAVANGERE,KARNATAKA,250694
86,PRAGATHI KRISHNA GRAMIN BANK,PKGB0010591,DEODURG,"THE MANAGER,PRAGATHI KRISHNA GRAMIN BANK,NEAR HOSPITAL,DEODURGA TOWN - 584 111,DEODURGA TALUK,RAICHUR DISTRICT",RAICHUR,DEODURGA,KARNATAKA,260029
87,PRAGATHI KRISHNA GRAMIN BANK,PKGB0010592,DEVASAMUDRA,"THE MANAGER, PRAGATHI KRISHNA GRAMIN BANK,DEVASAMUDRA BRANCH HOSPET TALUK BELLARY DISTRICT PIN - 583 129",BELLARY,HOSPET,KARNATAKA,243296
88,PRAGATHI KRISHNA GRAMIN BANK,PKGB0010593,DEVIGERE,"THE MANAGER,PRAGATHI KRISHNA GRAMIN BANK, DEVIGERE BRANCH, JAGALUR TALUK,DAVANGERE DISTRICT, PIN - 577 553,",DAVANGERE,JAGALUR,KARNATAKA,287467
89,PRAGATHI KRISHNA GRAMIN BANK,PKGB0010594,DHADESUGUR,"THE MANAGER,PRAGATHI KRISHNA GRAMIN BANK,DHADESUGUR BRANCH,SINDHANUR TALUK,RAICHUR DISTRICT,PIN - 584 167",RAICHUR,SINDHANUR,KARNATAKA,284024
90,PRAGATHI KRISHNA GRAMIN BANK,PKGB0010595,DHARMAPURA,"THE MANAGER,PRAGATHI KRISHNA GRAMIN BANK,DHARMAPURA BRANCH,HIRIYUR TALUK,CHITRADURGA DISTRICT,PIN - 577 546",CHITRADURGA,HIRIYUR,KARNATAKA,278190
91,PRAGATHI KRISHNA GRAMIN BANK,PKGB0010596,DHARMASAGARA,"THE MANAGER, PRAGATHI KRISHNA GRAMIN BANK,DHARMASAGARA BRANCHHOSPET TALUKBELLARY DISTRICTPIN - 583 223",BELLARY,HOSPET,KARNATAKA,212259
92,PRAGATHI KRISHNA GRAMIN BANK,PKGB0010597,DIBBUR,"THE MANAGER, PRAGATHI KRISHNA GRAMIN BANK, DIBBUR BRANCH, CHIKKABALLAPURA TALUK, CHIKKABALLAPURA DISTRICT, PIN - 562 101",CHIKKABALLAPURA,CHIKKABALLAPURA,KARNATAKA,276018
93,PRAGATHI KRISHNA GRAMIN BANK,PKGB0010598,DODDAULLARTHY,"THE MANAGER,PRAGATHI KRISHNA GRAMIN BANK,DODDAULLARTHY BRANCH,CHALLAKERE TALUK,CHITRADURGA DISTRICT,PIN - 577 537",CHITRADURGA,CHALLAKERE,KARNATAKA,261100
94,PRAGATHI KRISHNA GRAMIN BANK,PKGB0010599,DONGARAMPUR,"THE MANAGER,PRAGATHI KRISHNA GRAMIN BANK,DONGARAMPURA BRANCH,VIA YARAMARAS CAMP,RAICHUR TALUK & DIST,PIN - 584 134",RAICHUR,RAICHUR,KARNATAKA,280611
95,PRAGATHI KRISHNA GRAMIN BANK,PKGB0010600,DOTHIHAL,"THE MANAGER, PRAGATHI KRISHNA GRAMIN BANK, DOTHIHAL BRANCH,KUSTAGI TALUK, KOPPAL DISTRICT,PIN - 583 112",KOPPAL,KUSTAGI,KARNATAKA,265016
96,PRAGATHI KRISHNA GRAMIN BANK,PKGB0010601,G R HALLI,"G R HALLI,CHITRADURGA",CHITRADURGA,CHITRADURGA,KARNATAKA,202635
97,PRAGATHI KRISHNA GRAMIN BANK,PKGB0010602,GABBUR,"THE MANAGER,PRAGATHI KRISHNA GRAMIN BANK,GABBUR BRANCH,DEODURGA TALUK,RAICHUR DISTRICT ,PIN - 584 113",RAICHUR,DEODURGA,KARNATAKA,275263
98,PRAGATHI KRISHNA GRAMIN BANK,PKGB0010603,GALAG,"THE MANAGER,PRAGATHI KRISHNA GRAMIN BANK,GALAG BRANCH,DEODURGA TALUK,RAICHUR DISTRICT,PIN - 584 116",RAICHUR,DEODURGA,KARNATAKA,209051
99,PRAGATHI KRISHNA GRAMIN BANK,PKGB0010604,GANDHINAGAR R,"THE MANAGER,PRAGATHI KRISHNA GRAMIN BANK,GANDHINAGARR ,SINDHANUR TALUK",RAICHUR,SINDHANUR,KARNATAKA,270050
100,PRAGATHI KRISHNA GRAMIN BANK,PKGB0010605,GANDHINAGAR BELLARY,"THE MANAGER, PRAGATHI KRISHNA GRAMIN BANK,SOWRABHA 2ND CROSSGANDHINAGARBELLARY TOWN - 583 103 BELLARY TALUK & DIST",BELLARY,BELLARY,KARNATAKA,256382
101,PRAGATHI KRISHNA GRAMIN BANK,PKGB0010606,GENKEHAL,"THE MANAGER, PRAGATHI KRISHNA GRAMIN BANK,GENIKEHAL BRANCHBELLARYTALUKBELLARY DISTRICT PIN - 583 116",BELLARY,BELLARY,KARNATAKA,263681
102,PRAGATHI KRISHNA GRAMIN BANK,PKGB0010607,GILLESUGUR,"THE MANAGER,PRAGATHI KRISHNA GRAMIN BANK,GILLESUGUR BRANCH,RAICHUR TALUK,RAICHUR DISTRICT,PIN - 584 140",RAICHUR,RAICHUR,KARNATAKA,281116
103,PRAGATHI KRISHNA GRAMIN BANK,PKGB0010608,GINIGERA,"THE MANAGER, PRAGATHI KRISHNA GRAMIN BANK, GINIGERA BRANCH, KOPPAL TALUK & DISTRICT,PIN 0 583 232",KOPPAL,KOPPAL,KARNATAKA,286621
104,PRAGATHI KRISHNA GRAMIN BANK,PKGB0010609,GODABANAHAL,"THE MANAGER,PRAGATHI KRISHNA GRAMIN BANK,GODABANAHAL BRANCH,CHITRADURGA TALUK,CHITRADURGA DISTRICT,PIN - 577 521",CHITRADURGA,CHITRADURGA,KARNATAKA,256287
105,PRAGATHI KRISHNA GRAMIN BANK,PKGB0010610,GOREBAL,"THE MANAGER,PRAGATHI KRISHNA GRAMIN BANK,GOREBAL BRANCH - 584 128,HANCHINAL CAMP POST,SINDHANUR TALUK,RAICHUR DISTRICT",RAICHUR,SINDHANUR,KARNATAKA,277050
106,PRAGATHI KRISHNA GRAMIN BANK,PKGB0010611,GAURIBIDANUR,"THE MANAGER, PRAGATHI KRISHNA GRAMIN BANK, 1ST FLOOR,B H ROAD, KARNATAKA SUPPLIERS BLDG, GOWRIBIDANUR - 561 208, CHIKKABALLAPURA DIST",CHIKKABALLAPURA,GOWRIBIDANUR,KARNATAKA,285262
107,PRAGATHI KRISHNA GRAMIN BANK,PKGB0010612,GUDIBANDE,"THE MANAGER, PRAGATHI KRISHNA GRAMIN BANK,B BLOCK,OPPPWD QUART, GUDIBANDE TOWN",CHIKKABALLAPURA,GUDIBANDE,KARNATAKA,261285
108,PRAGATHI KRISHNA GRAMIN BANK,PKGB0010613,RAICHUR GUNJ,"THE MANAGER,PRAGATHI KRISHNA GRAMIN BANK,1ST FLOOR,RAJENDRA GUNJ,NEAR CHANDRAKANTHA TALKIES,RAICHUR TOWN - 584 102,RAICHUR DISTRICT",RAICHUR,RAICHUR,KARNATAKA,235125
109,PRAGATHI KRISHNA GRAMIN BANK,PKGB0010614,GURUGUNTA,"THE MANAGER,PRAGATHI KRISHNA GRAMIN BANK,GURUGUNTA BRANCH,LINGASUGUR TALUK,RAICHUR DISTRICT,PIN - 584 139",RAICHUR,LINGASUGUR,KARNATAKA,285056
110,PRAGATHI KRISHNA GRAMIN BANK,PKGB0010615,H.CROSS,"THE MANAGER, PRAGATHI KRISHNA GRAMIN BANK, 1ST FLOOR,VIA NANDA GUDI, H CROSS BRANCH - 562 122, HINDIGINALA POST, SIDLAGHATTA TQ,C B PURA DIST",CHIKKABALLAPURA,SIDLAGHATTA,KARNATAKA,259278
111,PRAGATHI KRISHNA GRAMIN BANK,PKGB0010616,H D PURA,"THE MANAGER,PRAGATHI KRISHNA GRAMIN BANK,H D PURA BRANCH,HOLALKERE TALUK,CHITRADURGA DISTRICT,PIN - 577 577",CHITRADURGA,HOLALKERE,KARNATAKA,281407
112,PRAGATHI KRISHNA GRAMIN BANK,PKGB0010617,OLD HAGARIBOMMANAHALLI,"THE MANAGER, PRAGATHI KRISHNA GRAMIN BANK,1ST FLOOR BASAVESWARA BAZAR HAGARIBOMMANAHALLI BELLARY DISTRICT PIN - 583 212",BELLARY,HAGARIBOMMANAHALLI,KARNATAKA,238275
113,PRAGATHI KRISHNA GRAMIN BANK,PKGB0010618,HAIKAL,"THE MANAGER,PRAGATHI KRISHNA GRAMIN BANK,HAIKAL BRANCH,CHITRADURGA TALUK,CHITRADURGA DISTRICT,PIN - 577 517",CHITRADURGA,CHITRADURGA,KARNATAKA,216628
114,PRAGATHI KRISHNA GRAMIN BANK,PKGB0010619,HALAGERA,"THE MANAGER,PRAGATHI KRISHNA GRAMIN BANK,HALAGERA BRANCH, KOPPAL TALUK &DISTRICT,PIN - 583 231",KOPPAL,KOPPAL,KARNATAKA,280322
115,PRAGATHI KRISHNA GRAMIN BANK,PKGB0010620,HALAVAGALU,"THE MANAGER, PRAGATHI KRISHNA GRAMIN BANK, HALAVAGALU BRANCH, HARAPANAHALLI TALUK, DAVANAGERE DISTRICT, PIN - 583 213,644",DAVANGERE,HARAPANAHALLY,KARNATAKA,272024
116,PRAGATHI KRISHNA GRAMIN BANK,PKGB0010621,HAMPAPATNA,"THE MANAGER, PRAGATHI KRISHNA GRAMIN BANK,HAMPA PATNA BRANCHH B HALLY TALUKBELLARY DISTRICT PIN - 583 222",BELLARY,HAGARIBOMMANAHALLI,KARNATAKA,249749
117,PRAGATHI KRISHNA GRAMIN BANK,PKGB0010622,HAMPASAGAR,"THE MANAGER, PRAGATHI KRISHNA GRAMIN BANK,HAMPA SAGARA BRANCH H B HALLY TALUK BELLARY DISTRICT PIN - 583 214",BELLARY,HAGARIBOMMANAHALLI,KARNATAKA,233542
118,PRAGATHI KRISHNA GRAMIN BANK,PKGB0010623,HANAGAL,"THE MANAGER,PRAGATHI KRISHNA GRAMIN BANK,HANAGAL BRANCH,MOLAKALMURU TALUK,CHITRADURGA DISTRICT,PIN - 577 535",CHITRADURGA,MOLAKALMURU,KARNATAKA,229449
119,PRAGATHI KRISHNA GRAMIN BANK,PKGB0010624,HANAWAL,"THE MANAGER, PRAGATHI KRISHNA GRAMIN BANK,HANAWAL BRANCH,GANGAVATHI TALUK,KOPPAL DISTRICT,PIN - 584 130",KOPPAL,GANGAVATHI,KARNATAKA,278258
120,PRAGATHI KRISHNA GRAMIN BANK,PKGB0010625,HANSI,"THE MANAGER, PRAGATHI KRISHNA GRAMIN BANK,HANSI BRANCHH. B. HALLY TALUK BELLARY DISTRICT PIN - 583 135",BELLARY,HAGARIBOMMANAHALLI,KARNATAKA,233910
121,PRAGATHI KRISHNA GRAMIN BANK,PKGB0010626,HANUMANHAL,"THE MANAGER,PRAGATHI KRISHNA GRAMIN BANK, HANUMANAHAL BRANCH,KUSTAGI TALUK, KOPPAL DISTRICT ,PIN - 584 166",KOPPAL,KUSTAGI,KARNATAKA,289622
122,PRAGATHI KRISHNA GRAMIN BANK,PKGB0010627,HANUMASAGAR,"THE MANAGER,PRAGATHI KRISHNA GRAMIN BANK,HANUMA SAGARA BRANCH,KUSTAGI TALUK,KOPPAL DISTRICT,PIN - 584 114",KOPPAL,KUSTAGI,KARNATAKA,270111
123,PRAGATHI KRISHNA GRAMIN BANK,PKGB0010628,HARAPANAHALLI,"THE MANAGER,PRAGATHI KRISHNA GRAMIN BANK,CHANDRAMOULISWAMY BLDG,OPP BUSSTAND,TALKIES RD, HARAPANAHALLI - 583 131",DAVANGERE,HARAPANAHALLY,KARNATAKA,280260
124,PRAGATHI KRISHNA GRAMIN BANK,PKGB0010629,HARAPURA,"THE MANAGER,PRAGATHI KRISHNA GRAMIN BANK,HARAPURA BRANCH,SINDHANUR TALUK,RAICHUR DISTRICT,PIN - 584 128",RAICHUR,SINDHANUR,KARNATAKA,266046
125,PRAGATHI KRISHNA GRAMIN BANK,PKGB0010630,HARATI,"THE MANAGER, PRAGATHI KRISHNA GRAMIN BANK, HARATI BRANCH, KOLAR TALUK, KOLAR DISTRICT, PIN - 563 102",KOLAR,KOLAR,KARNATAKA,234673
126,PRAGATHI KRISHNA GRAMIN BANK,PKGB0010631,HARIVI,"THE MANAGER, PRAGATHI KRISHNA GRAMIN BANK,HARAVI BRANCH VIA HOLALU HUVINAHADAGALITALUK BELLAR Y DISTRICTPIN - 583 217",BELLARY,HUVINAHADAGALI,KARNATAKA,218824
127,PRAGATHI KRISHNA GRAMIN BANK,PKGB0010632,HARIYABBE,"THE MANAGER,PRAGATHI KRISHNA GRAMIN BANK,HARIYABBE BRANCH,HIRIYUR TALUK,CHITRADURGA DISTRICT,PIN -577 546",CHITRADURGA,HIRIYUR,KARNATAKA,278172
128,PRAGATHI KRISHNA GRAMIN BANK,PKGB0010633,HARIHAR,"THE MANAGER, PRAGATHI KRISHNA GRAMIN BANK, RPN COMPLEX, P B ROAD,HARIHARA BRANCH,DAVANAGERE DISTRICT, PIN - 577 601,",DAVANGERE,HARIHARA,KARNATAKA,242763
129,PRAGATHI KRISHNA GRAMIN BANK,PKGB0010634,HARISHI,"THE MANAGER, PRAGATHI KRISHNA GRAMIN BANK,HARISHI BRANCH, SORABA TALUK, SHIVAMOGGA DISTRICT, PIN - 577 429,",SHIMOGA,SORABA,KARNATAKA,253210
130,PRAGATHI KRISHNA GRAMIN BANK,PKGB0010635,HAROGOPPA,"THE MANAGER,PRAGATHI KRISHNA GRAMIN BANK,HAROGOPPA BRANCH, SHIKARIPURA TALUK, SHIVAMOGGA DISTRICT, PIN -577 214,",SHIMOGA,SHIKARIPURA,KARNATAKA,290650
131,PRAGATHI KRISHNA GRAMIN BANK,PKGB0010636,HACHOLI,"THE MANAGER, PRAGATHI KRISHNA GRAMIN BANK,HATCHOLLI BRANCH SIRUGUPPA TALUKBELLARY DISTRICTPIN - 583 114",BELLARY,SIRUGUPPA,KARNATAKA,241617
132,PRAGATHI KRISHNA GRAMIN BANK,PKGB0010637,HEBBALU,"THE MANAGER, PRAGATHI KRISHNA GRAMIN BANK,HEBBALU BRANCH, DAVANAGERE TALUK & DISTRICT,PIN - 577 556,",DAVANGERE,DAVANGERE,KARNATAKA,202094
133,PRAGATHI KRISHNA GRAMIN BANK,PKGB0010638,HEBBANI,"THE MANAGER, PRAGATHI KRISHNA GRAMIN BANK, HEBBANI BRANCH, MULBAGALU TALUK, KOLAR DISTRICT , PIN - 563 131",KOLAR,MULBAGALU,KARNATAKA,241008
134,PRAGATHI KRISHNA GRAMIN BANK,PKGB0010639,HERUR,"THE MANAGER,PRAGATHI KRISHNA GRAMIN BANK, HEROOR BRANCH,GANGAVATHI TALUK,KOPPAL DISTRICT, PIN - 583 227",KOPPAL,GANGAVATHI,KARNATAKA,201188
135,PRAGATHI KRISHNA GRAMIN BANK,PKGB0010640,HIREGUNTANUR,"THE MANAGER,PRAGATHI KRISHNA GRAMIN BANK,HIREGUNTANUR BRANCH,CHITRADURGA TALUK,CHITRADURGA DISTRICT,PIN - 577 520",CHITRADURGA,CHITRADURGA,KARNATAKA,262286
136,PRAGATHI KRISHNA GRAMIN BANK,PKGB0010641,HIREHADAGALI,"THE MANAGER, PRAGATHI KRISHNA GRAMIN BANK,HIREHADAGALI BRANCHHUVINAHADAGALI TALUKBELLARY DISTRICT PIN - 583 216",BELLARY,HUVINAHADAGALI,KARNATAKA,250242
137,PRAGATHI KRISHNA GRAMIN BANK,PKGB0010642,HIREHALLY,"THE MANAGER,PRAGATHI KRISHNA GRAMIN BANK,HIREHALLY BRANCH,CHALLAKERE TALUK,CHITRADURGA DISTRICT,PIN - 577 529",CHITRADURGA,CHALLAKERE,KARNATAKA,204001
138,PRAGATHI KRISHNA GRAMIN BANK,PKGB0010643,GANGAVATHI,"THE MANAGER, PRAGATHI KRISHNA GRAMIN BANK,1ST FLOOR,NEAR N K TEMPLE, BUS STAND ROAD,GANGAVATHI TOWN - 583227, KOPPAL DISTRICT",KOPPAL,GANGAVATHI,KARNATAKA,230930
139,PRAGATHI KRISHNA GRAMIN BANK,PKGB0010644,HIREMAGALAGERE,HIREMAGALAGERE,DAVANGERE,HARAPANAHALLY,KARNATAKA,260162
140,PRAGATHI KRISHNA GRAMIN BANK,PKGB0010645,HIREMANNAPUR,"THE MANAGER, PRAGATHI KRISHNA GRAMIN BANK,HIREMANNAPURA,KUSTAGI TALUK,KOPPAL DISTRICT,PIN - 584 121",KOPPAL,KUSTAGI,KARNATAKA,286067
141,PRAGATHI KRISHNA GRAMIN BANK,PKGB0010646,HIRESINDOGI,"THE MANAGER, PRAGATHI KRISHNA GRAMIN BANK,HIRESINDOGI BRANCH,KOPPAL TALUK &DISTRICT, PIN - 583 231",KOPPAL,KOPPAL,KARNATAKA,275144
142,PRAGATHI KRISHNA GRAMIN BANK,PKGB0010647,HIREVANKALAKUNTA,"THE MANAGER,PRAGATHI KRISHNA GRAMIN BANK,HIREVANKALA KUNTA BR,YELBURGA TALUK,KOPPAL DISTRICT, PIN - 583 237",KOPPAL,YELBURGA,KARNATAKA,247369
143,PRAGATHI KRISHNA GRAMIN BANK,PKGB0010648,HIRIYUR,"THE MANAGER,PRAGATHI KRISHNA GRAMIN BANK,HIRIYUR BRANCH,HIRIYUR TALUK,CHITRADURGA DISTRICT,PIN - 572 143",CHITRADURGA,HIRIYUR,KARNATAKA,263484
144,PRAGATHI KRISHNA GRAMIN BANK,PKGB0010649,HITTNAL,"THE MANAGER,PRAGATHI KRISHNA GRAMIN BANK,HITNAL BRANCH,KOPPAL TALUK &DISTRICT,PIN - 583 234",KOPPAL,KOPPAL,KARNATAKA,274752
145,PRAGATHI KRISHNA GRAMIN BANK,PKGB0010650,HOLALKERE,"THE MANAGER,PRAGATHI KRISHNA GRAMIN BANK,HOLALKERE BRANCH,HOLALKERE TALUK,CHITRADURGA DISTRICT,PIN - 577 526",CHITRADURGA,HOLALKERE,KARNATAKA,275212
146,PRAGATHI KRISHNA GRAMIN BANK,PKGB0010651,HOLEHONNUR,HOLEHONNUR,SHIMOGA,BHADRAVATHI,KARNATAKA,235666
147,PRAGATHI KRISHNA GRAMIN BANK,PKGB0010652,HOLUR,"THE MANAGER, PRAGATHI KRISHNA GRAMIN BANK, HOLUR BRANCH , VIA DALASANUR, KOLAR TALUK & DISTRICT, PIN - 563 126",KOLAR,KOLAR,KARNATAKA,238272
148,PRAGATHI KRISHNA GRAMIN BANK,PKGB0010653,HONALI,"THE MANAGER,PRAGATHI KRISHNA GRAMIN BANK,NYAMATHI ROAD, HONNALI BRANCH , DAVANAGERE DISTRICT, PIN - 577 217,",DAVANGERE,HONNALI,KARNATAKA,251219
149,PRAGATHI KRISHNA GRAMIN BANK,PKGB0010654,HOSABALE,"THE MANAGER, PRAGATHI KRISHNA GRAMIN BANK, HOSABALE BRANCH, SORABA TALUK,SHIVAMOGGA DISTRICT, PIN - 577 434,",SHIMOGA,SORABA,KARNATAKA,263478
150,PRAGATHI KRISHNA GRAMIN BANK,PKGB0010655,HOSADURGA,"THE MANAGER,PRAGATHI KRISHNA GRAMIN BANK,HOSADURGA BRANCH,HOSADURGA TALUK,CHITRADURGA DISTRICT,PIN - 577 527",CHITRADURGA,HOSADURGA,KARNATAKA,230372
151,PRAGATHI KRISHNA GRAMIN BANK,PKGB0010656,M.HOSAHALLI,"THE MANAGER, PRAGATHI KRISHNA GRAMIN BANK,HOSAHALLIBRANCHKUDLIGI TALUKBELLARY DISTRICTPIN - 583 218",BELLARY,KUDLIGI,KARNATAKA,229415
152,PRAGATHI KRISHNA GRAMIN BANK,PKGB0010657,HOSAKERE,"THE MANAGER, PRAGATHI KRISHNA GRAMIN BANK,HOSAKERE BRANCH, JAGALUR TALUK,DAVANAGERE DISTRICT, PIN - 577 528,",DAVANGERE,JAGALUR,KARNATAKA,296949
153,PRAGATHI KRISHNA GRAMIN BANK,PKGB0010658,HOSANAGARA,"THE MANAGER, PRAGATHI KRISHNA GRAMIN BANK, CHOWDAMMA ROAD,HOSANAGARA BRANCH,SHIVAMOGGA DISTRICT,PIN - 577 418,",SHIMOGA,HOSANAGARA,KARNATAKA,221281
154,PRAGATHI KRISHNA GRAMIN BANK,PKGB0010659,HOSAPETE,"THE MANAGER, PRAGATHI KRISHNA GRAMIN BANK, JANGAMA KOTE CROSS, HOSAPETE BRANCH - 562 105, SIDLAGHATTA TALUK, CHIKKABALLAPURA DISTRICT",CHIKKABALLAPURA,SIDLAGHATTA,KARNATAKA,252050
155,PRAGATHI KRISHNA GRAMIN BANK,PKGB0010660,HUDUGUR,"THE MANAGER, PRAGATHI KRISHNA GRAMIN BANK, HUDUGUR BRANCH, GOWRIBIDANUR TALUK, CHIKKABALLAPURA DISTRICT, PIN - 561 206",CHIKKABALLAPURA,GOWRIBIDANUR,KARNATAKA,290296
156,PRAGATHI KRISHNA GRAMIN BANK,PKGB0010661,HUDUKULA,"THE MANAGER, PRAGATHI KRISHNA GRAMIN BANK, HUDUKULA BRANCH, BANGARPET TALUK, KOLAR DISTRICT, PIN - 563 114",KOLAR,BANGARPET,KARNATAKA,250245
157,PRAGATHI KRISHNA GRAMIN BANK,PKGB0010662,HULADENAHALLI,"THE MANAGER, PRAGATHI KRISHNA GRAMIN BANK, HULUDENAHALLY BRANCH - 563 137, VIA TEKAL,MALUR ROAD, MALUR TALUK, KOLAR DISTRICT",KOLAR,MALUR,KARNATAKA,237514
158,PRAGATHI KRISHNA GRAMIN BANK,PKGB0010663,HUMCHADAKATTE,"THE MANAGER,PRAGATHI KRISHNA GRAMIN BANK, HUMCHADAKATTE BRANCH, THIRTHAHALLI TALUK,SHIVAMOGGA DISTRICT, PIN - 577 436,",SHIMOGA,THIRTHAHALLI,KARNATAKA,251316
159,PRAGATHI KRISHNA GRAMIN BANK,PKGB0010664,HUTTI,"THE MANAGER,PRAGATHI KRISHNA GRAMIN BANK,HUTTI BRANCH,LINGASUGUR TALUK,RAICHUR DISTRICT,PIN - 583 203",RAICHUR,LINGASUGUR,KARNATAKA,276189
160,PRAGATHI KRISHNA GRAMIN BANK,PKGB0010665,HUVINAHADAGALI,"THE MANAGER, PRAGATHI KRISHNA GRAMIN BANK,HUVINA HADAGALI BRANCH HUVINA HADAGALI TALUKBELLARY DISTRICT PIN - 583 219",BELLARY,HUVINAHADAGALI,KARNATAKA,240270
161,PRAGATHI KRISHNA GRAMIN BANK,PKGB0010666,IRAKALAGAD,"THE MANAGER,PRAGATHI KRISHNA GRAMIN BANK,IRKALAGADA BRANCH,KOPPAL TALUK &DISTRICT,PIN583 237",KOPPAL,KOPPAL,KARNATAKA,244456
162,PRAGATHI KRISHNA GRAMIN BANK,PKGB0010667,ITTIGI,"THE MANAGER, PRAGATHI KRISHNA GRAMIN BANK,VENKATESWARA NILAYAITTAGI BRANCH HUVINAHADAGALI TALUK BELLARY DISTRICT 583 220",BELLARY,HUVINAHADAGALI,KARNATAKA,256465
163,PRAGATHI KRISHNA GRAMIN BANK,PKGB0010668,ITAGIK,"THE MANAGER,PRAGATHI KRISHNA GRAMIN BANK,ITTAGI K BRANCH,YELBURGA TALUK, KOPPAL DISTRICT,PIN583 232",KOPPAL,YELBURGA,KARNATAKA,258826
164,PRAGATHI KRISHNA GRAMIN BANK,PKGB0010669,J G HALLY,"THE MANAGER,PRAGATHI KRISHNA GRAMIN BANK,J G HALLY BRANCH,HIRIYUR TALUK,CHITRADURGA DISTRICT,PIN577 511",CHITRADURGA,HIRIYUR,KARNATAKA,276249
165,PRAGATHI KRISHNA GRAMIN BANK,PKGB0010670,JAGALUR,"THE MANAGER, PRAGATHI KRISHNA GRAMIN BANK,RUDRAMBIKA NILAYA,JAGALUR BRANCH -577 528, JAGALUR TALUK, DAVANAGERE DISTRICT",DAVANGERE,JAGALUR,KARNATAKA,227316
166,PRAGATHI KRISHNA GRAMIN BANK,PKGB0010671,JAJUR,"THE MANAGER,PRAGATHI KRISHNA GRAMIN BANK,JAJUR BRANCH,CHALLAKERE TALUK,CHITRADURGA DISTRICT,PIN577 522",CHITRADURGA,CHALLAKERE,KARNATAKA,270001
167,PRAGATHI KRISHNA GRAMIN BANK,PKGB0010672,JALHALLI,"THE MANAGER,PRAGATHI KRISHNA GRAMIN BANK,JALAHALLI BRANCH,DEODURGA TALUK,RAICHUR DISTRICT,PIN584 116",RAICHUR,DEODURGA,KARNATAKA,265122
168,PRAGATHI KRISHNA GRAMIN BANK,PKGB0010673,JAWAHARNAGAR,"THE MANAGER,PRAGATHI KRISHNA GRAMIN BANK,JAWAHAR NAGAR BRANCH,RAICHUR TOWN - 584 101,RAICHUR TALUK,RAICHUR DISTRICT",RAICHUR,RAICHUR,KARNATAKA,240045
169,PRAGATHI KRISHNA GRAMIN BANK,PKGB0010674,JEGARKAL,"THE MANAGER,PRAGATHI KRISHNA GRAMIN BANK,JEGARKAL BRANCH,RAICHUR TALUK,RAICHUR DISTRICT,PIN584 134",RAICHUR,RAICHUR,KARNATAKA,244111
170,PRAGATHI KRISHNA GRAMIN BANK,PKGB0010675,K.BELAGALLU,"THE MANAGER, PRAGATHI KRISHNA GRAMIN BANK,K BELAGALU BRANCH SIRUGUPPA TALUKBELLARY DISTRICTPIN583 121",BELLARY,SIRUGUPPA,KARNATAKA,208470
171,PRAGATHI KRISHNA GRAMIN BANK,PKGB0010676,KGF MAIN,"THE MANAGER, PRAGATHI KRISHNA GRAMIN BANK, GEETHA ROAD,ROBERTSONPET, K G F MAIN BRANCH563 122, BANGARPET TALUK, KOLAR DISTRICT",KOLAR,BANGARPET,KARNATAKA,262602
172,PRAGATHI KRISHNA GRAMIN BANK,PKGB0010677,KOKKANUR,"THE MANAGER,PRAGATHI KRISHNA GRAMIN BANK, KOKKANUR BRANCH, HARIHARA TALUK, DAVANAGERE DISTRICT, PIN577 530,",DAVANGERE,HARIHARA,KARNATAKA,289007
173,PRAGATHI KRISHNA GRAMIN BANK,PKGB0010678,KAKKARAGOLLA,"THE MANAGER,PRAGATHI KRISHNA GRAMIN BANK,KAKKARAGOLLA BRANCH, DAVANAGERE TALUK & DISTRICT, PIN577 589,",DAVANGERE,DAVANGERE,KARNATAKA,279111
174,PRAGATHI KRISHNA GRAMIN BANK,PKGB0010679,KALMALA,"THE MANAGER,PRAGATHI KRISHNA GRAMIN BANK,KALMALA BRANCH,RAICHUR TALUK,RAICHUR DISTRICT,PIN584 136",RAICHUR,RAICHUR,KARNATAKA,245423
175,PRAGATHI KRISHNA GRAMIN BANK,PKGB0010680,KALAMMA STREET,"THE MANAGER, PRAGATHI KRISHNA GRAMIN BANK,SONA COMPLEXKALAMMA STBELLARY TOWN BELLARY TALUK & DIST PIN583 101",BELLARY,BELLARY,KARNATAKA,275701
176,PRAGATHI KRISHNA GRAMIN BANK,PKGB0010681,KALLAHALLI,"THE MANAGER,PRAGATHI KRISHNA GRAMIN BANK,KALLAHALLI BRANCH,CHITRADURGA TALUK,CHITRADURGA DISTRICT,PIN577 524",CHITRADURGA,CHITRADURGA,KARNATAKA,242547
177,PRAGATHI KRISHNA GRAMIN BANK,PKGB0010682,KALLIHAL,"THE MANAGER, PRAGATHI KRISHNA GRAMIN BANK, KALLI HAL BRANCH,BHADRAVATHI TALUK,SHIVAMOGGA DISTRICT, PIN577 233,",SHIMOGA,BHADRAVATHI,KARNATAKA,236838
178,PRAGATHI KRISHNA GRAMIN BANK,PKGB0010683,KALLUR,"THE MANAGER,PRAGATHI KRISHNA GRAMIN BANK,KALLUR BRANCH,MANVI TALUK,RAICHUR DISTRICT,PIN584 118",RAICHUR,MANVI,KARNATAKA,262002
179,PRAGATHI KRISHNA GRAMIN BANK,PKGB0010684,KAMADENAHALLI,"THE MANAGER, PRAGATHI KRISHNA GRAMIN BANK, KAMADHENAHALLI BRANCH, KOLAR TALUK, KOLAR DISTRICT, PIN563 101",KOLAR,KOLAR,KARNATAKA,210296
180,PRAGATHI KRISHNA GRAMIN BANK,PKGB0010685,KAMARCHEDU,"THE MANAGER, PRAGATHI KRISHNA GRAMIN BANK,KAMMARCHEDU BRANCHBELLARY TALUK BELLARY DISTRICT PIN583 102",BELLARY,BELLARY,KARNATAKA,289838
181,PRAGATHI KRISHNA GRAMIN BANK,PKGB0010686,KAMPLI,"THE MANAGER, PRAGATHI KRISHNA GRAMIN BANK,KAMPLI BRANCH HOSPET TALUK BELLARY DISTRICTPIN583 132",BELLARY,HOSPET,KARNATAKA,250328
182,PRAGATHI KRISHNA GRAMIN BANK,PKGB0010687,KANCHIKERE,"THE MANAGER,PRAGATHI KRISHNA GRAMIN BANK,KANCHIKERE BRANCH, HARAPANAHALLI TALUK, DAVANAGERE DISTRICT, PIN583 125,",DAVANGERE,HARAPANAHALLY,KARNATAKA,271006
183,PRAGATHI KRISHNA GRAMIN BANK,PKGB0010688,KANDANAKOVI,"THE MANAGER, PRAGATHI KRISHNA GRAMIN BANK, KANDANA KOOVI BRANCH, DAVANAGERE TALUK, DAVANAGERE DISTRICT, PIN577 556,",DAVANGERE,DAVANGERE,KARNATAKA,210870
184,PRAGATHI KRISHNA GRAMIN BANK,PKGB0010689,KANNANGI,"THE MANAGER, PRAGATHI KRISHNA GRAMIN BANK,KANNANGI BRANCH, THIRTHAHALLI TALUK, SHIVAMOGGA DISTRICT, PIN577 226,",SHIMOGA,THIRTHAHALLI,KARNATAKA,234664
185,PRAGATHI KRISHNA GRAMIN BANK,PKGB0010690,KARATAGI,"THE MANAGER,PRAGATHI KRISHNA GRAMIN BANK,VBC BUILDING,MAIN ROAD,KARATAGI BRANCH583 229,GANGAVATHI TALUK,KOPPAL DISTRICT",KOPPAL,GANGAVATHI,KARNATAKA,275468
186,PRAGATHI KRISHNA GRAMIN BANK,PKGB0010691,KARUR,"THE MANAGER, PRAGATHI KRISHNA GRAMIN BANK,KARUR BRANCHSIRUGUPPA TALUKBELLARY DISTRICT PIN583 120",BELLARY,SIRUGUPPA,KARNATAKA,255674
187,PRAGATHI KRISHNA GRAMIN BANK,PKGB0010692,KASHIPURA,"THE MANAGER, PRAGATHI KRISHNA GRAMIN BANK, KASHIPURA BRANCH, MULBAGALU TALUK, KOLAR DISTRICT, PIN563 131",KOLAR,MULBAGALU,KARNATAKA,230159
188,PRAGATHI KRISHNA GRAMIN BANK,PKGB0010693,KAVALOOR,"THE MANAGER, PRAGATHI KRISHNA GRAMIN BANK,KAVALURU BRANCH, KOPPAL TALUK &DISTRICT,PIN584 226",KOPPAL,KOPPAL,KARNATAKA,283257
189,PRAGATHI KRISHNA GRAMIN BANK,PKGB0010694,KEELUKOTE,"THE MANAGER, PRAGATHI KRISHNA GRAMIN BANK, GOKUL COMPLEX,M B ROAD, KEELUKOTE,KOLAR TOWN, KOLAR TALUK & DISTRICT, PIN563 101",KOLAR,KOLAR,KARNATAKA,222954
190,PRAGATHI KRISHNA GRAMIN BANK,PKGB0010695,CHITRADURGA BD ROAD,CHITRADURGA MAIN B D ROAD,CHITRADURGA,CHITRADURGA,KARNATAKA,222791
191,PRAGATHI KRISHNA GRAMIN BANK,PKGB0010696,KEMBODI,"THE MANAGER, PRAGATHI KRISHNA GRAMIN BANK, KEMBODI BRANCH, KOLAR TALUK, KOLAR DISTRICT",KOLAR,KOLAR,KARNATAKA,245110
192,PRAGATHI KRISHNA GRAMIN BANK,PKGB0010697,KENCHARLAHALLI,"THE MANAGER, PRAGATHI KRISHNA GRAMIN BANK, KENCHARALAHALLI BRANCH, CHINTHAMANI TALUK, CHIKKABALLAPURA DISTRICT, PIN563 150",CHIKKABALLAPURA,CHINTAMANI,KARNATAKA,258620
193,PRAGATHI KRISHNA GRAMIN BANK,PKGB0010698,KITTADAL,"THE MANAGER,PRAGATHI KRISHNA GRAMIN BANK,KITTADAL BRANCH,HOSADURGA TALUK,CHITRADURGA DISTRICT,PIN577 533",CHITRADURGA,HOSADURGA,KARNATAKA,282310
194,PRAGATHI KRISHNA GRAMIN BANK,PKGB0010699,KODAGANUR,"THE MANAGER, PRAGATHI KRISHNA GRAMIN BANK,KODAGANUR BRANCH, DAVANAGERE TALUK, DAVANAGERE DISTRICT, PIN577 534,",DAVANGERE,DAVANGERE,KARNATAKA,217790
195,PRAGATHI KRISHNA GRAMIN BANK,PKGB0010700,KOGALI,"THE MANAGER, PRAGATHI KRISHNA GRAMIN BANK,KOGALI BRANCHH B HALLY TALUKBELLARY DISTRICT PIN583 220",BELLARY,HAGARIBOMMANAHALLI,KARNATAKA,247700
196,PRAGATHI KRISHNA GRAMIN BANK,PKGB0010701,KOLAR MAIN,"1 ST FLOOR, M G ROAD ,KOLAR",KOLAR,KOLAR,KARNATAKA,222643
197,PRAGATHI KRISHNA GRAMIN BANK,PKGB0010702,KOLUR,"THE MANAGER, PRAGATHI KRISHNA GRAMIN BANK,KOLUR BRANCH BELLARY TALUK BELLARY DISTRICT PIN583 102",BELLARY,BELLARY,KARNATAKA,213491
198,PRAGATHI KRISHNA GRAMIN BANK,PKGB0010703,KOMBLI,"THE MANAGER, PRAGATHI KRISHNA GRAMIN BANK,KOMBLI BRANCHHUVINA HADAGALI TALUK BELLARY DISTRICT PIN583 219",BELLARY,HUVINAHADAGALI,KARNATAKA,253631
199,PRAGATHI KRISHNA GRAMIN BANK,PKGB0010704,KOPPAL,"THE MANAGER,PRAGATHI KRISHNA GRAMIN BANK,1ST FLOOR,JAWAHARA ROAD,KOPPAL TOWN , KOPPAL TALUK & DISTRICT,PIN583 219",KOPPAL,KOPPAL,KARNATAKA,221450
200,PRAGATHI KRISHNA GRAMIN BANK,PKGB0010705,KOPPAR,"THE MANAGER,PRAGATHI KRISHNA GRAMIN BANK,KOPPAR BRANCH,DEODURGA TALUK,RAICHUR DISTRICT,PIN584 111",RAICHUR,DEODURGA,KARNATAKA,267062
201,PRAGATHI KRISHNA GRAMIN BANK,PKGB0010706,KORLAGUNDI,"THE MANAGER, PRAGATHI KRISHNA GRAMIN BANK,KORLAGUNDI BRANCHBELLARY TALUK BELLARY DISTRICT PIN583 103",BELLARY,BELLARY,KARNATAKA,282262
202,PRAGATHI KRISHNA GRAMIN BANK,PKGB0010707,KOTTUR,"THE MANAGER, PRAGATHI KRISHNA GRAMIN BANK,BALASUBRAMANYA COMPLEXKOTTUR BRANCH583 134 KUDLIGI TALUKBELLARY DISTRICT",BELLARY,KUDLIGI,KARNATAKA,226501
203,PRAGATHI KRISHNA GRAMIN BANK,PKGB0010708,KUDITHINI,"THE MANAGER, PRAGATHI KRISHNA GRAMIN BANK,KUDATHINI BRANCH BELLARY TALUK BELLARY DISTRICTPIN583 115",BELLARY,BELLARY,KARNATAKA,248244
204,PRAGATHI KRISHNA GRAMIN BANK,PKGB0010709,KUDIYANUR,"THE MANAGER, PRAGATHI KRISHNA GRAMIN BANK, KUDIYANUR BRANCH, MALUR TALUK, KOLAR DISTRICT, PIN563 130",KOLAR,MALUR,KARNATAKA,233641
205,PRAGATHI KRISHNA GRAMIN BANK,PKGB0010710,KUDLIGI,"THE MANAGER, PRAGATHI KRISHNA GRAMIN BANK,KUDLIGI BRANCH KUDLIGI TALUKBELLARY DISTRICTPIN583 135",BELLARY,KUDLIGI,KARNATAKA,220342
206,PRAGATHI KRISHNA GRAMIN BANK,PKGB0010711,KUKUNUR,"THE MANAGER,PRAGATHI KRISHNA GRAMIN BANK,KUKANUR BRANCH,YELBURGA TALUK,KOPPAL DISTRICT,PIN583 232",KOPPAL,YELBURGA,KARNATAKA,230544
207,PRAGATHI KRISHNA GRAMIN BANK,PKGB0010712,KUMBALUR,KUMBALUR,DAVANGERE,HARIHARA,KARNATAKA,268731
208,PRAGATHI KRISHNA GRAMIN BANK,PKGB0010713,KURUBARAHALLI,"THE MANAGER,PRAGATHI KRISHNA GRAMIN BANK,KURUBARAHALLI BRANCH,CHITRADURGA TALUK,CHITRADURGA DISTRICT,PIN577 520",CHITRADURGA,CHITRADURGA,KARNATAKA,251454
209,PRAGATHI KRISHNA GRAMIN BANK,PKGB0010714,KURUGODU,"THE MANAGER, PRAGATHI KRISHNA GRAMIN BANK,KURUGODU BRANCH BELLARY TALUKBELLARY DISTRICTPIN583 116",BELLARY,BELLARY,KARNATAKA,263561
210,PRAGATHI KRISHNA GRAMIN BANK,PKGB0010715,KUSHTAGI,"THE MANAGER, PRAGATHI KRISHNA GRAMIN BANK,OPP BASAVESHWARA TALKIES,KUSTAGI TOWN584121KUSTAGITALUK,KOPPAL DISTRICT",KOPPAL,KUSTAGI,KARNATAKA,267106
211,PRAGATHI KRISHNA GRAMIN BANK,PKGB0010716,KYADIGUNTE,"THE MANAGER,PRAGATHI KRISHNA GRAMIN BANK,KYADIGUNTE BRANCH,CHALLAKERE TALUK,CHITRADURGA DISTRICT,PIN577 517",CHITRADURGA,CHALLAKERE,KARNATAKA,265226
212,PRAGATHI KRISHNA GRAMIN BANK,PKGB0010717,KYASAMBALLY,"THE MANAGER, PRAGATHI KRISHNA GRAMIN BANK, KYASAMBALLI BRANCH, BANGARPET TALUK, KOLAR DISTRICT, PIN563 121",KOLAR,BANGARPET,KARNATAKA,267407
213,PRAGATHI KRISHNA GRAMIN BANK,PKGB0010718,LAKKUR,LAKKUR,KOLAR,MALUR,KARNATAKA,239560
214,PRAGATHI KRISHNA GRAMIN BANK,PKGB0010719,LINGASUGUR,"THE MANAGER,PRAGATHI KRISHNA GRAMIN BANK,BASAVA COMPLEX,NEAR POST OFFICE,LINGASUGUR TOWN -584 122,LINGASUGUR TALUK,RAICHUR DISTRICT",RAICHUR,LINGASUGUR,KARNATAKA,257341
215,PRAGATHI KRISHNA GRAMIN BANK,PKGB0010720,M G DIBBA,"THE MANAGER,PRAGATHI KRISHNA GRAMIN BANK,M G DIBBA BRANCH,HOSADURGA TALUK,CHITRADURGA DISTRICT,PIN577 527",CHITRADURGA,HOSADURGA,KARNATAKA,200401
216,PRAGATHI KRISHNA GRAMIN BANK,PKGB0010721,M HOSAHALLI,"THE MANAGER, PRAGATHI KRISHNA GRAMIN BANK, VIA KAMASAMUDRA,GULLAHALLI POST, M HOSAHALLI BRANCH563 114, BANGARPET TALUK, KOLAR DISTRICT",KOLAR,BANGARPET,KARNATAKA,290749
217,PRAGATHI KRISHNA GRAMIN BANK,PKGB0010722,M S HALLI,"THE MANAGER,PRAGATHI KRISHNA GRAMIN BANK,M S HALLI BRANCH,CHALLAKERE TALUK,CHITRADURGA DISTRICT,PIN577 522",CHITRADURGA,CHALLAKERE,KARNATAKA,261059
218,PRAGATHI KRISHNA GRAMIN BANK,PKGB0010723,MADADAKERE,"THE MANAGER,PRAGATHI KRISHNA GRAMIN BANK,MADADAKERE BRANCH,HOSADURGA TALUK,CHITRADURGA DISTRICT,PIN577 527",CHITRADURGA,HOSADURGA,KARNATAKA,241470
219,PRAGATHI KRISHNA GRAMIN BANK,PKGB0010724,MAGALA,"THE MANAGER, PRAGATHI KRISHNA GRAMIN BANK,MAGALA BRANCH HUVINAHADAGALITALUK BELLARYDISTRICTPIN583 216",BELLARY,HUVINAHADAGALI,KARNATAKA,258146
220,PRAGATHI KRISHNA GRAMIN BANK,PKGB0010725,MAKARABBI,"THE MANAGER, PRAGATHI KRISHNA GRAMIN BANK,MAKARABBI BRANCHHUVINAHADAGALI TALUK BELLARY DISTRICTPIN583 216",BELLARY,HUVINAHADAGALI,KARNATAKA,212170
221,PRAGATHI KRISHNA GRAMIN BANK,PKGB0010726,MALLANAYAKANAHALLI,"THE MANAGER, PRAGATHI KRISHNA GRAMIN BANK, VIA TAYALUR, MALLANAYAKANAHALLI BRANCH, MULBAGALU TALUK, KOLAR DISTRICT PIN563 136",KOLAR,MULBAGALU,KARNATAKA,240822
222,PRAGATHI KRISHNA GRAMIN BANK,PKGB0010727,MALLAPURA,"THE MANAGER, PRAGATHI KRISHNA GRAMIN BANK, MALLAPURA BRANCH, JAGALUR TALUK,DAVANAGERE DISTRICT, PIN577 528,",DAVANGERE,JAGALUR,KARNATAKA,274140
223,PRAGATHI KRISHNA GRAMIN BANK,PKGB0010728,MALLURAHALLI,"THE MANAGER,PRAGATHI KRISHNA GRAMIN BANK,MALLURAHALLI BRANCH,CHALLAKERE TALUK,CHITRADURGA DISTRICT,PIN577 536",CHITRADURGA,CHALLAKERE,KARNATAKA,203575
224,PRAGATHI KRISHNA GRAMIN BANK,PKGB0010729,MALUR,MALUR,KOLAR,MALUR,KARNATAKA,233987
225,PRAGATHI KRISHNA GRAMIN BANK,PKGB0010730,MANCHENAHALLY,"THE MANAGER, PRAGATHI KRISHNA GRAMIN BANK, MANCHENAHALLI BRANCH, GOWRIBIDANUR TALUK, CHIKKABALLAPURA DIST, PIN561 211",CHIKKABALLAPURA,GOWRIBIDANUR,KARNATAKA,280259
226,PRAGATHI KRISHNA GRAMIN BANK,PKGB0010731,MANDIKALA,"THE MANAGER,PRAGATHI KRISHNA GRAMIN BANK, MANDIKAL - A BRANCH,CHIKKABALLAPURA TALUK, CHIKKABALLAPURA DISTRICT, PIN562 104",KOLAR,CHIKKABALLAPURA,KARNATAKA,276511
227,PRAGATHI KRISHNA GRAMIN BANK,PKGB0010732,MANDIKALB,"THE MANAGER, PRAGATHI KRISHNA GRAMIN BANK, VIA KOLADEVI, MANDIKAL-B BRANCH, MULBAGALU TALUK, KOLAR DISTRICT562 131",KOLAR,MULBAGALU,KARNATAKA,233717
228,PRAGATHI KRISHNA GRAMIN BANK,PKGB0010733,MANGALURU,"THE MANAGER,PRAGATHI KRISHNA GRAMIN BANK, MANGALURU BRANCH,YELBURGA TALUK,KOPPAL DISTRICT,PIN583 237",KOPPAL,YELBURGA,KARNATAKA,259040
229,PRAGATHI KRISHNA GRAMIN BANK,PKGB0010734,MANVI,"THE MANAGER,PRAGATHI KRISHNA GRAMIN BANK,BUS STAND ROAD,MANVI TOWN584 123,MANVI TALUK,RAICHUR DISTRICT",RAICHUR,MANVI,KARNATAKA,220460
230,PRAGATHI KRISHNA GRAMIN BANK,PKGB0010735,MARADIHALLI,"THE MANAGER,PRAGATHI KRISHNA GRAMIN BANK,MARADIHALLI BRANCH,HIRIYUR TALUK,CHITRADURGA DISTRICT,PIN577 532",CHITRADURGA,HIRIYUR,KARNATAKA,273237
231,PRAGATHI KRISHNA GRAMIN BANK,PKGB0010736,MARALANAHALLI,"THE MANAGER, PRAGATHI KRISHNA GRAMIN BANK, SALUNCHIMARA,MARLANAHALLI BRANCH,GANGAVATHI TALUK,KOPPAL DISTRICT -583 229",KOPPAL,GANGAVATHI,KARNATAKA,283280
232,PRAGATHI KRISHNA GRAMIN BANK,PKGB0010737,MARALI,"THE MANAGER,PRAGATHI KRISHNA GRAMIN BANK,MARALI BRANCH,GANGAVATHI TALUK, KOPPAL DISTRICT,PIN583 268",KOPPAL,GANGAVATHI,KARNATAKA,276008
233,PRAGATHI KRISHNA GRAMIN BANK,PKGB0010738,MARAGANAKUNTE,"THE MANAGER, PRAGATHI KRISHNA GRAMIN BANK, MARGANUKUNTE BRANCH, BAGEPALLI TALUK, CHIKKABALLAPURA DISTRICT, PIN561 207",CHIKKABALLAPURA,BAGEPALLI,KARNATAKA,288526
234,PRAGATHI KRISHNA GRAMIN BANK,PKGB0010739,MARIYAMMANAHALLI,"THE MANAGER, PRAGATHI KRISHNA GRAMIN BANK,HUBLI RAMAKRISHNA BLDG MARIYAMMANAHALLIBRANCHHOSPET TALUKBELLARY DISTRICT583 222",BELLARY,HOSPET,KARNATAKA,244578
235,PRAGATHI KRISHNA GRAMIN BANK,PKGB0010740,MASARKAL,"THE MANAGER,PRAGATHI KRISHNA GRAMIN BANK,MASARKAL BRANCH,DEODURGA TALUK,RAICHUR DISTRICT,PIN584 126",RAICHUR,DEODURGA,KARNATAKA,274148
236,PRAGATHI KRISHNA GRAMIN BANK,PKGB0010741,MASKI,"THE MANAGER,PRAGATHI KRISHNA GRAMIN BANK,DESHMUKH BLDG,4TH WARD,MASKI BRANCH584 124,LINGASUGUR TALUK,RAICHUR DISTRICT",RAICHUR,LINGASUGUR,KARNATAKA,270239
237,PRAGATHI KRISHNA GRAMIN BANK,PKGB0010742,MATHIHALLI,"THE MANAGER, PRAGATHI KRISHNA GRAMIN BANK,MATTIHALLI BRANCH, HARAPANAHALLI TALUK, DAVANAGERE DISTRICT, PIN583 127,",DAVANGERE,HARAPANAHALLY,KARNATAKA,287204
238,PRAGATHI KRISHNA GRAMIN BANK,PKGB0010743,MATHODU,"THE MANAGER,PRAGATHI KRISHNA GRAMIN BANK,MATHODU BRANCH,HOSADURGA TALUK,CHITRADURGA DISTRICT,PIN577 533",CHITRADURGA,HOSADURGA,KARNATAKA,240007
239,PRAGATHI KRISHNA GRAMIN BANK,PKGB0010744,MATAMARI,"THE MANAGER,PRAGATHI KRISHNA GRAMIN BANK,MATMARI BRANCH,RAICHUR TALUK,RAICHUR DISTRICT,PIN584 202",RAICHUR,RAICHUR,KARNATAKA,248616
240,PRAGATHI KRISHNA GRAMIN BANK,PKGB0010745,METIKURKE,"THE MANAGER,PRAGATHI KRISHNA GRAMIN BANK,METIKURKE BRANCH,HIRIYUR TALUK,CHITRADURGA DISTRICT,PIN572 144",CHITRADURGA,HIRIYUR,KARNATAKA,284413
241,PRAGATHI KRISHNA GRAMIN BANK,PKGB0010746,METRI,"THE MANAGER, PRAGATHI KRISHNA GRAMIN BANK,METRI BRANCH HOSPET TALUK BELLARY DISTRICTPIN583 129",BELLARY,HOSPET,KARNATAKA,256455
242,PRAGATHI KRISHNA GRAMIN BANK,PKGB0010747,MILLERPET BELLARY,"THE MANAGER, PRAGATHI KRISHNA GRAMIN BANK,SHARADA KRISHNAN COMPLEXMILLER PET BELLARY TOWNBELLARY TALUK & DISTRICTPIN583 101",BELLARY,BELLARY,KARNATAKA,230542
243,PRAGATHI KRISHNA GRAMIN BANK,PKGB0010748,MITTEMARI,"THE MANAGER, PRAGATHI KRISHNA GRAMIN BANK, MITTEMARI BRANCH, BAGEPALLI TALUK, CHIKKABALLAPURA DISTRICT, PIN561 207",CHIKKABALLAPURA,BAGEPALLI,KARNATAKA,287007
244,PRAGATHI KRISHNA GRAMIN BANK,PKGB0010749,MOKAGONAL,"THE MANAGER, PRAGATHI KRISHNA GRAMIN BANK,MOKAGONAL BRANCH BELLARY TALUKBELLARY DISTRICT PIN583 117",BELLARY,BELLARY,KARNATAKA,203284
245,PRAGATHI KRISHNA GRAMIN BANK,PKGB0010750,MOLAKALMURU,"THE MANAGER,PRAGATHI KRISHNA GRAMIN BANK,RAIDURGA ROAD,MOLAKALMURU BRANCH,MOLAKALMURU TALUK,CHITRADURGA DISTRICT577 535",CHITRADURGA,MOLAKALMURU,KARNATAKA,229252
246,PRAGATHI KRISHNA GRAMIN BANK,PKGB0010751,MOREGERE,"THE MANAGER, PRAGATHI KRISHNA GRAMIN BANK,MOREGERE BRANCHH B HALLY TALUK BELLARY DISTRICT PIN583 220",BELLARY,HAGARIBOMMANAHALLI,KARNATAKA,247117
247,PRAGATHI KRISHNA GRAMIN BANK,PKGB0010752,MUDDAPURA,"THE MANAGER,PRAGATHI KRISHNA GRAMIN BANK,MUDDAPURA BRANCH,CHITRADURGA TALUK,CHITRADURGA DISTRICT,PIN577 521",CHITRADURGA,CHITRADURGA,KARNATAKA,210474
248,PRAGATHI KRISHNA GRAMIN BANK,PKGB0010753,MUDDATNUR,"THE MANAGER, PRAGATHI KRISHNA GRAMIN BANK, MUDDATANUR BRANCHSIRUGUPPA TALUK BELLARY DISTRICT PIN583 120",BELLARY,SIRUGUPPA,KARNATAKA,210662
249,PRAGATHI KRISHNA GRAMIN BANK,PKGB0010754,MUDENUR,"THE MANAGER, PRAGATHI KRISHNA GRAMIN BANK,MUDENUR BRANCH,KUSTAGI TALUK,KOPPAL DISTRICT,PIN584 112",KOPPAL,KUSTAGI,KARNATAKA,200234
250,PRAGATHI KRISHNA GRAMIN BANK,PKGB0010755,MUDHOL,"THE MANAGER,PRAGATHI KRISHNA GRAMIN BANK,MUDHOL BRANCH,YELBURGA TALUK,KOPPAL DISTRICT,PIN583 236",KOPPAL,YELBURGA,KARNATAKA,249254
251,PRAGATHI KRISHNA GRAMIN BANK,PKGB0010756,MUDUGAL,"THE MANAGER,PRAGATHI KRISHNA GRAMIN BANK,MUDUGAL BRANCH,LINGASUGUR TALUK,RAICHUR DISTRICT,PIN584 125",RAICHUR,LINGASUGUR,KARNATAKA,280580
252,PRAGATHI KRISHNA GRAMIN BANK,PKGB0010757,MADUVATHI,"THE MANAGER, PRAGATHI KRISHNA GRAMIN BANK, MUDUVATHI BRANCH, KOLAR TALUK, KOLAR DISTRICT, PIN563 101",KOLAR,KOLAR,KARNATAKA,233201
253,PRAGATHI KRISHNA GRAMIN BANK,PKGB0010758,MULBAGAL,"THE MANAGER, PRAGATHI KRISHNA GRAMIN BANK, 1ST FLOOR,M C ROAD,MULBAGALU TOWN563 131, MULBAGALU TALUK, KOLAR DISTRICT",KOLAR,MULBAGALU,KARNATAKA,244212
254,PRAGATHI KRISHNA GRAMIN BANK,PKGB0010759,MUSLAPUR,"THE MANAGER,PRAGATHI KRISHNA GRAMIN BANK, MUSALAPURA BRANCH,GANGAVATHI TALUK,KOPPAL DISTRICT,PIN584 119",KOPPAL,GANGAVATHI,KARNATAKA,202018
255,PRAGATHI KRISHNA GRAMIN BANK,PKGB0010760,MUSTUR,"THE MANAGER, PRAGATHI KRISHNA GRAMIN BANK,MUSTUR BRANCH, JAGALUR TALUK, DAVANAGERE DISTRICT, PIN577 528,777",DAVANGERE,JAGALUR,KARNATAKA,249750
256,PRAGATHI KRISHNA GRAMIN BANK,PKGB0010761,MUTHUGADUR,"THE MANAGER,PRAGATHI KRISHNA GRAMIN BANK,MUTHUGADUR BRANCH,HOLALKERE TALUK,CHITRADURGA DISTRICT,PIN577 518",CHITRADURGA,HOLALKERE,KARNATAKA,284222
257,PRAGATHI KRISHNA GRAMIN BANK,PKGB0010762,MYLANDALAHALLY,"THE MANAGER, PRAGATHI KRISHNA GRAMIN BANK, MYLANDLAHALLI BRANCH, CHINTHAMANI TALUK, CHIKKABALLAPURA DIST, PIN563 125",CHIKKABALLAPURA,CHINTAMANI,KARNATAKA,238040
258,PRAGATHI KRISHNA GRAMIN BANK,PKGB0010763,MYLARA,"THE MANAGER, PRAGATHI KRISHNA GRAMIN BANK,MYLAR BRANCHHUVINAHADAGALI TALUKBELLARY DISTRICT PIN583 217",BELLARY,HUVINAHADAGALI,KARNATAKA,254473
259,PRAGATHI KRISHNA GRAMIN BANK,PKGB0010764,N GHALLI,"THE MANAGER,PRAGATHI KRISHNA GRAMIN BANK,N G HALLI BRANCH,HOLALKERE TALUK,CHITRADURGA DISTRICT,PIN577 526",CHITRADURGA,HOLALKERE,KARNATAKA,280417
260,PRAGATHI KRISHNA GRAMIN BANK,PKGB0010765,N.VADDAHALLI CROSS,"THE MANAGER, PRAGATHI KRISHNA GRAMIN BANK, VIA NANGLI,N VADDAHALLI BRANCH563 132, MULBAGAL TALUK, KOLAR DISTRICT",KOLAR,MULBAGALU,KARNATAKA,234113
261,PRAGATHI KRISHNA GRAMIN BANK,PKGB0010766,NAGARAHALL,"THE MANAGER,PRAGATHI KRISHNA GRAMIN BANK,NAGARAHAL BRANCH,LINGASUGUR TALUK,RAICHUR DISTRICT,PIN584 127",RAICHUR,LINGASUGUR,KARNATAKA,286311
262,PRAGATHI KRISHNA GRAMIN BANK,PKGB0010767,NANDI BEVURU,"THE MANAGER, PRAGATHI KRISHNA GRAMIN BANK,NANDI BEVOOR BRANCH,HARAPANAHALLI TALUK,DAVANAGERE DISTRICT, PIN583 131,919",DAVANGERE,HARAPANAHALLY,KARNATAKA,285822
263,PRAGATHI KRISHNA GRAMIN BANK,PKGB0010768,NANDITAVARE,"THE MANAGER,PRAGATHI KRISHNA GRAMIN BANK, NANDITAVARE BRANCH, HARIHARA TALUK,DAVANAGERE DISTRICT, PIN577 601,",DAVANGERE,HARIHARA,KARNATAKA,215183
264,PRAGATHI KRISHNA GRAMIN BANK,PKGB0010769,NAVALI,"THE MANAGER,PRAGATHI KRISHNA GRAMIN BANK,NAVALI BRANCH,GANGAVATHI TALUK, KOPPAL DISTRICT,PIN583 229",KOPPAL,GANGAVATHI,KARNATAKA,279452
265,PRAGATHI KRISHNA GRAMIN BANK,PKGB0010770,NEELAGUNDA,"THE MANAGER,PRAGATHI KRISHNA GRAMIN BANK,NEELAGUNDA BRANCH,HARAPANAHALLI TALUK,DAVANAGERE DISTRICT, PIN583 213,",DAVANGERE,HARAPANAHALLY,KARNATAKA,262155
266,PRAGATHI KRISHNA GRAMIN BANK,PKGB0010771,NERLAGUNTE,"THE MANAGER,PRAGATHI KRISHNA GRAMIN BANK,NERLAGUNTE BRANCH,CHALLAKERE TALUK,CHITRADURGA DISTRICT,PIN577 536",CHITRADURGA,CHALLAKERE,KARNATAKA,263014
267,PRAGATHI KRISHNA GRAMIN BANK,PKGB0010772,NEW DAROJI,"THE MANAGER, PRAGATHI KRISHNA GRAMIN BANK,NEW DAROJI BRANCH SANDUR TALUKBELLARY DISTRICTPIN583 129",BELLARY,SANDUR,KARNATAKA,279449
268,PRAGATHI KRISHNA GRAMIN BANK,PKGB0010773,NIJALINGAPPA COLONY,"THE MANAGER,PRAGATHI KRISHNA GRAMIN BANK,1ST FLOOR,NEAR D C BANGLOW,NIJALINGAPPA COLONY,RAICHUR TOWN584 101,RAICHUR TALUK & DIST",RAICHUR,RAICHUR,KARNATAKA,220141
269,PRAGATHI KRISHNA GRAMIN BANK,PKGB0010774,NIRMANVI,"THE MANAGER,PRAGATHI KRISHNA GRAMIN BANK,NIRMANVI BRANCH,MANVI TALUK,RAICHUR DISTRICT,PIN583 118",RAICHUR,MANVI,KARNATAKA,250182
270,PRAGATHI KRISHNA GRAMIN BANK,PKGB0010775,OBALAPURA,"THE MANAGER,PRAGATHI KRISHNA GRAMIN BANK,OBALAPURA BRANCH,CHALLAKERE TALUK,CHITRADURGA DISTRICT,PIN577 537",CHITRADURGA,CHALLAKERE,KARNATAKA,205587
271,PRAGATHI KRISHNA GRAMIN BANK,PKGB0010776,UJJINI,"THE MANAGER, PRAGATHI KRISHNA GRAMIN BANK,OOJEIN BRANCHKUDLIGI TALUKBELLARY DISTRICT PIN583 136",BELLARY,KUDLIGI,KARNATAKA,228461
272,PRAGATHI KRISHNA GRAMIN BANK,PKGB0010777,PALLAGHATTA,"THE MANAGER,PRAGATHI KRISHNA GRAMIN BANK,PALLAGHATTA BRANCH, JAGALUR TALUK,DAVANAGERE DISTRICT",DAVANGERE,JAGALUR,KARNATAKA,249533
273,PRAGATHI KRISHNA GRAMIN BANK,PKGB0010778,PAMANAKALLUR,"THE MANAGER,PRAGATHI KRISHNA GRAMIN BANK,PAMANAKALLUR BRANCH,MANVI TALUK,RAICHUR DISTRICT,PIN583 120",RAICHUR,MANVI,KARNATAKA,203206
274,PRAGATHI KRISHNA GRAMIN BANK,PKGB0010779,PARASHURAMPURA,"THE MANAGER,PRAGATHI KRISHNA GRAMIN BANK,PARASHURAMPURA BR,CHALLAKERE TALUK,CHITRADURGA DISTRICT,PIN577 538",CHITRADURGA,CHALLAKERE,KARNATAKA,254635
275,PRAGATHI KRISHNA GRAMIN BANK,PKGB0010780,PATREHALLI,"THE MANAGER,PRAGATHI KRISHNA GRAMIN BANK,PATREHALLI BRANCH,HIRIYUR TALUK,CHITRADURGA DISTRICT,PIN577 511",CHITRADURGA,HIRIYUR,KARNATAKA,274090
276,PRAGATHI KRISHNA GRAMIN BANK,PKGB0010781,POTANHAL,"THE MANAGER,PRAGATHI KRISHNA GRAMIN BANK,POTNAL BRANCH,MANVI TALUK,RAICHUR DISTRICT,PIN583 123",RAICHUR,MANVI,KARNATAKA,281026
277,PRAGATHI KRISHNA GRAMIN BANK,PKGB0010782,PURAPPENMANE,"THE MANAGER, PRAGATHI KRISHNA GRAMIN BANK, PURAPPEMANE BRANCH, HOSANAGARA TALUK, SHIVAMOGGA DISTRICT, PIN577 417,",SHIMOGA,HOSANAGARA,KARNATAKA,265151
278,PRAGATHI KRISHNA GRAMIN BANK,PKGB0010783,R NULENUR,"THE MANAGER,PRAGATHI KRISHNA GRAMIN BANK,R. NULENUR BRANCH,HOLALKERE TALUK,CHITRADURGA DISTRICT,PIN577 539",CHITRADURGA,HOLALKERE,KARNATAKA,207189
279,PRAGATHI KRISHNA GRAMIN BANK,PKGB0010784,RAMADURGA,"THE MANAGER, PRAGATHI KRISHNA GRAMIN BANK,RAMADURGA BRANCHKUDLIGI TALUKBELLARY DISTRICTPIN583 130",BELLARY,KUDLIGI,KARNATAKA,247117
280,PRAGATHI KRISHNA GRAMIN BANK,PKGB0010785,RAMAPURA,"THE MANAGER, PRAGATHI KRISHNA GRAMIN BANK, VIA HOSUR,RAMAPURA BR, GOWRIBIDANUR TALUK, CHIKKABALLAPURA DIST, PIN561 210",CHIKKABALLAPURA,GOWRIBIDANUR,KARNATAKA,282161
281,PRAGATHI KRISHNA GRAMIN BANK,PKGB0010786,RAMASAGARA,"THE MANAGER, PRAGATHI KRISHNA GRAMIN BANK,RAMASAGAR BRANCH HOSPET TALUK BELLARY DISTRICT PIN583 132",BELLARY,HOSPET,KARNATAKA,261048
282,PRAGATHI KRISHNA GRAMIN BANK,PKGB0010787,RAMPURA,"THE MANAGER,PRAGATHI KRISHNA GRAMIN BANK,RAMPURA D BRANCH, DAVANAGERE TALUK & DISTRICT,PIN577 512,",DAVANGERE,DAVANGERE,KARNATAKA,219053
283,PRAGATHI KRISHNA GRAMIN BANK,PKGB0010788,RARAVI,"THE MANAGER, PRAGATHI KRISHNA GRAMIN BANK,RARAVI BRANCH SIRUGUPPA TALUK BELLARY DISTRICT PIN583 121",BELLARY,SIRUGUPPA,KARNATAKA,246150
284,PRAGATHI KRISHNA GRAMIN BANK,PKGB0010789,RONUR,"THE MANAGER, PRAGATHI KRISHNA GRAMIN BANK, RONUR BRANCH, SRINIVASAPURA TALUK, KOLAR DISTRICT, PIN563 135",KOLAR,SRINIVASPURA,KARNATAKA,242102
285,PRAGATHI KRISHNA GRAMIN BANK,PKGB0010790,S G NAGAR,"THE MANAGER, PRAGATHI KRISHNA GRAMIN BANK,MANJUNATHA COMPLEX BESIDE BJP OFFICES P CIRCLES G NAGAR BELLARY-583 101 BELLARY TALUK & DISTRICT",BELLARY,BELLARY,KARNATAKA,266256
286,PRAGATHI KRISHNA GRAMIN BANK,PKGB0010791,SAGAR,"THE MANAGER,PRAGATHI KRISHNA GRAMIN BANK,ASHOKA ROAD,SAGARA TOWN577 401, SAGARA TALUK,SHIVAMOGGADISTRICT,",SHIMOGA,SAGARA,KARNATAKA,227437
287,PRAGATHI KRISHNA GRAMIN BANK,PKGB0010792,SALUR,"THE MANAGER,PRAGATHI KRISHNA GRAMIN BANK, SALUR BRANCH, THIRTHAHALLI TALUK, SHIVAMOGGA DISTRICT, PIN577 414,",SHIMOGA,THIRTHAHALLI,KARNATAKA,236006
288,PRAGATHI KRISHNA GRAMIN BANK,PKGB0010793,SAMPEKATTE,"THE MANAGER, PRAGATHI KRISHNA GRAMIN BANK,SAMPEKATTE BRANCH,HOSANAGARA TALUK,SHIVAMOGGA DISTRICT, PIN577 452,",SHIMOGA,HOSANAGARA,KARNATAKA,253650
289,PRAGATHI KRISHNA GRAMIN BANK,PKGB0010794,SANAPUR,"THE MANAGER, PRAGATHI KRISHNA GRAMIN BANK,VIA MUNIRABAD,SANAPUR BRANCH583 234, GANGAVATHI TALUK,KOPPAL DISTRICT",KOPPAL,GANGAVATHI,KARNATAKA,287050
290,PRAGATHI KRISHNA GRAMIN BANK,PKGB0010795,SANDUR,"THE MANAGER, PRAGATHI KRISHNA GRAMIN BANK,SANDUR CHETRIKI COMPLEXSANDUR TOWN583 119SANDUR TALUKBELLARY DISTRICT",BELLARY,SANDUR,KARNATAKA,260365
291,PRAGATHI KRISHNA GRAMIN BANK,PKGB0010796,SANEHALLI,"THE MANAGER,PRAGATHI KRISHNA GRAMIN BANK,SANEHALLI BRANCH,HOSADURGA TALUK,CHITRADURGA DISTRICT,PIN577 502",CHITRADURGA,HOSADURGA,KARNATAKA,243801
292,PRAGATHI KRISHNA GRAMIN BANK,PKGB0010797,SANGANAHAL,"THE MANAGER,PRAGATHI KRISHNA GRAMIN BANK,SANGANAHAL BRANCH, YELBURGA TALUK,KOPPAL DISTRICT,PIN583 236",KOPPAL,YELBURGA,KARNATAKA,288447
293,PRAGATHI KRISHNA GRAMIN BANK,PKGB0010798,SANGANAKAL,"THE MANAGER, PRAGATHI KRISHNA GRAMIN BANK,SANGANAKAL BRANCH BELLARY TALUKBELLARY DISTRICTPIN583 103",BELLARY,BELLARY,KARNATAKA,201501
294,PRAGATHI KRISHNA GRAMIN BANK,PKGB0010799,SANGAPUR,"THE MANAGER,PRAGATHI KRISHNA GRAMIN BANK,SANGAPURA BRANCH, GANGAVATHI TALUK,KOPPAL DISTRICT,PIN583 227",KOPPAL,GANGAVATHI,KARNATAKA,200201
295,PRAGATHI KRISHNA GRAMIN BANK,PKGB0010800,SANIKERE,"THE MANAGER,PRAGATHI KRISHNA GRAMIN BANK,SANIKERE BRANCH,CHALLAKERE TALUK,CHITRADURGA DISTRICT,PIN577 522",CHITRADURGA,CHALLAKERE,KARNATAKA,295585
296,PRAGATHI KRISHNA GRAMIN BANK,PKGB0010801,SANTHEKALLUR,"THE MANAGER,PRAGATHI KRISHNA GRAMIN BANK,SANTHEKALLUR BRANCH,LINGASUGUR TALUK,RAICHUR DISTRICT,PIN584 122",RAICHUR,LINGASUGUR,KARNATAKA,284522
297,PRAGATHI KRISHNA GRAMIN BANK,PKGB0010802,SHAKTHINAGAR,"THE MANAGER,PRAGATHI KRISHNA GRAMIN BANK,SHAKTHINAGAR BRANCH,RAICHUR TALUK,RAICHUR DISTRICT,PIN584 170",RAICHUR,RAICHUR,KARNATAKA,247265
298,PRAGATHI KRISHNA GRAMIN BANK,PKGB0010803,SHIKARIPUR,"THE MANAGER,PRAGATHI KRISHNA GRAMIN BANK, SHIKARIPURA TOWN, SHIKARIPURA TALUK, SHIVAMOGGA DISTRICT, PIN577 427,",SHIMOGA,SHIKARIPURA,KARNATAKA,222649
299,PRAGATHI KRISHNA GRAMIN BANK,PKGB0010804,SHIMOGA MAIN,SHIMOGA,SHIMOGA,SHIMOGA,KARNATAKA,224394
300,PRAGATHI KRISHNA GRAMIN BANK,PKGB0010805,SHIRALAKOPPA,"THE MANAGER, PRAGATHI KRISHNA GRAMIN BANK,SHIRALAKOPPA BRANCH, SHIKARIPURA TALUK, SHIVAMOGGA DISTRICT, PIN577 428,",SHIMOGA,SHIKARIPURA,KARNATAKA,234664
301,PRAGATHI KRISHNA GRAMIN BANK,PKGB0010806,SHIVAGANGA,"SHIVAGANGA,HOLALKERE TQ",CHITRADURGA,HOLALKERE,KARNATAKA,277049
302,PRAGATHI KRISHNA GRAMIN BANK,PKGB0010807,SHIVARAPATNA,"THE MANAGER, PRAGATHI KRISHNA GRAMIN BANK, SHIVARAPATNA BRANCH, MALUR TALUK, KOLAR DISTRICT, PIN53 130",KOLAR,MALUR,KARNATAKA,230069
303,PRAGATHI KRISHNA GRAMIN BANK,PKGB0010808,SIDARAGADDA,"THE MANAGER, PRAGATHI KRISHNA GRAMIN BANK,SIDARAGADDA BRANCH BELLARY TALUK BELLARY DISTRICT PIN583 103",BELLARY,BELLARY,KARNATAKA,288008
304,PRAGATHI KRISHNA GRAMIN BANK,PKGB0010809,SIDDAMMANAHALLI,"THE MANAGER, PRAGATHI KRISHNA GRAMIN BANK,SIDDAMMANAHALLI BRANCHBELLARY TALUK BELLARY DISTRICTPIN583 116",BELLARY,BELLARY,KARNATAKA,285252
305,PRAGATHI KRISHNA GRAMIN BANK,PKGB0010810,SIDDAPUR,"THE MANAGER,PRAGATHI KRISHNA GRAMIN BANK,SIDDAPURA BRANCH,GANGAVATHI TALUK,KOPPAL DISTRICT,PIN584 130",KOPPAL,GANGAVATHI,KARNATAKA,280040
306,PRAGATHI KRISHNA GRAMIN BANK,PKGB0010811,SIDLAGHATTA,"THE MANAGER, PRAGATHI KRISHNA GRAMIN BANK, OPP VENUGOPALASWAMY TEMPLE, ASHOKA ROAD, SIDLAGHATTA TOWN562 105, CHIKKABALLAPURA DISTRICT",CHIKKABALLAPURA,SIDLAGHATTA,KARNATAKA,254183
307,PRAGATHI KRISHNA GRAMIN BANK,PKGB0010812,SINDHANUR MAIN,"THE MANAGER,PRAGATHI KRISHNA GRAMIN BANK,SINDHANUR BRANCH,SINDHANUR TALUK,RAICHUR DISTRICT,PIN584 128",RAICHUR,SINDHANUR,KARNATAKA,220106
308,PRAGATHI KRISHNA GRAMIN BANK,PKGB0010813,SINDHIGERI,"THE MANAGER, PRAGATHI KRISHNA GRAMIN BANK,SINDHIGERI BRANCH BELLARY TALUKBELLARY DISTRICT PIN583 122",BELLARY,BELLARY,KARNATAKA,281390
309,PRAGATHI KRISHNA GRAMIN BANK,PKGB0010814,SIRIGERE,"THE MANAGER, PRAGATHI KRISHNA GRAMIN BANK,SIRIGERE BRANCHSIRUGUPPA TALUK BELLARY DISTRICTPIN583 120",BELLARY,SIRUGUPPA,KARNATAKA,244685
310,PRAGATHI KRISHNA GRAMIN BANK,PKGB0010815,SIRIGERE,"THE MANAGER, PRAGATHI KRISHNA GRAMIN BANK,SIRIGERE HRR BRANCH, HARIHARA TALUK,DAVANAGERE DISTRICT, PIN577 516,",DAVANGERE,HARIHARA,KARNATAKA,282596
311,PRAGATHI KRISHNA GRAMIN BANK,PKGB0010816,SIRIGERE,"THE MANAGER, PRAGATHI KRISHNA GRAMIN BANK, SIRIGERE SMG BRANCH, SHIVAMOGGA TALUK & DISTRICT,PIN577 211,",SHIMOGA,SHIVAMOGGA,KARNATAKA,263028
312,PRAGATHI KRISHNA GRAMIN BANK,PKGB0010817,SIRUGUPPA,"THE MANAGER, PRAGATHI KRISHNA GRAMIN BANK, HALLUR COMPLEX BELLARY RD SIRUGUPPA TOWN583 121 SIRUGUPPA TALUKBELLARY DISTRICT",BELLARY,SIRUGUPPA,KARNATAKA,220360
313,PRAGATHI KRISHNA GRAMIN BANK,PKGB0010818,SIRIVARA,"THE MANAGER, PRAGATHI KRISHNA GRAMIN BANK,SIRIWAR B BRANCH BELLARY TALUK BELLARY DISTRICT PIN583 103",BELLARY,BELLARY,KARNATAKA,291114
314,PRAGATHI KRISHNA GRAMIN BANK,PKGB0010819,SIRWAR,"THE MANAGER,PRAGATHI KRISHNA GRAMIN BANK,SIRWARRBRANCH",RAICHUR,MANVI,KARNATAKA,270123
315,PRAGATHI KRISHNA GRAMIN BANK,PKGB0010820,SOGI,"THE MANAGER, PRAGATHI KRISHNA GRAMIN BANK,SOGI BRANCHHUVINAHADAGALI TALUKBELLARY DISTRICT PIN583 219",BELLARY,HUVINAHADAGALI,KARNATAKA,251022
316,PRAGATHI KRISHNA GRAMIN BANK,PKGB0010821,SOKKE,"THE MANAGER,PRAGATHI KRISHNA GRAMIN BANK, SOKKE BRANCH, JAGALUR TALUK,DAVANAGERE DISTRICT, PIN577 528,",DAVANGERE,JAGALUR,KARNATAKA,283237
317,PRAGATHI KRISHNA GRAMIN BANK,PKGB0010822,SOMALAPUR,"THE MANAGER,PRAGATHI KRISHNA GRAMIN BANK,SOMALAPURA BRANCH,SINDHANUR TALUK,RAICHUR DISTRICT,PIN584 128",RAICHUR,SINDHANUR,KARNATAKA,256860
318,PRAGATHI KRISHNA GRAMIN BANK,PKGB0010823,SOMASAMUDRA,"THE MANAGER, PRAGATHI KRISHNA GRAMIN BANK,KASHINAGARA SOMASAMUDRA BRANCHBELLARYTALUK & DISTRICTPIN583 102",BELLARY,BELLARY,KARNATAKA,283033
319,PRAGATHI KRISHNA GRAMIN BANK,PKGB0010824,SOMAYAJALAPALLI,"THE MANAGER, PRAGATHI KRISHNA GRAMIN BANK, VIA YELDUR, SOMAYAJALAPALLI BRANCH, SRINIVASAPURA TALUK,KOLAR DIST, PIN563 138",KOLAR,SRINIVASPURA,KARNATAKA,248403
320,PRAGATHI KRISHNA GRAMIN BANK,PKGB0010825,SOMENAHALLI,"THE MANAGER, PRAGATHI KRISHNA GRAMIN BANK, VIA PERESANDRA, SOMENAHALLI BRANCH, GUDIBANDE TQ,C B PURA DIST, PIN562 104",CHIKKABALLAPURA,GUDIBANDE,KARNATAKA,279713
321,PRAGATHI KRISHNA GRAMIN BANK,PKGB0010826,SONALE,"THE MANAGER,PRAGATHI KRISHNA GRAMIN BANK,SONALI BRANCH,HOSANAGARA TALUK,SHIVAMOGGA DISTRICT,PIN577 418,",SHIMOGA,HOSANAGARA,KARNATAKA,245001
322,PRAGATHI KRISHNA GRAMIN BANK,PKGB0010827,SORABA,"THE MANAGER, PRAGATHI KRISHNA GRAMIN BANK,SORABA TOWN, SORABA TALUK, SHIVAMOGGA DISTRICT, PIN577 429,",SHIMOGA,SORABA,KARNATAKA,272124
323,PRAGATHI KRISHNA GRAMIN BANK,PKGB0010828,SRINIVASPURA,"THE MANAGER, PRAGATHI KRISHNA GRAMIN BANK, OPP GOVT HOSPITAL,M G ROAD, SRINIVASAPURA TOWN -563 135, SRINIVASAPURA TALUK, KOLAR DISTRICT",KOLAR,SRINIVASPURA,KARNATAKA,246004
324,PRAGATHI KRISHNA GRAMIN BANK,PKGB0010829,SUGATUR,"THE MANAGER, PRAGATHI KRISHNA GRAMIN BANK, SUGUTUR BRANCH, KOLAR TALUK, KOLAR DISTRICT, PIN563 126",KOLAR,KOLAR,KARNATAKA,248053
325,PRAGATHI KRISHNA GRAMIN BANK,PKGB0010830,T N KOTE,"THE MANAGER,PRAGATHI KRISHNA GRAMIN BANK,T N KOTE BRANCH,CHALLAKERE TALUK,CHITRADURGA DISTRICT,PIN577 538",CHITRADURGA,CHALLAKERE,KARNATAKA,256519
326,PRAGATHI KRISHNA GRAMIN BANK,PKGB0010831,THALAGAWARA,"THE MANAGER, PRAGATHI KRISHNA GRAMIN BANK, TALAGAWARA BRANCH, CHINTHAMANI TALUK, CHIKKABALLAPURA DISTRICT, PIN563 128",CHIKKABALLAPURA,CHINTAMANI,KARNATAKA,239629
327,PRAGATHI KRISHNA GRAMIN BANK,PKGB0010832,TALUR,"THE MANAGER, PRAGATHI KRISHNA GRAMIN BANK,TALUR BRANCHSIRUGUPPA TALUKBELLARY DISTRICTPIN583 103",BELLARY,SIRUGUPPA,KARNATAKA,247845
328,PRAGATHI KRISHNA GRAMIN BANK,PKGB0010833,TALYA,"THE MANAGER,PRAGATHI KRISHNA GRAMIN BANK,TALYA BRANCH,HOLALKERE TALUK,CHITRADURGA DISTRICT,PIN577 527",CHITRADURGA,HOLALKERE,KARNATAKA,283112
329,PRAGATHI KRISHNA GRAMIN BANK,PKGB0010834,TARANAGAR,"THE MANAGER, PRAGATHI KRISHNA GRAMIN BANK, TARANAGAR SANDUR TALUK BELLARY DISTRICT PIN - 583 119",BELLARY,SANDUR,KARNATAKA,273188
330,PRAGATHI KRISHNA GRAMIN BANK,PKGB0010835,TATTURU,"THE MANAGER,PRAGATHI KRISHNA GRAMIN BANK,TATTUR BRANCH, SORABA TALUK,SHIVAMOGGA DISTRICT, PIN - 577 433,",SHIMOGA,SORABA,KARNATAKA,293369
331,PRAGATHI KRISHNA GRAMIN BANK,PKGB0010836,TAVARAGERE,"THE MANAGER,PRAGATHI KRISHNA GRAMIN BANK,TAVARAGERA BRANCH,KUSTAGI TALUK,KOPPAL DISTRICT,PIN - 584 131",KOPPAL,KUSTAGI,KARNATAKA,275396
332,PRAGATHI KRISHNA GRAMIN BANK,PKGB0010837,TEEN KANDIL RAICHUR,"THE MANAGER,PRAGATHI KRISHNA GRAMIN BANK,1ST FLOOR,KHM COMPLEX,ASHOKA ROAD,TEENKANDIL,RAICHUR TOWN - 584 101,RAICHUR TAULK & DIST",RAICHUR,RAICHUR,KARNATAKA,232376
333,PRAGATHI KRISHNA GRAMIN BANK,PKGB0010838,TELIGI,"THE MANAGER,PRAGATHI KRISHNA GRAMIN BANK, TELIGI BRANCH, HARAPANAHALLI TALUK, DAVANAGERE DISTRICT, PIN - 583 137,",DAVANGERE,HARAPANAHALLY,KARNATAKA,276041
334,PRAGATHI KRISHNA GRAMIN BANK,PKGB0010839,THAGARTHI,"THE MANAGER,PRAGATHI KRISHNA GRAMIN BANK, THAGARTHI BRANCH, SAGARA TALUK, SHIVAMOGGA DISTRICT, PIN - 577 431,",SHIMOGA,SAGARA,KARNATAKA,233339
335,PRAGATHI KRISHNA GRAMIN BANK,PKGB0010840,THALIKATTE,"THE MANAGER,PRAGATHI KRISHNA GRAMIN BANK,THALIKATTE BRANCH,HOLALKERE TALUK,CHITRADURGA DISTRICT,PIN - 577 539",CHITRADURGA,HOLALKERE,KARNATAKA,286685
336,PRAGATHI KRISHNA GRAMIN BANK,PKGB0010841,THALLAK,"THE MANAGER,PRAGATHI KRISHNA GRAMIN BANK,THALLAK BRANCH,CHALLAKERE TALUK,CHITRADURGA DISTRICT,PIN - 577 543",CHITRADURGA,CHALLAKERE,KARNATAKA,206602
337,PRAGATHI KRISHNA GRAMIN BANK,PKGB0010842,THAMBAHALLI,"THE MANAGER, PRAGATHI KRISHNA GRAMIN BANK, THAMBIHALLI BRANCH, KOLAR TALUK, KOLAR DISTRICT, PIN - 563 102",KOLAR,KOLAR,KARNATAKA,236206
338,PRAGATHI KRISHNA GRAMIN BANK,PKGB0010843,THYAKANAHALLI,"THE MANAGER, PRAGATHI KRISHNA GRAMIN BANK,THAYAKANAHALLI BRANCHKUDLIGI TALUKBELLARY DISTRICTPIN - 583 218",BELLARY,KUDLIGI,KARNATAKA,210749
339,PRAGATHI KRISHNA GRAMIN BANK,PKGB0010844,THIRTHAHALLI,"THE MANAGER, PRAGATHI KRISHNA GRAMIN BANK,1ST FLOOR,AZAD RAOD, THIRTHAHALLI BRANCH, SHIVAMOGGA DISTRICT, PIN - 577 432,",SHIMOGA,THIRTHAHALLI,KARNATAKA,228021
340,PRAGATHI KRISHNA GRAMIN BANK,PKGB0010845,THIRUMALAPURA,"THIRUMALAPURA,HOLALKERE",CHITRADURGA,HOLALKERE,KARNATAKA,297589
341,PRAGATHI KRISHNA GRAMIN BANK,PKGB0010846,THORANAGHATTA,"THE MANAGER, PRAGATHI KRISHNA GRAMIN BANK,THORANAGHATTA BRANCH, JAGALUR TALUK,DAVANAGERE DISTRICT,PIN - 577 521,",DAVANGERE,JAGALUR,KARNATAKA,295732
342,PRAGATHI KRISHNA GRAMIN BANK,PKGB0010847,THURCHAGHATTA,"THE MANAGER,PRAGATHI KRISHNA GRAMIN BANK,THURCHAGHATTA BRANCH, DAVANGERE TALUK, DAVANAGERE DISTRICT, PIN - 577 556,",DAVANGERE,DAVANGERE,KARNATAKA,218016
343,PRAGATHI KRISHNA GRAMIN BANK,PKGB0010848,TORALDINNI,"THE MANAGER,PRAGATHI KRISHNA GRAMIN BANK,1ST FLOOR, VIA KOWTAL,TORALADINNI BR - 584 120,MANVI TALUK,RAICHUR DISTRICT",RAICHUR,MANVI,KARNATAKA,268136
344,PRAGATHI KRISHNA GRAMIN BANK,PKGB0010849,TURVIHAL,"THE MANAGER,PRAGATHI KRISHNA GRAMIN BANK,TURVIHAL BRANCH,SINDHANUR TALUK,RAICHUR DISTRICT,PIN - 584 132",RAICHUR,SINDHANUR,KARNATAKA,244271
345,PRAGATHI KRISHNA GRAMIN BANK,PKGB0010850,UCHANGIDURGA,"THE MANAGER, PRAGATHI KRISHNA GRAMIN BANK, UCHANGIDURGA BRANCH, HARAPANAHALLI TALUK,DAVANAGERE DISTRICT, PIN - 583 125,",DAVANGERE,HARAPANAHALLY,KARNATAKA,286020
346,PRAGATHI KRISHNA GRAMIN BANK,PKGB0010851,UDBAL,"THE MANAGER,PRAGATHI KRISHNA GRAMIN BANK,UDBAL BRANCH,SINDHANUR TALUK,RAICHUR DISTRICT,PIN - 584 138",RAICHUR,SINDHANUR,KARNATAKA,285164
347,PRAGATHI KRISHNA GRAMIN BANK,PKGB0010852,UMBLEBYLU,"THE MANAGER,PRAGATHI KRISHNA GRAMIN BANK, UMBLEBYLU BRANCH,SHIVAMOGGA TALUK, SHIVAMOGGA DISTRICT,PIN - 577 115,",SHIMOGA,SHIVAMOGGA,KARNATAKA,252536
348,PRAGATHI KRISHNA GRAMIN BANK,PKGB0010853,V V PURA,"THE MANAGER,PRAGATHI KRISHNA GRAMIN BANK,V V PURA BRANCH,HIRIYUR TALUK,CHITRADURGA DISTRICT,PIN - 577 144",CHITRADURGA,HIRIYUR,KARNATAKA,286701
349,PRAGATHI KRISHNA GRAMIN BANK,PKGB0010854,VALABELLARY,"THE MANAGER,PRAGATHI KRISHNA GRAMIN BANK,VALABALLARY BRANCH,SINDHANUR TALUK,RAICHUR DISTRICT,PIN - 584 167",RAICHUR,SINDHANUR,KARNATAKA,200951
350,PRAGATHI KRISHNA GRAMIN BANK,PKGB0010855,VASANA,"THE MANAGER,PRAGATHI KRISHNA GRAMIN BANK, VASANA BRANCH, HARIHARA TALUK, DAVANAGERE DISTRICT, PIN - 577 516,",DAVANGERE,HARIHARA,KARNATAKA,287007
351,PRAGATHI KRISHNA GRAMIN BANK,PKGB0010856,VIDURASWATHA,"THE MANAGER, PRAGATHI KRISHNA GRAMIN BANK, VIDURASWATH BRANCH, GOWRIBIDANUR TALUK, KOLAR DISTRICT, PIN - 562 108",CHIKKABALLAPURA,GOWRIBIDANUR,KARNATAKA,288124
352,PRAGATHI KRISHNA GRAMIN BANK,PKGB0010857,YAGAVAKOTE,"THE MANAGER, PRAGATHI KRISHNA GRAMIN BANK, YAGAVAKOTE BRANCH, CHINTHAMANI TALUK, CHIKKABALLAPURA DISTRICT, PIN - 563 146",CHIKKABALLAPURA,CHINTAMANI,KARNATAKA,257055
353,PRAGATHI KRISHNA GRAMIN BANK,PKGB0010858,YARABALLI,"THE MANAGER,PRAGATHI KRISHNA GRAMIN BANK,YARABALLI BRANCH,HIRIYUR TALUK,CHITRADURGA DISTRICT,PIN - 577 537",CHITRADURGA,HIRIYUR,KARNATAKA,259927
354,PRAGATHI KRISHNA GRAMIN BANK,PKGB0010859,YELBURGA,"THE MANAGER,PRAGATHI KRISHNA GRAMIN BANK,1ST FLOOR,BUSSTAND ROAD,YELBURGA BR - 583 236, YELBURGA TALUK,KOPPAL DISTRICT",KOPPAL,YELBURGA,KARNATAKA,220114
355,PRAGATHI KRISHNA GRAMIN BANK,PKGB0010860,YELLODU,"THE MANAGER, PRAGATHI KRISHNA GRAMIN BANK, YELLODU BRANCH, GUDIBANDE TALUK, CHIKKABALLAPURA DISTRICT, PIN - 561 208",CHIKKABALLAPURA,GUDIBANDE,KARNATAKA,279409
356,PRAGATHI KRISHNA GRAMIN BANK,PKGB0010861,YERDONA,"THE MANAGER,PRAGATHI KRISHNA GRAMIN BANK,YERADONA BRANCH,LINGASUGUR TALUK,RAICHUR DISTRICT,PIN - 584 115",RAICHUR,LINGASUGUR,KARNATAKA,200108
357,PRAGATHI KRISHNA GRAMIN BANK,PKGB0010862,YARAMARUS CAMP,"THE MANAGER,PRAGATHI KRISHNA GRAMIN BANK,YERAMARAS CAMP BRANCH,RAICHUR TALUK,RAICHUR DISTRICT,PIN - 584 135",RAICHUR,RAICHUR,KARNATAKA,251109
358,PRAGATHI KRISHNA GRAMIN BANK,PKGB0010863,YERIGERE,"THE MANAGER,PRAGATHI KRISHNA GRAMIN BANK,YERIGERA BRANCH,RAICHUR TALUK,RAICHUR DISTRICT,PIN - 584 133",RAICHUR,RAICHUR,KARNATAKA,200677
359,PRAGATHI KRISHNA GRAMIN BANK,PKGB0010864,YERGERA ROAD,"THE MANAGER,PRAGATHI KRISHNA GRAMIN BANK,STATION RD, NEAR POLICE STN,YERIGERA RD BRANCH,RAICHUR TOWN - 584 101,PIN - 584 140",RAICHUR,RAICHUR,KARNATAKA,230995
360,PRAGATHI KRISHNA GRAMIN BANK,PKGB0010865,NARASAPURA,NARASAPURA,KOLAR,KOLAR,KARNATAKA,244891
361,PRAGATHI KRISHNA GRAMIN BANK,PKGB0010866,KINNAL,"THE MANAGER, PRAGATHI KRISHNA GRAMIN BANK,KINNAL BRANCH, KOPPAL TALUK & DISTRICT,PIN583 230",KOPPAL,KOPPAL,KARNATAKA,284922
362,PRAGATHI KRISHNA GRAMIN BANK,PKGB0010867,MISSION COMPOUND SHIMOGA,"THE MANAGER, PRAGATHI KRISHNA GRAMIN BANK, DURGIGUDI, MISSION COMPOUND, SHIVAMOGGA TOWN SHIVAMOGGA TALUK & DT, PIN577 201,",SHIMOGA,SHIVAMOGGA,KARNATAKA,270600
363,PRAGATHI KRISHNA GRAMIN BANK,PKGB0010868,CHITRADURGA IUDP LAYOUT,"IUDP LAYOUT ,BANGALORE ROAD, CHITRADURGA",CHITRADURGA,CHITRADURGA,KARNATAKA,235231
364,PRAGATHI KRISHNA GRAMIN BANK,PKGB0010869,DEVARAJA URS LAYOUT DAVANAGERE,"THE MANAGER, PRAGATHI KRISHNA GRAMIN BANK,HOTEL PUJA INTERNATIONAL COMPLEX,P B ROAD, DAVANAGERE CITY - 577 004, DAVANAGEREDISTRICT,",DAVANGERE,DAVANGERE,KARNATAKA,237184
365,PRAGATHI KRISHNA GRAMIN BANK,PKGB0010870,HIREKOGALUR,"THE MANAGER,PRAGATHI KRISHNA GRAMIN BANK, HIREKOGALUR BRANCH, CHANNAGIRI TALUK, DAVANAGERE DISTRICT, PIN - 577 522,",DAVANGERE,CHANNAGIRI,KARNATAKA,255006
366,PRAGATHI KRISHNA GRAMIN BANK,PKGB0010871,THONDEBHAVI,"THE MANAGER, PRAGATHI KRISHNA GRAMIN BANK, THONDEBHAVI BRANCH, GOWRIBIDANUR TALUK, CHIKKABALLAPURA DISTRICT, PIN - 561 213",CHIKKABALLAPURA,GOWRIBIDANUR,KARNATAKA,288697
367,PRAGATHI KRISHNA GRAMIN BANK,PKGB0010872,ALAWANDI,"THE MANAGER,PRAGATHI KRISHNA GRAMIN BANK,ALAVANDI BRANCH,KOPPAL TALUK & DISTRICT PIN583226",KOPPAL,KOPPAL,KARNATAKA,285234
368,PRAGATHI KRISHNA GRAMIN BANK,PKGB0010873,GANADHAL,"THE MANAGER,PRAGATHI KRISHNA GRAMIN BANK,GANADHAL D BRANCH,DEODURGA TALUK,RAICHUR DISTRICT,PIN - 587 316",RAICHUR,DEODURGA,KARNATAKA,202199
369,PRAGATHI KRISHNA GRAMIN BANK,PKGB0010874,SUNKESHWARAHAL,"THE MANAGER,PRAGATHI KRISHNA GRAMIN BANK,SUNKESHWARAHAL BRANCH,DEODURGA TALUK,RAICHUR DISTRICT,PIN584 126",RAICHUR,DEODURGA,KARNATAKA,201339
370,PRAGATHI KRISHNA GRAMIN BANK,PKGB0010875,RAMPURA C,"THE MANAGER,PRAGATHI KRISHNA GRAMIN BANK,RAMPURA C BRANCH,MOLAKALMURU TALUK,CHITRADURGA DISTRICT,PIN577 512",CHITRADURGA,MOLAKALMURU,KARNATAKA,267267
371,PRAGATHI KRISHNA GRAMIN BANK,PKGB0010876,KGF MV NAGAR,"THE MANAGER, PRAGATHI KRISHNA GRAMIN BANK, M V NAGAR BRANCH563 122, BEML NAGAR POST, BANGARPET TALUK, KOLAR DISTRICT",KOLAR,BANGARPET,KARNATAKA,278909
372,PRAGATHI KRISHNA GRAMIN BANK,PKGB0010877,INDIRANAGAR HOSPET,"THE MANAGER, PRAGATHI KRISHNA GRAMIN BANK,PDIT CAMPUS T B DAMINDIRA NAGARBRANCH HOSAPET - 583 201 BELLARY DISTRICT",BELLARY,HOSPET,KARNATAKA,259370
373,PRAGATHI KRISHNA GRAMIN BANK,PKGB0010878,MOTHI CIRCLE,"THE MANAGER, PRAGATHI KRISHNA GRAMIN BANK,BUDA COMPLEX MOTI CIRCLEBELLARY TOWNBELLARY DISTRICTPIN583 101",BELLARY,BELLARY,KARNATAKA,277680
374,PRAGATHI KRISHNA GRAMIN BANK,PKGB0010879,ANANTHASHAYANGUDIHOSPET,"THE MANAGER, PRAGATHI KRISHNA GRAMIN BANK,ANANTHA SHAYANA GUDI HOSPET TALUKBELLARY DISTRICT PIN 583 201",BELLARY,HOSPET,KARNATAKA,221658
375,PRAGATHI KRISHNA GRAMIN BANK,PKGB0010880,GOPALA GOWDA EXTENSION SHIMOGA,"THE MANAGER, PRAGATHI KRISHNA GRAMIN BANK,1ST FLOOR,GOPALA ROAD, GOPALA GOWDA EXTENTION, SHIMOGA - 577 201, SHIMOGA DISTRICT,",SHIMOGA,SHIVAMOGGA,KARNATAKA,256576
376,PRAGATHI KRISHNA GRAMIN BANK,PKGB0010881,"MCC B BLOCK, DAVANAGERE","THE MANAGER,PRAGATHI KRISHNA GRAMIN BANK,OPP BAPUJI HIGH SCHOOL,BIET RD, 13TH MAIN,3RD CROSS,MCC B- BLOCK, DAVANAGERE CITY",DAVANGERE,DAVANGERE,KARNATAKA,226464
377,PRAGATHI KRISHNA GRAMIN BANK,PKGB0010882,TIDIGOL,"THE MANAGER,PRAGATHI KRISHNA GRAMIN BANK,TIRIGOL BRANCH,SINDHANUR TALUK,RAICHUR DISTRICT,PIN - 548 128",RAICHUR,SINDHANUR,KARNATAKA,235066
378,PRAGATHI KRISHNA GRAMIN BANK,PKGB0010883,VEMGAL,"THE MANAGER, PRAGATHI KRISHNA GRAMIN BANK, VEMGAL BRANCH, KOLAR TALUK, KOLAR DISTRICT, PIN - 563 157",KOLAR,KOLAR,KARNATAKA,246600
379,PRAGATHI KRISHNA GRAMIN BANK,PKGB0010884,PREMISES OF VIJAYANAGAR ENG COLLEGE,"THE MANAGER, PRAGATHI KRISHNA GRAMIN BANK,BELLARY VEC, BELLARY",BELLARY,BELLARY,KARNATAKA,244979
380,PRAGATHI KRISHNA GRAMIN BANK,PKGB0010885,DISTRICT COURT COMPLEX,"THE MANAGER,PRAGATHI KRISHNA GRAMIN BANK,DISTRICT COURT COMPLEX,CHITRADURGA TOWN,CHITRADURGA DISTRICT",CHITRADURGA,CHITRADURGA,KARNATAKA,222472
381,PRAGATHI KRISHNA GRAMIN BANK,PKGB0010886,D C OFFICE COMPOND KOLAR,"THE MANAGER, PRAGATHI KRISHNA GRAMIN BANK, OPP ASST. COMM. OFFICE, D C OFFICE COMPLEX, KOLAR TOWN - 563 161, KOLAR TALUK & DISTRICT",KOLAR,KOLAR,KARNATAKA,220225
382,PRAGATHI KRISHNA GRAMIN BANK,PKGB0010887,D.C.OFFICE KOPPAL,"THE MANAGER,PRAGATHI KRISHNA GRAMIN BANK,D C OFFICE COMPLEXHOSPET ROAD, KOPPAL TOWN - 583 231,KOPPAL TALUK & DISTRICT",KOPPAL,KOPPAL,KARNATAKA,220095
383,PRAGATHI KRISHNA GRAMIN BANK,PKGB0010888,KOLAGAL,"THE MANAGER, PRAGATHI KRISHNA GRAMIN BANK,KOLAGAL BRANCH BELLARY TALUKBELLARY DISTRICT PIN583 102",BELLARY,BELLARY,KARNATAKA,290011
384,PRAGATHI KRISHNA GRAMIN BANK,PKGB0010889,DUMMI,"THE MANAGER,PRAGATHI KRISHNA GRAMIN BANK,DUMMY BRANCH,HOLALKERE TALUK,CHITRADURGA DISTRICT,PIN - 577 331",CHITRADURGA,HOLALKERE,KARNATAKA,289234
385,PRAGATHI KRISHNA GRAMIN BANK,PKGB0010890,UPPARIGENAHALLI,"THE MANAGER,PRAGATHI KRISHNA GRAMIN BANK,UPPARIGENAHALLI BR,HOLALKERE TALUK,CHITRADURGA DISTRICT,PIN - 577 557",CHITRADURGA,HOLALKERE,KARNATAKA,281200
386,PRAGATHI KRISHNA GRAMIN BANK,PKGB0010891,KANDENAHALLI,"THE MANAGER,PRAGATHI KRISHNA GRAMIN BANK,KANDENAHALLI BRANCH,HIRIYUR TALUK,CHITRADURGA DISTRICT,PIN577 546",CHITRADURGA,HIRIYUR,KARNATAKA,204141
387,PRAGATHI KRISHNA GRAMIN BANK,PKGB0010892,KUMBALUR,"THE MANAGER,PRAGATHI KRISHNA GRAMIN BANK, KUMBALUR HNL BRANCH, HONNALI TALUK,DAVANAGERE DISTRICT, PIN577 519,",DAVANGERE,HONNALI,KARNATAKA,262355
388,PRAGATHI KRISHNA GRAMIN BANK,PKGB0010893,KABBALA,"THE MANAGER,PRAGATHI KRISHNA GRAMIN BANK,KABBALA BRANCH,CHANNAGIRI TALUK, DAVANAGERE DISTRICT, PIN577 544,",DAVANGERE,CHANNAGIRI,KARNATAKA,276220
389,PRAGATHI KRISHNA GRAMIN BANK,PKGB0010894,NUGGEHALLI,"THE MANAGER,PRAGATHI KRISHNA GRAMIN BANK,NUGGIHALLI BRANCH, CHANNAGIRI TALUK, DAVANAGERE DISTRICT, PIN577 215,",DAVANGERE,CHANNAGIRI,KARNATAKA,239060
390,PRAGATHI KRISHNA GRAMIN BANK,PKGB0010895,CHIRADONI,"THE MANAGER, PRAGATHI KRISHNA GRAMIN BANK,CHIRADONI BRANCH, CHANNAGIRI TALUK, DAVANAGERE DISTRICT, PIN577 321,",DAVANGERE,CHANNAGIRI,KARNATAKA,272722
391,PRAGATHI KRISHNA GRAMIN BANK,PKGB0010896,MANCHANABELE,"THE MANAGER, PRAGATHI KRISHNA GRAMIN BANK, MANCHENABALE BRANCH, CHIKKABALLAPURA TALUK, CHIKKABALLAPURA DISTRICT, PIN562 101",CHIKKABALLAPURA,CHIKKABALLAPURA,KARNATAKA,270234
392,PRAGATHI KRISHNA GRAMIN BANK,PKGB0010897,MALLUR,"THE MANAGER, PRAGATHI KRISHNA GRAMIN BANK, MALLUR BRANCH, SIDLAGHATTA TALUK, CHIKKABALLAPURA DIST, PIN562 105",CHIKKABALLAPURA,SIDLAGHATTA,KARNATAKA,251155
393,PRAGATHI KRISHNA GRAMIN BANK,PKGB0010898,TORALAKKI,"THE MANAGER, PRAGATHI KRISHNA GRAMIN BANK, TORLAKKI BRANCH, MALUR TALUK, KOLAR DISTRICT, PIN - 563 137",KOLAR,MALUR,KARNATAKA,231111
394,PRAGATHI KRISHNA GRAMIN BANK,PKGB0010899,KALLUDI,"THE MANAGER, PRAGATHI KRISHNA GRAMIN BANK, KALLUDI BRANCH, GOWRIBIDANUR TALUK, CHIKKABALLAPURA DISTRICT, PIN561 208",CHIKKABALLAPURA,GOWRIBIDANUR,KARNATAKA,286085
395,PRAGATHI KRISHNA GRAMIN BANK,PKGB0010900,NILOGAL,"THE MANAGER, PRAGATHI KRISHNA GRAMIN BANK, NILOGAL BRANCH,KUSTAGI TALUK,KOPPAL DISTRICT,PIN583 280",KOPPAL,KUSTAGI,KARNATAKA,204055
396,PRAGATHI KRISHNA GRAMIN BANK,PKGB0010901,GONDABAL,"THE MANAGER,PRAGATHI KRISHNA GRAMIN BANK, GONDABAL BRANCH, KOPPAL TALUK &DISTRICT, PIN - 583 237",KOPPAL,KOPPAL,KARNATAKA,266844
397,PRAGATHI KRISHNA GRAMIN BANK,PKGB0010902,BANNIKOPPA,"THE MANAGER,PRAGATHI KRISHNA GRAMIN BANK,BANNIKOPPA BRANCH,YELBURGA TALUK,KOPPAL DISTRICT,PIN583 238",KOPPAL,YELBURGA,KARNATAKA,248244
398,PRAGATHI KRISHNA GRAMIN BANK,PKGB0010903,HIREHGONNAGARA,"THE MANAGER,PRAGATHI KRISHNA GRAMIN BANK,HIREGONNAGARA BRANCH,KUSTAGI TALUK,KOPPAL DISTRICT,PIN - 583 280",KOPPAL,KUSTAGI,KARNATAKA,204066
399,PRAGATHI KRISHNA GRAMIN BANK,PKGB0010904,KATHARKI,"THE MANAGER,PRAGATHI KRISHNA GRAMIN BANK,KATHARKI BRANCH,KOPPAL TALUK &DISTRICT, PIN583 238",KOPPAL,KOPPAL,KARNATAKA,255122
400,PRAGATHI KRISHNA GRAMIN BANK,PKGB0010905,KURDI,"THE MANAGER,PRAGATHI KRISHNA GRAMIN BANK,KURDI BRANCH,MANVI TALUK,RAICHUR DISTRICT,PIN584 203",RAICHUR,MANVI,KARNATAKA,232174
401,PRAGATHI KRISHNA GRAMIN BANK,PKGB0010906,BYAGAVAT,"THE MANAGER,PRAGATHI KRISHNA GRAMIN BANK,BYAGAVAT BRANCH,MANVI TALUK,RAICHUR DISTRICT,PIN584 120",RAICHUR,MANVI,KARNATAKA,230023
402,PRAGATHI KRISHNA GRAMIN BANK,PKGB0010907,VIRUPAPURA,"THE MANAGER,PRAGATHI KRISHNA GRAMIN BANK,VIRUPAPURA BRANCH,SINDHANUR TALUK,RAICHUR DISTRICT,PIN - 584 128",RAICHUR,SINDHANUR,KARNATAKA,265075
403,PRAGATHI KRISHNA GRAMIN BANK,PKGB0010908,CHAGABHAVI,"THE MANAGER,PRAGATHI KRISHNA GRAMIN BANK,CHAGABHAVI BRANCH,MANVI TALUK,RAICHUR DISTRICT,PIN584 129",RAICHUR,MANVI,KARNATAKA,258000
404,PRAGATHI KRISHNA GRAMIN BANK,PKGB0010909,GUDDEKOPPA,"THE MANAGER, PRAGATHI KRISHNA GRAMIN BANK, GUDEKOPPA BRANCH, THIRTHAHALLI TALUK,SHIVAMOGGA DISTRICT, PIN - 577 414,",SHIMOGA,THIRTHAHALLI,KARNATAKA,256275
405,PRAGATHI KRISHNA GRAMIN BANK,PKGB0010910,SIRIVANTE,"THE MANAGER, PRAGATHI KRISHNA GRAMIN BANK, SIRIVANTHE BRANCH, SAGARA TALUK,SHIVAMOGGA DISTRICT, PIN577 401,",SHIMOGA,SAGARA,KARNATAKA,231516
406,PRAGATHI KRISHNA GRAMIN BANK,PKGB0010911,KARANAGIRI,"THE MANAGER,PRAGATHI KRISHNA GRAMIN BANK,KARANAGIRI BANCH, HOSANAGARA TALUK,SHIVAMOGGA DISTRICT, PIN577 418,",SHIMOGA,HOSANAGARA,KARNATAKA,256055
407,PRAGATHI KRISHNA GRAMIN BANK,PKGB0010912,Y.BUDHIHAL,"THE MANAGER, PRAGATHI KRISHNA GRAMIN BANK,Y. BUDIHAL BRANCHBELLARY TALUKBELLARY DISTRICT PIN - 584 138",BELLARY,BELLARY,KARNATAKA,285828
408,PRAGATHI KRISHNA GRAMIN BANK,PKGB0010913,MUKKUNDA,"THE MANAGER,PRAGATHI KRISHNA GRAMIN BANK,MUKKUNDA BRANCH,SINDHANUR TALUK,RAICHUR DISTRICT,PIN584 138",RAICHUR,SINDHANUR,KARNATAKA,280375
409,PRAGATHI KRISHNA GRAMIN BANK,PKGB0010914,KELLODU,"THE MANAGER,PRAGATHI KRISHNA GRAMIN BANK,KELLODU BRANCH,HOSADURGA TALUK,CHITRADURGA DISTRICT,PIN577 527",CHITRADURGA,HOSADURGA,KARNATAKA,203967
410,PRAGATHI KRISHNA GRAMIN BANK,PKGB0010915,DAGINAKATTE,"THE MANAGER,PRAGATHI KRISHNA GRAMIN BANK, DAGINAKATTE BRANCH, CHANNAGIRI TALUK,DAVANAGERE DISTRICT,PIN - 577 551,",DAVANGERE,CHANNAGIRI,KARNATAKA,272744
411,PRAGATHI KRISHNA GRAMIN BANK,PKGB0010916,INDUVALLI,"THE MANAGER, PRAGATHI KRISHNA GRAMIN BANK,INDUVALLI BRANCH, SORABA TALUK, SHIVAMOGGA DISTRICT,PIN577 434,",SHIMOGA,SORABA,KARNATAKA,255858
412,PRAGATHI KRISHNA GRAMIN BANK,PKGB0010917,HURULIHAL,"THE MANAGER, PRAGATHI KRISHNA GRAMIN BANK,HURALIHAL BRANCH - 583 126 VIA C J HALLI KUDLIGI TALUKBELLARY DISTRICT",BELLARY,KUDLIGI,KARNATAKA,224223
413,PRAGATHI KRISHNA GRAMIN BANK,PKGB0010918,MADHURE,"THE MANAGER,PRAGATHI KRISHNA GRAMIN BANK,MADHURE BRANCH,HOSADURGA TALUK,CHITRADURGA DISTRICT,PIN577 527",CHITRADURGA,HOSADURGA,KARNATAKA,280060
414,PRAGATHI KRISHNA GRAMIN BANK,PKGB0010919,PANDOMATTI,"THE MANAGER,PRAGATHI KRISHNA GRAMIN BANK, PANDOMATTI BRANCH, CHANNAGIRI TALUK,DAVANAGERE DISTRICT, PIN577 213,",DAVANGERE,CHANNAGIRI,KARNATAKA,237231
415,PRAGATHI KRISHNA GRAMIN BANK,PKGB0010920,JODI KRISHNAMRAPURAM,"THE MANAGER, PRAGATHI KRISHNA GRAMIN BANK, JODIKRISHNARAJAPURAM, BANGARPET TALUK, KOLAR DISTRICT, PIN563 121",KOLAR,BANGARPET,KARNATAKA,267207
416,PRAGATHI KRISHNA GRAMIN BANK,PKGB0010921,HEDDARIPURA,"THE MANAGER,PRAGATHI KRISHNA GRAMIN BANK, HEDDARIPURA BRANCH,HIOSANAGARA TALUK,SHIVAMOGGA DISTRICT,PIN - 577 436,",SHIMOGA,HOSANAGARA,KARNATAKA,244355
417,PRAGATHI KRISHNA GRAMIN BANK,PKGB0010922,BYRAKUR,"THE MANAGER, PRAGATHI KRISHNA GRAMIN BANK, BYRAKUR BRANCH, MULBAGIL TALUK, KOLAR DISTRICT, PIN - 563 131",KOLAR,MULBAGALU,KARNATAKA,231212
418,PRAGATHI KRISHNA GRAMIN BANK,PKGB0010923,"VIJAYANAGAR,CHITRADURGA","THE MANAGER,PRAGATHI KRISHNA GRAMIN BANK,VIJAYANAGAR,CHITRADURGATOWN,CHITRADURGA DISTRICT",CHITRADURGA,CHITRADURGA,KARNATAKA,223155
419,PRAGATHI KRISHNA GRAMIN BANK,PKGB0010924,SARASWATI BADAVANE DAVANAGERE,"HRH COMPLEX, NEAR DURGAMBIKA SCHOOL,DAVANAGERE-SARASWATHI BADAVANE,DAVNGERE",DAVANGERE,DAVANGERE,KARNATAKA,263611
420,PRAGATHI KRISHNA GRAMIN BANK,PKGB0010925,SHANKAR MUTT CIRCLE SHIMOGA,"THE MANAGER, PRAGATHI KRISHNA GRAMIN BANK,NEAR HOLE STOP,B H ROAD, SHANKARMUTT CIRCLE BRANCH,SHIVAMOGGA TOWN, PIN - 577 201,",SHIMOGA,SHIVAMOGGA,KARNATAKA,220866
421,PRAGATHI KRISHNA GRAMIN BANK,PKGB0010926,TILAK NAGAR,"THE MANAGER, PRAGATHI KRISHNA GRAMIN BANK,NEAR NANDI SCHOOLINFANTRY ROAD TILAK NAGARBELLARY TOWN - 583 104 BELLARY TALUK & DISTRICT",BELLARY,BELLARY,KARNATAKA,242022
422,PRAGATHI KRISHNA GRAMIN BANK,PKGB0010927,PATEL NAGAR,"THE MANAGER, PRAGATHI KRISHNA GRAMIN BANK,RAGHAVENDRA COLONY1ST CROSSPATEL NAGAR BELLARY TOWN - 583 104BELLARY TALUK & DISTRICT",BELLARY,BELLARY,KARNATAKA,260022
423,PRAGATHI KRISHNA GRAMIN BANK,PKGB0010928,BELLARY-SERVICE BR-MILLERPET,"THE MANAGER, PRAGATHI KRISHNA GRAMIN BANK,BELLARY-MILLERPER SERVICE BRANCH CPC BRANCH, BELLARY",BELLARY,BELLARY,KARNATAKA,270542
424,PRAGATHI KRISHNA GRAMIN BANK,PKGB0010929,CURRENCY CHEST,"NH-4, IUDP LAYOUT,CHITRADURGA",CHITRADURGA,CHITRADURGA,KARNATAKA,234511
425,PRAGATHI KRISHNA GRAMIN BANK,PKGB0010930,EMMIGANUR,"THE MANAGER, PRAGATHI KRISHNA GRAMIN BANK,EMMIGANUR BRANCH BELLARY TALUK BELLARY DISTRICT PIN - 583 113",BELLARY,BELLARY,KARNATAKA,262399
426,PRAGATHI KRISHNA GRAMIN BANK,PKGB0010931,BAGEWADI,"THE MANAGER, PRAGATHI KRISHNA GRAMIN BANK,BAGEWADI BRANCHSIRUGUPPA TALUKBELLARY DISTRICT PIN - 583 121",BELLARY,SIRUGUPPA,KARNATAKA,253222
427,PRAGATHI KRISHNA GRAMIN BANK,PKGB0010932,SWAMIHALLI,"THE MANAGER, PRAGATHI KRISHNA GRAMIN BANK,SWAMIHALLI BRANCHSANDUR TALUKBELLARY DISTRICTPIN - 583 112",BELLARY,SANDUR,KARNATAKA,214548
428,PRAGATHI KRISHNA GRAMIN BANK,PKGB0010933,GUDEKOTE,"THE MANAGER, PRAGATHI KRISHNA GRAMIN BANK,GUDEKOTE BRANCHKUDLIGI TALUKBELLARYDISTRICTPIN - 583 130",BELLARY,KUDLIGI,KARNATAKA,227851
429,PRAGATHI KRISHNA GRAMIN BANK,PKGB0010934,SRIRAMPURA,"THE MANAGER,PRAGATHI KRISHNA GRAMIN BANK,SRIRAMPURA BRANCH,HOSADURGA TALUK,CHITRADURGA DISTRICT,PIN - 577 542",CHITRADURGA,HOSADURGA,KARNATAKA,242492
430,PRAGATHI KRISHNA GRAMIN BANK,PKGB0010935,GUDDADA NERALAKERE,"THE MANAGER,PRAGATHI KRISHNA GRAMIN BANK,GUDDADA NERALAKERE BR,HOSADURGA TALUK,CHITRADURGA DISTRICT,PIN - 577 533",CHITRADURGA,HOSADURGA,KARNATAKA,208982
431,PRAGATHI KRISHNA GRAMIN BANK,PKGB0010936,BUGUJINA ROPPA,"THE MANAGER,PRAGATHI KRISHNA GRAMIN BANK,BUGUJINA ROPPA BRANCH,HIRIYUR TALUK,CHITRADURGA DISTRICT,PIN - 577 532",CHITRADURGA,HIRIYUR,KARNATAKA,206444
432,PRAGATHI KRISHNA GRAMIN BANK,PKGB0010937,SIRIGERE,"THE MANAGER,PRAGATHI KRISHNA GRAMIN BANK,SIRIGERE BRANCH,CHITRADURGA TALUK,CHITRADURGA DISTRICT,PIN - 577 541",CHITRADURGA,CHITRADURGA,KARNATAKA,268333
433,PRAGATHI KRISHNA GRAMIN BANK,PKGB0010938,ALUR,"THE MANAGER,PRAGATHI KRISHNA GRAMIN BANK,ALUR BRANCH,HIRIYUR TALUK,CHITRADURGA DISTRICT,PIN - 577 598",CHITRADURGA,HIRIYUR,KARNATAKA,289009
434,PRAGATHI KRISHNA GRAMIN BANK,PKGB0010939,DEVAREDDY HALLY,"THE MANAGER,PRAGATHI KRISHNA GRAMIN BANK,DEVAREDDI HALLY BRANCH,CHALLAKERE TALUK,CHITRADURGA DISTRICT,PIN - 577 529",CHITRADURGA,CHALLAKERE,KARNATAKA,210400
435,PRAGATHI KRISHNA GRAMIN BANK,PKGB0010940,LINGAPURA,"THE MANAGER,PRAGATHI KRISHNA GRAMIN BANK, LINGAPURA BRANCH, HONNALI TALUK, DAVANAGERE DISTRICT, PIN - 577 224,",DAVANGERE,HONNALI,KARNATAKA,294670
436,PRAGATHI KRISHNA GRAMIN BANK,PKGB0010941,GOVINAKOVI,"THE MANAGER,PRAGATHI KRISHNA GRAMIN BANK, GOVINAKOOVI BRANCH, HONNALI TALUK, DAVANAGERE DISTRICT, PIN - 577 230,",DAVANGERE,HONNALI,KARNATAKA,202233
437,PRAGATHI KRISHNA GRAMIN BANK,PKGB0010942,MADIHALLI,"THE MANAGER, PRAGATHI KRISHNA GRAMIN BANK, MADIHALLI BRANCH, HARAPANAHALLI TALUK, DAVANAGERE DISTRICT, PIN - 583 125,",DAVANGERE,HARAPANAHALLY,KARNATAKA,288016
438,PRAGATHI KRISHNA GRAMIN BANK,PKGB0010943,KUNDUR,"THE MANAGER,PRAGATHI KRISHNA GRAMIN BANK,KUNDUR BRANCH, HONNALI TALUK,DAVANAGERE DISTRICT, PIN - 577 217,",DAVANGERE,HONNALI,KARNATAKA,262799
439,PRAGATHI KRISHNA GRAMIN BANK,PKGB0010944,BENNIHALLI,"THE MANAGER, PRAGATHI KRISHNA GRAMIN BANK,BENNI HALLI BRANCH,HARAPANAHALLI TALUK, DAVANAGERE DISTRICT, PIN - 583 127,",DAVANGERE,HARAPANAHALLY,KARNATAKA,210261
440,PRAGATHI KRISHNA GRAMIN BANK,PKGB0010945,SURAHAONNE,"THE MANAGER,PRAGATHI KRISHNA GRAMIN BANK,SURAHONNE BRANCH, HONNALI TALUK, DAVANAGERE DISTRICT, PIN - 577 223,",DAVANGERE,HONNALI,KARNATAKA,265444
441,PRAGATHI KRISHNA GRAMIN BANK,PKGB0010946,SANTHEKALLAHALLI,"THE MANAGER, PRAGATHI KRISHNA GRAMIN BANK, SANTHEKALLAHALLI BRANCH, CHINTHAMANI TALUK, CHIKKABALLAPURA DIST, PIN - 563 128",CHIKKABALLAPURA,CHINTAMANI,KARNATAKA,246633
442,PRAGATHI KRISHNA GRAMIN BANK,PKGB0010947,DODDAGAJANUR,"THE MANAGER, PRAGATHI KRISHNA GRAMIN BANK, DODDAGANJUR BRANCH, CHINTHAMANI TALUK, CHIKKABALLAPURA DISTRICT, PIN - 563 125",CHIKKABALLAPURA,CHINTAMANI,KARNATAKA,238066
443,PRAGATHI KRISHNA GRAMIN BANK,PKGB0010948,GANADHAL,"THE MANAGER,PRAGATHI KRISHNA GRAMIN BANK,GANADHAL R BRANCH,RAICHUR TALUK,RAICHUR DISTRICT,PIN - 584 140",RAICHUR,RAICHUR,KARNATAKA,202199
444,PRAGATHI KRISHNA GRAMIN BANK,PKGB0010949,PAGADADINNI CAMP,"THE MANAGER,PRAGATHI KRISHNA GRAMIN BANK,PAGADADINNI CAMP BRANCH,SINDHANUR TALUK,RAICHUR DISTRICT,PIN - 584 128",RAICHUR,SINDHANUR,KARNATAKA,254111
445,PRAGATHI KRISHNA GRAMIN BANK,PKGB0010950,BARANDUR,"THE MANAGER, PRAGATHI KRISHNA GRAMIN BANK, BARANDUR BRANCH, BHDRAVATHI TALUK, SHIVAMOGGA DISTRICT, PIN - 577 245,",SHIMOGA,BHADRAVATHI,KARNATAKA,240088
446,PRAGATHI KRISHNA GRAMIN BANK,PKGB0010951,AYANUR,"GRAM PANCHAYATH BUILDING,APMC YARD,AT POST AYANURU SHIMOGA TQ DIST AYA",SHIMOGA,SHIMOGA,KARNATAKA,279103
447,PRAGATHI KRISHNA GRAMIN BANK,PKGB0010952,BIJJAVALI,"THE MANAGER, PRAGATHI KRISHNA GRAMIN BANK, BIJJAVALLI BRANCH, THIRTHAHALLI TALUK, SHIVAMOGGA DISTRICT,PIN - 577 232,",SHIMOGA,THIRTHAHALLI,KARNATAKA,235044
448,PRAGATHI KRISHNA GRAMIN BANK,PKGB0010953,KAMALAPURA,"THE MANAGER, PRAGATHI KRISHNA GRAMIN BANK,KAMALAPURA BRANCH,HOSPET TQ,BELLARY DIST",BELLARY,HOSPET,KARNATAKA,241277
449,PRAGATHI KRISHNA GRAMIN BANK,PKGB0010954,TEKKALKOTE,"THE MANAGER, PRAGATHI KRISHNA GRAMIN BANK,TEKKALUKOTE BRANCH, SIRUGUPPA TQ,BELLARY DIST",BELLARY,SIRUGUPPA,KARNATAKA,248006
450,PRAGATHI KRISHNA GRAMIN BANK,PKGB0010955,BELAGURU,"THE MANAGER,PRAGATHI KRISHNA GRAMIN BANK,BELAGURU BRANCH,HOSADURGA TQ,CHITRADURGA DIST",CHITRADURGA,HOSADURGA,KARNATAKA,283121
451,PRAGATHI KRISHNA GRAMIN BANK,PKGB0010956,TYAGARAJNAGAR,"THE MANAGER,PRAGATHI KRISHNA GRAMIN BANK,TYAGARAJ NAGAR BRANCH,CHALLAKERE TQ,CHITRADURGA DIST",CHITRADURGA,CHALLAKERE,KARNATAKA,223033
452,PRAGATHI KRISHNA GRAMIN BANK,PKGB0010957,KONDLAHALLI,"THE MANAGER,PRAGATHI KRISHNA GRAMIN BANK,KONDLAHALLIBRANCH,MOLAKALMUR TQ,CHITRADURGA DIST 577529",CHITRADURGA,MOLAKALMURU,KARNATAKA,268912
453,PRAGATHI KRISHNA GRAMIN BANK,PKGB0010958,NALLUR,"THE MANAGER,PRAGATHI KRISHNA GRAMIN BANK,NALLUR BRANCH, CHANNAGIRI TQ,DAVANAGERE DIST",DAVANGERE,CHANNAGIRI,KARNATAKA,258801
454,PRAGATHI KRISHNA GRAMIN BANK,PKGB0010959,SHAPUR,"THE MANAGER, PRAGATHI KRISHNA GRAMIN BANK, SHAPUR, KOLAR TQ, KOLAR DIST563103",KOLAR,KOLAR,KARNATAKA,231422
455,PRAGATHI KRISHNA GRAMIN BANK,PKGB0010960,THORNAHALLY,"THE MANAGER, PRAGATHI KRISHNA GRAMIN BANK, THORANAHALLI BRANCH, MALUR TQ, KOLAR DIST 563 130",KOLAR,MALUR,KARNATAKA,239066
456,PRAGATHI KRISHNA GRAMIN BANK,PKGB0010961,KANAKAGIRI,"THE MANAGER,PRAGATHI KRISHNA GRAMIN BANK, KANAKAGIRI BRANCH,GANGAVATHI TQ,KOPPAL DIST",KOPPAL,GANGAVATHI,KARNATAKA,240177
457,PRAGATHI KRISHNA GRAMIN BANK,PKGB0010962,SRIRAMNAGAR,"THE MANAGER,PRAGATHI KRISHNA GRAMIN BANK,SRIRAMANAGARA BRANCH, GANGAVATHI TQ,KOPPAL DIST 583282",KOPPAL,GANGAVATHI,KARNATAKA,276125
458,PRAGATHI KRISHNA GRAMIN BANK,PKGB0010963,KYADIGERE,"THE MANAGER,PRAGATHI KRISHNA GRAMIN BANK,KYADIGERE BRANCH,DEODURGA TQ,RAICHUR DIST584129",RAICHUR,DEODURGA,KARNATAKA,202199
459,PRAGATHI KRISHNA GRAMIN BANK,PKGB0010964,JAWALAGERE,"THE MANAGER,PRAGATHI KRISHNA GRAMIN BANK,JAWALAGERA BRANCH,SINDHABUR TQ,RAICHUR DIST",RAICHUR,SINDHANUR,KARNATAKA,264402
460,PRAGATHI KRISHNA GRAMIN BANK,PKGB0010965,AMARESHWAR CAMP,"THE MANAGER,PRAGATHI KRISHNA GRAMIN BANK,AMARESHWAR CAMP BRANCH,MANVI TQ,RAICHUR DIST584213",RAICHUR,MANVI,KARNATAKA,201201
461,PRAGATHI KRISHNA GRAMIN BANK,PKGB0010966,PWD CAMP,"THE MANAGER,PRAGATHI KRISHNA GRAMIN BANK,SINDANUR PWD CAMP BRANCH,SINDANUR TQ,RAICHUR DIST",RAICHUR,SINDHANUR,KARNATAKA,201201
462,PRAGATHI KRISHNA GRAMIN BANK,PKGB0010967,GAJANUR,SHIMOGA TQ & DIST,SHIMOGA,SHIMOGA,KARNATAKA,279103
463,PRAGATHI KRISHNA GRAMIN BANK,PKGB0010968,MADASURU LINGADAHALLI,"THE MANAGER,PRAGATHI KRISHNA GRAMIN BANK, M. LINGADAHALLI BRANCH, SAGAR TQ, SHIMOGA DIST",SHIMOGA,SAGARA,KARNATAKA,230000
464,PRAGATHI KRISHNA GRAMIN BANK,PKGB0010969,THAVANANDI,"THE MANAGER, PRAGATHI KRISHNA GRAMIN BANK,TAVANANDI BRANCH, SORAB TQ, SHIMOGA DIST",SHIMOGA,SORABA,KARNATAKA,269672
465,PRAGATHI KRISHNA GRAMIN BANK,PKGB0010970,KALLUR ROAD,"CHINCHOLI TQ ,GULBARGA DIST",GULBARGA,CHINCHOLI,KARNATAKA,200284
466,PRAGATHI KRISHNA GRAMIN BANK,PKGB0010971,MOTAKAPALLI,SEDAM TQ - GULBARGA DIST,GULBARGA,SEDAM,KARNATAKA,224055
467,PRAGATHI KRISHNA GRAMIN BANK,PKGB0010972,SANTHPUR,AURAD TQ - BIDAR DIST,BIDAR,AURAD,KARNATAKA,287644
468,PRAGATHI KRISHNA GRAMIN BANK,PKGB0010973,MANHALLI,BIDAR TQ - BIDAR DIST,BIDAR,BIDAR,KARNATAKA,246046
469,PRAGATHI KRISHNA GRAMIN BANK,PKGB0010974,KITTA,BASAVAKALYAN TQ-BIDARDIST,BIDAR,BASAVAKALYAN,KARNATAKA,254386
470,PRAGATHI KRISHNA GRAMIN BANK,PKGB0010975,THAMBRAHALLI,"THE MANAGER, PRAGATHI KRISHNA GRAMIN BANK,TAMBRAHALLI,HAGARIBOMMANAHALLI TQ, BELLARY DIST",BELLARY,HAGARIBOMMANAHALLI,KARNATAKA,249389
471,PRAGATHI KRISHNA GRAMIN BANK,PKGB0010976,APMC YARD BELLARY,"APMC OFFICE OLD BUILDING BANGALORE ROAD,APMC YARD BELLARY",BELLARY,BELLARY,KARNATAKA,249389
472,PRAGATHI KRISHNA GRAMIN BANK,PKGB0010977,ALLIPURA BELLARY,"THE MANAGER, PRAGATHI KRISHNA GRAMIN BANK,ALLIPURA BRANCH,NEAR BITM COLLEGE,BELLARY583103",BELLARY,BELLARY,KARNATAKA,249389
473,PRAGATHI KRISHNA GRAMIN BANK,PKGB0010978,DODDAPETE CHITRADURGA,"K T NO 55 1532 947,DODDAPETE CHITRADURGA,577501",CHITRADURGA,CHITRADURGA,KARNATAKA,224445
474,PRAGATHI KRISHNA GRAMIN BANK,PKGB0010979,IDSMT LAYOUT RAICHUR,IDSMT LAYOUT,RAICHUR,RAICHUR,KARNATAKA,201201
475,PRAGATHI KRISHNA GRAMIN BANK,PKGB0010980,VIDYANAGAR DAVANAAGERE,"DOOR NO 1261 27 1,VIDYANAGARA 2 ND STOP OPPOSITE TO PARK DAVANAGERE",DAVANGERE,DAVANGERE,KARNATAKA,258801
476,PRAGATHI KRISHNA GRAMIN BANK,PKGB0010981,KUSANOOR ROAD GULBARGA,"S NO 84 PKGB BUILDING OPP ZP ENGINEER DIVISIO,OFFICE KUSANOOR ROAD GULBARGA",GULBARGA,GULBARGA,KARNATAKA,224055
477,PRAGATHI KRISHNA GRAMIN BANK,PKGB0010982,HUTHA COLONY BHADRAVATHI,"THE MANAGER,PRAGATHI KRISHNA GRAMIN BANK, HUTTA COLONY, MAIN ROAD, BHADRAVATHI TOWN, BHADRAVATHI TQ, SHIMOGA DIST",SHIMOGA,BHADRAVATHI,KARNATAKA,262655
478,PRAGATHI KRISHNA GRAMIN BANK,PKGB0010983,JULAY NAGAR GANGAVATHI,"RANGANATHA COMPLEX, 1ST FLOOR,WARD NO 13,JULAY NAGAR KAMPLI ROAD GANGAVATHI",KOPPAL,GANGAVATHI,KARNATAKA,276125
479,PRAGATHI KRISHNA GRAMIN BANK,PKGB0010984,HONDADA ROAD DAVANAGERE,"NO 867 -1 WARD NO 22 RAJAVEERA MADAKARI NAYAK,CIRCLE HONDADA ROAD DAVANAGERE",DAVANGERE,DAVANGERE,KARNATAKA,258801
480,PRAGATHI KRISHNA GRAMIN BANK,PKGB0010985,BOMMAGATTA,"BOMMAGATTA,BELLARY",BELLARY,BELLARY,KARNATAKA,280029
481,PRAGATHI KRISHNA GRAMIN BANK,PKGB0010986,BIDAR MAILOR ROAD,"BIDAR MAILOR ROAD,BIDAR",BIDAR,BIDAR,KARNATAKA,244180
482,PRAGATHI KRISHNA GRAMIN BANK,PKGB0010987,HOLALU,"HOLALU,BELLARY",BELLARY,BELLARY,KARNATAKA,280029
483,PRAGATHI KRISHNA GRAMIN BANK,PKGB0010988,MANNAKELI,"MANNAKELI,BIDAR",BIDAR,BIDAR,KARNATAKA,244180
484,PRAGATHI KRISHNA GRAMIN BANK,PKGB0010989,KUNTACHIKKANAHALLY,"KUNTACHIKKANAHALLY,CHICKABALLAPURA",CHIKKABALLAPURA,CHIKKABALLAPURA,KARNATAKA,244180
485,PRAGATHI KRISHNA GRAMIN BANK,PKGB0010990,SAVALANGA,"SAVALANGA,DAVANGERE",DAVANGERE,DAVANAGERE,KARNATAKA,278677
486,PRAGATHI KRISHNA GRAMIN BANK,PKGB0010991,HARLAPURA,"HARLAPURA,DAVANGERE",DAVANGERE,DAVANAGERE,KARNATAKA,279904
487,PRAGATHI KRISHNA GRAMIN BANK,PKGB0010992,SHINGRIHALLI,"SHINGRIHALLI,DAVANGERE",DAVANGERE,DAVANAGERE,KARNATAKA,279904
488,PRAGATHI KRISHNA GRAMIN BANK,PKGB0010993,CHANDANKERA,"CHANDANKERA,GULBARGA",GULBARGA,GULBARGA,KARNATAKA,280029
489,PRAGATHI KRISHNA GRAMIN BANK,PKGB0010994,PARANDAHALLY,"PARANDAHALLY,KOLAR",KOLAR,KOLAR,KARNATAKA,278677
490,PRAGATHI KRISHNA GRAMIN BANK,PKGB0010995,SAGAR-GANDHINAGAR,"SAGAR-GANDHINAGAR,SHIMOGA",SHIMOGA,SHIMOGA,KARNATAKA,279904
491,PRAGATHI KRISHNA GRAMIN BANK,PKGB0010996,GUNDERI,ESHWARA KALYANA MANTAPA BUILDING,CHITRADURGA,HOLALKERE,KARNATAKA,234315
492,PRAGATHI KRISHNA GRAMIN BANK,PKGB0010997,KAPPAGAL ROAD,"PAWAN NILAYA 1ST FLOOR ,4TH CROSS 18TH WARD,NEAR ANNAPURNA BHANDAR,KAPPAGAL ROAD,BALLRI DT,PIN - 583103",BELLARY,BELLARY,KARNATAKA,254008
493,PRAGATHI KRISHNA GRAMIN BANK,PKGB0010998,CHANAHAL,"CHANAHAL VILL & POST,BALLARY TQ,BALLARI DIST",BALLARI,CHANAHAL,KARNATAKA,236406
494,PRAGATHI KRISHNA GRAMIN BANK,PKGB0010999,GODEHAL,PARAMADEVANAHALLI POST   GODEHAL,BELLARY,BELLARY,KARNATAKA,236444
495,PRAGATHI KRISHNA GRAMIN BANK,PKGB0011001,"SUPER MARKET, GULBARGA","SUPER MARKET,GULBARGA-1",GULBARGA,GULBARGA,KARNATAKA,279958
496,PRAGATHI KRISHNA GRAMIN BANK,PKGB0011002,REVOOR B,TQ.AFZALPUR DIST.GULBARGA,GULBARGA,AFZALPUR,KARNATAKA,269439
497,PRAGATHI KRISHNA GRAMIN BANK,PKGB0011003,MUDHOL,TQ.SEDAM DIST.GULBARGA,GULBARGA,SEDAM,KARNATAKA,220860
498,PRAGATHI KRISHNA GRAMIN BANK,PKGB0011004,ANDOLA,TQ.JEWARGI DIST.GULBARGA,GULBARGA,JEWARGI,KARNATAKA,221691
499,PRAGATHI KRISHNA GRAMIN BANK,PKGB0011005,NELOGI,TQ.JEWARGI DIST.GULBARGA,GULBARGA,JEWARGI,KARNATAKA,225010
500,PRAGATHI KRISHNA GRAMIN BANK,PKGB0011006,DEVAPUR,TQ.SHORAPUR DIST.YADGIR,YADGIR,SHORAPUR,KARNATAKA,291025
501,PRAGATHI KRISHNA GRAMIN BANK,PKGB0011007,TADAKAL,TQ.ALAND DIST.GULBARGA,GULBARGA,ALAND,KARNATAKA,229160
502,PRAGATHI KRISHNA GRAMIN BANK,PKGB0011008,SALAGERA.V.K.,TQ.ALAND DIST.GULBARGA,GULBARGA,ALAND,KARNATAKA,222182
503,PRAGATHI KRISHNA GRAMIN BANK,PKGB0011009,NIDAGUNDA,TQ.CHINCHOLI DIST.GULBARGA,GULBARGA,CHINCHOLI,KARNATAKA,296087
504,PRAGATHI KRISHNA GRAMIN BANK,PKGB0011010,WADAGERA,TQ.SHAHAPUR DIST.YADGIR,YADGIR,SHAHAPUR,KARNATAKA,219127
505,PRAGATHI KRISHNA GRAMIN BANK,PKGB0011011,KONKAL,TQ.YADGIR DIST.YADGIR,YADGIR,YADGIR,KARNATAKA,213737
506,PRAGATHI KRISHNA GRAMIN BANK,PKGB0011012,RATKAL,TQ.CHINCHOLI DIST.GULBARGA,GULBARGA,CHINCHOLI,KARNATAKA,297818
507,PRAGATHI KRISHNA GRAMIN BANK,PKGB0011013,KOLKUNDA,TQ.SEDAM DIST.GULBARGA,GULBARGA,SEDAM,KARNATAKA,222064
508,PRAGATHI KRISHNA GRAMIN BANK,PKGB0011014,HARSOOR,TQ.GULBARGA DIST.GULBARGA,GULBARGA,GULBARGA,KARNATAKA,222754
509,PRAGATHI KRISHNA GRAMIN BANK,PKGB0011015,BHUSANOOR,TQ.ALAND DIST.GULBARGA,GULBARGA,ALAND,KARNATAKA,210140
510,PRAGATHI KRISHNA GRAMIN BANK,PKGB0011016,DANDOTI,"TQ.CHITAPUR,DIST GULBARGA",GULBARGA,CHITAPUR,KARNATAKA,224071
511,PRAGATHI KRISHNA GRAMIN BANK,PKGB0011017,TENGLI,"TQ.CHITAPUR,DIST GULBARGA",GULBARGA,CHITAPUR,KARNATAKA,220565
512,PRAGATHI KRISHNA GRAMIN BANK,PKGB0011018,HEBBAL,"TQ.CHITAPUR,DIST GULBARGA",GULBARGA,CHITAPUR,KARNATAKA,225180
513,PRAGATHI KRISHNA GRAMIN BANK,PKGB0011019,KOLLUR,"TQ.CHITAPUR,DIST GULBARGA",GULBARGA,CHITAPUR,KARNATAKA,226581
514,PRAGATHI KRISHNA GRAMIN BANK,PKGB0011020,AFZALPUR,TQ.AFZALPUR DIST.GULBARGA,GULBARGA,AFZALPUR,KARNATAKA,283051
515,PRAGATHI KRISHNA GRAMIN BANK,PKGB0011021,ATHANUR,TQ.AFZALPUR DIST.GULBARGA,GULBARGA,AFZALPUR,KARNATAKA,260071
516,PRAGATHI KRISHNA GRAMIN BANK,PKGB0011022,JEWARGI,TQ.JEWARGI DIST.GULBARGA,GULBARGA,JEWARGI,KARNATAKA,236079
517,PRAGATHI KRISHNA GRAMIN BANK,PKGB0011023,CHIMMANCHOD,TQ.CHINCHOLI DIST.GULBARGA,GULBARGA,CHINCHOLI,KARNATAKA,291102
518,PRAGATHI KRISHNA GRAMIN BANK,PKGB0011024,KADECHUR,TQ.YADGIR DIST.YADGIR,YADGIR,YADGIR,KARNATAKA,281055
519,PRAGATHI KRISHNA GRAMIN BANK,PKGB0011025,KODEKAL,TQ.SHORAPUR DIST.YADGIR,YADGIR,SHORAPUR,KARNATAKA,222867
520,PRAGATHI KRISHNA GRAMIN BANK,PKGB0011026,GOBBUR B,TQ.AFZALPUR DIST.GULBARGA,GULBARGA,AFZALPUR,KARNATAKA,265018
521,PRAGATHI KRISHNA GRAMIN BANK,PKGB0011027,SEDAM,TQ.SEDAM DIST.GULBARGA,GULBARGA,SEDAM,KARNATAKA,276149
522,PRAGATHI KRISHNA GRAMIN BANK,PKGB0011029,CHITTAPUR,"TQ.CHITAPUR,DIST GULBARGA",GULBARGA,CHITAPUR,KARNATAKA,236234
523,PRAGATHI KRISHNA GRAMIN BANK,PKGB0011030,KONCHAVARAM,TQ.CHINCHOLI DIST.GULBARGA,GULBARGA,CHINCHOLI,KARNATAKA,249291
524,PRAGATHI KRISHNA GRAMIN BANK,PKGB0011031,NARONA,TQ.ALAND DIST.GULBARGA,GULBARGA,ALAND,KARNATAKA,228404
525,PRAGATHI KRISHNA GRAMIN BANK,PKGB0011032,SONTH,TQ.GULBARGA DIST.GULBARGA,GULBARGA,GULBARGA,KARNATAKA,225808
526,PRAGATHI KRISHNA GRAMIN BANK,PKGB0011034,KODLA,TQ.SEDAM DIST.GULBARGA,GULBARGA,SEDAM,KARNATAKA,283814
527,PRAGATHI KRISHNA GRAMIN BANK,PKGB0011035,IJERI,TQ.JEWARGI DIST.GULBARGA,GULBARGA,JEWARGI,KARNATAKA,223974
528,PRAGATHI KRISHNA GRAMIN BANK,PKGB0011036,VAJJAL,TQ.SHORAPUR DIST.YADGIR,YADGIR,SHORAPUR,KARNATAKA,290138
529,PRAGATHI KRISHNA GRAMIN BANK,PKGB0011037,RAJANKOLLUR,TQ.SHORAPUR DIST.YADGIR,YADGIR,SHORAPUR,KARNATAKA,290138
530,PRAGATHI KRISHNA GRAMIN BANK,PKGB0011038,NAGANUR,TQ.SHORAPUR DIST.YADGIR,YADGIR,SHORAPUR,KARNATAKA,271073
531,PRAGATHI KRISHNA GRAMIN BANK,PKGB0011039,SARSAMBA,TQ.ALAND DIST.GULBARGA,GULBARGA,ALAND,KARNATAKA,238642
532,PRAGATHI KRISHNA GRAMIN BANK,PKGB0011040,SULEPETH,TQ.CHINCHOLI DIST.GULBARGA,GULBARGA,CHINCHOLI,KARNATAKA,285336
533,PRAGATHI KRISHNA GRAMIN BANK,PKGB0011041,ARALGUNDIGI,TQ.JEWARGI DIST.GULBARGA,GULBARGA,JEWARGI,KARNATAKA,283181
534,PRAGATHI KRISHNA GRAMIN BANK,PKGB0011042,DORANAHALLI,TQ.SHAHAPUR DIST.YADGIR,YADGIR,SHAHAPUR,KARNATAKA,212753
535,PRAGATHI KRISHNA GRAMIN BANK,PKGB0011043,GAJARKOT,TQ.YADGIR DIST.YADGIR,YADGIR,YADGIR,KARNATAKA,225605
536,PRAGATHI KRISHNA GRAMIN BANK,PKGB0011044,SHAHAPUR,TQ.SHAHAPUR DIST.YADGIR,YADGIR,SHAHAPUR,KARNATAKA,243209
537,PRAGATHI KRISHNA GRAMIN BANK,PKGB0011045,YARGOL,TQ.YADGIR DIST.YADGIR,YADGIR,YADGIR,KARNATAKA,215566
538,PRAGATHI KRISHNA GRAMIN BANK,PKGB0011046,YANAGUNDI,TQ.SEDAM DIST.GULBARGA,GULBARGA,SEDAM,KARNATAKA,280055
539,PRAGATHI KRISHNA GRAMIN BANK,PKGB0011047,BENDEBEMBLI,TQ.SHAHAPUR DIST.YADGIR,YADGIR,SHAHAPUR,KARNATAKA,598481
540,PRAGATHI KRISHNA GRAMIN BANK,PKGB0011048,MALLI,TQ.JEWARGI DIST.GULBARGA,GULBARGA,JEWARGI,KARNATAKA,220027
541,PRAGATHI KRISHNA GRAMIN BANK,PKGB0011049,ANKALAGA,TQ.JEWARGI DIST.GULBARGA,GULBARGA,JEWARGI,KARNATAKA,222041
542,PRAGATHI KRISHNA GRAMIN BANK,PKGB0011050,KHAJURI,TQ.ALAND DIST.GULBARGA,GULBARGA,ALAND,KARNATAKA,227449
543,PRAGATHI KRISHNA GRAMIN BANK,PKGB0011051,PETH AMMAPUR,TQ.SHORAPUR DIST.YADGIR,YADGIR,SHORAPUR,KARNATAKA,273002
544,PRAGATHI KRISHNA GRAMIN BANK,PKGB0011052,ALHALLI,"TQ.CHITAPUR,DIST GULBARGA",GULBARGA,CHITAPUR,KARNATAKA,222874
545,PRAGATHI KRISHNA GRAMIN BANK,PKGB0011053,AURAD,TQ.AURAD DIST.BIDAR,BIDAR,AURAD,KARNATAKA,280029
546,PRAGATHI KRISHNA GRAMIN BANK,PKGB0011054,JANAWADA,TQ.BIDAR DIST.BIDAR,BIDAR,BIDAR,KARNATAKA,244180
547,PRAGATHI KRISHNA GRAMIN BANK,PKGB0011055,HALLIKHED,TQ.HUMNABAD DIST.BIDAR,BIDAR,HUMNABAD,KARNATAKA,278677
548,PRAGATHI KRISHNA GRAMIN BANK,PKGB0011056,TALAMADAGI,TQ.HUMNABAD DIST.BIDAR,BIDAR,HUMNABAD,KARNATAKA,279904
549,PRAGATHI KRISHNA GRAMIN BANK,PKGB0011057,DONGARGAON,TQ.GULBARGA DIST.GULBARGA,GULBARGA,GULBARGA,KARNATAKA,224059
550,PRAGATHI KRISHNA GRAMIN BANK,PKGB0011058,UDACHAN,TQ.AFZALPUR DIST.GULBARGA,GULBARGA,AFZALPUR,KARNATAKA,231513
551,PRAGATHI KRISHNA GRAMIN BANK,PKGB0011059,CHINCHOLI,TQ.CHINCHOLI DIST.GULBARGA,GULBARGA,CHINCHOLI,KARNATAKA,273104
552,PRAGATHI KRISHNA GRAMIN BANK,PKGB0011060,BANDARWAD,TQ.AFZALPUR DIST.GULBARGA,GULBARGA,AFZALPUR,KARNATAKA,261116
553,PRAGATHI KRISHNA GRAMIN BANK,PKGB0011061,KODLI,TQ.CHINCHOLI DIST.GULBARGA,GULBARGA,CHINCHOLI,KARNATAKA,292093
554,PRAGATHI KRISHNA GRAMIN BANK,PKGB0011062,GHAT BORAL,TQ.HUMNABAD DIST.BIDAR,BIDAR,HUMNABAD,KARNATAKA,275951
555,PRAGATHI KRISHNA GRAMIN BANK,PKGB0011063,BHATAMBRA,TQ.BHALKI DIST.BIDAR,BIDAR,BHALKI,KARNATAKA,268130
556,PRAGATHI KRISHNA GRAMIN BANK,PKGB0011064,KURUB KHELGI,TQ.BHALKI DIST.BIDAR,BIDAR,BHALKI,KARNATAKA,267735
557,PRAGATHI KRISHNA GRAMIN BANK,PKGB0011066,MORKHANDI,TQ.BASAVAKALYAN DIST.BIDAR,BIDAR,BASAVAKALYAN,KARNATAKA,254746
558,PRAGATHI KRISHNA GRAMIN BANK,PKGB0011067,SASTAPUR,TQ.BASAVAKALYAN DIST.BIDAR,BIDAR,BASAVAKALYAN,KARNATAKA,259074
559,PRAGATHI KRISHNA GRAMIN BANK,PKGB0011069,BEMALKHED,TQ.HUMNABAD DIST.BIDAR,BIDAR,HUMNABAD,KARNATAKA,276121
560,PRAGATHI KRISHNA GRAMIN BANK,PKGB0011070,BYALAHALLI,TQ.BHALKI DIST.BIDAR,BIDAR,BHALKI,KARNATAKA,210082
561,PRAGATHI KRISHNA GRAMIN BANK,PKGB0011071,WANADURGA,TQ.SHAHAPUR DIST.YADGIR,YADGIR,SHAHAPUR,KARNATAKA,221073
562,PRAGATHI KRISHNA GRAMIN BANK,PKGB0011073,LAD MUGALI,TQ.ALAND DIST.GULBARGA,GULBARGA,ALAND,KARNATAKA,233075
563,PRAGATHI KRISHNA GRAMIN BANK,PKGB0011074,SAIGOAN,TQ.BHALKI DIST.BIDAR,BIDAR,BHALKI,KARNATAKA,267045
564,PRAGATHI KRISHNA GRAMIN BANK,PKGB0011076,PUTPAK,TQ.YADGIR DIST.YADGIR,YADGIR,YADGIR,KARNATAKA,290720
565,PRAGATHI KRISHNA GRAMIN BANK,PKGB0011077,KAMTHANA,TQ.BIDAR DIST.BIDAR,BIDAR,BIDAR,KARNATAKA,245224
566,PRAGATHI KRISHNA GRAMIN BANK,PKGB0011078,MEHKAR,TQ.BHALKI DIST.BIDAR,BIDAR,BHALKI,KARNATAKA,269367
567,PRAGATHI KRISHNA GRAMIN BANK,PKGB0011080,ALAND,TQ.ALAND DIST.GULBARGA,GULBARGA,ALAND,KARNATAKA,202530
568,PRAGATHI KRISHNA GRAMIN BANK,PKGB0011081,MUCHALAM,TQ.BASAVAKALYAN DIST.BIDAR,BIDAR,BASAVAKALYAN,KARNATAKA,256713
569,PRAGATHI KRISHNA GRAMIN BANK,PKGB0011082,STN GANAGAPUR,TQ.AFZALPUR DIST.GULBARGA,GULBARGA,AFZALPUR,KARNATAKA,267236
570,PRAGATHI KRISHNA GRAMIN BANK,PKGB0011083,SONALA,TQ.AURAD DIST.BIDAR,BIDAR,AURAD,KARNATAKA,287377
571,PRAGATHI KRISHNA GRAMIN BANK,PKGB0011084,ALANDI,TQ.BHALKI DIST.BIDAR,BIDAR,BHALKI,KARNATAKA,265653
572,PRAGATHI KRISHNA GRAMIN BANK,PKGB0011086,BHALKI,TQ.BHALKI DIST.BIDAR,BIDAR,BHALKI,KARNATAKA,262510
573,PRAGATHI KRISHNA GRAMIN BANK,PKGB0011087,BIDAR,TQ.BIDAR DIST.BIDAR,BIDAR,BIDAR,KARNATAKA,228578
574,PRAGATHI KRISHNA GRAMIN BANK,PKGB0011089,BELURA,TQ.BASAVAKALYAN DIST.BIDAR,BIDAR,BASAVAKALYAN,KARNATAKA,259431
575,PRAGATHI KRISHNA GRAMIN BANK,PKGB0011090,UJALAM,TQ.BASAVAKALYAN DIST.BIDAR,BIDAR,BASAVAKALYAN,KARNATAKA,239353
576,PRAGATHI KRISHNA GRAMIN BANK,PKGB0011091,SIDDESHWAR,TQ.BHALKI DIST.BIDAR,BIDAR,BHALKI,KARNATAKA,263128
577,PRAGATHI KRISHNA GRAMIN BANK,PKGB0011092,HUMNABAD,TQ.HUMNABAD DIST.BIDAR,BIDAR,HUMNABAD,KARNATAKA,270483
578,PRAGATHI KRISHNA GRAMIN BANK,PKGB0011093,MADYAL,TQ.ALAND DIST.GULBARGA,GULBARGA,ALAND,KARNATAKA,217980
579,PRAGATHI KRISHNA GRAMIN BANK,PKGB0011094,SHORAPUR,TQ.SHORAPUR DIST.YADGIR,YADGIR,SHORAPUR,KARNATAKA,256069
580,PRAGATHI KRISHNA GRAMIN BANK,PKGB0011095,CHANGLAIR,TQ.HUMNABAD DIST.BIDAR,BIDAR,HUMNABAD,KARNATAKA,279069
581,PRAGATHI KRISHNA GRAMIN BANK,PKGB0011096,BASAVA KALYAN,TQ.BASAVAKALYAN DIST.BIDAR,BIDAR,BASAVAKALYAN,KARNATAKA,250442
582,PRAGATHI KRISHNA GRAMIN BANK,PKGB0011097,HOKRANA,TQ.AURAD DIST.BIDAR,BIDAR,AURAD,KARNATAKA,284555
583,PRAGATHI KRISHNA GRAMIN BANK,PKGB0011098,MURKI,TQ.AURAD DIST.BIDAR,BIDAR,AURAD,KARNATAKA,286605
584,PRAGATHI KRISHNA GRAMIN BANK,PKGB0011099,YADGIR,TQ.YADGIR DIST.YADGIR,YADGIR,YADGIR,KARNATAKA,252987
585,PRAGATHI KRISHNA GRAMIN BANK,PKGB0011101,BALABATTI,TQ.JEWARGI DIST.GULBARGA,GULBARGA,JEWARGI,KARNATAKA,280409
586,PRAGATHI KRISHNA GRAMIN BANK,PKGB0011102,MALAGATTI,TQ.SHORAPUR DIST.YADGIR,YADGIR,SHORAPUR,KARNATAKA,329784
587,PRAGATHI KRISHNA GRAMIN BANK,PKGB0011103,CHINCHANSUR,TQ.ALAND DIST.GULBARGA,GULBARGA,ALAND,KARNATAKA,231051
588,PRAGATHI KRISHNA GRAMIN BANK,PKGB0011105,M.B.NAGAR,TQ.GULBARGA DIST.GULBARGA,GULBARGA,GULBARGA,KARNATAKA,224983
589,PRAGATHI KRISHNA GRAMIN BANK,PKGB0011107,ALGUD,TQ.BASAVAKALYAN DIST.BIDAR,BIDAR,BASAVAKALYAN,KARNATAKA,257507
590,PRAGATHI KRISHNA GRAMIN BANK,PKGB0011108,HARKUD,TQ.BASAVAKALYAN DIST.BIDAR,BIDAR,BASAVAKALYAN,KARNATAKA,254490
591,PRAGATHI KRISHNA GRAMIN BANK,PKGB0011109,JAMAGI,TQ.AURAD DIST.BIDAR,BIDAR,AURAD,KARNATAKA,283370
592,PRAGATHI KRISHNA GRAMIN BANK,PKGB0011110,HAGARGUNDAGI,TQ.GULBARGA DIST.GULBARGA,GULBARGA,GULBARGA,KARNATAKA,213259
593,PRAGATHI KRISHNA GRAMIN BANK,PKGB0011112,DESAI KALLUR,TQ.AFZALPUR DIST.GULBARGA,GULBARGA,AFZALPUR,KARNATAKA,268568
594,PRAGATHI KRISHNA GRAMIN BANK,PKGB0011114,OMNAGAR,TQ.GULBARGA DIST.GULBARGA,GULBARGA,GULBARGA,KARNATAKA,245220
595,PRAGATHI KRISHNA GRAMIN BANK,PKGB0011115,KARUNESHWAR NAGAR,TQ.GULBARGA DIST.GULBARGA,GULBARGA,GULBARGA,KARNATAKA,252300
596,PRAGATHI KRISHNA GRAMIN BANK,PKGB0011116,NEHRU GUNJ,TQ.GULBARGA DIST.GULBARGA,GULBARGA,GULBARGA,KARNATAKA,268263
597,PRAGATHI KRISHNA GRAMIN BANK,PKGB0011117,SHAHA BAZAR,TQ.GULBARGA DIST.GULBARGA,GULBARGA,GULBARGA,KARNATAKA,274305
598,PRAGATHI KRISHNA GRAMIN BANK,PKGB0011118,KAMALAPUR,TQ.GULBARGA DIST.GULBARGA,GULBARGA,GULBARGA,KARNATAKA,221548
599,PRAGATHI KRISHNA GRAMIN BANK,PKGB0011119,HUNASAGI,TQ.SHORAPUR DIST.YADGIR,YADGIR,SHORAPUR,KARNATAKA,200087
600,PRAGATHI KRISHNA GRAMIN BANK,PKGB0011121,NOUBAD,TQ.BIDAR DIST.BIDAR,BIDAR,BIDAR,KARNATAKA,282690
601,PRAGATHI KRISHNA GRAMIN BANK,PKGB0011122,KAMALNAGAR,TQ.AURAD DIST.BIDAR,BIDAR,AURAD,KARNATAKA,285377
602,PRAGATHI KRISHNA GRAMIN BANK,PKGB0011124,YADRAMI,TQ.JEWARGI DIST.GULBARGA,GULBARGA,JEWARGI,KARNATAKA,226543
603,PRAGATHI KRISHNA GRAMIN BANK,PKGB0011125,MANTHAL,TQ.BASAVAKALYAN DIST.BIDAR,BIDAR,BASAVAKALYAN,KARNATAKA,257888
604,PRAGATHI KRISHNA GRAMIN BANK,PKGB0011132,MAHAGAON CROSS,TQ.GULBARGA DIST.GULBARGA,GULBARGA,GULBARGA,KARNATAKA,220188
605,PRAGATHI KRISHNA GRAMIN BANK,PKGB0011133,SUBHASH CHOWK YADGIR,TQ.YADGIR DIST.YADGIR,YADGIR,YADGIR,KARNATAKA,250466
606,PRAGATHI KRISHNA GRAMIN BANK,PKGB0011134,RAMSAMUDRA,TQ.YADGIR DIST.YADGIR,YADGIR,YADGIR,KARNATAKA,250466
607,PRAGATHI KRISHNA GRAMIN BANK,PKGB0011135,BIDAPUR COLONY GLB,TQ.GULBARGA DIST.GULBARGA,GULBARGA,GULBARGA,KARNATAKA,273907
608,PRAGATHI KRISHNA GRAMIN BANK,PKGB0011136,SHIVANAGAR BIDAR,TQ.BIDAR DIST.BIDAR,BIDAR,BIDAR,KARNATAKA,240370
609,PRAGATHI KRISHNA GRAMIN BANK,PKGB0011137,CHIDRI ROAD BIDAR,TQ.BIDAR DIST.BIDAR,BIDAR,BIDAR,KARNATAKA,240454
610,PRAGATHI KRISHNA GRAMIN BANK,PKGB0011138,INDUSTRIAL AREA GLB,TQ.GULBARGA DIST.GULBARGA,GULBARGA,GULBARGA,KARNATAKA,273907
611,PRAGATHI KRISHNA GRAMIN BANK,PKGB0011139,RAVOOR,"TQ.CHITAPUR,DIST GULBARGA",GULBARGA,CHITAPUR,KARNATAKA,288023
612,PRAGATHI KRISHNA GRAMIN BANK,PKGB0011140,AIWAN-E-SHAHI GULBARGA,TQ.GULBARGA DIST.GULBARGA,GULBARGA,GULBARGA,KARNATAKA,240093
613,PRAGATHI KRISHNA GRAMIN BANK,PKGB0011141,FARHATABAD,TQ.GULBARGA DIST.GULBARGA,GULBARGA,GULBARGA,KARNATAKA,213200
614,PRAGATHI KRISHNA GRAMIN BANK,PKGB0011142,BILWAR,TQ.JEWARGI DIST.GULBARGA,GULBARGA,JEWARGI,KARNATAKA,280025
615,PRAGATHI KRISHNA GRAMIN BANK,PKGB0011143,KEMBHAVI,TQ.SHORAPUR DIST.YADGIR,YADGIR,SHORAPUR,KARNATAKA,278301
616,PRAGATHI KRISHNA GRAMIN BANK,PKGB0011144,HATTIGUDUR,TQ.SHAHAPUR DIST.YADGIR,YADGIR,SHAHAPUR,KARNATAKA,215425
617,PRAGATHI KRISHNA GRAMIN BANK,PKGB0011145,SHAHPUR YADGIR ROAD,TQ.SHAHAPUR DIST.YADGIR,YADGIR,SHAHAPUR,KARNATAKA,244600
618,PRAGATHI KRISHNA GRAMIN BANK,PKGB0011146,N R COLONY,TQ.GULBARGA DIST.GULBARGA,GULBARGA,GULBARGA,KARNATAKA,254105
619,PRAGATHI KRISHNA GRAMIN BANK,PKGB0011147,CHITAGUPPA,TQ.HUMNABAD DIST.BIDAR,BIDAR,HUMNABAD,KARNATAKA,277377
620,PRAGATHI KRISHNA GRAMIN BANK,PKGB0011148,HALBARGA,TQ.BHALKI DIST.BIDAR,BIDAR,BHALKI,KARNATAKA,263600
621,PRAGATHI KRISHNA GRAMIN BANK,PKGB0011149,KAMALANAGAR,TQ.ALAND DIST.GULBARGA,GULBARGA,ALAND,KARNATAKA,232111
622,PRAGATHI KRISHNA GRAMIN BANK,PKGB0011150,HALLIKHED B,TQ.HUMNABAD DIST.BIDAR,BIDAR,HUMNABAD,KARNATAKA,274400
623,PRAGATHI KRISHNA GRAMIN BANK,PKGB0011151,HATTIKUNI,TQ.YADGIR DIST.YADGIR,YADGIR,YADGIR,KARNATAKA,212611
624,PRAGATHI KRISHNA GRAMIN BANK,PKGB0011152,SAIDAPUR,TQ.YADGIR DIST.YADGIR,YADGIR,YADGIR,KARNATAKA,224038
625,PRAGATHI KRISHNA GRAMIN BANK,PKGB0011153,BALASHETTIHAL,TQ.SHORAPUR DIST.YADGIR,YADGIR,SHORAPUR,KARNATAKA,290222
626,PRAGATHI KRISHNA GRAMIN BANK,PKGB0011154,BAGADAL,TQ.BIDAR DIST.BIDAR,BIDAR,BIDAR,KARNATAKA,242933
627,PRAGATHI KRISHNA GRAMIN BANK,PKGB0011155,RAJESHWAR,TQ.BASAVAKALYAN DIST.BIDAR,BIDAR,BASAVAKALYAN,KARNATAKA,258077
628,PRAGATHI KRISHNA GRAMIN BANK,PKGB0011156,RANGAMPETH,TQ.SHORAPUR DIST.YADGIR,YADGIR,SHORAPUR,KARNATAKA,257022
629,PRAGATHI KRISHNA GRAMIN BANK,PKGB0011157,DUBULGUNDI,TQ.HUMNABAD DIST.BIDAR,BIDAR,HUMNABAD,KARNATAKA,273434
630,PRAGATHI KRISHNA GRAMIN BANK,PKGB0011158,AYNAPUR,TQ.CHINCHOLI DIST.GULBARGA,GULBARGA,CHINCHOLI,KARNATAKA,232111
631,PRAGATHI KRISHNA GRAMIN BANK,PKGB0011159,GODUTAYI NAGAR,TQ.GULBARGA DIST.GULBARGA,GULBARGA,GULBARGA,KARNATAKA,232111
632,PRAGATHI KRISHNA GRAMIN BANK,PKGB0011160,OLD JEWARGI ROAD,TQ.GULBARGA DIST.GULBARGA,GULBARGA,GULBARGA,KARNATAKA,232111
633,PRAGATHI KRISHNA GRAMIN BANK,PKGB0011161,GUMPA BIDAR,TQ.BIDAR DIST.BIDAR,BIDAR,BIDAR,KARNATAKA,235400
634,PRAGATHI KRISHNA GRAMIN BANK,PKGB0011162,MUDNUR,TQ.SHORAPUR DIST.YADGIR,YADGIR,SHORAPUR,KARNATAKA,257022
635,PRAGATHI KRISHNA GRAMIN BANK,PKGB0011163,MUDBUL,TQ.SHORAPUR DIST.YADGIR,YADGIR,SHORAPUR,KARNATAKA,257022
636,PRAGATHI KRISHNA GRAMIN BANK,PKGB0011164,NAIKAL,TQ.SHORAPUR DIST.YADGIR,YADGIR,SHORAPUR,KARNATAKA,257022
637,PRAGATHI KRISHNA GRAMIN BANK,PKGB0011165,AMBALAGA,TQ.ALAND DIST.GULBARGA,GULBARGA,ALAND,KARNATAKA,232111
638,PRAGATHI KRISHNA GRAMIN BANK,PKGB0011166,HIROLLI,TQ.ALAND DIST.GULBARGA,GULBARGA,ALAND,KARNATAKA,232111
639,PRAGATHI KRISHNA GRAMIN BANK,PKGB0011167,WADAGAON,TQ.AURAD DIST.BIDAR,BIDAR,AURAD,KARNATAKA,283344
640,PRAGATHI KRISHNA GRAMIN BANK,PKGB0011168,RANJOL,TQ.SEDAM DIST.GULBARGA,GULBARGA,SEDAM,KARNATAKA,232111
641,PRAGATHI KRISHNA GRAMIN BANK,PKGB0011169,MIRKAL,MAIN BAZAR LANE,BIDAR,BASAVAKALYAN,KARNATAKA,283344
642,PRAGATHI KRISHNA GRAMIN BANK,PKGB0011170,GUNDGURTI,MAIN BAZAR LANE,GULBARGA,CHITAPUR,KARNATAKA,257022
643,PRAGATHI KRISHNA GRAMIN BANK,PKGB0011171,ESI HOSPITAL GULBARGA,SEDAM ROAD ESI HOSPITAL,GULBARGA,GULBARGA,KARNATAKA,232111
644,PRAGATHI KRISHNA GRAMIN BANK,PKGB0011172,LALGERI CROSS,LALGERI CROSS,GULBARGA,GULBARGA,KARNATAKA,232111
645,PRAGATHI KRISHNA GRAMIN BANK,PKGB0011173,SHEROF BAZAR,SHEROF BAZAR,GULBARGA,GULBARGA,KARNATAKA,275100
646,PRAGATHI KRISHNA GRAMIN BANK,PKGB0011174,RUDRAVADI,MAIN BAZAR LANE,GULBARGA,ALAND,KARNATAKA,275100
647,PRAGATHI KRISHNA GRAMIN BANK,PKGB0011175,SEDAM OLD CITY,SEDAM OLD CITY,GULBARGA,SEDAM,KARNATAKA,275100
648,PRAGATHI KRISHNA GRAMIN BANK,PKGB0011176,MUNNALLI,MAIN BAZAR LANE,GULBARGA,ALAND,KARNATAKA,275100
649,PRAGATHI KRISHNA GRAMIN BANK,PKGB0011177,NITTUR,MAIN BAZAR LANE,BIDAR,BHALKI,KARNATAKA,264452
650,PRAGATHI KRISHNA GRAMIN BANK,PKGB0011178,"DARGI GALLI, BIDAR",DARJI GALLI,BIDAR,BIDAR,KARNATAKA,223422
651,PRAGATHI KRISHNA GRAMIN BANK,PKGB0011179,EKAMBA,MAIN BAZAR LANE,BIDAR,AURAD,KARNATAKA,223422
652,PRAGATHI KRISHNA GRAMIN BANK,PKGB0011180,HUMNABAD OLD CITY,OLD CITY,BIDAR,HUMNABAD,KARNATAKA,270482
653,PRAGATHI KRISHNA GRAMIN BANK,PKGB0011181,SHAHABAD,MAIN BAZAR LANE,GULBARGA,CHITAPUR,KARNATAKA,257022
654,PRAGATHI KRISHNA GRAMIN BANK,PKGB0011183,NALWAR,KUMBAR ONI,GULBARGA,CHITAPUR,KARNATAKA,257022
655,PRAGATHI KRISHNA GRAMIN BANK,PKGB0011184,REVAGGI TEMPLE,MAIN BAZAR LANE,GULBARGA,CHITAPUR,KARNATAKA,257022
656,PRAGATHI KRISHNA GRAMIN BANK,PKGB0011185,"GUNJ AREA, YADGIR",STAION AREA,YADGIR,YADGIR,KARNATAKA,257022
657,PRAGATHI KRISHNA GRAMIN BANK,PKGB0011186,BALONDAGI,MAIN BAZAR LANE,GULBARGA,JEWARGI,KARNATAKA,257022
658,PRAGATHI KRISHNA GRAMIN BANK,PKGB0011187,MALLAB,MAIN BAZAR LANE,YADGIR,SHORAPUR,KARNATAKA,257022
659,PRAGATHI KRISHNA GRAMIN BANK,PKGB0011188,KALGI,MAIN BAZAR LANE,GULBARGA,CHITAPUR,KARNATAKA,257022
660,PRAGATHI KRISHNA GRAMIN BANK,PKGB0011189,CHOUBARA,TQ.BIDAR DIST.BIDAR,BIDAR,BIDAR,KARNATAKA,229897
661,PRAGATHI KRISHNA GRAMIN BANK,PKGB0011190,N.V.LAYOUT GULBARGA,TQ.GULBARGA DIST.GULBARGA,GULBARGA,GULBARGA,KARNATAKA,232371
662,PRAGATHI KRISHNA GRAMIN BANK,PKGB0011191,GURMITKAL,TQ.YADGIR DIST.YADGIR,YADGIR,YADGIR,KARNATAKA,225363
663,PRAGATHI KRISHNA GRAMIN BANK,PKGB0011193,BALLARI INDIRANAGAR,HOUSE NO LIG 7 WARD NO 31 KOLAGAL ROAD INDIRANAGAR BALLARI 583104,BALLARI,BALLARI,KARNATAKA,219990
664,PRAGATHI KRISHNA GRAMIN BANK,PKGB0011194,K G HALLI,K G HALLI VILLAGE TEKAL POST MALUR TQ KOLAR DISTRICT 563137,KOLAR,MALUR,KARNATAKA,220112
665,PRAGATHI KRISHNA GRAMIN BANK,PKGB0011195,HONNAKIRANAGI,"MAIN ROAD, HONNAKIRANAGI, KALABURAGI",KALABURAGI,KALABURAGI,KARNATAKA,0
666,PRAGATHI KRISHNA GRAMIN BANK,PKGB0011196,RAMAJOGIHALLI,OPP GRAMA PANCHAYAT BUILDING RAMAJOGIHALLI VILLAGE AND POST CHALLAKERE CHITRADURGA,CHITRADURGA,CHALLAKERE,KARNATAKA,0
667,PRAGATHI KRISHNA GRAMIN BANK,PKGB0011197,YEDEHALLI,"UPSTAIRS OF BAJAJ SHOWROOM, YEDEHALLI, SAGAR TALUK, SHIVAMOGGA DIST.",SHIVAMOGGA,SAGAR,KARNATAKA,0
668,PRAGATHI KRISHNA GRAMIN BANK,PKGB0011198,UTTANGI,"NO 262, WARD NO 1, AT & POST, HUVINAHADAGALI TALUK, PIN 583219.",BALLARI,UTTANGI,KARNATAKA,252235
669,PRAGATHI KRISHNA GRAMIN BANK,PKGB0011199,SHAHAPUR ROAD - JEWARGI,KRISHNA COMPLEX OPP APMC MAIN GATE NEAR MINI VIDHANA SOUDHA JEWARGI TQ-JEWARGI,KALABURGI,KALABURGI,KARNATAKA,234355
670,PRAGATHI KRISHNA GRAMIN BANK,PKGB0011200,MAGANAGERE,SHREE GOLLEALESHWARA COMPLEX OPP GOVT HIGH SCHOOL MAGANAGERE VILLAGE JEWARGI TALUK,KALABURGI,YADGIRI,KARNATAKA,234223
671,PRAGATHI KRISHNA GRAMIN BANK,PKGB0011201,NAGARAGERE,NAGARAGERE VILLAGE AND POST,CHIKKABALAPURA,GOWRIBIDANUR,KARNATAKA,234216
672,PRAGATHI KRISHNA GRAMIN BANK,PKGB0011202,JAYANAGAR KOLAR,7TH CROSS B BLOCK KOLAR TQ KOLAR DT KOLAR PIN CODE 563101,KOLAR,KOLAR,KARNATAKA,234215
673,PRAGATHI KRISHNA GRAMIN BANK,PKGB0011203,YELHERI,GRAM PANCHAYAT BULIDING YELHERI VILLAGE TQ YADGIR DT YADGIR PIN CODE 585321,YADGIR,YADGIR,KARNATAKA,234215
674,PRAGATHI KRISHNA GRAMIN BANK,PKGB0011204,SHAMANUR,SHAMANUR ROAD DAVANGERE,DAVANGERE,DAVANGERE,KARNATAKA,234215
