,BANK NAME,IFSC,OFFICE,ADDRESS,DISTRICT,CITY,STATE,PHONE
0,CITY UNION BANK LIMITED,CIUB0000001,TNAGAR CHENNAI,"19,MAHALAKSHMI STREET,CHENNAI600017",CHENNAI,CHENNAI,TAMIL NADU,24340010
1,CITY UNION BANK LIMITED,CIUB0000002,THANJAVUR,"16091611,SOUTH MAIN STREET,THANJAVUR613009",THANJAVUR,THANJAVUR,TAMIL NADU,230943
2,CITY UNION BANK LIMITED,CIUB0000003,KUMBAKONAM TOWN,"NO.42. MUTT STREET,KUMBAKONAM TOWN612001",THANJAVUR,KUMBAKONAM,TAMIL NADU,2421176
3,CITY UNION BANK LIMITED,CIUB0000004,KUMBAKONAM MO,"149 BIG STREET,KUMBAKONAM MAIN612001",THANJAVUR,KUMBAKONAM,TAMIL NADU,2421058
4,CITY UNION BANK LIMITED,CIUB0000005,MAYILADUTHURAI,"No.45,Pattamangala Street,Mayiladuthurai",NAGAPATTINAM,MAYILADUTHURAI,TAMIL NADU,222156
5,CITY UNION BANK LIMITED,CIUB0000006,NAGAPATINAM,"39 NEELA,SOUTH STREET,NAGAPATTINAM611001",NAGAPATTINAM,NAGAPATTINAM,TAMIL NADU,242852
6,CITY UNION BANK LIMITED,CIUB0000007,MANNARGUDI,"174 GANDHI ROAD, MANNARGUDI- 614001",TIRUVARUR,MANNARGUDI,TAMIL NADU,252815
7,CITY UNION BANK LIMITED,CIUB0000008,TIRUVARUR  VIJAYAPURAM,"MUTHU SHOPPING COMPLEX, GROUND FLOOR, 84 MARKET ROAD, VIJAYPURAM - 610 001",TIRUVARUR,TIRUVARUR,TAMIL NADU,223197
8,CITY UNION BANK LIMITED,CIUB0000009,ADUTHURAI,"No. 22/40-41, Tharangampadi Road,ADUTHURAI,THANJAVUR",THANJAVUR,ADUTHURAI,TAMIL NADU,2472174
9,CITY UNION BANK LIMITED,CIUB0000010,AYYEMPETTAI,"240, SALAI STREET, MAIN ROAD, AYYAMPET -614 201",THANJAVUR,AYYEMPETTAI,TAMIL NADU,242287
10,CITY UNION BANK LIMITED,CIUB0000011,ERAVANCHERRY,"DOOR NO.2 BY 332, MAIN ROAD, ERAVANCHERY - 609 501",TIRUVARUR,ERAVANCHERY,TAMIL NADU,273429
11,CITY UNION BANK LIMITED,CIUB0000012,KORADACHERRY,"220 VKM BUILDINGS, KAMRAJ SALAI, KORADACHERY- 613 703",TIRUVARUR,KORADACHERY,TAMIL NADU,232422
12,CITY UNION BANK LIMITED,CIUB0000013,KODAVASAL,"45 MAIN ROAD, KODAVASAL - 612 601",TIRUVARUR,KODAVASAL,TAMIL NADU,262033
13,CITY UNION BANK LIMITED,CIUB0000014,KUTTALAM,"67, MELACHETTY ST, KUTTALAM - 609 801",NAGAPATTINAM,KUTTALAM,TAMIL NADU,234024
14,CITY UNION BANK LIMITED,CIUB0000015,NANNILAM,"53-B BAZAAR STREET, NANILLAM - 610 105",TIRUVARUR,NANNILAM,TAMIL NADU,230437
15,CITY UNION BANK LIMITED,CIUB0000016,SANNANALLUR,"32 BY 2, GROUND FLOOR, NAGAPATTINAM MAIN ROAD, SANANALLUR",TIRUVARUR,SANNANALLUR,TAMIL NADU,230512
16,CITY UNION BANK LIMITED,CIUB0000017,PORAYAR,"SHANDEVELI STREET, PORAYAR",NAGAPATTINAM,PORAYAR,TAMIL NADU,289431
17,CITY UNION BANK LIMITED,CIUB0000018,SEMBANARKOIL,"1 BY 34 MAIN ROAD, SEMBARNARKOIL",NAGAPATTINAM,SEMBANARKOIL,TAMIL NADU,282438
18,CITY UNION BANK LIMITED,CIUB0000019,TIRUKKATTUPALLI,"30 BAZAAR STREET, THIRUKATTUPALLI",THANJAVUR,TIRUKATTUPALLI,TAMIL NADU,280461
19,CITY UNION BANK LIMITED,CIUB0000020,TIRUPANANDAL,"No.9, South Car Street, TIRUPANANDAL,THANJAVUR",THANJAVUR,TIRUPANANDAL,TAMIL NADU,2456444
20,CITY UNION BANK LIMITED,CIUB0000021,THIRUVIDAIMARUTHUR,"103 NORTH STREET, TIRUVIDAIMARDUR - 612 104.",THANJAVUR,TIRUVIDAIMARUTHUR,TAMIL NADU,2460124
21,CITY UNION BANK LIMITED,CIUB0000022,VALANGAIMAN,"SRIRAM NIVAS, DOOR NO.27, KAILASANATHAR SOUTH ST, VALANGAIMAN - 612 804",TIRUVARUR,VALANGAIMAN,TAMIL NADU,264422
22,CITY UNION BANK LIMITED,CIUB0000023,TIRUCHIRAPPALLI,"KALIAMHAN KOIL ST,INDIRA GANDHI COLLEGE COMPUS,TRICHY620002",TIRUCHIRAPALLI,TIRUCHIRAPALLI,TAMIL NADU,2704180
23,CITY UNION BANK LIMITED,CIUB0000024,ARIYALUR,"6A, Mela Agraharam,ARIYALUR",ARIYALUR,ARIYALUR,TAMIL NADU,222073
24,CITY UNION BANK LIMITED,CIUB0000025,JAYANKONDAM,"63A SANNATHI STREET, JAYAMKONDAM - 621 802",ARIYALUR,JAYANKONDAM,TAMIL NADU,250268
25,CITY UNION BANK LIMITED,CIUB0000026,MANAPPARAI,"GROUND FLOOR, NO.115 NEW ST, MANAPPARAI- 612 306",TIRUCHIRAPALLI,MANAPPARAI,TAMIL NADU,260649
26,CITY UNION BANK LIMITED,CIUB0000027,MADURAI MAIN,"GR.FL,NO.70,TAMIL SANGAM ROAD,MADURAI625001",MADURAI,MADURAI,TAMIL NADU,2348886
27,CITY UNION BANK LIMITED,CIUB0000028,DINDIGUL,"22BY23,CHATRAM STREET UPSTAIRDINDIGUL624001",DINDIGUL,DINDIGUL,TAMIL NADU,2434487
28,CITY UNION BANK LIMITED,CIUB0000029,KEELAPALUVUR,"TRICHY-CHIDAMBARAM MAIN ROAD, KEELAPALUR - 621 707",ARIYALUR,KEELAPALUVUR,TAMIL NADU,247221
29,CITY UNION BANK LIMITED,CIUB0000030,TIRUMAKKOTTAI,"NO.1 BY 85 MAIN ROAD, THIRUMAKOTTAI- 614 017",TIRUVARUR,TIRUMAKOTTAI,TAMIL NADU,272437
30,CITY UNION BANK LIMITED,CIUB0000031,KOTTUR,"3 BY 551 MAIN ROAD, KOTTUR- 614 708",TIRUVARUR,KOTTUR,TAMIL NADU,279440
31,CITY UNION BANK LIMITED,CIUB0000032,CENTRAL OFFICE,"149, TSR BIG STREET, KUMBAKONAM 612001",THANJAVUR,KUMBAKONAM,TAMIL NADU,2402322
32,CITY UNION BANK LIMITED,CIUB0000033,TIRUVARUR  TOWN,"GRT BUILDING 45 BY F, SOUTH MAIN STREET, TIRUVARUR TOWN- 610 002",TIRUVARUR,TIRUVARUR,TAMIL NADU,242224
33,CITY UNION BANK LIMITED,CIUB0000034,RAM NAGAR COIMBATORE,"2730. SAROJINI STREET,RAMNAGARCOIMBATORE641009",COIMBATORE,COIMBATORE,TAMIL NADU,2232393
34,CITY UNION BANK LIMITED,CIUB0000035,PERIYAKULAM,"VAIGAIDAM ROAD, THENKARAI,PERIYAKULAM626501",THENI,PERIYAKULAM,TAMIL NADU,231330
35,CITY UNION BANK LIMITED,CIUB0000036,MANDAVELI CHENNAI,"KEERTHIS,NO.67. MANDAVELI STREET,MANDAVELI CHENNAI600028",CHENNAI,CHENNAI,TAMIL NADU,24937874
36,CITY UNION BANK LIMITED,CIUB0000037,PATTUKOTTAI,"42 BY A FIRST FLOOR, THALAYARI STREET, PATTUKOTTAI - 614 601",THANJAVUR,PATTUKOTTAI,TAMIL NADU,252293
37,CITY UNION BANK LIMITED,CIUB0000038,TRIPLICANE CHENNAI,"SHREYANS BHAVAN,OLD NO.5762.NEW NO.111,WALLAJAH ROAD,TRIPLICANE,CHENNAI600002",CHENNAI,CHENNAI,TAMIL NADU,28524262
38,CITY UNION BANK LIMITED,CIUB0000039,CUDDALORE,"22,NETHAJI ROAD,CUDDALORE607001",CUDDALORE,CUDDALORE,TAMIL NADU,230467
39,CITY UNION BANK LIMITED,CIUB0000040,PUDUKOTTAI,"T S NO 3182,NELLUMANDI STREET,PUDUKKOTTAI622001",PUDUKKOTTAI,PUDUKKOTTAI,TAMIL NADU,267133
40,CITY UNION BANK LIMITED,CIUB0000041,CHIDAMBARAM,"164 WEST CAR STREET, CHIDAMBARAM - 608 001",CUDDALORE,CHIDAMBARAM,TAMIL NADU,222114
41,CITY UNION BANK LIMITED,CIUB0000042,SALEM,"96,98,100,ARUNACHALA ACHARI STREET,SALEM636001",SALEM,SALEM,TAMIL NADU,260134
42,CITY UNION BANK LIMITED,CIUB0000043,Chennai George Town,"OLD NO 154, NEW NO 319,THAMBU CHETTY STREET,GEORGE TOWN,CHENNAI-600001",CHENNAI,CHENNAI,TAMIL NADU,25342340
43,CITY UNION BANK LIMITED,CIUB0000044,TIRUPOONDI,"3 BY 61, B-1 MAIN ROAD, TIRUPOONDI - 611 110, KEEVALUR T.K",NAGAPATTINAM,TIRUPOONDI,TAMIL NADU,265423
44,CITY UNION BANK LIMITED,CIUB0000045,TIRUNELLIKAVAL,"2 BY 128 EAST STREET, TIRUNELLIKAVAL- 610 205, NEEDAMANGALAM TK.",TIRUVARUR,TIRUNELLIKAVAL,TAMIL NADU,9237443
45,CITY UNION BANK LIMITED,CIUB0000046,TIRUMARUGAL,"1 BY 74, WEST STREET, TIRUMARUGAL - 609 702",NAGAPATTINAM,TIRUMARUGAL,TAMIL NADU,270433
46,CITY UNION BANK LIMITED,CIUB0000047,ULLIKKOTTAI,"1 BY 18 A-1 MAIN ROAD, ULLIKOTTAI- 614 018",TIRUVARUR,ULLOKOTTAI,TAMIL NADU,270445
47,CITY UNION BANK LIMITED,CIUB0000048,TIRUNELVELI,"I FLOOR,DOOR NO.10,NORTH CAR STREET,TIRUNELVELI627006",TIRUNELVELI,TIRUNELVELI,TAMIL NADU,337349
48,CITY UNION BANK LIMITED,CIUB0000049,MOUNT ROAD CHENNAI,"706,MOUNT ROAD,MOUNT ROADCHENNAI600006",CHENNAI,CHENNAI,TAMIL NADU,28297321
49,CITY UNION BANK LIMITED,CIUB0000050,KARAIKUDI,"KRISHNA ARCADE,333BY1. SEKKALAI ROAD,KARAIKUDI630001",SIVAGANGA,KARAIKUDI,TAMIL NADU,236524
50,CITY UNION BANK LIMITED,CIUB0000051,THAMARANGKOTTAI,"23 MUTHUPETTAI ROAD, MUTHUPETTAI ROAD, THAMARANGKOTTAI - 614 613",THANJAVUR,THAMARANGKOTTAI,TAMIL NADU,283441
51,CITY UNION BANK LIMITED,CIUB0000052,RISHIVANDIYAM,"5 BY 63A NEW NO3 BY 110, MAHATMA GANDHI ROAD, RISHIVANDIYAM,- 606 205",VILLUPURAM,RISHIVANDIYAM,TAMIL NADU,243246
52,CITY UNION BANK LIMITED,CIUB0000053,VILANKURICHI COIMBATORE,"NO1638,AVANASHI ROAD,B R PURAMVILANKURICHI CBE641004",COIMBATORE,COIMBATORE,TAMIL NADU,2574191
53,CITY UNION BANK LIMITED,CIUB0000054,BANGALORE SULTANPET,"NO 349, KOMARALA TOWERS, OTC ROAD,CHICKPET MAIN ROAD,BANGALORE",BENGALURU URBAN,BENGALURU,KARNATAKA,22870328
54,CITY UNION BANK LIMITED,CIUB0000055,SENGURICHI,"979 VINAYAKAR KOIL ST, SENGURICHI- 606 115",VILLUPURAM,SENGURICHI,TAMIL NADU,222229
55,CITY UNION BANK LIMITED,CIUB0000056,VEERAPANDI,"MUSLIM ST, VEERAPANDI - 605 758",VILLUPURAM,VEERAPANDI,TAMIL NADU,221107
56,CITY UNION BANK LIMITED,CIUB0000057,MADURAPAKKAM,"2 BY 48 KAMMAVAR STREET, MADURAPAKKAM",VILLUPURAM,MADURAPAKKAM,TAMIL NADU,2688486
57,CITY UNION BANK LIMITED,CIUB0000058,THALAIYUTHU,"M.P.M. Complex,,No.1/214, Palani  Udumalpet Main Road, Dindigul",DINDIGUL,THALAIYUTHU,TAMIL NADU,230337
58,CITY UNION BANK LIMITED,CIUB0000059,ERODE,"DOOR NO.907. PANNER SELVAM PARK,BROUGH ROAD,ERODE638001",ERODE,ERODE,TAMIL NADU,258821
59,CITY UNION BANK LIMITED,CIUB0000060,SILATTUR,"3 BY 16 NORTH STREET, SILATTUR - 614 622",PUDUKKOTTAI,SILLATUR,TAMIL NADU,236287
60,CITY UNION BANK LIMITED,CIUB0000061,HYDERABAD,"SAMA TOWERS,LIBERTYXROADS,HIMAYATNAGAR,HYDERABADHYDERABAD500029",HYDERABAD,HYDERABAD,ANDHRA PRADESH,228358
61,CITY UNION BANK LIMITED,CIUB0000062,VEPPAMPATTU,"61 RAILWAY STATION ROAD, VEPPAMPATTU- 602 024",THIRUVALLUR,VEPPAMPATU,TAMIL NADU,27689762
62,CITY UNION BANK LIMITED,CIUB0000063,VEERAPERUMANALLUR,"305 VEERARAGHAVA PERUMAL KOIL STREET, VEERAPERUMANALLUR- 607 101",CUDDALORE,VEERAPERUMANALLUR,TAMIL NADU,247638
63,CITY UNION BANK LIMITED,CIUB0000064,THIMMACHIPURAM,"2 BY 151-A, MELA KODI THERU, TRICHY-KARUR MAIN ROAD, THIMMACHIPURAM- 639 105",KARUR,THIMMACHIPURAM,TAMIL NADU,242242
64,CITY UNION BANK LIMITED,CIUB0000065,VELLORE,"138BY54,GANDHI ROAD,VELLORE632004",VELLORE,VELLORE,TAMIL NADU,232564
65,CITY UNION BANK LIMITED,CIUB0000066,TIRUPPUR,"94,941,COURT STREET,TIRUPPURCOIMBATORE DIST.641601",TIRUPPUR,TIRUPPUR,TAMIL NADU,247248
66,CITY UNION BANK LIMITED,CIUB0000067,CHINMAYANAGAR CHENNAI,"NO 26,I MAIN ROAD,SAYEE NAGARCHINMAYA NAGARCHENNAI600111",CHENNAI,CHENNAI,TAMIL NADU,24871953
67,CITY UNION BANK LIMITED,CIUB0000068,ALANGUDI,"2 BY 58 BAZAAR STREET, ALANGUDI - 614 801",TIRUVARUR,ALANGUDI,TAMIL NADU,269434
68,CITY UNION BANK LIMITED,CIUB0000069,ATHANAKOTTAI,"BLOCK NO.3,TANJORE-PUDUKOTTAI ROAD, MAIN ROAD, ATHANKOTTAI- 622 203",PUDUKKOTTAI,ATHANAKOTTAI,TAMIL NADU,241244
69,CITY UNION BANK LIMITED,CIUB0000070,KURICHI,"D NO.50, MAIN ROAD, KURICHI- 612 504",THANJAVUR,KURICHI,TAMIL NADU,2458453
70,CITY UNION BANK LIMITED,CIUB0000071,KANCHIPURAM,"68,VALLAL PACHAIYAPPAN STREET,KANCHEEPURAM631501",KANCHEEPURAM,KANCHEEPURAM,TAMIL NADU,27223883
71,CITY UNION BANK LIMITED,CIUB0000072,MANJANAIKANPATTI,"5-44 MAIN ROAD, MANJANAICKENPATTI- 624 614",DINDIGUL,MANJANAYACKANPATTI,TAMIL NADU,220246
72,CITY UNION BANK LIMITED,CIUB0000073,NADUPATTI,"D NO. 4 BY 221, DINDIGUL MAIN ROAD, VAIYAMPATTY BLOCK, NADUPATTI - 621 315",TIRUCHIRAPALLI,NADUPATTY,TAMIL NADU,276222
73,CITY UNION BANK LIMITED,CIUB0000074,POLLACHI,"10, SHOPPING MALL, D.NO. 80-81/2, COIMBATORE ROAD, ,POLLACHI,COIMBATORE",COIMBATORE,POLLACHI,TAMIL NADU,227888
74,CITY UNION BANK LIMITED,CIUB0000075,MADAPATTU,"G S T ROAD, PADMINI BUILDINGS, MADAPATTU - 607 207",VILLUPURAM,MADAPATTU,TAMIL NADU,224229
75,CITY UNION BANK LIMITED,CIUB0000076,SECUNDERABAD,"5494,M. G. ROAD,SECUNDERABADANDHRAPRADESH500003",HYDERABAD,SECUNDERABAD,ANDHRA PRADESH,27544334
76,CITY UNION BANK LIMITED,CIUB0000077,RAJAPALAYAM,"406 . TENKASI ROAD,RAJAPALAYAM626117",VIRUDHUNAGAR,RAJAPALAYAM,TAMIL NADU,230432
77,CITY UNION BANK LIMITED,CIUB0000078,PN PALAYAM COIMBATORE,"63, Narayana swamy layout,New scheme road (Near GKNM Hospital signal),PAPANAICKEN PALAYAM, COIMBATORE,COIMBATOREi",COIMBATORE,COIMBATORE,TAMIL NADU,214492
78,CITY UNION BANK LIMITED,CIUB0000079,KULATHUR,"SY No.309/3B, Pudukottai  Trichy Main Road,Kulathur,PUDUKKOTTAI",PUDUKKOTTAI,KULATHUR,TAMIL NADU,262508
79,CITY UNION BANK LIMITED,CIUB0000080,GUNTUR,"D.NO.23-6-122, Rama Enclave,PATNAM BAZAR, GUNTUR",GUNTUR,GUNTUR,ANDHRA PRADESH,222005
80,CITY UNION BANK LIMITED,CIUB0000081,THOGUR,"AGRAHARAM, THOGOOR - 613 102",TIRUCHIRAPALLI,THOGUR,TAMIL NADU,2404025
81,CITY UNION BANK LIMITED,CIUB0000082,RTGS-HO,"City Union Bank Ltd No 48,Mahalakshmi Street,T.Nagar,Chennai 600017,TamilNadu",CHENNAI,CHENNAI,TAMIL NADU,28297903
82,CITY UNION BANK LIMITED,CIUB0000083,NELLORE,"13BY356,ACHARI ST.,PEDDA BAZAR,NELLORE524001",NELLORE,NELLORE,ANDHRA PRADESH,2326001
83,CITY UNION BANK LIMITED,CIUB0000084,KHAR WEST MUMBAI,"1FL.JAINS ARCADE,402. 14TH ROAD,CHUIM VILLAGE,KHAR WEST,MUMBAI400052",MUMBAI,MUMBAI,MAHARASHTRA,26463047
84,CITY UNION BANK LIMITED,CIUB0000085,TUTICORIN,"103 A BY 56 IST FLOOR,V. E. ROAD,TUTICORIN,626002",TOOTHUKUDI,TUTICORIN,TAMIL NADU,2321343
85,CITY UNION BANK LIMITED,CIUB0000086,ERNAKULAM,"RAM-MEENA BUILDINGS,1848F,39TH DIVISION,VALANJAMBALAM JUNCTION,S A ROAD,ERNAKULAM,ERNAKULAM-682016",ERNAKULAM,ERNAKULAM,KERALA,2353383
86,CITY UNION BANK LIMITED,CIUB0000087,PONDICHERRY,"119, BUSSY STREET,PUDUCHERRY,PUDUCHERRY",PUDUCHERRY,PUDUCHERRY,PUDUCHERRY,2331272
87,CITY UNION BANK LIMITED,CIUB0000088,NAMAKKAL,"DOOR NO.169C1,THURAIYUR RD.,NAMAKKAL637002",NAMAKKAL,NAMAKKAL,TAMIL NADU,221096
88,CITY UNION BANK LIMITED,CIUB0000089,KARUR,"NAVARANG BUILDING,NO.18. RAMAKRISHNAPURAM,KARUR639001",KARUR,KARUR,TAMIL NADU,230346
89,CITY UNION BANK LIMITED,CIUB0000090,VIRUDUNAGAR,"DOOR NO.133,MADURAI RD.,VIRUDHUNAGAR626001",VIRUDHUNAGAR,VIRUDHUNAGAR,TAMIL NADU,243962
90,CITY UNION BANK LIMITED,CIUB0000091,VILLUPURAM,"DOOR NO8,CHAIRMAN SUBBARAYAN STREET WEST,VILLUPURAM605602",VILLUPURAM,VILLUPURAM,TAMIL NADU,222313
91,CITY UNION BANK LIMITED,CIUB0000092,GOPICHETTYPALAYAM,"25 RAJA STREET, PUDUPALAYAM, ERODE MAIN ROAD, GOBICHETTIPALAYAM- 638 476",ERODE,GOBICHETTIPALAYAM,TAMIL NADU,223539
92,CITY UNION BANK LIMITED,CIUB0000093,TIPTUR,"721 BY 1 B H ROAD, CHANDRAMOULI COMPLEX, BANGALORE - HONNAVER ROAD, TIPTUR - 572 201",TUMKUR,TIPTUR,KARNATAKA,250282
93,CITY UNION BANK LIMITED,CIUB0000094,GUDIVADA,"15BY36B IST FLOOR,PARK ROAD,GUDIVADA521301",KRISHNA,GUDIVADA,ANDHRA PRADESH,243571
94,CITY UNION BANK LIMITED,CIUB0000095,CHAVAKKAD,"22/748-B, T T Complex, Ground Floor,North Bye Pass Road, Thrissur",THRISSUR,CHAVAKKAD,KERALA,2507884
95,CITY UNION BANK LIMITED,CIUB0000096,THIRUVALLA,"ILLAMPALLIL TOWERS,M.C.ROAD,THIRUVALLA689101",PATHANAMTHITTA,THIRUVALLA,KERALA,2602650
96,CITY UNION BANK LIMITED,CIUB0000097,SOMANUR,"1 FLOOR S.F NO.187, KARUMATHAMPATTI MAIN ROAD, SOMANUR - 641 668",COIMBATORE,SOMANUR,TAMIL NADU,2332993
97,CITY UNION BANK LIMITED,CIUB0000098,MIRA ROAD MUMBAI,"RASHMI PARK, SHOP NO.79 80,OPP. SHANTHI PARK,MTNL ROAD,MIRA ROAD E,MUMBAI401107",THANE,MUMBAI,MAHARASHTRA,28119808
98,CITY UNION BANK LIMITED,CIUB0000099,PALLADAM,"1ST FLOOR 3 BY 212 TIRUCHY ROAD, PALLADAM 641 664",COIMBATORE,PALLADAM,TAMIL NADU,253800
99,CITY UNION BANK LIMITED,CIUB0000100,SURAT,"I FLOOR BELGIUM CHAMBERS,RING ROAD,SURAT395003",SURAT,SURAT,GUJARAT,2422877
100,CITY UNION BANK LIMITED,CIUB0000101,AHMEDABAD,"G19 NIRMAN COMPLEX,BEHIND BUS STAND,AHMEDABAD380009",AHMEDABAD,AHMEDABAD,GUJARAT,26448828
101,CITY UNION BANK LIMITED,CIUB0000102,NEW DELHI,"1ST FL 18BY7,ARYA SAMAJ RD,KAROL BAGH,NEW DELHI110005",DELHI,NEW DELHI,DELHI,25788696
102,CITY UNION BANK LIMITED,CIUB0000103,KARAIKAL,"261, BHARATHIAR ROAD, Karaikkal,Karaikkal,Karaikkal",KARAIKKAL,KARAIKKAL,PUDUCHERRY,9362911328
103,CITY UNION BANK LIMITED,CIUB0000104,NANGANALLUR CHENNAI,"SWARNAM COMPLEX,20A. 4TH MAIN ROAD,NANGANALLURCHENNAI600061",CHENNAI,CHENNAI,TAMIL NADU,2243839
104,CITY UNION BANK LIMITED,CIUB0000105,VIJAYAWADA,"271415BY2 FLOOR 1,M.S.ROAD,GOVERNORPET,VIJAYAWADA500002",KRISHNA,VIJAYAWADA,ANDHRA PRADESH,2432436
105,CITY UNION BANK LIMITED,CIUB0000106,VISAKAPATNAM,"301239 FLOORI, MAIN ROAD,DABA GARDENS,VISHAKAPATNAM530020",VISHAKHAPATNAM,VISHAKHAPATNAM,ANDHRA PRADESH,2575772
106,CITY UNION BANK LIMITED,CIUB0000107,THIRUVANANTHAPURAM,"TC 38BY553BY56. I FLOOR,POWER HOUSE ROAD,THIRUVANANTHAPURAM695036",THIRUVANANTHAPURAM,THIRUVANANTHAPURAM,KERALA,2467303
107,CITY UNION BANK LIMITED,CIUB0000108,VADODARA,"33,SAMPATRAO COLONY,ALKAPURI,VADODARA390005",VADODARA,VADODARA,GUJARAT,2330292
108,CITY UNION BANK LIMITED,CIUB0000109,KORAMANGALA BANGALORE,"75,INDUSTRIAL ESTATE LAYOUT,BANGALORE PO.,KORAMANGALA560095",BENGALURU URBAN,BENGALURU,KARNATAKA,25630439
109,CITY UNION BANK LIMITED,CIUB0000110,KOLKATTA,"GROUND FLOOR,64 A, HEMANTA BASU SARANI,B B D BAG,KOLKATA,KOLKATA 700001",KOLKATA,KOLKATA,WEST BENGAL,22107140
110,CITY UNION BANK LIMITED,CIUB0000111,PUNE,"309,FIRST LANE,RASTAPETH,KESBETH,PUNE411011",PUNE,PUNE,MAHARASHTRA,26139034
111,CITY UNION BANK LIMITED,CIUB0000112,PURASAWALKAM CHENNAI,"NO.204,PURASAWALKAM HIGH RD,CHENNAIPO. PURASAWALKAM600007",CHENNAI,CHENNAI,TAMIL NADU,26615817
112,CITY UNION BANK LIMITED,CIUB0000113,ANNA NAGAR CHENNAI,"46,Ground Floor, 1st Avenue, Near Chinthamani, Anna Nagar East, Chennai 600102",CHENNAI,CHENNAI,TAMIL NADU,26191120
113,CITY UNION BANK LIMITED,CIUB0000114,SIVAKASI,"NO.13,CHAIRMAN NPSN ARUMUGA NADAR ROAD,SIVAKASI626123",VIRUDHUNAGAR,SIVAKASI,TAMIL NADU,220181
114,CITY UNION BANK LIMITED,CIUB0000115,SRI RANGAM TIRUCHIRAPPALLI,"NO.29,EVS SCHARI ROAD,RANGANAGAR,SRIRANGAM,TIRUCHIRAPALLI620006",TIRUCHIRAPALLI,SRIRANGAM,TAMIL NADU,2436800
115,CITY UNION BANK LIMITED,CIUB0000116,SS COLONY MADURAI,"NO.85L,VADAKKUVASAL STREET,S.S. COLONYMADURAI625010",MADURAI,MADURAI,TAMIL NADU,2610973
116,CITY UNION BANK LIMITED,CIUB0000117,TAMBARAM CHENNAI,"NO.19A,SIVASHANMUGAM ROAD,TAMBARAM WEST,TAMBARAM600045",KANCHEEPURAM,CHENNAI,TAMIL NADU,22265220
117,CITY UNION BANK LIMITED,CIUB0000118,THIRUVANMIYUR,"NO.9,SECOND EAST ST.,KAMARAJ NAGAR,THIRUVANMIYUR,CHENNAI600041",CHENNAI,CHENNAI,TAMIL NADU,24423873
118,CITY UNION BANK LIMITED,CIUB0000119,TUMKUR,"PARIJATHA ARCADE, OPP TO GAYATHRI TALKIES, BH ROAD, TUMKUR- 572 101",TUMKUR,TUMKUR,KARNATAKA,2254343
119,CITY UNION BANK LIMITED,CIUB0000120,RAJAHMUNDRY,"NO.10-15-39 AND 10-15-40 BY 1, MAIN ROAD, FORT GATE, RAJAMUNDRY - 533 101",EAST GODAVARI,RAJAHMUNDURY,ANDHRA PRADESH,2443360
120,CITY UNION BANK LIMITED,CIUB0000122,FORT BRANCH MUMBAI,"101539 40BY1,MAIN ROAD,FORT GATE,RAJAHMUNDRY533101",MUMBAI,MUMBAI,MAHARASHTRA,2677376
121,CITY UNION BANK LIMITED,CIUB0000123,THRISSUR,"PATHAN S BUILDING COMPLEX, 25 BY 72, NEW NO 25 BY 121, ROUND SOUTH, THRISSUR 680 001",THRISSUR,THRISSUR,KERALA,2442053
122,CITY UNION BANK LIMITED,CIUB0000124,KAKINADA,"NO.20-1-10 A, L TYPE, MAIN ROAD, SUPER BAZAR, KAKINADA- 533 001",EAST GODAVARI,KAKINADA,ANDHRA PRADESH,2341124
123,CITY UNION BANK LIMITED,CIUB0000125,TENALI,"NO.16-1-38, MAIN ROAD, TENALI 522 201",GUNTUR,TENALI,ANDHRA PRADESH,232216
124,CITY UNION BANK LIMITED,CIUB0000126,PALAKAD,"13/697(7), Premier Tower,Opp. Sai Service, Coimbatore Road, Kalmadapam,PALAKKAD",PALGHAT,PALAKKAD,KERALA,2528151
125,CITY UNION BANK LIMITED,CIUB0000127,BHIMAVARAM,"17 BY 2 BY 50,REST HOUSE ROAD, BHIMAVARAM- 534 201",WEST GODAVARI,BHIMAVARAM,ANDHRA PRADESH,230280
126,CITY UNION BANK LIMITED,CIUB0000128,KOILPATTI,"RAJAKUMARI TOWRS, 18 BY 40, AKS THEATRE ROAD, KOILPATTI 628 502",TOOTHUKUDI,KOVILPATTI,TAMIL NADU,228954
127,CITY UNION BANK LIMITED,CIUB0000129,OPPANAKARA STREET,"No.46, Variety Hall Road, OPANAKARA STREET,COIMBATORE DT",COIMBATORE,COIMBATORE,TAMIL NADU,2306262
128,CITY UNION BANK LIMITED,CIUB0000130,ASHOK NAGAR,"ASHOK MANASAROVER, 51 OLD NO 12, FIRST AVENUE, 100 FEET ROAD, ASHOK NAGAR, CHENNAI 600083",CHENNAI,CHENNAI,TAMIL NADU,23717171
129,CITY UNION BANK LIMITED,CIUB0000131,AMEERPET,"Shop No.4 AND 5, Meridian Plaza,Beside Lal Bunglow, Green Land,HYDERABAD",HYDERABAD,HYDERABAD,ANDHRA PRADESH,23738360
130,CITY UNION BANK LIMITED,CIUB0000132,MALLESWARAM,"82,VI CROSS, MALLESWARAM, BANGALORE 560053",BENGALURU RURAL,BENGALURU,KARNATAKA,23463636
131,CITY UNION BANK LIMITED,CIUB0000133,KOZIKODE,"ESHA ARCADE, I FLOOR, AZHAKODY TEMPLE ROAD, OFF MAVOOR ROAD, OPP ASMA TOWER, KOZIKODE 673004",KOZHIKODE,"KOZHICODE, CALICUT",KERALA,2727121
132,CITY UNION BANK LIMITED,CIUB0000134,NAGARCOIL,"THASOR PRESS BUILDING, NO 35, I FLOOR, CAPE ROAD, VEEPAMOODU JUNCTION, NAGARCOIL 629001",KANYAKUMARI,NAGERCOIL,TAMIL NADU,225353
133,CITY UNION BANK LIMITED,CIUB0000135,ELURU,"AGRAJ PLAZA, NO 23 A 10 5, R R PET, ELURU 534002",WEST GODAVARI,ELURU,ANDHRA PRADESH,240340
134,CITY UNION BANK LIMITED,CIUB0000136,ONGOLE,"MCBH COMPLEX, 3 2 19, KURNOOL ROAD, OPP RTC BUS STAND, ONGOLE 523002",PRAKASAM,ONGOLE,ANDHRA PRADESH,282912
135,CITY UNION BANK LIMITED,CIUB0000137,THENI,"I FLOOR, 914 915, CUMBUM ROAD, THENI 626531",THENI,THENI,TAMIL NADU,255700
136,CITY UNION BANK LIMITED,CIUB0000138,UDUMALPET,"120, UM Towers,Srinivasa street,Udumalpet",COIMBATORE,UDUMALAIPET,TAMIL NADU,232384
137,CITY UNION BANK LIMITED,CIUB0000139,INDIRA NAGAR,"NO 194, I FLOOR, VII CROSS, I STAGE INDIRA NAGAR, BANGALORE 560038",BENGALURU URBAN,BENGALURU,KARNATAKA,25205030
138,CITY UNION BANK LIMITED,CIUB0000140,CUDDAPAH,"I FLOOR, VCSR COMPLEX, RAILWAY STATION ROAD, CUDDAPAH 516001",CUDDAPAH,CUDDAPAH,ANDHRA PRADESH,246303
139,CITY UNION BANK LIMITED,CIUB0000141,KURNOOL,"40 304, BAGHYA NAGAR, MOURIYA INN, KURNOOL 518004",KURNOOL,KRUNOOL,ANDHRA PRADESH,276611
140,CITY UNION BANK LIMITED,CIUB0000142,VASHI,"108,109,110, SHIVAJI MARKET, I FLOOR, PLOT NO 8 AND 9, SECTOR 19 D, VASHI, NAVI MUMBAI 400705",THANE,NAVI MUMBAI,MAHARASHTRA,27836992
141,CITY UNION BANK LIMITED,CIUB0000143,THIRUCHENGODE,"I FLOOR,23 AND 24 GURUKKAL ST, SOUTH CAR STREET, THIRUCHANGODE 637 211",NAMAKKAL,TIRUCHENGODE,TAMIL NADU,256356
142,CITY UNION BANK LIMITED,CIUB0000144,VIJAYAWADA II,"I FLOOR,11 BY 24 BY 29,BHAVANARAYANA ST, VIJAYAWADA 520 001",KRISHNA,VIJAYAWADA,ANDHRA PRADESH,2566100
143,CITY UNION BANK LIMITED,CIUB0000145,GUNTUR II,"I FLOOR,D.NO.5 BY 37 BY 21, 4 BY 2 BRODIEPET, GUNTUR - 522 002",GUNTUR,GUNTUR,ANDHRA PRADESH,2219091
144,CITY UNION BANK LIMITED,CIUB0000146,CANNUR,THE FORTE  I FLOOR,KANNUR,KANNUR,KERALA,2700135
145,CITY UNION BANK LIMITED,CIUB0000147,HOSUR,"12, 1ST FLOOR, SRI KRISHNA COMPLEX, TANK STREET",KRISHNAGIRI,HOSUR,TAMIL NADU,221034
146,CITY UNION BANK LIMITED,CIUB0000148,JAYANAGAR BANGALORE,"No.126, 33rd Cross, 11th Main, 4th Block,(Near A.V.R. Swarna Mahal Signal), Jayanagar,BANGALORE",BENGALURU RURAL,BENGALURU,KARNATAKA,26349771
147,CITY UNION BANK LIMITED,CIUB0000149,MYSORE,28 D  DEVARAJ URS ROAD,MYSORE,MYSORE,KARNATAKA,2449966
148,CITY UNION BANK LIMITED,CIUB0000150,CHROMPET,NO 77 STATION ROAD  I FLOOR,CHENNAI,CHENNAI,TAMIL NADU,22233424
149,CITY UNION BANK LIMITED,CIUB0000151,MADIPAKKAM,168  MEDAVAKKAM MAIN ROAD,CHENNAI,CHENNAI,TAMIL NADU,22473456
150,CITY UNION BANK LIMITED,CIUB0000152,THORAIPAKKAM,NO  1  CUSTOMERS COLONY,CHENNAI,CHENNAI,TAMIL NADU,24580772
151,CITY UNION BANK LIMITED,CIUB0000153,CONTONMENT TRICHY,"26, WARNERS ROAD, CONTONMENT, TRICHY 620 00",TIRUCHIRAPALLI,TIRUCHIRAPALLI,TAMIL NADU,2400046
152,CITY UNION BANK LIMITED,CIUB0000154,KOTTAYAM,I FLOOR  CSI COMML  CENTRE,KOTTAYAM,KOTTAYAM,KERALA,2300580
153,CITY UNION BANK LIMITED,CIUB0000155,MALKAJGIRI,"I FLOOR, 292, RADHAKRISHNAN NAGAR COLONY MALKAJGIRI VALLABH NAGAR TALUK",RANGAREDDY,HYDERABAD,ANDHRA PRADESH,27241102
154,CITY UNION BANK LIMITED,CIUB0000156,SRIKAKULAM,9 4 10  7 ROAD JUNCTION,SRIKAKULAM,SRIKAKULAM,ANDHRA PRADESH,228311
155,CITY UNION BANK LIMITED,CIUB0000157,MACHILIPATNAM,24 BY 32  MAIN ROAD,KRISHNA,MACHILIPATNAM,ANDHRA PRADESH,221861
156,CITY UNION BANK LIMITED,CIUB0000158,KANGAYAM,"BAZAR STREET, BAZAR STREET",ERODE,KANGEYAM,TAMIL NADU,220909
157,CITY UNION BANK LIMITED,CIUB0000159,RASIPURAM,"GROUND FLOOR, NO 12, C P KANNIAH STREET",NAMAKKAL,RASIPURAM,TAMIL NADU,220099
158,CITY UNION BANK LIMITED,CIUB0000160,TIRUKOILUR,"NORTH STREET, NORTH STREET",VILLUPURAM,TIRUKOILUR,TAMIL NADU,255333
159,CITY UNION BANK LIMITED,CIUB0000161,DARAPURAM,"OLD NO 39,NEW NO 108 109, CHURCH ROAD DARAPURAM",ERODE,DHARAPURAM,TAMIL NADU,227007
160,CITY UNION BANK LIMITED,CIUB0000162,SATTUR,"469,MAIN ROAD,SATTUR 636203",VIRUDHUNAGAR,SATTUR,TAMIL NADU,261966
161,CITY UNION BANK LIMITED,CIUB0000163,KRISHNAGIRI,"FIRST FLOOR, 14 14A, 4TH CROSS, CO OPERATIVE COLONY",KRISHNAGIRI,KRISHNAGIRI,TAMIL NADU,235785
162,CITY UNION BANK LIMITED,CIUB0000164,PARAMAKUDI,"GROUND FLOOR, 4 BY 324, GANDHIJI ROAD",RAMANATHAPURAM,PARAMAKUDI,TAMIL NADU,229955
163,CITY UNION BANK LIMITED,CIUB0000165,BELGAUM,I FLOOR  G 5,BELGAUM,BELGAUM,KARNATAKA,2465564
164,CITY UNION BANK LIMITED,CIUB0000166,HUBLI,GROUND FLOOR,BELGAUM,HUBLI,KARNATAKA,2361208
165,CITY UNION BANK LIMITED,CIUB0000167,MANGALORE,"D.NO.4-9-857/8,9,10, AADHEESH AVENUE,KALAKUNJ ROAD, KODIALBAIL",DAKSHIN KANNAD,MANGALORE,KARNATAKA,24227175
166,CITY UNION BANK LIMITED,CIUB0000168,DAVENGERE,"GROUND FLOOR, 134 BY 17,MAHAVEERA ROAD, MANDIPET",DAVANGERE,DEVENGERE,KARNATAKA,275290
167,CITY UNION BANK LIMITED,CIUB0000169,PRODDATUR,GROUND FLOOR,CUDDAPAH,PRODATUR,ANDHRA PRADESH,255655
168,CITY UNION BANK LIMITED,CIUB0000170,WARANGAL,"9-10-2, JPN ROAD, WARANGAL",WARANGAL,WARANGAL,ANDHRA PRADESH,2421124
169,CITY UNION BANK LIMITED,CIUB0000171,GANDHI NAGAR,"16 77, 1ST CROSS,SRI NAGAR COLONY GANDHI NAGAR EAST",THANJAVUR,KUMBAKONAM,TAMIL NADU,2412321
170,CITY UNION BANK LIMITED,CIUB0000172,TIRUVANNAMALAI,"3, SOUTH OTHAVADAI STREET TIRUVANNAMALAI",TIRUVANNAMALAI,TIRUVANNAMALAI,TAMIL NADU,223456
171,CITY UNION BANK LIMITED,CIUB0000173,SIVAGANGAI,"DOOR NO 115,NEEDHIPATHI RAJASEKARAN ROAD SIVAGANGAI",SIVAGANGA,SIVAGANGAI,TAMIL NADU,242900
172,CITY UNION BANK LIMITED,CIUB0000174,NANDYAL,"D.No.29/2, NK Road, Opp. to Gelvi School,Nandyal",KURNOOL,NANDYAL,ANDHRA PRADESH,220770
173,CITY UNION BANK LIMITED,CIUB0000175,RAMANATHAPURAM,"KTM CASIM CENTRE, DR NO 406 52 FIRST FLOOR, SALAI STREET , RAMANATHAPURAM",RAMANATHAPURAM,RAMANATHAPURAM,TAMIL NADU,223088
174,CITY UNION BANK LIMITED,CIUB0000176,THANE,"SHOP NO. 2,GROUND FLOOR,TROPICAL ELITE BUILDING,OPPOSITE NAUPADA POLICE STATION, NAUPADA,THANE WEST",THANE,THANE WEST,MAHARASHTRA,25384747
175,CITY UNION BANK LIMITED,CIUB0000177,ICHALKARNJI,"10 BY 286, BUNGALOW ROAD",KOLHAPUR,ICHALKARANJI,MAHARASHTRA,2422772
176,CITY UNION BANK LIMITED,CIUB0000178,NAGPUR,"I FLOOR, NO.73,KAMDAR COMPLEX",NAGPUR,NAGPUR,MAHARASHTRA,2720033
177,CITY UNION BANK LIMITED,CIUB0000179,ANANTAPUR,"I FLOOR, M. C. H. NO. 18 BY 161 A",ANANTAPUR,ANATHAPUR,ANDHRA PRADESH,279777
178,CITY UNION BANK LIMITED,CIUB0000180,DHARMAVARAM,"D.No.9-98 to 101, Varalakshmi Theatre Road,Dharmavaram ,ANANTHAPURAMU",ANANTAPUR,DHARMAVARAM,ANDHRA PRADESH,222199
179,CITY UNION BANK LIMITED,CIUB0000181,RAJKOT,"I FLOOR, NAKSHATRA COMPLEX",RAJKOT,RAJKOT,GUJARAT,2926724
180,CITY UNION BANK LIMITED,CIUB0000182,NASIK,"GROUND FLOOR,PATEL RETREAT,PATIL LANE4,NASHIK,422005",NASIK,NASHIK,MAHARASHTRA,2313518
181,CITY UNION BANK LIMITED,CIUB0000183,DEVAKOTTAI,"17, THIAGIGAL ROAD, DEVAKOTTAI",SIVAGANGA,DEVAKOTTAI,TAMIL NADU,260155
182,CITY UNION BANK LIMITED,CIUB0000184,K K NAGAR,"PLOTNO 590,DNO 30,OLD35,ALAGIRISAMI SALAI,K K NAGAR CHENNAIPIN 600078",CHENNAI,CHENNAI,TAMIL NADU,23661477
183,CITY UNION BANK LIMITED,CIUB0000185,MARAIMALAI NAGAR,"GROUND FLOOR,1 BY 73,PAVENDAR STREET,MARAIMALAI NAGAR CHENGLEPUT DIST 603209",KANCHEEPURAM,MARAIMALAI NAGAR,TAMIL NADU,27454141
184,CITY UNION BANK LIMITED,CIUB0000186,UTHUKULI,"32 BY 6 TIRUPUR ROAD,UTHUKULI PIN 638751",ERODE,UTHUKULI,TAMIL NADU,260666
185,CITY UNION BANK LIMITED,CIUB0000187,CHENGALPET,"GROUND FLOOR,86,GST ROAD,THIMMAKULAM,CHENGALPET PIN 603001",KANCHEEPURAM,CHENGALPET,TAMIL NADU,27433393
186,CITY UNION BANK LIMITED,CIUB0000188,FAIRLANDS SALEM,"GROUND FLOOR,44,BRINDAVAN ROAD,FAIRLANDS,SALEM PIN 636016",SALEM,SALEM,TAMIL NADU,2333654
187,CITY UNION BANK LIMITED,CIUB0000189,ELLAMPILLAI,"14261 BY 489,D MAIN ROAD,NEAR BUS STAND,ELLAMPILLAI,SALEM DISTRICT",SALEM,ELLAMPILLAI,TAMIL NADU,2491455
188,CITY UNION BANK LIMITED,CIUB0000190,NADUKKADAI,"GROUND FLOOR,1 BY 114 MAIN ROAD,NADUKKADAI,THANJAVUR DISTRICT",THANJAVUR,NADUKADAI,TAMIL NADU,261277
189,CITY UNION BANK LIMITED,CIUB0000191,PALLIPALAYAM,"GROUND FLOOR,24,SANGAGIRI MAIN ROAD,PALLIPALAYAM PIN 638006",NAMAKKAL,PALLIPALAYAM,TAMIL NADU,243533
190,CITY UNION BANK LIMITED,CIUB0000192,RS PURAM COIMBATORE,"79,VENKATASAMY ROAD WEST,R S PURAM,COIMBATORE 641002",COIMBATORE,COIMBATORE,TAMIL NADU,2540647
191,CITY UNION BANK LIMITED,CIUB0000193,KELAMBAKKAM,"1 BY 61,KSSSTREET,KELAMBAKKAM,KANCHEEPURAM DISTRICT",KANCHEEPURAM,CHENNAI,TAMIL NADU,27475925
192,CITY UNION BANK LIMITED,CIUB0000194,RASHBEHARI,"SURNA HOUSE,208 BY 1A,RASH BEHARI AVENUE,KOLKATA 700 029",KOLKATA,KOLKATA,WEST BENGAL,24197193
193,CITY UNION BANK LIMITED,CIUB0000195,ANNA NAGAR,"80 FEET ROAD,OPP AMBIGA THEATRE,ANNA NAGAR,MADURAI 625020",MADURAI,MADURAI,TAMIL NADU,2525485
194,CITY UNION BANK LIMITED,CIUB0000196,NACHIARKOIL,"6 BY 116 NORTH STREET,NACHIARKOIL 612 602",THANJAVUR,NACHIAR KOIL,TAMIL NADU,2466222
195,CITY UNION BANK LIMITED,CIUB0000197,PERAMBALUR,"GROUND FLOOR,25 BY 1,ELANGO STREET,TRICHY MAIN ROAD,PERAMBALUR 621 212",PERAMBALUR,PERAMBALUR,TAMIL NADU,277233
196,CITY UNION BANK LIMITED,CIUB0000198,RAMANAGARA BANGALORE,"BMROAD,316,IJOOR I STAGE,NEAR BUS STAND,BANGALORE MYSORE MAIN ROAD,RAMANAGARAKARNATAKA 571511",BENGALURU RURAL,RAMANAGARA,KARNATAKA,27276688
197,CITY UNION BANK LIMITED,CIUB0000199,RAJAJI NAGAR BANGALORE,"1002 BY 55,KRK CHAMBERS,FIRST MAIN,FOURTH BLOCK,80 FEET DRRAJKUMAR ROAD,BANGALORE 560010",BENGALURU URBAN,BENGALURU,KARNATAKA,23155151
198,CITY UNION BANK LIMITED,CIUB0000200,KOLLAM,"FIRST FLOOR,SAIT TOWER,BEACH ROAD,CHINAKKADA,KOLLAM 691001",KOLLAM,KOLLAM,KERALA,2767622
199,CITY UNION BANK LIMITED,CIUB0000201,MADURAPURI,"TRICHY MAIN ROAD,OPP TO GANAPATHY THIRUMANAMANDAPAM,MATHURAPURI 621010",TIRUCHIRAPALLI,MADURAPURI,TAMIL NADU,255777
200,CITY UNION BANK LIMITED,CIUB0000202,SIRKALI,"GROUND FLOOR,PIDARI NORTH STREET,SIRKALI 609110",NAGAPATTINAM,SIRKALI,TAMIL NADU,265145
201,CITY UNION BANK LIMITED,CIUB0000203,BHANASHANKARI,"784,II PHASE,7TH BLOCK,BANASHANKARI,III STAGE,100 FT ROAD,BANGALORE KARNATAKA 560085",BENGALURU URBAN,BENGALURU,KARNATAKA,26423599
202,CITY UNION BANK LIMITED,CIUB0000204,HINDUPUR,"D NO132C,SVR COMPLEX,PENUKONDA ROAD,HINDUPUR,ANATAPUR DIST,ANDHRA PRADESH 515201",ANANTAPUR,HINDUPUR,ANDHRA PRADESH,221223
203,CITY UNION BANK LIMITED,CIUB0000205,THINDAL,"SFNO15 BY 2A,PERUNDURAI ROAD,THINDAL,ERODE,TAMIL NADU 638002",ERODE,ERODE,TAMIL NADU,2430111
204,CITY UNION BANK LIMITED,CIUB0000206,DILSUKHNAGAR,"SRI DATTA SAI COMPLEX,PLOT NO 14,GADDIANARAM,DILSUKHNAGAR,HYDERABAD 500060",RANGAREDDY,HYDERABAD,ANDHRA PRADESH,24141900
205,CITY UNION BANK LIMITED,CIUB0000207,KUKATPALLY,"MIG 182 I PHASE,KPHB COLONY, KUKATPALLY,HYDERABAD 500072",RANGAREDDY,HYDERABAD,ANDHRA PRADESH,23151515
206,CITY UNION BANK LIMITED,CIUB0000208,JANAKPURI,"GROUND FLOOR,DOOR NO30,BLOCKB1,JANAKPURI,NEW DELHI110058",DELHI,NEW DELHI,DELHI,25555343
207,CITY UNION BANK LIMITED,CIUB0000209,ALLAHABAD,"BHAGWAN RAM MANDIR MARG NEAR VISHAL MEGA MART,CIVIL LINES,ALLAHABAD UTTAR PRADESH 211001",ALLAHABAD,ALLAHABAD,UTTAR PRADESH,2421098
208,CITY UNION BANK LIMITED,CIUB0000210,THUVAKUDI,"OLD NO8 BY 55,ANNA SALAI,THUVAKUDI MALAI NORTH,NEAR ANNA ARCH,TIRUCHIRAPALLI 620022",TIRUCHIRAPALLI,TRICHY,TAMIL NADU,2551100
209,CITY UNION BANK LIMITED,CIUB0000211,SAIBABA COLONY COIMBATORE,"THACHIL COMPLEX,10,ANNAMALAI ROAD,SAIBABA COLONY,COIMBATORE 641011",COIMBATORE,COIMBATORE,TAMIL NADU,2444601
210,CITY UNION BANK LIMITED,CIUB0000212,SRIPERUMBUDUR,"67,GANDHI ROAD,GROUND FLOOR,SRIPERUMBUDUR,CHENNAI 602105",KANCHEEPURAM,SRIPERUMBUDUR,TAMIL NADU,27163996
211,CITY UNION BANK LIMITED,CIUB0000213,AURANGABAD,"NO,6 ANNAPURNA TOWER,KUSHAL NAGAR,JALNA ROAD,AURANGABAD 431005",AURANGABAD,AURANGABAD,MAHARASHTRA,2364798
212,CITY UNION BANK LIMITED,CIUB0000214,RAMANATHAPURAM,"730,IST FLOOR,DIAMOND COMPLEX,TRICHY ROAD,RAMANATHAPURAM,COIMBATORE 621045",COIMBATORE,COIMBATORE,TAMIL NADU,2322302
213,CITY UNION BANK LIMITED,CIUB0000215,KINATHUKADAVU,"COIMBATOREPOLLACHI MAIN ROAD,KINATHUKADAVU,POLLACHI642109",COIMBATORE,KINATHUKADAVU,TAMIL NADU,242190
214,CITY UNION BANK LIMITED,CIUB0000216,KOLHAPUR,"520 BY 2,E WARD,SLBENADIKAR PATH,NEAR CBS,SHAHUPURIKOLHAPUR416001",KOLHAPUR,KOLHAPUR,MAHARASHTRA,2667607
215,CITY UNION BANK LIMITED,CIUB0000217,THONDAMUTHUR,"189,GROUND FLOOR,MADHAVANPATTY MAIN ROAD,9TH WARD,THONDAMUTHUR 641109",COIMBATORE,THONDAMUTHUR,TAMIL NADU,2617797
216,CITY UNION BANK LIMITED,CIUB0000218,VALASARAWALKAM,"NO 1,THANDAVAMOORTHY NAGAR,VALASARAWALKAM,CHENNAI600087",CHENNAI,CHENNAI,TAMIL NADU,24869500
217,CITY UNION BANK LIMITED,CIUB0000219,LUDHIANA,"NO 925 A SALH COMPLEX,DASMESH NAGAR,GILL ROAD,LUDHIANA 141003",LUDHIANA,LUDHIANA,PUNJAB,2540076
218,CITY UNION BANK LIMITED,CIUB0000220,INDORE,"6 BY 1,THE MAGNATE,NEW PALASIA,CURE WELL HOSPITAL ROAD,INDORE 452001",INDORE,INDORE,MADHYA PRADESH,2530408
219,CITY UNION BANK LIMITED,CIUB0000221,JAIPUR,"PLOT NO 12 EMERALD HOTEL BUILDING,M I ROAD,JAIPUR302001",JAIPUR,JAIPUR,RAJASTHAN,2378003
220,CITY UNION BANK LIMITED,CIUB0000222,BHILWARA,"SHOP NO 3 7,SRINATH TOWER,GANGAPUR CHORAHA,PUR ROAD,BHILWARA 311001",BHILWARA,BHILWARA,RAJASTHAN,247722
221,CITY UNION BANK LIMITED,CIUB0000223,DOMBIVILI,"BUILDING NO 9,ELLORA COMPLEX 2,COOP HSG SOCIETY LTD,GHANSHYAM GUPTE ROAD,DOMBIVILI WEST 421201",THANE,DOMBIVILI (WEST),MAHARASHTRA,2485680
222,CITY UNION BANK LIMITED,CIUB0000224,BHAVNAGAR,"NO 1 AND 2 EVA,OPP GULISTA GROUND,WAGAHWADI ROAD,BHAVNAGAR 364001",BHAVNAGAR,BHAVNAGAR,GUJARAT,2560113
223,CITY UNION BANK LIMITED,CIUB0000225,SURAT II,"MEGH MAYUR PLAZA,NEAR RATAN BAUG,OPP TO JANIPARSAN MART,PARLE POINT SURAT 395007",SURAT,SURAT,GUJARAT,2253914
224,CITY UNION BANK LIMITED,CIUB0000226,KULASEKARAM,"VPM HOSPITAL COMPLEX,SRI MOOGAMBIGAI MEDICAL COLLEGE CAMPUS,PADANILAM,KULASEKARAM 629161.",KANYAKUMARI,KULASEKARAM,TAMIL NADU,277737
225,CITY UNION BANK LIMITED,CIUB0000227,VEERAPANDY,"USHA COMPLEX,4 BY 9,PALLADAM ROAD,VEERAPANDY 641605,",SALEM,TIRUPPUR,TAMIL NADU,2216124
226,CITY UNION BANK LIMITED,CIUB0000228,ARAKKONAM,"NO.67 BY 189,GANTHI ROAD,SUVALPET,ARAKKONAM 631003",VELLORE,ARAKKONAM,TAMIL NADU,236283
227,CITY UNION BANK LIMITED,CIUB0000229,VEDARANYAM,"NO.4,NORTH STREET,VEDARANYAM 614810",NAGAPATTINAM,VEDARANYAM,TAMIL NADU,252225
228,CITY UNION BANK LIMITED,CIUB0000230,PALAYAMKOTTAI,"JESUS PLAZA,250,TIRUCHENDUR ROAD,MURUGAN KURICHI,PALAYAMKOTTAI 627002",TIRUNELVELI,TIRUNELVELI,TAMIL NADU,2585700
229,CITY UNION BANK LIMITED,CIUB0000231,DHARMAPURI,"DOOR NO.14Q AND 14R,NETHAJI BYE PASS ROAD,DHARMAPURI 636 701",DHARMAPURI,DHARMAOURI,TAMIL NADU,264477
230,CITY UNION BANK LIMITED,CIUB0000232,JALAKANTAPURAM,"2 1 22 BY 1,THARAMANGALAM MAIN ROAD,JALAKANDAPURAM METTUR 636501",SALEM,METTUR,TAMIL NADU,260678
231,CITY UNION BANK LIMITED,CIUB0000233,VIJAYNAGAR,"NO 23 BY 1,17TH CROSS,M C LAYOUT,NEAR MARUTHI MANDIR,VIJAYNAGAR,BANGALORE,560040",BENGALURU RURAL,BENGALURU,KARNATAKA,23504001
232,CITY UNION BANK LIMITED,CIUB0000234,WHITE FIELD,"295,MAIN ROAD,OPP MAYURA BAKERY,WHITE FIELD,BANGALORE,560066",BENGALURU URBAN,BENGALURU,KARNATAKA,28454282
233,CITY UNION BANK LIMITED,CIUB0000235,SHEVAPET,"273,275,277,NAVALAR NEDUNCHEZIANSALAI,FORT MAIN ROAD,SHEVAPET,SALEM 636002",SALEM,SALEM,TAMIL NADU,2223022
234,CITY UNION BANK LIMITED,CIUB0000236,J P NAGAR,"DOOR NO 253,24TH MAIN,16TH CROSS,5TH PHASE,J P NAGAR,BANGALURU 560078",BENGALURU RURAL,BENGALURU,KARNATAKA,26581910
235,CITY UNION BANK LIMITED,CIUB0000237,YELAHANKA,"NO 324,3RD A CROSS FIRST PHASE,YELAHANKA NEW TOWN,BANGALURU 560 106",BENGALURU RURAL,BENGALURU,KARNATAKA,28463272
236,CITY UNION BANK LIMITED,CIUB0000238,ATTUR,"RAJKRISHNA RESIDENCY,664 BY 19,KAMARAJANAR ROAD,ATTUR 636 102",SALEM,SALEM,TAMIL NADU,250733
237,CITY UNION BANK LIMITED,CIUB0000239,CHITTOOR,"JAIL KHANNA STREET,NAIDU BUILDING,CHITTOOR 517 001",CHITTOOR,CHITTOOR,ANDHRA PRADESH,220022
238,CITY UNION BANK LIMITED,CIUB0000240,KARIM NAGAR,"2 BY 3 BY 184,KAMAN ROAD",KARIM NAGAR,KARIM NAGAR,ANDHRA PRADESH,2249990
239,CITY UNION BANK LIMITED,CIUB0000241,PERUNDURAI,"S.F.NO.823 BY 11,R.S.ROAD,OPP. TO GOVT.HOSPITAL",ERODE,PERUNDURAI,TAMIL NADU,225233
240,CITY UNION BANK LIMITED,CIUB0000242,MANALI,"Door.No.60, Parthasarathy Street,Chinnasekkadu,THIRUVALLUR",THIRUVALLUR,MANALI,TAMIL NADU,25940404
241,CITY UNION BANK LIMITED,CIUB0000243,THIRUVALLUR,"14,J N ROAD,OPP TO REVENUEDIVISIONAL OFFICE",THIRUVALLUR,THIRUVALLUR,TAMIL NADU,27666636
242,CITY UNION BANK LIMITED,CIUB0000244,ROHINI NEW DELHI,"C 9 BY 123,SECTOR D,ROHINI,NEW DELHI 110085",DELHI,DELHI,DELHI,27941336
243,CITY UNION BANK LIMITED,CIUB0000245,JALANDHAR,"ES 245,JULKA ARCADE,NAKODAR ROAD,144001",JALANDHAR,JALANDHAR,PUNJAB,2221046
244,CITY UNION BANK LIMITED,CIUB0000246,MADURAVAYAL,"K R M TOWERS,4 A,PALLADAM NAGAR MAIN ROAD,SINGARAVELAN NAGAR,CHENNAI 600095",THIRUVALLUR,MADURAVOYAL,TAMIL NADU,23781805
245,CITY UNION BANK LIMITED,CIUB0000247,GUDIYATHAM,"NO 7,CONGRESS HOUSEROAD,PUDUPET,GUDIYATHAM 632602",VELLORE,GUDIYATHAM,TAMIL NADU,223200
246,CITY UNION BANK LIMITED,CIUB0000248,KALLAKURICHI,"SALEM MAIN ROAD,NEAR GOVINDARAJANTHEATREKALLAKURICHI 606202",VILLUPURAM,KALLAKURICHI,TAMIL NADU,224020
247,CITY UNION BANK LIMITED,CIUB0000249,BHAVANI,"176 178,BHAVANI MAIN ROAD,BHAVANI 638301",ERODE,BHAVAI,TAMIL NADU,232033
248,CITY UNION BANK LIMITED,CIUB0000250,BELLARY,"Bhushan Bhavana, T.S No.238/2A AND 28/1A,BALLARY - Bengaluru Road, Opp.KSRTC Bus stand,BALLARY",BELLARY,BELLARY,KARNATAKA,270199
249,CITY UNION BANK LIMITED,CIUB0000251,RENGARAJAPURAM,"99 BY 1,VISWANATHAPURAM MAIN ROAD,RENGARAJAPURAM,CHENNAI 600024",CHENNAI,CHENNAI,TAMIL NADU,24844344
250,CITY UNION BANK LIMITED,CIUB0000252,ARANI,"NO 30,THATCHUR MAIN ROAD,KOSAPALAYAM",TIRUVANNAMALAI,ARANI,TAMIL NADU,225775
251,CITY UNION BANK LIMITED,CIUB0000253,CHANDINI CHOWK,"284,285 FATEH PURI,DELHI 110006",DELHI,DELHI,DELHI,23929803
252,CITY UNION BANK LIMITED,CIUB0000254,VELLAKOVIL,"NO 210 BY D,MUTHAIAH TOWERS,MUTHUR ROAD,VELLAKOVIL,638 111",TIRUPPUR,VELLAKOVIL,TAMIL NADU,261561
253,CITY UNION BANK LIMITED,CIUB0000255,PAMMAL,"NO 20,PAMMAL MAIN ROAD,MUTHAMIZH NAGAR,CHENNAI 600075",CHENNAI,CHENNAI,TAMIL NADU,22486767
254,CITY UNION BANK LIMITED,CIUB0000256,NIZAMABAD,"NIZAMABAD NO 1 13 395 BY 4,VINAYAK NAGAR,HYDERABAD ROAD 503003",NIZAMABAD,NIZAMABAD,ANDHRA PRADESH,234100
255,CITY UNION BANK LIMITED,CIUB0000257,THIRUTHURAIPOONDI,"DOOR NO 1 BY D,NORTH STREET,NAGAI ROAD,THIRUTHURAIPOONDI 614 713",TIRUVARUR,THIRUTHURAIPOONDI,TAMIL NADU,221177
256,CITY UNION BANK LIMITED,CIUB0000258,VARANASI,"DOOR NO 35 BY 91 A,92,92A,JANGAMBARI ROAD,GODOWLIA,VARANASI 221 001",VARANASI,VARANASI,UTTAR PRADESH,2450441
257,CITY UNION BANK LIMITED,CIUB0000259,RANIPET,"DOOR NO 27A,M B T ROAD,RANIPET 632 402",VELLORE,RANIPET,TAMIL NADU,272255
258,CITY UNION BANK LIMITED,CIUB0000260,AMBATTUR,"18 BY 6,MOUNASAMY MADAM STREET,AMBATTUR,CHENNAI 600 053",THIRUVALLUR,CHENNAI,TAMIL NADU,26575151
259,CITY UNION BANK LIMITED,CIUB0000261,PERAMBUR,"56 BY 127,MADAVARAM MAIN ROAD,PERAMBUR,CHENNAI 600 011",CHENNAI,CHENNAI,TAMIL NADU,25517909
260,CITY UNION BANK LIMITED,CIUB0000262,VELACHERRY,"NO 1,ORANDIAMMAN KOIL STREET,VELACHERRY,CHENNAI 600 042",CHENNAI,CHENNAI,TAMIL NADU,22550919
261,CITY UNION BANK LIMITED,CIUB0000263,THILLAI NAGAR,"C 28,11TH CROSS,THILLAI NAGAR,TIRICHIRAPALLI 620 018",TIRUCHIRAPALLI,TIRUCHIRAPALLI,TAMIL NADU,2742717
262,CITY UNION BANK LIMITED,CIUB0000264,HYDERABAD SIDDIAMBER BAZAAR,"SHIKA ENCLAVE,1ST FLOOR,15 1 515 TO 521 AND 539,SIDDIAMBER BAZAAR,HYDERABAD 500 012,ANDHRA PRADESH",HYDERABAD,HYDERABAD,ANDHRA PRADESH,24730225
263,CITY UNION BANK LIMITED,CIUB0000265,KHAMMAM,"1 7 64,64 BY 1,65,65 BY 1,TRUNK ROAD,KHAMMAM 507 003,ANDHRA PRADESH",KHAMMAM,KHAMMAM,ANDHRA PRADESH,238223
264,CITY UNION BANK LIMITED,CIUB0000266,AVADI,"NO 246,NEW MILITARY ROAD,AVADI,CHENNAI 600 054",THIRUVALLUR,CHENNAI,TAMIL NADU,26558440
265,CITY UNION BANK LIMITED,CIUB0000267,KADAYANALLUR,"264/A, Road No.11, Madurai Road,Krishnapuram,TIRUNELVELI",TIRUNELVELI,KADAYANALLUR,TAMIL NADU,240550
266,CITY UNION BANK LIMITED,CIUB0000268,MADURAI TVS NAGAR,"OLD NO 9,NEW NO A 32,LAKSHMI STREET,NEAR TVS SCHOOLTVS NAGAR,MADURAI 625 003",MADURAI,MADURAI,TAMIL NADU,2695500
267,CITY UNION BANK LIMITED,CIUB0000269,MUMBAI ANDHERI EAST,"MITTAL INDUSTRIAL ESTATE,SAKINAKA KURLA ANDHERI ROAD,ANDHERI EAST,MUMBAI 400059,MAHARASTRA",MUMBAI,MUMBAI,MAHARASHTRA,28599464
268,CITY UNION BANK LIMITED,CIUB0000270,MUMBAI KALYAN,"RAMAKRISHNA,NAGAR NEAR OLD POORNIMA THEATRE,MURBAD ROAD,KALYAN WEST 421304,THANE,MAHARASTRA",THANE,MUMBAI,MAHARASHTRA,2203222
269,CITY UNION BANK LIMITED,CIUB0000271,SINGAPERUMAL KOIL,"No.5/224, G.S.T.Road,Vinjiyambakkam,Singaperumalkoil,KANCHEEPURAM",KANCHEEPURAM,CHENGALPAT,TAMIL NADU,27463995
270,CITY UNION BANK LIMITED,CIUB0000272,THANJAVUR MEDICAL COLLEGE ROAD,"SINDU COMPLEX,115,MEDICAL,COLLEGE ROAD,KENNEDY SQUARE,THANJAVUR 613 007",THANJAVUR,THANJAVUR,TAMIL NADU,242999
271,CITY UNION BANK LIMITED,CIUB0000273,THIRUMANGALAM,"1 3,CHRISTIAMANGALAM STREET,MADURAI ROAD,THIRUMANGALAM 625 706,MADURAI",MADURAI,THIRUMANGALAM,TAMIL NADU,282826
272,CITY UNION BANK LIMITED,CIUB0000274,VADAVALLI,"DOOR NO 3,SELVAM NAGAR,NEAR KARUPPARAYANKOIL,VADAVALLI,COIMBATORE 641 041",COIMBATORE,COIMBATORE,TAMIL NADU,2423336
273,CITY UNION BANK LIMITED,CIUB0000275,VALLAM,"506 BY 11,DESIGA VINAYAGAR KOIL ST,VALLAM 613 403 THANJAVUR",THANJAVUR,VALLAM,TAMIL NADU,266456
274,CITY UNION BANK LIMITED,CIUB0000276,KEELAKARAI,"WARD NO OLD 1,NEW 21,NEAR CSI CHURCH,KONTHAKARUNAI APPA DARGAH VIA,KEELAKARAI 623 517",RAMANATHAPURAM,KEELAKARAI,TAMIL NADU,242010
275,CITY UNION BANK LIMITED,CIUB0000277,NERUL E NAVI MUMBAI,"G26 B and C Hardwares Centurian, Plot 88 BY 91, Sector 19A, Nerul (E),Navi Mumbai,Thane",THANE,NAVI MUMBAI,MAHARASHTRA,9372286411
276,CITY UNION BANK LIMITED,CIUB0000278,NAGORE,"NO 598,NAGAI MAIN ROAD,NAGORE 611 002",NAGAPATTINAM,NAGORE,TAMIL NADU,251852
277,CITY UNION BANK LIMITED,CIUB0000279,CHENNAI MYLAPORE,"OLD NO.18 19,NEW NO.29,EAST MADA STREET,MYLAPORE,CHENNAI 600 004",CHENNAI,CHENNAI,TAMIL NADU,24629353
278,CITY UNION BANK LIMITED,CIUB0000280,KUMBAKONAM DHARASURAM,"42 BY 2,THANJAVUR MAIN ROAD,DHARASURAM 612 702",THANJAVUR,DHARASURAM,TAMIL NADU,2416161
279,CITY UNION BANK LIMITED,CIUB0000281,MUMBAI CHEMBUR,"349 A,S 1,SILVANTO,CENTRAL AVENUE ROAD,CHEMBUR,MUMBAI 400 071",MUMBAI,MUMBAI,MAHARASHTRA,25291075
280,CITY UNION BANK LIMITED,CIUB0000282,COIMBATORE PERUR,"D.NO.3 BY 14 F TO 3 BY 14J,SIRUVANI MAIN ROAD,PERUR 641 010",COIMBATORE,COIMBATORE,TAMIL NADU,2606680
281,CITY UNION BANK LIMITED,CIUB0000283,MADURAI VILAKKUTHOON,"168 A,EAST VELI STREET,VILAKKUTHOON,MADURAI 625 001",MADURAI,MADURAI,TAMIL NADU,2330058
282,CITY UNION BANK LIMITED,CIUB0000284,NEYVELI,"13 A BY 1,40 FEET ROAD,GANDHIGRAMAM,GANDHI NAGAR POST,NEYVELI 607 308",CUDDALORE,NEYVELI,TAMIL NADU,251177
283,CITY UNION BANK LIMITED,CIUB0000285,POONAMALLEE,"OLD NO.776,NEW NO.70,TRUNK ROAD,POONAMALLEE,CHENNAI 600 056",THIRUVALLUR,CHENNAI,TAMIL NADU,26491235
284,CITY UNION BANK LIMITED,CIUB0000286,SELAIYUR,"NO.1,MADAMPAKKAM MAIN,ROAD,RAJAKILPAKKAM,SELAIYUR,CHENNAI 600 073",KANCHEEPURAM,CHENNAI,TAMIL NADU,22282090
285,CITY UNION BANK LIMITED,CIUB0000287,RAIPUR,"ANAND TALKIES ROAD,BACK SIDE OF SBI MAIN BRANCH,JAISTAMB CHOWK,RAIPUR 492 001",RAIPUR,RAIPUR,Chattisgarh,9329825210
286,CITY UNION BANK LIMITED,CIUB0000288,BHUBANESWAR,"777,SAHEED NAGAR,BHUBANESWAR 751 007,ORISSA",KHURDA,BHUBANESWAR,ODISHA,2548430
287,CITY UNION BANK LIMITED,CIUB0000289,SULUR,"3BY17C,TRICHY ROAD,SULUR 641402",COIMBATORE,SULUR,TAMIL NADU,2687007
288,CITY UNION BANK LIMITED,CIUB0000290,SAKKOTTAI,"5BY33,NEEDAMANGALAM MAIN ROAD,SAKKOTTAI PO,KUMBAKONAM 612401",THANJAVUR,KUMBAKONAM,TAMIL NADU,9380351780
289,CITY UNION BANK LIMITED,CIUB0000291,MADUKKUR,"373BY4,MAS CITY TOWER,PATTUKOTTAI MANNARGUDI MAIN ROAD,MADUKKUR 614903",THANJAVUR,MADUKKUR,TAMIL NADU,260026
290,CITY UNION BANK LIMITED,CIUB0000292,MANJAKKUDI,"OLD NO.222,AGRAHARAM,MANJAKKUDI 612610",TIRUVARUR,TIRUVARUR,TAMIL NADU,262426
291,CITY UNION BANK LIMITED,CIUB0000293,KATPADI,"VIT UNIVERSITY CAMPUS,KATPADI",VELLORE,VELLORE,TAMIL NADU,2242344
292,CITY UNION BANK LIMITED,CIUB0000294,SATHUVACHERI,"631,PHASE II,SATHUVACHARI",VELLORE,VELLORE,TAMIL NADU,2258999
293,CITY UNION BANK LIMITED,CIUB0000295,CHITLAPAKKAM,"23A,GANDHI STREET,CHITLAPAKKAM,CHENNAI 600064",KANCHEEPURAM,CHENNAI,TAMIL NADU,9380350736
294,CITY UNION BANK LIMITED,CIUB0000296,MUDICHUR,"NO 51,HABIBULLAH NAGAR,MUDICHUR,CHENNAI 600068",KANCHEEPURAM,CHENNAI,TAMIL NADU,22760532
295,CITY UNION BANK LIMITED,CIUB0000297,TINDIVANAM,"NO 203,JAWAHARLAL NEHRU STREET,TINDIVANAM 604001",VILLUPURAM,TINDIVANAM,TAMIL NADU,9382267333
296,CITY UNION BANK LIMITED,CIUB0000298,TIRUNAGESWARAM,"15,NORTH STREET,THIRUNAGESWARAM 612204",THANJAVUR,THIRUNAGESWARAM,TAMIL NADU,2463678
297,CITY UNION BANK LIMITED,CIUB0000299,VIRUDHACHALAM,"NO 701,JUNCTION ROAD,VIRUDHACHALAM 606001",CUDDALORE,VIRUDHACHALAM,TAMIL NADU,9382267228
298,CITY UNION BANK LIMITED,CIUB0000300,AYYAPPANTHANGAL,"D NO 1,RAMACHANDRA NAGAR,CHENNAI 600056",KANCHEEPURAM,CHENNAI,TAMIL NADU,24765445
299,CITY UNION BANK LIMITED,CIUB0000301,KOOTHANALLUR,"A R ROAD,NEAR MUNICIPALITYOFFICE,KOOTHANALLUR 614101",TIRUVARUR,KOOTHANALLUR,TAMIL NADU,9380350731
300,CITY UNION BANK LIMITED,CIUB0000302,METTUPALAYAM,"20,PRASAD COMPLEX,RAILWAY STATION ROAD,METTUPALAYAM 641301",COIMBATORE,METTUPALAYAM,TAMIL NADU,9382270627
301,CITY UNION BANK LIMITED,CIUB0000303,PALAVATHANKATTALAI,"530,KARAIKKAL MAIN ROAD,PALAVATHANKATTALAI 612401",THANJAVUR,KUMBAKONAM,TAMIL NADU,9382270306
302,CITY UNION BANK LIMITED,CIUB0000304,GIRUGAMBAKKAM,"453BY1,KUNDRATHUR MAIN ROAD,GERUGAMBAKKAM,CHENNAI",KANCHEEPURAM,CHENNAI,TAMIL NADU,9380351758
303,CITY UNION BANK LIMITED,CIUB0000305,MEDAVAKKAM,"9BY959,TAMBARAM VELACHERY MAIN ROAD,MEDAVAKKAM,CHENNAI",KANCHEEPURAM,CHENNAI,TAMIL NADU,22771898
304,CITY UNION BANK LIMITED,CIUB0000306,SURAMPATTI,"NO 311,SKC ROAD,SURAMPATTI,ERODE",ERODE,SURAMPATTI,TAMIL NADU,2273400
305,CITY UNION BANK LIMITED,CIUB0000307,JALLADIAMPET,"1 BY 27,RICE MILL ROAD,JALLADIAMPET",KANCHEEPURAM,CHENNAI,TAMIL NADU,9382270025
306,CITY UNION BANK LIMITED,CIUB0000308,SEMMANJERI,"3,OMR ROAD,SEMMENJERI",KANCHEEPURAM,CHENNAI,TAMIL NADU,9382267678
307,CITY UNION BANK LIMITED,CIUB0000309,POLICHALUR,"PLOT NO.13,NEHRU NAGAR,POLICHALUR MAIN ROAD",KANCHEEPURAM,CHENNAI,TAMIL NADU,9382270066
308,CITY UNION BANK LIMITED,CIUB0000310,NANMANGALAM,"1 BY 92A,GROUND FLOOR,MEDAVAKKAM MAIN ROAD",KANCHEEPURAM,CHENNAI,TAMIL NADU,9382270055
309,CITY UNION BANK LIMITED,CIUB0000311,SINGANALLUR,"NO.548 BY 1,TRICHY ROAD,NEAR AMBAL THEATRE,SINGANALLUR,COIMBATORE",COIMBATORE,COIMBATORE,TAMIL NADU,9380351730
310,CITY UNION BANK LIMITED,CIUB0000312,KUNDRATHUR,"NO 16,THULUKA STREET,KUNDRATHUR,CHENNAI 600 069 KANCHEEPURAM DIST",KANCHEEPURAM,CHENNAI,TAMIL NADU,9344023512
311,CITY UNION BANK LIMITED,CIUB0000313,MADHAVARAM,"MADHAVARAM RED HILLS HIGH ROAD,BAZAAR STREET,MADHAVARAM,CHENNAI 600060 TIRUVALLUR DIST",THIRUVALLUR,CHENNAI,TAMIL NADU,2532992
312,CITY UNION BANK LIMITED,CIUB0000314,IDAPPADI,"NO 2,BAZAAR STREET,IDAPPADI 637 101 SALEM DIST",SALEM,IDAPPADI,TAMIL NADU,2223456
313,CITY UNION BANK LIMITED,CIUB0000315,KOTTIVAKKAM,"OLD NO 1 BY 161,NEW NO 1 BY 618,EAST COAST ROAD,KOTTIVAKKAM,CHENNAI 600 041",KANCHEEPURAM,CHENNAI,TAMIL NADU,24481557
314,CITY UNION BANK LIMITED,CIUB0000316,MELVISHARAM,"C ABDUL HAKEEM COLLEGE OF ENGINEERING AND TECHNOLOGY,HAKEEM NAGAR,MELVISHARAM 632 509,VELLORE DIST",VELLORE,VELLORE,TAMIL NADU,9344023517
315,CITY UNION BANK LIMITED,CIUB0000317,TIRUVOTTIYUR,"NEW NO 645,OLD NO 336,T H ROAD,TIRUVOTTIYUR,CHENNAI 600 019",THIRUVALLUR,CHENNAI,TAMIL NADU,9344023516
316,CITY UNION BANK LIMITED,CIUB0000318,BANASWADI,"NO 6 GANESH CHAMBERS DODDA BANASWADI MAIN ROAD,BANASWADI,BANGALORE",BENGALURU URBAN,BENGALURU,KARNATAKA,9342448522
317,CITY UNION BANK LIMITED,CIUB0000319,KARAPAKKAM,"NO 1 BY 14,OMR ROAD,KARAPAKKAM,CHENNAI 600 097 KANCHEEPURAM DIST",KANCHEEPURAM,CHENNAI,TAMIL NADU,24500116
318,CITY UNION BANK LIMITED,CIUB0000320,ODDANCHATRAM,"DINDIGUL PALANI MAIN ROAD,NEAR GANDHI MARKET,OPP.TO BUS STAND,ODDANCHATRAM 624 619 DINDIGUL DIST",DINDIGUL,ODDANCHATRAM,TAMIL NADU,9344023518
319,CITY UNION BANK LIMITED,CIUB0000321,PALANI,"72 A PALANI DINDIGUL MAIN ROAD,NEAR KV HOSPITAL,PALANI 624 601.DINDIGUL DIST",DINDIGUL,PALANI,TAMIL NADU,9344023519
320,CITY UNION BANK LIMITED,CIUB0000322,AMALAPURAM,"D NO 3 1 141,OPP HEAD POSTOFFICE,K AGRAHARAM,",EAST GODAVARI,AMALAPURAM,ANDHRA PRADESH,9395361234
321,CITY UNION BANK LIMITED,CIUB0000323,TIRUPATHUR,"KAP TIRUNATHAR NAGAR,TIRUPATHUR",VELLORE,TIRUPATHUR,TAMIL NADU,9344023524
322,CITY UNION BANK LIMITED,CIUB0000324,KARAMADAI,"21 BY 23 1,SOUTH CAR STREET,KARAMADAI",COIMBATORE,COIMBATORE,TAMIL NADU,9344023525
323,CITY UNION BANK LIMITED,CIUB0000325,SARAVANAMPATTI,"227 A,SATHY ROAD,SARAVANAMPATTI",COIMBATORE,COIMBATORE,TAMIL NADU,9344023526
324,CITY UNION BANK LIMITED,CIUB0000326,ANAKAPUTHUR,"S NO 168 BY 3 D,KAMARAJAR SALAI,ANAKAPUTHUR",KANCHEEPURAM,CHENNAI,TAMIL NADU,22483667
325,CITY UNION BANK LIMITED,CIUB0000327,OTHAKADAI,"2 BY 109,MELUR MAIN ROAD,OTHAKADAI",MADURAI,MADURAI,TAMIL NADU,9344023528
326,CITY UNION BANK LIMITED,CIUB0000328,SRIVILLIPUTHUR,"144 BY 2,SOUTH CAR STREET,SRIVILLIPUTHUR",VIRUDHUNAGAR,SRIVILLIPUTHUR,TAMIL NADU,262777
327,CITY UNION BANK LIMITED,CIUB0000329,CHIRALA,"14 21 85,DHARBAV ROAD,OPP.STATE BANK OF INDIA,CHIRALA",PRAKASAM,CHIRALA,ANDHRA PRADESH,238883
328,CITY UNION BANK LIMITED,CIUB0000330,KAVALI,"D.NO.10 15 39A,GROUND FLOOR,G.T.ROAD,NEAR R.D.O.OFFICE,KAVALI",NELLORE,KAVALI,ANDHRA PRADESH,242434
329,CITY UNION BANK LIMITED,CIUB0000331,MUSIRI,"PLOT NO.397,SALEM BYE PASS ROAD,NEAR NEW BUS STAND,MUSIRI",TIRUCHIRAPALLI,MUSIRI,TAMIL NADU,260090
330,CITY UNION BANK LIMITED,CIUB0000332,TRICHY K K NAGAR,"PLOT NO.379,RAJARAM SALAI,K.K.NAGAR,TRICHY",TIRUCHIRAPALLI,TRICHY,TAMIL NADU,2456466
331,CITY UNION BANK LIMITED,CIUB0000333,BOMMASANDRA,"NO 17,5TH CROSS,VIDYANAGAR,NEXT TO LARK HOTEL,HOSUR ROAD,BOMMASANDRA 560 099",BENGALURU RURAL,BENGALURU,KARNATAKA,27833200
332,CITY UNION BANK LIMITED,CIUB0000334,DODDABALLAPUR,"1108 BY 1116 BY 925,HUNGI,COMPLEX,CINEMA STREET,DODDABALLAPUR 561 203 BANGALORE",BENGALURU URBAN,DODDABALLAPUR,KARNATAKA,27622082
333,CITY UNION BANK LIMITED,CIUB0000335,PANRUTI,"NO 9,R C COMPLEX,KUMBAKONAM ROAD,PANRUTI607106 CUDDALORE",CUDDALORE,PANRUTI,TAMIL NADU,9344085030
334,CITY UNION BANK LIMITED,CIUB0000336,GUDUVANCHERY,"5,SRINIVASAPURAM,NANDHIVARAM,GUDUVANCHERY 603202 KANCHEEPURAM",KANCHEEPURAM,GUDUVANCHERY,TAMIL NADU,9344085033
335,CITY UNION BANK LIMITED,CIUB0000337,URAPAKKAM,"145,GST ROAD,URAPAKKAM 603 202 KANCHEEPURAM",KANCHEEPURAM,CHENNAI,TAMIL NADU,9344085031
336,CITY UNION BANK LIMITED,CIUB0000338,MANAPAKKAM,"NO 1 BY 100,MANAPAKKAM MAIN ROAD,MANAPAKKAM,CHENNAI 600 125",CHENNAI,CHENNAI,TAMIL NADU,9344085034
337,CITY UNION BANK LIMITED,CIUB0000339,ABIRAMAPURAM,"63A,C P RAMASWAMI ROAD,ABIRAMAPURAM ALWARPET,CHENNAI 600 018",CHENNAI,CHENNAI,TAMIL NADU,9344085035
338,CITY UNION BANK LIMITED,CIUB0000340,ADONI,"SY NO 79 BY 1A,ESI HOSPITAL ROAD,BEHIND NTR STATUE,ADONI 518 301 KURNOOL DIST",KURNOOL,ADONI,ANDHRA PRADESH,9393098158
339,CITY UNION BANK LIMITED,CIUB0000341,ADILABAD,"DOOR NO 4375 BY 2,HAMEEDPURA,NEAR NETAJI CHOWK,ADILABAD 504 001,ADILABAD DIST",ADILABAD,ADILABAD,ANDHRA PRADESH,9391729543
340,CITY UNION BANK LIMITED,CIUB0000342,ANAKAPALLI,"DOOR NO 12141,RAMACHANDRA COMPLEX,OPP NTR STADIUM,ANAKAPALLI 531 001 VISAKHAPATNAM DIST",VISHAKHAPATNAM,ANAKAPALLI,ANDHRA PRADESH,9392607769
341,CITY UNION BANK LIMITED,CIUB0000343,TANUKU,"D NO 1858,9 AND 10,RASHTRAPATHI ROAD,TANUKU 534 211 WEST GODAVARI DIST",WEST GODAVARI,TANUKU,ANDHRA PRADESH,9390545673
342,CITY UNION BANK LIMITED,CIUB0000344,PERIYANAIKEN PALAYAM,"S F NO 319 BY 1E,METTUPALAYAM MAIN RD,OPP TO PRICOL,PERIYANAIKENPALAYAM,COIMBATORE 641 020",COIMBATORE,PERIYANAIKENPALAYAM,TAMIL NADU,9344085037
343,CITY UNION BANK LIMITED,CIUB0000345,PANNIMADAI,"ALIPRI COMPLEX,GROUND FLOOR,S F NO 55 BY 1,PANNIMADAI MAIN ROAD,COIMBATORE 641 017",COIMBATORE,PANNIMADAI,TAMIL NADU,9344085036
344,CITY UNION BANK LIMITED,CIUB0000346,BODINAYAKANUR,"NEAR LIC OFFICE,THEVARAM ROAD,BODINAYAKANUR 625 513 THENI DIST",THENI,BODINAYAKANUR,TAMIL NADU,9344085038
345,CITY UNION BANK LIMITED,CIUB0000347,CUMBUM,"WARD NO 21,D NO 79,79A,VELAPPAR KOIL STREET,CUMBUM 625 516 THENI DIST",THENI,CUMBUM,TAMIL NADU,9344085039
346,CITY UNION BANK LIMITED,CIUB0000348,SANKARANKOIL,"NO 6,SOUTH CAR STREET,SANKARANKOIL 627 756 TIRUNELVELI DIST",TIRUNELVELI,SANKARANKOIL,TAMIL NADU,9344085040
347,CITY UNION BANK LIMITED,CIUB0000349,PULIYANGUDI,"158C,GROUND FLOOR,MAIN ROAD,NEAR BSNL OFFICE,PULIANGUDI 627 855 TIRUNELVELI DIST",TIRUNELVELI,PULIANGUDI,TAMIL NADU,9344023549
348,CITY UNION BANK LIMITED,CIUB0000350,NARASARAOPET,"D NO 9747,BANK STREET,ARUNDELPET,NARASARAOPET 522 601 GUNTUR DIST",GUNTUR,NARASARAOPET,ANDHRA PRADESH,9393824509
349,CITY UNION BANK LIMITED,CIUB0000351,CHILAKALURIPET,"7376 BY 1,GANDHIPETTA,OPP TO INDIAN BANK,N R T CENTER,CHILAKALURIPET 522 616 GUNTUR DIST",GUNTUR,CHILAKALURIPET,ANDHRA PRADESH,9398314148
350,CITY UNION BANK LIMITED,CIUB0000352,GUDUR,"8 BY 202 HOSPITAL ROAD,OPP SANGAM THEATRE,MITTA PALEM,GUDUR524101 NELLORE DIST",NELLORE,GUDUR,ANDHRA PRADESH,9393561937
351,CITY UNION BANK LIMITED,CIUB0000353,TIRUPATI,"TIRUMALA BYPASS ROAD,NEAR LEELA MAHAL JUNCTION,TIRUPATI 517 501 CHITTOOR DIST",CHITTOOR,TIRUPATI,ANDHRA PRADESH,9391002968
352,CITY UNION BANK LIMITED,CIUB0000354,PEENYA,"DOOR NO 252,SUREKA COMPLEX,100 FEET ROAD,NEAR JALAHALLI CROSS,PEENYA BANGALORE 560 057",BENGALURU RURAL,BENGALURU,KARNATAKA,9343239877
353,CITY UNION BANK LIMITED,CIUB0000355,MAYUR VIHAR NEW DELHI,"DOOR NO C15,ACHARYA NIKETAN,MAYUR VIHAR PHASE I NEW DELHI 110 091",DELHI,NEW DELHI,DELHI,9344023593
354,CITY UNION BANK LIMITED,CIUB0000356,LAJPAT NAGAR NEW DELHI,"M17,GROUND FLOOR,LAJPAT NAGAR II,SOUTH DELHI,NEW DELHI 110 024",DELHI,NEW DELHI,DELHI,9344023594
355,CITY UNION BANK LIMITED,CIUB0000357,GURGAON,"SCO 28,SECTOR 14,GURGAON 122 001 HARYANA",GURGAON,GURGAON,HARYANA,9344023592
356,CITY UNION BANK LIMITED,CIUB0000358,CHANDIGARH,"SCO243334,SECTOR 22C,CHANDIGARH 160 022",CHANDIGARH,CHANDIGARH,CHANDIGARH,9344023591
357,CITY UNION BANK LIMITED,CIUB0000359,AMRITSAR,"NO 3A,LAWRANCE ROAD,AMRITSAR 143 001 PUNJAB",AMRITSAR,AMRITSAR,PUNJAB,9344023585
358,CITY UNION BANK LIMITED,CIUB0000360,THIRUVERKADU,"PLOT 14 AND 15,LINGESWAR NAGAR,THIRUVERKADU,CHENNAI 600 077 KANCHEEPURAM DIST",KANCHEEPURAM,CHENNAI,TAMIL NADU,9344023538
359,CITY UNION BANK LIMITED,CIUB0000361,PERUNGULATHUR,"46 BY 57,KAMARAJ NEDUNCHALAI,NEW PERUNGALATHUR CHENNAI 600 063 KANCHEEPURAM DIST",KANCHEEPURAM,CHENNAI,TAMIL NADU,9344023536
360,CITY UNION BANK LIMITED,CIUB0000362,PADAPPAI,"NO 5,NAVASAKTHI NAGAR,PADAPPAI 601 301 KANCHEEPURAM DIST",KANCHEEPURAM,KANCHEEPURAM DIST,TAMIL NADU,9344023535
361,CITY UNION BANK LIMITED,CIUB0000363,CHEYYAR,"6,ARCOT ROAD,SBILIC COMPLEX,CHEYYAR 604 407 TIRUVANNAMALAI DIST",TIRUVANNAMALAI,CHEYYAR,TAMIL NADU,222228
362,CITY UNION BANK LIMITED,CIUB0000364,DHALAVAIPURAM,"54 C,PUTHUR MAIN ROAD,CHETTIARPATTI DHALAVAIPURAM626188 VIRUDHUNAGAR DIST",VIRUDHUNAGAR,DHALAVAIPURAM,TAMIL NADU,9344023546
363,CITY UNION BANK LIMITED,CIUB0000365,GUMMIDIPOONDI,"NO 267,GNT ROAD,GUMMIDIPOONDI601201 TIRUVALLUR DIST",THIRUVALLUR,GUMMIDIPOONDI,TAMIL NADU,9344023539
364,CITY UNION BANK LIMITED,CIUB0000366,KATTUMANNARKOIL,"CHELLAM TOWERS,144 BY 41A,ERATAI STREET,KATTUMANNAR KOVIL608301 CUDDALORE DIST",CUDDALORE,KATTUMANNARKOIL,TAMIL NADU,9344023553
365,CITY UNION BANK LIMITED,CIUB0000367,MANGADU CHENNAI,"1 BY 2,KUNDRATHUR ROAD,MURUGAN NAGAR,MANGADU,CHENNAI 600122 KANCHEEPURAM DIST",KANCHEEPURAM,CHENNAI,TAMIL NADU,9344023540
366,CITY UNION BANK LIMITED,CIUB0000368,MINJUR CHENNAI,"S NO 213 BY 3,C1J,T H ROAD,MINJUR,PONNERI TK 601203 TIRUVALLUR DIST",THIRUVALLUR,PONNERI TK,TAMIL NADU,9344023541
367,CITY UNION BANK LIMITED,CIUB0000369,KAMAREDDY,"7,HYDERABAD ROAD,NATIONAL HIGHWAY,KAMAREDDY503 111 NIZAMABAD DIST,ANDHRA PRADESH",NIZAMABAD,KAMAREDDY,ANDHRA PRADESH,9344023604
368,CITY UNION BANK LIMITED,CIUB0000370,MEDCHAL,"RTC COLONY,NEAR MUKUND THEATRE,H 44,MEDCHAL 501401 RENGA REDDY DIST,ANDHRA PRADESH",RANGAREDDY,MEDCHAL,ANDHRA PRADESH,9344023603
369,CITY UNION BANK LIMITED,CIUB0000371,MEERPET,"SURVEY NO 56,GANHDI NAGAR,MEERPET,SAROOR NAGAR,HYDERABAD 500 097 RENGAREDDY,AP",RANGAREDDY,"MEERPET, HYDERABAD",ANDHRA PRADESH,9344023606
370,CITY UNION BANK LIMITED,CIUB0000372,BODUPPAL,"MAIN ROADUPPAL BUS DEPOT,NH 202 PEERZADIGUDA,HYDERABAD 500039 RENGAREDDY DIST,AP",RANGAREDDY,"BODUPPAL, HYDERABAD",ANDHRA PRADESH,9344023602
371,CITY UNION BANK LIMITED,CIUB0000373,AVINASHI,"416 BY 9 MAIN ROAD,OPP OLD BUS STAND,AVINASHI 641 654",TIRUPPUR,AVINASHI,TAMIL NADU,9344023554
372,CITY UNION BANK LIMITED,CIUB0000374,ARUPUKOTTAI,"45,SOUTH STREET,ARUPPUKOTTAI626101 VIRUDHUNAGAR DIST",VIRUDHUNAGAR,ARUPPUKOTTAI,TAMIL NADU,9344023543
373,CITY UNION BANK LIMITED,CIUB0000375,USILAMPATTI,"NO 6A BY 3,PERAIYUR MAIN ROAD,WARD NO 21,USILAMPATTI 625 532 MADURAI DIST",MADURAI,USILAMPATTI,TAMIL NADU,230555
374,CITY UNION BANK LIMITED,CIUB0000376,TENKASI,"DOOR NO 342D,COURTALLAM ROAD,NEAR YANAIPALAM,TENKASI 627 811 TIRUNELVELI DIST",TIRUNELVELI,TENKASI,TAMIL NADU,9344023547
375,CITY UNION BANK LIMITED,CIUB0000377,AMBASAMUDRAM,"NO 58,SANJEEVI VILAS COMPOUND,THILAGARPURAM MAIN ROAD,AMBASAMUDRAM 627 401 TIRUNELVELI DIST",TIRUNELVELI,AMBASAMUDRAM,TAMIL NADU,9344023542
376,CITY UNION BANK LIMITED,CIUB0000378,THIRUNAGAR MADURAI,"NO 5,GROUND FLOOR,GST ROAD,THIRUNAGAR 625006 MADURAI DIST",MADURAI,MADURAI,TAMIL NADU,9344023550
377,CITY UNION BANK LIMITED,CIUB0000379,THRIPUNITHURA,KANNETH BUILDING NEAR GOVT HOSPITAL THRIPUNITHURA 682 301 ERNAKULAM DIST,ERNAKULAM,THRIPUNITHURA,KERALA,9387058561
378,CITY UNION BANK LIMITED,CIUB0000380,ALAPUZHA,17 420 NANAS COMPLEX CULLEN ROAD MULLACKAL ALAPUZHA 688 011 ALAPUZHA DIST,ALAPUZHA,ALAPUZHA,KERALA,9387965422
379,CITY UNION BANK LIMITED,CIUB0000381,NUNGAMBAKKAM,"123, VALLUVARKOTTAM HIGH ROAD, NUNGAMBAKKAM, CHENNAI  600 034",CHENNAI,CHENNAI,TAMIL NADU,9344023559
380,CITY UNION BANK LIMITED,CIUB0000382,SITHALAPAKKAM,"1 BY 162, OTTIYAMBAKKAM MAIN ROAD, JAYANAGAR, SITHALAPAKKAM, CHENNAI  600 126 KANCHEEPURAM",KANCHEEPURAM,CHENNAI,TAMIL NADU,9344023560
381,CITY UNION BANK LIMITED,CIUB0000383,ILLALUR,"104, ILLALUR ROAD, KANAGAPATTU, TIRUPORUR603 110 KANCHEEPURAM",KANCHEEPURAM,TIRUPORUR,TAMIL NADU,9344023562
382,CITY UNION BANK LIMITED,CIUB0000384,LUCKNOW,"19 A,HALA COMPLEX,ASHOK MARG,SAPRU MARG,OPP.JAWAGAR BHAWAN LUCKNOW 226 001 UTTAR PRADESH",LUCKNOW,LUCKNOW,UTTAR PRADESH,7499316077
383,CITY UNION BANK LIMITED,CIUB0000385,AMRAVATI,"KHATRI CHAMBERS D.NO.344 BY 1,1ST FLOOR,MORSHI ROAD,JAISTHAN CHOWK,AMRAVATI 444601 MAHARASHTRA",AMRAVATI,AMRAVATI,MAHARASHTRA,9373215468
384,CITY UNION BANK LIMITED,CIUB0000386,MEHDIPATNAM,"10 3 110,HUMAYUN NAGAR,OPP.SAROJINI DEVI EYE HOSPITAL,MEHDIPATNAM 500 028.ANDHRA PRADESH",RANGAREDDY,MEHDIPATNAM,ANDHRA PRADESH,9392906472
385,CITY UNION BANK LIMITED,CIUB0000387,PALI,"PART OF PLOT 3 TO 4,PANCH MUKHA PULIA NH 65,RAILWAY STATION ROAD,PALI 306 401 RAJASTHAN STATE",PALI,PALI,RAJASTHAN,9352034953
386,CITY UNION BANK LIMITED,CIUB0000388,BALOTRA,"WARD NO.2,KHASARA NO.622,KHER ROAD,BALOTRA 344 022 RAJASTHAN STATE",BARMER,BALOTRA,RAJASTHAN,9314906153
387,CITY UNION BANK LIMITED,CIUB0000389,RED HILLS,291 GNT ROAD RED HILLS CHENNAI 600 052 THIRUVALLUR,THIRUVALLUR,CHENNAI,TAMIL NADU,9344023567
388,CITY UNION BANK LIMITED,CIUB0000390,PERUMBAKKAM,OLD NO 183 SHOLINGANALLUR MAIN ROAD OPP TO PERUMBAKKAM CHURCH PERUMBAKKAM CHENNAI 600 100,KANCHEEPURAM,PERUMBAKKAM,TAMIL NADU,9344023564
389,CITY UNION BANK LIMITED,CIUB0000391,MARTHANDAM,PAMMAM MAIN ROAD MARTHANDAM 629 165 KULITHURAI MUNICIPALITY KANYAKUMARI,KANYAKUMARI,MARTHANDAM,TAMIL NADU,9382270102
390,CITY UNION BANK LIMITED,CIUB0000392,BATLAGUNDU,13 1 77 78 MAIN ROAD BATLAGUNDU 624 202 DINDIGUL,DINDIGUL,BATLAGUNDU,TAMIL NADU,9344023577
391,CITY UNION BANK LIMITED,CIUB0000393,BHOPAL,"127,M.P.NAGAR,ZONE 2,BHOPAL,BHOPAL",BHOPAL,BHOPAL,MADHYA PRADESH,9301552849
392,CITY UNION BANK LIMITED,CIUB0000394,NANJIKOTTAI,"S.F.No. 42/1A, Ground Floor, Bishop Sundaram Complex,Pudukkottai Road,Nanjikottai",THANJAVUR,NANJIKOTTAI,TAMIL NADU,9382270145
393,CITY UNION BANK LIMITED,CIUB0000395,VELAPPANCHAVADI,"NO.135,POONAMALLEE HIGH ROAD,BHUVANA NURSERY AVENUE,VELAPPANCHAVADI CHENNAI 600 077.THIRUVALLUR DIST",THIRUVALLUR,VELAPPANCHAVADI,TAMIL NADU,0
394,CITY UNION BANK LIMITED,CIUB0000396,MELAKOTTAIYUR,"VANDALUR KELAMBAKKAM ROAD,NEAR VIT CHENNAI CAMPUS,MELAKOTTAIYUR CHENNAI 600 048.KANCHIPURAM DIST",KANCHEEPURAM,MELAKOTTAIYUR,TAMIL NADU,0
395,CITY UNION BANK LIMITED,CIUB0000397,THIRUMAZHISAI,"114A,TH ROAD,THIRUMAZHISAI,CHENNAI 600 124 THIRUVALLUR DIST",THIRUVALLUR,CHENNAI,TAMIL NADU,0
396,CITY UNION BANK LIMITED,CIUB0000398,AYAPPAKKAM,"D.NO.6284,THIRUVERKADU MAIN ROAD,AYAPPAKKAM,CHENNAI 600 077 THIRUVALLUR DIST",THIRUVALLUR,CHENNAI,TAMIL NADU,0
397,CITY UNION BANK LIMITED,CIUB0000399,THIRUNINDRAVUR,"PLOT NO.2,C.T.H.ROAD,THIRUNINDRAVUR,CHENNAI 602 024 THIRUVALLUR DIST",THIRUVALLUR,CHENNAI,TAMIL NADU,0
398,CITY UNION BANK LIMITED,CIUB0000400,THIRUMUDIVAKKAM,"NO.80 BY 92,THIRUMUDIVAKKAM MAIN ROAD,THIRUMUDIVAKKAM,CHENNAI 600 044 KANCHEEPURAM DIST",KANCHEEPURAM,CHENNAI,TAMIL NADU,0
399,CITY UNION BANK LIMITED,CIUB0000401,CHINNALAPATTI,"11 3 6,KAMARAJ SALAI,CHINNALAPATTI 624301 DINDIGUL DIST",DINDIGUL,CHINNALAPATTI,TAMIL NADU,0
400,CITY UNION BANK LIMITED,CIUB0000402,BALAKRISHNAPURAM,"5,MASILAMANIPURAM,BALAKRISHNAPURAM 624005 PUTHOOR POST DINDIGUL DIST",DINDIGUL,PUTHOOR,TAMIL NADU,0
401,CITY UNION BANK LIMITED,CIUB0000403,TEYNAMPET CHENNAI,"25 BY 59,GROUND FLOOR,K.B.DHASAN ROAD,TEYNAMPET CHENNAI 600 018",CHENNAI,CHENNAI,TAMIL NADU,0
402,CITY UNION BANK LIMITED,CIUB0000404,MIYAPUR HYDERABAD,"PLOT NO 16 AND 17,SRI SAI ELITE,ALLWYN CROSS,MIYAPUR HYDERABAD 500050",RENGAREDDY,HYDERABAD,ANDHRA PRADESH,0
403,CITY UNION BANK LIMITED,CIUB0000405,TIRUVALANJULI,"NO.2,SWAMI NAGAR,MAIN ROAD,TIRUVALANJULI 612 302.TANJORE DIST",THANJAVUR,THANJAVUR,TAMIL NADU,9362344422
404,CITY UNION BANK LIMITED,CIUB0000406,DEVANANCHERY,"5 BY 152,MAIN ROAD,DEVANANCHERY 612 501 TANJORE DIST",THANJAVUR,THANJAVUR,TAMIL NADU,9344703698
405,CITY UNION BANK LIMITED,CIUB0000407,KORANATTUKARUPPUR,EASWAR SCHOOL PREMISES KORANATTUKARUPPUR 612 002 TANJORE DIST,THANJAVUR,THANJAVUR,TAMIL NADU,9344783234
406,CITY UNION BANK LIMITED,CIUB0000408,ANNALAGRAHARAM,"427,VELLALAR STREET,MAIN ROAD,ANNALAGRAHARAM 612 401.TANJORE DIST",THANJAVUR,THANJAVUR,TAMIL NADU,9344729608
407,CITY UNION BANK LIMITED,CIUB0000409,PATTEESWARAM,"NO.1 BY 90,GANDHI SALAI,PATTEESWARAM 612 703 TANJORE DIST",THANJAVUR,THANJAVUR,TAMIL NADU,9364426527
408,CITY UNION BANK LIMITED,CIUB0000410,VEERAPANDI PUDUR,"11 BY 138,AMMAN NAGAR,KAMARAJ SALAI,VEERAPANDI PUDUR 641 019.COIMBATORE DIST",COIMBATORE,VERAPANDIPUDUR,TAMIL NADU,9344054394
409,CITY UNION BANK LIMITED,CIUB0000411,VADAKUTHU,"13 BY A 1,40 FEET ROAD,GANDHI GRAMAM VADAKUTHU 607 308 CUDDALORE DIST",CUDDALORE,VADAKUTHU,TAMIL NADU,9344152734
410,CITY UNION BANK LIMITED,CIUB0000412,NEDUNGUNDRAM,"71,GANDHI ROAD,SATHANANDAPURAM,NEDUNGUNDRAM 600 063 KANCHEEPURAM DIST",KANCHEEPURAM,NEDUNGUNDRAM,TAMIL NADU,9344323198
411,CITY UNION BANK LIMITED,CIUB0000413,THIRUVENCHERY,"AGARAMTHEN ROAD,NEAR BHARATH UNIVERSITY,THIRUVENCHERY 600 073 KANCHEEPURAM DIST",KANCHEEPURAM,THIRUVENCHERY,TAMIL NADU,9345179609
412,CITY UNION BANK LIMITED,CIUB0000414,PADUR,"196,OLD MAHABALIPURAM ROAD OMR,PADUR 603 103 KANCHEEPURAM DIST",KANCHEEPURAM,PADUR,TAMIL NADU,9344638614
413,CITY UNION BANK LIMITED,CIUB0000415,UNAIYUR,"PLOT NO.35, THIRUMALAI THIRUNAGAR NEAR BHEL, UNAIYUR  622 507 PUDUKKOTTAI",PUDUKKOTTAI,PUDUKKOTTAI,TAMIL NADU,9344112977
414,CITY UNION BANK LIMITED,CIUB0000416,THEPPERUMANALLUR,MAYILADUTHURAI MAIN ROADTHEPPERUMANALLUR 612 206.TIRUVIDAIMARUTHUR TK THANJAVUR,THANJAVUR,TIRUVDAIMARUDUR,TAMIL NADU,9345349141
415,CITY UNION BANK LIMITED,CIUB0000417,S PUDUR,"1 BY 212,MAIN ROAD,S.PUDUR 612 205 TIRUVIDAIMARUTHUR TK THANJAVUR DIST",THANJAVUR,TIRUVDAIMARUDUR,TAMIL NADU,9345653551
416,CITY UNION BANK LIMITED,CIUB0000418,VARADARAJAPURAM,"D.NO.1 BY 117 1 BY 119,GANDHI STREET,NAZARATHPET,VARADARAJAPURAM 600 123 THIRUVALLUR DIST",THIRUVALLUR,TIRUVALLUR,TAMIL NADU,9345921366
417,CITY UNION BANK LIMITED,CIUB0000419,AMBUR,"NO.9 BY 4,S.K.ROAD,KRISHNAPURAM,AMBUR 635 802 VELLORE DIST",VELLORE,AMBUR,TAMIL NADU,9364405197
418,CITY UNION BANK LIMITED,CIUB0000420,ADYAR,"Plot No. 2/B, New Door No. 5, Third Cross Street,Kasthuribai Nagar, (Next to Kamakshi Memorial Hospital),Chennai",CHENNAI,CHENNAI,TAMIL NADU,9360286894
419,CITY UNION BANK LIMITED,CIUB0000421,REDDIARPALAYAM,"93 VILLIANUR ROAD,REDDIARPALAYAM,PONDICHERRY 605010",PONDICHERRY,PONDICHERRY,PUDUCHERRY,9360059547
420,CITY UNION BANK LIMITED,CIUB0000422,ROYAPURAM,"104 150 M.S.KOIL STREET,ROYAPURAM,CHENNAI 600013",CHENNAI,CHENNAI,TAMIL NADU,9367129084
421,CITY UNION BANK LIMITED,CIUB0000423,VILLIANUR,"NO.26,FIRST CROSS VASANTHAM NAGAR,VILLIANUR,PONDICHERY 605 110",PONDICHERRY,VILLIANUR,PUDUCHERRY,9361007131
422,CITY UNION BANK LIMITED,CIUB0000424,EGMORE,"51 BY 33,POLICE COMMSSIONER S OFFICE ROAD,EGMORE,CHENNAI 600 008",CHENNAI,CHENNAI,TAMIL NADU,9367742383
423,CITY UNION BANK LIMITED,CIUB0000425,HARUR,"SURVEY NO.21 BY 35,SINTHALPADI MAIN ROAD,HARUR 636 903,SALEM DIST",SALEM,SALEM,TAMIL NADU,9362962061
424,CITY UNION BANK LIMITED,CIUB0000426,SANKAGIRI,"1 14 18,D SETTIA GOUNDER COMPLEX,BHAVANI MAIN ROAD,SANKAGIRI 637 301,SALEM DT",SALEM,SANKARI,TAMIL NADU,9362050486
425,CITY UNION BANK LIMITED,CIUB0000427,ANTHIYUR,"9 BY 294 2,BHAVANI MAIN ROAD,ANTHIYUR,ERODE DIST",ERODE,ANTHIYUR,TAMIL NADU,9362287327
426,CITY UNION BANK LIMITED,CIUB0000428,GANAPATHY,"1421A,SATHY MAIN ROAD,NEAR ATHIPALAYAM PIRIVU,GANAPATHY,COIMBATORE 641006",COIMBATORE,COIMBATORE,TAMIL NADU,9362956773
427,CITY UNION BANK LIMITED,CIUB0000429,ANGAMALY,"DOOR NO F2 F3, KOLENCHERY TOWER, MC ROAD, NEAR LF HOSPITAL, ANGAMALY 653572 ERNAKULAM DIST",ERNAKULAM,ANGAMALY,KERALA,2459700
428,CITY UNION BANK LIMITED,CIUB0000430,VALAJANAGARAM,"JAYANKONDAM MAIN ROAD, VALAJANAGARAM 621704, ARIYALUR DIST",ARIYALUR,VALAJANAGARAM,TAMIL NADU,9345923672
429,CITY UNION BANK LIMITED,CIUB0000431,EAST TAMBARAM,"NEW NO 96, OLD NO 130, BHARATHAMATHA STREET, EAST TAMBARAM CHENNAI 600059 KANCHEEPURAM DIST",KANCHEEPURAM,CHENNAI,TAMIL NADU,9360072242
430,CITY UNION BANK LIMITED,CIUB0000432,NEW COLONY CHROMPET,"1 25, BASKAR PLAZA SIXTH MAIN ROAD, NEW COLONY, CHROMPET CHENNAI 600044 KANCHEEPURAM DIST",KANCHEEPURAM,CHENNAI,TAMIL NADU,9362692987
431,CITY UNION BANK LIMITED,CIUB0000433,KATTUPAKKAM,"S.NO 62, MSR NAGAR SENDURPURAM MAIN ROAD, KATTUPAKKAM CHENNAI 600056 KANCHEEPURAM DIST",KANCHEEPURAM,CHENNAI,TAMIL NADU,9362365145
432,CITY UNION BANK LIMITED,CIUB0000434,NILAKOTTAI,"S.NO. 117/2C1 A, MAIN ROAD, NILAKOTTAI 624 208 DINDIGUL DIST.",DINDIGUL,NILAKOTTAI,TAMIL NADU,9345625114
433,CITY UNION BANK LIMITED,CIUB0000435,NATHAM,"D.NO.4, WARD NO.5, DINDIGUL MAIN ROAD, NATHAM 624 401 DINDIGUL DIST",DINDIGUL,NATHAM,TAMIL NADU,9362637559
434,CITY UNION BANK LIMITED,CIUB0000436,MELUR,"D.NO.243/2C1 A, NEAR BHASKARAN CLINIC, ALAGAR KOVIL ROAD, MELUR 625 106 MADURAI DIST",MADURAI,MELUR,TAMIL NADU,9365869140
435,CITY UNION BANK LIMITED,CIUB0000437,VEERAPURAM,"NO.122,VEERAPANDIA KATTABOMMAN STREET, MAHINDRA WORLD CITY MAIN ROAD,VEERAPURAM-603002 CHENGALPET-TK KANCHEEPURAM-DIST",KANCHEEPURAM,VEERAPURAM,TAMIL NADU,9362876376
436,CITY UNION BANK LIMITED,CIUB0000438,KOLATHUR,"17/22, GANAPATHY RAO NAGAR, REDHILLS ROAD, KOLATHUR-600099 CHENNAI-DIST",CHENNAI,CHENNAI,TAMIL NADU,9367795902
437,CITY UNION BANK LIMITED,CIUB0000439,PONNERI,"NO 3, AUTHULLASHA STREET, PONNERI-601204 THIRUVALLUR-DIST",THIRUVALLUR,PONNERI,TAMIL NADU,9367170879
438,CITY UNION BANK LIMITED,CIUB0000440,CHINNIYAMPALAYAM,"1/441 AVINASHI ROAD,NEAR INDIAN BANK, CHINNIYAMPALAM, COIMBATORE 641062",COIMBATORE,COIMBATORE,TAMIL NADU,9360260296
439,CITY UNION BANK LIMITED,CIUB0000441,KATTUR,"DOOR NO.12,13, PUGAL NAGAR, PAPAKURICHI, THANJAVUR MAIN ROAD, KATTUR 620019 TRICHY -DIST",TRICHY,KATTUR,TAMIL NADU,9360012887
440,CITY UNION BANK LIMITED,CIUB0000442,GAJUWAKA,"PLOT NO 52,49 SURVEY NO 54, DOOR NO.13-14-20, DWARAPUREDDY COMPLEX, B.C.ROAD, NEW GAJUWAKA, VISAKHAPATNAM 530027 ANDHRA PRADESH",VISAKHAPATNAM,VISAKHAPATNAM,ANDHRA PRADESH,2575773
441,CITY UNION BANK LIMITED,CIUB0000443,VIZIANAGARAM,"SURVEY NO 628, 638/3, DOOR NO 5-1-19, CITY SQUARE, SANTHAPETA, PEDDA VEEDHI, M.G.ROAD, VIZIANAGARAM 535001 ANDHRA PRADESH",VIZIANAGARAM,VIZIANAGARAM,ANDHRA PRADESH,275772
442,CITY UNION BANK LIMITED,CIUB0000444,THIMMAVARAM,"24, MAHALAKSHMI NAGAR,KANCHEEPURAM HIGH ROAD,THIMMAVARAM  603 101 CHENGALPET - TKKANCHEEPURAM  DIST",KANCHEEPURAM,THIMMAVARAM,TAMIL NADU,9360691692
443,CITY UNION BANK LIMITED,CIUB0000445,NARANAMANGALAM,"R.S.NO.47/61, THOPPU STREET,NARANAMANGALAM  610107KODAVASAL - TKTIRUVARUR  DIST",THIRUVARUR,NARANAMANGALAM,TAMIL NADU,9360619774
444,CITY UNION BANK LIMITED,CIUB0000446,SITHARKADU,"92/A3, MAIN ROAD,SITHARKADU  609003MAYILADUTHURAI  TKNAGAPATTINAM  DIST",NAGAPATTINAM,SITHARKADU,TAMIL NADU,9361033775
445,CITY UNION BANK LIMITED,CIUB0000447,VILANDHAKANDAM,"S.NO.57/1, CHENNAI MAIN ROAD,VILANDHAKANDAM  612 503KUMBAKONAM  TK THANJAVUR  DIST",THANJAVUR,VILANDHAKANDAM,TAMIL NADU,9344229399
446,CITY UNION BANK LIMITED,CIUB0000448,TUNI,"D.NO.4-13-3, MAIN ROAD,TUNI-533401,EAST GODAVARI-DIST,ANDHARA PRADESH",EAST GODAVARI,TUNI,ANDHRA PRADESH,9346568373
447,CITY UNION BANK LIMITED,CIUB0000449,KOMARAPALAYAM,"NO.286 L1,SALEM MAIN ROAD,KOMARAPALAYAM-638183,NAMAKKAL DIST",NAMAKKAL,KOMARAPALAYAM,TAMIL NADU,9367520336
448,CITY UNION BANK LIMITED,CIUB0000450,BARGUR,"D.NO 69 & 70, KRISHNAGIRI MAIN ROAD,(OPP TO BARGUR BUS STAND),BARGUR-635104,KRISHNAGIRI-DIST",KRISHNAGIRI,BARGUR,TAMIL NADU,9362802042
449,CITY UNION BANK LIMITED,CIUB0000451,VANDAVASI,"15 AND 17,OTHAVADAI STREET,(NEAR THERADI),VANDAVASI-604408,TIRUVANNAMALAI-DIST",TIRUVANNAMALAI,VANDAVASI,TAMIL NADU,9345056215
450,CITY UNION BANK LIMITED,CIUB0000452,MALUMICHAMPATTI,"S.F.NO 248/AF,GURUVAYUR NAGAR,(BEHIND STATE BANK OF INDIA)MALUMICHAMPATTI-641050, COIMBATORE-DIST",COIMBATORE,COIMBATORE,TAMIL NADU,9345969807
451,CITY UNION BANK LIMITED,CIUB0000453,SUNDARAPURAM,"NO.237/160 E,POLLACHI MAIN ROAD,(NEAR BALAJI HOSPITAL),SUNDARAPURAM,COIMBATORE-641024",COIMBATORE,COIMBATORE,TAMIL NADU,9345506932
452,CITY UNION BANK LIMITED,CIUB0000454,KOILAMBAKKAM,"PLOT NO.415 D/NO 4/51, 200 FEET RADIAL ROAD, VIDUTHALAI NAGAR,KOLATHUR,KOILAMBAKKAM-600129 KANCHEEPURAM-DIST",KANCHEEPURAM,KOILAMBAKKAM,TAMIL NADU,9362647854
453,CITY UNION BANK LIMITED,CIUB0000455,VANAGARAM,"PLOT NO.2,PORUR GARDEN PHASE II, NEAR PORUR TOLGATE,VANAGARAM,CHENNAI-600095,TIRUVALLUR-DIST",THIRUVALLUR,VANAGARAM,TAMIL NADU,9345436450
454,CITY UNION BANK LIMITED,CIUB0000456,BASAVANAGUDI,"NO 194 GROUND FLOOR,SC ROAD,NEAR NETKALLAPPA CIRCLE,BASAVANAGUDI-560004 BANGALORE- DIST",BANGALORE,BANGALORE,KARNATAKA,9343879470
455,CITY UNION BANK LIMITED,CIUB0000457,K.R.PURAM,"SREE RAGH TOWERS DOOR NO 390, 4TH MAIN,OLD MADRAS ROAD,K R PURAM OLD EXTN,BANGALORE -560036",BANGALORE,BANGALORE,KARNATAKA,9341713962
456,CITY UNION BANK LIMITED,CIUB0000458,VAZHAPADI,"SK TOWERS NO 126,CUDDALORE MAIN ROAD,VAZHAPADI-636115 SALEM- DIST",SALEM,VALAPADI,TAMIL NADU,9345132289
457,CITY UNION BANK LIMITED,CIUB0000459,THARAMANGALAM,"SF NO 81/7C NANGAVALLI MAIN ROAD,THARAMANGALAM-636502 OMALUR-TK, SALEM -DIST",SALEM,THARAMANGALAM,TAMIL NADU,9345912328
458,CITY UNION BANK LIMITED,CIUB0000460,SATHYAMANGALAM,"125, 126 ATHANI MAIN ROAD (OPP BHAVANIESWARAN TEMPLE) SATHYAMANGALAM -638401 ERODE -DIST",ERODE,SATHYAMANGALAM,TAMIL NADU,9360575682
459,CITY UNION BANK LIMITED,CIUB0000461,MANAMADURAI,"NO 23/65 MARIAMMAN KOVIL STREET, MANAMADURAI-630606 SIVAGANGAI-DIST",SIVAGANGA,MANAMADURAI,TAMIL NADU,9360585112
460,CITY UNION BANK LIMITED,CIUB0000462,MANJAKOLLAI,"NO 43/5 MAIN ROAD, PUTHUR, MANJAKOLLAI-611106 NAGAPATTINAM -DIST",NAGAPATTINAM,MANJAKOLLAI,TAMIL NADU,9360542970
461,CITY UNION BANK LIMITED,CIUB0000463,A S RAO NAGAR,"D.NO 1-19/1/1, GROUND FLOOR,PLOT NO 1,1-G BLOCK, OFFICERS COLONY, A S RAO NAGAR, ECIL POST HYDERABAD-500062 RANGAREDDY DIST. TELANGANA",RANGAREDDY,HYDERABAD,TELANGANA,9392209538
462,CITY UNION BANK LIMITED,CIUB0000464,BALANAGAR,"D NO.6-3-134/1,PLOT 21 AL AMEEN PLAZA,BALANAGAR, HYDERABAD -500037, TELANGANA",HYDERABAD,HYDERABAD,TELANGANA,9391521407
463,CITY UNION BANK LIMITED,CIUB0000465,ANKLESHWAR,"PLOT NO 73/P GIDC ESTATE, OLD NATIONAL HIGHWAY NO 8 ANKLESHWAR -393002 GUJARAT -STATE",BHARUCH,ANKLESHWAR,GUJARAT,9327116248
464,CITY UNION BANK LIMITED,CIUB0000466,VAPI,"SHOP NO 36,37 AND 38, GIRNAR KHUSBOO PLAZA,PLOT NO.209 GIDC ESTATE, VAPI-396195 GUJARAT-STATE",VALSAD,VAPI,GUJARAT,9327116247
465,CITY UNION BANK LIMITED,CIUB0000467,ARUMBAKKAM,"CD -24 RAZACK GARDEN STREET,MMDA COLONY, ARUMBAKKAM-600100 CHENNAI -DIST",CHENNAI,CHENNAI,TAMIL NADU,9345012129
466,CITY UNION BANK LIMITED,CIUB0000468,MELAVALAMPETTAI,"PLOT NO.56 UTHIRAMERUR ROAD,V.B NAGARAM V.NO. 144 (NEAR VASAM HOSPITAL) MELAVALAMPETTAI-603303 KANCHEEPURAM -DIST",KANCHEEPURAM,KANCHIPURAM,TAMIL NADU,9345563629
467,CITY UNION BANK LIMITED,CIUB0000469,GINGEE,"NO.212 TIRUVANNAMALAI ROAD, GINGEE -604202, VILLUPURAM -DIST",VILLUPURAM,GNIGEE,TAMIL NADU,9360574810
468,CITY UNION BANK LIMITED,CIUB0000470,EDAPPALLY,"DOOR NO 34/2284A NH 47, EDAPPALLY SOUTH, PALARIVATTOM (PO), KOCHI -682025 ERNAKULAM -DIST, KERALA -STATE",ERNAKULAM,EDAPPALLY,KERALA,9388290601
469,CITY UNION BANK LIMITED,CIUB0000471,ALUVA,"DOOR NO.291(2) TO 291(5), KJ SQUARE, GROUND FLOOR,PRINCE TOWERS, MARKET ROAD,ALUVA -683101,ERNAKULAM-DIST,KERALA -STATE",ERNAKULAM,ALUVA,KERALA,9388290599
470,CITY UNION BANK LIMITED,CIUB0000472,GANDHIDHAM,"SHREEJI COMPLEX,PLAT NO.9,WARD NO.12-B,OPP.CITY POLICE STATION,GANDHIDHAM -370201 JAMNAGAR -DIST, GUJARAT -STATE",JAMNAGAR,GANDHIDHAM,GUJARAT,9376865737
471,CITY UNION BANK LIMITED,CIUB0000473,MELAKABISTHALAM,"4/42B MAIN ROAD,MELAKABISTHALAM-614203,PAPANASAM -TK THANJAVUR -DIST",THANJAVAUR,MELAKABISTHALAM,TAMIL NADU,9345788744
472,CITY UNION BANK LIMITED,CIUB0000474,TIRUTTANI,"124, AKKAIYA NAIDU STREET, TIRUTTANI-631209, TIRUVALLUR -DIST",THIRUVALLUR,TIRUTTANI,TAMIL NADU,9363228745
473,CITY UNION BANK LIMITED,CIUB0000475,IRUNGALUR,"1-398,TRICHY-CHENNAI HIGHWAY,(OPP. SRM CAMPUS),IRUNGALUR -621107 TRICHY -DIST",TIRUCHIRAPALLI,TRICHY,TAMIL NADU,9365868948
474,CITY UNION BANK LIMITED,CIUB0000476,KARUMANDABAM,"NO 1/2 DINDUGAL ROAD, KARUMANDABAM TRICHY -620001.",TIRUCHIRAPALLI,TRICHY,TAMIL NADU,9360560137
475,CITY UNION BANK LIMITED,CIUB0000477,SRINIVASANAGAR,"PLOT NO.30 VAYALUR MAIN ROAD, SRINIVASANAGAR,TRICHY-620017.",TIRUCHIRAPALLI,TRICHY,TAMIL NADU,9345013102
476,CITY UNION BANK LIMITED,CIUB0000478,PONNAMARAVATHY,"67 AND 68, ANNA SALAI, PONNAMARAVATHY -622411 PUDUKKOTTAI -DIST",PUDUKKOTTAI,PONNAMARAVATHY,TAMIL NADU,9345088936
477,CITY UNION BANK LIMITED,CIUB0000479,JAGTIAL,"H.NO.3-6-27/4,KARIMNAGAR ROAD,JAGTIAL,KARIMNAGAR",KARIMNAGAR,JAGTIAL,TELANGANA,9347593477
478,CITY UNION BANK LIMITED,CIUB0000480,MANCHERIAL,"H.NO.5-186/2,IQBAL AHMED NAGAR,GROUND FLOOR,MANCHERIAL,ADILABAD",ADILABAD,MANCHERIAL,TELANGANA,9347593478
479,CITY UNION BANK LIMITED,CIUB0000481,VADALUR,"R.S.NO.171/1A/1A, KUMBAKONAM ROAD,VADALUR, CUDDALORE",CUDDALORE,CUDDALORE,TAMIL NADU,9345740244
480,CITY UNION BANK LIMITED,CIUB0000482,ZAMIN PALLAVARAM,"NO.95, P.V.VAIDYALINGAM ROAD, OLD PALLAVARAM, CHENNAI 600117",KANCHEEPURAM,CHENNAI,TAMIL NADU,9360502172
481,CITY UNION BANK LIMITED,CIUB0000483,MANNIVAKKAM,"2/8, WALAJABAD ROAD, MANNIVAKKAM, CHENNAI 600048",CHENNAI,CHENNAI,TAMIL NADU,9345510443
482,CITY UNION BANK LIMITED,CIUB0000484,NAVALUR,"DOOR NO.1/192, GANDHI STREET,NAVALUR, CHENNAI 603103",KANCHEEPURAM,CHENNAI,TAMIL NADU,9365859566
483,CITY UNION BANK LIMITED,CIUB0000485,KONDAPUR,"1-112/1/20C, PLOT NO.26-C,GROUND FLOOR,KONDAPUR, RENGAREDDY",RENGAREDDY,KONDAPUR,TELANGANA,9393345653
484,CITY UNION BANK LIMITED,CIUB0000486,SIVANANDA COLONY COIMBATORE,"69,RAJU NAIDU ROAD,SIVANANDA COLONY,TATABAD,COIMBATORE",COIMBATORE,COIMBATORE,TAMIL NADU,9345467992
485,CITY UNION BANK LIMITED,CIUB0000487,MANIAKARANPALAYAM COIMBATORE,"OLD NO 36A/7,NEW NO 103,BHARATHIYAR ROAD,MANIAKARANPALAYAM,COIMBATORE",COIMBATORE,COIMBATORE,TAMIL NADU,9344952627
486,CITY UNION BANK LIMITED,CIUB0000488,JODHPUR,"GROUND FLOOR,PLOT NO.3,SECTOR 7,NEW POWER HOUSE ROAD,JODHPUR",JODHPUR,JODHPUR,RAJASTHAN,9351831129
487,CITY UNION BANK LIMITED,CIUB0000489,VANIYAMBADI,"NO 275/32,BABA ASTHANA MALANG ROAD,NOORLAPET,VANIYAMBADI,VELLORE",VELLORE,VANIYAMBADI,TAMIL NADU,9361031365
488,CITY UNION BANK LIMITED,CIUB0000490,ORAGADAM,"NO.2/90,PONNIAMMAN KOIL STREET,ORAGADAM,KANCHEEPURAM",KANCHEEPURAM,TAMBARAM,TAMIL NADU,9360189312
489,CITY UNION BANK LIMITED,CIUB0000491,VELLANOOR,"PLOT NO.102,VEERAPURAM MAIN ROAD,VISHNUNAGAR,NEAR VELTECH COLLEGE,VELLANOOR,THIRUVALLUR",THIRUVALLUR,TIRUVALLUR,TAMIL NADU,9345097560
490,CITY UNION BANK LIMITED,CIUB0000492,VILANDAI,"NO.812A,SOUTH STREET,JOTHI COMPLEX,OPP.ANDIMADAM PANCHAYAT UNION OFFICE,VILANDAI,ARIYALUR-621 801",PERAMBALUR,ARIYALUR,TAMIL NADU,9345638476
491,CITY UNION BANK LIMITED,CIUB0000493,KODANGIPALAYAM,"DOOR NO.3/237,SF NO 379/B25,TRICHY ROAD,KARANAMPETTAI,KODANGIPALAYAM,TIRUPUR-641 662",COIMBATORE,TIRUPUR,TAMIL NADU,9360534774
492,CITY UNION BANK LIMITED,CIUB0000494,MUGAPPAIR,"150,MOHAN RAM NAGAR, MUGAPPAIR,CHENNAI-600037",CHENNAI,CHENNAI,TAMIL NADU,9360539964
493,CITY UNION BANK LIMITED,CIUB0000495,MADANA PALLE,"DOOR NO II-215-2 AND II-214-B,WARD NO 2,PATEL ROAD,BANDAMEEDA KAMMAPALLE,MADANA PALLE-517325",CHITTOOR,MADANA PALLE,ANDHRA PRADESH,9347038267
494,CITY UNION BANK LIMITED,CIUB0000496,PAKKAM,"NO.3/331,VENKATESAPURAM,THIRUNINRAVUR,PAKKAM,TIRUVALLUR-602024",THIRUVALLUR,THIRUNINRAVUR,TAMIL NADU,9360509312
495,CITY UNION BANK LIMITED,CIUB0000497,NIRMAL,"DOOR NO5-7-100/13, NH7, DOCTORS COLONY, NIRMAL",ADILABAD,NIRMAL,ANDHRA PRADESH,9394881390
496,CITY UNION BANK LIMITED,CIUB0000498,JAM NAGAR,"G-1,SHREEJI EMPERIA,JOGGERS PARK ROAD,PARK COLONY,JAM NAGAR-361 008",JAMNAGAR,JAMNAGAR,GUJARAT,0
497,CITY UNION BANK LIMITED,CIUB0000499,AHMADABAD-RAIPUR,"GROUND FLOOR,SHIVAM ARCADE,NEAR SAFAL-3,D BLOCK,BEHND MAHIPATRAM ASRAM,RAIPUR,AHMADABAD-380 022",AHMADABAD,RAIPUR,GUJARAT,9374674453
498,CITY UNION BANK LIMITED,CIUB0000500,CHENNAI-ANNA NAGAR WEST,"W-393,SCHOOL ROAD,AR BUILDING,OPP SBOA SCHOOL,ANNA NAGAR,CHENNAI-600101",CHENNAI,CHENNAI,TAMIL NADU,9345942939
499,CITY UNION BANK LIMITED,CIUB0000501,KANPUR,"GROUND FLOOR,24/14,THE MALL,KANPUR-208 001",KANPUR CITY,KANPUR,UTTAR PRADESH,8799498478
500,CITY UNION BANK LIMITED,CIUB0000502,NEW DELHI LAXMI NAGAR,"F-120,MAIN BAZAR,LAXMI NAGAR,NEW DELHI-110 092",DELHI,DELHI,DELHI,9312620592
501,CITY UNION BANK LIMITED,CIUB0000503,CHINTHAMANI,"1/228,MAIN ROAD,CHINTHAMANI,T.PALUR TALUK,ARIYALUR-612 904",ARIYALUR,ARIYALUR,TAMIL NADU,9367769990
502,CITY UNION BANK LIMITED,CIUB0000504,ALANGULAM,"DOOR NO 9/1/109J,ECN COMPLEX,AMBAI ROAD,ALANGULAM,TIRUNELVELI-627 851",TIRUNELVELI,ALANGULAM,TAMIL NADU,9364133188
503,CITY UNION BANK LIMITED,CIUB0000505,SAHUPURAM,"DCW COMPLEX,SAHUPURAM,TUTICORIN-628 229",TOOTHUKUDI,TUTICORIN,TAMIL NADU,9344033188
504,CITY UNION BANK LIMITED,CIUB0000506,MADURAI-CHOKKIKULAM,"NO 13,SECOND STREET,KAMARAJAR NAGAR,CHOKKIKULAM,MADURAI-625 002",MADURAI,MADURAI,TAMIL NADU,9361533188
505,CITY UNION BANK LIMITED,CIUB0000507,THIRUPPALAI,"DOOR NO 209,5TH STREET,PORIYALAR NAGAR,THIRUPPALAI,MADURAI-625 014",MADURAI,MADURAI,TAMIL NADU,9361733188
506,CITY UNION BANK LIMITED,CIUB0000508,THUCKALAY,"23/8,9 ANGEL COMPLEX,METTUKADAI,THUCKALAY,KANYAKUMARI-629 175",KANYAKUMARI,KANYAKUMARI,TAMIL NADU,9361833188
507,CITY UNION BANK LIMITED,CIUB0000509,THIRUINDALUR,"NO 1,THIRUINDALUR SANNATHI STREET,THIRUINDALUR,MAYILADUTHURAI-609 001",NAGAPATTINAM,NAGAPATTINAM,TAMIL NADU,9360433188
508,CITY UNION BANK LIMITED,CIUB0000510,THILLAINAYAGAPURAM,"No.156 ECR Main Road,Near Vandigate,CUDDALORE",CUDDALORE,CHIDAMBARAM,TAMIL NADU,9362333188
509,CITY UNION BANK LIMITED,CIUB0000511,FARIDABAD,"E5/10,BP RAILWAY ROAD,NEAR NEELAM BATA CHOWK,NIT,FARIDABAD,HARYANA-121001",FARIDABAD,FARIDABAD,HARYANA,9354776693
510,CITY UNION BANK LIMITED,CIUB0000512,RT NAGAR BANGALORE,"590,HMT LAYOUT,4TH CROSS,RT NAGAR,BANGALORE",560032,BANGALORE,KARNATAKA,9342855177
511,CITY UNION BANK LIMITED,CIUB0000513,MARATHAHALLI-BANGALORE,"SITE NO.61,3RD CROSS,ASHWATH NAGAR,KALAMANDIR,SERVICE ROAD,MARATHAHALLI,BANGALORE-560037",BANGALORE,BANGALORE,KARNATAKA,9379032314
512,CITY UNION BANK LIMITED,CIUB0000514,VANASTHALIPURAM,"D.NO-5-5-9/1,KRANTI HILLS COLONY,NEAR SUSHMA THEATRE,VANASTHALIPURAM,HYDERABAD-500070",HYDERABAD,HYDERABAD,TELANGANA,9394538159
513,CITY UNION BANK LIMITED,CIUB0000515,THULLURU,"NO4-118,KAKUMANU VARI STREET,THULLURU,GUNTUR-522237",GUNTUR,THULLUR,ANDHRA PRADESH,9391393188
514,CITY UNION BANK LIMITED,CIUB0000516,SAIDAPET-CHENNAI,"NO 55,SESHACHALAM MUDALI STREET,SAIDAPET,CHENNAI-600015",CHENNAI,CHENNAI,TAMIL NADU,9363133188
515,CITY UNION BANK LIMITED,CIUB0000517,RAMAPURAM,"G1-BUTTERFLY APARTMENT,1-2-3 AND 4 BHARATHI SALAI,RAMAPURAM,KANCHEEPURAM-600089",KANCHEEPURAM,RAMAPURAM,TAMIL NADU,9344733188
516,CITY UNION BANK LIMITED,CIUB0000518,ADAMBAKKAM,"NO.146A,KARUNEEKAR STREET,ADAMBAKKAM,CHENNAI-600088",CHENNAI,CHENNAI,TAMIL NADU,9360533188
517,CITY UNION BANK LIMITED,CIUB0000519,VILLIVAKKAM,"NEW DOOR NO 261,OLD DOOR NO 123E,MTH ROAD,VILLIVAKKAM,CHENNAI-600049",CHENNAI,CHENNAI,TAMIL NADU,9362133188
518,CITY UNION BANK LIMITED,CIUB0000520,KOVAIPUDUR,"X-21,SAM AVENUE,KOVAIPUDUR,COIMBATORE-641042",COIMBATORE,COIMBATORE,TAMIL NADU,9360033188
519,CITY UNION BANK LIMITED,CIUB0000521,IKKARAIPOLUVAMPATTI,"ISHANAVIHAR POST OFFICE,SEMMEDU VILLAGE,ISHA YOGA CENTRE,VELLINGIRI FOOT HILLS,IKKARAIPOLUVAMPATTI,COIMBATORE-641114",COIMBATORE,COIMBATORE,TAMIL NADU,9360733188
520,CITY UNION BANK LIMITED,CIUB0000522,KUNNATHUR,"DOOR NO 1/575 TO 579,SATHY MAIN ROAD,KUNNATHUR KOIL STOP,KUNNATHUR,COIMBATORE-641107",COIMBATORE,COIMBATORE,TAMIL NADU,9345033188
521,CITY UNION BANK LIMITED,CIUB0000523,NALLUR,"JVP COMPLEX,GROUND FLOOR,NO 254/2A,NALLIGOUNDER NAGAR,KANGEYAM MAIN ROAD,VIJAYAPURAM POST,NALLUR,TIRUPUR-641606",COIMBATORE,TIRUPUR,TAMIL NADU,9360133188
522,CITY UNION BANK LIMITED,CIUB0000524,TIRUNELVELI JUNCTION,"NO.78,PERUMAL SANNATHI STREET,VEERARAGHAVAPURAM,TIRUNELVELI-627001",TIRUNELVELI,TIRUNELVELI,TAMIL NADU,9344833188
523,CITY UNION BANK LIMITED,CIUB0000525,CHINNAMANUR,"175K,CUMBUM MAIN ROAD,VKR PATTU MAHAL BUILDING,CHINNAMANUR-625515",THENI,CHINNAMANUR,TAMIL NADU,9345933188
524,CITY UNION BANK LIMITED,CIUB0000526,SURAMANGALAM,"GROUND FLOOR 196-15,NAMBIKKAI MUNAI MALL,SURAMANGALAM JUNCTION ROAD,THIRUVAKAUNDANOOR BYE PASS,SURAMANGALAM,SALEM-636 005",SALEM,SALEM,TAMIL NADU,9364233188
525,CITY UNION BANK LIMITED,CIUB0000527,AGARATHIRUMALAM,"RS NO 54/15,54/16,KMA TOWER,AGARATHIRUMALAM PANCHAYAT,MAYILADUTHURAI-TIRUVARUR MAIN ROAD,POONTHOTTAM,AGARATHIRUMALAM-609 503",TIRUVARUR,TIRUVARUR,TAMIL NADU,9360833188
526,CITY UNION BANK LIMITED,CIUB0000528,THIRUMALAISAMUDRAM,"SASTRA UNIVERSITY CAMPUS,THIRUMALAISAMUDRAM,THANJAVUR-613401",THANJAVUR,THANJAVUR,TAMIL NADU,9367633188
527,CITY UNION BANK LIMITED,CIUB0000529,KORATTUR,"DOOR NO.445A,11TH STREET,TNHB,PERIYAR NAGAR,(OPP VIVEKANANDHA VIDHYALAYA),KORATTUR,CHENNAI-600080",CHENNAI,CHENNAI,TAMIL NADU,9360587194
528,CITY UNION BANK LIMITED,CIUB0000530,KUNIAMUTHUR,"DOOR NO.419,CROWN PLAZA,PALAKKAD MAIN ROAD,KUNIAMUTHUR,COIMBATORE-641008",COIMBATORE,COIMBATORE,TAMIL NADU,7305428338
529,CITY UNION BANK LIMITED,CIUB0000531,MANGAIMADAM,"NO.1/48-3,MAIN ROAD,MANGAIMADAM,NAGAPATTINAM",NAGAPATTINAM,NAGAPATTINAM,TAMIL NADU,7305439609
530,CITY UNION BANK LIMITED,CIUB0000532,ARIYANKUPPAM,"140, CUDDALORE ROAD,ARIYANKUPPAM, PUDUCHERRY",PUDUCHERRY,PUDUCHERRY,PUDUCHERRY,7811056327
531,CITY UNION BANK LIMITED,CIUB0000533,BENGALURU HSR LAYOUT,"NO 1672/A, 14TH MAIN ROAD, GROUND FLOOR, SECTOR VII, BDA COMPLEX, HSR LAYOUT, BENGALURU",BENGALURU,BENGALURU,KARNATAKA,7813026080
532,CITY UNION BANK LIMITED,CIUB0000534,THIRUMULLAIVOYAL,"NO.36,58,SARASWATHI NAGAR,THIRUMULLAIVOYAL,THRUVALLUR",THIRUVALLUR,THIRUMULLAIVOYAL,TAMIL NADU,7667204138
533,CITY UNION BANK LIMITED,CIUB0000535,ILAYANGUDI,"NO. 240/2,KAMARAJAR ROAD,MANIVASAGAM NAGAR, ILAYANGUDI,SIVAGANGA",SIVAGANGA,SIVAGANGA,TAMIL NADU,7667923077
534,CITY UNION BANK LIMITED,CIUB0000536,KALAYARKOIL,"NO.6893,SHANMUGAM COMPLEX,SOMASUNDARAM NAGAR,MADURAI THONDI MAIN ROAD,KALAYARKOIL,SIVAGANGA",SIVAGANGA,SIVAGANGA,TAMIL NADU,7811921295
535,CITY UNION BANK LIMITED,CIUB0000537,ODDERPALAYAM,"NO.3/503,504/505,METTUPALAYAM ROAD, NEAR PERIYA PALAM,ODDERPALAYAM,COIMBATORE",COIMBATORE,COIMBATORE,TAMIL NADU,7812804371
536,CITY UNION BANK LIMITED,CIUB0000538,SANOORAPATTI,"KANDARVAKOTTAI MAIN ROAD, SENGIPATTI POST, SANOORAPATTI, THANJAVUR",THANJAVUR,THANJAVUR,TAMIL NADU,7667082256
537,CITY UNION BANK LIMITED,CIUB0000539,VENGAIVASAL,"OLD NO 1/41, NEW NO 10/192, ANJANEYAR KOIL STREET, VENGAIVASAL, CHENNAI",CHENNAI,CHENNAI,TAMIL NADU,7810006426
538,CITY UNION BANK LIMITED,CIUB0000540,KARADIPATTI,"NO 3/19A, MGR NAGAR, NEAR ALAMPATTI BUS STOP, KARADIPATTI, MADURAI",MADURAI,MADURAI,TAMIL NADU,7667847754
539,CITY UNION BANK LIMITED,CIUB0000541,TVS NAGAR COIMBATORE,"400/2,3, THADAGAM MAIN ROAD, TVS NAGAR, COIMBATORE 641025",COIMBATORE,COIMBATORE,TAMIL NADU,7810954962
540,CITY UNION BANK LIMITED,CIUB0000542,MODAKURICHI,"205A, POOLAKATTU PUDUR, PERUMAPALAYAM, MODAKURICHI, ERODE - 638104",ERODE,ERODE,TAMIL NADU,7806837239
541,CITY UNION BANK LIMITED,CIUB0000543,BENGALURU KENGARI,"SITE NO.1107,1ST MAIN ROAD,SATELLITE TOWN,(OPP. TO DOMINOS PIZZA),KENGARI,BENGALURU.",BENGALURU,BENGALURU,KARNATAKA,7847843910
542,CITY UNION BANK LIMITED,CIUB0000544,NALGONDA,"D.NO. 6-7-10,NCS SAI NEST,SHIVAJI NAGAR,OPP. TTD KALYANA MANDAPAM,NALGONDA,NALGONDA.",TELANGANA,NALGONDA,TELANGANA,9346177188
543,CITY UNION BANK LIMITED,CIUB0000545,OMALUR,"NO.1/480-1,LC TOWERS,ANNA NAGAR WEST,(NEXT TO KRISHNA MAHAL KALYANA MANDAPAM),DHARMAPURI MAIN ROAD,OMALUR,SALEM.",SALEM,SALEM,TAMIL NADU,7695941277
544,CITY UNION BANK LIMITED,CIUB0000546,AGARAMTHEN,"9/96,AGARAM MAIN ROAD,(NEAR AGARAMTHEN BUS STAND),AGARAMTHEN,KANCHEEPURAM-600126",KANCHEEPURAM,KANCHEEPURAM,TAMIL NADU,9543275104
545,CITY UNION BANK LIMITED,CIUB0000547,ALANGANALLUR,"NO 46A, BHARATHIYAR STREET, ALANGANALLUR, MADURAI - 625501",MADURAI,ALANGANALLUR,TAMIL NADU,9543321479
546,CITY UNION BANK LIMITED,CIUB0000548,MADURAI KOODAL NAGAR,"NO 1/1/3D, PALAMEDU MAIN ROAD, CHOKKALINGA NAGAR, KOODAL NAGAR, MADURAI - 625018",MADURAI,KOODAL NAGAR,TAMIL NADU,7695816261
547,CITY UNION BANK LIMITED,CIUB0000549,UTHIRAMERUR,"NO 66, SENGUNTHA PILLIAR KOIL STREET, NEAR PONVIZHA MANDAPAM, UTHIRAMERUR - 603406",KANCHEEPURAM,UTHIRAMERUR,TAMIL NADU,7604883208
548,CITY UNION BANK LIMITED,CIUB0000550,NORTH POIGAINALLUR,"NO 3/88 A, MAIN ROAD, OPP TO A/M KORAKKAR SIDHAR ASRAM, NORTH POIGANALLUR - 611106",NAGAPATTINAM,NORTH POIGAINALLUR,TAMIL NADU,9543911899
549,CITY UNION BANK LIMITED,CIUB0000551,AMMAPETTAI,"NO.33/13,CUDDALORE MAIN ROAD,OPP.JOTHI MATRICULATION SCHOOL,AMMAPETTAI,SALEM.",SALEM,SALEM,TAMIL NADU,7695082347
550,CITY UNION BANK LIMITED,CIUB0000552,PERUMANALLUR,"NO.339,RR COMPLEX,KOVAI ROAD,PERUMALNALLUR,TIRUPUR.",COIMBATORE,PERUMALNALLUR,TAMIL NADU,7305959187
551,CITY UNION BANK LIMITED,CIUB0000553,THRISSUR-EAST FORT,"8/230-4,GROUND FLOOR,EAST AVENUE,IKKANDA WARRIER ROAD,EAST FORT,THRISSUR.",THRISSUR,THRISSUR EAST FORT,KERALA,8590717765
552,CITY UNION BANK LIMITED,CIUB0000554,VILLAPURAM,"OLD NO 35/103, NEW NO 75/103, ARUPPUKKOTTAI MAIN ROAD, NEAR PADMA THEATRE BUS STOP, VILLAPURAM, MADURAI - 625012",MADURAI,MADURAI,TAMIL NADU,7695969210
553,CITY UNION BANK LIMITED,CIUB0000555,PICHANDAR KOVIL,"ABHISHEK PLAZA, NO 1/3875, MARUTHI NAGAR, CHENNAI MAIN ROAD, PICHANDAR KOVIL AND POST, NO1 TOLGATE, TRICHY 621216",TRICHY,TRICHY,TAMIL NADU,7695969211
554,CITY UNION BANK LIMITED,CIUB0000556,MANIKONDA,"KALYANS ANISHTA PRIDE, PLOT NO 106,107, TANASHA NAGAR, HUDCO COLONY, MANIKONDA, HYDERABAD, TELANGANA 500089",RANGAREDDY,MANIKONDA HYDERABAD,TELANGANA,0
555,CITY UNION BANK LIMITED,CIUB0000557,SENGANUR,"SANDIKESWARA NAYANAR STREET,MIDDLE AGRAHARAM,SENGANUR,THIRUVIDAIMARUTHUR(TK),THANJAVUR-612504",THANJAVUR,KUMBAKONAM,TAMIL NADU,7397373508
556,CITY UNION BANK LIMITED,CIUB0000558,MUTHUPET,"NO 112/37, PATTUKOTTAI MAIN ROAD, OPP TO NEW MOSQUE, MUTHUPET, THIRUVARUR 614704",THIRUVARUR,MUTHUPET,TAMIL NADU,7397373510
557,CITY UNION BANK LIMITED,CIUB0000559,MANGALAM,"S F NO 345/13,PALLADAM TO AVINASHI MAIN ROAD,MANGALAM,TIRUPPUR 641663.",TIRUPPUR,TIRUPPUR,TAMIL NADU,7397373514
558,CITY UNION BANK LIMITED,CIUB0000560,THUDIYALUR,"19/2, THIRISUL COMPLEX, V G HOSPITAL BUS STOP, METTUPALAYAM ROAD, THUDIYALUR, COIMBATORE 641034",COIMBATORE,COIMBATORE,TAMIL NADU,7397373515
559,CITY UNION BANK LIMITED,CIUB0000561,CHINNASALEM,"OLD NO.9,NEW NO. 43,44 AND 45, VIJAYAPURAM 1ST STREET,CHINNASALEM - 606201.",VILLUPURAM,CHINNASALEM,TAMIL NADU,7397393516
560,CITY UNION BANK LIMITED,CIUB0000562,KETTAVARAMPALAYAM,"NO.595, MAIN ROAD, KETTAVARAMPALYAM, TIRUVANAMALAI-606901.",TIRUVANAMALAI,KETTAVARAMPALAYAM,TAMIL NADU,7397373518
561,CITY UNION BANK LIMITED,CIUB0000563,VADAMADURAI,"D.NO.32 C/19.ERIYODU ROAD,VADAMADURAI 624802.",DINDIGUL,VADAMADURAI,TAMIL NADU,7397373517
562,CITY UNION BANK LIMITED,CIUB0000564,KHARGHAR,"ARM ENCLAVE,SHOP NO 2 AND 3,PLOT NO11,SECTOR 7,KHARGHAR  410210",RAIGAD,KHARGHAR,MAHARASHTRA,7397373527
563,CITY UNION BANK LIMITED,CIUB0000565,ARANTHANGI,"PUDUKOTTAI ROAD,ARANTHANGI,PUDUKOTTAI 614616",PUDUKOTTAI,ARANTHANGI,TAMIL NADU,7397789905
564,CITY UNION BANK LIMITED,CIUB0000566,HOSKOTE,"6TH CROSS,THAMME GOWDA LAYOUT,OPP HOSKOTE MISSION HOSPITAL AND CHANNAKESHAVA PETROL BUNK,HOSKOTE,BENGALURU 562114.",BENGALURU,BENGALURU,KARNATAKA,7397789907
565,CITY UNION BANK LIMITED,CIUB0000567,VIDYARANYAPURA,"NO 808,SRI VIDYARANYASHREE,B.E.L.H.B.C.S LAYOUT,VIDYARANYAPURA MAIN ROAD,VIDYARANYAPURA,BENGALURU 560097",BENGALURU,BENGALURU,KARNATAKA,7397789906
566,CITY UNION BANK LIMITED,CIUB0000568,HULIMAVU GATE,"SRI SADHAN,NO 236/1,VIJAY SRI LAYOUT,BANNERGHATTA MAIN ROAD,ARKERA VILLAGE,BENGALURU 560078",BENGALURU,BENGALURU,KARNATAKA,7397789904
567,CITY UNION BANK LIMITED,CIUB0000569,PADI,"DOOR NO 759,MTH ROAD(NEAR SBI),PADI,CHENNAI 600050",TIRUVALLUR,CHENNAI,TAMIL NADU,7397789912
568,CITY UNION BANK LIMITED,CIUB0000570,CHENNAI VADAPALANI,"OLD NO 55/2,NEW NO 75/1,100 FEET ROAD,VADAPALANI,CHENNAI 600026",CHENNAI,CHENNAI,TAMIL NADU,7397789909
569,CITY UNION BANK LIMITED,CIUB0000571,CHENNAI EKKATTUTHANGAL,"9/11,POONTHAMALLE ROAD,AMBAL NAGAR,EKKATTUTHANGAL,CHENNAI 600032",CHENNAI,CHENNAI,TAMIL NADU,7397789910
570,CITY UNION BANK LIMITED,CIUB0000572,PODANUR,"153/A, FATHIMA HOSPITAL,PODANUR MAIN ROAD,PODANUR,COIMBATORE 641023",COIMBATORE,COIMBATORE,TAMIL NADU,7397789911
571,CITY UNION BANK LIMITED,CIUB0000573,TIRUPPUR PN ROAD,"NO 72,PN ROAD,NESAVALAR COLONY BUS STOP,TIRUPPUR 641602",TIRUPPUR,TIRUPPUR,TAMIL NADU,7397789913
572,CITY UNION BANK LIMITED,CIUB0000574,VEDASANDUR,"DOOR NO 1,694/2,WARD NO 11,RAJAGOPALAPURAM,VADAMADURAI MAIN ROAD,ATHUMEDU,VEDASANDUR,DIDIGUL 624710.",DINDIGUL,DINDIGUL,TAMIL NADU,7397789914
573,CITY UNION BANK LIMITED,CIUB0000575,CHENNAI AMINJIKARAI,"DOOR NO 49/1,49/2 ,GROUND FLOOR,AYYAVOO STREET,SHENOY NAGAR,AMINJIKARAI,CHENNAI 600030.",CHENNAI,CHENNAI,TAMIL NADU,7397789916
574,CITY UNION BANK LIMITED,CIUB0000576,CHENNAI KATHIVAKKAM,"N0 31,KATTUPAKKAM MAIN ROAD,KATHIVAKKAM,CHENNAI 600057.",THIRUVALLUR,CHENNAI,TAMIL NADU,7397789915
575,CITY UNION BANK LIMITED,CIUB0000577,PARUTHIKOTTAI,"NO. 572, MAIN ROAD, ORATHANADU T.K, PARUTHIKOTTAI,THANJAVUR",THANJAVUR,THANJAVUR,TAMIL NADU,7397483511
576,CITY UNION BANK LIMITED,CIUB0000578,SHOLLINGANALLUR,"2A, ELCOT AVENUE ROAD, SHOLINGANALLUR,KANCHEEPURAM",KANCHEEPURAM,CHENNAI,TAMIL NADU,7397789918
577,CITY UNION BANK LIMITED,CIUB0000579,NALLAMANGUDI,"NO.19/4,19/5, NAGAI ROAD, NANNILAM TALUK, NALLAMANGUDI,TIRUVARUR",TIRUVARUR,TIRUVARUR,TAMIL NADU,7397483510
578,CITY UNION BANK LIMITED,CIUB0000580,THALAIVASAL,"NO.2, ATTUR CUDDALORE MAIN ROAD,SAKTHI NAGAR,MUMMUDI,THALAIVASAL, SALEM",SALEM,SALEM,TAMIL NADU,7397789919
579,CITY UNION BANK LIMITED,CIUB0000581,THENNAMPALAYAM,"S.F.NO. 275/1A,SRI KRISHNA COMPLEX,8/40 13-15,1ST FLOOR, MOOLAKADU THOTTAM, ARASUR PO, THENNAMPALAYAM, COIMBATORE",COIMBATORE,COIMBATORE,TAMIL NADU,7397789921
580,CITY UNION BANK LIMITED,CIUB0000582,SURANDAI,"NO 18/7/184, SANKARANKOVIL ROAD,SURANDAI, TIRUNELVELI",TIRUNELVELI,TIRUNELVELI,TAMIL NADU,7397789923
581,CITY UNION BANK LIMITED,CIUB0000583,BENAGLURU JIGANI,"NO. 3A1, 2ND PHASE, JIGANI INDUSTRIAL AREA TALUK, JIGANI, BANGLORE 560105",BANGLORE,BANGALORE,KARNATAKA,9341055177
582,CITY UNION BANK LIMITED,CIUB0000584,SHOLINGHUR,"NO.33, SANKAR NAGAR, ARAKKONAM MAIN ROAD, SHOLINGHUR,VELLORE",VELLORE,VELLORE,TAMIL NADU,7397483521
583,CITY UNION BANK LIMITED,CIUB0000585,BHIWANDI,"NO.747,SHOP NO.4,5,6 TRINETRA PARK,NEW LAXMI SAW MILL COMPOUND, OPPOSITE BSNL TELEPHONE EXCHANGE, BHIWANDI,THANE",THANE,THANE,MAHARASHTRA,7397483520
584,CITY UNION BANK LIMITED,CIUB0000586,HASSAN,"KHATA NO.2278, NEAR HOTEL PALIKA,RC ROAD,HASSAN",HASSAN,HASSAN,KARNATAKA,7397789908
585,CITY UNION BANK LIMITED,CIUB0000587,SHIMOGA,"AYYA ARCADE,BH ROAD,SHIMOGA",SHIMOGA,SHIMOGA,KARNATAKA,7397483523
586,CITY UNION BANK LIMITED,CIUB0000588,MADURAI K PUDUR,"NO.345,DOOR NO.8,11TH STREET,KARPAGA NAGAR, K. PUDUR,MADURAI",MADURAI,MADURAI,TAMIL NADU,7397789920
587,CITY UNION BANK LIMITED,CIUB0000589,GUNTAKAL,"14/13,KASAPURAM ROAD,GUNTAKAL,ANATAPUR",ANATAPUR,ANATAPUR,ANDHRA PRADESH,7397789917
588,CITY UNION BANK LIMITED,CIUB0000590,VELLALAR AGARAM,"NO.44,SIVAPRIYA NAGAR,VELLALAR AGARAM 609118,MAYILADUTHURAI.",NAGAPATTINAM,MAYILADUTHURAI,TAMIL NADU,7397483518
589,CITY UNION BANK LIMITED,CIUB0000591,KALAHASTINAPURAM,"2/132,2/133,MAIN ROAD,KALAHASTINAPURAM 609309,NAGAPATTINAM DISTRICT",NAGAPATTINAM,KALAHASTINAPURAM,TAMIL NADU,7397483512
590,CITY UNION BANK LIMITED,CIUB0000592,MUDIKONDAN,"502,MAIN ROAD,MUDIKONDAN,TIRUVARUR DISTRICT 609502",TIRUVARUR,MUDIKONDAN,TAMIL NADU,7397483514
591,CITY UNION BANK LIMITED,CIUB0000593,KADAGAMBADI,"4-162/1,MAIN ROAD,KADAGAMBADI,SARABOJIRAJAPURAM (PO),KUDAVASAL (T.K),TIRUVARUR DISTRICT 609503",TIRUVARUR,KADAGAMBADI,TAMIL NADU,7397483515
592,CITY UNION BANK LIMITED,CIUB0000594,KAPPANAMANGALAM,"MARIA COMPLEX MAIN ROAD,KAPPANAMANGALAM,TIRUVARUR DISTRICT 612603",TIRUVARUR,KAPPANAMANGALAM,TAMIL NADU,7397483517
593,CITY UNION BANK LIMITED,CIUB0000595,MADAGUDI,"29/2,MAIN ROAD,MADAGUDI,THANJAVUR DISTRICT 612402",THANJAVUR,MADAGUDI,TAMIL NADU,7397483513
594,CITY UNION BANK LIMITED,CIUB0000596,THIMMAKUDI,"NO 356/A,MAIN ROAD,THIMMAKUDI,BABURAJAPURAM,KUMBAKONAM(T.K),THANJAVUR DISTRICT 612302.",THANJAVUR,THIMMAKUDI,TAMIL NADU,7397483519
595,CITY UNION BANK LIMITED,CIUB0000597,ASUR,"NO. 117/3, MAIN ROAD,SITHI VINAYAGAR NAGAR, OPP TO  RAM NAGAR,ASUR, THANJAVUR",THANJAVUR,THANJAVUR,TAMIL NADU,7397483529
596,CITY UNION BANK LIMITED,CIUB0000598,CHENNAI ROYAPETTAH,"NO. 275,ROYAPETTAH HIGH ROAD, ROYAPETTAH, CHENNAI 600014",CHENNAI,CHENNAI,TAMIL NADU,7397483524
597,CITY UNION BANK LIMITED,CIUB0000599,CHENNAI PUZHUTHIVAKKAM,"NO.61A, GROUND FLOOR,3RD CROSS MAIN ROAD,SADASIVA NAGAR,PUZHUTHIVAKKAM,KANCHEEPURAM",KANCHEEPURAM,CHENNAI,TAMIL NADU,7397483527
598,CITY UNION BANK LIMITED,CIUB0000600,KOTA,"NO.3-4,GROUND FLOOR,PLOT NO.1,SAHYOG BHAWAN AERODROM CIRCLE, KOTA",KOTA,KOTA,RAJASTHAN,7397483530
599,CITY UNION BANK LIMITED,CIUB0000601,KISHANGARH,"GROUND FLOOR,PLOT IN BLOCK GA,ADITYA MILLS OFFICERS COLONY,MANDANGANJ,KISHANGARH, AJMER",AJMER,AJMER,RAJASTHAN,7397483528
600,CITY UNION BANK LIMITED,CIUB0000602,AJMER,"GROUND FLOOR,86/IX, KUTCHERY ROAD,AJMER",AJMER,AJMER,RAJASTHAN,7397483526
601,CITY UNION BANK LIMITED,CIUB0000603,UDAIPUR,"GROUND FLOOR, MEERA COMPLEX,OPP. MEERA GIRLS COLLEGE,SARDARPURA,UDAIPUR",UDAIPUR,UDAIPUR,RAJASTHAN,7397483522
602,CITY UNION BANK LIMITED,CIUB0000604,MAHABUBNAGAR,"DOOR NO.8 6 241/D/2,NEAR KRISHNA ARCH,PADMAVATHI COLONY,MAHABUBNAGAR.",MAHABUBNAGAR,MAHABUBNAGAR,TELANGANA,9384811324
603,CITY UNION BANK LIMITED,CIUB0000605,BANJARA HILLS,"NO 239/82, ROAD NO.12, MLA COLONY,BANJARA HILLS,HYDERABAD",HYDERABAD,HYDERABAD,TELANGANA,9384811331
604,CITY UNION BANK LIMITED,CIUB0000606,HABSIGUDA,"NO 1-1 86/B STREET NO 1,P & T COLONY, KAKATIYA NAGAR, NEAR TO HABSIGUDA METRO STATION, HABSIGUDA, HYDERABAD",HYDERABAD,HYDERABAD,TELANGANA,9384811332
605,CITY UNION BANK LIMITED,CIUB0000607,VELAMPALAYAM,"14(3), KALIAMMAN TEMPLE STREET, OPP TO GOVT MIDDLE SCHOOL,15 VELAMPALAYAM, TIRUPPUR",TIRUPPUR,TIRUPPUR,TAMIL NADU,9384811334
606,CITY UNION BANK LIMITED,CIUB0000608,PIMPRI,"36/7,MIDC ROAD,MORWADI,PIMPRI,PUNE.",PUNE,PUNE,MAHARASHTRA,9384811335
607,CITY UNION BANK LIMITED,CIUB0000609,UTHUKOTTAI,"VSN COMPLEX,THIRUVALLUR ROAD,UTHUKOTTAI,THIRUVALLUR-602026",THIRUVALLUR,THIRUVALLUR,TAMIL NADU,9384811337
608,CITY UNION BANK LIMITED,CIUB0000610,VANNIKONENDAL,"NO.4/449,TIRUNELVELI ROAD,SANKARANKOVI TALUK,VANNIKONENDAL,TIRUNELVELI-627951",TIRUNELVELI,TIRUNELVELI,TAMIL NADU,7397483516
609,CITY UNION BANK LIMITED,CIUB0000611,NERKUNDRAM,"91,BALAMURALI THEATRE COMPLEX,POONAMALEE HIGH ROAD,NERKUNDRAM,TIRUVALLUR",TIRUVALLUR,TIRUVALLUR,TAMIL NADU,6379900210
610,CITY UNION BANK LIMITED,CIUB0000612,WALAJAPET,"SRI BALAJI BUILDING,26 GUNDAMMAR STREET,AMMOOR ROAD,WALAJAPET,VELLORE",VELLORE,VELLORE,TAMIL NADU,6379900211
611,CITY UNION BANK LIMITED,CIUB0000613,KATARGAM,"853,854 NEW GIDC KATARGAM,CANAL ROAD,KATARGAM,SURAT.PIN CODE 395003",SURAT,SURAT,GUJARAT,6379900240
612,CITY UNION BANK LIMITED,CIUB0000614,CHENNAI NELSON MANICKAM ROAD,"PEARL NISA,2/30 RAILWAY COLONY 2ND STREET,NELSON MANICKAM ROAD,CHENNAI.PIN CODE 600029",CHENNAI,CHENNAI,TAMIL NADU,6379900212
613,CITY UNION BANK LIMITED,CIUB0000615,TIRUCHULI,"D.NO 5/402(11) NARIKUDI ROAD,TIRUCHULI,VIRUDHUNAGAR 626129",VIRUDHUNAGAR,VIRUDHUNAGAR,TAMIL NADU,6379900213
614,CITY UNION BANK LIMITED,CIUB0000616,NEELANGARAI CHENNAI,"NO.357,AKSHAYAA TOWERS,GROUND FLOOR,OPP TO NEELANGARAI POLICE STATION,EAST COAST ROAD,NEELANKARAI,KANCHEEPURAM",KANCHEEPURAM,CHENNAI,TAMIL NADU,6379900214
615,CITY UNION BANK LIMITED,CIUB0000617,MUGALIVAKKAM CHENNAI,"1/9 MUGALIVAKKAM MAIN ROAD,MUGALIVAKKAM,MUGALIVAKKAM,KANCHEEPURAM.",KANCHEEPURAM,CHENNAI,TAMIL NADU,6379900215
616,CITY UNION BANK LIMITED,CIUB0000618,PERUMALPATTU,"SAKTHI CHELLAIYA COMPLEX,SHOP NO.01,BHARGAVI NAGAR,PERUMALPATTU MAIN ROAD,PERUMALPATTU,THIRUVALLUR",THIRUVALLUR,THIRUVALLUR,TAMIL NADU,6379900216
617,CITY UNION BANK LIMITED,CIUB0000619,MARUNGULAM,"NO.166/5A2,NAAL ROAD,MARUNGULAM,THANJAVUR",THANJAVUR,THANJAVUR,TAMIL NADU,6379900218
618,CITY UNION BANK LIMITED,CIUB0000620,VILATHIKULAM,"NO 36,37,38 , RAJARAM COMPLEX,MADURAI ROAD,VILATHIKULAM,TUTICORIN",TUTICORIN,TUTICORIN,TAMIL NADU,6379900217
619,CITY UNION BANK LIMITED,CIUB0000621,PANDARAVADAI MAPPADUGAI,"NO 4 BY 53C,MAIN ROAD,OPP TO MARUTHI NURSERY SCHOOL,MAYILADUTHURAI TK,MAPPADUGAI,NAGAPATTINAM",NAGAPATTINAM,NAGAPATTINAM,TAMIL NADU,6379900248
620,CITY UNION BANK LIMITED,CIUB0000622,TIRUCHERAI,"NO 253,NORTH STREET,KUMBAKONAM TK,TIRUCHERAI,THANJAVUR",THANJAVUR,KUMBAKONAM,TAMIL NADU,6379900247
621,CITY UNION BANK LIMITED,CIUB0000623,PERIYAKURICHI,"SUNDARAVALLI AMMAL COMPLEX,DOOR NO 63 BY 1,SHOP NO 3,VIRUDHACHALAM MAIN ROAD,PERIYAKURICHI,CUDDALORE",CUDDALORE,CUDDALORE,TAMIL NADU,6379900242
622,CITY UNION BANK LIMITED,CIUB0000624,NAMBIYUR,"SF NO.216 BY 4,KOVAI TO GOBI MAIN ROAD,OPPOSITE TO NAMBIYUR UNION OFFICE,NAMBIYUR,ERODE",ERODE,ERODE,TAMIL NADU,6379900230
623,CITY UNION BANK LIMITED,CIUB0000625,MOOLAPALAYAM,"NO.54, JEEVANANTHAM STREET,KOLLAMPALAYAM,MOOLAPALAYAM,ERODE.PINCODE 638002",ERODE,ERODE,TAMIL NADU,6379900243
624,CITY UNION BANK LIMITED,CIUB0000626,ANAIMALAI,"SF NO.805 BY 7A 1B,SETHUMADAI ROAD,OPP TO MASANI AMMAN TEMPLE ARCH,ANAIMALAI,COIMBATORE. PINCODE 642104",COIMBATORE,COIMBATORE,TAMIL NADU,6379900244
625,CITY UNION BANK LIMITED,CIUB0000627,PUNJAI PULIYAMPATTI,"D.NO.144 1,THIRU VI KA STREET,MATHAMPALAYAM ROAD,PUNJAI PULIYAMPATTI,ERODE.PINCODE 638459",ERODE,ERODE,TAMIL NADU,6379900245
626,CITY UNION BANK LIMITED,CIUB0000628,THIRUNEERMALAI,"S NO 291 BY C,THRUNEERMALAI MAIN ROAD,SECOND MAIN ROAD,SUBBARAYAN NAGAR,THIRUNEERMALAI,KANCHEEPURAM PINCODE 600044.",KANCHEEPURAM,KANCHEEPURAM,TAMIL NADU,6379900249
627,CITY UNION BANK LIMITED,CIUB0000629,AYOTHIYAPATTINAM,"115 BY 9,KM NAGAR,ARUL DC COMPLEX,AYOTHIYAPATTINAM,SALEM",SALEM,SALEM,TAMIL NADU,6379900252
628,CITY UNION BANK LIMITED,CIUB0000630,OTTAKOIL,"NEW NO 67 BY 67A,SENTHURAI MAIN ROAD,OTTAKOIL,ARIYALUR",ARIYALUR,ARIYALUR,TAMIL NADU,6379900255
629,CITY UNION BANK LIMITED,CIUB0000631,KADUGUR,"NO 2 BY 1372,MIDDLE STREET,KADUGUR,ARIYALUR",ARIYALUR,ARIYALUR,TAMIL NADU,6379900254
630,CITY UNION BANK LIMITED,CIUB0000632,SENDAMANGALAM,"NO 338,MAIN ROAD,KEEZHAKAVATHUKUDI VILLAGE,SENDAMANGALAM,THIRUVARUR",THIRUVARUR,THIRUVARUR,TAMIL NADU,6379900250
631,CITY UNION BANK LIMITED,CIUB0000633,THISAYANVILAI,"NO.683,WIN SQUARE,MAIN ROAD,THISAYANVILAI,TIRUNELVELI",TIRUNELVELI,TIRUNELVELI,TAMIL NADU,6379900253
632,CITY UNION BANK LIMITED,CIUB0000634,POONTHANDALAM,"SRI SAIRAM ENGINEERING COLLEGE CAMPUS,SAI LEO NAGAR,POONTHANDALAM,KANCHEEPURAM",KANCHEEPURAM,KANCHEEPURAM,TAMIL NADU,6379900261
633,CITY UNION BANK LIMITED,CIUB0000635,CHENNIMALAI,"NO.24,APPAY CHETTIAR STREET,CHENNIMALAI,ERODE",ERODE,ERODE,TAMIL NADU,6379900258
634,CITY UNION BANK LIMITED,CIUB0000636,SIVAGIRI,"NO.25,ANNA STREET,SIVAGIRI,ERODE",ERODE,ERODE,TAMIL NADU,6379900260
635,CITY UNION BANK LIMITED,CIUB0000637,CHENNAI VINAYAGAPURAM,"PLOT NO.1,2 ,VIGNESH NAGAR,VINAYAGAPURAM,CHENNAI",CHENNAI,CHENNAI,TAMIL NADU,6379900256
636,CITY UNION BANK LIMITED,CIUB0000638,VENGATHUR,"NO.159 BY A,POONNAMALEE HIGH ROAD,BASHEER NAGAR,ONDIKUPPAM,VENGATHUR,THIRUVALLUR",THIRUVALLUR,THIRUVALLUR,TAMIL NADU,6379900257
637,CITY UNION BANK LIMITED,CIUB0000639,ILUPPANATHAM,"RAMAJAYAM TOWERS,6 BY 739 B,SATHY MAIN ROAD,GANESHAPURAM,SIRUMUGAI,ILUPPANATHAM,COIMBATORE",COIMBATORE,COIMBATORE,TAMIL NADU,6379900262
638,CITY UNION BANK LIMITED,CIUB0000640,BENGALURU ISRO LAYOUT,"NO.12,BIKASIPURA,DR.APJ ABDUL KALAM PARK ROAD,BANASHANKARI 5TH STAGE,NEAR ISRO LAYOUR,BENGALURU",BENGALURU,BENGALURU,KARNATAKA,9025222686
639,CITY UNION BANK LIMITED,CIUB0000641,BENGALURU BTM LAYOUT,"NO.595,7TH MAIN ROAD,2ND STAGE,BTM LAYOUT,BENGALURU",BENGALURU,BENGALURU,KARNATAKA,902522687
640,CITY UNION BANK LIMITED,CIUB0000642,BENGALURU J C ROAD,"NO.61,62,H.SIDDIAH ROAD,URVASI THEATRE ROAD,SUDHAM NAGAR,J C ROAD,BENGALURU",BENGALURU,BENGALURU,KARNATAKA,9025222688
641,CITY UNION BANK LIMITED,CIUB0000643,HANAMKONDA,"H NO 4 8 115,ROAD OPP TO HANAMKONDA P.S,NEXT TO JAGADAMBA SILKS,KUMARPALLY,HANAMKONDA,WARANGAL.",WARANGAL,WARANGAL,TELANGANA,9025222698
642,CITY UNION BANK LIMITED,CIUB0000644,KIDARANKONDAN,"2BY69,MAIN ROAD,KIDARANKONDAN,NAGAPATTINAM 609403",NAGAPATTINAM,NAGAPATTINAM,TAMIL NADU,9025222672
643,CITY UNION BANK LIMITED,CIUB0000645,RAICHUR,"OLD NO 12 11 20,NEW NO 12 11 88,ARAB MOHALLA GOUSHALA ROAD,RAICHUR 584101",RAICHUR,RAICHUR,KARNATAKA,9025222691
644,CITY UNION BANK LIMITED,CIUB0000646,EACHANKUDI,"MAIN ROAD,EACHANKUDI,THANJAVUR 613204",THANJAVUR,THANJAVUR,TAMIL NADU,6379900259
645,CITY UNION BANK LIMITED,CIUB0000647,COLACHEL,"MJK COMPLEX,NO.86,THICKNAMKODE ROAD,OPP TO TRAVELLERS BUNGALOW,COLACHEL,KANYAKUMARI",KANYAKUMARI,KANYAKUMARI,TAMIL NADU,9025222690
646,CITY UNION BANK LIMITED,CIUB0000648,THIRUTHANGAL,"NO.261,SIVAKASI TO VIRUDHUNAGAR MAIN ROAD,THIRUTHANGAL,VIRUDHUNAGAR",VIRUDHUNAGAR,VIRUDHUNAGAR,TAMIL NADU,9025222683
647,CITY UNION BANK LIMITED,CIUB0000649,KALAPATTI,"1 BY 412,SITRA,KALAPATTI ROAD,NEHRU NAGAR,KALAPATTI,COIMBATORE",COIMBATORE,COIMBATORE,TAMIL NADU,9025222681
648,CITY UNION BANK LIMITED,CIUB0000650,PERUNGUDI,"NO.5 BY 542,OMR,RAJIV GANDHI SALAI,PERUNGUDI,KANCHEEPURAM",KANCHEEPURAM,KANCHEEPURAM,TAMIL NADU,9025222682
649,CITY UNION BANK LIMITED,CIUB0000651,CHENNAI CHOOLAI,"NO.1,VATHIYAR KANDAPPA STREET,CHOOLAI,CHENNAI",CHENNAI,CHENNAI,TAMIL NADU,9025222674
650,CITY UNION BANK LIMITED,CIUB0000652,CHENNAI HABIBULLA ROAD,"GROUND FLOOR,146,HABIBULLA ROAD,CHENNAI",CHENNAI,CHENNAI,TAMIL NADU,9025222673
651,CITY UNION BANK LIMITED,CIUB0000653,KEELAKORUKKAI,"4 BY 615,MAIN ROAD,KUMBAKONAM TK,KEELAKORUKKAI,THANJAVUR",THANJAVUR,THANJAVUR,TAMIL NADU,6379900251
652,CITY UNION BANK LIMITED,CIUB0CMS001,CSD,"COMPUTER SYSTEMS DEPT, 706, II FLOOR,ANNA SALAI,THOUSAND LIGHTS,CHENNAI-600006",CHENNAI,CHENNAI,TAMIL NADU,28297905
