,BANK NAME,IFSC,OFFICE,ADDRESS,DISTRICT,CITY,STATE,PHONE
0,KARNATAKA VIKAS GRAMEENA BANK,KVGB0000001,RTGS-HO,"KARNATAKA VIKAS GRAMEENA BANK HEAD OFFICE BUILDING,BELGAUM ROAD DHARWAD-580008",HEAD OFFICE,HUBLI-DHARWAD,KARNATAKA,2442204
1,KARNATAKA VIKAS GRAMEENA BANK,KVGB0001001,BADAMI,BADAMI BRANCH  NEAR BUS-STAND┬á┬á┬áBADAMI- 587 201  DIST: BAGALKOT,BAGALKOT,BADAMI,KARNATAKA,221614
2,KARNATAKA VIKAS GRAMEENA BANK,KVGB0001002,BELUR,"BELUR BRANCH  GRAM PANCHAYAT BLDG,┬á  BELUR - 587 113,┬áTQ:BADAMI, DIST:BAGALKOT.┬á┬á┬á┬á┬á┬á┬á┬á┬á┬á┬á┬á┬á┬á┬á┬á┬á┬á┬á┬á┬á┬á┬á┬á┬á┬á┬á",BAGALKOT,BELUR,KARNATAKA,240553
3,KARNATAKA VIKAS GRAMEENA BANK,KVGB0001003,CHOLACHAGUDDA,"CHOLACHAGUDDA BRANCH  S.C.HUMBI BLDG,┬á┬áCHOLACHAGUDDA-587201  TQ:BADAMI DIST:BAGALKOT",BAGALKOT,CHOLACHAGUDDA,KARNATAKA,240543
4,KARNATAKA VIKAS GRAMEENA BANK,KVGB0001004,HEBBALLI,"HEBBALLI BRANCH  GRAM PANCHAYAT BLDG,  BAZAAR ROAD, HEBBALLI - 582 203, TQ:BADAMI┬á DIST:BAGALKOT.",BAGALKOT,HEBBALLI,KARNATAKA,231649
5,KARNATAKA VIKAS GRAMEENA BANK,KVGB0001005,KATAGERI,"KATAGERI BRANCH  KATAGERI MILK PRODUCERS' CO-OP. SOCIETY'S BUILDING,MAIN┬á ROAD, ┬áKATAGERI - 587 205, TQ : BADAMI DIST : BAGALKOT.",BAGALKOT,KATAGERI,KARNATAKA,237045
6,KARNATAKA VIKAS GRAMEENA BANK,KVGB0001006,MUSTIGERI,"MUSTIGERI BRANCH  P A C C BANK,┬á BUILDING D.NO.504, MAIN STREET,┬á┬áMUSTIGERI - 587 206,┬á TQ : BADAMI. DIST : BAGALKOT.┬á ┬á┬á┬á ┬á┬á┬á┬á┬á┬á┬á┬á┬á┬á┬á┬á┬á┬á┬á┬á",BAGALKOT,MUSTIGERI,KARNATAKA,238074
7,KARNATAKA VIKAS GRAMEENA BANK,KVGB0001007,NANDIKESHWAR,"NANDIKESHWAR BRANCH  KULKARNI'S BLDG, MAIN ROAD, ┬áNANDIKESHWAR - 587 320,┬á┬á TQ:BADAMI DIST:BAGALKOT.",BAGALKOT,NANDIKESHWAR,KARNATAKA,243054
8,KARNATAKA VIKAS GRAMEENA BANK,KVGB0001008,NEELAGUND,"NEELAGUND BRANCH  MAIN ROAD, NEELAGUND - 587 201, TQ : BADAMI DIST : BAGALKOT.┬á┬á┬á PH.NO.08357-238003",BAGALKOT,NEELAGUND,KARNATAKA,238003
9,KARNATAKA VIKAS GRAMEENA BANK,KVGB0001009,GULEDGUDDA,"SANGAMESHWAR PRINTING PRESS BLDG, GULEDGUDDA, TQ: BADAMI DIST : BAGALKOT",BAGALKOT,GULEDAGUDDA,KARNATAKA,250354
10,KARNATAKA VIKAS GRAMEENA BANK,KVGB0001010,KAGALAGOMB,"PKPSB BUILDING, NEAR BUS STAND, KAGALAGOMB",BAGALKOTE,BADAMI,KARNATAKA,9480699681
11,KARNATAKA VIKAS GRAMEENA BANK,KVGB0001012,KERUR,"├╜KARNATAKA VIKAS GRAMEENA BANK, SRI M B KATTI BUILDING, OPPOSIT GOVT HOSPITAL, SOLAPUR-HUBLI MAIN ROAD, KERUR, KARNATAKA",BAGALKOT,KERUR,KARNATAKA,7022599717
12,KARNATAKA VIKAS GRAMEENA BANK,KVGB0001013,KULAGERI CROSS,KARNATAKA VIKAS GRAMEENA BANK BRANCH KULAGERI CROSS BADAMI TALUK BAGALKOT DIST,BAGALKOT,BADAMI,KARNATAKA,0
13,KARNATAKA VIKAS GRAMEENA BANK,KVGB0001014,HALIGERI,"KARNATAKA VIKAS GRAMEENA BANK, AT POST HALIGERI,TQ BADAMI,DIST BAGALKOT PINCODE 587206",BAGALKOT,BAGALKOT,KARNATAKA,9606080488
14,KARNATAKA VIKAS GRAMEENA BANK,KVGB0001100,BAGALKOTE R O,"REGIONAL MANAGER,KARNATAKA VIKAS GRAMEENA BANK,RO,SBI BUILDING,NAVANAGAR,BAGALKOT.587183",BAGALKOT,BAGALKOT,KARNATAKA,0
15,KARNATAKA VIKAS GRAMEENA BANK,KVGB0001101,BAGALAKOT,"BAGALKOT BRANCH  SHREYAS OMPLEX, I FLOOR, NEAR BUS STAND, ┬áQ& DT: BAGALKOT",BAGALKOT,BAGALKOT,KARNATAKA,226194
16,KARNATAKA VIKAS GRAMEENA BANK,KVGB0001102,BENAKATTI,"BENAKATTI BRANCH MALLAMMAMBE MAHILA MANDAL BUILDING,  D.NO.93, MAIN ROAD, BENAKATTI - 587 111, TQ :DIST : BAGALKOT.",BAGALKOT,BENAKATTI,KARNATAKA,257015
17,KARNATAKA VIKAS GRAMEENA BANK,KVGB0001103,GADDANAKERI,"GADDANAKERI BRANCH  KKGS SANGHA BUILDING, D.NO.157/1,KALADAGI RD, GADDANAKERI - 587 115, TQ : BAGALKOT. DIST : BAGALKOT.",BAGALKOT,GADDANKERI,KARNATAKA,244328
18,KARNATAKA VIKAS GRAMEENA BANK,KVGB0001104,SUTAGUNDAR,"SUTAGUNDAR BRANCH MAIN ROAD, SUTAGUNDAR-587 207, TQ : BAGALKOT. DIST :BAGALKOT.",BAGALKOT,SUTAGUNDAR,KARNATAKA,255010
19,KARNATAKA VIKAS GRAMEENA BANK,KVGB0001105,NAVANAGAR-BAGALKOT,"NAVANAGAR BRANCH  PLOT NO.C-69, SECTOR 33  SBM BUILDING, NEAR DIST CONSUMERS FORUM , NAVANAGAR - 587 103, TQ: DIST BAGALKOT.",BAGALKOT,BAGALKOT,KARNATAKA,200450
20,KARNATAKA VIKAS GRAMEENA BANK,KVGB0001106,KALADGI,"HNNU BELEGARARA SANGH BLDG, NEAR POLICE STATION,KALADGI TQ & DT. BAGALKOT",BAGALKOT,KALADGI,KARNATAKA,240088
21,KARNATAKA VIKAS GRAMEENA BANK,KVGB0001107,ANWAL,"SOCIETY BLDG, ANWAL TQ BADAMI DT. BAGALKOT",BAGALKOT,BADAMI,KARNATAKA,0
22,KARNATAKA VIKAS GRAMEENA BANK,KVGB0001108,BHANTANUR,HIREKANNAVAR BUILDING  BHANTANUR TQ.MUDHOL  PIN ┬û 587 204,BAGALKOT,MUDHOL,KARNATAKA,0
23,KARNATAKA VIKAS GRAMEENA BANK,KVGB0001109,RAMPUR,"SRI TELI BUILDING ,RAMPUR- 587207, TQ; BAGALKOT, DT BAGALKOTE",BAGALKOTE,BAGALKOT,KARNATAKA,0
24,KARNATAKA VIKAS GRAMEENA BANK,KVGB0001110,VIDYAGIRI BAGALAKOT,"KARNATAKA VIKAS GRAMMENA BANK, SRI B V V SANGH KATTI BUILDING, OPPOSIT ENGINEERING COLLEGE, BAGALAKOT-587103, KARNATAKA",BAGALKOT,BAGALKOT,KARNATAKA,7022599719
25,KARNATAKA VIKAS GRAMEENA BANK,KVGB0001111,TULASIGERI,"KARNATAKA VIKAS GRAMMENA BANK, NO 196 B, GPC BUILDING, TULASIGERI-587204, DT BAGALAKOT, KARNATAKA",BAGALKOT,BAGALKOT,KARNATAKA,7022599718
26,KARNATAKA VIKAS GRAMEENA BANK,KVGB0001201,AMALAZARI,"AMALZARI BRANCH  MARUTI SEVA SAMEETI┬á BUILDING,  AMALZARI - 587 125, TQ : BILAGI. DIST : BAGALKOT.",BAGALKOT,AMALZARI,KARNATAKA,246006
27,KARNATAKA VIKAS GRAMEENA BANK,KVGB0001202,ANAGAWADI,"ANAGAWADI BRANCH  ANAGAWADI - 587 116, TQ : BILAGI. DIST : BAGALKOT.",BAGALKOT,ANAGWADI,KARNATAKA,279901
28,KARNATAKA VIKAS GRAMEENA BANK,KVGB0001203,BILAGI,"BILAGI BRANCH MAIN ROAD, S.S. PATIL BUILDING, BILAGI ┬û 587 116 DIST: BAGALKOT",BAGALKOT,BILGI,KARNATAKA,275872
29,KARNATAKA VIKAS GRAMEENA BANK,KVGB0001204,KATARAKI,"KATARAKI BRANCH  MATHAD BUILDING, D.NO.1/A, MAIN ROAD, KATARAKI - 587 204, TQ : BILAGI. DIST : BAGALKOT.",BAGALKOT,KATARKI,KARNATAKA,273956
30,KARNATAKA VIKAS GRAMEENA BANK,KVGB0001205,SUNAG,"SUNAG BRANCH  GRAM PANCHAYAT┬á BLDG,┬á D.NO.196,┬á┬á┬á┬á MAIN ROAD, SUNAG - 587 128,  TQ : BILAGI. DIST : BAGALKOT.",BAGALKOT,SUNAG,KARNATAKA,277450
31,KARNATAKA VIKAS GRAMEENA BANK,KVGB0001206,TEGGI,"KARNATAKAVIKASGRAMEENA BANK J B KUDAGI BLDG,  MAIN ROAD, TEGGI TQ. BILAGI DT: BAGALKOT  PIN ┬û  587 117",BAGALKOT,TEGGI,KARNATAKA,0
32,KARNATAKA VIKAS GRAMEENA BANK,KVGB0001207,JANAMATTI,KARNATAKA VIKAS GRAMEENA BANK BRANCH JANAMATTI TALUK BILAGI DIST BAGALKOT,BAGALKOT,BILAGI,KARNATAKA,9480699037
33,KARNATAKA VIKAS GRAMEENA BANK,KVGB0001301,AIHOLE,"AIHOLE BRANCH  C.M.NASHI BLDG,┬á AIHOLE ┬û 587 138┬á┬á┬á┬áTQ : HUNGUND┬á┬á DIST : BAGALKOT┬á┬á┬á┬á┬á┬á┬á┬á┬á┬á",BAGALKOT,AIHOLE,KARNATAKA,284505
34,KARNATAKA VIKAS GRAMEENA BANK,KVGB0001302,CHITTARAGI,"CHITTARAGI BRANCHVIJAYA MAHANTESH TRUST,┬áCHITTARAGI ┬û587 112 TQ: HUNGUND DIST : BAGALKOT.",BAGALKOT,CHITTARGI,KARNATAKA,274127
35,KARNATAKA VIKAS GRAMEENA BANK,KVGB0001303,DHANNUR,"DHANNUR BRANCH  DHANESHWAR VACHANALAYA  BUILDING, BELAGALL ROAD,┬á DHANNUR ┬û 587 118 TQ: HUNAGUNDDIST: BAGALKOT",BAGALKOT,DHANNUR,KARNATAKA,276009
36,KARNATAKA VIKAS GRAMEENA BANK,KVGB0001304,GANJIHAL,"GANJIHAL BRANCH  GRAM PANCHAYAT BLDG,  DOOR NO. 487, MAIN ROAD,┬á┬áGANJIHAL ┬û587115  TQ : HUNGUND,┬á DIST: BAGALKOT┬á┬á┬á┬á┬á┬á┬á┬á┬á┬á┬á┬á┬á┬á┬á┬á┬á┬á",BAGALKOT,GANJIHAL,KARNATAKA,200174
37,KARNATAKA VIKAS GRAMEENA BANK,KVGB0001305,HUNGUND,"HUNGUND BRANCH  M.S.KADAPATTI BUILDING,┬áOPPOSITE BUS-STAND  HUNAGUND. DIST: BAGALKOT",BAGALKOT,HUNGUND,KARNATAKA,261390
38,KARNATAKA VIKAS GRAMEENA BANK,KVGB0001306,KANDAGAL,"KANDAGAL BRANCH  POLICE PATIL BUILDING, MAIN ROAD,  KANDAGAL ┬û 587154. TQ : HUNAGUND, DIST : BAGALKOT",BAGALKOT,KANDAGAL,KARNATAKA,267132
39,KARNATAKA VIKAS GRAMEENA BANK,KVGB0001307,NAGUR,"NAGUR BRANCH  NARAGUNDCOMPLEX, MAINROAD, ┬á┬áNAGUR ┬û 587118 ┬áTQ : HUNGUND DIST : BAGALKOT┬á┬á┬á┬á┬á┬á┬á┬á┬á┬á┬á┬á┬á┬á┬á┬á┬á┬á┬á",BAGALKOT,NAGUR,KARNATAKA,260708
40,KARNATAKA VIKAS GRAMEENA BANK,KVGB0001308,ILKAL,"NEAR KANTHI CIRCLE ILKAL TQ: HUNAGUND, DIST : BAGALKOT.",BAGALKOT,ILKAL,KARNATAKA,270074
41,KARNATAKA VIKAS GRAMEENA BANK,KVGB0001309,KUDALASANGAM,"SRI SANGAMESHWAR UCHIT PRASAD NILAY BLDG,KUDALASANGAMTQ. HUNAGUND",BAGALKOT,KOODAL SANGAM,KARNATAKA,268045
42,KARNATAKA VIKAS GRAMEENA BANK,KVGB0001310,KAMATAGI,"OPPSITE HUCHESHWAR MATH, NEAR BUSSTAND KAMATAGI, TQ: HUNAGUND - 587120, DT: BAGALKOTE",BAGALKOTE,KAMATGI,KARNATAKA,0
43,KARNATAKA VIKAS GRAMEENA BANK,KVGB0001311,AMINGAD,KARNATAKA VIKAS GRAMEENA BANK BRANCH AMINGAD GRAM PANCHAYATH BUILDING HUNAGUND TALUK BAGALKOT DIST-587112,BAGALKOT,HUNAGUND,KARNATAKA,9108699774
44,KARNATAKA VIKAS GRAMEENA BANK,KVGB0001312,TUMBA,KARNATAKA VIKAS GRAMEENA BANK BRANCH TUMBA C/O BASAVARAJ Y SAJJAN TUMBA HUNAGUND TALUK BAGALKOT DIST-587154,BAGALKOT,HUNAGUND,KARNATAKA,9480699603
45,KARNATAKA VIKAS GRAMEENA BANK,KVGB0001313,GUDUR,"KARNATAKA VIKAS GRAMEENA BANK, AT POST GUDUR,TQ HUNAGUND,DIST BAGALKOT PINCODE 587202",BAGALKOT,BAGALKOT,KARNATAKA,9606080487
46,KARNATAKA VIKAS GRAMEENA BANK,KVGB0001401,ALAGUR,"ALAGUR BRANCH PARAMAGONDA BUILDING, DOOR NO. 221, ALAGUR - 587 301, TQ : JAMAKHANDI. DIST : BAGALKOT.",BAGALKOT,ALAGUR,KARNATAKA,200116
47,KARNATAKA VIKAS GRAMEENA BANK,KVGB0001402,BANAHATTI,"BANAHATTI BRANCH  V.R.KADAM BUILDING, ┬á BANAHATTI -587311  TQ : JAMAKHANDI. DIST : BAGALKOT.",BAGALKOT,RABKAVI BANHATTI,KARNATAKA,231338
48,KARNATAKA VIKAS GRAMEENA BANK,KVGB0001403,BIDARI,"BIDARI BRANCH  BIDARI'S BUILDING,  BIDARI - 586 125, TQ : JAMAKHANDI. DIST : BAGALKOT.",BAGALKOT,BIDRI,KARNATAKA,252091
49,KARNATAKA VIKAS GRAMEENA BANK,KVGB0001404,GOTHE,"GOTHE BRANCH  SRI PAWAD BASAVESHWAR SADBHAKTA┬á┬á MANDALI BUILDING,┬á NEAR BUS STAND, GOTHE - 586 126, TQ : JAMAKHANDI. DIST : BAGALKOT.",BAGALKOT,GOTHE,KARNATAKA,253059
50,KARNATAKA VIKAS GRAMEENA BANK,KVGB0001405,HALINGALI,"HALINGALI BRANCH  A.R.MUNNOLLI BLDG  HALINGALI - 587 315,  TQ : JAMAKHANDI. DIST : BAGALKOT.",BAGALKOT,HALINGALI,KARNATAKA,255321
51,KARNATAKA VIKAS GRAMEENA BANK,KVGB0001406,HIPPARAGI,"HIPPARAGI BRANCH  KANNOLLI 'S BUILDING,MAIN ROAD,  HIPPARAGI - 587 318,  TQ : JAMAKHANDI. DIST : BAGALKOT.",BAGALKOT,HIPPARGI,KARNATAKA,228536
52,KARNATAKA VIKAS GRAMEENA BANK,KVGB0001407,HIRE PADASALAGI,"HIREPADASALAGI BRANCH  HUTAGI┬á BUILDING, D.NO.108,  HIREPADASALAGI- 587 323, TQ : JAMAKHANDI. DIST : BAGALKOT.",BAGALKOT,HIREPADASALGI,KARNATAKA,254073
53,KARNATAKA VIKAS GRAMEENA BANK,KVGB0001408,JAKANUR,"JAKANUR BRANCH  GRAM PANCHAYAT BLDG,  MAIN ROAD, JAKANUR - 587 301, TQ: JAMAKHANDI. DIST : BAGALKOT.",BAGALKOT,JAKANUR,KARNATAKA,234542
54,KARNATAKA VIKAS GRAMEENA BANK,KVGB0001409,JAMKHANDI,"JAMAKHANDI BRANCH  R.M.BURJI BLDG,┬á┬á NEAR BUS-STAND  JAMAKHANDI┬á┬á DIST; BAGALKOT.",BAGALKOT,JAMKHANDI,KARNATAKA,224611
55,KARNATAKA VIKAS GRAMEENA BANK,KVGB0001410,KONNUR,"KONNUR BRANCH  KARISIDDESHWAR TEMPLE BUILDING,  MAIN ROAD, KONNUR - 587 121, TQ : JAMAKHANDI. DIST : BAGALKOT.",BAGALKOT,KONNUR,KARNATAKA,239063
56,KARNATAKA VIKAS GRAMEENA BANK,KVGB0001411,NAVALAGI,"NAVALAGI BRANCH  HANUMAN TEMPLE COMMITTEE BUILDING, NAVALAGI - 587 320, TQ : JAMAKHANDI. DIST : BAGALKOT.",BAGALKOT,NAVALAGI,KARNATAKA,236050
57,KARNATAKA VIKAS GRAMEENA BANK,KVGB0001412,SASALATTI,"SASALATTI BRANCH  HANAGANDI BUILDING, DOOR NO. 92, SASALATTI - 587 327, TQ : JAMAKHANDI. DIST : BAGALKOT.",BAGALKOT,SASALATTI,KARNATAKA,255381
58,KARNATAKA VIKAS GRAMEENA BANK,KVGB0001413,TERDAL,"TERDAL BRANCH  GANACHARI BUILDING, NEAR PRABHUDEV TEMPLE TQ : JAMKHANDI. DIST : BAGALKOT.",BAGALKOT,TERDAL,KARNATAKA,0
59,KARNATAKA VIKAS GRAMEENA BANK,KVGB0001414,KULAHALLI,"NEAR SHIVALINGESHWAR TEMPLE  MAIN ROAD, KULAHALLI TQ:JAMKHANDI, DIST : BAGALKOT.",BAGALKOT,JAMKHANDI,KARNATAKA,0
60,KARNATAKA VIKAS GRAMEENA BANK,KVGB0001415,LINGANUR,"GRAM PANCHAYAT BLDG, LINGANUR TQ. JAMKHANDI DT. BAGALKOT",BAGALKOT,JAMKHANDI,KARNATAKA,0
61,KARNATAKA VIKAS GRAMEENA BANK,KVGB0001416,CHIMMAD,SAMUDAY BHAVAN CHIMMAD TQ. JAMKHANDI DT: BAGALKOT PIN ┬û 587 312,BAGALKOT,MAHALINGPUR,KARNATAKA,0
62,KARNATAKA VIKAS GRAMEENA BANK,KVGB0001417,KUNCHANUR CIRCLE JAMAKANDI,"BAGWAN COMPLEX, TIPPU SULTAN CIRCLE, JAMAKANDI - 587301",BAGALKOTE,JAMKHANDI,KARNATAKA,0
63,KARNATAKA VIKAS GRAMEENA BANK,KVGB0001501,BELAGALI,"BELAGALI BRANCH  M.A.SIDDAPUR BUILDING,  DOOR NO. 511, BELAGALI - 587 113, TQ : MUDHOL. DIST : BAGALKOT.",BAGALKOT,BELAGALI,KARNATAKA,270406
64,KARNATAKA VIKAS GRAMEENA BANK,KVGB0001502,CHICHAKHANDI KD,"CHINCHAKHANDI K.D. BRANCH  B.S.HUNSHI BLDG,┬á CHINCHAKHANDI K.D.- 587 313, TQ : MUDHOL. DIST : BAGALKOT.",BAGALKOT,CHINCHKHANDI(K D),KARNATAKA,247047
65,KARNATAKA VIKAS GRAMEENA BANK,KVGB0001503,HOSAKOTI,"HOSAKOTI BRANCH  GRAM PANCHAYAT BLDG, HOSAKOTI- 587 122, TQ : MUDHOL.DIST : BAGALKOT.",BAGALKOT,HOSAKOTI,KARNATAKA,240351
66,KARNATAKA VIKAS GRAMEENA BANK,KVGB0001504,MACHAKANUR,"MACHAKANUR BRANCH  MAIN ROAD, MACHAKNUR - 587 313,┬á┬áTQ : MUDHOL. DIST : BAGALKOT.",BAGALKOT,MACHAKNUR,KARNATAKA,249034
67,KARNATAKA VIKAS GRAMEENA BANK,KVGB0001505,MAHALINGAPUR,"MAHALINGPUR BRANCH ┬áSAKRI BUILDING, D.NO.57/A, MAIN┬á ROAD, MAHALINGAPUR -587 312,┬á┬á TQ : MUDHOL. ┬áDIST : BAGALKOT.",BAGALKOT,MAHALINGPUR,KARNATAKA,270603
68,KARNATAKA VIKAS GRAMEENA BANK,KVGB0001506,MUDDAPUR,"MUDDAPUR BRANCH  SARKAVAS BUILDING, MUDDAPUR - 587 122,TQ : MUDHOL. DIST : BAGALKOT.┬á┬á┬á┬á┬á┬á┬á┬á┬á┬á┬á┬á┬á┬á┬á┬á┬á┬á┬á┬á┬á┬á┬á┬á┬á",BAGALKOT,MUDDAPUR,KARNATAKA,202033
69,KARNATAKA VIKAS GRAMEENA BANK,KVGB0001507,MUDHOL,"MUDHOL BRANCH  BAKSHI BUILDING,W.NO.1, MAIN ROAD, MUDHOL - 587 313, TQ : MUDHOL. DIST : BAGALKOT.",BAGALKOT,MUDHOL,KARNATAKA,281255
70,KARNATAKA VIKAS GRAMEENA BANK,KVGB0001508,MUGALAKHOD,"MUGALKHOD BRANCH  A.P.SUNAGAD BUILDING  MUGALKHOD - 587 113, TQ : MUDHOL.DIST : BAGALKOT.",BAGALKOT,MUGALKHOD,KARNATAKA,248006
71,KARNATAKA VIKAS GRAMEENA BANK,KVGB0001509,SHIROL,"SHIROL BRANCH  GRAM PANCHAYAT┬á BLDG,  DOOR NO 71,SHIROL - 587 328, TQ : MUDHOL. DIST: BAGALKOT.",BAGALKOT,SHIROL,KARNATAKA,242005
72,KARNATAKA VIKAS GRAMEENA BANK,KVGB0001510,UTTUR,"UTTUR BRANCH ┬á CHINIWAL BUILDINGG, D.NO.1/A, MAIN ROAD, UTTUR - 587 313, TQ : MUDHOL, DIST:BAGALKOT.┬á┬á┬á┬á┬á┬á┬á┬á┬á┬á┬á┬á┬á┬á┬á┬á┬á┬á┬á┬á┬á┬á┬á┬á┬á",BAGALKOT,UTTUR,KARNATAKA,277044
73,KARNATAKA VIKAS GRAMEENA BANK,KVGB0001511,VAJRAMATTI,"VAJJRAMATTI BRANCH  MANTUR BUILDING, H.NO.289, VAJJRAMATTI - 587 313, TQ : MUDHOL. DIST : BAGALKOT.┬á",BAGALKOT,VAJJARMATTI,KARNATAKA,276010
74,KARNATAKA VIKAS GRAMEENA BANK,KVGB0001512,LOKAPUR,"LOKAPUR BRANCH  NINGANURGOUDAR BUILDING,  DURGADEVI TEMPLE ROAD , LOKAPUR - 587 122, TQ : MUDHOL. DIST :BAGALKOT",BAGALKOT,LOKAPUR,KARNATAKA,0
75,KARNATAKA VIKAS GRAMEENA BANK,KVGB0001513,VANTAGODI,"SRI VENKATESHWAR YUVAK MANDAL, MAIN ROAD, VANTAGODI TQ.MUDHOL PIN ┬û 587 313",BAGALKOT,MUGALKHOD,KARNATAKA,200300
76,KARNATAKA VIKAS GRAMEENA BANK,KVGB0001514,MALALI,GRAM PANCHAYAT BLDG MAIN ROAD MALALI TQ. MUDHOL DT:BAGALKOT PIN ┬û 587 113,BAGALKOT,MUDHOL,KARNATAKA,0
77,KARNATAKA VIKAS GRAMEENA BANK,KVGB0001515,MADABHAVI,KARNATAKA VIKAS GRAMEENA BANK TIMMAPUR BUILDING MARAPUR ROAD MADABHAVI BAGALKOT- 587316,BAGALKOT,MADABHAVI,KARNATAKA,9108699763
78,KARNATAKA VIKAS GRAMEENA BANK,KVGB0002000,BELGAUM R O,"REGIONAL OFFICE,2ND FLOOR,PLD BANK BUILDING,1076,OLD P.B ROAD,KOLHAPUR CROSS,BELGAUM 590 016",BELGAUM,BELGAUM,KARNATAKA,0
79,KARNATAKA VIKAS GRAMEENA BANK,KVGB0002001,ADAHALLI,"ADAHALLI BRANCHKENCHANNAVAR BUILDING,ADAHALLI-591266.  TQ :ATHANI. DIST :BELGAUM.",CHIKKODI,ADHALLI,KARNATAKA,259487
80,KARNATAKA VIKAS GRAMEENA BANK,KVGB0002002,ATHANI,"ATHANI BRANCH┬á┬á TMC BUILDING, SAREE MARKET,  ATHANI ┬û 591 304┬á┬á┬á",CHIKKODI,ATHANI,KARNATAKA,251683
81,KARNATAKA VIKAS GRAMEENA BANK,KVGB0002003,HALYAL,"HALYAL BRANCHPANCHAYAT BUILDING,  HALYAL - 591 304.  TQ. : ATHANI,┬á DIST. : BELGAUM",CHIKKODI,HALYAL,KARNATAKA,294864
82,KARNATAKA VIKAS GRAMEENA BANK,KVGB0002004,KAGAWAD,"KAGAWAD BRANCH┬á  PATIL BUILDING, BAJARPETH,  KAGAWAD - 591 223.  TQ. : ATHANI,┬á DIST. : BELGAUM.┬á┬á┬á┬á┬á┬á┬á┬á┬á┬á┬á┬á┬á",CHIKKODI,KAGWAD,KARNATAKA,264125
83,KARNATAKA VIKAS GRAMEENA BANK,KVGB0002005,KHILEGAON,"KHILEGAON BRANCH  BAGADI BUILDING,  KHILEGAON - 591 212.  TQ. : ATHANI,┬á DIST. : BELGAUM.┬á┬á┬á┬á┬á┬á",CHIKKODI,KHILEGAON,KARNATAKA,295078
84,KARNATAKA VIKAS GRAMEENA BANK,KVGB0002006,KOKATNUR,"KOKATNUR BRANCH  B.D.O. BUILDING,  NEAR BUS STAND,  KOKATNUR - 591 230  TQ. : ATHANI,┬á DIST. : BELGAUM",CHIKKODI,KOKATNUR,KARNATAKA,257602
85,KARNATAKA VIKAS GRAMEENA BANK,KVGB0002007,MADABHAVI,"MADABHAVI BRANCHBHANDARI BUILDING,  MAIN STREET,  MADABHAVI - 591 232.  TQ. : ATHANI,┬á DIST. : BELGAUM",CHIKKODI,MADABHAVI,KARNATAKA,236526
86,KARNATAKA VIKAS GRAMEENA BANK,KVGB0002008,MANGASULI,"MANGASULI BRANCHSOCIETY BUILDING,  MANGASULI - 591 234  TQ. : ATHANI,┬á DIST. : BELGAUM.┬á┬á┬á┬á┬á┬á┬á┬á┬á┬á┬á",CHIKKODI,MANGSULI,KARNATAKA,277431
87,KARNATAKA VIKAS GRAMEENA BANK,KVGB0002009,MOLE,"MOLE BRANCHPATIL BUILDING, BAZAR ROAD,  MOLE - 591 332.TQ. : ATHANI,┬á DIST. : BELGAUM.┬á┬á┬á┬á┬á┬á┬á┬á┬á┬á",CHIKKODI,MOLE,KARNATAKA,278201
88,KARNATAKA VIKAS GRAMEENA BANK,KVGB0002010,SHANKRAHATI,"SHANKRATTI BRANCHGRAM PANCHAYAT BUILDING,  SHANKRATTI - 591 220.  TQ. : ATHANI,┬á DIST. : BELGAUM.┬á┬á┬á┬á┬á",CHIKKODI,SHANKRATTI,KARNATAKA,250853
89,KARNATAKA VIKAS GRAMEENA BANK,KVGB0002011,SHIRAGUPPI,"SHIRAGUPPI BRANCHBHAGYALAXMI LIFT IRRIGATION  SOCIETY BUILDING, KAGAWAD ROAD,  SHIRAGUPPI - 591 242. TQ. : ATHANI,┬á DIST. : BELGAUM.┬á┬á┬á┬á",CHIKKODI,SHIRGUPPI,KARNATAKA,265282
90,KARNATAKA VIKAS GRAMEENA BANK,KVGB0002012,SHIRAHATTI,"SHIRAHATTI BRANCHV.P.C. NO. 180/2,  KULKARNI BUILDING,  MAIN ROAD,  SHIRAHATTI - 591 341.┬á┬á┬á┬á┬á┬á┬á┬á┬á┬á┬á┬á┬á┬á┬á┬á┬á",CHIKKODI,SHIRHATTI,KARNATAKA,284901
91,KARNATAKA VIKAS GRAMEENA BANK,KVGB0002013,TELSANG,"TELSANG BRANCH ┬á┬á┬áA.S. UNDODI BUILDING,  TELSANG - 591 265.  TQ. : ATHANI,┬á DIST. : BELGAUM.┬á┬á┬á┬á┬á┬á┬á┬á",CHIKKODI,TELSANG,KARNATAKA,276274
92,KARNATAKA VIKAS GRAMEENA BANK,KVGB0002014,KOTTALAGI,"NEAR BUS STAND, C.M.TELI BUILDING KOTTALAGI,  TQ: ATHANI  PIN ┬û 591 265",CHIKKODI,ATHANI,KARNATAKA,239111
93,KARNATAKA VIKAS GRAMEENA BANK,KVGB0002016,KAKAMARI,"├╜KARNATAKA VIKAS GRAMEENA BANK, SRI G S DYASHAL BUILDING, MAIN MARKET, KAKAMARI, TQ ATHANI, DT BELGAUM, KARNATAKA",CHIKKODI,ATHANI,KARNATAKA,7022599714
94,KARNATAKA VIKAS GRAMEENA BANK,KVGB0002017,MALABAD,"KARNATAKA VIKAS GRAMEENA BANK, KALLOLI BUILDING, VPC NO. 32, MALABAD, TQ ATHNI, DT BELAGAVI",BELGAUM,MALABAD,KARNATAKA,2442204
95,KARNATAKA VIKAS GRAMEENA BANK,KVGB0002018,AINAPUR,KARNATAKA VIKAS GRAMEENA BANK AINAPUR BRANCH LONDE BUILDING BAZAAR ROAD AINAPUR- TQ ATHANI DT BELGAUM PIN 591303,BELGAUM,ATHANI,KARNATAKA,9108699801
96,KARNATAKA VIKAS GRAMEENA BANK,KVGB0002019,ARTAL,"KARNATAKA VIKAS GRAMEENA BANK,GRAMA PANCHAYAT BUILDING,ARTAL,ATHANI TALUK,BELGAUM DISTRICT.PIN 591248",BELGAVI,BELGAUM,KARNATAKA,0
97,KARNATAKA VIKAS GRAMEENA BANK,KVGB0002101,BAILHONGAL,BAILHONGAL BRANCH  OPP: BUS STAND┬á┬á┬á┬áBAILHONGAL-591102. TQ :BAILHONGAL. DIST:BELGAUM┬á┬á┬á┬á┬á┬á┬á┬á┬á┬á┬á┬á┬á┬á┬á┬á┬á┬á┬á┬á┬á┬á┬á┬á,BELGAUM,BAILHONGAL,KARNATAKA,233303
98,KARNATAKA VIKAS GRAMEENA BANK,KVGB0002102,BAILUR,"BAILUR BRANCH  R.R DEGAU BUILDING,  BAILUR-591115. TQ :BAILHONGAL. DIST :BELGAUM.",BELGAUM,BAILUR,KARNATAKA,277240
99,KARNATAKA VIKAS GRAMEENA BANK,KVGB0002103,DODAWAD,"DODWAD BRANCH  ZILLA PANCHAYAT BUILDING, NO. M.P. 1395, BUS STAND ROAD,  DODWAD-591104. TQ :BAILHONGAL. DIST :BELGAUM.┬á┬á┬á┬á",BELGAUM,DODAWAD,KARNATAKA,235526
100,KARNATAKA VIKAS GRAMEENA BANK,KVGB0002104,HUNASHIKATTI,"HUNASHIKATTI BRANCH  VPC NO. 459/B NAGANUR BUILDING, MAIN ROAD, HUNASHIKATTI - 591 153  TQ. : BAILHONGAL,┬á DIST. : BELGAUM",BELGAUM,ITGI,KARNATAKA,283733
101,KARNATAKA VIKAS GRAMEENA BANK,KVGB0002105,KITTUR,"┬á KITTUR BRANCH┬á┬á┬á┬á┬áLANGOTI BUILDING, KITTUR - 591 115. TQ. : BAILHONGAL,┬á DIST. : BELGAUM.┬á",BELGAUM,KITTUR,KARNATAKA,286828
102,KARNATAKA VIKAS GRAMEENA BANK,KVGB0002106,M.K.HUBLI,"M.K. HUBLI BRANCH  PANCHAYAT BUILDING, P. B. ROAD, M. K. HUBLI - 591 153. TQ. : BAILHONGAL,┬á DIST. : BELGAUM.",BELGAUM,MUGUTKHAN HUBLI,KARNATAKA,274055
103,KARNATAKA VIKAS GRAMEENA BANK,KVGB0002107,NEGINAHAL,"┬á NEGINHAL BRANCH┬á┬á┬á┬á┬áSRI MADIWALESHWAR MATH BUILDING, NEGINAHAL - 591 190. TQ. : BAILHONGAL,┬á DIST. : BELGAUM.",BELGAUM,NEGINAHAL,KARNATAKA,252814
104,KARNATAKA VIKAS GRAMEENA BANK,KVGB0002108,NESARAGI,"┬á┬á NESARAGI BRANCH ┬á ZILLA PANCHAYAT BUILDING, EXTENSION AREA, NESARAGI - 591 121. TQ. : BAILHONGAL,┬á DIST. : BELGAUM",BELGAUM,NESARGI,KARNATAKA,275210
105,KARNATAKA VIKAS GRAMEENA BANK,KVGB0002109,SANGOLLI,"┬á┬á SANGOLLI BRANCH  PANCHAYAT BUILDING, SANGOLLI - 591 191. TQ. : BAILHONGAL,┬á DIST. : BELGAUM",BELGAUM,SANGOLLI,KARNATAKA,238531
106,KARNATAKA VIKAS GRAMEENA BANK,KVGB0002110,TIGADI,"┬á┬áTIGADI BRANCH┬á┬á┬á┬áVPC NO. 254, PATIL BUILDING,  MAIN ROAD, TIGADI - 591 171. TQ. : BAILHONGAL,┬á DIST. : BELGAUM.┬á┬á┬á┬á┬á┬á",BELGAUM,TIGADI,KARNATAKA,225163
107,KARNATAKA VIKAS GRAMEENA BANK,KVGB0002111,UDUKERI,"┬á┬á┬á UDUKERI BRANCH  PANCHAYAT BUILDING, UDUKERI - 591 104. TQ. : BAILHONGAL,┬á DIST. : BELGAUM.┬á┬á┬á",BELGAUM,UDAKERI,KARNATAKA,223634
108,KARNATAKA VIKAS GRAMEENA BANK,KVGB0002112,VANNUR,"ANNUR BRANCH  PANCHAYAT BUILDING, VANNUR - 591 122. TQ. : BAILHONGAL,┬á DIST. : BELGAUM.┬á┬á┬á┬á",BELGAUM,VANNUR,KARNATAKA,272108
109,KARNATAKA VIKAS GRAMEENA BANK,KVGB0002113,AMBADAGATTI,"GRAMA PANCHAYATH BUILDING, AMBADGATTI",BELGAUM,BAILHONGAL,KARNATAKA,9480699685
110,KARNATAKA VIKAS GRAMEENA BANK,KVGB0002114,BUDARKATTI,"GRAMA PANCHAYATH BUILDING, BUDARKATTI",BELGAUM,BAILHONGAL,KARNATAKA,9480699684
111,KARNATAKA VIKAS GRAMEENA BANK,KVGB0002115,BELAVADI,"SHRI KANCHIGIDAD COMMERCIAL COMPLEX, BAILHONGAL ROAD, BELAVADI - 591102",BELGAUM,BAILHONGAL,KARNATAKA,0
112,KARNATAKA VIKAS GRAMEENA BANK,KVGB0002116,DEVARSHIGIHALLI,"GRAM PANCHAYAT BUILDING, DEVARSHIGIHALLI, TQ- BAILHONGALDIST BELAGAVI, PINCODE - 591153",BELGAVI,DEVARSHIGIHALLI,KARNATAKA,9480699040
113,KARNATAKA VIKAS GRAMEENA BANK,KVGB0002117,WAKKUND,"KARNATAKA VIKAS GRAMEENA BANK,GRAMA PANCHAYAT BUILDING,AT POST WAKKUND,TQ BAILHONGAL,DIST BELAGAVI PINCODE 591102",BELGAVI,BAILHONGAL,KARNATAKA,0
114,KARNATAKA VIKAS GRAMEENA BANK,KVGB0002200,CHICKODI R O,"REGIONAL OFFICE,VANTAMUTTE BUILDING,GURUWAR PET,CHIKKODI.591201",CHIKODI,CHIKODI,KARNATAKA,0
115,KARNATAKA VIKAS GRAMEENA BANK,KVGB0002201,"AZAMNAGAR, BELGAUM","BELGAUM ┬û AZAMNAGAR┬á BRANCH  R.S KADALASKAR BUILDING,┬á┬áBOXITE ROAD,  TQ : & DIST :BELGAUM.",BELGAUM,BELGAUM,KARNATAKA,2405178
116,KARNATAKA VIKAS GRAMEENA BANK,KVGB0002202,BELGAUM MAIN,"┬á BELGAUM MAIN BRANCHSHIVAMALE BUILDING,┬á ┬áKHADAK GALLI,  BELGAUM-590002.TQ & DIST :BELGAUM.",BELGAUM,BELGAUM,KARNATAKA,2405172
117,KARNATAKA VIKAS GRAMEENA BANK,KVGB0002203,FORT-ROAD BELGAUM,"┬á┬áBELGAUM FORT ROAD BRANCH┬á┬á  KSRTC COMPLEX,┬á┬áBUS STAND ROAD,┬á┬á BELGAUM ┬û 590 001┬á┬á┬á┬á┬á┬á┬á┬á┬á┬á┬á┬á┬á┬á┬á┬á┬á┬á┬á",BELGAUM,BELGAUM,KARNATAKA,2405173
118,KARNATAKA VIKAS GRAMEENA BANK,KVGB0002204,GOAVES-BELGAUM,"BELGAUM GOAVES BRANCHKAVALE BUILDING,┬á┬á┬áNEAR R.P.D. CROSS, TILKAWADI,  BELGAUM-590006.TQ & DIST :BELGAUM.",BELGAUM,BELGAUM,KARNATAKA,2405174
119,KARNATAKA VIKAS GRAMEENA BANK,KVGB0002205,HINDALAGA,"HINDALAGA BRANCH ┬áNAIK BUILDING,VENGURLA ROAD, HINDALAGA - 591 108.  TQ. : BELGAUM,┬á DIST. : BELGAUM.",BELGAUM,HINDALAGE,KARNATAKA,2405175
120,KARNATAKA VIKAS GRAMEENA BANK,KVGB0002206,HIREBAGEWADI,"HIREBAGEWADI BRANCHM. P. HADIMANI BUILDING,  BAILHONGAL ROAD,  HIREBAGEWADI - 591 109.  TQ. : BELGAUM,┬á DIST. : BELGAUM",BELGAUM,HIRE BAGEWADI,KARNATAKA,2564014
121,KARNATAKA VIKAS GRAMEENA BANK,KVGB0002207,HUDLI,"HUDLI BRANCHB. R. BIKKANNAAR BUILDING,  HUDLI - 591 148. TQ. : BELGAUM,┬á DIST. : BELGAUM.",BELGAUM,HUDLI,KARNATAKA,2419243
122,KARNATAKA VIKAS GRAMEENA BANK,KVGB0002208,K K KOPPA,"K.K.KOP BRANCH  KAMBI BUILDING, K. K. KOP - 591 145. TQ. : BELGAUM,┬á DIST. : BELGAUM",BELGAUM,KANAVI-KARAVIN-KOP,KARNATAKA,2557215
123,KARNATAKA VIKAS GRAMEENA BANK,KVGB0002209,MARIHAL,"MARIHAL BRANCH  GAJAPATHI, BUILDING, MARIHAL - 591 167. TQ. : BELGAUM,┬á DIST. : BELGAUM",BELGAUM,MARIHAL,KARNATAKA,2418343
124,KARNATAKA VIKAS GRAMEENA BANK,KVGB0002210,PEERANAWADI,"PEERANAWADI BRANCH  MAIN ROAD, PEERANAWADI - 591 014. TQ. : BELGAUM,┬á DIST. : BELGAUM┬á┬á",BELGAUM,PEERANAWADI,KARNATAKA,2405176
125,KARNATAKA VIKAS GRAMEENA BANK,KVGB0002211,SHAHPUR-BELGAUM,"BELGAUM SHAHAPUR ┬ûBRANCH  DAMANEKAR BUILDING,┬á┬á┬á ┬áNATH PAI CIRCLE, SHAHAPUR  BELGAUM-590003. TQ & DIST :BELGAUM",BELGAUM,BELGAUM,KARNATAKA,2405177
126,KARNATAKA VIKAS GRAMEENA BANK,KVGB0002212,UCHAGAON,"UCHAGAON BRANCH  KADAM BUILDING, UCHAGAON - 591 128. TQ. : BELGAUM,┬á DIST. : BELGAUM.┬á",BELGAUM,UCHAGAON,KARNATAKA,2492241
127,KARNATAKA VIKAS GRAMEENA BANK,KVGB0002213,HANUMAN NAGAR-BELGAUM,"HANUMAN NAGAR BRANCHCTS PLOT NO.62, KADAM BUILDING, HANUMAN NAGAR. DOORADARSHAN NAGAR, TQ. : BELGAUM,┬á DIST. : BELGAUM.┬á┬á┬á┬á┬á┬á┬á┬á",BELGAUM,BELGAUM,KARNATAKA,2422391
128,KARNATAKA VIKAS GRAMEENA BANK,KVGB0002214,SAMBRA,"SAMBRA BRANCH ""J.L.TIPPACHE BLDG S.NO.751,MAIN ROAD TQ.BELGAUM DT.BELGAUM",BELGAUM,SAMBRA,KARNATAKA,2562477
129,KARNATAKA VIKAS GRAMEENA BANK,KVGB0002215,VAIBHAV NAGAR - BELGAUM,"DR C R PATIL BLDG,  BAUXITE ROAD, NEHARU NAGAR POST,VAIBHAV NAGAR BELGAUM TQ & DT. BELGAUM",BELGAUM,BELGAUM,KARNATAKA,2472004
130,KARNATAKA VIKAS GRAMEENA BANK,KVGB0002216,SRINAGAR BELGAUM,",MD NARGUND BLDG, H NO 643,SECTOR 5< DOUBLE ROAD BELGAUM",BELGAUM,BELGAUM,KARNATAKA,0
131,KARNATAKA VIKAS GRAMEENA BANK,KVGB0002217,DESUR,UPSTAIR GRAM PANCHAYAT BUILDING DESUR TQ. BELGAUM PIN ┬û 590 014,BELGAUM,DESHNUR,KARNATAKA,0
132,KARNATAKA VIKAS GRAMEENA BANK,KVGB0002218,UDYAMBHAG,"OPP. GOVT. ITI COLLEGE, MAZAGAON ROAD,  UDYAM BAG, BELGAUMTQ. BELGAUM PIN ┬û 590 008",BELGAUM,BELGAUM,KARNATAKA,0
133,KARNATAKA VIKAS GRAMEENA BANK,KVGB0002219,SANTI BASTAWAD,"HOUSE NO. 1341 PATIL BUILDING, SANTI BASTAWAD",BELGAUM,BELGAUM,KARNATAKA,9480699686
134,KARNATAKA VIKAS GRAMEENA BANK,KVGB0002220,AGASAGE,"KALAGOUDA B PATIL BUILDING, AGASAGE",BELGAUM,BELGAUM,KARNATAKA,9480699689
135,KARNATAKA VIKAS GRAMEENA BANK,KVGB0002221,"RANICHANNAMMANAGAR, BELGAUM","KARNATAKA VIKAS GRAMEENA BANK,├╜SRI S N HEBBAR BUILDING, 1ST STAGE, RANI CHANAMMA NAGAR, BELGAUM-590016, KARNATAKA",BELGAUM,BELGAUM,KARNATAKA,7022599720
136,KARNATAKA VIKAS GRAMEENA BANK,KVGB0002222,BASAVAN KUDACHI,"KARNATAKA VIKAS GRAMEENA BANK, SRI. S B PATIL BUILDING, R S NO.528, BASAVANKUDACHI, DIST. BELAGAVI",BELGAUM,BELGAUM,KARNATAKA,2442204
137,KARNATAKA VIKAS GRAMEENA BANK,KVGB0002223,BADALANKALAGI,"KARNATAKA VIKAS GRAMEENA BANK, SMT. P C PATIL BUILDING, MAIN ROAD, NEAR BUS STAND, BADALANKALAGI, TQ BELGAUM DT BELGAUM, KARNATAKA",BELGAUM,BELGAUM,KARNATAKA,7022599723
138,KARNATAKA VIKAS GRAMEENA BANK,KVGB0002224,KANABARGI,"KARNATAKA VIKAS GRAMEENA BANK, NEAR BUS STAND, PLOT 12, RS NO 429 2, TQ AND DT BELGAUM, KARNATAKA",BELGAUM,BELGAUM,KARNATAKA,7022599722
139,KARNATAKA VIKAS GRAMEENA BANK,KVGB0002225,MUTNAL,KARNATAKA VIKAS GRAMEENA BANK BRANCH MUTNAL TALUK BELGAUM DIST BELGAUM-591109,BELGAUM,BELGAUM,KARNATAKA,9480699040
140,KARNATAKA VIKAS GRAMEENA BANK,KVGB0002226,GANESHPUR,KARNATAKA VIKAS GRAMEENA BANK GANESHPUR BRANCH GRAMA PANCHAYATH BUILDING BELGAUM TAULK BELGAUM DIST 591108,BELGAUM,BELGAUM,KARNATAKA,9108699789
141,KARNATAKA VIKAS GRAMEENA BANK,KVGB0002301,BENADI,"BENADI BRANCH┬á  V.P.C NO.1359  JANAWADE BUILDING,  BENADI-591215. TQ: CHIKKODI, DIST :BELGAUM",CHIKKODI,BENADI,KARNATAKA,267461
142,KARNATAKA VIKAS GRAMEENA BANK,KVGB0002302,BHOJ,"HOJ BRANCH  SHINDHE BUILDING,NEAR HANUMAN TEMPLE,  BHOJ-591263. TQ: CHIKKODI, DIST :BELGAUM",CHIKKODI,BHOJ,KARNATAKA,262143
143,KARNATAKA VIKAS GRAMEENA BANK,KVGB0002303,BORGAON,"K  BORGAON BRANCH  PANCHAYAT BUILDING, BADIGER GALLI.  BORGAON-591216.  TQ: CHIKKODI, DIST :BELGAUM.",CHIKKODI,BORGAON,KARNATAKA,251823
144,KARNATAKA VIKAS GRAMEENA BANK,KVGB0002304,CHIKKODI,"HIKKODI BRANCH┬á  MIRJE COMPLEX, K.C ROAD .  CHIKKODI-591201. TQ: CHIKKODI, DIST :BELGAUM",CHIKKODI,CHIKODI,KARNATAKA,272283
145,KARNATAKA VIKAS GRAMEENA BANK,KVGB0002305,HIREKUDI,"HIREKODI BRANCH┬á┬á┬á┬áMAIN ROAD, HIREKODI - 591 274.  TQ. : CHIKKODI,┬á DIST. : BELGAUM┬á┬á┬á┬á┬á┬á┬á┬á┬á",CHIKKODI,HIREKUDI,KARNATAKA,272553
146,KARNATAKA VIKAS GRAMEENA BANK,KVGB0002306,INGALI,"┬á INGALI BRANCH  VITHOBHA MANDIR BUILDING, INGALI - 591 277. TQ. : CHIKKODI,┬á DIST. : BELGAUM.┬á",CHIKKODI,INGALI,KARNATAKA,280808
147,KARNATAKA VIKAS GRAMEENA BANK,KVGB0002307,KABBUR,"KABBUR BRANCH  VIJAYANAGAR BUILDING, MAIN ROAD, KABBUR - 591 222. TQ. : CHIKKODI,┬á DIST. : BELGAUM.┬á",CHIKKODI,KABBUR,KARNATAKA,229105
148,KARNATAKA VIKAS GRAMEENA BANK,KVGB0002308,KALLOL,"┬á KALLOL BRANCH  MANGAVATE BUILDING, KALLOL - 591 282. TQ. : CHIKKODI,┬á DIST. : BELGAUM",CHIKKODI,KALLOL,KARNATAKA,254286
149,KARNATAKA VIKAS GRAMEENA BANK,KVGB0002309,KERUR,"KERUR BRANCHSRI. D. R. MALI BUILDING,  V.P.C. NO. 363, KERUR - 591 283.  TQ. : CHIKKODI,┬á DIST. : BELGAUM",CHIKKODI,KERUR,KARNATAKA,286818
150,KARNATAKA VIKAS GRAMEENA BANK,KVGB0002310,KOGANALLI,"┬á┬á KOGNOLI BRANCH┬á┬áCHOUGALA BUILDING,MARKET ROAD,  KOGANALLI - 591 229.  TQ. : CHIKKODI,┬á DIST. : BELGAUM.┬á",CHIKKODI,KONGANOLLI,KARNATAKA,269305
151,KARNATAKA VIKAS GRAMEENA BANK,KVGB0002311,KURLI,"URLI BRANCH  S. A. DIVATE BUILDING, MAIN ROAD, KURLI -┬á 591 241. TQ. : CHIKKODI,┬á DIST. : BELGAUM",CHIKKODI,KURLI,KARNATAKA,263205
152,KARNATAKA VIKAS GRAMEENA BANK,KVGB0002312,MANJARI,"MANJARI BRANCHP.K.P.S. SOCIETY BUILDING,  H. NO. 114, MANJARI - 591 264.  TQ. : CHIKKODI,┬á DIST. : BELGAUM",CHIKKODI,MANJARI,KARNATAKA,252243
153,KARNATAKA VIKAS GRAMEENA BANK,KVGB0002313,NAGARAMUNOLI,"NAGARMUNOLI BRANCH  PANCHAYAT BUILDING, NAGARMUNOLI - TQ. : CHIKKODI,┬á BELGAUM┬á┬á",CHIKKODI,NAGARMUNOLI,KARNATAKA,284456
154,KARNATAKA VIKAS GRAMEENA BANK,KVGB0002314,NIPPANI,"NIPPANI BRANCH┬á┬á┬á┬áKOTEWALE BUILDING, ASHOK NAGAR,  NIPPANI - 591 237.  TQ. : CHIKKODI,┬á DIST. : BELGAUM",CHIKKODI,NIPPANAL,KARNATAKA,221345
155,KARNATAKA VIKAS GRAMEENA BANK,KVGB0002315,PATTANAKUDI,"ATTANAKUDI BRANCHB. A. PATIL BUILDING, WALAKI ROAD,  PATTANAKUDI - 591 238.  TQ. : CHIKKODI,┬á DIST. : BELGAUM┬á┬á┬á┬á┬á┬á┬á┬á┬á",CHIKKODI,PATTANAKUDI,KARNATAKA,221134
156,KARNATAKA VIKAS GRAMEENA BANK,KVGB0002316,YADUR,"YADUR BRANCH┬á┬á┬á┬ôSHIVA KRUPA┬ö┬á SAVADATTI BUILDING,  YADUR - 591 512.  TQ. : CHIKKODI,┬á DIST. : BELGAUM.┬á┬á",CHIKKODI,YADUR,KARNATAKA,258509
157,KARNATAKA VIKAS GRAMEENA BANK,KVGB0002317,EXAMBA,"┬á┬á EXAMBA BRANCH┬á┬á┬á  S.S.MALI BUILDING, TQ: CHIKODI, DIST: BELGAUM",CHIKKODI,EXAMBA,KARNATAKA,276700
158,KARNATAKA VIKAS GRAMEENA BANK,KVGB0002318,GALATAGA,"PATIL BLDG, NEAR BUS STAND GALATAGATQ. CHIKKODI DT: BELGAUM  PIN ┬û 591 219",CHIKKODI,GALATGA,KARNATAKA,0
159,KARNATAKA VIKAS GRAMEENA BANK,KVGB0002319,NEJ,HUCHCHANNAVAR BLDG NEJ TQ. CHIKKODI DT: BELGAUM  PIN ┬û 591 239,CHIKKODI,CHIKODI,KARNATAKA,0
160,KARNATAKA VIKAS GRAMEENA BANK,KVGB0002320,KAROSHI,"NEAR BUS STAND , AT & PO: KAROSHI -591226.TQ. CHIKODI,DIST: BELGAUM",BELGAUM,CHIKODI,KARNATAKA,0
161,KARNATAKA VIKAS GRAMEENA BANK,KVGB0002321,"BASAVA CIRCLE, CHIKKODI","KARNATAKA VIKAS GRAMEENA BANK,├╜├╜VANTAMUTTE BUILDING, CHIKKODI-BIJAPUR MAIN ROAD, CHIKKODI-591201, KARNATAKA",CHIKODI,CHIKODI,KARNATAKA,7022599715
162,KARNATAKA VIKAS GRAMEENA BANK,KVGB0002322,SADALAGA,"CHANDGADE BULDING, NEAR OLD BUS STAND, SADALAGA",BELGAUM,SADALGA,KARNATAKA,9480699690
163,KARNATAKA VIKAS GRAMEENA BANK,KVGB0002324,KHADAKLAT,"KARNATAKA VIKAS GRAMEENA BANK, RAJASHREE BUILDING, CO ANNA LINGAOUDA PATIL, KHADALAKAT TQ CHIKKODI, DT BELGAUM, KARNATAKA",BELGAUM,CHIKODI,KARNATAKA,7022599725
164,KARNATAKA VIKAS GRAMEENA BANK,KVGB0002325,SHIRGOAN,"KARNATAKA VIKAS GRAMEENA BANK, CO BEERAPPA SIDAPPA BANNE, SHIRGAON, TQ CHIKKODI, DT BELGAUM, KARNATAKA",BELGAUM,CHIKODI,KARNATAKA,7022599724
165,KARNATAKA VIKAS GRAMEENA BANK,KVGB0002326,MANGUR,KARNATAKA VIKAS GRAMEENA BANK BRANCH MANGUR TALUK CHIKKODI DIST BELGAUM,BELGAUM,CHIKKODI,KARNATAKA,9480699072
166,KARNATAKA VIKAS GRAMEENA BANK,KVGB0002327,JAGANUR,"PANCHAYAT BUILDING, MAIN ROAD, JAGANUR, TQ CHIKKODI, DIST. BELAGAVI - 591305",BELAGAVI,BELAGAVI,KARNATAKA,0
167,KARNATAKA VIKAS GRAMEENA BANK,KVGB0002401,ARABHAVI,"ARABHAVI BRANCH  AGADI BUILDING ,┬á  NEAR DURADUNDESHWAR MATH, GOKAK-GHATAPRABHAROAD,┬á┬á┬á┬áARABHAVI- 591318. TQ:GOKAK, DIST :BELGAUM",CHIKKODI,ARABHAVI,KARNATAKA,226581
168,KARNATAKA VIKAS GRAMEENA BANK,KVGB0002402,GOKAK,"OKAK BRANCH  WALI BUILDING,  NEAR COURT CIRCLE, GOKAK - 591 307. TQ. : GOKAK,┬á DIST. : BELGAUM.",CHIKKODI,GOKAK,KARNATAKA,227097
169,KARNATAKA VIKAS GRAMEENA BANK,KVGB0002403,KALLOLLI,"KALLOLI BRANCH  PANCHAYAT BUILDING, KALLOLI - 591 224. TQ. : GOKAK,┬á DIST. : BELGAUM.",CHIKKODI,KALLOLLI,KARNATAKA,284626
170,KARNATAKA VIKAS GRAMEENA BANK,KVGB0002404,KHANAGAON,"KHANAGAON BRANCH  PANCHAYAT BUILDING, V. P. C. NO. 408, KHANAGAON - 591 334. TQ. : GOKAK,┬á DIST. : BELGAUM.┬á┬á┬á┬á┬á┬á┬á┬á┬á",CHIKKODI,KHANAGAON,KARNATAKA,233449
171,KARNATAKA VIKAS GRAMEENA BANK,KVGB0002405,KOUJALAGI,"KOUJALAGI BRANCH  SHIVANMARI BUILDING, KOUJALAGI - 591 227. TQ. : GOKAK,┬á DIST. : BELGAUM.┬á┬á┬á┬á┬á┬á┬á┬á┬á",CHIKKODI,KOUJALAGI,KARNATAKA,273219
172,KARNATAKA VIKAS GRAMEENA BANK,KVGB0002406,MAMADAPUR,"MAMADAPUR BRANCH  CHIKKANNAVAR BUILDING, H. NO. 1365, NEAR BUS STAND, MAMADAPUR - 591 233. TQ. : GOKAK,┬á DIST. : BELGAUM┬á",CHIKKODI,MAMADAPUR,KARNATAKA,234245
173,KARNATAKA VIKAS GRAMEENA BANK,KVGB0002407,MUDALAGI,"MUDALAGI BRANCH  TMC NO. 1228, D. P. PHIROJI BUILDING, NEAR BUS STAND, MAIN ROAD, MUDALAGI - 591 312. TQ. : GOKAK,┬á DIST. : BELGAUM",CHIKKODI,MUDALGI,KARNATAKA,251993
174,KARNATAKA VIKAS GRAMEENA BANK,KVGB0002408,NAGANUR,"NAGANUR BRANCH  A.D. KOLUR BUILDING,┬á NAGANUR - 591 319. TQ. : GOKAK,┬á DIST. : BELGAUM.",CHIKKODI,NAGANUR,KARNATAKA,288656
175,KARNATAKA VIKAS GRAMEENA BANK,KVGB0002409,SINDHIKURBET,"SHINDHIKURBET BRANCH  KURBAR SAMAJ BUILDING,  NEAR VITTAL TEMPLE, MAIN ROAD, SHINDHIKURBET - 591 310. TQ.: GOKAK,┬á DT.: BELGAUM.┬á┬á┬á┬á┬á┬á┬á┬á┬á┬á┬á",CHIKKODI,SHINDIKURBET,KARNATAKA,286406
176,KARNATAKA VIKAS GRAMEENA BANK,KVGB0002410,SUNADHOLLI,"UNADHOLI BRANCH ┬á NARAGUND BUILDING, SUNADHOLI - 591 508. TQ. : GOKAK,┬á DIST. : BELGAUM.┬á┬á┬á┬á┬á┬á┬á┬á┬á┬á┬á┬á",CHIKKODI,SUNADHOLI,KARNATAKA,275262
177,KARNATAKA VIKAS GRAMEENA BANK,KVGB0002411,YADAWAD,"DAWAD BRANCH  KALYANI BUILDING, MAIN MARKET ROAD,  YADAWAD. TQ. : GOKAK,┬á DIST. : BELGAUM",CHIKKODI,YADWAD,KARNATAKA,279255
178,KARNATAKA VIKAS GRAMEENA BANK,KVGB0002412,RAJAPUR,C.L.C.BUILDING RAJAPUR TQ. GOKAK PIN ┬û 591 224,CHIKKODI,GOKAK,KARNATAKA,0
179,KARNATAKA VIKAS GRAMEENA BANK,KVGB0002413,ANKALGI,"BHUSANNAVAR BLDG, MAIN ROAD, ANKALAGI. TQ.GOKAK DT: BELGAUM  PIN ┬û 591 101",CHIKKODI,ANKALGI,KARNATAKA,0
180,KARNATAKA VIKAS GRAMEENA BANK,KVGB0002414,KONNUR,KARNATAKAVIKASGRAMEENA BANK DR. KAMMAR BLDG KONNUR TQ.GOKAK DT; BELGAUM  PIN ┬û  591 231,CHIKKODI,KONNUR,KARNATAKA,0
181,KARNATAKA VIKAS GRAMEENA BANK,KVGB0002415,AKKATANGEERAHAL,"KARANATAKA VIKAS GRAMEENA BANK, CO NINGAPPA ADIVEPPA SATIGERI, AKKATANGERHAL, TQ GOKAK, DT BELGAUM, KARNATAKA",BELGAUM,GOKAK,KARNATAKA,7022599726
182,KARNATAKA VIKAS GRAMEENA BANK,KVGB0002416,GHATAPRABHA,KARNATAKA VIKAS GRAMEENA BANK C/O MARUTHI RAJARAM MANE NO 668 MALAPUR PG GHATAPRABHA TALUK GOKAK DIAT BELGAUM 591306,BELGAUM,GOKAK,KARNATAKA,9480699072
183,KARNATAKA VIKAS GRAMEENA BANK,KVGB0002417,HALLUR,KARNATAKA VIKAS GRAMEENA BANK C/O KEMPANNA M ANGADI NEAR GRAM PANCHAYATH HALLUR GOKAK TALUK BELGAUM DIST-591312,BELGAUM,GOKAK,KARNATAKA,9480699072
184,KARNATAKA VIKAS GRAMEENA BANK,KVGB0002418,DURADUNDI,"KARNATAKA VIKAS GRAMEENA BANK, RS 1173/1/A GRAMA PANCHAYAT BUILDING, DURADUNDI TQ GOKAK DIST BELGAVI.PIN 591218",BELGAVI,GOKAK,KARNATAKA,9108699748
185,KARNATAKA VIKAS GRAMEENA BANK,KVGB0002419,URABINAHATTI,"KARNATAKA VIKAS GRAMEENA BANK,NINGANAGOUDA B PATIL BUILDING,AT POST URABINAHATTI,TQ GOKAK,DIST BELAGAVI PINCODE 591122",BELGAVI,GOKAK,KARNATAKA,0
186,KARNATAKA VIKAS GRAMEENA BANK,KVGB0002501,BASAPUR,"BASAPUR BRANCHSHRI LAXMI DEVI BUILDING TEMPLE, BASAPUR-591122.  TQ: HUKKERI, DIST :BELGAUM",BELGAUM,BASAPUR,KARNATAKA,289027
187,KARNATAKA VIKAS GRAMEENA BANK,KVGB0002502,GUDAS,"UDAS BRANCH  J. R. Y. BUILDING,  GUDAS - 591 106. TQ. : HUKKERI,┬á DIST. : BELGAUM.",BELGAUM,GUDAS,KARNATAKA,269228
188,KARNATAKA VIKAS GRAMEENA BANK,KVGB0002503,HIDAKAL-DAM,"HIDKAL-DAM BRANCH  EX. ENGINEERS BUILDING, HIDKAL DAM - 591 107. TQ. : HUKKERI,┬á DIST. : BELGAUM.┬á┬á┬á┬á┬á┬á┬á┬á┬á┬á",BELGAUM,HIDKAL,KARNATAKA,263264
189,KARNATAKA VIKAS GRAMEENA BANK,KVGB0002504,HUKKERI,"HUKKERI BRANCH┬á┬á┬á┬áDESAI BUILDING,  OPP. BUS STAND, HUKKERI - 591 309. TQ. : HUKKERI,┬á DIST. : BELGAUM┬á┬á┬á┬á┬á┬á┬á┬á┬á┬á",BELGAUM,HUKKERI,KARNATAKA,265233
190,KARNATAKA VIKAS GRAMEENA BANK,KVGB0002505,KANAGALE,"KANAGALE BRANCH  H. NO. 942, LAXMI ROAD, KANAGALE - 591 225.┬á┬áTQ. : HUKKERI,┬á DIST. : BELGAUM",BELGAUM,KANAGALE,KARNATAKA,279260
191,KARNATAKA VIKAS GRAMEENA BANK,KVGB0002506,NIDASOSHI,"NIDASOSI BRANCH  S. N. J. P. S. N. M. S. TRUST BUILDING, NIDASOSHI - 591 236.  TQ. : HUKKERI,┬á DIST. : BELGAUM.┬á┬á",BELGAUM,NIDASOSI,KARNATAKA,278606
192,KARNATAKA VIKAS GRAMEENA BANK,KVGB0002507,SANKESWARA,"SANKESHWAR BRANCHNALAWADE COMPLEX, MAIN ROAD,  SANKESHWAR - 591 313.  TQ. : HUKKERI,┬á DIST. : BELGAUM.",BELGAUM,SANKESHWAR,KARNATAKA,273734
193,KARNATAKA VIKAS GRAMEENA BANK,KVGB0002508,BELLAD BAGEWADI,"BELLADA BAGEWADI BRANCH  .  TQ. : HUKKERI,┬á DIST. : BELGAUM.",BELGAUM,BELLAD BAGEWADI,KARNATAKA,267055
194,KARNATAKA VIKAS GRAMEENA BANK,KVGB0002509,NIDASOSHI EC,"THE OFFICER INCHARGE , HIT COLLEGE COMPLEX , NIDASOSHI",BELGAUM,NIDASOSI,KARNATAKA,278688
195,KARNATAKA VIKAS GRAMEENA BANK,KVGB0002510,YADAGUD,GRAM PANCHAYAT BUILDING  YADGUDTQ. HUKKERI  PIN ┬û 591 253,BELGAUM,HUKKERI,KARNATAKA,0
196,KARNATAKA VIKAS GRAMEENA BANK,KVGB0002511,GODAGERI,RAITAR ONI GHODAGERI TQ. HUKKERI DT: BELGAUM PIN ┬û 591 107,BELGAUM,HUKKERI,KARNATAKA,0
197,KARNATAKA VIKAS GRAMEENA BANK,KVGB0002512,AMMANAGI,"GRAMA PANCHAYATH BUILDING, AMMANAGI",BELGAUM,HUKKERI,KARNATAKA,9480699673
198,KARNATAKA VIKAS GRAMEENA BANK,KVGB0002513,SOLAPUR,"KARANATA VIKAS GRAMEENA BANK, S P K P SAHAKARI SANGH BUILDING, NEAR GRAM PANCHYAT BUILDING, TQ HUKKERI DT BELGAUM, KARNATAKA",BELGAUM,HUKKERI,KARNATAKA,7022599728
199,KARNATAKA VIKAS GRAMEENA BANK,KVGB0002514,SULTANPUR,"KARANATA VIKAS GRAMEENA BANK, SR. S D MULLA BUILDING, BASAVESHWAR CIRCLE, SULTANPUR, TQ HUKKERI, DT BELGAUM, KARNATAKA",BELGAUM,HUKKERI,KARNATAKA,7022599729
200,KARNATAKA VIKAS GRAMEENA BANK,KVGB0002601,BEEDI,"BEEDI BRANCH  SRI DAFEDAR BUILDING ,┬á┬á┬á NO.916,┬á BEEDI- 591106. TQ: KHANAPUR, DIST :BELGAUM.",BELGAUM,BIDI,KARNATAKA,256741
201,KARNATAKA VIKAS GRAMEENA BANK,KVGB0002602,GANDIGWAD,"ANDIGAWAD BRANCH  PADMA NIVAS, MAIN ROAD, GANDIGWAD - 591 112. TQ. : KHANAPUR,┬á DIST. : BELGAUM",BELGAUM,GANDIGWAD,KARNATAKA,261049
202,KARNATAKA VIKAS GRAMEENA BANK,KVGB0002603,GARLAGUNJI,"ARLAGUNJI BRANCH  SIDDANI BUILDING, GARLGUNJI - 591 331. TQ. : KHANAPUR,┬á DIST. : BELGAUM.",BELGAUM,GARLAGUNJI,KARNATAKA,260151
203,KARNATAKA VIKAS GRAMEENA BANK,KVGB0002604,GUNJI,"UNJI BRANCH  SRI K. S. KULKARNI BUILDING, LONDA ROAD, GUNJI - 591 302. TQ. : KHANAPUR,┬á DIST. : BELGAUM.",BELGAUM,GUNJI,KARNATAKA,252941
204,KARNATAKA VIKAS GRAMEENA BANK,KVGB0002605,HALASHI,"ALASHI BRANCH  PANCHAYAT BUILDING, HALASHI - 591 142. TQ. : KHANAPUR,┬á DIST. : BELGAUM.",BELGAUM,HALASI,KARNATAKA,236464
205,KARNATAKA VIKAS GRAMEENA BANK,KVGB0002606,JAMBOTI,"JAMBOTI BRANCH  H.NO. 59, KUDATARKAR BUILDING,┬á┬áRAMPUR PETH,JAMBOTI-591302. TQ:KHANAPUR, DIST :BELGAUM.",BELGAUM,JAMBOTI,KARNATAKA,266212
206,KARNATAKA VIKAS GRAMEENA BANK,KVGB0002607,KHANAPUR,"KHANAPUR BRANCH  DAMALE BUILDING, STATION ROAD, KHANAPUR - 591 302. TQ. : KHANAPUR,┬á DIST. : BELGAUM",BELGAUM,KHANAPUR,KARNATAKA,222924
207,KARNATAKA VIKAS GRAMEENA BANK,KVGB0002608,LINGANAMATH,"LINGANAMATH BRANCH  MIRASHI BUILDING, LINGANAMATH - 591 106. TQ. : KHANAPUR,┬á DIST. : BELGAUM.",BELGAUM,LINGANMATH,KARNATAKA,288890
208,KARNATAKA VIKAS GRAMEENA BANK,KVGB0002609,LONDA,"LONDA BRANCH  1ST FLOOR, KALPANA HOTEL BUILDING, NEAR RAILWAY STATION, LONDA - 591 301. TQ. : KHANAPUR,┬á DIST. : BELGAUM.",BELGAUM,LONDA,KARNATAKA,234635
209,KARNATAKA VIKAS GRAMEENA BANK,KVGB0002610,NANDAGAD,"KARNATAKAVIKASGRAMEENA BANK 633,K.C.DINNIMATH BLDG MATH GALLI, NANDGAD TQ. KHANAPURDT. BELGAUM  PIN ┬û 591 120",BELGAUM,NANDGAD,KARNATAKA,0
210,KARNATAKA VIKAS GRAMEENA BANK,KVGB0002611,PARISHWAD,"501, LAVAGI BLDG, NEAR POST OFFICE PARISHWADTQ. KHANAPUR DT: BELGAUM PIN ┬û 591 131",BELGAUM,PARISHWAD,KARNATAKA,0
211,KARNATAKA VIKAS GRAMEENA BANK,KVGB0002701,BHENDAWAD,"BHENDWAD BRANCHPANCHAYAT BUILDING ,┬á┬á┬á┬áBHENDWAD-591318.  TQ:RAIBAG, DIST :BELGAUM",CHIKKODI,BHENDWAD,KARNATAKA,259218
212,KARNATAKA VIKAS GRAMEENA BANK,KVGB0002702,CHINCHALI,"CHINCHALI BRANCHHARUGERI BUILDING ,┬á MAINROAD,┬á┬á┬á┬á CHINCHALI -591217. TQ: RAIBAG, DIST :BELGAUM.",CHIKKODI,CHINCHALI,KARNATAKA,237256
213,KARNATAKA VIKAS GRAMEENA BANK,KVGB0002703,HANDIGUND,"HANDIGUND BRANCHUNAGALL BUILDING,HANDIGUND - 591 235.  TQ. : RAIBAG,┬á DIST. : BELGAUM.",CHIKKODI,HANDIGUND,KARNATAKA,229092
214,KARNATAKA VIKAS GRAMEENA BANK,KVGB0002704,HARUGERI,"HARUGERI BRANCHCHOUGULA BUILDING,  CHANDRAMA TALKIES ROAD,  HARUGERI - 591 220.  TQ. : RAIBAG,┬á DIST. : BELGAUM",CHIKKODI,HARUGERI,KARNATAKA,257341
215,KARNATAKA VIKAS GRAMEENA BANK,KVGB0002705,HIDAKAL,"HIDKAL BRANCHDR. KOKATNUR BUILDING,  HIDKAL - 591 255.  TQ. : RAIBAG,┬á DIST. : BELGAUM.",CHIKKODI,HIDAKAL,KARNATAKA,223043
216,KARNATAKA VIKAS GRAMEENA BANK,KVGB0002706,KANKANAWADI,"KANKANAWADI BRANCH┬ôGANESH KRUPA┬öKANKANWADI - 591 222.  TQ. : RAIBAG,┬á DIST. : BELGAUM.",CHIKKODI,KANKANWADI,KARNATAKA,281007
217,KARNATAKA VIKAS GRAMEENA BANK,KVGB0002707,MEKHALI,"┬á MEKHALI BRANCHKARIGAR BUILDING,  MEKHALI - 591 317.  TQ. : RAIBAG,┬á DIST. : BELGAUM",CHIKKODI,MEKHALI,KARNATAKA,225763
218,KARNATAKA VIKAS GRAMEENA BANK,KVGB0002708,MORAB,"MORAB BRANCH  SHINDAGI BUILDING,BAZAR ROAD,  MORAB - 591 317.  TQ. : RAIBAG,┬á DIST. : BELGAUM",CHIKKODI,MORAB,KARNATAKA,226703
219,KARNATAKA VIKAS GRAMEENA BANK,KVGB0002709,MUGALKHOD,"MUGALKHOD BRANCH ┬á PANCHAYAT BUILDING (JRY),  MUGALKHOD - 591 235.  TQ. : RAIBAG,┬á DIST. : BELGAUM.┬á┬á┬á",CHIKKODI,MUGALKHOD,KARNATAKA,252227
220,KARNATAKA VIKAS GRAMEENA BANK,KVGB0002710,NIPPANAL,"NIPPANAL BRANCH GRAM PANCHAYAT BUILDING, NIPPANAL - 591 222.TQ. : RAIBAG,┬á DIST. : BELGAUM.┬á┬á┬á",CHIKKODI,NIPANI,KARNATAKA,281310
221,KARNATAKA VIKAS GRAMEENA BANK,KVGB0002711,PARAMANANDWADI,"PARAMANDAWADI BRANCH  KOULGUDDA BUILDING, PARAMANANDAWADI - 591 329. TQ. : RAIBAG,┬á DIST. : BELGAUM",CHIKKODI,PARAMANANDAWADI,KARNATAKA,233201
222,KARNATAKA VIKAS GRAMEENA BANK,KVGB0002712,RAIBAG,"RAIBAG BRANCH  C. B. BADORE BUILDING, V. P. C. NO. 1560, ANKALI ROAD, RAIBAG - 591 317. TQ. : RAIBAG,┬á DIST. : BELGAUM.┬á┬á┬á┬á┬á┬á┬á┬á",CHIKKODI,RAIBAG,KARNATAKA,225610
223,KARNATAKA VIKAS GRAMEENA BANK,KVGB0002713,NANDIKURLI,PANCHAYATI BLDG NANDIKURLI TQ. RAIBAG DT: BELGAUM  PIN ┬û 591 317,CHIKKODI,RAIBAG,KARNATAKA,0
224,KARNATAKA VIKAS GRAMEENA BANK,KVGB0002714,ITNAL,GRAMA PANCHAYATH BUILDING ITNAL BRANCH RAIBAG TALUK BELGAUM DIST,BELGAUM,RAIBAG,KARNATAKA,9408699735
225,KARNATAKA VIKAS GRAMEENA BANK,KVGB0002715,PALABHAVI,"NEAR BASAVESHWAR TEMPLE, TEMPLE ROAD, PALABHAVI, TQ RAIBHAG, DIST. BELAGAVI - 591235",BELAGAVI,RAIBHAG,KARNATAKA,0
226,KARNATAKA VIKAS GRAMEENA BANK,KVGB0002801,BATAKURKI,"BATAKURKI BRANCH  MUDHOLI BUILDING,┬á LOKAPURROAD┬á  BATAKURKI-591151.  TQ: RAMDURG, DIST :BELGAUM",BELGAUM,BATAKURKI,KARNATAKA,263624
227,KARNATAKA VIKAS GRAMEENA BANK,KVGB0002802,HOSAKOTI,"HOSAKOTI BRANCH  L. S. KOLACHE BUILDING, NEAR BUS STAND,  HOSAKOTI - 591 187.  TQ. : RAMDURG,┬á DIST. : BELGAUM.",BELGAUM,HOSAKOTI,KARNATAKA,256238
228,KARNATAKA VIKAS GRAMEENA BANK,KVGB0002803,HULKUND,"HULKUND BRANCH  MAIN ROAD, HULKUND - 591 160.  TQ. : RAMDURG, ┬áDIST. : BELGAUM┬á┬á",BELGAUM,HULKUND,KARNATAKA,288243
229,KARNATAKA VIKAS GRAMEENA BANK,KVGB0002804,KATKOL,"KATKOL BRANCH  SHETTISADAURTI BUILDING, BAZAR ROAD, KATKOL - 591 114.  TQ. : RAMDURG,┬á DIST. : BELGAUM.",BELGAUM,KATKOL,KARNATAKA,262161
230,KARNATAKA VIKAS GRAMEENA BANK,KVGB0002805,RAMADURGA,"RAMDURG BRANCH  HALYAL BUILDING, JUNIPETH,  RAMADURG - 591 123.  TQ. : RAMADURG,┬á DIST. : BELGAUM.",BELGAUM,RAMDURG,KARNATAKA,242375
231,KARNATAKA VIKAS GRAMEENA BANK,KVGB0002806,SALAHALLI,"SALAHALLI BRANCH  BATAKURKI BUILDING, SALAHALLI - 591 130. TQ. : RAMADURG,┬á DIST. : BELGAUM.",BELGAUM,SALAHALLI,KARNATAKA,273051
232,KARNATAKA VIKAS GRAMEENA BANK,KVGB0002807,CHUNCHANUR,GRAM PANCHAYAT BUILDING CHUNCHANUR TQ. RAMDURG PIN ┬û 591 703,BELGAUM,RAMDURG,KARNATAKA,0
233,KARNATAKA VIKAS GRAMEENA BANK,KVGB0002808,MUDAKAVI,"KVGB MUDAKAVI, TQ RAMDURG BELGAUM",BELGAUM,RAMDURG,KARNATAKA,9108699761
234,KARNATAKA VIKAS GRAMEENA BANK,KVGB0002809,K JUNIPETH,KARNATAKA VIKAS GRAMEENA BANK SHIRAJ G MAHAT AT POST K JUNIPETH TQ RAMADURG DIST BELGAUM PIN-591123,BELGAUM,RAMADURG,KARNATAKA,9108699802
235,KARNATAKA VIKAS GRAMEENA BANK,KVGB0002901,HANCHINAL,"HANCHINAL BRANCH V. P. C. NO. 924  HULAGANNAVAR BUILDING, MAIN ROAD, HANCHINAL - 591 157. TQ. : SAUNDATTI,┬á DIST. : BELGAUM┬á",BELGAUM,HANCHINAL,KARNATAKA,284349
236,KARNATAKA VIKAS GRAMEENA BANK,KVGB0002902,HOSUR,"HOSUR BRANCH┬á┬á┬áPATIL BUILDING, MAIN ROAD, HOSUR - 591 111. TQ. : SAUNDATTI,┬á DIST. : BELGAUM.",BELGAUM,HOSUR,KARNATAKA,258409
237,KARNATAKA VIKAS GRAMEENA BANK,KVGB0002903,HULIKATTI,"HULIKATTI BRANCH┬á┬á ADRUSHANNAVAR BUILDING, NEAR BUS STAND, HULIKATTI - 591 126  TQ. : SAUNDATTI,┬á DIST. : BELGAUM┬á┬á┬á┬á┬á┬á┬á",BELGAUM,HULIKATTI,KARNATAKA,266703
238,KARNATAKA VIKAS GRAMEENA BANK,KVGB0002904,INAMHONGAL,"┬á  INAM-HONGAL BRANCH┬á  MAIN ROAD, INAMHONGAL - 591 162. TQ. : SAVADATTI,┬á DIST. : BELGAUM.",BELGAUM,INAMHONGAL,KARNATAKA,286133
239,KARNATAKA VIKAS GRAMEENA BANK,KVGB0002905,INCHAL,"INCHAL BRANCH  SHIVANAND BHARATHI  SWAMIJI MATH BUILDING, INCHAL - 591 126.  TQ. : SAUNDATTI,┬á DIST. : BELGAUM.",BELGAUM,INCHAL,KARNATAKA,244926
240,KARNATAKA VIKAS GRAMEENA BANK,KVGB0002906,MUNAVALLI,"KARNATAKA VIKAS GRAMEENA BANK  MUNAVALLI BRANCH  HOTEL SHIVA BUILDING, YARAGATTI ROAD, MUNAVALLI - 591 117. TQ. : SOUNDATTI,  DIST. : BELGAUM",BELGAUM,MUNAVALLI,KARNATAKA,277330
241,KARNATAKA VIKAS GRAMEENA BANK,KVGB0002907,SIRASANGI,"SIRASANGI BRANCHKALAL BUILDING, SIRASANGI - 591 126. TQ. : SAVADATTI,┬á DIST. : BELGAUM.┬á",BELGAUM,SIRASANGI,KARNATAKA,231137
242,KARNATAKA VIKAS GRAMEENA BANK,KVGB0002908,SOUNDATTI,"SOUNDATTI BRANCH  INGALAGI BUILDING, MAIN ROAD, SOUNDATTI - 591 126. TQ. : SOUNDATTI,┬á DIST. : BELGAUM.┬á┬á┬á",BELGAUM,SAUNDATTI,KARNATAKA,223892
243,KARNATAKA VIKAS GRAMEENA BANK,KVGB0002909,TALLUR,"TALLUR BRANCH ┬á UPPIN BUILDING,OPP. BUS STAND, TALLUR - 591 170. TQ. : SAVADATTI,┬á DIST. : BELGAUM.┬á┬á┬á",BELGAUM,TALLUR,KARNATAKA,248733
244,KARNATAKA VIKAS GRAMEENA BANK,KVGB0002910,UGARGOL,"UGARGOL BRANCH┬á┬á┬á┬áSRI BASAVESHWAR DEVASTHAN BUILDING, UGARGOL - 591 196. TQ. : SAVADATTI,┬á DIST. : BELGAUM┬á┬á┬á┬á┬á┬á┬á┬á",BELGAUM,UGARGOL,KARNATAKA,294368
245,KARNATAKA VIKAS GRAMEENA BANK,KVGB0002911,YAKKUNDI,"JAKKANVAR BUILDING YAKKUNDI TQ: SOUNDATTI, DIST; BELGAUM",BELGAUM,YAKKUNDI,KARNATAKA,242526
246,KARNATAKA VIKAS GRAMEENA BANK,KVGB0002912,YARAGATTI,REBBANAVAR COMPLEX< GOKAK ROAD YARAGATTI TQ.SOUNDATTI PIN- 591 129,BELGAUM,YARAGATTI,KARNATAKA,254968
247,KARNATAKA VIKAS GRAMEENA BANK,KVGB0002913,ASUNDI,PANCHAYAT BUILDING ASUNDI  TQ.SOUNDATTI DT: BELGAUM PIN ┬û 591 126,BELGAUM,SAUNDATTI,KARNATAKA,0
248,KARNATAKA VIKAS GRAMEENA BANK,KVGB0002914,MURAGOD,"HOUSE NO. 419, OPPOSITE BUS STAND, MURAGOD",BELGAUM,MURGOD,KARNATAKA,9480699687
249,KARNATAKA VIKAS GRAMEENA BANK,KVGB0002915,HOOLI,"KARNATAKA VIKAS GRAMEEN BANK, HOOLI UNNE UTPADAKAR KAIGARIKA SAHAKARI SANGH LTD, HOOLI, TQ SOUNDATTI, DT BELGAUM, KARNATAKA",BELGAUM,SAUNDATTI,KARNATAKA,7022599730
250,KARNATAKA VIKAS GRAMEENA BANK,KVGB0002916,SATTIGERI,"KARNATAKA VIKAS GRAMEEN BANK, ANGADI BUILDING, NEAR BUS STAND, TQ SAUNDATTI, DT BELGAUM, KARNATAKA",BELGAUM,SAUNDATTI,KARNATAKA,7022599731
251,KARNATAKA VIKAS GRAMEENA BANK,KVGB0003000,BIJAPUR R O,"REGIONAL MANAGER,KARNATAKA VIKAS GRAMEENA BANK,RO,VIVEK NAGAR WEST,BAGEWADI ROAD,BIJAPUR.586101",BIJAPUR,BIJAPUR,KARNATAKA,0
252,KARNATAKA VIKAS GRAMEENA BANK,KVGB0003001,BASAVAN BAGEWADI,"BASAVANA BAGEWADI BRANCH SAJJAN BUILDING,  CTS 3117, INGALESHWAR CROSS ROAD,BASAVANA BAGEWADI - 586 203, TQ: BASAVANA BAGEWADIDIST :BIJAPUR.",BIJAPUR,BASAVANA BAGEVADI,KARNATAKA,245306
253,KARNATAKA VIKAS GRAMEENA BANK,KVGB0003002,ITAGI,"ITAGI BRANCH S.S.SAJJAN BUILDING, DOOR NO.502, MAIN ROAD,ITAGI - 586 213,TQ : BASAVANA BAGEWADI. DIST :BIJAPUR.",BIJAPUR,ITAGI,KARNATAKA,275041
254,KARNATAKA VIKAS GRAMEENA BANK,KVGB0003003,KOLHAR,"KOLHAR BRANCH  MAIN ROAD, KOLHAR - 586 210, TQ : BASAVANA BAGEWADI. DIST :BIJAPUR.",BIJAPUR,KOLHAR,KARNATAKA,283028
255,KARNATAKA VIKAS GRAMEENA BANK,KVGB0003004,MASUTI,"ASUTI BRANCH S.S.PATIL BUILDING, DOOR NO.4,NEAR BUS STAND MASUTI - 586 150, TQ : BASAVANA BAGEWADI DIST :BIJAPUR.",BIJAPUR,MASUTI,KARNATAKA,288051
256,KARNATAKA VIKAS GRAMEENA BANK,KVGB0003005,MULAWAD,"MULWAD BRANCH GRAM PANCHAYAT, MULWAD - 586 149, TQ : BASAVANA BAGEWADI. DIST :BIJAPUR.",BIJAPUR,MULAWAD,KARNATAKA,289036
257,KARNATAKA VIKAS GRAMEENA BANK,KVGB0003006,MUTTAGI,",  MUTTAGI BRANCH  B.C.CHIMMALAGI┬ÆS  BLDG, D.NO.245/1, BUS STAND ROAD, MUTTAGI - 586 232, TQ : BASAVANA BAGEWADI. DIST :BIJAPUR. PH.NO.08426-284121",BIJAPUR,MUTTAGI,KARNATAKA,284121
258,KARNATAKA VIKAS GRAMEENA BANK,KVGB0003007,UKKALI,"UKKALI BRANCH B.N.JUMANAL BUILDING, UKKALI - 586 152, 1TQ : BASAVANA BAGEWADI DIST :BIJAPUR.",BIJAPUR,UKKALI,KARNATAKA,249527
259,KARNATAKA VIKAS GRAMEENA BANK,KVGB0003008,NIDAGUNDI-BJP,"NIDAGUNDI BRANCH  KEMBHAVI BUILDING,  NEAR MUDDEBIHAL CIRCLE , NIDAGUNDI - 586 213, TQ : BASAVAN BAGEWADI. DIST :BIJAPUR",BIJAPUR,NIDAGUNDI,KARNATAKA,281826
260,KARNATAKA VIKAS GRAMEENA BANK,KVGB0003009,KUDIGI,HANUMAN DEVASTHAN MANGAL BHAVAN A/P: KUDAGI TQ. BASAVAN BAGEWADI DT: BIJAPUR PIN ┬û 586 121,BIJAPUR,BASAVANA BAGEVADI,KARNATAKA,0
261,KARNATAKA VIKAS GRAMEENA BANK,KVGB0003010,MANAGULI,PANCHAYAT BUILDING MANGULI TQ. BASAVAN BAGEWADI  DT: BIJAPUR PIN ┬û 586 112,BIJAPUR,MANAGULI,KARNATAKA,0
262,KARNATAKA VIKAS GRAMEENA BANK,KVGB0003011,HRS-RC CENTER,"SRI M S KURI BUILDING, MAIN ROAD ,HRS- RC CENTRE- 586210, TQ: BASAVANABAGEWADI, DT:BIJAPUR",BIJAPUR,BASAVANA BAGEVADI,KARNATAKA,0
263,KARNATAKA VIKAS GRAMEENA BANK,KVGB0003012,KUDARE SALAWADAGI,"KARNATAKA VIKAS GRAMEENA BANK,BM DESI BUILDING , MIN ROAD, AT POST UDE SLWDGI, TQ BASAVAN BAGEWADI,DIST VIJAYAPUR",VIJAYAPUR,BIJAPUR,KARNATAKA,9606080484
264,KARNATAKA VIKAS GRAMEENA BANK,KVGB0003101,ARJUNAGI,"ARJUNAGI BRANCH DESAI BUILDING,  D.NO.260/A, MAIN ROAD,  ARJUNAGI - 586 113, TQ: BIJAPUR DIST:BIJAPUR.",BIJAPUR,ARJUNAGI,KARNATAKA,288734
265,KARNATAKA VIKAS GRAMEENA BANK,KVGB0003102,BIJAPUR,"BIJAPUR MAIN BRANCH  APTE BUILDING, MEENAKSHI CHOWK, BIJAPUR - 586 101, TQ: BIJAPUR DIST:BIJAPUR.",BIJAPUR,BIJAPUR,KARNATAKA,252327
266,KARNATAKA VIKAS GRAMEENA BANK,KVGB0003103,HONAWAD,"HONNUTAGI BRANCH  MAIN ROAD, HONNUTAGI - 586 127, TQ: DIST:BIJAPUR.",BIJAPUR,HONWAD,KARNATAKA,233963
267,KARNATAKA VIKAS GRAMEENA BANK,KVGB0003104,HONNUTAGI,"HONAWAD BRANCH  U.P.GOKHALE  BUILDING, HONAWAD - 586 130, TQ: BIJAPUR DIST:BIJAPUR.",BIJAPUR,HONNUTAGI,KARNATAKA,236033
268,KARNATAKA VIKAS GRAMEENA BANK,KVGB0003105,JAINAPUR,"JAINAPUR BRANCH JAINAPUR - 586 102, TQ: BIJAPUR DIST:BIJAPUR.",BIJAPUR,JAINAPUR,KARNATAKA,285357
269,KARNATAKA VIKAS GRAMEENA BANK,KVGB0003106,JAMBAGI,"JAMBAGI BRANCH G.S.HUGAR BUILDING,VPC NO. 59/1,59/2,  WARD NO. 2, JAMBAGI  - 586 112,TQ: BIJAPUR DIST:BIJAPUR.",BIJAPUR,JAMBAGI(A),KARNATAKA,239534
270,KARNATAKA VIKAS GRAMEENA BANK,KVGB0003107,KANAMADI,"KANAMADI BRANCH KALYANI┬ÆS BUILDING,H.NO.768, MAIN ROAD, KANAMADI - 586 138,TQ: BIJAPUR DIST :BIJAPUR.",BIJAPUR,KANAMADI,KARNATAKA,238042
271,KARNATAKA VIKAS GRAMEENA BANK,KVGB0003108,NAGATHAN,"NAGATHAN BRANCH  METRI'S BUILDING, NAGATHAN - 586 161,TQ: BIJAPUR DIST:BIJAPUR.",BIJAPUR,NAGATHAN,KARNATAKA,232250
272,KARNATAKA VIKAS GRAMEENA BANK,KVGB0003109,SARAWAD,"SARAWAD BRANCH  NEAR GRAM PANCHAYAT OFFICE  SARAWAD - 586 125, TQ: BIJAPUR DIST:BIJAPUR",BIJAPUR,SARAWAD,KARNATAKA,287727
273,KARNATAKA VIKAS GRAMEENA BANK,KVGB0003110,TIKOTA,"TIKOTA BRANCH CHATRE BUILDING, D.G.CHATRE BUILDING TIKOTA - 586 130,TQ BIJAPUR DIST:BIJAPUR.",BIJAPUR,TIKOTA,KARNATAKA,231560
274,KARNATAKA VIKAS GRAMEENA BANK,KVGB0003111,VIVEKNAGAR,"BIJAPUR-VIVEKNAGAR BRANCH  VIVEKNAGAR (WEST), BASAVANA BAGEWADI ROAD, BIJAPUR ┬û 586 101",BIJAPUR,BIJAPUR,KARNATAKA,278598
275,KARNATAKA VIKAS GRAMEENA BANK,KVGB0003112,BABALESHWAR,"BABALESHWAR BRANCH G N KOKARE BUILDING,  BABALESHWAR - 586 113, TQ :BIJAPUR. DIST :BIJAPUR.",BIJAPUR,BABALESHWAR,KARNATAKA,283071
276,KARNATAKA VIKAS GRAMEENA BANK,KVGB0003113,ASHRAM ROAD-BIJAPUR,"ASHRAM ROAD BRANCH JADIMATH COMPLEX, NEAR BLDE MEDICAL COLLEGE, ASHRAM ROAD. TQ: BIJAPUR DIST:BIJAPUR",BIJAPUR,BIJAPUR,KARNATAKA,260600
277,KARNATAKA VIKAS GRAMEENA BANK,KVGB0003114,SAINIK SCHOOL RD BJP,"SAINIK SCHOOL BRANCH MUNDARGI BUILDING, SHASTRI NAGAR,SAINIK SCHOOL ROAD. TQ: BIJAPUR DIST:BIJAPUR",BIJAPUR,BIJAPUR,KARNATAKA,270206
278,KARNATAKA VIKAS GRAMEENA BANK,KVGB0003115,DEVARAGENNUR,"MAHALAXMI DEVASTHAN BLDG, DEVARAGENNUR TQ & DT. BIJAPUR",BIJAPUR,BIJAPUR,KARNATAKA,0
279,KARNATAKA VIKAS GRAMEENA BANK,KVGB0003116,STATION RD BIJAPUR,"KOTAGI BLDG, NEAR LIC OFFICE< MUKUND NAHGAR STATION ROAD BIJAPUR",BIJAPUR,BIJAPUR,KARNATAKA,0
280,KARNATAKA VIKAS GRAMEENA BANK,KVGB0003117,TAJPUR,S I NIDONI BLDG TAJPUR(H) TQ. BIJAPUR,BIJAPUR,BIJAPUR,KARNATAKA,0
281,KARNATAKA VIKAS GRAMEENA BANK,KVGB0003118,TORAVI,"SMT S H ALAGUR BUILDING ,ATHANI ROAD, TORAVI-586106 ,TQ: BIJAPUR, DT BIJAPUR",BIJAPUR,BIJAPUR,KARNATAKA,0
282,KARNATAKA VIKAS GRAMEENA BANK,KVGB0003119,SHOLAPUR ROAD BIJAPUR,"SOLAPUR ROAD  ,BANJARA CROSS , NEAR PETROL BANK , BIJAPUR ,TQ& DT : BIJAPUR",BIJAPUR,BIJAPUR,KARNATAKA,0
283,KARNATAKA VIKAS GRAMEENA BANK,KVGB0003120,GUNADAL,"B K SALINKE BUILDING, DOOR NO. 210, GUNADAL",BIJAPUR,BIJAPUR,KARNATAKA,9480699672
284,KARNATAKA VIKAS GRAMEENA BANK,KVGB0003121,"VAJRA HANUMAN NAGAR, BIJAPUR","KARNATAKA VIKAS GRAMEENA BANK, SRI M S KAMALAPUR BUILDING, NEAR SAINT JOSEPH SCHOOL, MAIN ROAD, VAJRA HANUMAN NAGAR, BIJAPUR 586103, KARNATAKA",BIJAPUR,BIJAPUR,KARNATAKA,7022599716
285,KARNATAKA VIKAS GRAMEENA BANK,KVGB0003122,DARGA ROAD,KARNATAKA VIKAS GRAMEENA BANK BRANCH DARGA ROAD NAIK BUILDING MANASA RESIDENTIAL DARGA ROAD VIJAYAPUR-586101,BIJAPUR,BIJAPUR,KARNATAKA,9108699793
286,KARNATAKA VIKAS GRAMEENA BANK,KVGB0003201,BHATAGUNAKI,"BHATAGUNAKI BRANCH  MAIN ROAD, BHATAGUNAKI -586 227 TQ : INDI  DIST :BIJAPUR",BIJAPUR,BHATAGUNAKI,KARNATAKA,288701
287,KARNATAKA VIKAS GRAMEENA BANK,KVGB0003202,DHULAKHED,"DULKHED BRANCH Z.P.BUILDING, BIJAPUR-SOLAPUR ROAD,DHULKHED - 586 207,TQ : INDIDIST :BIJAPUR",BIJAPUR,DHULAKHED,KARNATAKA,280518
288,KARNATAKA VIKAS GRAMEENA BANK,KVGB0003203,INDI,"INDI BRANCH R.D.SHAH BUILDING,MAIN ROAD, NEAR BUS STAND, INDI - 586 209  TQ : INDI DIST :BIJAPUR",BIJAPUR,INDI,KARNATAKA,225836
289,KARNATAKA VIKAS GRAMEENA BANK,KVGB0003204,JIGAJIVANI,"JIGAJIVANI BRANCH Z.P.BUILDING, MAIN ROAD,JIGAJIVANI ┬û 586 204,TQ : INDIDIST :BIJAPUR",BIJAPUR,JIGAJEEVANI,KARNATAKA,275016
290,KARNATAKA VIKAS GRAMEENA BANK,KVGB0003205,LONI BK,"DONI B.K. BRANCH KORE'S  BUILDING,LONI B.K. - 586 204,TQ : INDIDIST :BIJAPUR",BIJAPUR,LONI(B.K.),KARNATAKA,276606
291,KARNATAKA VIKAS GRAMEENA BANK,KVGB0003206,NAD BK,"NAD B.K. BRANCH MAIN ROAD,NAD B.K. - 586 217 TQ : INDI DIST :BIJAPUR",BIJAPUR,NAD(B.K.),KARNATAKA,240219
292,KARNATAKA VIKAS GRAMEENA BANK,KVGB0003207,CHADACHAN,"SRI K B PATIL, COMPLEX, PANDHARPUR ROAD, CHADCHAN-586205",BIJAPUR,CHADCHAN,KARNATAKA,278600
293,KARNATAKA VIKAS GRAMEENA BANK,KVGB0003208,KHEDAGI,H G MIRAGI BLDG A/P KHEDAGI TQ.INDI DT BIJAPUR PIN - 586 218,BIJAPUR,INDI,KARNATAKA,0
294,KARNATAKA VIKAS GRAMEENA BANK,KVGB0003209,UMARANI,GRAM PANCHAYAT BUILDING UMRANI TQ. INDI PIN - 586 205,BIJAPUR,INDI,KARNATAKA,0
295,KARNATAKA VIKAS GRAMEENA BANK,KVGB0003210,TAMBA,"PADMAVATI BLDG,MAIN ROAD, TAMBA TQ. INDI DT: BIJAPUR  PIN ┬û 586 215",BIJAPUR,TAMBA,KARNATAKA,0
296,KARNATAKA VIKAS GRAMEENA BANK,KVGB0003211,SHIRSHYAD,KARNATAKA VIKAS GRAMEENA BANK BRANCH SHIRSHYAD TALUK INDI DIST BIJAPUR 586217,BIJAPUR,INDI,KARNATAKA,0
297,KARNATAKA VIKAS GRAMEENA BANK,KVGB0003212,MASALI BK,"GRAM PANCHAYAT BUILDING, MASALI BK,TQ- INDI, DIST VIJAYAPUR, PIN CODE - 586215",VIJAYAPUR,MASALI BK,KARNATAKA,9480699046
298,KARNATAKA VIKAS GRAMEENA BANK,KVGB0003213,SATALAGAON P I,"KARNATAKA VIKAS GRAMEENA BANK, GRAM PANCHAYAT BUILDING, TQINDI, DIST VIJAYAPUR PINCODE 586217",VIJAYAPUR,BIKAPUR,KARNATAKA,9606080482
299,KARNATAKA VIKAS GRAMEENA BANK,KVGB0003301,ALUR,"ALUR BRANCH GRAM PANCHAYAT BUILDING, ALUR - 586 129 TQ : MUDDEBIHAL. DIST :BIJAPUR.",BIJAPUR,ALUR,KARNATAKA,234072
300,KARNATAKA VIKAS GRAMEENA BANK,KVGB0003302,MINAJAGI,"MINAJAGI BRANCH BENNUR'S BUILDING, D.NO.344, TAILKOTI-MUDDEBIHAL ROAD, MINAJAGI - 586 214, TQ : MUDDEBIHAL. DIST :BIJAPUR.",BIJAPUR,MINAJAGI,KARNATAKA,266434
301,KARNATAKA VIKAS GRAMEENA BANK,KVGB0003303,MUDDEBIHAL,"MUDDEBIHAL BRANCH VVV SANGH┬ÆS GIRLS HIGH SCHOOL BLDG. MAIN ROAD, NEAR : BUS STAND,MUDDEBIHAL.",BIJAPUR,MUDDEBIHAL,KARNATAKA,221963
302,KARNATAKA VIKAS GRAMEENA BANK,KVGB0003304,TALIKOTI,"TALIKOT BRANCH BILEBHAVI BUILDING APMC YARD,  TALIKOT TQ: MUDDEBIHAL  DIST:BIJAPUR",BIJAPUR,TALIKOTI,KARNATAKA,266579
303,KARNATAKA VIKAS GRAMEENA BANK,KVGB0003305,HULLUR,"R B KONDIKATTI BUILDING, DOOR NO. 441, HULLUR",BIJAPUR,MUDDEBIHAL,KARNATAKA,9480699688
304,KARNATAKA VIKAS GRAMEENA BANK,KVGB0003306,RAKKASAGI,"KARNATAKA VIKAS GRAMEENA BANK, GRAM PANCHAYAT BUILDING, RAKKASAGI, TQ MUDDEBIHAL, DT VIJAYAPUR",BIJAPUR,MUDDEBIHAL,KARNATAKA,2442204
305,KARNATAKA VIKAS GRAMEENA BANK,KVGB0003307,NALATAWAD,"KARNATAKA VIKAS GRAMEENA BANK, M M MENEDALMATH BUILDING, AT POST NALATAWAD,TQ MUDDEBIHAL,DIST VIJAYAPUR PINCODE 586124",VIJAYAPUR,BIKAPUR,KARNATAKA,9606080483
306,KARNATAKA VIKAS GRAMEENA BANK,KVGB0003308,HIRUR,"AT PO HIRUR, MUDDEBIHAL TALUKA, BIJAPUR DIST",VIJAYAPUR,BIKAPUR,KARNATAKA,9606080490
307,KARNATAKA VIKAS GRAMEENA BANK,KVGB0003401,ALMEL,", ALMEL BRANCH M.B.TAMBOLI BUILDING,D.NO.1158/3, WARD NO.3, MAIN ROAD,ALMEL - 586 202, TQ: SINDAGI. DIST :BIJAPUR",BIJAPUR,ALMEL,KARNATAKA,232118
308,KARNATAKA VIKAS GRAMEENA BANK,KVGB0003402,ASKI,", 1ASKI BRANCH PATIL BUILDING, D.NO.256, MAIN ROAD, ASKI ┬û586118 TQ: SINDAGI. DIST :BIJAPUR",BIJAPUR,ASKI,KARNATAKA,273636
309,KARNATAKA VIKAS GRAMEENA BANK,KVGB0003403,BALAGANUR,", BALAGANUR BRANCH CHOUDESHWAR TEMPLE BUILDING, MAIN ROAD, BALAGANUR┬û 586128,TQ: SINDAGI. DIST :BIJAPUR",BIJAPUR,BALAGANUR,KARNATAKA,237001
310,KARNATAKA VIKAS GRAMEENA BANK,KVGB0003404,CHANDAKAVATE,"CHANDKAWATE BRANCH D.G.PATIL'S BUILDING,D.NO.91, MAIN ROAD, CHANDAKAVATE - 586 143, TQ: SINDAGI.DIST :BIJAPUR",BIJAPUR,CHANDKAVATHE,KARNATAKA,224403
311,KARNATAKA VIKAS GRAMEENA BANK,KVGB0003405,CHIKRUGI,"CHIKKA RUGI BRANCH A.B.CHANDAKI BUILDING HOUSE NO.49, MAIN ROAD, CHIKKA RUGI ┬û 586 215, TQ: SINDAGI. DIST :BIJAPUR",BIJAPUR,RUGI,KARNATAKA,285060
312,KARNATAKA VIKAS GRAMEENA BANK,KVGB0003406,DEVANAGAON,"DEVANAGAON BRANCH GRAM PANCHAYAT BLDG,816/3, MAIN ROAD,DEVANAGAON-586 206, TQ: SINDAGI. DIST :BIJAPUR",BIJAPUR,DEVANGAO,KARNATAKA,234409
313,KARNATAKA VIKAS GRAMEENA BANK,KVGB0003407,DEVARA NAVADAGI,"DEVARANAVADAGI BRANCH KULKARNI'S BUILDING,D.NO.111, MAIN ROAD,DEVARA NAVADAGI - 586 206,TQ: SINDAGI. DIST :BIJAPUR",BIJAPUR,DEVARNAVADGI,KARNATAKA,234563
314,KARNATAKA VIKAS GRAMEENA BANK,KVGB0003408,GABASAVALAGI,"GABASAVALAGI GRAM PANCHAYAT BLDG, D.NO.44, MAIN ROAD, GABASAVALAGI-586123, TQ: SINDAGI  DIST :BIJAPUR",BIJAPUR,GABASAVALGI,KARNATAKA,220183
315,KARNATAKA VIKAS GRAMEENA BANK,KVGB0003409,GOLAGERI,"GOLAGERI BRANCH PATIL'S BUILDING, NEAR BUS STAND, GOLAGERI ┬û 586 169, TQ: SINDAGI. DIST :BIJAPUR",BIJAPUR,GOLGERI,KARNATAKA,275562
316,KARNATAKA VIKAS GRAMEENA BANK,KVGB0003410,GUBBEWAD,",GUBBEWAD BRANCH G.S.MANGALAGI BUILDING,MAIN ROAD,GUBBEWAD - 586 128, TQ: SINDAGI  DIST :BIJAPUR",BIJAPUR,GUBBEWAD,KARNATAKA,275770
317,KARNATAKA VIKAS GRAMEENA BANK,KVGB0003411,JALAWAD,",JALAWAD BRANCH U.H.MANNUR'S BUILDING,MAIN ROAD,JALAWAD ┬û 586 120,TQ: SINDAGI. DIST :BIJAPUR",BIJAPUR,JALWAD,KARNATAKA,276001
318,KARNATAKA VIKAS GRAMEENA BANK,KVGB0003412,KANNOLI,"KANNOLLI BRANCH P.Y.JANGINAMATH'S BLDG,D.NO.535, MAIN ROAD,KANNOLLI - 586 115,TQ: SINDAGI. DIST :BIJAPUR",BIJAPUR,KANNOLLI,KARNATAKA,284322
319,KARNATAKA VIKAS GRAMEENA BANK,KVGB0003413,KONDAGULI,",KONDAGULI BRANCH PATIL BUILDING,D.NO.96/477, MAIN ROAD,KONDAGULI - 586 120,TQ: SINDAGI. DIST :BIJAPUR",BIJAPUR,KONDGULI,KARNATAKA,271202
320,KARNATAKA VIKAS GRAMEENA BANK,KVGB0003414,MALAGHAN,", MALAGHAN BRANCH S.G. DESAI  BUILDING, MALAGHAN - 586 128, TQ: SINDAGI  DIST :BIJAPUR",BIJAPUR,MALAGHAN,KARNATAKA,235124
321,KARNATAKA VIKAS GRAMEENA BANK,KVGB0003415,SINDAGI,", SINDAGI BRANCH  SMT.G.M.PATIL BLDG, BIJAPUR ROAD  SINDAGI. TQ : SINDAGI, DIST :BIJAPUR",BIJAPUR,SINDGI,KARNATAKA,221425
322,KARNATAKA VIKAS GRAMEENA BANK,KVGB0003416,YANKANCHI,", YANKANCHI BRANCH M.M.DAMBAL BUILDING,DOOR NO. 692, YANKANCHI - 586 144, TQ: SINDAGI. DIST :BIJAPUR",BIJAPUR,YANKANCHI,KARNATAKA,236001
323,KARNATAKA VIKAS GRAMEENA BANK,KVGB0003417,YARAGAL BK,"YARAGAL B.K. BRANCH GRAM PANCHAYAT BLDG, D.NO.1,MAIN BAZAR ROAD, YARAGAL B.K- 586123, TQ: SINDAGI. DIST :BIJAPUR",BIJAPUR,YARGAL(BK),KARNATAKA,235050
324,KARNATAKA VIKAS GRAMEENA BANK,KVGB0003418,KADANI,"SMT J A KATTI BLDG, KADANI TQ. SINDAGI DT. BIJAPUR",BIJAPUR,SINDGI,KARNATAKA,0
325,KARNATAKA VIKAS GRAMEENA BANK,KVGB0003419,HONNALLI,GRAM PANCHAYAT BUILDING HONNALLI TQ.SINDAGI PIN ┬û586 128,BIJAPUR,SINDGI,KARNATAKA,0
326,KARNATAKA VIKAS GRAMEENA BANK,KVGB0003420,MORATAGI,"TIWARI  ADAT COMPLEX,AT/PO: MORATAGI -586123, TQ. SINDAGI, DIST: BIJAPUR",BIJAPUR,SINDGI,KARNATAKA,0
327,KARNATAKA VIKAS GRAMEENA BANK,KVGB0003421,DEVARAHIPPARAGI,"KARNATAKA VIKAS GRAMEENA BANK, SRI. SIDDESHWAR JANA KALYAN SANSTHE BUILDING, DEVAR HIPPARAGI, TQ SINDAGI, DT BIJAPUR, KARNATAKA",BIJAPUR,SINDGI,KARNATAKA,7022599737
328,KARNATAKA VIKAS GRAMEENA BANK,KVGB0003422,SUNGATHAN,"KARNATAKA VIKAS GRAMEENA BANK, I S BIRADAR BUILDING, VPC NO. 85 B, SUNGATHAN, TQ SINDAGI, DT VIJAYAPUR",BIJAPUR,SINDGI,KARNATAKA,2442204
329,KARNATAKA VIKAS GRAMEENA BANK,KVGB0003423,YALGOD,B S PATTAR BUILDING AT PO YALGOD,VIJAYAPUR,YALGOD,KARNATAKA,9108699764
330,KARNATAKA VIKAS GRAMEENA BANK,KVGB0003424,KOKATNUR,"GRAM PANCHAYAT BUILDING, KOKATNUR, TQ- SINDAGI DIST VIJAYAPUR, PIN CODE - 599370",VIJAYAPUR,KOKATNUR,KARNATAKA,9480699046
331,KARNATAKA VIKAS GRAMEENA BANK,KVGB0004000,DHARWAD RO,"REGIONAL OFFICE HEAD OFFICE BUILDING,BELGAUM ROAD,DHARWAD 580 008",HUBLI DHARWAD,HUBLI DHARWAD,KARNATAKA,0
332,KARNATAKA VIKAS GRAMEENA BANK,KVGB0004001,ALANAVAR,"ARAWATAGI BRANCH S. G. BHUMANNAVAR BUILDING,ARAWATAGI - 580 008.TQ. : DHARWAD, DIST. : DHARWAD.",DHARWAD,ALNAWAR,KARNATAKA,2385390
333,KARNATAKA VIKAS GRAMEENA BANK,KVGB0004002,APMC BRANCH,"DHARWAD ┬û APMC BRANCHJADHAV BUILDING, FORT ROAD,MRUTYUNJAYA MARKET, APMC DHARWAD - 580 008.TQ. : DHARWAD,  DIST. : DHARWAD.",DHARWAD,HUBLI-DHARWAD,KARNATAKA,2442199
334,KARNATAKA VIKAS GRAMEENA BANK,KVGB0004003,ARAWATAGI,"ARAWATAGI BRANCH S. G. BHUMANNAVAR BUILDING,ARAWATAGI - 580 008.TQ. : DHARWAD, DIST. : DHARWAD.",DHARWAD,ARWATGI,KARNATAKA,2386170
335,KARNATAKA VIKAS GRAMEENA BANK,KVGB0004004,DBHPS DWD,"DHARWAD ┬û DBHPS BRANCH  CTS 139/1, C. B. GUTTAL COMPLEX, D. C. COMPOUND,DHARWAD - 580 001. TQ. : DHARWAD,  DIST. : DHARWAD",DHARWAD,HUBLI-DHARWAD,KARNATAKA,2442815
336,KARNATAKA VIKAS GRAMEENA BANK,KVGB0004005,DHARWAD,"DHARWAD MAIN BRANCH  ANJUMAN COMPLEX, VIJAYA ROAD, NEAR C.B.T. DHARWAD - 580 001.TQ. : DHARWAD,  DIST. : DHARWAD",DHARWAD,HUBLI-DHARWAD,KARNATAKA,2444104
337,KARNATAKA VIKAS GRAMEENA BANK,KVGB0004006,DODDANAIKANKOP,"DHARWAD ┬û D.N.KOP BRANCH PLOT NO. 40, R. R. ARALIKATTI BLDG, KELAGERI ROAD, DHARWAD - 580 008. TQ. : DHARWAD,  DIST. : DHARWAD PH.NO. 0836 2771468",DHARWAD,HUBLI-DHARWAD,KARNATAKA,2771468
338,KARNATAKA VIKAS GRAMEENA BANK,KVGB0004007,GANDHINAGAR,"DHARWAD ┬û GANDHINAGAR BRANCH SHAKAMBARI COMMERCIAL COMPLEX, SHAMBHAVI COLONY, GANDHI NAGAR, DHARWAD - 580 008.TQ. : DHARWAD,  DIST. : DHARWAD PH.NO. 0836 2460750",DHARWAD,HUBLI-DHARWAD,KARNATAKA,2460750
339,KARNATAKA VIKAS GRAMEENA BANK,KVGB0004008,H O BRANCH,"DHARWAD ┬û HO BRANCH H.O. BUILDING, P. B. NO. 111, BELGAUM ROAD, DHARWAD - 580 008. TQ. : DHARWAD,  DIST. : DHARWAD",DHARWAD,HUBLI-DHARWAD,KARNATAKA,2217145
340,KARNATAKA VIKAS GRAMEENA BANK,KVGB0004009,JAYANAGAR DWD,"DHARWAD ┬û JAYANAGAR BRANCH CTS 41, PATIL BUILDING, 1ST FLOOR, JAYANAGAR, 2ND CROSS, DHARWAD - 580 001. TQ. : DHARWAD,  DIST. : DHARWAD",DHARWAD,HUBLI-DHARWAD,KARNATAKA,2775188
341,KARNATAKA VIKAS GRAMEENA BANK,KVGB0004010,LINE BAZAR DWD,"DHARWAD ┬û LINE BAZAR BRANCH S. N. KARANTH BUILDING,OPP. BAGALKOT PETROL BUNK, HUBLI ROAD, DHARWAD - 580 001. TQ. : DHARWAD,  DIST. : DHARWAD.",DHARWAD,HUBLI-DHARWAD,KARNATAKA,2749099
342,KARNATAKA VIKAS GRAMEENA BANK,KVGB0004011,MUGAD,"MUGAD BRANCH  DHARWAD BUILDING, MAIN ROAD, NEAR BUS STAND, MUGAD - 580 007. TQ. : DHARWAD,  DIST. : DHARWAD",DHARWAD,MUGAD,KARNATAKA,2786639
343,KARNATAKA VIKAS GRAMEENA BANK,KVGB0004012,MUMMIGATTI,"K MUMMIGATTI BRANCH  V.P.C.NO. 556,KYATAPPANAVAR BUILDING, MUMMIGATTI - 581 203. TQ. : DHARWAD,  DIST. : DHARWAD",DHARWAD,MUMMIGATTI,KARNATAKA,2486601
344,KARNATAKA VIKAS GRAMEENA BANK,KVGB0004013,NAVALUR,"NAVALUR BRANCH BALLUR BUILDING,MELINA AGASI, NAVALUR - 580 009. TQ. : DHARWAD,  DIST. : DHARWAD",DHARWAD,NAVALUR,KARNATAKA,2217146
345,KARNATAKA VIKAS GRAMEENA BANK,KVGB0004014,NIGADI,"NIGADI BRANCH PANCHAYAT BUILDING, NIGADI - 580 008. TQ. : DHARWAD,  DIST. : DHARWAD.",DHARWAD,NIGADI,KARNATAKA,2789254
346,KARNATAKA VIKAS GRAMEENA BANK,KVGB0004015,SHIVALLI,"SHIVALLI BRANCH PANCHAYAT BUILDING, NEAR BUS STAND, SHIVALLI - 580 112. TQ. : DHARWAD,  DIST. : DHARWAD.",DHARWAD,SHIVALLI,KARNATAKA,2788240
347,KARNATAKA VIKAS GRAMEENA BANK,KVGB0004016,TADAKOD,"TADAKOD BRANCH PANCHAYAT BUILDING, TADAKOD - 581 105. TQ. : DHARWAD,  DIST. : DHARWAD.",DHARWAD,TADAKOD,KARNATAKA,2787858
348,KARNATAKA VIKAS GRAMEENA BANK,KVGB0004017,TEGUR,"TEGUR BRANCH TIMMAPUR BUILDING, TEGUR - 580 008. TQ. : DHARWAD,  DIST. : DHARWAD",DHARWAD,TEGUR,KARNATAKA,2781119
349,KARNATAKA VIKAS GRAMEENA BANK,KVGB0004018,UPPIN BETAGERI,"UPPIN BETAGERI BRANCH  DR. TOTAR BUILDING,  OPP, BUT STAND UPPIN BETAGERI, TQ & DT: DHARWAD",DHARWAD,UPPIN BETAGERE,KARNATAKA,2783515
350,KARNATAKA VIKAS GRAMEENA BANK,KVGB0004019,WALMI COMPLEX-DHARWAD,"WALMI BRANCH  WALMI COMPLEX BELGAUM ROAD, DHARWAD. TQ. &  DIST. : DHARWAD",DHARWAD,HUBLI-DHARWAD,KARNATAKA,2113250
351,KARNATAKA VIKAS GRAMEENA BANK,KVGB0004020,GANDHI CHOWK DWD,"PRATIMA PLAZA, DAROGA ONI GANDHI CHOWK TQ: DHARWAD, DIST: DHARWAD",DHARWAD,HUBLI-DHARWAD,KARNATAKA,2447500
352,KARNATAKA VIKAS GRAMEENA BANK,KVGB0004021,KOTABAGI,OLD PANCHAYAT OFFICE A/P: KOTABAGI TQ. & DT:  DHARWAD PIN ┬û 581 105,DHARWAD,HUBLI-DHARWAD,KARNATAKA,0
353,KARNATAKA VIKAS GRAMEENA BANK,KVGB0004022,MAADANBHAVI,GRAM PANCHAYATI BLDG MADANBHAVI TQ.DHARWAD PIN ┬û 581 105,DHARWAD,HUBLI-DHARWAD,KARNATAKA,0
354,KARNATAKA VIKAS GRAMEENA BANK,KVGB0004023,VIKAS NAGAR,"PLOT NO 141, NEAR BGS SCHOOL, VIKAS NAGAR DHARWAD -580008",DHARWAD,HUBLI-DHARWAD,KARNATAKA,0
355,KARNATAKA VIKAS GRAMEENA BANK,KVGB0004024,MALAMADDI,"MALAMADDI BRANCH , MANJUNATH PURA NEAR RAYAR MATT DHARAWD - 580007",DHARWAD,HUBLI-DHARWAD,KARNATAKA,0
356,KARNATAKA VIKAS GRAMEENA BANK,KVGB0004025,RAJATGIRI,"KARNATAKA VIKAS GRAMEENA BANK, CHAVADI  ARCHADE, SARASWATPUR, KALAGATGI DHARWAD-580002 , DT DHARWAD , KARNATAKA",DHARWAD,HUBLI-DHARWAD,KARNATAKA,0
357,KARNATAKA VIKAS GRAMEENA BANK,KVGB0004026,HALLIGERI,"KARNATAKA VIKAS GRAMEENA BANK, OLD PANCHAYAT BUILDING, MAIN ROAD, HALLIGERI, DT DHARWAD, KARNATAKA",DHARWAD,HALLIGERI,KARNATAKA,9480699696
358,KARNATAKA VIKAS GRAMEENA BANK,KVGB0004027,DISTRICT COURT COMPLEX - DHARWAD,"DISTRICT COURT COMPLEX, GROUND FLOOR, PRINCIPAL DISTRICT AND SESSION COURT COMPLEX, NEAR KALABHAVAN, PB ROAD, DHARWAD - 580008",DHARWAD,HUBLI - DHARWAD,KARNATAKA,9480699694
359,KARNATAKA VIKAS GRAMEENA BANK,KVGB0004028,MANAGUNDI,KARNATAKA VIKAS GRAMEENA BANK WALMIKI SEVA SANGH BUILDING MANAGUNDI DHARWAD,DHARWAD,MANAGUNDI,KARNATAKA,9108699771
360,KARNATAKA VIKAS GRAMEENA BANK,KVGB0004101,CBT HUBLI,"HUBLI ┬û BARDAN SAL BRANCH  NEELI BUILDING, BARADAN GALLI, NEAR C.B.T.  HUBLI - 580 020. TQ. : HUBLI,  DIST. : DHARWAD.",DHARWAD,BHANDIWAD,KARNATAKA,2217149
361,KARNATAKA VIKAS GRAMEENA BANK,KVGB0004102,GOKUL RD HUBLI,"HUBLI ┬û GOKUL ROAD BRANCHE & F BLOCK, STALL NO. 7 & 8, AKSHAYA PARK, GOKUL ROAD, HUBLI - 580 030. TQ. : HUBLI,  DIST. : DHARWAD",DHARWAD,HUBLI-DHARWAD,KARNATAKA,2232147
362,KARNATAKA VIKAS GRAMEENA BANK,KVGB0004103,HALLIHAL,"HALLIHAL BRANCH GRAM PANCHAYAT BUILDING,MAIN ROAD,HALLIHAL - 580 023. TQ. : HUBLI,  DIST. : DHARWAD.",DHARWAD,HALLIHAL,KARNATAKA,2311633
363,KARNATAKA VIKAS GRAMEENA BANK,KVGB0004104,HUBLI (M),"HUBLI MAIN BRANCH CLUB ROAD HUBLI - 580 028. TQ. : HUBLI,  DIST. : DHARWAD.",DHARWAD,HUBLI-DHARWAD,KARNATAKA,0
364,KARNATAKA VIKAS GRAMEENA BANK,KVGB0004105,INGALAHALLI,"INGALAHALLI BRANCH PANCHAYAT BUILDING, INGALAHALLI - 581 231. TQ. : HUBLI,  DIST. : DHARWAD.",DHARWAD,INGALAHALLI,KARNATAKA,2318606
365,KARNATAKA VIKAS GRAMEENA BANK,KVGB0004106,KESHWAPUR-HUBLI,"HUBLI ┬ûKESHWAPUR JAGAJYOTHI COMPLEX, NAGESHETTIKOPPA ROAD, KESHAVAPUR, HUBLI - 580 023.",DHARWAD,KESHWAPUR,KARNATAKA,2284269
366,KARNATAKA VIKAS GRAMEENA BANK,KVGB0004107,KUSUGAL,"KUSUGAL BRANCH D.K. PATIL BUILDING,  KILLA ROAD, KUSUGAL - 581 100. TQ. : HUBLI,  DIST. : DHARWAD.",DHARWAD,KUSUGAL,KARNATAKA,2315237
367,KARNATAKA VIKAS GRAMEENA BANK,KVGB0004108,NAVANAGAR,"NAVANAGAR BRANCH  MIG-17, OPP. CANCER HOSPITAL, NAVANAGAR - 580 025(HUBLI)  DIST. : DHARWAD.",DHARWAD,HUBLI-DHARWAD,KARNATAKA,2223496
368,KARNATAKA VIKAS GRAMEENA BANK,KVGB0004109,NULVI,"NULVI BRANCH M. G. DHARWAD BUILDING, NULVI - 580 214. TQ. : HUBLI,  DIST. : DHARWAD",DHARWAD,NULVI,KARNATAKA,2317247
369,KARNATAKA VIKAS GRAMEENA BANK,KVGB0004110,OLD HUBLI,"HUBLI ┬û OLD HUBLI BRANCH JOSHI BUILDING,VENKATESHWAR COMPLEX, FORT ROAD, OLD HUBLI, HUBLI - 580 024. TQ. : HUBLI,  DIST. : DHARWAD",DHARWAD,HUBLI-DHARWAD,KARNATAKA,2217151
370,KARNATAKA VIKAS GRAMEENA BANK,KVGB0004111,SHIRUR PARK HBL,"HUBLI ┬û SHIRUR PARK BRANCH  CB, 3749,  MISKIN BUILDING, MAIN ROAD, SHIRUR PARK, HUBLI - 580 031 TQ. : HUBLI,  DIST. : DHARWAD.",DHARWAD,HUBLI-DHARWAD,KARNATAKA,2370275
371,KARNATAKA VIKAS GRAMEENA BANK,KVGB0004112,SRINAGARHBL,"HUBLI ┬ûSHRINAGAR BRANCH  C.B. NO. 2/A, SMT. S. S. PATIL BUILDING, SAI NAGAR UNKAL, HUBLI - 580 031 TQ. : HUBLI,  DIST. : DHARWAD.",DHARWAD,HUBLI-DHARWAD,KARNATAKA,2371875
372,KARNATAKA VIKAS GRAMEENA BANK,KVGB0004113,VIJAYNAGAR HBL,"HUBLI ┬û VIJAYNAGAR BRANCH PLOT NO. 151 (A), CHACHADI BUILDING, NEAR VIJAYANAGAR POST OFFICE, VIJAYANAGAR, HUBLI - 580 032. TQ. : HUBLI,  DIST. : DHARWAD.",DHARWAD,HUBLI-DHARWAD,KARNATAKA,2356012
373,KARNATAKA VIKAS GRAMEENA BANK,KVGB0004114,WARUR,"WARUR BRANCH HIREMATH BUILDING, P. B. ROAD, WARUR - 581 234. TQ. : HUBLI,  DIST. : DHARWAD.",DHARWAD,WARUR,KARNATAKA,2480326
374,KARNATAKA VIKAS GRAMEENA BANK,KVGB0004115,BHAIRIDEVARAKOPPA-HBL,"BHAIRIDEVARAKOPPA BRANCH YUVAKA MANDALA BUILDING, NEAR BUS STOP, P.B.ROAD HUBLI. BHAIRIDEVARAKOPPA TQ. : HUBLI,  DIST. : DHARWAD.",DHARWAD,Hubli,KARNATAKA,2277889
375,KARNATAKA VIKAS GRAMEENA BANK,KVGB0004116,MADHURA COLONY HUBLI,"AKSHAYA ENCLAVES MADHURA COLONY, KUSUGAL ROAD, HUBLI 580023",DHARWAD,HUBLI-DHARWAD,KARNATAKA,0
376,KARNATAKA VIKAS GRAMEENA BANK,KVGB0004117,STATION RD HUBLI,", KAMKAR BUILDING, OPPOSITE DECCAN TAKIES , STATION ROAD , HUBLI",DHARWAD,HUBLI-DHARWAD,KARNATAKA,2264156
377,KARNATAKA VIKAS GRAMEENA BANK,KVGB0004118,GOKUL,"MARUTI YUVAK MANDAL BLDG, NEAR ISHWAR TEMPLE  GOKUL TQ HUBLI & DT. DHARWAD",DHARWAD,HUBLI-DHARWAD,KARNATAKA,0
378,KARNATAKA VIKAS GRAMEENA BANK,KVGB0004119,SHIRAGUPPI,"OLD LIBRARY,MAIN ROAD, SHIRAGUPPI TQ HUBLI DT. DHARWAD",DHARWAD,HUBLI-DHARWAD,KARNATAKA,0
379,KARNATAKA VIKAS GRAMEENA BANK,KVGB0004120,ADARAGUNCHI,M I KAMADOLLI BLDG MAIN ROAD ADARGUNCHI TQ.HUBLI PIN ┬û 580 028,DHARWAD,HUBLI-DHARWAD,KARNATAKA,0
380,KARNATAKA VIKAS GRAMEENA BANK,KVGB0004121,RAYANAL,"REVANA SIDDESHWARA SAMSTHANA VIRAKTHAMATHA AVARANA, RAYANAL",DHARWAD,HUBLI DHARWAD,KARNATAKA,9480699674
381,KARNATAKA VIKAS GRAMEENA BANK,KVGB0004201,BOMMIGATTI,"BOMMIGATTI BRANCH PANCHAYAT BUILDING, BOMMIGATTI - 581 223. TQ. : KALAGHATAGI,  DIST. : DHARWAD",KUMTA,BOMMIGATTI,KARNATAKA,289272
382,KARNATAKA VIKAS GRAMEENA BANK,KVGB0004202,GA.HULKOPPA,"GHALAGI-HULKOP BRANCH MANDALGIRI, MARKET, GALAGI HULKOP - 581 208. TQ. : KALAGHATAGI,  DIST. : DHARWAD.",KUMTA,GHALGI HULKOPPA,KARNATAKA,280916
383,KARNATAKA VIKAS GRAMEENA BANK,KVGB0004203,HI.HO.HALLI,"HIREHONNIHALLI BRANCH J. R. Y. BUILDING, HIREHONNIHALLI - 581 225.TQ. : KALAGHATAGI,  DIST. : DHARWAD.",KUMTA,HIREHONNIHALLI,KARNATAKA,287246
384,KARNATAKA VIKAS GRAMEENA BANK,KVGB0004204,KALAGHATAGI,"KALAGHATAGAI BRANCH CTS 4536/2/1 NAIK BUILDING HUBLI-KARWAR ROAD  KALAGHATAGI - 581 204. TQ. : KALAGHATAGI,  DIST. : DHARWAD.",KUMTA,KALGHATGI,KARNATAKA,284562
385,KARNATAKA VIKAS GRAMEENA BANK,KVGB0004205,MISHRIKOTI,"MISHRIKOTI BRANCH JRY BUILDING, NEAR BUS STAND, MISHRIKOTI - 581 226. TQ. : KALAGHATAGI,  DIST. : DHARWAD.",KUMTA,MISHRIKOTI,KARNATAKA,283726
386,KARNATAKA VIKAS GRAMEENA BANK,KVGB0004206,MUTTAGI,"MUTTAGI BRANCH PANCHAYAT BUILDING, MUTTAGI - 581 204. TQ. : KALAGHATAGI,  DIST. : DHARWAD",KUMTA,MUTTIAGI,KARNATAKA,210322
387,KARNATAKA VIKAS GRAMEENA BANK,KVGB0004207,TA.HO.HALLI,"TABADAHONNIHALLI BRANCH PANCHAYAT BUILDING, TABAKADAHONNIHALLI - 581 212. TQ. : KALAGHATAGI,  DIST. : DHARWAD.",KUMTA,TABAKADAHONNIHALLI,KARNATAKA,281234
388,KARNATAKA VIKAS GRAMEENA BANK,KVGB0004208,DEVIKOPPA,"GRAM PANCHAYAT BUILDING DEVIKOPPA_581204, TQ: KALGATGI, DT: DHARWAD",DHARWAD,KALGHATGI,KARNATAKA,0
389,KARNATAKA VIKAS GRAMEENA BANK,KVGB0004209,TAVARGERI,"KARNATAKA VIKAS GRAMEEN BANK, GRAM PANCHYAT BLDG, TAWARAGERI TQ KALAGHATAGI DT DHARWAD, KARNATAKA",DHARWAD,KALGHATGI,KARNATAKA,7022599713
390,KARNATAKA VIKAS GRAMEENA BANK,KVGB0004301,INGALAGI,"INGALAGI BRANCH PATIL KULKARNI BUILDING, INGALAGI - 581 128. TQ. : KUNDGOL,  DIST. : DHARWAD",DHARWAD,INGALAGI,KARNATAKA,297015
391,KARNATAKA VIKAS GRAMEENA BANK,KVGB0004302,KALAS,"KALAS BRANCH WALAD BUILDING, KALAS - 581 107. TQ. : KUNDAGOL,  DIST. : DHARWAD",DHARWAD,KALASA,KARNATAKA,298129
392,KARNATAKA VIKAS GRAMEENA BANK,KVGB0004303,KAMADOLLI,"KAMADOLLI BRANCH LIBRARY BUILDING, KAMADOLLI - 581 113.TQ. : KUNDGOL,  DIST. : DHARWAD",DHARWAD,KAMADOLLI,KARNATAKA,299003
393,KARNATAKA VIKAS GRAMEENA BANK,KVGB0004304,KUNDAGOL,"KUNDAGOL BRANCH BALIKAI BUILDING, KUNDAGOL - 581 113. TQ. : KUNDAGOL,  DIST. : DHARWAD",DHARWAD,KUNDGOL,KARNATAKA,290348
394,KARNATAKA VIKAS GRAMEENA BANK,KVGB0004305,YARAGUPPI,"YARAGUPPI BRANCH YALIGAR BUILDING, KUNDGOL ROAD, YARAGUPPI - 580 215. TQ. : KUNDAGOL,  DIST. : DHARWAD",DHARWAD,YERAGUPPI,KARNATAKA,293312
395,KARNATAKA VIKAS GRAMEENA BANK,KVGB0004306,YAREBUDIHAL,"YAREBUDIHAL BRANCH KANOJI BUILDING, YAREBUDIHAL - 581 162.TQ. : KUNDGOL,  DIST. : DHARWAD.",DHARWAD,YAREBUDIHAL,KARNATAKA,294082
396,KARNATAKA VIKAS GRAMEENA BANK,KVGB0004307,TARLAGHATTA,KARNATAKA VIKAS GRAMEENA BANK BRANCH TARLAGHATTA KUNDAGOL TALUK DHARWAD DIST,DHARWAD,HUBLI,KARNATAKA,0
397,KARNATAKA VIKAS GRAMEENA BANK,KVGB0004308,HIREHARAKUNI,"KARNATAKA VIKAS GRAMEEN BANK, GRAM PANCHYAT BUILDING, HIREHARAKUNI, TQ KUNDGOL, DT DHARWAD, KARNATAKA",DHARWAD,KUNDGOL,KARNATAKA,7022599732
398,KARNATAKA VIKAS GRAMEENA BANK,KVGB0004309,GUDAGERI,"JAIN BUILDING, STATION ROAD GUDAGERI TQ- KUNDAGOL, DIST DHARWAD PIN CODE - 580007",DHARWAD,GUDAGERI,KARNATAKA,9480699049
399,KARNATAKA VIKAS GRAMEENA BANK,KVGB0004401,ALAGAWADI,", ALNAVAR BRANCH  ACHARI COMPLEX, AZAD ROAD, ALNAVAR - 581 103. TQ. : DHARWAD  DIST. : DHARWAD",DHARWAD,ALAGAWADI,KARNATAKA,235210
400,KARNATAKA VIKAS GRAMEENA BANK,KVGB0004402,AREKURAHATTI,"AREKURAHATTI BRANCH HARIHAR BUILDING,AREKURAHATTI - 581 208. TQ. : NAVALAGUND, DIST. : DHARWAD.",DHARWAD,AREKURAHATT,KARNATAKA,224270
401,KARNATAKA VIKAS GRAMEENA BANK,KVGB0004403,HALLIKERI,"HALLIKERI BRANCH  MADALLI BUILDING, BAZAR ROAD,  HALLIKERI - 582 201. TQ. : NAVALAGUND,  DIST. : DHARWAD.",DHARWAD,HALLIKERI,KARNATAKA,228332
402,KARNATAKA VIKAS GRAMEENA BANK,KVGB0004404,NALAWADI,"NALAWADI BRANCH MUDAREDDY BUILDING, MAIN ROAD, NALAWADI - 582 220. TQ. : NAVALAGUND,  DIST. : DHARWAD",DHARWAD,NALAWADI,KARNATAKA,226517
403,KARNATAKA VIKAS GRAMEENA BANK,KVGB0004405,NAVALGUND,"NAVALGUND BRANCH JAIN BUILDING, MARKET ROAD, NAVALAGUND - 582 208. TQ. : NAVALAGUND,  DIST. : DHARWAD.",DHARWAD,NAVALGUND,KARNATAKA,229461
404,KARNATAKA VIKAS GRAMEENA BANK,KVGB0004406,SHALAWADI,"SHALAWADI BRANCH  KADLI BUILDING  NEAR BUS STAND, SHALAWADI - 582 238. TQ. : NAVALAGUND,  DIST. : DHARWAD",DHARWAD,SHELAVADI,KARNATAKA,225618
405,KARNATAKA VIKAS GRAMEENA BANK,KVGB0004407,SHIRKOL,"SHIRKOL BRANCH TEMPLE BUILDING, SHIRKOL - 582 208. TQ. : NAVALAGUND,  DIST. : DHARWAD.",DHARWAD,SHIRKOL,KARNATAKA,213295
406,KARNATAKA VIKAS GRAMEENA BANK,KVGB0004408,TIRLAPUR,"TIRLAPUR BRANCH PANCHAYAT BUILDING, TIRLAPUR - 582 221. TQ. : NAVALAGUND,  DIST. : DHARWAD",DHARWAD,TIRLAPUR,KARNATAKA,234547
407,KARNATAKA VIKAS GRAMEENA BANK,KVGB0004410,MORAB,"NEAR PANCHAYAT OFFICE , OPP KALMESHWAR TEMPLE MORAB, AT & PO MORAB , TQ : NAVALGUND , DHRAWDA - 580112",DHARWAD,MORAB,KARNATAKA,0
408,KARNATAKA VIKAS GRAMEENA BANK,KVGB0004411,ANNIGERI,VM HUBLI COMPLEX  CTS NO 44/C1 OPPOSITE TO SBI NAVALGUND GADAG ROAD ANNIGERI DHARWAD-582201,DHARWAD,ANNIGERI,KARNATAKA,9108699790
409,KARNATAKA VIKAS GRAMEENA BANK,KVGB0005000,MANGALORE R O,"I ST FLOOR,KRISHNA TOWERS,LADY HILL,CHILIMBI,MANGALORE 575006",MANGALORE,MANGALORE,KARNATAKA,0
410,KARNATAKA VIKAS GRAMEENA BANK,KVGB0005001,BC ROAD,"B.C. ROAD BRANCH,NEAR BUS STAND B.C. ROAD, BANTWAL TQ,DAKSHINA KANNADA DIST.",MANGALORE,B.C.ROAD,KARNATAKA,232884
411,KARNATAKA VIKAS GRAMEENA BANK,KVGB0005002,KALLADKA,"PANCHAVATI COMMERCIAL COMPLEX KALLADKA BRANCH,BANTWAL TQ,DAKSHINA KANNADA DIST.",MANGALORE,KALLADKA,KARNATAKA,275212
412,KARNATAKA VIKAS GRAMEENA BANK,KVGB0005003,VITTAL,"VH ASHRAF COMPLEX, VITTAL BRANCH,BANTWAL TQ,DAKSHINA KANNADA DIST.",MANGALORE,VITTAL,KARNATAKA,239877
413,KARNATAKA VIKAS GRAMEENA BANK,KVGB0005004,FARANGIPETE,"ATHAYEE COMPLEX, IST FLOOR, MAIN ROAD, FARANGIPETE",DAKSHIN KANNAD,FARANGIPET,KARNATAKA,9480699691
414,KARNATAKA VIKAS GRAMEENA BANK,KVGB0005005,SIDDAKATTE,KARNATAKA VIKAS GRAMEENA BANK SWAGATH COMPLEX SIDDAKATTE BANTWALA DK 574237,DAKSHIN KANNADA,SIDDAKATTE,KARNATAKA,9108699760
415,KARNATAKA VIKAS GRAMEENA BANK,KVGB0005101,ARASINMAKKI,"ARASINAMAKKI BRANCH,BELTHANGADI TQ, DAKSHINA KANNADA DIST.",MANGALORE,REKHYA,KARNATAKA,268262
416,KARNATAKA VIKAS GRAMEENA BANK,KVGB0005102,UJRE,"UJIRE BRANCH,BELTHANGADI TQ,DAKSHINA KANNADA DIST.",MANGALORE,UJRE,KARNATAKA,236533
417,KARNATAKA VIKAS GRAMEENA BANK,KVGB0005103,VENUR,"VENUR BRANCH,BELTHANGADI TQ,DAKSHINA KANNADA DIST.",MANGALORE,VENOOR,KARNATAKA,286017
418,KARNATAKA VIKAS GRAMEENA BANK,KVGB0005104,ALADANGADY,"GRAMA PANCHAYATH BUILDING, 1ST FLOOR, ALADANGADY-574217, BELTHANGADY TALUK, DAKSHINA KANNADA DT",DAKSHIN KANNAD,ALADANGADY,KARNATAKA,0
419,KARNATAKA VIKAS GRAMEENA BANK,KVGB0005201,KAIKAMBA,"KAIKAMBA  BRANCH,MANGALORE TQ,DAKSHINA KANNADA DIST.",MANGALORE,KAIKAMBA,KARNATAKA,2258951
420,KARNATAKA VIKAS GRAMEENA BANK,KVGB0005202,KARANGALAPADY,"KARANGALAPADY (MANGALORE) BRANCH,MANGALORE TQ,DAKSHINA KANNADA DIST.",MANGALORE,MANGALORE,KARNATAKA,2492571
421,KARNATAKA VIKAS GRAMEENA BANK,KVGB0005203,MOODABIDRI,"MOODABIDARE BRANCH,MANGALORE TQ,DAKSHINA KANNADA DIST.",MANGALORE,MOODABIDRI,KARNATAKA,237192
422,KARNATAKA VIKAS GRAMEENA BANK,KVGB0005204,Z P EXTENSION MANGALORE,"THE OFFICER INCHARGE , ZILLA PANCHAYAT OFFICE COMPLEX , URVA MANGALORE",MANGALORE,MANGALORE,KARNATAKA,2459571
423,KARNATAKA VIKAS GRAMEENA BANK,KVGB0005205,SURATKAL,"SURATKAL,SHANKAR SADAN OPP: POST OFFICE N H 17 SUARAT KAL TQ:MANGALORE  DIST: DAKSHINA KANNADA",MANGALORE,MANGALORE,KARNATAKA,0
424,KARNATAKA VIKAS GRAMEENA BANK,KVGB0005206,TALAPADY,"NJATH COMPLEX, OPP: RTO CHECK POST N H 17 TALAPADY TQ: MANGALORE, DIST: DAXINA KANNADA",MANGALORE,TALPADY,KARNATAKA,280500
425,KARNATAKA VIKAS GRAMEENA BANK,KVGB0005207,KATEEL (KONDEMULA),"HOTEL SOUDARYA OALACE COMPLEX, KATEEL- KINNIGOLI ROAD KATEEL TQ & DT. MANGALORE",MANGALORE,KATEEL,KARNATAKA,0
426,KARNATAKA VIKAS GRAMEENA BANK,KVGB0005208,KAVOOR,"KVOOR JUNCTION, KAVOOR MANGALORE TQ & DT.MANGALORE",MANGALORE,MANGALORE,KARNATAKA,0
427,KARNATAKA VIKAS GRAMEENA BANK,KVGB0005209,BUNDER MANGALORE,"LAXMAN COMMERCIAL COMPLEX OPP:ATTUR VASUDEV PRABHU,JM-2ND CROSS ROAD,BUNDER MANGALORE",MANGALORE,MANGALORE,KARNATAKA,0
428,KARNATAKA VIKAS GRAMEENA BANK,KVGB0005210,BELVAI,"ANANDA COMPLEX, I FLOOR, MAIN ROAD BELVAI -574213 ,MANGALORE TALUK, DAKSHINA KANNADA DT",MANGALORE,BELWAI,KARNATAKA,0
429,KARNATAKA VIKAS GRAMEENA BANK,KVGB0005211,KRISHNAPUR,"KARNATAKA VIKAS GRAMEENA BANK, LONDOAN PLAZA II, 1ST FLOOR, 7TH BLOCK MAIN ROAD, KRISHNAPUR - 575014 , PO SURATKAL , MANGALORE DT: SOUTH KANARA",MANGALORE,MANGALORE,KARNATAKA,0
430,KARNATAKA VIKAS GRAMEENA BANK,KVGB0005401,PUTTUR,"PUTTUR BRANCH,PUTTUR TQ,DAKSHINA KANNADA DIST.",MANGALORE,PUTTUR,KARNATAKA,232897
431,KARNATAKA VIKAS GRAMEENA BANK,KVGB0005402,UPPINGADY,"UPPINGADI BRANCH,PUTTUR TQ, DAKSHINA KANNADA DIST.",MANGALORE,UPPINANGADY,KARNATAKA,251635
432,KARNATAKA VIKAS GRAMEENA BANK,KVGB0005403,KABAK,"K NARAYANA NAIK COMPLEX, I FLOOR,  KABAKA -574220, PUTTUR TALUK, DAKSHINA KANNADA  DT",DAKSHIN KANNAD,KABAKA,KARNATAKA,0
433,KARNATAKA VIKAS GRAMEENA BANK,KVGB0005404,KANIYOOR,"D K COMPLEX, IST FLOOR, MAIN ROAD, KANIYOOR",DAKSHIN KANNAD,KANIYUR,KARNATAKA,9480699682
434,KARNATAKA VIKAS GRAMEENA BANK,KVGB0005501,BELLARE,"BELLARE BRANCH,SULLIA TQ, DAKSHINA KANNADA DIST.",MANGALORE,BELLARE,KARNATAKA,271516
435,KARNATAKA VIKAS GRAMEENA BANK,KVGB0005502,SULLIA,"SULLIA BRANCH,SULLIA TQ,DAKSHINA KANNADA DIST.",MANGALORE,SULLIA,KARNATAKA,230821
436,KARNATAKA VIKAS GRAMEENA BANK,KVGB0005503,SUBRAMANYA,"GRAMA PANCHYAT BUILDING,SUBRAMANYA BRANCH,ULLIA TQ,DAKSHINA KANNADA DIST.",MANGALORE,SUBRAMANYA,KARNATAKA,281237
437,KARNATAKA VIKAS GRAMEENA BANK,KVGB0006000,GADAG R O,"CHAMBER OF COMMERCE BUILDING,APMC ROAD,GADAG.582101",GADAG,GADAG,KARNATAKA,0
438,KARNATAKA VIKAS GRAMEENA BANK,KVGB0006001,BALAGANUR,"BALAGANUR BRANCH  MARUTI DEVASTAN BUILDING, MAIN ROAD, BALAGANUR - 582 231. TQ. : GADAG, DIST. : GADAG",GADAG,BALAGANUR,KARNATAKA,286033
439,KARNATAKA VIKAS GRAMEENA BANK,KVGB0006002,BETAGERI,"BETAGERI BRANCH KABADI BUILDING, PALA-BADAMI ROAD, BETAGERI - 582 102. TQ. : GADAG,  DIST. : GADAG.",GADAG,GADAG-BETIGERI,KARNATAKA,245048
440,KARNATAKA VIKAS GRAMEENA BANK,KVGB0006003,GADAG,"GADAG MAIN BRANCH S. P. GADAG BUILDING,J. T. MATH ROAD, GADAG - 582 101. TQ. : GADAG,  DIST. : GADAG.",GADAG,GADAG,KARNATAKA,278016
441,KARNATAKA VIKAS GRAMEENA BANK,KVGB0006004,HARTI,"HARTI BRANCH SOCIETY BUILDING,HARTI - 582 123.TQ. : GADAG,  DIST. : GADAG.",GADAG,HARTI,KARNATAKA,285009
442,KARNATAKA VIKAS GRAMEENA BANK,KVGB0006005,HOMBAL,"HOMBAL BRANCH PANCHAYAT BUILDING,HOMBAL - 582 204 TQ. : GADAG,  DIST. : GADAG.",GADAG,HOMBAL,KARNATAKA,284035
443,KARNATAKA VIKAS GRAMEENA BANK,KVGB0006006,KURTHAKOTI,"KURTHAKOTI BRANCH GADAREDDY BUILDING,KURTHAKOTI - 582 214.TQ. : GADAG,  DIST. : GADAG.",GADAG,KURTAKOTI,KARNATAKA,287017
444,KARNATAKA VIKAS GRAMEENA BANK,KVGB0006007,MULAGUND NAKA,"MULGUNDNAKA BRANCH HOSALLIMATH COMPLEX,MULGUND NAKA BARANCH TQ. : GADAG,  DIST. : GADAG.",GADAG,GADAG,KARNATAKA,239823
445,KARNATAKA VIKAS GRAMEENA BANK,KVGB0006008,NAGAVI,"NAGAVI BRANCH PANCHAYAT BUILDING,NAGAVI - 582 124.TQ:GADAG, DIST:GADAG",GADAG,NAGAVI,KARNATAKA,218005
446,KARNATAKA VIKAS GRAMEENA BANK,KVGB0006009,SORATUR,"SORTUR BRANCH NEAR BUS STAND,SORTUR - 582 213.TQ. : GADAG,  DIST. : GADAG",GADAG,SORTUR,KARNATAKA,281042
447,KARNATAKA VIKAS GRAMEENA BANK,KVGB0006010,MULAGUND,"MULGUND BRANCH BADNI BUILDING, MAIN MARKET ROAD  MULGUND TQ. : MULAGUND,  DIST. : GADAG",GADAG,MULGUND,KARNATAKA,280312
448,KARNATAKA VIKAS GRAMEENA BANK,KVGB0006011,HATALGERI NAKA,"PLOT NO. 7 S T BALLARY BUILDING, VIJAYA TARA COMPLEX, HATALGERI ROAD, OPP J T COLLEGE.",GADAG,GADAG,KARNATAKA,0
449,KARNATAKA VIKAS GRAMEENA BANK,KVGB0006012,KOTAMUCHAGI,"KARNATAKA VIKAS GRAMEENA BANK, PANCHAYAT BUILDING KOTAMUCHAGI- 582119 , TQ: GADAG ,DT : GADAG , KARNATAKA",GADAG,GADAG,KARNATAKA,0
450,KARNATAKA VIKAS GRAMEENA BANK,KVGB0006013,LAKKUNDI,"KARNATAKA VIKAS GRAMEEN BANK, GRAM PANCHYAT BUILDING, LAKKUNDI, DT GADAG, KARNATAKA",GADAG,LAKKUNDI,KARNATAKA,7022599733
451,KARNATAKA VIKAS GRAMEENA BANK,KVGB0006014,HULKOTI,"KARNATAKA VIKAS GRAMEEN BANK, PATIL BUILDING, HARTI ROAD, HULKOTI, TQ AND DT GADAG 582205, KARNATAKA",GADAG,HULKOTI,KARNATAKA,7022599734
452,KARNATAKA VIKAS GRAMEENA BANK,KVGB0006015,ANTUR BENTUR,KARNATAKA VIKAS GRAMEENA BANK BRANCH ANTUR BENTUR TALUK GADAG DIST GADAG,GADAG,GADAG,KARNATAKA,9480699044
453,KARNATAKA VIKAS GRAMEENA BANK,KVGB0006016,YALISHIRUR,KARNATAKA VIKAS GRAMEENA BANK YALISHIRUR BRANCH GRAMA PANCHAYATH BUILDING YELISHIRUR TALUKA GADAG DIST GADAG,GADAG,GADAG,KARNATAKA,9108699738
454,KARNATAKA VIKAS GRAMEENA BANK,KVGB0006017,HUILGOL,"KIRITAGERI ROAD, OPP. SUGURESHWAR MATH, HUILGOL, TQ GADAG, DIST. GADAG - 582102",GADAG,GADAG,KARNATAKA,0
455,KARNATAKA VIKAS GRAMEENA BANK,KVGB0006101,BAGEWADI,"BAGEWADI BRANCH V. P. C. BUILDING, BAGEWADI - 582 118. TQ. : MUNDARAGI, DIST. : GADAG",GADAG,BAGEWADI,KARNATAKA,263573
456,KARNATAKA VIKAS GRAMEENA BANK,KVGB0006102,DAMBAL,"DAMBAL BRANCH PANCHAYAT BUILDING, DAMBAL - 582 113. TQ. : MUNDARAGI, DIST. : GADAG.",GADAG,DAMBAL,KARNATAKA,266247
457,KARNATAKA VIKAS GRAMEENA BANK,KVGB0006103,HALLIGUDI,"HALLIGUDI BRANCH NEAR BASAVESHWAR TEMPLE,V. P. C. BUILDING, STATION ROAD,HALLIGUDI - 582 115. TQ. : MUNDARAGI,  DIST. : GADAG.",GADAG,HALLIGULI,KARNATAKA,269240
458,KARNATAKA VIKAS GRAMEENA BANK,KVGB0006104,HAMMIGI,"HAMMIGI BRANCH JRY BUILDING,HAMMIGI - 582 118.TQ. : MUNDARAGI,  DIST. : GADAG.",GADAG,HAMMIGI,KARNATAKA,264634
459,KARNATAKA VIKAS GRAMEENA BANK,KVGB0006105,KALKERI,"KALKERI BRANCH J.R.Y. BUILDING, KALAKERI - 582 118. TQ. : MUNDARAGI,  DIST. : GADAG.",GADAG,KALKERI,KARNATAKA,263532
460,KARNATAKA VIKAS GRAMEENA BANK,KVGB0006106,KORLAHALLI,"A.H. HEMADRI BUILDING,KORLAHALLI BRANCH  CHANALDAR ONI, KORLAHALLI - 582 118. TQ. : MUNDARAGI,  DIST. : GADAG.",GADAG,KORLHALLI,KARNATAKA,265233
461,KARNATAKA VIKAS GRAMEENA BANK,KVGB0006107,MEVUNDI,"MEVUNDI BRANCH HARUGERI BUILDING, MUNDARGI ROAD,MEVUNDI - 581 317. TQ. : MUNDARAGI,  DIST. : GADAG.",GADAG,MEUNDI,KARNATAKA,292500
462,KARNATAKA VIKAS GRAMEENA BANK,KVGB0006108,MUNDARAGI,"MUNDARAGI BRANCH METI BUILDING, MARKET ROAD,MUNDARAGI - 582 118. TQ. : MUNDARAGI,  DIST. : GADAG.  PH.NO. 08371 262107",GADAG,MUNDARGI,KARNATAKA,262107
463,KARNATAKA VIKAS GRAMEENA BANK,KVGB0006109,DONI,GRAM PANCHAYAT BUILDING AT & PO. DONI TQ. MUNDARGI PIN ┬û 582 103,GADAG,DAMBAL,KARNATAKA,0
464,KARNATAKA VIKAS GRAMEENA BANK,KVGB0006110,JANTLI SHIRUR,GRAM PANCHAYAT BUILDING AT & PO. JANTLI SHIRUR TQ. MUNDARGI PIN ┬û 582 113,GADAG,HALLIGULI,KARNATAKA,0
465,KARNATAKA VIKAS GRAMEENA BANK,KVGB0006111,MUNDAWAD,"KARNATAKA VIKAS GRAMEENA BANK, MUNDAWAD BRANCH, KELAGINAGOUDAR BUILDING, NEAR BUS STAND, AT POST MUNDAWAD TALUK MUNDARGI GADAG",GADAG,MUNDAWAD,KARNATAKA,9108699744
466,KARNATAKA VIKAS GRAMEENA BANK,KVGB0006201,CHI-NARAGUND,"CHIKKANARAGUND BRANCH PANCHAYAT BUILDING, CHIKKANARANGUND - 582 235. TQ. : NARAGUND, DIST. : GADAG.",GADAG,CHIKKANARGUND,KARNATAKA,262242
467,KARNATAKA VIKAS GRAMEENA BANK,KVGB0006202,HADLI,"HADLI BRANCH PANCHAYAT BUILDING,HADLI - 582 228. TQ. : NARAGUND,  DIST. : GADAG.",GADAG,HADLI,KARNATAKA,263344
468,KARNATAKA VIKAS GRAMEENA BANK,KVGB0006203,NARAGUND,"NARAGUND BRANCH GUDISAGAR BUILDING, NEAR COURT, KEMPAGASI ROAD, NARAGUND - 582 207. TQ. : NARAGUND,  DIST. : GADAG",GADAG,NARGUND,KARNATAKA,264512
469,KARNATAKA VIKAS GRAMEENA BANK,KVGB0006204,KONNUR,"HORAKERI BLDG OLD VIJAYA BANK BLDG, MAIN ROAD, KONNUR TQ: NARAGUND, DIST : GADAG",GADAG,KONNUR,KARNATAKA,0
470,KARNATAKA VIKAS GRAMEENA BANK,KVGB0006205,SHIROL,"CHANDANNVAR BUILDING, HADLI ROAD , SHIROL-582207, TQ : NARAGUND, DT: GADAG",GADAG,SHIROL,KARNATAKA,0
471,KARNATAKA VIKAS GRAMEENA BANK,KVGB0006301,ABBIGERI,"ABBIGERI BRANCH NEAR GANDHI CIRCLE,TARUNA SANGH BUILDING,ABBIGERI - 582 111. TQ. : RON, DIST. : GADAG.",GADAG,ABBIGERI,KARNATAKA,282217
472,KARNATAKA VIKAS GRAMEENA BANK,KVGB0006302,GAJENDRAGAD,"GAJENDRAGAD BRANCH MEHARWADE BUILDING,MAIN ROAD,GAJENDRAGAD - 582 114. TQ. : RON,  DIST. : GADAG.",GADAG,GAJENDRAGAD,KARNATAKA,262217
473,KARNATAKA VIKAS GRAMEENA BANK,KVGB0006303,HIREHAL,"HIREHAL BRANCH SRI VEERABHADRESHWAR TRUST COMMITTEE BUILDING,HIREHAL - 582 217. TQ. : RON,  DIST. : GADAG.",GADAG,HIREHAL,KARNATAKA,286243
474,KARNATAKA VIKAS GRAMEENA BANK,KVGB0006304,MENASAGI,"MENASAGI BRANCH  KULKARNI BUILDING, MENASAGI - 582 232 TQ. : RON,  DIST. : GADAG.",GADAG,MENASIGI,KARNATAKA,217301
475,KARNATAKA VIKAS GRAMEENA BANK,KVGB0006305,MUSHIGERI,"MUSHIGERI BRANCH V. B. SAJJANAR BUILDING, NEAR BUS STAND, MUSHIGERI - 582 211. TQ. : RON,  DIST. : GADAG.",GADAG,MUSHIGERI,KARNATAKA,287229
476,KARNATAKA VIKAS GRAMEENA BANK,KVGB0006306,NAREGAL(RON,"NAREGAL BRANCH RAMABAI B. KULKARNI BUILDING, NAREGAL - 582 119. TQ. : RON,  DIST. : GADAG.",GADAG,NAREGAL,KARNATAKA,268111
477,KARNATAKA VIKAS GRAMEENA BANK,KVGB0006307,NIDAGUNDI,"NIDAGUNDI BRANCH  PANCHAYAT BUILDING, NIDAGUNDI - 582 130. TQ. : RON,  DIST. : GADAG.",GADAG,NIDAGUNDI,KARNATAKA,283247
478,KARNATAKA VIKAS GRAMEENA BANK,KVGB0006308,RON,"RON BRANCH G.S. PATIL COMPLEX, MAIN ROAD, RON - 582 209. TQ. : RON,  DIST. : GADAG. PH.NO. 08381 267261",GADAG,RON,KARNATAKA,267261
479,KARNATAKA VIKAS GRAMEENA BANK,KVGB0006309,SAVADI,"SAVADI BRANCH PANCHAYAT BUILDING, MAIN ROAD, SAVADI - 582 219. TQ. : RON,  DIST. : GADAG",GADAG,SAWADI,KARNATAKA,285407
480,KARNATAKA VIKAS GRAMEENA BANK,KVGB0006310,SUDI,"SUDI BRANCH M. S. BIDARUR BUILDING,SUDI - 582 211. TQ. : RON,  DIST. : GADAG.",GADAG,SUDI,KARNATAKA,284256
481,KARNATAKA VIKAS GRAMEENA BANK,KVGB0006311,HOLE ALUR,"HOLE ALUR BRANCH KALAMANI. BUILDING, NEAR I.B HOLE ALUR- 582 118. TQ. : RON, DIST. : GADAG",GADAG,HOLE ALUR,KARNATAKA,266111
482,KARNATAKA VIKAS GRAMEENA BANK,KVGB0006312,YAVAGAL,"YAVAGAL VSS BANK LTD, A/P: YAVAGAL TQRON DT GADAG",GADAG,NARGUND,KARNATAKA,212016
483,KARNATAKA VIKAS GRAMEENA BANK,KVGB0006313,ASUTI,"SRI KARYAMMA DEVI TRUST BLDG, ASUTIT TQ.RON DT GADAG",GADAG,HOLE ALUR,KARNATAKA,280289
484,KARNATAKA VIKAS GRAMEENA BANK,KVGB0006314,ITAGI,GRAM PANCHAYAT BUILDING  A/P ITAGI TQ.RON  PIN ┬û 582 212,GADAG,SUDI,KARNATAKA,0
485,KARNATAKA VIKAS GRAMEENA BANK,KVGB0006315,SHANTAGIRI,"GRAMA PANCHAYATH BUILDING, SHANTAGIRI",GADAG,RON,KARNATAKA,9480699680
486,KARNATAKA VIKAS GRAMEENA BANK,KVGB0006316,JAKKALI,"PRATHAMIKA KRISHI PATTINA SAHAKARI SANGHA BUILDING, JAKKALI",GADAG,RON,KARNATAKA,9480699679
487,KARNATAKA VIKAS GRAMEENA BANK,KVGB0006317,HALAKERI,"KARNATAKA VIKAS GRAMEENA BANK, GRAM PANCHAYAT BUILDING, HALAKERI, TQ RON",GADAG,RON,KARNATAKA,2442204
488,KARNATAKA VIKAS GRAMEENA BANK,KVGB0006401,HOLE-ITAGI,"HOLE-ITAGI BRANCH GANIGER BUILDING,HOLE ITAGI - 582 112. TQ. : SHIRAHATTI,  DIST. : GADAG.",GADAG,HOLE-ITAGI,KARNATAKA,260714
489,KARNATAKA VIKAS GRAMEENA BANK,KVGB0006402,LAXMESWARA,"LAXMESHWAR BRANCH SHETH BUILDING,  NEAR BUS STAND,LAXMESHWAR - 582 116. TQ. : SHIRAHATTI,  DIST. : GADAG",GADAG,LAKSHMESHWAR,KARNATAKA,272261
490,KARNATAKA VIKAS GRAMEENA BANK,KVGB0006403,SHIRAHATTI(DWD),"SHIRAHATTI BRANCH KUBASAD BUILDING,MARKET ROAD, SHIRAHATTI - 582 120. DT: GADAG",GADAG,SHIRAHATTI,KARNATAKA,0
491,KARNATAKA VIKAS GRAMEENA BANK,KVGB0006404,SURANAGI,"SURANAGI BRANCH PANCHAYAT BUILDING,SURANAGI - 582 215. TQ. : SHIRAHATTI,  DIST. : GADAG.",GADAG,SURANGGI,KARNATAKA,271229
492,KARNATAKA VIKAS GRAMEENA BANK,KVGB0006405,YALAVATTI,"YALAWATTI BRANCH V.P.C. BUILDING,YALAWATTI - 582 114. TQ. : SHIRAHATTI,  DIST. : GADAG",GADAG,YALAVATTI,KARNATAKA,244272
493,KARNATAKA VIKAS GRAMEENA BANK,KVGB0006406,BELLATTI,", BELLATTI, SHIRAHATTIMATH BUILDING , NEAR BUS STAND, TQ: SHIRAHATTI, DIST GADAG",GADAG,BELLATTI,KARNATAKA,269672
494,KARNATAKA VIKAS GRAMEENA BANK,KVGB0006407,HEBBAL,"GRAM PANCHAYAT BLDG,HEBBAL TQ. SHIRAHATTI DT.GADAG",GADAG,HOLE-ITAGI,KARNATAKA,0
495,KARNATAKA VIKAS GRAMEENA BANK,KVGB0006408,BALEHOSUR,GRAM PANCHAYAT BUILDING  A/P BALAEHOSUR TQ.SHIRAHATTI  PIN ┬û 582 112,GADAG,SURANGGI,KARNATAKA,0
496,KARNATAKA VIKAS GRAMEENA BANK,KVGB0006409,SHIGLI,R.F.KUSANUR BUILDING SHIGLI  TQ. SHIRAHATTI DT: GADAG PIN ┬û 582 210,GADAG,SHIGLI,KARNATAKA,0
497,KARNATAKA VIKAS GRAMEENA BANK,KVGB0006410,MAGADI,"SRI GAJANANA COMPLEX, GADA LAXMISHWAR ROAD MAGADI,TQ: SHIRAHATTI, DT: GADAG",GADAG,SHIRAHATTI,KARNATAKA,0
498,KARNATAKA VIKAS GRAMEENA BANK,KVGB0007000,HAVERI R O,"SURAJ COMPLEX HIGH SCHOOL ROAD NEAR SBM,P B ROAD,HAVERI 581 110",HAVERI,HAVERI,KARNATAKA,0
499,KARNATAKA VIKAS GRAMEENA BANK,KVGB0007001,BYADAGI,"BYADAGI BRANCHT.M.C. BUILDING,  NEAR BUS STAND,  BYADAGI - 581 106.  TQ. : BYADAGI, DIST. : HAVERI.",HAVERI,BYADGI,KARNATAKA,229108
500,KARNATAKA VIKAS GRAMEENA BANK,KVGB0007002,CHIKBASUR,"CHIKKABASUR BRANCH SRI MALLIGER BUILDING, CHIKKABASUR 581 120. TQ BYADAGI, DIST HAVERI",HAVERI,CHIKKABASUR,KARNATAKA,288337
501,KARNATAKA VIKAS GRAMEENA BANK,KVGB0007003,KADARAMANDALAGI,"KADARMANDALAGI BRANCHANJANEYASWAMY TRUST BUILDING,  KADARAMANDALAGI - 581 146.  TQ. : BYDAGI,┬á DIST. : HAVERI.",HAVERI,KADARMANDALGI,KARNATAKA,228979
502,KARNATAKA VIKAS GRAMEENA BANK,KVGB0007004,KAGINELLI,"KAGINELLI BRANCHANJUMAN-E-ISLAM BUILDING,  KAGINELLI - 581 153.  TQ. : BYADAGI,┬á DIST. : HAVERI┬á┬á┬á┬á┬á┬á┬á┬á┬á",HAVERI,KAGINELLI,KARNATAKA,289234
503,KARNATAKA VIKAS GRAMEENA BANK,KVGB0007005,MOTEBENNUR,"┬áMOTEBENNUR BRANCHPANCHAYAT BUILDING,  MOTEBENNUR . TQ. : BYADAGI,┬á DIST. : HAVERI.",HAVERI,MOTEBENNUR,KARNATAKA,228424
504,KARNATAKA VIKAS GRAMEENA BANK,KVGB0007006,BISALAHALLI,"SHEKARAGOUDA PATIL BUILDING, MAIN ROAD, BISALAHALLI",HAVERI,BYADGI,KARNATAKA,9480699677
505,KARNATAKA VIKAS GRAMEENA BANK,KVGB0007101,ADUR,"ADUR BRANCH ┬á  MAIN ROAD,  ADUR - 581 101.TQ. : HANAGAL┬á DIST. : HAVERI",HAVERI,ADUR,KARNATAKA,265235
506,KARNATAKA VIKAS GRAMEENA BANK,KVGB0007102,AKKIALUR,"AKKI-ALUR BRANCHMARKET ROAD,  AKKI ALUR - 581 102.  TQ. : HANAGAL, DIST. : HAVERI.",HAVERI,AKKIALUR,KARNATAKA,261665
507,KARNATAKA VIKAS GRAMEENA BANK,KVGB0007103,CHI.HOSUR,"CHIKKABASUR BRANCH SRI MALLIGER BUILDING, CHIKKABASUR - 581 120. TQ. : BYADAGI, DIST. : HAVERI.",HAVERI,CHIKKAUNSHI HOSUR,KARNATAKA,269210
508,KARNATAKA VIKAS GRAMEENA BANK,KVGB0007104,HANAGAL,"HANGAL BRANCHPARANDE BUILDING,  NEAR UDASHI KALAYAN MANTAP,  BUS STAND ROAD,  HANAGAL - 581 104. TQ. : HANAGAL,┬á DIST. : HAVERI.┬á┬á┬á┬á┬á┬á┬á┬á",HAVERI,HANGAL,KARNATAKA,262216
509,KARNATAKA VIKAS GRAMEENA BANK,KVGB0007105,KUSANUR,"KUSANUR BRANCH  KODANDI BUILDING, HALEPETH, KUSANUR - 581 120. TQ. : HANAGAL,┬á DIST. : HAVERI.",HAVERI,KUSNUR,KARNATAKA,268330
510,KARNATAKA VIKAS GRAMEENA BANK,KVGB0007106,NAREGAL,"NAREGAL BRANCHNEAR BUS STAND,  NAREGAL - 581 165. TQ. : HANAGAL,┬á DIST. : HAVERI.",HAVERI,NAREGAL,KARNATAKA,267230
511,KARNATAKA VIKAS GRAMEENA BANK,KVGB0007107,SHESHAGIRI,"SHESHAGIRI BRANCHPANCHAYAT BUILDING,  SHESHAGIRI - 581 138. TQ. : HANAGAL,┬á DIST. : HAVERI.",HAVERI,SHESHAGIRI,KARNATAKA,264405
512,KARNATAKA VIKAS GRAMEENA BANK,KVGB0007108,TILAVALLI,"TILAVALLI BRANCHTQ. : HANAGAL,┬á DIST. : HAVERI.┬á┬á┬á┬á┬á",HAVERI,TILAVALLI,KARNATAKA,264875
513,KARNATAKA VIKAS GRAMEENA BANK,KVGB0007109,BOMMANAHALLI,"GRAM PANCHAYAT BLDG MAIN ROAD, BOMMANAHALLI TQ. HANGAL DT: HAVERI PIN ┬û 581 203",HAVERI,BOMMANAHALLI,KARNATAKA,0
514,KARNATAKA VIKAS GRAMEENA BANK,KVGB0007110,BAICHAWALLI,BAYALU RANGAMANDIR BLDG PO: BAICHAVALLI TQ.  HANGAL  DT: HAVERI PIN ┬û 581 104,HAVERI,HANGAL,KARNATAKA,0
515,KARNATAKA VIKAS GRAMEENA BANK,KVGB0007111,KANCHINEGALUR,"M R LANGTI BUILDING, KANCHINEGALUR",HAVERI,HANGAL,KARNATAKA,9480699191
516,KARNATAKA VIKAS GRAMEENA BANK,KVGB0007112,SOMASAGAR,"KARNATAKA VIKAS GRAMEENA BANK, TILAVALLI BUILDING, MAIN ROAD, NEAR GRAM PANCHAYAT, SOMASAGAR, TQ HANGAL, DIST HAVERI",HAVERI,HANGAL,KARNATAKA,7022599735
517,KARNATAKA VIKAS GRAMEENA BANK,KVGB0007113,HERUR,"BHAGSAR BUILDING, HERUR, TQ- HANGAL DIST HAVERI PIN CODE - 581148",HAVERI,HERUR,KARNATAKA,9480699043
518,KARNATAKA VIKAS GRAMEENA BANK,KVGB0007201,AGADI,"AGADI BRANCH  PRABHU SWAMYMATH BUILDING, AGADI - 581 128. TQ. : HAVERI, DIST. HAVERI.",HAVERI,AGADI,KARNATAKA,286126
519,KARNATAKA VIKAS GRAMEENA BANK,KVGB0007202,BELAVIGI,"BELAVIGI BRANCH  V.P.C. NO. 67,  M. H. DADDI BUILDING, BELAVIGI - 581 108. TQ. : HAVERI, DIST. : HAVERI.",HAVERI,BELAVIGI,KARNATAKA,225529
520,KARNATAKA VIKAS GRAMEENA BANK,KVGB0007203,DEVAGIRI,"DEVAGIRI BRANCHPANCHAYAT BUILDING,  DEVAGIRI - 581 132. TQ. : HAVERI, DIST. : HAVERI.",HAVERI,DEVGIRI,KARNATAKA,283305
521,KARNATAKA VIKAS GRAMEENA BANK,KVGB0007204,DEVIHOSUR,"DEVIHOSUR BRANCHPANCHAYAT BUILDING, DEVIHOSUR - 581 152. TQ. : HAVERI, DIST. : HAVERI.",HAVERI,DEVI.HOSUR,KARNATAKA,284463
522,KARNATAKA VIKAS GRAMEENA BANK,KVGB0007205,HAVANUR,"HAVANUR BRANCH  J. R. Y. BUILDING, HAVANUR - 581 133. TQ. : HAVERI,┬á DIST. : HAVERI.┬á┬á┬á┬á┬á┬á┬á┬á┬á┬á┬á┬á",HAVERI,HAVANUR,KARNATAKA,221429
523,KARNATAKA VIKAS GRAMEENA BANK,KVGB0007206,HAVERI,"HAVERI MAIN BRANCH  G. G. MAGAVI CHAMBERS┬á┬á┬áNEAR BUS STAND, P. B. ROAD, HAVERI - 581 110.  TQ. : HAVERI,┬á DIST. : HAVERI",HAVERI,HAVERI,KARNATAKA,236425
524,KARNATAKA VIKAS GRAMEENA BANK,KVGB0007207,HOSARITTI,"HOSARITTI BRANCH  KRISHNA COMPLEX, NEAR BUS STAND, HOSARITTI - 581 213. TQ. : HAVERI,┬á DIST. : HAVERI.",HAVERI,HOSARITTI,KARNATAKA,287765
525,KARNATAKA VIKAS GRAMEENA BANK,KVGB0007208,NEGALUR,"NEGALUR BRANCH  JRY BUILDING, BAZAR ROAD, NEGALUR - 581 155.  TQ. : HAVERI,┬á DIST. : HAVERI.┬á┬á┬á┬á┬á┬á┬á┬á┬á┬á┬á┬á┬á",HAVERI,HAVERI,KARNATAKA,220660
526,KARNATAKA VIKAS GRAMEENA BANK,KVGB0007209,SANGUR,"SANGUR BRANCH  P. G. BELAVIGI BUILDING, HAVERI - HANAGAL ROAD, SANGUR - 581 148. TQ. : HAVERI,┬á DIST. : HAVERI.",HAVERI,SANGUR,KARNATAKA,284442
527,KARNATAKA VIKAS GRAMEENA BANK,KVGB0007210,VIDYANAGAR HVR,"HAVERI ┬û VIDYANAGAR BRANCH  DC OFFICE ROAD, VIDYANAGAR, HAVERI ┬û581 110",HAVERI,HAVERI,KARNATAKA,237314
528,KARNATAKA VIKAS GRAMEENA BANK,KVGB0007211,GUTTAL,"GUTTAL BRANCHBHUSANUR MATH BUILDING, BAZAAR ROAD, GUTTAL - TQ. : GUTTAL,┬á DIST. : HAVERI.┬á┬á┬á┬á┬á┬á┬á┬á┬á PH.NO. 08375 291656",HAVERI,GUTTAL,KARNATAKA,291656
529,KARNATAKA VIKAS GRAMEENA BANK,KVGB0007212,DC EXTEN VIDYANAGAR HVR,DC OFFICE COMPLEX HAVERI DT HAVERI,HAVERI,HAVERI,KARNATAKA,249067
530,KARNATAKA VIKAS GRAMEENA BANK,KVGB0007213,YALAGACHCHA,"SRI S B DASHAMANI BLDG, YALAGACHCHA TQ & DT. HAVERI",HAVERI,HAVERI,KARNATAKA,0
531,KARNATAKA VIKAS GRAMEENA BANK,KVGB0007214,KANAVALLI,DR. JARTARGHAR BLDG PO. KANAVALLI TQ. HAVERI DT: HAVERI  PIN ┬û 581 172,HAVERI,HAVERI,KARNATAKA,0
532,KARNATAKA VIKAS GRAMEENA BANK,KVGB0007215,KABBUR,GRAM PANCHAYAT BUILDING KABBURTQ. HAVERI DT: HAVERI PIN ┬û 581 110,HAVERI,HAVERI,KARNATAKA,0
533,KARNATAKA VIKAS GRAMEENA BANK,KVGB0007217,NAGENDRAMATTI EXTENSION,"KARNATAKA VIKAS GRAMEENA BANK, SRI. HANUMANTAPPA H DEVAGIRI BUILDING, NAGENDRAMATTI EXTENSION, HAVERI",HAVERI,HAVERI,KARNATAKA,2442204
534,KARNATAKA VIKAS GRAMEENA BANK,KVGB0007218,SHG BRANCH HAVERI,KARNATAKA VIKAS GRAMEENA BANK SHG BRANCH HAVERI,HAVERI,HAVERI,KARNATAKA,9480699046
535,KARNATAKA VIKAS GRAMEENA BANK,KVGB0007301,HAUNSBHAVI,"NKHAUNSABHAVI BRANCHSRI M. M. MALIMATH BUILDINGD. NO. 409, MAIN ROAD,  HAUNSABHAVI - 581 109.  TQ. : HIREKERUR,┬á DIST. : HAVERI.┬á┬á┬á",HAVERI,HAUNSBHAVI,KARNATAKA,289066
536,KARNATAKA VIKAS GRAMEENA BANK,KVGB0007302,HIREKERUR,"HIREKERUR BRANCHSRI N. C. BANAKAR BUILDING,  OPP. K.S.R.T.C. BUS STAND,  HIREKERUR - 581 111.  TQ. : HIREKERUR,┬á DIST. : HAVERI",HAVERI,HIREKERUR,KARNATAKA,282209
537,KARNATAKA VIKAS GRAMEENA BANK,KVGB0007303,KOD,"┬á  KOD BRANCH┬á┬á┬á┬áPANCHAYAT BUILDING,  KOD - 591 283.  TQ. : HIREKERUR,┬á DIST. : HAVERI.┬á┬á┬á┬á┬á┬á┬á┬á┬á",HAVERI,HIREKERUR,KARNATAKA,287035
538,KARNATAKA VIKAS GRAMEENA BANK,KVGB0007304,KUDUPALI,"KUDUPALI BRANCH  RAMAGIRI BUILDING,  KUDUPALI -┬á 581 115.  TQ. : HIREKERUR,┬á DIST. : HAVERI.",HAVERI,KUDAPALI,KARNATAKA,286383
539,KARNATAKA VIKAS GRAMEENA BANK,KVGB0007305,RATTIHALLI,"RATTIHALLI BRANCHBAJIRAYA BUILDING,  MASUR ROAD,  RATTIHALLI - 581 116.  TQ. : HIREKERUR,┬á DIST. : HAVERI.┬á┬á┬á┬á┬á┬á┬á┬á┬á┬á",HAVERI,RATTIHALLI,KARNATAKA,286282
540,KARNATAKA VIKAS GRAMEENA BANK,KVGB0007306,TADAKANAHALLI,"TADAKANAHALLI  PANCHAYAT BUILDING,  TADAKANAHALLI - 581 210.  TQ. : HIREKERUR,┬á DIST. : HAVERI.┬á┬á┬á┬á┬á┬á┬á",HAVERI,TADAKANAHALLI,KARNATAKA,258827
541,KARNATAKA VIKAS GRAMEENA BANK,KVGB0007307,TIPPAIKOPPA,"TIPPAIKOPPA BRANCH┬á┬á┬á┬á┬á┬á CHALAGERI BUILDING,  TIPPAIKOPPA - 581 210.  TQ. : HIREKERUR,┬á DIST. : HAVERI.┬á┬á┬á",HAVERI,YATTINAHALLI,KARNATAKA,285097
542,KARNATAKA VIKAS GRAMEENA BANK,KVGB0007308,HALLUR,"SRI LAXMI RANGANATH COMMERCIAL COMPLEX, HALLUR TQ. HIREKERUR DT> HAVERI",HAVERI,HIREKERUR,KARNATAKA,0
543,KARNATAKA VIKAS GRAMEENA BANK,KVGB0007309,CHEKERUR,GRAM PANCHAYATI BLDG A/P:  CHIKKERUR TQ.HIREKERUR  DT: HAVERI,HAVERI,CHIKKERUR,KARNATAKA,0
544,KARNATAKA VIKAS GRAMEENA BANK,KVGB0007310,CHINNAMULAGUND,"GRAM PANCHAYAT BUILDING, TQ: HIREKERUR- 581109,DIST: HAVERI",HAVERI,HIREKERUR,KARNATAKA,0
545,KARNATAKA VIKAS GRAMEENA BANK,KVGB0007311,NESHWI,"KARNATAKA VIKAS GRAMEEN BANK, PATIL BUILDING, NESHWI, TQ HIREKERUR, DT HAVERI, KARNATAKA",HAVERI,HIREKERUR,KARNATAKA,7022599712
546,KARNATAKA VIKAS GRAMEENA BANK,KVGB0007312,LINGADEVARAKOPPA,"LOKAPPA BHIMAPPA LAMANI BUILDING, BYADAGI- RATTIHALLI ROAD, AT POST LINGADEVARAKOPPA - 581208, TQ. HIREKERUR, DIST HAVERI",HAVERI,HIREKERUR,KARNATAKA,0
547,KARNATAKA VIKAS GRAMEENA BANK,KVGB0007401,AREMALLAPUR,"AREMALLAPUR BRANCH  GIDDAPPANAVAR BUILDING, AREMALLAPUR - 581 221.TQ. : RANEBENNUR, DIST. : HAVERI.",HAVERI,AREMALLAPUR,KARNATAKA,245411
548,KARNATAKA VIKAS GRAMEENA BANK,KVGB0007402,CHALAGERI,"CHALAGERI BRANCH KERUR BUILDING,  CHALAGERI - 581 145.  TQ. : RANEBENNUR, DIST. : HAVERI.",HAVERI,CHALAGERI,KARNATAKA,248603
549,KARNATAKA VIKAS GRAMEENA BANK,KVGB0007403,HALAGERI,"HALAGERI BRANCH  DR. V. V. GIRIGOUDAR BUILDING, NEAR BUS STAND,HALAGERI - 581 208. TQ. : RANEBENNUR,┬á DIST. : HAVERI.",HAVERI,HALGERI,KARNATAKA,252366
550,KARNATAKA VIKAS GRAMEENA BANK,KVGB0007404,HARANAGIRI,"HARANAGIRI BRANCHGRAM PANCHAYAT BUILDING,  HARANAGIRI - 581 115  TQ. : RANEBENNUR,┬á DIST. : HAVERI",HAVERI,HARANAGIRI,KARNATAKA,250343
551,KARNATAKA VIKAS GRAMEENA BANK,KVGB0007405,HONNATTI,"HONNATTI BRANCHPANCHAYAT BUILDING,  HONNATTI - 581 141.  TQ. : RANEBENNUR,┬á DIST. : HAVERI",HAVERI,HONNATTI,KARNATAKA,255110
552,KARNATAKA VIKAS GRAMEENA BANK,KVGB0007406,KAKOL,"KAKOL BRANCHDYMANGOUDAR BUILDING,  KAKOL - 581 118.TQ. : RANEBENNUR,┬á DIST. : HAVERI.",HAVERI,KAKOL,KARNATAKA,253517
553,KARNATAKA VIKAS GRAMEENA BANK,KVGB0007407,KODIYALA HOSPET,"KODIYAL-HOSPET BRANCHJ.D.H. COMPLEX,KODIYAL-HOSPET - 581 123  (KUMARPATTANAM) TQ. : RANEBENNUR, DIST. : HAVERI.",HAVERI,KUMARAPATNAM,KARNATAKA,240570
554,KARNATAKA VIKAS GRAMEENA BANK,KVGB0007408,KUPPELUR,"KUPPELUR BRANCHPANCHAYAT BUILDING,  KUPPELUR - 581 144.  TQ. : RANEBENNUR,┬á DIST. :HAVERI┬á",HAVERI,KUPPELUR,KARNATAKA,249102
555,KARNATAKA VIKAS GRAMEENA BANK,KVGB0007409,MEDLERI,"NKMEDLERI BRANCH SRI V. S. KOTTUR BUILDING,  MAIN ROAD, MEDLERI - 581 211.┬á┬áTQ. : RANEBENNUR,┬á DIST. : HAVERI.",HAVERI,MEDLERI,KARNATAKA,245450
556,KARNATAKA VIKAS GRAMEENA BANK,KVGB0007410,RANEBENNUR,"RANEBENNUR BRANCH┬ôSHIVAPARVATI┬ö HANAGODIMATH COMPLEX,  NEHRU MARKET,  RANEBENNUR - 581 115.┬á TQ. : RANEBENNUR,┬á DIST. :  HAVERI.",HAVERI,RANEBENNUR,KARNATAKA,268483
557,KARNATAKA VIKAS GRAMEENA BANK,KVGB0007411,SUNAKALBIDRI,"SUNAKALBIDRI BRANCHBASAVESHWAR DEVASTHAN BUILDING,  SUNAKALBIDRI - 581 115. TQ. : RANEBENNUR,┬á DIST. : HAVERI.",HAVERI,SUNKALBIDRI,KARNATAKA,254404
558,KARNATAKA VIKAS GRAMEENA BANK,KVGB0007412,MEDLERI ROAD RNR,"KANAVI COMPLEX, NEAR DR R B PATIL, MEDLERI ROAD TQ. RANEBENNUR DT. HAVERI",HAVERI,RANEBENNUR,KARNATAKA,0
559,KARNATAKA VIKAS GRAMEENA BANK,KVGB0007413,KARUR,PANCHAYAT BUILDING KARUR TQ.RANEBENNUR PIN ┬û 581 143,HAVERI,RANEBENNUR,KARNATAKA,0
560,KARNATAKA VIKAS GRAMEENA BANK,KVGB0007414,SIDDESHWAR NAGAR,"AJARATTI BUILDING, OPP SHETTI PETROL BUNK, PB ROAD, RANEBENNUR",HAVERI,RANEBENNUR,KARNATAKA,9480699693
561,KARNATAKA VIKAS GRAMEENA BANK,KVGB0007415,SHG BRANCH RANEBENNUR,KARNATAKA VIKAS GRAMEENA BANK SHG BRANCH RANEBENNUR RANEBENNUR TALUK HAVERI DIST,HAVERI,RANEBENNUR,KARNATAKA,0
562,KARNATAKA VIKAS GRAMEENA BANK,KVGB0007501,HATTIMATTUR,"HATTIMATTUR BRANCH GRAM PANCHAYAT BUILDING,MAIN ROAD,HATTIMATTUR - 581 109 TQ. : SAVANUR,┬á DIST. : HAVERI",HAVERI,HATTIMATTUR,KARNATAKA,240633
563,KARNATAKA VIKAS GRAMEENA BANK,KVGB0007502,SAVANUR,"SAVANUR BRANCHGUDISAGAR BUILDING, MARKET ROAD,  SAVANUR - 581 118.  TQ. : SAVANUR,┬á DIST. : HAVERI┬á┬á┬á┬á┬á┬á",HAVERI,SAVANUR,KARNATAKA,241716
564,KARNATAKA VIKAS GRAMEENA BANK,KVGB0007503,TEWARAMELLIHALI,"TEVARMELLIHALLI BRANCHPANCHAYAT BUILDING,  MAIN ROAD,  TEVAREMELLIHALLI - 581 214.  TQ. : SAVANUR,┬á DIST. : HAVERI.",HAVERI,TAVARMELLIHALLI,KARNATAKA,253515
565,KARNATAKA VIKAS GRAMEENA BANK,KVGB0007504,YALIVIGI,"YALAVIGI BRANCHJ. R. Y. BUILDING,  STATION ROAD,  YALAVIGI - 581 118. TQ. : SAVANUR,┬á DIST. : HAVERI.",HAVERI,YELAVIGI,KARNATAKA,240225
566,KARNATAKA VIKAS GRAMEENA BANK,KVGB0007505,KADAKOL,"GRAM PANCHAYAT BLDG, KADAKOL TQ.SAVANUR DT:HAVERI",HAVERI,SAVANUR,KARNATAKA,0
567,KARNATAKA VIKAS GRAMEENA BANK,KVGB0007506,KARADAGI,PANCHAYAT BUILDING KARADAGI TQ: SAVANUR PIN ┬û 581 126,HAVERI,SAVANUR,KARNATAKA,0
568,KARNATAKA VIKAS GRAMEENA BANK,KVGB0007507,JALLAPUR,PANCHAYAT BUILDING JALLAPUR TQ. SAVANUR PIN ┬û 581 118,HAVERI,SAVANUR,KARNATAKA,0
569,KARNATAKA VIKAS GRAMEENA BANK,KVGB0007508,HURALIKUPPI,"GRAMA PANCHAYATH BUILDING, MAIN ROAD, HURALIKUPPI",HAVERI,SAVANUR,KARNATAKA,9480699676
570,KARNATAKA VIKAS GRAMEENA BANK,KVGB0007509,HIREMARALIHALLI,"KARNATAKA VIKAS GRAMEENA BANK, KALLAPPA MALLANNAVAR BUILDING, HIREMARALIHALLI, TQ SAVANUR, DT HAVERI",HAVERI,SAVANUR,KARNATAKA,2442204
571,KARNATAKA VIKAS GRAMEENA BANK,KVGB0007601,BANKAPUR,"BANKAPUR BRANCHB. C. SHETTAR BUILDING,  MARKET ROAD, NEAR BUS STAND,  BANKAPUR - 581 202.  TQ. : SHIGGAON, DIST. : HAVERI",HAVERI,BANKAPUR,KARNATAKA,254857
572,KARNATAKA VIKAS GRAMEENA BANK,KVGB0007602,DHUNDASHI,"DHUNDASHI BRANCHGRAM PANCHAYAT BUILDING,  MAIN ROAD,DHUNDASHI - - 581 193.  TQ. : SHIGGAON,┬á DIST. : HAVERI",HAVERI,DHUNDSHI,KARNATAKA,251145
573,KARNATAKA VIKAS GRAMEENA BANK,KVGB0007603,HIREBENDIGERI,"HIREBENDIGERI BRANCHKADEEM DEEVAN BUILDING,  HIREBENDIGERI - 581 203.  TQ. : SHIGGAON, DIST. : HAVERI",HAVERI,HIREBENDIGERI,KARNATAKA,209013
574,KARNATAKA VIKAS GRAMEENA BANK,KVGB0007604,KONANKERI,"KONANKERI BRANCH  V.P.C. BUILDING,  NEAR BUS STAND,  KONANAKERI - 581 193. TQ. : SHIGGAON,┬á DIST. : HAVERI.┬á┬á┬á",HAVERI,KONANKERI,KARNATAKA,217277
575,KARNATAKA VIKAS GRAMEENA BANK,KVGB0007605,SHIGGAON,"SHIGGAON BRANCH  PRABHU NURSING HOME BUILDING, NEAR OLD BUS STAND, SHIGGAON - 581 205. TQ. : SHIGGAON,┬á DIST. : HAVERI.┬á┬á┬á┬á┬á┬á┬á",HAVERI,SHIGGAON,KARNATAKA,255249
576,KARNATAKA VIKAS GRAMEENA BANK,KVGB0007607,TADAS,"GRAM PANCHAYAT BLDG,TADAS TQ.SHIGGAON DT:HAVERI",HAVERI,TADAS,KARNATAKA,0
577,KARNATAKA VIKAS GRAMEENA BANK,KVGB0007608,BANNUR,PANCHAYAT BUILDING BANNUR TQ. SHIGGAON PIN ┬û 581 205,HAVERI,SHIGGAON,KARNATAKA,0
578,KARNATAKA VIKAS GRAMEENA BANK,KVGB0007609,HULAGUR,"Y B RAIKAR BUILDING , MARADI ONI , HULAGUR- 581126 TQ: SHIGOAN DT : HAVERI",HAVERI,HULGUR,KARNATAKA,0
579,KARNATAKA VIKAS GRAMEENA BANK,KVGB0008001,BELMAN,", BELMAN BRANCH,KARKALA TQ,UDUPI DISTRICT.",MANGALORE,BELMAN,KARNATAKA,274344
580,KARNATAKA VIKAS GRAMEENA BANK,KVGB0008002,HEBRI,", HEBRI BRANCH, KARKALA TQ, UDUPI DISTRICT.",MANGALORE,HEBRI,KARNATAKA,251300
581,KARNATAKA VIKAS GRAMEENA BANK,KVGB0008003,HOSMAR,", HOSMAR BRANCH, KARKALA TQ, UDUPI DISTRICT",MANGALORE,IDU,KARNATAKA,277374
582,KARNATAKA VIKAS GRAMEENA BANK,KVGB0008004,KARKALA,", KARAKALA BRANCH, KARKALA TQ, UDUPI DISTRICT.",MANGALORE,KARKALA,KARNATAKA,232820
583,KARNATAKA VIKAS GRAMEENA BANK,KVGB0008005,RENJAL,"SODE MATH ROAD , SRI VASU SHETTY BLDG, A/P RENJAL TQ. KARKAL",MANGALORE,KARKALA,KARNATAKA,0
584,KARNATAKA VIKAS GRAMEENA BANK,KVGB0008101,BYNDOOR,", BYNDOOR BRANCH, KUNDAPURA TQ, UDUPI DISTRICT.",MANGALORE,BYNDOOR,KARNATAKA,251399
585,KARNATAKA VIKAS GRAMEENA BANK,KVGB0008102,HALLIHOLE,", HALLIHOLE BRANCH, KUNDAPURA TQ, UDUPI DISTRICT.",MANGALORE,HALLIHOLE,KARNATAKA,277227
586,KARNATAKA VIKAS GRAMEENA BANK,KVGB0008103,HEMMADY,", HEMMADI BRANCH,KUNDAPURA TQ,UDUPI DISTRICT",MANGALORE,HEMMADI,KARNATAKA,278340
587,KARNATAKA VIKAS GRAMEENA BANK,KVGB0008104,KUNDAPUR,", KUNDAPUR BRANCH, KUNDAPURA TQ, UDUPI DISTRICT.",MANGALORE,COONDAPUR,KARNATAKA,232331
588,KARNATAKA VIKAS GRAMEENA BANK,KVGB0008105,AJRI,"SMT MS SHETTY BLDG,NEAR BUS STAND AJRI TQ. KUNDAPUR",MANGALORE,SIDDAPUR,KARNATAKA,0
589,KARNATAKA VIKAS GRAMEENA BANK,KVGB0008106,GOLIHOLE,SANJU GOUDA BLDG A/P: GOLIHOLE TQ. KUNDAPUR DT:UDUPI PIN ┬û 576 214,MANGALORE,KAMBADAKONE,KARNATAKA,0
590,KARNATAKA VIKAS GRAMEENA BANK,KVGB0008107,HUNSIMAKKI,"VASANTI M SHETTY BLDG, HOMBADY-MADADY PO: HUNSEMAKKI TQ. KUNDAPUR DT:UDUPI PIN- 576 222",MANGALORE,COONDAPUR,KARNATAKA,0
591,KARNATAKA VIKAS GRAMEENA BANK,KVGB0008108,AMPAR,"GRAMA PANCHAYATH BUILDING, AMPAR- 576211,  TQ: KUNDAPUR. DT: UDAPI",UDIPI,HANDADI,KARNATAKA,0
592,KARNATAKA VIKAS GRAMEENA BANK,KVGB0008109,MUDURU,"ST. MARY CHURCH COMPLEX, IST FLOOR, UDAYA NAGAR, MUDURU",UDIPI,BYNDOOR,KARNATAKA,9480699671
593,KARNATAKA VIKAS GRAMEENA BANK,KVGB0008110,ULTHOOR,KARNATAKA VIKAS GRAMEENA BANK BRANCH ULTHOOR KUNDAPUR TALUK UDUPI DIST,UDUPI,KUNDAPUR,KARNATAKA,9108699772
594,KARNATAKA VIKAS GRAMEENA BANK,KVGB0008201,BRAHMAVARA,", BRAHMAVAR BRANCH,UDUPI TQ,UDUPI DISTRICT.",MANGALORE,BRAHMAVARA,KARNATAKA,2562062
595,KARNATAKA VIKAS GRAMEENA BANK,KVGB0008202,KINNIMULKY,", KINNIMULKI (UDUPI) BRANCH, UDUPI ┬û 576 101 TQ&DIST: UDUPI",MANGALORE,UDUPI,KARNATAKA,2531416
596,KARNATAKA VIKAS GRAMEENA BANK,KVGB0008203,KOKKARNE,", KOKKARNE BRANCH, MAIN ROAD, KOKKARNE TQ & DT: UDUPI",MANGALORE,KOKKARNE,KARNATAKA,2598906
597,KARNATAKA VIKAS GRAMEENA BANK,KVGB0008204,PADUBIDRI,"PADUBIDRI BRANCH ACHARYA COMPLEX ,KARKAL CROSS , TQ. & DIST: UDUPI.",MANGALORE,NADSAL,KARNATAKA,2599199
598,KARNATAKA VIKAS GRAMEENA BANK,KVGB0008205,INDRALI,"INDRALLI ENGLISH MEDIUM SCHOOL COMPOUND, MGM COLLEGE OVER BRIDGE BUILDING, INDRALLI TQ: UDUPI, DIST: UDUPI",MANGALORE,UDUPI,KARNATAKA,2527660
599,KARNATAKA VIKAS GRAMEENA BANK,KVGB0008206,AMBAGILU,"AJIT COMPLEX ,KALSANKA ROAD ,AMBAGILU ┬û 576105, UDUPI, TQ& DT : UDUPI",UDIPI,AMBAGILU,KARNATAKA,0
600,KARNATAKA VIKAS GRAMEENA BANK,KVGB0008207,SAIBARAKATTE,"LAXMINARASIMHA,MAIN ROAD,SAIBARAKATTE",UDIPI,SAIBARAKATTE,KARNATAKA,9480699683
601,KARNATAKA VIKAS GRAMEENA BANK,KVGB0008208,GUDDE ANGADI,"KARNATAKA VIKAS GRAMEEN BANK, MATRU KRUPA, GUDDE ANGADI, BOMMARABETTU VILLAGE, VIA HIRIYADAKA, TQ AND DIST UDUPI, 576 113, KARNATAKA",UDIPI,HIRIADKA,KARNATAKA,7022599702
602,KARNATAKA VIKAS GRAMEENA BANK,KVGB0009000,KUMTA R O,"REGIONAL MANAGER,KARNATAKA VIKAS GRAMEENA BANK,RO,VIDYAGIRI,BAGGON ROAD,HERWATTA UMATA 581343",KUMTA,KUMTA,KARNATAKA,0
603,KARNATAKA VIKAS GRAMEENA BANK,KVGB0009001,AGASUR,"AGSUR BRANCH,MAIN ROAD,PO: AGSUR ┬û 581413,TA: ANKOLA,DIST UTTARA KANNADA.",KUMTA,AGSUR,KARNATAKA,276535
604,KARNATAKA VIKAS GRAMEENA BANK,KVGB0009002,ANKOLA,"ANKOLA BRANCH,PRABHU COMPLEX,KSRTC BUS STAND,TA: ANKOLA, 581 314,DIST UTTARA KANNADA",KUMTA,ANKOLA,KARNATAKA,232036
605,KARNATAKA VIKAS GRAMEENA BANK,KVGB0009003,HILLUR,HILLUR BRANCH PO: HILLUR- 581344 TA: ANKOLA DIST UTTARA KANNADA.,KUMTA,HILLUR,KARNATAKA,276023
606,KARNATAKA VIKAS GRAMEENA BANK,KVGB0009051,BHATKAL,"BHATKAL BRANCH,MUSHBA COMPLEX,OPP KSRTC COMPLEX,TA: BHATKAL, 581 320,DIST UTTARA KANNADA",KUMTA,BHATKAL,KARNATAKA,227098
607,KARNATAKA VIKAS GRAMEENA BANK,KVGB0009052,KONAR,"KONAR BRANCH PO: KONAR: 581320 TA: BHATKAL, DIST UTTARA KANNADA.",KUMTA,KONAR,KARNATAKA,266326
608,KARNATAKA VIKAS GRAMEENA BANK,KVGB0009053,MAVALLI (MURD),"MURDESHWAR BRANCH MURDESHWAR- 581350,PANHAYAT BUILDING TA: BHATKAL, DIST UTTARA KANNADA.",KUMTA,MURDESHWAR,KARNATAKA,268920
609,KARNATAKA VIKAS GRAMEENA BANK,KVGB0009101,DANDELI,"DANDELI BRANCH AR SULAD BUILDING, JN ROAD, KSRTC BUS STAND,TA: HALIYAL 581 314,DIST UTTARA KANNADA,",KUMTA,DANDELI,KARNATAKA,230797
610,KARNATAKA VIKAS GRAMEENA BANK,KVGB0009151,BELAVATAGI,"BELAWATAGI BRANCH PO: BELWATGI- 581329,TA: HALIYAL, DIST UTTARA KANNADA.",KUMTA,BELWATGI,KARNATAKA,271347
611,KARNATAKA VIKAS GRAMEENA BANK,KVGB0009152,HALIYAL,"HALIYAL BRANCH.FERNADES BUILDING,NEAR POST OFFICE,KSRTC BUS STAND,TA: HALYAL, 581 329,DIST UTTARA KANNADA",KUMTA,HALIYAL,KARNATAKA,221422
612,KARNATAKA VIKAS GRAMEENA BANK,KVGB0009201,ALLANKI,"ALLANKI BRANCH,PO: HERANGADI,TA: HONNAVAR ,DIST UTTARA KANNADA.",KUMTA,ALLANKI,KARNATAKA,261819
613,KARNATAKA VIKAS GRAMEENA BANK,KVGB0009202,HONNAVAR,"HONNAVAR BRANCH MAHALE COMPLEX, NH 17.PO: HARSIKATTA- 581334 TA: HONNAVAR DIST UTTARA KANNADA",KUMTA,HONAVAR,KARNATAKA,221041
614,KARNATAKA VIKAS GRAMEENA BANK,KVGB0009203,IDAGUNJI,IDAGUNJI BRANCH IDAGUNJI- 581423 TA: HONNAVAR DIST UTTARA KANNADA.,KUMTA,MELIN-IDGUNJI,KARNATAKA,247249
615,KARNATAKA VIKAS GRAMEENA BANK,KVGB0009204,KOLAGADDE,"KOLAGADDE BRANCH,PO: KHARVA ,TA: HONNAVAR, 581 424,DIST UTTARA KANNADA,",KUMTA,KHARWA,KARNATAKA,269826
616,KARNATAKA VIKAS GRAMEENA BANK,KVGB0009205,KAVALAKKI,"SAGAR ROAD , AT & POST KAVALAKKI - 581334, TQ: HONNAVAR DT UTTARA KANNADA",UTTAR KANNAD,HONAVAR,KARNATAKA,0
617,KARNATAKA VIKAS GRAMEENA BANK,KVGB0009207,KASARKOD,"KARNATAKA VIKAS GRAMEEN BANK, SRI GOPAL KRISHNA TEMPLE BUILDING, KASARKOD, TQ HONNAVAR, DT UTTARA KANNADA, KARNATAKA",UTTARA KANNADA,KASARKOD,KARNATAKA,7022599736
618,KARNATAKA VIKAS GRAMEENA BANK,KVGB0009208,KADLE,KARNATAKA VIKAS GRAMEENA BANK KADLE HEBBRNAKERI HONNAVAR UTTAR KANNADA,UTTAR KANNAD,KADLE,KARNATAKA,9449574362
619,KARNATAKA VIKAS GRAMEENA BANK,KVGB0009251,GUND,"GUND BRANCH, GUND- 581187, TA: JOIDA, DIST UTTARA KANNADA",KUMTA,JOIDA,KARNATAKA,252528
620,KARNATAKA VIKAS GRAMEENA BANK,KVGB0009252,ULAVI,"ULUVI BRANCH,TEMPLE BUILDING,PO: ULVI , TA: JOIDA,DIST UTTARA KANNADA.",KUMTA,ULVI KSHETRA,KARNATAKA,250802
621,KARNATAKA VIKAS GRAMEENA BANK,KVGB0009301,KARWAR,"KARWAR BRANCH,RADHAKRISHNA COMPLEX,TA: KARWAR, 581 301 DIST UTTARA KANNADA",KUMTA,KARWAR,KARNATAKA,220282
622,KARNATAKA VIKAS GRAMEENA BANK,KVGB0009302,AMADALLI,PANCHAYAT BUILDING AMADALLI  TQ.  KARWAR DT: U.K. PIN ┬û 581 324,UTTAR KANNAD,AVERSA,KARNATAKA,0
623,KARNATAKA VIKAS GRAMEENA BANK,KVGB0009303,MUDGERI,"KARNATAKA VIKAS GRAMEENA BANK, SHIVANATH TEMPLE TRUST BUILDING, MUDGERI, DT UTTAR KANNAD, KARNATAKA",UTTAR KANNAD,MUDGERI,KARNATAKA,9480699459
624,KARNATAKA VIKAS GRAMEENA BANK,KVGB0009351,GOKARN,"GOKARNA BRANCH, SREELAXMI, NEAR BUS STAND, TA: KUMATA 581 326, DIST: UTTARA KANNADA",KUMTA,GOKARN,KARNATAKA,257652
625,KARNATAKA VIKAS GRAMEENA BANK,KVGB0009352,KAGAL,"KAGAL BRANCH,PAI BUILDING, PO: KAGAL TA: KUMTA  581443 DIST: UTTARA KANNADA.",KUMTA,KAGAL,KARNATAKA,261150
626,KARNATAKA VIKAS GRAMEENA BANK,KVGB0009353,KUMTA,", KUMTA BRANCH,NELLIKERI, KUMTA-581343 MAHAVEER MANSION, DIST UTTARA KANNADA.",KUMTA,KUMTA,KARNATAKA,222416
627,KARNATAKA VIKAS GRAMEENA BANK,KVGB0009354,SANTEGULI,"SANTEGULI BRANCH PO: SANTEGULI- 581332 TA: KUMTA, DIST UTTARA KANNADA",KUMTA,SANTEGULI,KARNATAKA,273259
628,KARNATAKA VIKAS GRAMEENA BANK,KVGB0009355,KUMTA EC,"THE OFFICER IN-CHARGE , APMC YARD KUMTA.",KUMTA,KUMTA,KARNATAKA,222636
629,KARNATAKA VIKAS GRAMEENA BANK,KVGB0009356,BARGI,KARNATAKA VIKAS GRAMEENA BANK BRANCH BARGI KUMTA ANKOLA ROAD KUMTA TALUKA NH17 HIGH WAY UTTARKANNADA DIST,UTTAR KANNADA,KUMTA,KARNATAKA,9480699042
630,KARNATAKA VIKAS GRAMEENA BANK,KVGB0009401,HUNGUND,"HUNGUND BRANCH PO: HUNAGUND- 581349, TA: MUNDAGOD,DIST UTTARA KANNADA.",KUMTA,HUNGUNDA,KARNATAKA,270003
631,KARNATAKA VIKAS GRAMEENA BANK,KVGB0009402,MUNDGOD,"MUNDAGOD BRANCH,MAIN ROAD,TA: MUNDUGOD, 581 349, DIST UTTARA KANNADA,",KUMTA,MUNDGOD,KARNATAKA,222362
632,KARNATAKA VIKAS GRAMEENA BANK,KVGB0009403,NANDIKATTA,GRAM PANCHAYAT BUILDING NANDIKATTA TQ. MUNDGOD(U.K) PIN ┬û 581 411,KUMTA,MUNDGOD,KARNATAKA,0
633,KARNATAKA VIKAS GRAMEENA BANK,KVGB0009404,BEDASAGAON,KARNATAKA VIKAS GRAMEENA BANK BRANCH BEDASAGON TALUK MUNDAGOD DIST UTTAR KANNADA 581346,UTTAR KANNADA,MUNDAGOD,KARNATAKA,9480699042
634,KARNATAKA VIKAS GRAMEENA BANK,KVGB0009451,HARSIKATTA,HARSIKATTA BRANCH PO: HARSIKATTA- 581355 TA: SIDDAPUR DIST UTTARA KANNADA,KUMTA,HARSHIKATTA,KARNATAKA,248118
635,KARNATAKA VIKAS GRAMEENA BANK,KVGB0009452,SIDDAPUR,"SIDDAPUR BRANCH,MARAIA  COMPLEX,PO: SIDDAPUR 581 355 DIST UTTARA KANNADA",KUMTA,SIDDAPUR,KARNATAKA,230292
636,KARNATAKA VIKAS GRAMEENA BANK,KVGB0009453,VANDANE,VANDANE BRANCH PO: GUBBAGOD- 581355 TA: SIDDAPUR DIST UTTARA KANNADA,KUMTA,VANDANE,KARNATAKA,239050
637,KARNATAKA VIKAS GRAMEENA BANK,KVGB0009454,VANDANE EC,"INCHARGE , TEMPLE BUILDING, LAMBAPUR PO: VAJGOD",KUMTA,VANDANE,KARNATAKA,277074
638,KARNATAKA VIKAS GRAMEENA BANK,KVGB0009455,BIDARKAN,KARNATAKA VIKAS GRAMEENA BANK BRANCH BIDARKAN TALUK SIDDAPUR DIST UTTAR KANNADA,UTTAR KANNADA,SIDDAPUR,KARNATAKA,9480699042
639,KARNATAKA VIKAS GRAMEENA BANK,KVGB0009456,HERUR,KARNATAKA VIKAS GRAMEENA BANK BRANCH HERUR SIDDAPURA TALUK UTTAR KANNADA DIST,UTTAR KANNADA,SIDDAPUR,KARNATAKA,9108699770
640,KARNATAKA VIKAS GRAMEENA BANK,KVGB0009501,KORLAKATTA,KORLAKATTA BRANCH PO: KORALKATTA- 581318 TA: SIRSI DIST UTTARA KANNADA.,KUMTA,KORLAKATTA,KARNATAKA,284010
641,KARNATAKA VIKAS GRAMEENA BANK,KVGB0009502,SIRSI,"SIRSI BRANCH SHAKTI CHAMBERS DEVIKERE ROAD, SIRSI ┬û 581401,DIST UTTARA KANNADA.",KUMTA,SIRSI,KARNATAKA,225665
642,KARNATAKA VIKAS GRAMEENA BANK,KVGB0009503,VANAHALLI,"VANALLI BRANCH PO: VANALLI ┬û 581336, TA: SIRSI,DIST UTTARA KANNADA.",KUMTA,VANALLI,KARNATAKA,246838
643,KARNATAKA VIKAS GRAMEENA BANK,KVGB0009504,BHAIRUMBE,"KVG BANK, GRAM PANCHAYAT BUILDING BHAIRUMBE TQ SIRSI UTTAR KANNADA",UTTAR KANNADA,SIRSI,KARNATAKA,9108699768
644,KARNATAKA VIKAS GRAMEENA BANK,KVGB0009551,UMACHAGI,"UMACHAGI BRANCH PO: UMACHAGI- 581 347 TA: YALLAPUR DIST UTTARA KANNADA,",KUMTA,KUNDARGI,KARNATAKA,255651
645,KARNATAKA VIKAS GRAMEENA BANK,KVGB0009552,VAJRALLI,"VAJRALLI BRANCH PO: VAJRALLI ┬û 581337, TA: YELLAPUR, DIST UTTARA KANNADA.",KUMTA,VAJRALLI,KARNATAKA,238004
646,KARNATAKA VIKAS GRAMEENA BANK,KVGB0009553,YELLAPUR,"YELLAPUR BRANCH YELLAPUR- 581359 HUBLI-KARWAR ROAD, DIST UTTARA KANNADA",KUMTA,YELLAPUR,KARNATAKA,261127
647,KARNATAKA VIKAS GRAMEENA BANK,KVGB0009554,MADNUR,GRAM PANCHAYAT BUILDING  MADANUR AT/PO:HUNSHETTIKOPPA TQ. YELLAPUR (U.K)  PIN ┬û 581 359,KUMTA,YELLAPUR,KARNATAKA,0
648,KARNATAKA VIKAS GRAMEENA BANK,KVGB0009555,GULLAPUR,NAGAPATI HEGDE BLDG A/P: GULLAPUR TQ. YELLAPURDT:U.K. PIN ┬û 581 337,KUMTA,YELLAPUR,KARNATAKA,0
649,KARNATAKA VIKAS GRAMEENA BANK,KVGB0099933,MOBILE BANKING,KARNATAKA VIKAS GRAMEENA BANK POST BOX NO 111 HEAD OFFICE IT DIVISION MOBILE BANKING VIRTUAL BRANCH DHARWAD 580008,DHARWAD,DHARWAD,KARNATAKA,2442204
