,BANK NAME,IFSC,OFFICE,ADDRESS,DISTRICT,CITY,STATE,PHONE
0,THE COSMOS CO OPERATIVE BANK LIMITED,COSB0000001,PARVATI DARSHAN,"46, KAKAHALWAI ESTATE, SOMSHANKAR CHAMBERS, SATARA ROAD, PUNE 411 009",PUNE,PUNE,MAHARASHTRA,24222386
1,THE COSMOS CO OPERATIVE BANK LIMITED,COSB0000002,KHADKI BAZAR,"NEW BAZAR,H.NO 82,KOHINOOR PLAZA, DR. BABASAHEB AMBEDKAR ROAD, PUNE 411003",PUNE,PUNE,MAHARASHTRA,25817225
2,THE COSMOS CO OPERATIVE BANK LIMITED,COSB0000003,GOKHALE NAGAR,"1038/7, YOGINI APARTMENT, GOKHALE NAGAR, PUNE  411 016",PUNE,PUNE,MAHARASHTRA,25654743
3,THE COSMOS CO OPERATIVE BANK LIMITED,COSB0000004,KOTHRUD,"128/2, SWAROOP NAGARI, KOTHRUD, PUNE 411 029",PUNE,PUNE,MAHARASHTRA,25462978
4,THE COSMOS CO OPERATIVE BANK LIMITED,COSB0000005,VITHALWADI,"47, SHIVPRASAD HSG.SOC., PANMALA, VITHALWADI, PUNE 411 030",PUNE,PUNE,MAHARASHTRA,24331820
5,THE COSMOS CO OPERATIVE BANK LIMITED,COSB0000006,CHINCHWAD,"SHRI AGRASEN BHAVAN NEAR JAYASHREE THEATRE,OPP CHURCH, PUNE MUMBAI ROAD,CHINCHWAD,PUNE 411019",PUNE,PUNE,MAHARASHTRA,27474792
6,THE COSMOS CO OPERATIVE BANK LIMITED,COSB0000007,AUNDH- SANEWADI,"NAV-VRUSHALI HSG. SOC. S.NO.128/4, PLOT NO 7, AUNDH,PUNE 411 007",PUNE,PUNE,MAHARASHTRA,5882697
7,THE COSMOS CO OPERATIVE BANK LIMITED,COSB0000008,KATRAJ,"19 A/1, ROYAL ARCADE, NEAR SHANKAR MAHARAJ MATH, DHANKAWADI, PUNE 411 043",PUNE,PUNE,MAHARASHTRA,4377403
8,THE COSMOS CO OPERATIVE BANK LIMITED,COSB0000009,GANESH NAGAR,"S.NO.32/1 & 33/(2+3), PLOT NO 1, MEGHSAGAR,SWASTISHREE SAHAKARI, GRIHARACHANA SANSTHA (MARYADIT), GANESHNAGAR, PUNE 411 052",PUNE,PUNE,MAHARASHTRA,25441141
9,THE COSMOS CO OPERATIVE BANK LIMITED,COSB0000010,LAXMI ROAD,"476, NEW NARAYAN PETH, NEAR LOKHANDE TALIM,LAXMI ROAD, PUNE 411 030",PUNE,PUNE,MAHARASHTRA,4455273
10,THE COSMOS CO OPERATIVE BANK LIMITED,COSB0000011,ALANDI,"800, OM SAI SADAN, OPP.OLD S.T. STAND, ALANDI, PUNE 412105",PUNE,PUNE,MAHARASHTRA,232304
11,THE COSMOS CO OPERATIVE BANK LIMITED,COSB0000012,DADAR WEST,"32/34, NEELKANTH NIWAS, D.L.VAIDYA ROAD, OFF RANADE RD., DADAR,  MUMBAI 400 028",GREATER BOMBAY,MUMBAI,MAHARASHTRA,24375354
12,THE COSMOS CO OPERATIVE BANK LIMITED,COSB0000014,BARAMATI,"GALA NO.1, CTS NO.612, D.A.SATAV COMPLEX,OPP. NAIGAONKAR HOSPITAL, SILVER JUBILEE HOSPITAL ROAD, BARAMATI 413 102.",PUNE,PUNE,MAHARASHTRA,223561
13,THE COSMOS CO OPERATIVE BANK LIMITED,COSB0000015,KASBA RAVIWAR,"727, SAVATAMALI BHAVAN, OPP. URSEKAR HOSPITAL, GANESH ROAD, PUNE 411 002",PUNE,PUNE,MAHARASHTRA,24450882
14,THE COSMOS CO OPERATIVE BANK LIMITED,COSB0000016,PUNE CAMP,"599, SACHAPIR STREET, THAKUR HOUSE,PUNE CAMP, PUNE 411 001",PUNE,PUNE,MAHARASHTRA,6346836
15,THE COSMOS CO OPERATIVE BANK LIMITED,COSB0000017,VILE PARLE EAST,"45, SARASWATI NIWAS, HANUMAN ROAD, VILE PARLE (E),  MUMBAI 400 057",GREATER BOMBAY,MUMBAI,MAHARASHTRA,26191096
16,THE COSMOS CO OPERATIVE BANK LIMITED,COSB0000018,AURANGABAD,"13001/1(PART), NEW ROKADE HANUMAN COLONEY, JALNA ROAD,  AURANGABADPIN - 431003",AURANGABAD,AURANGABAD,MAHARASHTRA,2349626
17,THE COSMOS CO OPERATIVE BANK LIMITED,COSB0000019,PAUD ROAD,"85/1 B, SHANKAR NAGARI, BUILDING NO. C, NEAR VANAZ ENGG LTD, PAUD ROAD, PUNE 411 029",PUNE,PUNE,MAHARASHTRA,5381199
18,THE COSMOS CO OPERATIVE BANK LIMITED,COSB0000021,ZAVERI BAZAR,"19/21, VITTHALWADI, KALBADEVI ROAD, MUMBAI 400 002",GREATER BOMBAY,MUMBAI,MAHARASHTRA,22400298
19,THE COSMOS CO OPERATIVE BANK LIMITED,COSB0000022,MULUND WEST,"APPORVA CO-OP HSG. SOCIETY, GOWARDHAN NAGAR, LBS MARG, MULUND (W), MUMBAI 400 080",GREATER BOMBAY,MUMBAI,MAHARASHTRA,21640621
20,THE COSMOS CO OPERATIVE BANK LIMITED,COSB0000023,KANDIVALI WEST,"CTS 341 SANGEETA SHOP NO 6 & 7, S.V.ROAD, KANDIVLI WEST, MUMBAI 400067",GREATER BOMBAY,MUMBAI,MAHARASHTRA,28073762
21,THE COSMOS CO OPERATIVE BANK LIMITED,COSB0000024,BORIVALI WEST,"CTS NO.534, SHOP NO. 12 & 14,  THE TULSIBAUG CO-OP. HSG. SOCIETY LTD; PLOT NO. 17 A, TPS NO.1,OFF CHANDAVARKAR ROAD,RAMDAS SUTRALE MARG,  BORIVALI (WEST),  MUMBAI- 400 092",GREATER BOMBAY,MUMBAI,MAHARASHTRA,28954071
22,THE COSMOS CO OPERATIVE BANK LIMITED,COSB0000026,PIMPRI,"RADHESHAM ESTATE, BLOCK NO.121, PIMPRI, PUNE 411 017",PUNE,PUNE,MAHARASHTRA,7460408
23,THE COSMOS CO OPERATIVE BANK LIMITED,COSB0000027,DECCAN GYMKHANA,"C.T.S.NO.885/1, F.P.NO.241/1, BHANDARKAR INSTITUTE ROAD, DECCAN GYMKHANA, PUNE 411 004",PUNE,PUNE,MAHARASHTRA,5675852
24,THE COSMOS CO OPERATIVE BANK LIMITED,COSB0000028,KOREGAON PARK,"PLOT NO.333, BUSINESS AVENUE, OFF NORTH MAIN ROAD, SANAS RESIDENCY, KOREGAON PARK, PUNE  411 001",PUNE,PUNE,MAHARASHTRA,26121524
25,THE COSMOS CO OPERATIVE BANK LIMITED,COSB0000029,VASHI,"PLOT NO.74,SECTOR NO.17, PERSEPOLIS PREMISES C.O.H.S., VASHI,NEW MUMBAI 400 703",GREATER BOMBAY,MUMBAI,MAHARASHTRA,27896743
26,THE COSMOS CO OPERATIVE BANK LIMITED,COSB0000030,HYDERABAD,"3-5-798, PRATHIMA SCHALASS, NEW NO.248, STREET NO.8, BASHEERBAUG HYDERGUDA, KING KOTI ROAD, HYDERABAD- 500 029",HYDERABAD,HYDERABAD,ANDHRA PRADESH,23231705
27,THE COSMOS CO OPERATIVE BANK LIMITED,COSB0000031,INDORE,"SHANTI HEIGHTS, 32/2, SOUTH TUKOGANJ, INDORE 452 001",INDORE,INDORE,MADHYA PRADESH,528726
28,THE COSMOS CO OPERATIVE BANK LIMITED,COSB0000032,WARJE,"SHOP NO. 4-5, 56-59 KAKADE PLAZA PHASE 2, KARVENAGAR, WARJE, PUNE  411 052",PUNE,PUNE,MAHARASHTRA,25209271
29,THE COSMOS CO OPERATIVE BANK LIMITED,COSB0000033,AJMERA,"149/2, PLOT NO.21, MASURKAR COLONEY, NEAR AJMERA SCHOOL, PUNE 411 018",PUNE,PUNE,MAHARASHTRA,27476450
30,THE COSMOS CO OPERATIVE BANK LIMITED,COSB0000034,GHATKOPAR,"MEERA SAGAR BUILDING, S.NO.73, PLOT NO.958, P.T.-4, NAUROJI LANE, GHATKOPAR (W), MUMBAI  400 086",GREATER BOMBAY,MUMBAI,MAHARASHTRA,25132117
31,THE COSMOS CO OPERATIVE BANK LIMITED,COSB0000035,NASHIK,"GURUDARSHAN PLOT NO.13, S. NO.719/3/1/B/1, P.F.NO.476/C, OPP. POLICE COMMISSIONER OFFICE, SHARANPUR,TRIMBAK LINK ROAD, NASHIK 422 002",NASIK,NASHIK,MAHARASHTRA,2572941
32,THE COSMOS CO OPERATIVE BANK LIMITED,COSB0000036,FORT,"229/231 PERIN NARIMAN STREET, BAZAR GATE, FORT, MUMBAI 400001",GREATER BOMBAY,MUMBAI,MAHARASHTRA,22632983
33,THE COSMOS CO OPERATIVE BANK LIMITED,COSB0000037,NAGPUR,"27, MIDAS HEIGHTS PLOT NO.24, S.NO.1154/55,FARMLAND WORKSHOP AREA,RAMDAS PETH OPP. TARUN BHARAT,CENTRAL BAZAR ROAD, NAGPUR  440 010",NAGPUR,NAGPUR,MAHARASHTRA,2454824
34,THE COSMOS CO OPERATIVE BANK LIMITED,COSB0000038,SURAT,"MERIDIAN TOWER, UDHANA DARWAJA, NEAR RAJKUMAR THEATER,SURAT 395 002",SURAT,SURAT,GUJARAT,8365935
35,THE COSMOS CO OPERATIVE BANK LIMITED,COSB0000039,BANGALORE,"125/6, ABALASHRAMA BLDG.,DR. DVG ROAD,  BASVANGUDI,BANGLORE - 560 004",BANGALORE URBAN,BANGALORE,KARNATAKA,26620057
36,THE COSMOS CO OPERATIVE BANK LIMITED,COSB0000040,THANE,"S.NO.29, CTS NO.53 B/2,MHASKAR BUILDING, MAUJE  NAUPADA,GOKHALE ROAD THANE (WEST)-400 602",GREATER BOMBAY,MUMBAI,MAHARASHTRA,25345923
37,THE COSMOS CO OPERATIVE BANK LIMITED,COSB0000041,AUNDH GAON,"PLOTNO.1A/1/13/2,S.NO.2564,DHANASHREE APTS., AUNDHGAON, PUNE - 411 007",PUNE,PUNE,MAHARASHTRA,25882697
38,THE COSMOS CO OPERATIVE BANK LIMITED,COSB0000042,CHEMBUR,"PLOT NO.239, RICHMOND HEIGHTS,GROUND FLOOR,CHEMBUR,CENTRAL AVENUE ROAD MUMBAI 400 071",GREATER BOMBAY,MUMBAI,MAHARASHTRA,25208144
39,THE COSMOS CO OPERATIVE BANK LIMITED,COSB0000043,BANDRA,"LUBINA HSG SOCIETY, PLOT NO. 76, TURNER ROAD, BANDRA (WEST), MUMBAI -400050",GREATER BOMBAY,MUMBAI,MAHARASHTRA,26402884
40,THE COSMOS CO OPERATIVE BANK LIMITED,COSB0000044,PASHAN,"SAI TRINITY,S.NO.146 /2 /1A + 2B 1 & 146/ 2B,NEAR GARWARE FOUNTAIN,PASHAN,PUNE 411021",PUNE,PUNE,MAHARASHTRA,25865520
41,THE COSMOS CO OPERATIVE BANK LIMITED,COSB0000045,VIJAYWADA,"D.NO.  39-10-19, VETERNARY HOSPITAL ROAD, LABBIPET, VIJAYWADA 520 010 ANDHRA PRADESH",KRISHNA,VIJAYWADA,ANDHRA PRADESH,27846543
42,THE COSMOS CO OPERATIVE BANK LIMITED,COSB0000046,MALAD,"SHOP NO. 1,2 & 3 KHANDWALA LANE, KHANDWALA ARCADE, OFF DAFFATRY ROAD, MALAD EAST, MUMBAI 400097",GREATER BOMBAY,MUMBAI,MAHARASHTRA,28831014
43,THE COSMOS CO OPERATIVE BANK LIMITED,COSB0000047,ANDHERI,"OFFICE NO. 2, DEV PLAZA 68, S. V. ROAD OPP FIRE BRIGADE ANDHERI WEST MUMBAI 400058",GREATER BOMBAY,MUMBAI,MAHARASHTRA,39453547
44,THE COSMOS CO OPERATIVE BANK LIMITED,COSB0000048,AMEERPETH,"MCH NO. 8-3-940 & 940/A TO E, SHOP 1,2 SHAH RESIDENCY, TIRUMALA ,YELLAREDDYGUDA, AMEER PET, HYDERABAD 500016",HYDERABAD,HYDERABAD,ANDHRA PRADESH,23232049
45,THE COSMOS CO OPERATIVE BANK LIMITED,COSB0000049,ASHRAM ROAD,"1ST FLOOR, COSMOS BANK BHAVAN , NEAR INCOME TAX OFFICE, ASHRAM ROAD AHMEDABAD 380009",AHMADABAD,AHMEDABAD,GUJARAT,27545694
46,THE COSMOS CO OPERATIVE BANK LIMITED,COSB0000050,C G ROAD,"SHOP NO.3, GROUND FLOOR, OLIVE ARCADE, OFF C.G.ROAD,  CLASSIC GOLD HOTEL ROAD AHMEDABAD - 380 009.",AHMADABAD,AHMEDABAD,GUJARAT,26425770
47,THE COSMOS CO OPERATIVE BANK LIMITED,COSB0000051,NARODA ROAD,"OPP. BHAGAT PETROL PUMP POST- SAJJAPUR BOGHA, NEAR SATLAJ INN, GROUND FLOOR,NARODA AHMEDABAD- 382345.",AHMADABAD,AHMEDABAD,GUJARAT,22821727
48,THE COSMOS CO OPERATIVE BANK LIMITED,COSB0000052,PALDI,"ADITYA SHOP NO.12-14, PALDI CHAR RASTA, PALDI, AHMEDABAD, 380 007",AHMADABAD,AHMEDABAD,GUJARAT,26588607
49,THE COSMOS CO OPERATIVE BANK LIMITED,COSB0000053,"BHUJ, KUTCH","PLOTNO 75, CTS NO 1070, WARD NO 5 , OPP.SANJEEVANI HOSPITAL , HOSPITAL ROAD,BHUJ 370001",KACHCHH,BHUJ,GUJARAT,22164757
50,THE COSMOS CO OPERATIVE BANK LIMITED,COSB0000054,NAVA VADAJ,"CHHELLO VAS, NEAR VADI SCHOOL, NAVA VADAJ AHMEDABAD 380013",AHMADABAD,AHMEDABAD,GUJARAT,27642773
51,THE COSMOS CO OPERATIVE BANK LIMITED,COSB0000055,BAPUNAGAR,"ANAND ESTATE, MUNICIPAL INDUSTRIAL CORNER, BAPUNAGAR AHMEDABAD 380024",AHMADABAD,AHMEDABAD,GUJARAT,22740540
52,THE COSMOS CO OPERATIVE BANK LIMITED,COSB0000056,MANINAGAR,"COSMOS BANK CENTRE, BHAIRAVNATH ROAD,NEAR TELEPHONE EXCHANGE, MANINAGAR,AHMEDABAD 380 028",AHMADABAD,AHMEDABAD,GUJARAT,25431458
53,THE COSMOS CO OPERATIVE BANK LIMITED,COSB0000057,BHAVNAGAR,"GOLD CENTRE,SHOP.NO.1,2,3 GROUND FLOOR,OPPOSITE DADASAHEB DERASAR KALANALA,BHAVNAGAR 364001",BHAVNAGAR,BHAVNAGAR,GUJARAT,2518265
54,THE COSMOS CO OPERATIVE BANK LIMITED,COSB0000058,SATELLITE BRANCH,"GROUND FLOOR, SHOP NO. 2, SATYAM MALL COMMERCIAL CO. OP. SOC LTD, SR NO. 148, NEAR KAMESHWAR SCHOOL, JODHAPUR CHAR RASTA, SATELLITE, AHMEDABAD 380015",AHMADABAD,AHMEDABAD,GUJARAT,26767686
55,THE COSMOS CO OPERATIVE BANK LIMITED,COSB0000059,UNIVERSITY,"VISHWAKARMA MEWADA CHHATRALAY, COMMERCE 6 ROADS, NAVARANGPURA AHMEDABAD 380009",AHMADABAD,AHMEDABAD,GUJARAT,26564844
56,THE COSMOS CO OPERATIVE BANK LIMITED,COSB0000060,ODHAV,"2, VALLABH NAGAR SOCIETY NEAR BHIKSHUK GRUH ODHAV ROAD AHMEDABAD, 382415",AHMADABAD,AHMEDABAD,GUJARAT,22870117
57,THE COSMOS CO OPERATIVE BANK LIMITED,COSB0000061,GUJARAT REGIONAL OFFICE,COSMOS BHAVAN NEAR MAHILA MILAN MANDIR OPP. SALES INDIA NEAR INCOME TAX ASHRAM ROAD AHMEDABAD 380009,AHMADABAD,AHMEDABAD,GUJARAT,27545694
58,THE COSMOS CO OPERATIVE BANK LIMITED,COSB0000062,KALYAN,"SHIV VILLA APT., OPP CINEMAX ,BARVE ROAD, KHADAKPADA, KALYAN (W) 421 301",THANE,KALYAN,MAHARASHTRA,2232653
59,THE COSMOS CO OPERATIVE BANK LIMITED,COSB0000063,VIP ROAD,"AMIT COMMERCIAL COMPLEX, GROUND FLOOR,  KARELI BAUGH,VIP ROAD,VADODARA ┬û 390018.",VADODARA,VADODARA,GUJARAT,3248712
60,THE COSMOS CO OPERATIVE BANK LIMITED,COSB0000064,PRODUCTIVITY ROAD,"3-4, MADHAV COMPLEX, NR. PANORAMA COMPLEX,  R.C. DUTT ROAD,ALKAPURI, VADODARA 390007",VADODARA,VADODARA,GUJARAT,3248705
61,THE COSMOS CO OPERATIVE BANK LIMITED,COSB0000065,KOTHIPOLE,KOTHIPOLE RAOPURA VADODARA 390001,VADODARA,VADODARA,GUJARAT,3248707
62,THE COSMOS CO OPERATIVE BANK LIMITED,COSB0000066,WAGHODIA ROAD,11-12 PARUL SOCIETY NEAR ZAVER NAGAR  WAGHODIA ROAD VADODARA 390019,VADODARA,VADODARA,GUJARAT,3248714
63,THE COSMOS CO OPERATIVE BANK LIMITED,COSB0000067,SAMA ROAD,"1-4, RAJLAXMI SOCIETY ABHILASHA CHAR RASTA, VADODARA 390008",VADODARA,VADODARA,GUJARAT,3248713
64,THE COSMOS CO OPERATIVE BANK LIMITED,COSB0000068,CHENNAI,"OLD NO 17/4 & NEW NO 37/4, SHREEJI PALACE, EVK SAMPAT ROAD, VEPERY, CHENNAI-600007",CHENNAI,CHENNAI,TAMIL NADU,25610042
65,THE COSMOS CO OPERATIVE BANK LIMITED,COSB0000069,M G ROAD SECUNDERABAD,"SHOP NO.4 & 5, GROUND FLOOR H M ISHAQUE COMPLEX, M G ROAD, SECUNDERABAD 500 003",HYDERABAD,SECUNDERABAD CANTONMENT,ANDHRA PRADESH,27894400
66,THE COSMOS CO OPERATIVE BANK LIMITED,COSB0000070,RAJKOT,"SHOP NO 1, ANANT CHHAYA COMPLEX, S NO. 433/1 OPP SCHEME NO 22 SUB PLOT NO. 202 ,AMIN ROAD, RAJKOT 360001",RAJKOT,RAJKOT,GUJARAT,2456640
67,THE COSMOS CO OPERATIVE BANK LIMITED,COSB0000071,ANKLESHWAR BRANCH,"F 17, 1ST FLOOR, RAVI KIRAN COMPLEX,BEHIND ASHIRWAD RESTAURANT, NEAR GIDC BUS STOP,  ANKLESHWAR - 393 001",BHARUCH,ANKLESHWAR,GUJARAT,250385
68,THE COSMOS CO OPERATIVE BANK LIMITED,COSB0000072,NARODA INDUSTRIAL ESTATE BRANCH,"GROUND FLOOR,PLOT NO.184 A/1 , GIDC ESTATE, NARODA KAPSI HALL, AHMEDABAD-383230",AHMADABAD,AHMEDABAD,GUJARAT,22840089
69,THE COSMOS CO OPERATIVE BANK LIMITED,COSB0000073,KONDHWA BRANCH,"PLOT NO 4,S.NO.599A,598,593 SAHANI SUJAN PARK,HIMMEL SQUARE,BIBWEWADI KONDHWA RD,KONDHWA,PUNE 411040",PUNE,PUNE,MAHARASHTRA,26836261
70,THE COSMOS CO OPERATIVE BANK LIMITED,COSB0000074,JALNA,"BHOKARDAN NAKA, NASCENT TOWER PLOT NO.15, JALNA 431203",JALNA,JALNA,MAHARASHTRA,230764
71,THE COSMOS CO OPERATIVE BANK LIMITED,COSB0000075,DOMBIVALI,"SINDHUDURG COOP HSG SOCIETY, GROUND FLOOR, TILAK CHOWK, TILAK NAGAR, DOMBIVALI  EAST, 421201",THANE,THANE,MAHARASHTRA,2435618
72,THE COSMOS CO OPERATIVE BANK LIMITED,COSB0000076,RELIEF ROAD BRANCH,"2 & 3 BUSINESS CENTER, OPPOSITE VISHAL COMPLEX, RELIEF ROAD, AHMEDABAD. 380001",AHMADABAD,AHMEDABAD,GUJARAT,25356527
73,THE COSMOS CO OPERATIVE BANK LIMITED,COSB0000077,SATARA ROAD BRANCH,"KESHAV SONA COMPLEX, RAVIWAR PETH, SATARA 415001",SATARA,SATARA,MAHARASHTRA,235060
74,THE COSMOS CO OPERATIVE BANK LIMITED,COSB0000078,PHALTAN BRANCH,"AMAR PLAZA, LAXMINAGAR, PHALTAN 415523",SATARA,PHALTAN,MAHARASHTRA,222201
75,THE COSMOS CO OPERATIVE BANK LIMITED,COSB0000081,NIPANI BRANCH,Nemchand Niwas 747 Ashok Nagar Nipani 591237,BELGAUM,NIPANI,KARNATAKA,220210
76,THE COSMOS CO OPERATIVE BANK LIMITED,COSB0000082,GANDHIDHAM BRANCH,"SHOP NO1,2 AND 3 NAHTA CHAMBERS, PLOT NO 240, WARD NO 12-B OPP GANDHI MARKET GANDHIDHAM GUJARAT 370201",KACHCHH,GANDHIDHAM,GUJARAT,230550
77,THE COSMOS CO OPERATIVE BANK LIMITED,COSB0000083,MORBI,"SKY MALL,U 6,UPPER GROUND FLOOR,SANALA MAIN ROAD,NR.SAMAY GATE, MORBI 363641(GUJARAT)INDIA",RAJKOT,MORBI,GUJARAT,220322
78,THE COSMOS CO OPERATIVE BANK LIMITED,COSB0000084,SOLAPUR,"MILLENIUM SQUARE, 165 RAILWAYLINE, SAT RASTA, SOLAPUR 413001",SOLAPUR,SOLAPUR,MAHARASHTRA,2310030
79,THE COSMOS CO OPERATIVE BANK LIMITED,COSB0000085,SANGLI,"YASH AVENUE, 120-A, RAM MANDIR CORNER, SANGLI-MIRAJ ROAD, SANGLI-416416",SANGLI,SANGLI,MAHARASHTRA,2321162
80,THE COSMOS CO OPERATIVE BANK LIMITED,COSB0000086,KARAD,"TRIGUN BUNGLOW,S.NO.252/3 MANGALWAR PETH,STATION ROAD,KARAD-415110",SATARA,KARAD,MAHARASHTRA,227811
81,THE COSMOS CO OPERATIVE BANK LIMITED,COSB0000087,SHAHUPURI KOLHAPUR,VASANT PLAZA C S NO 1079/KH/Z  E WARD SHAHUPURI RAJARAM ROAD KOLHAPUR 416003,KOLHAPUR,KOLHAPUR,MAHARASHTRA,2524247
82,THE COSMOS CO OPERATIVE BANK LIMITED,COSB0000088,LAXMIPURI KOLHAPUR,C S NO 1958/59 V MART C WARD NEAR CHANDRARUP LAXMI ROAD LAXMI PURI KOLHAPUR 416002,KOLHAPUR,KOLHAPUR,MAHARASHTRA,2644008
83,THE COSMOS CO OPERATIVE BANK LIMITED,COSB0000089,MARUTI LANE BELGAUM,"SHOP NO.1 & 2, SHRI LAXMI SANKUL, CTS NO.1558/132, C, D & E, MARUTI GALLI, BELGAUM - 590 001.",BELGAUM,BELGAUM,KARNATAKA,2430257
84,THE COSMOS CO OPERATIVE BANK LIMITED,COSB0000090,UNIVERSITY ROAD - SHATABDI BHAVAN,"SHATABDI BHAVAN , S.NO 132/B PLOT NO.6, I.C.S. COLONY, GANESHKHIND ROAD, SHIVAJI NAGAR, PUNE.411007",PUNE,PUNE,MAHARASHTRA,26876411
85,THE COSMOS CO OPERATIVE BANK LIMITED,COSB0000091,TILAKWADI BRANCH,"GROUND FLOOR, BHANDARI CAPITAL,  PLOT NO 129, CST NO. 219/1 ,  TILAKWADI,  KHANAPUR ROAD, BELGAUM 590006",BELGAUM,BELGAUM,KARNATAKA,2430057
86,THE COSMOS CO OPERATIVE BANK LIMITED,COSB0000092,TILAKROAD BRANCH,"┬ôPINNACLE PRESTIGE┬ô, SHOP NOS. 1, 2 & 3, CTS NO. 1169/1 + 1169/2,  SADASHIV PETH, TILAK ROAD, PUNE 411030",PUNE,PUNE,MAHARASHTRA,24461220
87,THE COSMOS CO OPERATIVE BANK LIMITED,COSB0000093,FATIMANAGAR,"GROUND FLOOR, SHOWROOM NO D, KPCT MEGA COMMERCIAL COMPLEX, SHIVARKAR ROAD, FATIMANAGAR PUNE 411013",PUNE,PUNE,MAHARASHTRA,26860408
88,THE COSMOS CO OPERATIVE BANK LIMITED,COSB0000094,SINHAGAD ROAD,"S NO 62 ANUDATTA COMMERCIAL COMPLEX, OPP ABHIRUCHI GARDEN, SINHAGAD ROAD, VADGAON BUDRUK,PUNE 411041",PUNE,PUNE,MAHARASHTRA,24394213
89,THE COSMOS CO OPERATIVE BANK LIMITED,COSB0000095,"M T ROAD, BHUSAWAL","GARUD PLOT, MAMAJI TALKIES ROAD, BHUSAWAL, MAHARASHTRA, PIN 425201",JALGAON,BHUSAWAL,MAHARASHTRA,222010
90,THE COSMOS CO OPERATIVE BANK LIMITED,COSB0000096,STATION ROAD,"MEENA COMPLEX, CHOWK BAZAR, GAJABHAU CHOWK, NEAR LIC OFFICE, BHUSAWAL 425201.",JALGAON,BHUSAWAL,MAHARASHTRA,228500
91,THE COSMOS CO OPERATIVE BANK LIMITED,COSB0000097,"M G MARKET, JALGAON","TPS NO.03,PLOT NO.468, ARIHANT PLAZA, BAHINABAI GARDEN CHOWK,JILHA PETH, RING ROAD,OPPOSITE KABRA SERVO PETROL PUMP JALGAON-425001",JALGAON,JALGAON,MAHARASHTRA,2240900
92,THE COSMOS CO OPERATIVE BANK LIMITED,COSB0000098,GHODBANDAR ROAD,"SHOP NO.4, COSMOS HERITAGE, TIKUJINI WADI, OFF GHODBANDAR ROAD, MANPADA, THANE WEST 400 610",THANE,THANE,MAHARASHTRA,25896996
93,THE COSMOS CO OPERATIVE BANK LIMITED,COSB0000099,MALAD (W),"SHOP NO. 6,7 & 8, KEVAL TOWER, B.J. PATEL ROAD, MALAD (W), MUMBAI - 400064",GREATER BOMBAY,MUMBAI,MAHARASHTRA,28446591
94,THE COSMOS CO OPERATIVE BANK LIMITED,COSB0000100,MATUNGA - E,"SUKH CASTLE, 1ST FLOOR, PLOT NO.371, BHANDARKAR ROAD,NEAR MAHESHWARY UDYAN, MATUNGA (E), MUMBAI 400019",GREATER BOMBAY,MUMBAI,MAHARASHTRA,24045638
95,THE COSMOS CO OPERATIVE BANK LIMITED,COSB0000101,BANER,"S.NO.182, HISSA NO.2/2, NEAR BANER NAGARI PATSANSTHA,BANERGAON, PUNE-411 045",PUNE,PUNE,MAHARASHTRA,27293839
96,THE COSMOS CO OPERATIVE BANK LIMITED,COSB0000102,GOREGAON,"SURVEY NO.95, ""D DEFFINITY"",GROUND FLOOR,UNIT NO.03,CTS NO.364,J.P.ROAD,NEAR ANUPAM THEATER,GOREGAON(E),MUMBAI-400 063",GREATER BOMBAY,MUMBAI,MAHARASHTRA,65340567
97,THE COSMOS CO OPERATIVE BANK LIMITED,COSB0000103,JAWAHAR ROAD,"JALARAM MARKET,JAWAHAR ROAD, AMRAVATI (MAHARASHTRA)  444601",AMRAVATI,AMRAVATI,MAHARASHTRA,2577584
98,THE COSMOS CO OPERATIVE BANK LIMITED,COSB0000104,MARKET YARD,AGRICULTURE PRODUCE MARKET  COMMITTEE (A.P.M.C.) CAMPUS; NEAR MAIN GATE; VIDHARBHA MAHVIDYALAYA (V.M.V.) ROAD; AMARAVATI 444 604.,AMRAVATI,AMRAVATI,MAHARASHTRA,2566249
99,THE COSMOS CO OPERATIVE BANK LIMITED,COSB0000105,BADNERA ROAD,"SHOP NO 2, GULSHAN  PLAZA,NEAR BARTIYA MAHAVIDYALAYA, OPPOSITE KUSHAL  AUTO, RAJAPETH, AMARAVATI 444 605",AMRAVATI,AMRAVATI,MAHARASHTRA,2566246
100,THE COSMOS CO OPERATIVE BANK LIMITED,COSB0000106,YAVATMAL,"CTS.NO.19,MAIN ROAD, NEAR TANGA CHOWK, YAWATMAL 445001",YAVATMAL,YAVATMAL,MAHARASHTRA,243085
101,THE COSMOS CO OPERATIVE BANK LIMITED,COSB0000107,CHAKAN,"GHANWAT PLAZA, G NO 482, NEAR SHIVAM GURUVIHAR, CHAKAN - TALEGAON ROAD, CHAKAN 410501",PUNE,CHAKAN,MAHARASHTRA,310996
102,THE COSMOS CO OPERATIVE BANK LIMITED,COSB0000108,HUDCO,"MATOSHREE, N-9, J-1, PLOT NO 10, TV CENTER ROAD, HUDCO, AURANGABAD-431003",AURANGABAD,AURANGABAD,MAHARASHTRA,2383002
103,THE COSMOS CO OPERATIVE BANK LIMITED,COSB0000109,VAPI,"SHOP NO.1,2,3 & 4, SHUBHAM - 2 , VAPI DAMAN ROAD , CHALLA , VAPI , GUJARAT 396191",VALSAD,VAPI,GUJARAT,2402919
104,THE COSMOS CO OPERATIVE BANK LIMITED,COSB0000110,MAGOB,"PLOT NO.8 & 9,BLOCK NO.14,REV.S.NO.18,NEAR BHAKTIDHAM TEMPLE,SURAT KADODARA MAIN ROAD,MAGOB,SURAT,GUJARAT 395010",SURAT,SURAT,GUJARAT,2642500
105,THE COSMOS CO OPERATIVE BANK LIMITED,COSB0000111,ANAND,"MAFAIR STATION ROAD, OPP. SUCH MONEY EXCHANGE ,  ANAND, GUJARAT-388001",ANAND,ANAND,GUJARAT,241544
106,THE COSMOS CO OPERATIVE BANK LIMITED,COSB0000112,NADIAD BRANCH,"VIRGO SHOPPING ARCADE,SANTRAM ROAD , OPP-BUS STAND , NADIAD , GUJARAT-387001",KHEDA,NADIAD,GUJARAT,241544
107,THE COSMOS CO OPERATIVE BANK LIMITED,COSB0000113,AHMADNAGAR,"S. NO. 143, CHOWPATTEE KARANJA ROAD, BALLAL ESTATE, OPPOSITE IDBI, NEAR DELHI GATE, AHMEDNAGAR ┬û 414 001.",AHMADNAGAR,AHMADNAGAR,MAHARASHTRA,2340311
108,THE COSMOS CO OPERATIVE BANK LIMITED,COSB0000114,ICHALKARNJI,"WARD NO .7, HOUSE NO.20, NEAR K.A.JANATA BANK, MAIN ROAD, ICHALKARANJI 416115",KOLHAPUR,ICHALKARNJI,MAHARASHTRA,2430086
109,THE COSMOS CO OPERATIVE BANK LIMITED,COSB0000115,AIROLI,"YASH RESIDENCY, GR FL,  SECTOR NO 6,PLOT NO 6  ,AIROLI MULUND LINK ROAD,AIROLI 400708",THANE,NEW BOMBAY,MAHARASHTRA,27698272
110,THE COSMOS CO OPERATIVE BANK LIMITED,COSB0000116,VASAI,"MAURYA SHOPPING CENTRE, GROUND FLOOR, S NO. 16, HISSA NO. 10 / 11, AMBADI ROAD, VASAI DIST THANE 401202",THANE,VASAI,MAHARASHTRA,2340010
111,THE COSMOS CO OPERATIVE BANK LIMITED,COSB0000117,BHAYANDER-W,"RUSHABH APARTMENT, GROUND FLOOR, BUILDING NO. 1, S. NO. 5A, HISSA 1 (PART), PATEL NAGAR NO. 1, BHAYANDER (W), TALUKA & DIST. THANE 401101",THANE,MIRA-BHAYANDAR,MAHARASHTRA,28041168
112,THE COSMOS CO OPERATIVE BANK LIMITED,COSB0000118,SANTACRUZ-E,"UDAY DARSHAN, GROUND FLOOR, PLOT NO. 16, T.P.S.NO.3, 103, PANDIT JAWAHARLAL NEHRU ROAD, STATION ROAD, SANTACRUZ (EAST),MUMBAI-400055",GREATER BOMBAY,MUMBAI,MAHARASHTRA,26126972
113,THE COSMOS CO OPERATIVE BANK LIMITED,COSB0000119,DAHISAR-E,"SANGHAVI EXOTICA, VAMANRAO SAWANT MARG, NEAR MARATHA COLONY, DAHISAR (EAST), MUMBAI-400068",GREATER BOMBAY,MUMBAI,MAHARASHTRA,28975341
114,THE COSMOS CO OPERATIVE BANK LIMITED,COSB0000120,GOREGAON-W,"ANAND VATIKA CO-OP., HOUSING SOCIETY, GROUND FLOOR, BUILDING NO.14, S. NO.6 (PART) AND C.T.S. NO.355 (10 TO 18), SIDDHARTH NAGAR, S.V.ROAD, GOREGAON(W), MUMBAI-400 062.",GREATER BOMBAY,MUMBAI,MAHARASHTRA,28789158
115,THE COSMOS CO OPERATIVE BANK LIMITED,COSB0000121,MULUND EAST,"PURNIMA DARSHAN, 90 FEET D P ROAD, MULUND (EAST), MUMBAI 400081",GREATER BOMBAY,MUMBAI,MAHARASHTRA,25631662
116,THE COSMOS CO OPERATIVE BANK LIMITED,COSB0000122,BORIVALI EAST,"OM SIDDHIGIRI CO-OP HOUSING SOCIETY LTD,SHOP NO.1 TO 5,PLOT NO.2,GIRIVIHAR NAGAR,NEAR SHANTIVAN,SHRIKRISHNA NAGAR,SANT DYANESHWAR MARG,BORIVALI-EAST,MUMBAI-400066",GREATER BOMBAY,MUMBAI,MAHARASHTRA,28972895
117,THE COSMOS CO OPERATIVE BANK LIMITED,COSB0000123,R.S.PURAM COIMBATORE,"NO 558, ABOVE RASHI HOSPITAL,D.B. ROAD,R.S.PURAM,COIMBATORE -641002",COIMBATORE,COIMBATORE,TAMIL NADU,2551999
118,THE COSMOS CO OPERATIVE BANK LIMITED,COSB0000124,VEERA DESAI ROAD ANDHERI WEST,"SHOP NO 3,4 KSHITIJ BUILDING ,VEERA DESAI ROAD,NEAR ANDHERI SPORTS COMPLEX , ANDHERI WEST,MUMBAI 400058",GREATER MUMBAI,MUMBAI,MAHARASHTRA,26762671
119,THE COSMOS CO OPERATIVE BANK LIMITED,COSB0000125,HOSUR BRANCH,"PLOT NO 24 S NO 180 ,SAI AJITH COMPLEX , OPP. TO RAMKRISHNA SCHOOL , NEAR RAILWAY STATION ,DENKANIKOTTA ROAD , HOSUR",KRISHNAGIRI DISTRICT,HOSUR,TAMIL NADU,9841747007
120,THE COSMOS CO OPERATIVE BANK LIMITED,COSB0000126,ANNA NAGAR BRANCH,"COSMOS BANK LTD , 1ST FLOOR , DOOR NO 223,IIND AVENUE, Y BLOCK , VI TH MAIN ROAD , ANNA NAGAR,CHENNAI 600040",CHENNAI,CHENNAI,TAMIL NADU,9444256446
121,THE COSMOS CO OPERATIVE BANK LIMITED,COSB0000127,MADIPAKKAM,"PLOT NO 2, NEW DOOR NO 3 , GROUND FLOOR , DEFENCE COLONY , MEDAVAKKAM MAIN ROAD , MADIPAKKAM ,CHENNAI 600091",CHENNAI,CHENNAI,TAMIL NADU,9445967484
122,THE COSMOS CO OPERATIVE BANK LIMITED,COSB0000901,LAXMI ROAD  SPECIAL SERVICE CELL,"612, SADASHIV PETH, KUNTE CHOWK, LAXMI ROAD,  PUNE ┬û 411030",PUNE,PUNE,MAHARASHTRA,24492179
123,THE COSMOS CO OPERATIVE BANK LIMITED,COSB0000902,NIGDI,"NAVA-NAGAR VIDYALAY, SECTOR NO.25,PRADHIKARAN, NIGDI, PUNE -411044",PUNE,PUNE,MAHARASHTRA,27659388
124,THE COSMOS CO OPERATIVE BANK LIMITED,COSB0000903,BHOSARI,"JAY GANESH SAMRAJYA, S.NO. 98/1, 112/1 & 112/2, A WING SHOP NO. 1,2,3,4; OPP.MAHARASHTRA WARE HOUSE;PUNE NASIK SPINE ROAD JUNCTION, BHOSARI, PUNE ┬û 411039",PUNE,PUNE,MAHARASHTRA,32405583
125,THE COSMOS CO OPERATIVE BANK LIMITED,COSB0000904,VIMANNAGAR,"COMMERSPACE┬ö GIGA SPACE, OFF. NAGAR ROAD, VIMAN NAGAR PUNE 411014",PUNE,PUNE,MAHARASHTRA,26630953
126,THE COSMOS CO OPERATIVE BANK LIMITED,COSB0000905,CIDCO,"PLOT NO.164, N-5 (SOUTH),CIDCO,JALGAON ROAD, CIDCO,NEW AURANGABAD 431 003",AURANGABAD,AURANGABAD,MAHARASHTRA,2484390
127,THE COSMOS CO OPERATIVE BANK LIMITED,COSB0000906,HADAPSAR,"S.NO.153/A,B WING, SHOP NO.3/4/5/6,MEGA CENTER,MAGARPATTA CITY,PUNE-SOLAPUR ROAD, HADAPSAR,PUNE - 411 013",PUNE,PUNE,MAHARASHTRA,26890017
128,THE COSMOS CO OPERATIVE BANK LIMITED,COSB0000907,RAVIWAR KARANJA,"NASIK EDUCATION SOCIETY,RAVIWAR KARANJA, NASHIK 422 001",NASHIK,NASHIK,MAHARASHTRA,2590741
129,THE COSMOS CO OPERATIVE BANK LIMITED,COSB0000908,GANDHIBHAVAN,"PLOT NO.1, ""SWACHHAND"" S NO. 59+60+61/1 OF 2 , SAHAJANAND CO-OP HSG SOC, KOTHRUD PUNE 411038",PUNE,PUNE,MAHARASHTRA,25385772
130,THE COSMOS CO OPERATIVE BANK LIMITED,COSB0000909,NASHIK ROAD,"S.NO 131 PLOT NO.31 NITYANAND BUILDING,NEAR NASHIK ROAD POLICE STATION,NASHIK ROAD-422101",NASHIK,NASHIK,MAHARASHTRA,2452541
131,THE COSMOS CO OPERATIVE BANK LIMITED,COSB0000910,BANKAR CHOWK,"UMIYA SHAKTI CO-OP.HSG. SOCIETY, S.NO. 471/1+2, PLOT NO.1+2, BANKAR CHOWK, KATHE LANE NASHIK 422011.",NASHIK,NASHIK,MAHARASHTRA,2590648
132,THE COSMOS CO OPERATIVE BANK LIMITED,COSB0000911,THAKUR VIDYAMANDIR BRANCH,"THAKUR VIDYAMANDIR, BLDG NO 1,THAKUR COMPLEX, KANDIVLI EAST, MUMBAI 400101",GREATER BOMBAY,MUMBAI,MAHARASHTRA,28545950
133,THE COSMOS CO OPERATIVE BANK LIMITED,COSB0000912,"Dashmesh Nagar,Aurangabad","Plot no 59, Deval Tehal, CTS No. 16293/9,Dashmesh Nagar, Aurangabad 431005",AURANGABAD,AURANGABAD,MAHARASHTRA,2347544
134,THE COSMOS CO OPERATIVE BANK LIMITED,COSB0000913,JOHNSON GRAMMAR SCHOOL BRANCH,"JOHNSON GRAMMAR SCHOOL,RAGHAVENDRA NAGAR, NACHARAM, HYDERABAD 500076",HYDERABAD,HYDERABAD,ANDHRA PRADESH,27177562
135,THE COSMOS CO OPERATIVE BANK LIMITED,COSB0000914,IMCS THANE,"C-4, WAGLE INDUSTRIAL ESTATE, THANE WEST THANE - 400 604.",THANE,THANE,MAHARASHTRA,25835878
136,THE COSMOS CO OPERATIVE BANK LIMITED,COSB0000915,HABSIGUDA BRANCH,"JOHNSON GRAMMAR SCHOOL, ST NO 3 KAKATIYA NAGAR HABSIGUDA HYDERABAD 500007",HYDERABAD,HYDERABAD,ANDHRA PRADESH,27176083
137,THE COSMOS CO OPERATIVE BANK LIMITED,COSB0000916,"Ambegaon, Pune","Chandrai Construction, S.No.34/5/1 to 6, Dattanagar,Bharati Vidyapeeth Road, Ambegaon (Bk.)Pune-411046",PUNE,PUNE,MAHARASHTRA,24361862
138,THE COSMOS CO OPERATIVE BANK LIMITED,COSB0000917,ANNAPURNA BRANCH,"ANNAPURNA MANDIR  PARISAR, NEAR DASHERA MAIDAN, ANNAPURNA ROAD,INDORE-452009",INDORE,INDORE,MADHYA PRADESH,2480044
139,THE COSMOS CO OPERATIVE BANK LIMITED,COSB0000918,MASSIA,"PLOT NO.P-15, MIDC,WALUJ, AURANGABAD 431136",AURANGABAD,AURANGABAD,MAHARASHTRA,2553132
140,THE COSMOS CO OPERATIVE BANK LIMITED,COSB0000919,S M SHETTY SCHOOL POWAI BRANCH,"S.M. SHETTY HIGH SCHOOL & JUNIOR COLLEGE,HIRANANDANI COMPLEX, POWAI,MUMBAI 400076",GREATER BOMBAY,MUMBAI,MAHARASHTRA,25703557
141,THE COSMOS CO OPERATIVE BANK LIMITED,COSB0000920,SHRI SANT GADGE BABA BRANCH,"SHREE SANT GADGEBABA COLLEGE OF ENGINEERING , ZTC,BHUSAVAL 425203",JALGAON,BHUSAWAL,MAHARASHTRA,220238
