,BANK NAME,IFSC,OFFICE,ADDRESS,DISTRICT,CITY,STATE,PHONE
0,TAMILNAD MERCANTILE BANK LIMITED,TMBL0000001,THOOTHUKUDI MAIN,"56 & 57 BEACH ROAD, TUTICORIN-628001 TAMILNADU",THOOTHKUDI,TUTICORIN,TAMIL NADU,2323837
1,TAMILNAD MERCANTILE BANK LIMITED,TMBL0000002,MADURAI MAIN.,"51, EAST AVANI MOOLA STREET, MADURAI-625001 TAMILNADU",MADURAI,MADURAI,TAMIL NADU,2623672
2,TAMILNAD MERCANTILE BANK LIMITED,TMBL0000003,SIVAKASI,"1-2-1 SUVISESHAMUTHU VATHYAR STREET, SIVAKASI-626123 TAMILNADU",VIRUDHUNAGAR,SIVAKASI,TAMIL NADU,225397
3,TAMILNAD MERCANTILE BANK LIMITED,TMBL0000004,VIRUDHUNAGAR,"280, MADURAI ROAD, VIRUDHUNAGAR-626001 TAMILNADU",MADURAI,MADURAI,TAMIL NADU,245341
4,TAMILNAD MERCANTILE BANK LIMITED,TMBL0000005,NAGERCOIL,"229-A, CHARLES MILLER STREET, COLLEGE ROAD, NAGERCOIL-629001 TAMILNADU",KANNIYAKUMARI,NAGERCOIL,TAMIL NADU,225446
5,TAMILNAD MERCANTILE BANK LIMITED,TMBL0000006,DINDIGUL,"9, SALAI ROAD, DINDIGUL-624001 TAMILNADU",DINDIGUL,DINDIGUL,TAMIL NADU,2430708
6,TAMILNAD MERCANTILE BANK LIMITED,TMBL0000007,THENI,"630, FIRST FLOOR,PERIYAKULAM ROAD, THENI-626531 TAMILNADU",THENI,PERIYAKULAM,TAMIL NADU,254113
7,TAMILNAD MERCANTILE BANK LIMITED,TMBL0000008,CHENNAI-21,"20,GOLLAWAR AGRAHARAM ROAD, OLD WASHERMENPET, CHENNAI-600021 TAMILNADU",CHENNAI,CHENNAI,TAMIL NADU,25956245
8,TAMILNAD MERCANTILE BANK LIMITED,TMBL0000009,VILATHIKULAM,"10/21/A1, ETTAYAPURAM ROAD, VILATHIKULAM-628907 TAMILNADU",THOOTHKUDI,VILATHIKULAM,TAMIL NADU,233022
9,TAMILNAD MERCANTILE BANK LIMITED,TMBL0000010,MUHAVOOR,"29-C/4, KASI RAJA MAIN ROAD, MUHAVOOR-626111 TAMILNADU",VIRUDHUNAGAR,MUHAVOOR,TAMIL NADU,245644
10,TAMILNAD MERCANTILE BANK LIMITED,TMBL0000011,KAMUTHI,"NO.7, MUNISIFF ROAD, KAMUTHI, TAMILNADU",RAMANATHAPURAM,KAMUTHI(KAMUDI),TAMIL NADU,223236
11,TAMILNAD MERCANTILE BANK LIMITED,TMBL0000012,PAVOORCHATRAM,"10/639, MAIN ROAD, PAVOORCHATRAM-627808 TAMILNADU",TIRUNELVELI,TIRUNELVELI,TAMIL NADU,250654
12,TAMILNAD MERCANTILE BANK LIMITED,TMBL0000013,PUTHIAMPUTHUR,"NO.12/2A, THATTAPARAI ROAD, PUTHIAMPUTHUR-628402 TAMILNADU",THOOTHKUDI,PUTHIAMPUTHUR,TAMIL NADU,2261222
13,TAMILNAD MERCANTILE BANK LIMITED,TMBL0000014,RAJAKKAMANGALAM,"4-34 G, NAGERCOIL-COLACHAL ROAD, RAJAKKAMANGALAM-629502 TAMILNADU",KANNIYAKUMARI,RAJAKKAMANGALAM,TAMIL NADU,250225
14,TAMILNAD MERCANTILE BANK LIMITED,TMBL0000015,NAGAMALAI PUDUKOTTAI,"5/69-A, THENI MAIN ROAD, NAGAMALAI PUTHUKOTTAI-625019 TAMILNADU",MADURAI,MADURAI,TAMIL NADU,2459341
15,TAMILNAD MERCANTILE BANK LIMITED,TMBL0000016,COIMBATORE-MAIN,"122,BIG BAZAR STREET, COIMBATORE-641001 TAMILNADU",COIMBOTORE,COIMBATORE,TAMIL NADU,2392709
16,TAMILNAD MERCANTILE BANK LIMITED,TMBL0000017,PUDUR,"25-B, ANNA NEDUNSALAI, PUDUR-628905 TAMILNADU",THOOTHKUDI,PUDUR,TAMIL NADU,252222
17,TAMILNAD MERCANTILE BANK LIMITED,TMBL0000018,ANJUGRAMAM,"7/31, MAIN ROAD, ANJUGRAMAM-629401 TAMILNADU",KANNIYAKUMARI,NAGERCOIL,TAMIL NADU,268292
18,TAMILNAD MERCANTILE BANK LIMITED,TMBL0000019,TRICHY,"209, PALAKKARAI MAIN ROAD, MAILAM CHANDAI, TRICHY-620008 TAMILNADU",TIRUCHIORAPPALLI,TIRUCHIRAPPALLI,TAMIL NADU,2710695
19,TAMILNAD MERCANTILE BANK LIMITED,TMBL0000020,CHENNAI-GT,"194, ANNA PILLAI STREET, GEORGE TOWN, CHENNAI-600001 TAMILNADU",CHENNAI,CHENNAI,TAMIL NADU,25229159
20,TAMILNAD MERCANTILE BANK LIMITED,TMBL0000021,KOMMADIKOTTAI,"1/21, MAIN ROAD, KOMADIKOTTAI-628653 TAMILNADU",THOOTHKUDI,KOMMADIKOTTAI,TAMIL NADU,253237
21,TAMILNAD MERCANTILE BANK LIMITED,TMBL0000022,MEGNANAPURAM,"4/111, TIRUCHENDUR ROAD, MEGNANAPURAM-628210 TAMILNADU",THOOTHKUDI,MEGNANAPURAM,TAMIL NADU,227223
22,TAMILNAD MERCANTILE BANK LIMITED,TMBL0000023,YERCAUD,"30-27A, MC MOHAN ROAD, YERCAUD-636601 TAMILNADU",SALEM,YERCAUD,TAMIL NADU,222491
23,TAMILNAD MERCANTILE BANK LIMITED,TMBL0000024,KAYAMOZHI,"5/105-B,MAIN ROAD, KAYAMOZHI-628205 TAMILNADU",THOOTHKUDI,KAYAMOZHI,TAMIL NADU,232223
24,TAMILNAD MERCANTILE BANK LIMITED,TMBL0000025,TIRUNELVELI,"D.NO.25/15 & 16, FIRST FLOORSWAMY NELLAIYAPPAR HIGH ROAD, TIRUNELVELI-627001 TAMILNADU",TIRUNELVELI,TIRUNELVELI,TAMIL NADU,2333596
25,TAMILNAD MERCANTILE BANK LIMITED,TMBL0000026,THALAKKULAM,"16/6-P, NAGERCOIL MAIN ROAD, THALAKKULAM-629802 TAMILNADU",KANNIYAKUMARI,THALAKKULAM,TAMIL NADU,220229
26,TAMILNAD MERCANTILE BANK LIMITED,TMBL0000027,MULLAKKADU,"TIRUCHENDUR MAIN ROAD, MULLAKKADU-628005 TAMILNADU",THOOTHKUDI,MULLAKKADU,TAMIL NADU,2357824
27,TAMILNAD MERCANTILE BANK LIMITED,TMBL0000028,SALEM,"126,FORT MAIN ROAD, SHEVAPET, SALEM-636002 TAMILNADU",SALEM,SALEM,TAMIL NADU,2213451
28,TAMILNAD MERCANTILE BANK LIMITED,TMBL0000029,RADHAPURAM,"15,SOUTH CAR STREET, RADHAPURAM-627111 TAMILNADU",TIRUNELVELI,RADHAPURAM,TAMIL NADU,254371
29,TAMILNAD MERCANTILE BANK LIMITED,TMBL0000030,TISAIYANVILAI,"44A,ARPUTHA VINAYAGAR KOIL STREET, TISAYANVILAI-627657",TIRUNELVELI,TISAIYANVILLAI,TAMIL NADU,273300
30,TAMILNAD MERCANTILE BANK LIMITED,TMBL0000031,T.KALLIKULAM,"26-A/5, ST.ANTONY'S WEST CAR STREET, T.KALLIKULAM-627113 TAMILNADU",TIRUNELVELI,VALLIOOR,TAMIL NADU,235127
31,TAMILNAD MERCANTILE BANK LIMITED,TMBL0000032,VELLORE,"7,MUNDY STREET, VELLORE-632004 TAMILNADU",VELLORE,VELLORE,TAMIL NADU,2232669
32,TAMILNAD MERCANTILE BANK LIMITED,TMBL0000033,ELAYIRAMPANNAI,"9/32A, SATTUR MAIN ROAD, ELAYIRAMPANNAI-626201 TAMILNADU",VIRUDHUNAGAR,ELAYIRAMPANNAI,TAMIL NADU,258232
33,TAMILNAD MERCANTILE BANK LIMITED,TMBL0000034,KOVILPATTI,"D.NO.849-860, FIRST FLOOR, PERUMTHALAIVAR KAMARAJ COMMERCIAL COMPLEX MAIN ROAD, KOVILPATTI-628501 TAMILNADU",THOOTHKUDI,KOVILPATTI,TAMIL NADU,226954
34,TAMILNAD MERCANTILE BANK LIMITED,TMBL0000035,PUDUKOTTAI,"4/66, MAIN ROAD, PUDUKOTTAI-628103 TUTICORIN DIST, TAMILNADU",THOOTHKUDI,PUDUKOTTAI,TAMIL NADU,2271301
35,TAMILNAD MERCANTILE BANK LIMITED,TMBL0000036,ERODE,"KMP TOWER, 41, THEPPAKKULAM STREET, ERODE-638001 TAMILNADU",ERODE,ERODE,TAMIL NADU,2256502
36,TAMILNAD MERCANTILE BANK LIMITED,TMBL0000037,KUMBAKONAM,"63,NAGESWARAN NORTH STREET, KUMBAKONAM-612001 TAMILNADU",THANJAVUR,KUMBAKONAM,TAMIL NADU,2430390
37,TAMILNAD MERCANTILE BANK LIMITED,TMBL0000038,ARUPPUKOTTAI,"25,VIRUDHUNAGAR ROAD, ARUPPUKOTTAI-626101 TAMILNADU",VIRUDHUNAGAR,ARUPPUKOTTAI,TAMIL NADU,220046
38,TAMILNAD MERCANTILE BANK LIMITED,TMBL0000039,KALLOORANI,"109, SAYALKUDI ROAD, KALLOORANI-626105 TAMILNADU",VIRUDHUNAGAR,KALLOORANI,TAMIL NADU,283231
39,TAMILNAD MERCANTILE BANK LIMITED,TMBL0000040,ALANGULAM,"549A,TENKASI MAIN ROAD, ALANGULAM-627851 TAMILNADU",TIRUNELVELI,ALANGULAM,TAMIL NADU,272124
40,TAMILNAD MERCANTILE BANK LIMITED,TMBL0000041,BOMMIDI,"G.R.S.HOSPITAL BUILDING, 30/5A, SALEM MAIN ROAD, BOMMIDI-635301 TAMILNADU",DHARMAPURI,BOMMIDI,TAMIL NADU,244440
41,TAMILNAD MERCANTILE BANK LIMITED,TMBL0000042,THICKANAMCODE,"6/19D, KARINGAL ROAD, THICKANAMCODE-629804 TAMILNADU",KANNIYAKUMARI,THIKKANAMCODE,TAMIL NADU,254246
42,TAMILNAD MERCANTILE BANK LIMITED,TMBL0000043,THIRUVARUR,"29, 29-A, PALLIVASAL STREET, THIRUVARUR-610001 TAMILNADU",TIRUVARUR,TIRUVARUR,TAMIL NADU,220213
43,TAMILNAD MERCANTILE BANK LIMITED,TMBL0000044,BANGALORE CITY,"19-F, B.V.K.IYENGAR ROAD, BANGALORE-560009 KARNATAKA",BANGALORE URBAN,BANGALORE,KARNATAKA,22874675
44,TAMILNAD MERCANTILE BANK LIMITED,TMBL0000045,VILLUPURAM,"OLD NO.15, NEW NO.45,GROUND FLOOR KANYA KULAM ROAD, VILLUPURAM-605602 TAMILNADU",VILLUPURAM,VILLUPURAM,TAMIL NADU,223248
45,TAMILNAD MERCANTILE BANK LIMITED,TMBL0000046,PALLIYADI,"D.NO.25/65D, VEMPANA VILAI, PALLIYADI-629169 TAMILNADU",KANNIYAKUMARI,PALLIYADI,TAMIL NADU,267256
46,TAMILNAD MERCANTILE BANK LIMITED,TMBL0000047,VERKIZHAMBI,"3-130/47B, MAIN ROAD, MEKKAMANDEPAM POST,CHANIVILLAI, VERKIZHAMBI-629166 TAMILNADU",KANNIYAKUMARI,VERKIZHAMBI,TAMIL NADU,289230
47,TAMILNAD MERCANTILE BANK LIMITED,TMBL0000048,CHINNAMANUR,"176-A, CUMBUM MAIN ROAD, K.K.KULAM, CHINNAMANUR-625515 TAMILNADU",THENI,CHINNAMANUR,TAMIL NADU,248459
48,TAMILNAD MERCANTILE BANK LIMITED,TMBL0000049,COLACHEL,"17/W21, MAIN ROAD, COLACHEL-629251 TAMILNADU",KANNIYAKUMARI,COLACHEL,TAMIL NADU,225607
49,TAMILNAD MERCANTILE BANK LIMITED,TMBL0000050,AGASTHEESWARAM,"12-7-B, COLLEGE ROAD, AGASTHEESWARAM-629701 TAMILNADU",KANNIYAKUMARI,AGASTEESWARAM,TAMIL NADU,271697
50,TAMILNAD MERCANTILE BANK LIMITED,TMBL0000051,ERIYODU,"2-1-96-F, AYYALUR ROAD, ERIYODU-624702 TAMILNADU",DINDIGUL,ERIODU,TAMIL NADU,232223
51,TAMILNAD MERCANTILE BANK LIMITED,TMBL0000052,SAYALKUDI,"10-288-A, KANYAKUMARI ROAD. SAYALKUDI-623120 TAMILNADU",RAMANATHAPURAM,SAYALKUDI,TAMIL NADU,244223
52,TAMILNAD MERCANTILE BANK LIMITED,TMBL0000053,SIRUTHONDANALLUR,"10-50-B, ERAL-SAWYERPURAM MAIN ROAD, SRUTHONDANALLURI-628802 TAMILNADU",THOOTHKUDI,SIRUTHONDANALLUR,TAMIL NADU,271563
53,TAMILNAD MERCANTILE BANK LIMITED,TMBL0000054,PRAHASAPURAM,"PRAHASAPURM BRANCH,NO.145 A, MARGOSCHIS ROAD, NAZARETH, TAMILNADU",THOOTHKUDI,PRAHASAPURAM,TAMIL NADU,277277
54,TAMILNAD MERCANTILE BANK LIMITED,TMBL0000055,CHENNAI-T.NAGAR,"25, VENKATNARAYANA ROAD, T.NAGAR, CHENNAI-600017 TAMILNADU",CHENNAI,CHENNAI,TAMIL NADU,24336672
55,TAMILNAD MERCANTILE BANK LIMITED,TMBL0000056,RAYAGIRI,"24/177, GANDHI STREET, RAYAGIRI-627764 TAMILNADU",TIRUNELVELI,RAYAGIRI,TAMIL NADU,250233
56,TAMILNAD MERCANTILE BANK LIMITED,TMBL0000057,KANJAMPURAM,"22/4-C, NITHIRAVILAI JUNCTION, KANJAMPURAM-629154 TAMILNADU",KANNIYAKUMARI,KANJAMPURAM,TAMIL NADU,240763
57,TAMILNAD MERCANTILE BANK LIMITED,TMBL0000058,PODANUR,"11, CHURCH ROAD, PODANUR-641023 TAMILNADU",COIMBOTORE,PODANUR,TAMIL NADU,2412505
58,TAMILNAD MERCANTILE BANK LIMITED,TMBL0000059,KUMARAPALAYAM PUTHUR,"366-D, PERUR MAIN ROAD, SELVAPURAM, KUMARAPALAYAM PUTHUR-641026 TAMILNADU",COIMBOTORE,KUMARAPALAYAM PUTHUR,TAMIL NADU,2346762
59,TAMILNAD MERCANTILE BANK LIMITED,TMBL0000060,KANNANKURICHI,"4/153 C, G.V.COMPLEX, YERCAUD MAIN ROAD, KANNANKURICHI, SALEM-636008 TAMILNADU",SALEM,SALEM,TAMIL NADU,2405926
60,TAMILNAD MERCANTILE BANK LIMITED,TMBL0000061,AYYALUR,"ERIYODU ROAD, OPP TO M.P.KALYANA MANDAPAM, AYYALUR-624001 TAMILNADU",DINDIGUL,AIYALUR,TAMIL NADU,231224
61,TAMILNAD MERCANTILE BANK LIMITED,TMBL0000062,TIRUPURAM,"NO.T.P.4-212 PAZHAYAKADAI JUNCTION, NEYYATTINKARA(VIA) TIRUPURAM-695133 KERALA",TRIVANDRUM,NEYYATTINKARA,KERALA,2260972
62,TAMILNAD MERCANTILE BANK LIMITED,TMBL0000063,KOTTUGAL,"PB/XVI/3014, FIRST FLOOR, ALIF ARCADE, MAIN ROAD, BALARAMAPURAM, KOTTUGAL-695501 KERALA",TRIVANDRUM,BALARAMAPURAM,KERALA,2400202
63,TAMILNAD MERCANTILE BANK LIMITED,TMBL0000064,THIRUVANANTHAPURAM,"T.C.NO.39/1276(3), FIRST FLOOR, S.P.BHAGYA TOWERS, ATTAKULANGARA, TIRUVANDRUM-695036 KERALA",TRIVANDRUM,THIRUVANANTHAPURAM,KERALA,2461878
64,TAMILNAD MERCANTILE BANK LIMITED,TMBL0000065,HYDERABAD,"15-2-696, SIDDIAMBER BAZAR, KISHANGANG, HYDERABAD-500012 ANDHRA PRADESH",HYDERABAD URBAN,HYDERABAD,ANDHRA PRADESH,24617542
65,TAMILNAD MERCANTILE BANK LIMITED,TMBL0000066,MUMBAI-MANDVI,"NO.92, KAZI SYED STREET, GORADIA HOUSE, MUMBAI-400003 MAHARASHTRA",GREATER BOMBAY,MUMBAI,MAHARASHTRA,23415624
66,TAMILNAD MERCANTILE BANK LIMITED,TMBL0000067,THANJAVUR,"936, EAST MAIN ROAD, THANJAVUR-613001 TAMILNADU",THANJAVUR,THANJAVUR,TAMIL NADU,231574
67,TAMILNAD MERCANTILE BANK LIMITED,TMBL0000068,SONAKANVILAI,"164-165 TIRUCHENDUR ROAD, AMMANPURAM, SONAKANVILAI-628201 TAMILNADU",THOOTHKUDI,SONAKANVILAI,TAMIL NADU,223356
68,TAMILNAD MERCANTILE BANK LIMITED,TMBL0000069,ARUMANAI,"7/88A, THATTANKONAM, ARUMANAI-629151 TAMILNADU",KANNIYAKUMARI,ARUMANAI,TAMIL NADU,287851
69,TAMILNAD MERCANTILE BANK LIMITED,TMBL0000070,USILAMPATTI,"NO.93, MADURAI ROAD,USILAMPATTI-625532 TAMILNADU",MADURAI,USILAMPATTI,TAMIL NADU,251142
70,TAMILNAD MERCANTILE BANK LIMITED,TMBL0000071,VALLALNATHI,"MAIN ROAD, GANDAMANAYAKANUR, VALLALNATHI-625517 TAMILNADU",THENI,VALLALNATHI,TAMIL NADU,238228
71,TAMILNAD MERCANTILE BANK LIMITED,TMBL0000072,PANNAIPURAM,"7-2-11,MAIN ROAD, PANNAIPURAM-625524 TAMILNADU",THENI,PANNAIPURAM,TAMIL NADU,252240
72,TAMILNAD MERCANTILE BANK LIMITED,TMBL0000073,RAJAPALAYAM,"391-TENKASI ROAD, AISHWARYA COMPLEX, RAJAPALAYAM-626117 TAMILNADU",VIRUDHUNAGAR,RAJAPALAIYAM,TAMIL NADU,230370
73,TAMILNAD MERCANTILE BANK LIMITED,TMBL0000074,GUNTUR,"24-2-49, CHAPPALAVARI STREET,RATNAM BAZAR, GUNTUR-522003 ANDHRA PRADESH",GUNTUR,GUNTUR,ANDHRA PRADESH,2322871
74,TAMILNAD MERCANTILE BANK LIMITED,TMBL0000075,TIRUPUR,"DOOR NO.233-236, PALLADAM ROAD, (KAMRAJ ROAD) TIRUPUR-641604 TAMILNADU",COIMBOTORE,TIRUPUR,TAMIL NADU,2217522
75,TAMILNAD MERCANTILE BANK LIMITED,TMBL0000076,GULBARGA,"NO.3-218, RUKMINI CHAMBERS, ADJACENT TO SUPER MARKET, GULBARGA-585101 KARNATAKA",GULBERGA,GULBARGA,KARNATAKA,229938
76,TAMILNAD MERCANTILE BANK LIMITED,TMBL0000077,ODAIPATTI,"11-1-18, MAIN ROAD, MELAPATTI, ODAIPATTI-625540 TAMILNADU",THENI,ODAIPATTI,TAMIL NADU,247241
77,TAMILNAD MERCANTILE BANK LIMITED,TMBL0000078,KALLIMANDAYAM,"2/109, DHARAPURAM MAIN  ROAD, KALLIMANDAYAM-624616 TAMILNADU",DINDIGUL,KALLIMANDAYAM,TAMIL NADU,260226
78,TAMILNAD MERCANTILE BANK LIMITED,TMBL0000079,VIRALIPATTI,"4/243, MAIN ROAD, VIRALIPATTI-624202 TAMILNADU",DINDIGUL,VIRALIMAYANPATTI,TAMIL NADU,251223
79,TAMILNAD MERCANTILE BANK LIMITED,TMBL0000080,PAVITHRAMPUTHUR,"2/170, RAJAVEETHI, PAVITHRAMPUDUR-637021 TAMILNADU",NAMAKKAL,PAVITHRAMPUDUR,TAMIL NADU,264544
80,TAMILNAD MERCANTILE BANK LIMITED,TMBL0000081,POTTIREDDIPATTI,"7/278, PONNERI MAIN ROAD, POTTIREDDIPATTI-637013 TAMILNADU",NAMAKKAL,POTTIREDDIPATTI,TAMIL NADU,252622
81,TAMILNAD MERCANTILE BANK LIMITED,TMBL0000082,VATTUR,"9/1-A, SALEM MAIN ROAD, VIA TIRUCHENGODE, MOREPALAYAM, PILLANATHAM PO. VATTUR-637205 TAMILNADU",NAMAKKAL,VATTUR,TAMIL NADU,236240
82,TAMILNAD MERCANTILE BANK LIMITED,TMBL0000083,KOLKATTA,"58-D, NETHAJI SUBAS ROAD, II FLOOR, KOLKATTA-700001 WEST BENGAL",KOLKATA,KOLKATA,WEST BENGAL,22428044
83,TAMILNAD MERCANTILE BANK LIMITED,TMBL0000084,CUDDALORE,"91/1, LAWRENCE ROAD, THIRUPPAPULIYUR, DURAI PLAZA, CUDDALORE-607002 TAMILNADU",CUDDALORE,CUDDALORE,TAMIL NADU,224524
84,TAMILNAD MERCANTILE BANK LIMITED,TMBL0000085,GOVINDAKUDI,"2/52-B, BAZAR STREET, GOVINDAKUDI-612704 TAMILNADU",TIRUVARUR,GOVINDAKUDI,TAMIL NADU,268438
85,TAMILNAD MERCANTILE BANK LIMITED,TMBL0000086,VENGADAMPATTI,"4/23B,, PAVOORCHATRAM ROAD, MYLAPPAPURAM, VENGADAMPATTI-627415",TIRUNELVELI,VENGADAMPATTI,TAMIL NADU,257401
86,TAMILNAD MERCANTILE BANK LIMITED,TMBL0000087,KARUR,"D.NO.43, COVAI ROAD, PADMA TOWER, FIRST FLOOR, KARUR-639001 TAMILNADU",KARUR,KARUR,TAMIL NADU,232093
87,TAMILNAD MERCANTILE BANK LIMITED,TMBL0000088,BANGALORE-CANTONMENT,"29-MAHATMA GANDHI ROAD, CANTONMENT, BANGALORE-560001 KARNATAKA",BANGALORE URBAN,BANGALORE,KARNATAKA,25594359
88,TAMILNAD MERCANTILE BANK LIMITED,TMBL0000089,PALANI,"71-A GANDHI ROAD, PALANI-624601 TAMILNADU",DINDIGUL,PALANI,TAMIL NADU,244636
89,TAMILNAD MERCANTILE BANK LIMITED,TMBL0000090,POLLACHI,"1/18, CHELLAM TALKIES ROAD, POLLACHI-642001 TAMILNADU",COIMBOTORE,POLLACHI,TAMIL NADU,223339
90,TAMILNAD MERCANTILE BANK LIMITED,TMBL0000091,PULIAMPATTI,"158, PALLADAM ROAD, PULIAMPATTI-642002 TAMILNADU",COIMBOTORE,PULIAMPATTI,TAMIL NADU,224703
91,TAMILNAD MERCANTILE BANK LIMITED,TMBL0000092,EDALAKUDY,"846, CAPE ROAD, KOTTAR PO, EDALAKUDY, NAGERCOIL-629002 TAMILNADU",KANNIYAKUMARI,NAGERCOIL,TAMIL NADU,241904
92,TAMILNAD MERCANTILE BANK LIMITED,TMBL0000093,MADURAI-SIMMAKKAL,"28, NAICKER NEW STREET, SIMMAKKAL, MADURAI-625001 TAMILNADU",MADURAI,MADURAI,TAMIL NADU,2630456
93,TAMILNAD MERCANTILE BANK LIMITED,TMBL0000094,MAYILADUTHURAI,"7-A, DABEERKULAM RD,  AVAYAMBALPURAM, MAYILADUTHURAI-609001 TAMILNADU",NAGAPATTINAM,MAYURAM(MAYILADUTHURAI),TAMIL NADU,225559
94,TAMILNAD MERCANTILE BANK LIMITED,TMBL0000095,KOLLAM,"FIST FLOOR, SMV TOWER, CHINNAKADA, PB.NO.313, MAIN ROAD,KOLLAM-691001 KERALA",KOLLAM,KOLLAM,KERALA,2741289
95,TAMILNAD MERCANTILE BANK LIMITED,TMBL0000096,CHENNAI-MOUNT ROAD,"DOOR NO.738, KHIVRAJ MANSION, GROUND FLOOR, ANNASALAI, CHENNAI-600006",CHENNAI,CHENNAI,TAMIL NADU,28412205
96,TAMILNAD MERCANTILE BANK LIMITED,TMBL0000097,VIJAYAWADA,"11-15-5, FIRST FLOOR, VINNAKOTTAVARI STREET, VIJAYAWADA-520001 ANDHRA PRADESH",KRISHNA,VIJAYAWADA,ANDHRA PRADESH,2564904
97,TAMILNAD MERCANTILE BANK LIMITED,TMBL0000098,PORALOOR,"1/35, 1/36, MAIN ROAD, ODDANCHATREM TALUK, PORALOOR-624616 TAMILNADU",DINDIGUL,PORULOOR,TAMIL NADU,260234
98,TAMILNAD MERCANTILE BANK LIMITED,TMBL0000099,PADANTHALUMOODU,"17/92, TIRUVANDRUM MAIN ROAD, PADANTHALUMOODU-629194 TAMILNADU",KANNIYAKUMARI,PADANTHALUMOODU,TAMIL NADU,245872
99,TAMILNAD MERCANTILE BANK LIMITED,TMBL0000100,NEW DELHI,"384-390, LOKE BUILDING, CHANDNI CHOWK, DELHI-110006",NEW DELHI,DELHI,DELHI,23979251
100,TAMILNAD MERCANTILE BANK LIMITED,TMBL0000101,MANGALORE,"NO.9-4-251/4, SURAJ DIAMOND BUILDING, AZIZUDDIN ROAD, BUNDER, MANGALORE-575001 KARNATAKA",DAKSHINA KANNADA,MANGALORE,KARNATAKA,2424188
101,TAMILNAD MERCANTILE BANK LIMITED,TMBL0000102,MAYILADUMPARAI,"224/2, PANDAGA SALAI,  MAYILADUMPARAI-625579 TAMILNADU",THENI,MAYILADUMPARAI,TAMIL NADU,227241
102,TAMILNAD MERCANTILE BANK LIMITED,TMBL0000103,DEVATHANAPET,"51 BY 52, MIDDLE STREET, DEVATHANAMPETTAI-604151",VILLUPURAM,DEVATHANAPET,TAMIL NADU,0
103,TAMILNAD MERCANTILE BANK LIMITED,TMBL0000104,KAPPUKADU,"13/61-B, MAIN ROAD, KAPPUKADU-629162 TAMILNADU",KANNIYAKUMARI,KAPPIKADU,TAMIL NADU,271877
104,TAMILNAD MERCANTILE BANK LIMITED,TMBL0000105,KANCHEEPURAM,"40A, VANIGAR STREET, KANCHIPURAM-631501 TAMILNADU",KANCHEEPURAM,KANCHIPURAM,TAMIL NADU,27222587
105,TAMILNAD MERCANTILE BANK LIMITED,TMBL0000106,THOOTHUKUDI SOUTH BR,"283, W.G.C.ROAD, TUTICORIN-628002 TAMILNADU",THOOTHKUDI,TUTICORIN,TAMIL NADU,2322088
106,TAMILNAD MERCANTILE BANK LIMITED,TMBL0000107,NELLORE,"17/130, SRI RAJESHWARI TOWERS, NELLORE-524001 ANDHRA PRADESH",NELLORE,NELLORE,ANDHRA PRADESH,2333630
107,TAMILNAD MERCANTILE BANK LIMITED,TMBL0000108,PONDICHERRY,"SHANTHI INN, GROUND FLOOR,NO.57,59 &61 , JAWAHARLAL NEHRU STREET, PONDICHERRY-605001",PONDICHERRY,PONDICHERRY,PUDUCHERRY,2335032
108,TAMILNAD MERCANTILE BANK LIMITED,TMBL0000109,CHENGAVILAI,"2/78-A, CHOOZHAL, CHENGAVILAI, KOLLAMCODE PO, CHENGAVILAI-629160 TAMILNADU",KANNIYAKUMARI,KOLLEMKODE,TAMIL NADU,246051
109,TAMILNAD MERCANTILE BANK LIMITED,TMBL0000110,VADAMALAIKURUCHI,"1/75A MAIN ROAD, VADAMALAIKURICHI-626001 TAMILNADU",VIRUDHUNAGAR,VADAMALAIKURICHI,TAMIL NADU,290310
110,TAMILNAD MERCANTILE BANK LIMITED,TMBL0000111,PANDARAVILAI,"3/11, HIGHWAYS ROAD,  PANDARAVILAI-628751 TAMILNADU",THOOTHKUDI,ERAL,TAMIL NADU,271223
111,TAMILNAD MERCANTILE BANK LIMITED,TMBL0000112,ERNAKULAM,"64/3334-A, CHITTOOR ROAD, KACHERIPPADY, ERNAKULAM-682035 KERALA",ERNAKULAM,KOCHI,KERALA,2365431
112,TAMILNAD MERCANTILE BANK LIMITED,TMBL0000113,AHMEDABAD,"1-B, WALL STREET, ELLIS BRIDGE, AHMEDABAD-380006 GUJARAT",AHMEDABAD,AHMEDABAD,GUJARAT,26441897
113,TAMILNAD MERCANTILE BANK LIMITED,TMBL0000114,VARAGUR,"1/28, MARIAMMAN KOIL STREET, VARAGUR-637021 TAMILNADU",NAMAKKAL,VARAGUR,TAMIL NADU,264527
114,TAMILNAD MERCANTILE BANK LIMITED,TMBL0000115,CHOCKALINGAPURAM,"281, MAIN ROAD, VIA KOTTAMPATTI, MELUR TALUK,  CHOCKALINGAPURAM-625103 TAMILNADU",MADURAI,CHOCKALINGAPURAM,TAMIL NADU,242230
115,TAMILNAD MERCANTILE BANK LIMITED,TMBL0000116,M.M.KOVILUR,"DOOR NO.1/163, MAIN ROAD, M.M.KOVILUR-624005 TAMILNADU",DINDIGUL,M.M.KOVILUR,TAMIL NADU,2410657
116,TAMILNAD MERCANTILE BANK LIMITED,TMBL0000117,VASHI - NAVI MUMBAI,"PLOT NO.179, BANKING COMPLEX BLDG. APMC MARKET, SECTOR 19 VASHI MUMBAI-400705",GREATER BOMBAY,MUMBAI,MAHARASHTRA,27831710
117,TAMILNAD MERCANTILE BANK LIMITED,TMBL0000118,MADURAI-CHINTHAMANI,"74-75, KAMARAJAR SALAI, CHINTHAMANI, MADURAI-625009 TAMILNADU",MADURAI,MADURAI,TAMIL NADU,2632933
118,TAMILNAD MERCANTILE BANK LIMITED,TMBL0000119,SURAT,"BOMBAY MARKET, OFFICE BUILDING COMPLEX, SURAT-395010 GUJARAT",SURAT,SURAT,GUJARAT,2369191
119,TAMILNAD MERCANTILE BANK LIMITED,TMBL0000120,RAJAMUNDRY,"33-1-10 TOWN HALL ROAD, RAJAHMUNDRY-533101 ANDHRA PRADESH",EAST GODAVARI,RAJAHMUNDRY,ANDHRA PRADESH,2476155
120,TAMILNAD MERCANTILE BANK LIMITED,TMBL0000121,COIMBATORE-DR.N. ROAD,"364-DR.NANJAPPA ROAD, COIMBATORE-641018 TAMILNADU",COIMBOTORE,COIMBATORE,TAMIL NADU,2238653
121,TAMILNAD MERCANTILE BANK LIMITED,TMBL0000122,KOZHIKODE,"11/436, CHEROORY ROAD, SOUTH SIDE OF C.H.FLYOVER, KOZHICODE-673032 KERALA",KOZHIKODE,CALICUT,KERALA,2365760
122,TAMILNAD MERCANTILE BANK LIMITED,TMBL0000123,CHENNAI-TTK ROAD,"NO.4,TTK ROAD, ROYAPETTAH, CHENNAI-600014 TAMILNADU",CHENNAI,CHENNAI,TAMIL NADU,28115786
123,TAMILNAD MERCANTILE BANK LIMITED,TMBL0000124,TADEPALLIGUDAM,"D.NO.1-47-5, RAGHVENDRA COMPLEX, GROUND FLOOR, K.N.ROAD,TADEPALLIGUDAM-534101 ANDHRA PRADESH",WEST GODAVARI,TADEPALLIGUDEM,ANDHRA PRADESH,222890
124,TAMILNAD MERCANTILE BANK LIMITED,TMBL0000125,UDUMALPET,"243-POLLACHI ROAD, UDUMALPET-642126 TAMILNADU",COIMBOTORE,UDUMALPET,TAMIL NADU,226357
125,TAMILNAD MERCANTILE BANK LIMITED,TMBL0000126,TIRUCHENGODU,"27/1, (OLD NO.10),SOUTH CAR STREET, TIRUCHENGODE-637211 TAMILNADU",NAMAKKAL,TIRUCHENGODU,TAMIL NADU,255772
126,TAMILNAD MERCANTILE BANK LIMITED,TMBL0000127,KARAIKUDI,"D.NO.5/1 & 2, GROUND FLOOR, GANDHI STREET, SEKKAALAI ROAD, KARAIKUDI-630001 TAMILNADU",SIVAGANGA,KARAIKUDI,TAMIL NADU,238360
127,TAMILNAD MERCANTILE BANK LIMITED,TMBL0000128,PUDUKOTTAI,"2738, EAST MAIN ROAD, K.L.K.S.COMPLEX, PUTHUKOTTAI-622001, TAMILNADU",PUDUKKOTTAI,PUDUKKOTTAI,TAMIL NADU,220194
128,TAMILNAD MERCANTILE BANK LIMITED,TMBL0000129,NAMAKKAL,"114, SALEM ROAD, K.K.P.COMPLEX, NAMAKKAL-637001 TAMILNADU",NAMAKKAL,NAMAKKAL,TAMIL NADU,277179
129,TAMILNAD MERCANTILE BANK LIMITED,TMBL0000130,UNJHA,"6/12/35/21-24, MEENAKSHI BHAVAN, ZAVERIPARU, STATION ROAD, UNJHA-384170 GUJARAT",PATAN,UNJHA,GUJARAT,254510
130,TAMILNAD MERCANTILE BANK LIMITED,TMBL0000131,RAMANATHAPURAM,"DOOR NO.25, FIRST FLOOR, SIGIL RAJA VEETHI,  RAMANATHAPURAM-623501 TAMILNADU",RAMANATHAPURAM,RAMANATHAPURAM,TAMIL NADU,224780
131,TAMILNAD MERCANTILE BANK LIMITED,TMBL0000132,SATTUR,"531/E, MAIN ROAD, SATTUR-626203 TAMILNADU",VIRUDHUNAGAR,SATTUR,TAMIL NADU,260920
132,TAMILNAD MERCANTILE BANK LIMITED,TMBL0000133,CHANGANASSERY,"8/1131, DR.ALPHONZA ROAD, CHENGANACHERRY-686101 KERALA",KOTTAYAM,CHANGANASSERY,KERALA,2420889
133,TAMILNAD MERCANTILE BANK LIMITED,TMBL0000134,THIRUVANNAMALAI,"NO.91/106, BIG STREET, THIRUVANNAMALAI-606601 TAMILNADU",TIRUVANNAMALAI,TIRUVANNAMALAI,TAMIL NADU,253578
134,TAMILNAD MERCANTILE BANK LIMITED,TMBL0000135,NAGAPATTINAM,"D.NO.57, T.S.NO.1563, WARD NO.3, BLOCK NO.18, NEELA SOUTH STREET, NAGAPATNAM-611001 TAMILNADU",NAGAPATTINAM,NAGAPATTINAM,TAMIL NADU,240970
135,TAMILNAD MERCANTILE BANK LIMITED,TMBL0000136,COIMBATORE-R.S.PURAM,"539-540, D.B.ROAD, R.S.PURAM, COIMBATORE-641002 TAMILNADU",COIMBOTORE,COIMBATORE,TAMIL NADU,2542429
136,TAMILNAD MERCANTILE BANK LIMITED,TMBL0000137,HASSAN,"102 TO 105, HARSHA MAHAL ROAD, HASSAN-573201 KARNATAKA",HASSAN,HASSAN,KARNATAKA,235276
137,TAMILNAD MERCANTILE BANK LIMITED,TMBL0000138,DHARMAPURI,"61, ARUMUGA ACHARI STREET, DHARMAPURI-636701 TAMILNADU",DHARMAPURI,DHARMAPURI,TAMIL NADU,265039
138,TAMILNAD MERCANTILE BANK LIMITED,TMBL0000139,SANKARANKOVIL,"9,SOUTH CAR STREET, SANKARANKOIL-627756 TAMILNADU",TIRUNELVELI,SANKARANKOIL,TAMIL NADU,224563
139,TAMILNAD MERCANTILE BANK LIMITED,TMBL0000140,METTUPALAYAM,"SAI TOWERS, (OPP.C.S.I.CHURCH), OOTY MAIN ROAD, METTUPALAYAM-641301 TAMILNADU",COIMBOTORE,METTUPALAYAM,TAMIL NADU,224927
140,TAMILNAD MERCANTILE BANK LIMITED,TMBL0000141,SECUNDERABAD,"102,103&124, CHENOY TRADE CENTRE, PARK LANE, S.D.ROAD, SECUNDERABAD-500003 AP",HYDERABAD URBAN,SECUNDERABAD CANTONMENT,ANDHRA PRADESH,27894021
141,TAMILNAD MERCANTILE BANK LIMITED,TMBL0000142,CHENNAI-AMINJIKARAI,"D.NO.650, POONAMALLE HIGH ROAD, AMINJIKARAI, CHENNAI-600029 TAMILNADU",CHENNAI,CHENNAI,TAMIL NADU,26264004
142,TAMILNAD MERCANTILE BANK LIMITED,TMBL0000143,ICHALKARANJI,"SHIV PARVATI ARCADE, WARD NO.5, HOUSE NO.105, LAYKAR LANE,  ICHALKARANJI-416115 TAMILNADU",KOLHAPUR,ICHALKARNJI,MAHARASHTRA,2431885
143,TAMILNAD MERCANTILE BANK LIMITED,TMBL0000144,MARTHANDAM,"2/24-2, TRIVANDRUM MAIN ROAD, MARTHANDAM-629165 TAMILNADU",KANNIYAKUMARI,MARTHANDAM,TAMIL NADU,272756
144,TAMILNAD MERCANTILE BANK LIMITED,TMBL0000145,HOSUR,"690/1, OLD BANGALORE ROAD, HOSUR-635109 TAMILNADU",KRISHNAGIRI,HOSUR,TAMIL NADU,241728
145,TAMILNAD MERCANTILE BANK LIMITED,TMBL0000146,CHENNAI-TAMBARAM,"33, SIVA SHANMUGAM STREET, TAMBARAM, CHENNAI-600045 TAMILNADU",CHENNAI,CHENNAI,TAMIL NADU,22260957
146,TAMILNAD MERCANTILE BANK LIMITED,TMBL0000147,KARAIKAL,"149, BHARATHIYAR SALAI, KARAIKAL-609602 PONDICHERRY",PONDICHERRY,KARAIKAL,PUDUCHERRY,222072
147,TAMILNAD MERCANTILE BANK LIMITED,TMBL0000148,VISAKHAPATNAM,"30-7-25, GROUND FLOOR, DABA GARDENS, VISAKHAPATNAM-530020 ANDHRA PRADESH",VISHAKAPATNAM,VISAKHAPATNAM,ANDHRA PRADESH,2716080
148,TAMILNAD MERCANTILE BANK LIMITED,TMBL0000149,KOTTAYAM,"9/439, BAKER JUNCTION CSI COMMERCIAL COMPLEX, KOTTAYAM-686001 KERALA",KOTTAYAM,KOTTAYAM,KERALA,2561540
149,TAMILNAD MERCANTILE BANK LIMITED,TMBL0000150,VADODARA,"40-VISWAS COLONY, RC DUTT ROAD, ALKAPURI, VADODARA-390005 GUJARAT",VADODARA,VADODARA,GUJARAT,2312054
150,TAMILNAD MERCANTILE BANK LIMITED,TMBL0000151,PUNE,"13, SHOLAPUR BAZAR ROAD, POLGATE, PUNE-411001 MAHARASHTRA",PUNE,PUNE,MAHARASHTRA,26363091
151,TAMILNAD MERCANTILE BANK LIMITED,TMBL0000152,PALAYAMKOTTAI,"WATER TANK ROAD, ST.JOHN'S COLLEGE CAMPUS, PALAYAMKOTTAI-627002 TAMILNADU",TIRUNELVELI,PALAYAMKOTTAI,TAMIL NADU,2583066
152,TAMILNAD MERCANTILE BANK LIMITED,TMBL0000153,THIRUMANGALAM,"308, MADURAI ROAD, TIRUMANGALAM-625706 TAMILNADU",MADURAI,TIRUMANGALAM,TAMIL NADU,285218
153,TAMILNAD MERCANTILE BANK LIMITED,TMBL0000154,SIVAGANGA,"74, NORTH RAJA STREET, SIVAGANGA-630561 TAMILNADU",SIVAGANGA,SIVAGANGA,TAMIL NADU,244262
154,TAMILNAD MERCANTILE BANK LIMITED,TMBL0000155,CUMBUM,"213-A/W18, ODAIKARAI STREET, CUMBUM-625516 TAMILNADU",THENI,CUMBUM,TAMIL NADU,274211
155,TAMILNAD MERCANTILE BANK LIMITED,TMBL0000156,SIPCOT - THOOTHUKUDI,"97/H/30, PALAYAMKOTTAI ROAD, TUTICORIN-628008 TAMILNADU",THOOTHKUDI,TUTICORIN,TAMIL NADU,2310606
156,TAMILNAD MERCANTILE BANK LIMITED,TMBL0000157,CHENNAI-PERAMBUR,"OLD NO.82, NEW NO.213 & 215, THILAGA TOWERS, MADHAVARAM HIGH ROAD, CHENNAI-600011 TAMILNADU",CHENNAI,CHENNAI,TAMIL NADU,25375931
157,TAMILNAD MERCANTILE BANK LIMITED,TMBL0000158,CHENNAI-TIRUVANMIYUR,"3, THIRUVALLUVAR SALAI, THIRUVANMIYUR, CHENNAI-600041",CHENNAI,CHENNAI,TAMIL NADU,24405509
158,TAMILNAD MERCANTILE BANK LIMITED,TMBL0000159,VALLIYOOR,"498-A, MAIN ROAD, VALLIYOOR-627117 TAMILNADU",TIRUNELVELI,VALLIOOR,TAMIL NADU,221195
159,TAMILNAD MERCANTILE BANK LIMITED,TMBL0000160,CHENGALPATTU,"3,G.S.T.ROAD, CHENGALPATTU-603001 TAMILNADU",KANCHEEPURAM,CHENGALPATTU,TAMIL NADU,27423114
160,TAMILNAD MERCANTILE BANK LIMITED,TMBL0000161,CHENNAI-ANNA NAGAR,"AC-16, II AVENUE, ANNA NAGAR WEST, CHENNAI-600040 TAMILNADU",CHENNAI,CHENNAI,TAMIL NADU,26202975
161,TAMILNAD MERCANTILE BANK LIMITED,TMBL0000162,MUMBAI - ANDHERI,"UNIT NO.14, BLDG.NO.2, MITTAL INDUST. ESTATE, MAROL NAKA, ANDHERI(E), MUMBAI-400059 MH",GREATER BOMBAY,MUMBAI,MAHARASHTRA,28513983
162,TAMILNAD MERCANTILE BANK LIMITED,TMBL0000163,MADURAI-TALLAKULAM,"RA-GEM PLAZA, 111-112, ALAGAR KOVIL STREET, TALLAKULAM, MADURAI-625002 TAMILNADU",MADURAI,MADURAI,TAMIL NADU,2520394
163,TAMILNAD MERCANTILE BANK LIMITED,TMBL0000164,GOBICHETTIPALAYAM,"47A/19-A, CUTCHERI STREET, V.K.P.PLAZA, GOBICHETTIPALAYAM-638452 TAMILNADU",ERODE,GOBICHETTIPALAYAM,TAMIL NADU,228167
164,TAMILNAD MERCANTILE BANK LIMITED,TMBL0000165,CHENNAI-PURASAWALKAM,"80-93, PURASAWALKAM HIGH ROAD, PURASAWALKAM, CHENNAI-600007 TAMILNADU",CHENNAI,CHENNAI,TAMIL NADU,26616540
165,TAMILNAD MERCANTILE BANK LIMITED,TMBL0000166,THUCKALAY,"20/32-A, MAIN ROAD, THUCKALAY-629175 TAMILNADU",KANNIYAKUMARI,THUCKALAI,TAMIL NADU,257207
166,TAMILNAD MERCANTILE BANK LIMITED,TMBL0000167,KAKINADA,"27-9-50/51, TEMPLE STREET, KAKINADA-533001 ANDHRA PRADESH",EAST GODAVARI,KAKINADA,ANDHRA PRADESH,2346658
167,TAMILNAD MERCANTILE BANK LIMITED,TMBL0000168,MUMBAI - SION,"PLOT NO.43,VANDHANA SCHEME NO.6,ROAD.NO.25,SION CIRCLE(W) MUMBAI-400022 MH",GREATER BOMBAY,MUMBAI,MAHARASHTRA,24070189
168,TAMILNAD MERCANTILE BANK LIMITED,TMBL0000169,LUDHIANA,"B-XV-89, G.T.ROAD, MILLER GANJ, LUDHIANA-141003 PUNJAB",LUDHIANA,LUDHIANA,PUNJAB,2547586
169,TAMILNAD MERCANTILE BANK LIMITED,TMBL0000170,TIRUPATHI,"19-4-121/14D, STV NAGAR, AIR BYE PASS ROAD, TIRUPATHI-517501 TAMILNADU",CHITTOR,TIRUPATI,ANDHRA PRADESH,2242383
170,TAMILNAD MERCANTILE BANK LIMITED,TMBL0000171,KURNOOL,"67/86, OLD POST OFFICE ROAD, KURNOOL-518001 TAMILNADU",KURNOOL,KURNOOL,ANDHRA PRADESH,246787
171,TAMILNAD MERCANTILE BANK LIMITED,TMBL0000172,CUTTACK,"68-69, MAIN BAZAR, BAROPATHAR, BUXI BAZAR, CUTTACK-753001 ORISSA",CUTTAK,CUTTACK,ODISHA,2425690
172,TAMILNAD MERCANTILE BANK LIMITED,TMBL0000173,GINGEE,"102-103, KRISHNA COMPLEX, VILLUPURAM ROAD, GINGEE-604202",VILLUPURAM,GINGEE,TAMIL NADU,223122
173,TAMILNAD MERCANTILE BANK LIMITED,TMBL0000174,THOOTHUKUDI KAMARAJ COLLEGE,"KAMARAJAR COLLEGE CAMPUS TIRUCHENDUR ROAD, THOOTHUKUDI-628003 TAMILNADU",THOOTHKUDI,TUTICORIN,TAMIL NADU,2376446
174,TAMILNAD MERCANTILE BANK LIMITED,TMBL0000175,NADAR HR.SEC.SCHOOL CAMPUS,"PASUVANTHANAI ROAD, KOVILPATTI-628501 TAMILNADU",THOOTHKUDI,KOVILPATTI,TAMIL NADU,221115
175,TAMILNAD MERCANTILE BANK LIMITED,TMBL0000176,VADAKKANKULAM,"LINCY COMPLEX, DOOR NO.10-165, RADHAPURAM ROAD, VADAKKANKULAM-627116",TIRUNELVELI,RADHAPURAM,TAMIL NADU,230041
176,TAMILNAD MERCANTILE BANK LIMITED,TMBL0000177,AZHAGAPPAPURAM,"ST.ANTONY'S HR.SEC.SCHOOL, ALAGAPPAPURAM-629401",KANNIYAKUMARI,AZHAGAPPAPURAM,TAMIL NADU,267475
177,TAMILNAD MERCANTILE BANK LIMITED,TMBL0000178,KULASEKARAM,"1/160/2, BISMI COMPLEX, OPP TO DOMINIC HOSPITAL KULASEKARAM-629161",KANNIYAKUMARI,KALKULAM,TAMIL NADU,277796
178,TAMILNAD MERCANTILE BANK LIMITED,TMBL0000179,PERUNDURAI,"VRV COMPLEX, 21, BHAVANI ROAD, PERUNDURAI-638052",ERODE,PERUNDURAI,TAMIL NADU,225566
179,TAMILNAD MERCANTILE BANK LIMITED,TMBL0000180,BODINAYAKANUR,"22.PONNAMBALAM STREET, BODINAYAKANUR-625513",THENI,BODINAYAKANUR,TAMIL NADU,283788
180,TAMILNAD MERCANTILE BANK LIMITED,TMBL0000181,PARAMAGUDI,"4/323,GANDHIJI ROAD, OPP.CO-OP MILK SOCIETY, PARAMAKUDI-623707",RAMANATHAPURAM,PARAMAGUDI,TAMIL NADU,224547
181,TAMILNAD MERCANTILE BANK LIMITED,TMBL0000182,VRIDHACHALAM,"818,AKR COMPLEX, JUNCTION ROAD, VRIDHACHALAM-606001",CUDDALORE,VRIDHACHALAM,TAMIL NADU,263108
182,TAMILNAD MERCANTILE BANK LIMITED,TMBL0000183,PILLAYARPURAM,"SIVANTHI ADITHANAR COLLEGE CAMPUS, MANIKATTI POTTAL (PO) PILLAYARPURAM, NAGERCOIL-629501.",KANNIYAKUMARI,NAGERCOIL,TAMIL NADU,251905
183,TAMILNAD MERCANTILE BANK LIMITED,TMBL0000184,ARANTANGI,"32, R.H.COMPLEX, OLD HOSPITAL ROAD, ARANTHANGI-614616",PUDUKKOTTAI,ARANTANGI,TAMIL NADU,222160
184,TAMILNAD MERCANTILE BANK LIMITED,TMBL0000185,SURANDAI,"14-7-24(15), FIRST FLOOR, S.VELAYUTHA NADAR COMPLEX,KAMARAJAR SALAI, SURANDAI, TIRUNELVELI DIST.TAMILNADU-627859",TIRUNELVELI,SURANDAI,TAMIL NADU,261030
185,TAMILNAD MERCANTILE BANK LIMITED,TMBL0000186,BHILWARA,"PLOT NO.A1,J.S.BUILDING, PUR ROAD, BHILWARA, RAJASTHAN-311001",BHILWARA,BHILWARA,RAJASTHAN,240367
186,TAMILNAD MERCANTILE BANK LIMITED,TMBL0000187,BHAVANI,"31-BAJANAI KOVIL STREET,BHAVANI-63830, ERODE DIST. TAMIL NADU",ERODE,BHAVANI,TAMIL NADU,234433
187,TAMILNAD MERCANTILE BANK LIMITED,TMBL0000188,RANIPET,"35-M.P.T.ROAD, NAVALPUR,RANIPET-638024, VELLORE DIST. TAMIL NADU",VELLORE,RANIPET,TAMIL NADU,273718
188,TAMILNAD MERCANTILE BANK LIMITED,TMBL0000189,TINDIVANAM,"28-RAJAJI STREET, TINDIVANAM-604001,VILLUPURAM DIST, TAMILNADU",VILLUPURAM,TINDIVANAM,TAMIL NADU,223259
189,TAMILNAD MERCANTILE BANK LIMITED,TMBL0000190,NANDYAL,"25/629, RAM SAI ENCLAVE,TTD ROAD, SRINIVASA NAGAR, NANDYAL-518501, KURNOOL DIST.ANDHRA PRADESH",KURNOOL,NANDYAL,ANDHRA PRADESH,240550
190,TAMILNAD MERCANTILE BANK LIMITED,TMBL0000191,KRISHNAGIRI,"190,BANGALORE ROAD, KRISHNAGIRI-635001, TAMILNADU",KRISHNAGIRI,KRISHNAGIRI,TAMIL NADU,232783
191,TAMILNAD MERCANTILE BANK LIMITED,TMBL0000192,SURAT RING ROAD,"ROCK FORD BUSINESS CENTRE, UDHNA DHRWAJA, RING ROAD, SURAT-395002",SURAT,SURAT,GUJARAT,2632600
192,TAMILNAD MERCANTILE BANK LIMITED,TMBL0000193,ARAKONAM,"112, SHOLINGUR ROAD, ARAKONAM-631001, VELLORE DIST, TAMILNADU",VELLORE,VELLORE,TAMIL NADU,230711
193,TAMILNAD MERCANTILE BANK LIMITED,TMBL0000194,SIVAKASI A.J.COLLEGE,"A.J.COLLEGE, SRIVILLIPUTHUR MAIN ROAD, SIVAKASI-626124 TAMILNADU",VIRUDHUNAGAR,SIVAKASI,TAMIL NADU,255599
194,TAMILNAD MERCANTILE BANK LIMITED,TMBL0000195,PANRUTI,"71,CHENNAI SALAI, PANRUTI-607106, CUDDALORE DIST. TAMILNADU",CUDDALORE,PANRUTI,TAMIL NADU,244556
195,TAMILNAD MERCANTILE BANK LIMITED,TMBL0000196,CHENNAI SHOLINGANALLUR,"125/1,IT HIGHWAY, OLD MAHABALIPURAM ROAD, SHOLINGANALLUR, KANCHEEPURAM DIST, TAMILNADU-600119",KANCHEEPURAM,SHOLINGANALLUR,TAMIL NADU,24502555
196,TAMILNAD MERCANTILE BANK LIMITED,TMBL0000197,SHENCOTTAH,"1/756-1, COURTALLAM ROAD,  PIRANOOR BORDER, SHENKOTTAI, TIRUNELVELI DIST. TAMILNADU-627809",TIRUNELVELI,SHENCOTTAH,TAMIL NADU,236233
197,TAMILNAD MERCANTILE BANK LIMITED,TMBL0000198,PERUMANALLUR,"339.R.R.COMPLEX, KOVAI ROAD, PERUMANALLUR, COIMBATORE DIST.TAMIL NADU. PIN.641666",COIMBOTORE,PERUMANALLUR,TAMIL NADU,2352555
198,TAMILNAD MERCANTILE BANK LIMITED,TMBL0000199,RASIPURAM,"D.NO.2 &2C, SIVAN KOIL STREET, OLD BUS STAND, RASIPURAM-637408 NAMAKKAL DIST. TAMILNADU",NAMAKKAL,RASIPURAM,TAMIL NADU,224440
199,TAMILNAD MERCANTILE BANK LIMITED,TMBL0000201,SATHYAMANGALAM,"D.NO.457/1, MYSORE TRUNK ROAD,SATHYAMANGALAM-638402 ERODE DIST. TAMILNADU",ERODE,SATHYAMANGALAM,TAMIL NADU,221780
200,TAMILNAD MERCANTILE BANK LIMITED,TMBL0000202,SRIPERUMBUDUR,"50,BANGALORE TRUNK ROAD,OPP.TO BUS STAND,KANCHEEPURAM DIST.602105",KANCHEEPURAM,SRIPERUMBUDUR,TAMIL NADU,27162308
201,TAMILNAD MERCANTILE BANK LIMITED,TMBL0000203,KUNNATHUR,"380/2-4,I-FLOOR, PERUNDURAI ROAD, KUNNATHUR, ERODE DIST.PIN-638103. TAMIL NADU",ERODE,KUNNATHUR,TAMIL NADU,263990
202,TAMILNAD MERCANTILE BANK LIMITED,TMBL0000204,POONAMALLE,"792, TRUNK ROAD, THIRUVALLUR DIST., POONAMALLEE, CHENNAI-600056",TIRUVALLUR,POONAMALLE,TAMIL NADU,26490402
203,TAMILNAD MERCANTILE BANK LIMITED,TMBL0000205,VALASARAVAKKAM,"SREE PUSHPA COMPLEX, 91 KAMAKODI NAGAR, VALASARAVAKKAM, THIRUVALLUR DIST.CHENNAI-600087",TIRUVALLUR,VALASARAVAKKAM,TAMIL NADU,24864811
204,TAMILNAD MERCANTILE BANK LIMITED,TMBL0000206,KOTTIVAKKAM,"1/1B, EAST COAST ROAD, KOTTIVAKKAM, CHENNAI-600041",CHENNAI,CHENNAI,TAMIL NADU,24514466
205,TAMILNAD MERCANTILE BANK LIMITED,TMBL0000207,DELHI SHAHDARA,"26/22, STREET NO.12 MAIN, 60 FEET ROAD, VISHWAS NAGAR, SHAHDARA-EAST DELHI 110032",NEW DELHI,DELHI,DELHI,22304533
206,TAMILNAD MERCANTILE BANK LIMITED,TMBL0000208,CHENNAI MADURAVAYAL,"SAI PRUTHVI ENCLAVE, 4/250 MMDA COLONY, FIRST STREET, THIRUVALLUR DIST, CHENNAI-600095",TIRUVALLUR,MADURAVAYAL,TAMIL NADU,23783120
207,TAMILNAD MERCANTILE BANK LIMITED,TMBL0000209,THIRUVALLUR,"OLD NO.120, J.N.ROAD,THIRUVALLUR DIST CHENNAI-602001, TAMILNADU",TIRUVALLUR,TIRUVALLUR,TAMIL NADU,27663855
208,TAMILNAD MERCANTILE BANK LIMITED,TMBL0000210,PALLAVARAM,"DOOR NO. 54, RAJENDRA PRASAD SALAI, CANTONMENT, PALLAVARAM, CHENNAI - 600043",KANCHEEPURAM,PALLAVARAM,TAMIL NADU,22640330
209,TAMILNAD MERCANTILE BANK LIMITED,TMBL0000211,GHAZIABAD,"3N/19, NEHRU NAGAR, DR.AMBEDKAR ROAD, GHAZIABAD.UP-201001",GHAZIABAD,GHAZIABAD,UTTAR PRADESH,2704963
210,TAMILNAD MERCANTILE BANK LIMITED,TMBL0000212,GUDIYATHAM,"103-104, THALAYATHAM BAZAAR, SANTHAPET, GUDIYATHAM-632602, VELLORE DIST.",VELLORE,GUDIYATHAM,TAMIL NADU,223336
211,TAMILNAD MERCANTILE BANK LIMITED,TMBL0000213,HYDERABAD-RIKAB GUNJ,"21-7-802,803, III FLOOR, SILVER OAK PLAZA, OPP.HIGH COURT, RIKAB GUNJ, HYDERABAD-500002",HYDERABAD URBAN,HYDERABAD,ANDHRA PRADESH,24573494
212,TAMILNAD MERCANTILE BANK LIMITED,TMBL0000214,MUMBAI ANDHERI (WEST),"LAXMI PLAZA, GALA NO.25-27, LAXMI INDUSTRIAL ESTATE, NEW LINK ROAD, ANDHERI (WEST), MUMBAI - 400053",GREATER BOMBAY,MUMBAI,MAHARASHTRA,26366240
213,TAMILNAD MERCANTILE BANK LIMITED,TMBL0000215,CHENNAI-GUDUVANCHERI,"140, G.S.T ROAD, NEAR POST OFFICE, GUDUVANCHERI- 603202",KANCHEEPURAM,GUDUVANCHERI,TAMIL NADU,27466301
214,TAMILNAD MERCANTILE BANK LIMITED,TMBL0000216,MELMARUVATHUR,"DOOR NO. 4, G.S.T ROAD, FIRST FLOOR, MELMARUVATHUR - 603319",KANCHEEPURAM,MELMARUVATHUR,TAMIL NADU,27528375
215,TAMILNAD MERCANTILE BANK LIMITED,TMBL0000217,SEWRI - MUMBAI,"SHEETAL APARTMENTS, GROUND FLOOR, 130, THAKARE UDAYAN ROAD, SEWRI, MUMBAI - 400015",GREATER BOMBAY,MUMBAI,MAHARASHTRA,24174568
216,TAMILNAD MERCANTILE BANK LIMITED,TMBL0000218,CHEMBUR-MUMBAI,"53,C.S.T.ROAD,SINDHI SOCIETY,OPP.BAKTHI BHAVAN,CHEMBUR,MUMBAI - 400071",GREATER BOMBAY,MUMBAI,MAHARASHTRA,25270766
217,TAMILNAD MERCANTILE BANK LIMITED,TMBL0000219,KAROLBAGH-DELHI,"1015-1017,FIRST FLOOR, UMANG PLAZA, ARYA SAMAJ ROAD, KAROL BAGH, DELHI-110005",DELHI,DELHI,DELHI,28755914
218,TAMILNAD MERCANTILE BANK LIMITED,TMBL0000220,ANDIPATTI,"D.NO.8-1-590,GROUND FLOOR,MADURAI THENI MAIN ROAD,ANDIPATTI,THENI DISTRICT",THENI,ANDIPATTI,TAMIL NADU,243009
219,TAMILNAD MERCANTILE BANK LIMITED,TMBL0000221,PALAMEDU,"D.NO.11-23, GROUND FLOOR, PERIA KADAI VEETHI, NEAR VILAKKU THOON, PALAMEDU - 625 503",MADURAI,PALAMEDU,TAMIL NADU,246235
220,TAMILNAD MERCANTILE BANK LIMITED,TMBL0000222,MARAIMALAI NAGAR,"D.NO.33-3 AND 4 SHEKILAR STREET,FIRST FLOOR,APPOLO COMPLEX,MARAIMALAI NAGAR - 603 209, CHENGALPUT TALUK",KANCHEEPURAM,MARAIMALAI NAGAR,TAMIL NADU,27452341
221,TAMILNAD MERCANTILE BANK LIMITED,TMBL0000223,SILVASSA,"PLOT NO.15-3-2, GROUND FLOOR,SHOP NO. 6 AND 7, MADHUBEN APARTMENT, OPP.PATEL PETROL PUMP,AMLI,SILVASSA - 396 230, DADRA AND NAGAR HAVELI (U.T)",DADRA&NAGAR HAVELI,SILVASA,DADRA AND NAGAR HAVELI,2641973
222,TAMILNAD MERCANTILE BANK LIMITED,TMBL0000224,NEELAMBUR,"499 A AND B, PALANI ANDAVAR KOVIL STREET, NEELAMBUR, COIMBATORE - 641062",COIMBATORE,COIMBATORE,TAMIL NADU,2627287
223,TAMILNAD MERCANTILE BANK LIMITED,TMBL0000225,ANNUR,"50,SAKTHI ROAD, ANNUR,COIMBATORE - 641 653",COIMBATORE,ANNUR,TAMIL NADU,265354
224,TAMILNAD MERCANTILE BANK LIMITED,TMBL0000226,VANDAVASI,"5,RAMAIYAR STREET,OPP. TO GANDHI STATUE,VANDAVASI,TIRUVANNAMALAI - 604 408",TIRUVANNAMALAI,VANDAVASI,TAMIL NADU,225399
225,TAMILNAD MERCANTILE BANK LIMITED,TMBL0000227,MADIPAKKAM,"DHARSHAN COMPLEX,FIREST FLOOR, D.NO.1,VIGNESHWARA NAGAR,MADIPAKKAM-MEDAVAKKAM HIGH ROAD,CHENNAI-600091",CHENNAI,CHENNAI,TAMIL NADU,22246580
226,TAMILNAD MERCANTILE BANK LIMITED,TMBL0000228,NARAVARIKUPPAM,"D.NO.168, OLF NO.169, FIRST FLOOR, G.N.T.ROAD, NARAVARIKUPPAM, RED HILLS, CHENNAI-600052",CHENNAI,CHENNAI,TAMIL NADU,26322755
227,TAMILNAD MERCANTILE BANK LIMITED,TMBL0000229,PORUR,"DOOR NO:67, (OLD NO:63 A),KUNDRATHUR MAIN ROAD, NEAR E.B. OFFICE, CHENNAI - 600 116.",CHENNAI,CHENNAI,TAMIL NADU,24827655
228,TAMILNAD MERCANTILE BANK LIMITED,TMBL0000230,PETTAI RURAL,"D NO:446, 1ST MAIN ROAD, KODEESWARAN NAGAR, PETTAI, TIRUNELVELI",TIRUNELVALI,PALAYAMKOTTAI,TAMIL NADU,2320262
229,TAMILNAD MERCANTILE BANK LIMITED,TMBL0000231,THIRUTHANGAL,"D.NO.488-4, RENUGA DEVI COMPLEX, GROUND FLOOR, SIVAKASI - VIRUDHUNAGAR MAIN ROAD, THIRUTHANGAL - 626 130",VIRUDHUNAGAR,THIRUTTANGAL,TAMIL NADU,231067
230,TAMILNAD MERCANTILE BANK LIMITED,TMBL0000232,KAVUNDAMPALAYAM,"47, IST FLOOR, VELLAIKINARU PIRUVU, METTUPALAYAM MAIN ROAD, COIMBATORE 641029",COIMBATORE,KAVUNDAPALAYAM,TAMIL NADU,2642300
231,TAMILNAD MERCANTILE BANK LIMITED,TMBL0000233,DHARAVI MUMBAI,"PLOT NO.267-268 GROUND FLOOR, KAMARAJAR MATRICULATION SCHOOL, KAMARAJ CHOWK, 90 FEET ROAD, DHARAVI, MUMBAI 400017",GREATER BOMBAY,MUMBAI,MAHARASHTRA,24074499
232,TAMILNAD MERCANTILE BANK LIMITED,TMBL0000234,CHITLAPAKKAM,"D.NO.7/25, FIRST FLOOR, 7TH STREET, VINOBAJI NAGAR, CHITLAPAKKAM, CHENNAI 600064",CHENNAI,CHENNAI,TAMIL NADU,22231488
233,TAMILNAD MERCANTILE BANK LIMITED,TMBL0000235,MEDAVAKKAM,"2-3-A VELACHERY TAMBARAM MAIN ROADMEDAVAKKAM, CHENNAI ┬û 600 100.",CHENNAI,CHENNAI,TAMIL NADU,22773960
234,TAMILNAD MERCANTILE BANK LIMITED,TMBL0000236,CHATRAPATTI,"D.NO.207-B, LABAVINAYAGAR KOVIL STREET,TN - 626102",VIRUDHUNAGAR,CHATRAPATTI,TAMIL NADU,258113
235,TAMILNAD MERCANTILE BANK LIMITED,TMBL0000237,MELUR,"D.NO.329, ALAGARKOIL ROAD, OPP. TO GOVERNMNET HOSPITAL, MELUR -625 106",MADURAI,MELUR,TAMIL NADU,2418000
236,TAMILNAD MERCANTILE BANK LIMITED,TMBL0000238,CHENGAM,"D.NO.48 F,OLD POLICE LINE STREET, CHENGAM, THIRUVANNAMALAI DIST - 606 701",TIRUVANNAMALAI,CHENGAM,TAMIL NADU,222900
237,TAMILNAD MERCANTILE BANK LIMITED,TMBL0000239,SOMANUR,"314, KARUMATHAMPATTI ROAD,NEAR KONGU VELLAR ARAGAM,SOMANUR ┬û 641668,COIMBATORE DIST",COIMBATORE,SOMANUR,TAMIL NADU,2335543
238,TAMILNAD MERCANTILE BANK LIMITED,TMBL0000240,SANKARAPERI,"D.NO.4/1, GROUND FLOOR,T.N.HOUSING BOARD COLONY,ETTAYAPURAM ROAD,SANKARAPERI",TOOTHUKUDI,TUTICORIN,TAMIL NADU,2347511
239,TAMILNAD MERCANTILE BANK LIMITED,TMBL0000241,NATHAM,"1/829/10, DINDIGUL MAIN ROAD, ANNA NAGAR,NATHAM - 624 401, DINDIGUL DIST.,",DINDIGUL,NATHAM,TAMIL NADU,245557
240,TAMILNAD MERCANTILE BANK LIMITED,TMBL0000242,THURAIYUR,"S.F.NO.235/5, WARD NO.24, TRICHY ROAD, OPPOSITE TO ANNAI HOSPITAL, THURAIYUR - 621 010, TRICHY DISTRICT",TIRUCHIRAPALLI,TURAIYUR,TAMIL NADU,256155
241,TAMILNAD MERCANTILE BANK LIMITED,TMBL0000243,SATTANKULAM,"D.NO.84,NAZARETH ROAD, THOOTHUKUDI DISTRICT, SATTANKULAM-628704",TOOTHUKUDI,SATTANKULAM,TAMIL NADU,266080
242,TAMILNAD MERCANTILE BANK LIMITED,TMBL0000244,SANKARI,"S.F.NO.262 3 J(PART) GROUND FLOOR, KOVAI SALEM MAIN ROAD, SANKARI - 637 301",SALEM,SANKARI,TAMIL NADU,241177
243,TAMILNAD MERCANTILE BANK LIMITED,TMBL0000245,AVINASHI,"D.6/321, GROUND FLOOR, COIMBATORE MAIN ROAD, NH 47, AVINASHI - 614 654",COIMBATORE,AVANASHI,TAMIL NADU,275799
244,TAMILNAD MERCANTILE BANK LIMITED,TMBL0000246,KAVERIPATNAM,"1347,G.K.S. COMPLEX,PANAGAL STREET(KOSAMEDU), KAVERIPATTINAM-635112, KRISHNAGIRI DISTRICT",KRISHNAGIRI DISTRICT,KAVERIPATTINAM,TAMIL NADU,252112
245,TAMILNAD MERCANTILE BANK LIMITED,TMBL0000247,ELAMPILLAI,"S.NO.639 - 2-B, METTUR ROAD, NEAR BUS-STAND, ELAMPILLAI - 637502, SALEM DISTRICT",SALEM,ELAMPILLAI,TAMIL NADU,2491919
246,TAMILNAD MERCANTILE BANK LIMITED,TMBL0000248,PANAGUDI,"27 - 13 MAIN ROAD, R.K.B TOWERS FIRST FLOOR, NEAR BUS-STAND, PANAGUDI - 627 109",TIRUNELVALI,PANAGUDY,TAMIL NADU,246244
247,TAMILNAD MERCANTILE BANK LIMITED,TMBL0000249,ARIYALUR,"36, VELLALAN STREET, RAGAVAN SHOPPING COMPLEX, ARIYALUR - 621 704.",VILLUPURAM,ARIYALUR,TAMIL NADU,222110
248,TAMILNAD MERCANTILE BANK LIMITED,TMBL0000250,PUNNAIYAPURAM,"442 - 6,TENKASI MAIN ROAD, KODESWARAN COMPLEX, CHOKKAMPATTI PANCHAYAT,PUNNAIYAPURAM-627855.",TIRUNELVALI,CHOCKAMPATTI,TAMIL NADU,233042
249,TAMILNAD MERCANTILE BANK LIMITED,TMBL0000251,ARCOT,"15 - 1,ARANI ROAD, KUMARAN COMPLEX,ARCOT-632503.",VELLORE,ARCOT,TAMIL NADU,236166
250,TAMILNAD MERCANTILE BANK LIMITED,TMBL0000252,AUTHOOR,"D.NO.10 - 4,PUNNAKAYAL ROAD, BIG STREET, NORTH AUTHOOR-628151.",TOOTHUKUDI,AUTHOOR,TAMIL NADU,238020
251,TAMILNAD MERCANTILE BANK LIMITED,TMBL0000253,BHIWADI,"C-4 AND C-2, RIICO CHOWK, BHIWADI-301019, ALWAR DISTRICT, RAJASTHAN",ALWAR,BHIWADI,RAJASTHAN,220023
252,TAMILNAD MERCANTILE BANK LIMITED,TMBL0000254,MANAPPARAI,"D.NO. 60-B, KOVILPATTI ROAD, MANAPPARAI - 621306.",TIRUCHIRAPALLI,MANAPPARAI,TAMIL NADU,262288
253,TAMILNAD MERCANTILE BANK LIMITED,TMBL0000255,UDANGUDI,"S.NO.261  3A, D.NO.6, SATHYAMOORTHY BAZAAR, UDANGUDI-628203.",TOOTHUKUDI,UDANGUDI,TAMIL NADU,250590
254,TAMILNAD MERCANTILE BANK LIMITED,TMBL0000256,BOISAR,"SHOP NO:2,3,4,5 HRISHIKESH APARTMENTS, PALGHAR ROAD, BOISER WEST - 401501",THANE,BOISAR,MAHARASHTRA,272324
255,TAMILNAD MERCANTILE BANK LIMITED,TMBL0000257,MUDHUKULATHUR,"S.NO.335-5B-23 PARAMAKUDI ROAD, MUDHUKULATHUR - 623 704",RAMANATHAPURAM,MUDUKULATHUR,TAMIL NADU,222255
256,TAMILNAD MERCANTILE BANK LIMITED,TMBL0000258,THIRUTHURAIPOONDI,"D.NO.2 V, 2 A, SANNATHI STREET, THIRUTHURAIPOONDI - 614 713",THIRUVARUR,TIRUTURAIPUNDI,TAMIL NADU,223350
257,TAMILNAD MERCANTILE BANK LIMITED,TMBL0000259,ANEKAL,"D.NO.50-46, HOSUR BAGILU ROAD, ANEKAL-562 106, BENGALURU DIST.,",BANGALORE URBAN,ANEKAL,KARNATAKA,27841889
258,TAMILNAD MERCANTILE BANK LIMITED,TMBL0000260,NELAMANGALA,"WEAVERS COLONY BUS STOP, B.H.ROAD, NELAMANGALA - 562 123, BANGALURU DISTRICT",BANGALORE RURAL,NELAMANGALA,KARNATAKA,27722530
259,TAMILNAD MERCANTILE BANK LIMITED,TMBL0000261,KUTHUKKALVALASAI,"D.NO.5-294, APS COMPLEX, FIRST FLOOR, KR COLONY, MADURAI ROAD, TIRUNELVELI DISTRICT, KUTHUKKAL VALASAI-627803",TIRUNELVALI,TENKASI,TAMIL NADU,280888
260,TAMILNAD MERCANTILE BANK LIMITED,TMBL0000262,POOVANTHI,"D.N.3-497, FIREST FLOOR, MADURAI-SIVAGANGAI MAIN ROAD, POOVANTHI - 630 611,SIVAGANGAI DISTRICT",SIVAGANGA,SIVAGANGA,TAMIL NADU,9095031888
261,TAMILNAD MERCANTILE BANK LIMITED,TMBL0000263,KATPADI,"D.NO.11-1-4TH EAST CROSS ROAD, AUXILIEM COLLEGE ROAD, GANDHI NAGAR, KATPADI - 632 006",VELLORE,KATPADI,TAMIL NADU,2248882
262,TAMILNAD MERCANTILE BANK LIMITED,TMBL0000264,VEPPADAI,"S.NO.182/1, OPP TO GOVERNMENT HIGH SCHOOL, ERODE ROAD, ELANTHAKUTTAI PO, VEPPADAI - 638 008, NAMAKKAL DISTRICT",NAMAKKAL,TIRUCHENGODU,TAMIL NADU,278077
263,TAMILNAD MERCANTILE BANK LIMITED,TMBL0000265,KOOLIPATTI,"D.NO.4/400A, GANGA NAGAR, KOOLIPATTI,REDDIPATTI POST,THURAIYUR ROAD, NAMAKKAL DISTRICT-637 002",NAMAKKAL,NAMAKKAL,TAMIL NADU,287060
264,TAMILNAD MERCANTILE BANK LIMITED,TMBL0000266,GOLLAPUDI,"D.N.3-2, DATTA KALYANA MANDAPAM ROAD, GOLLAPUDI - 521 225",KRISHNA,GOLLAPUDI,ANDHRA PRADESH,2410003
265,TAMILNAD MERCANTILE BANK LIMITED,TMBL0000267,BELLAIPALAYAM,"11-46, SAKTHI MAIN ROAD, BELLAIPALAYAM-641302. COIMBATORE DISTRICT.",COIMBATORE,METTUPALAYAM,TAMIL NADU,252222
266,TAMILNAD MERCANTILE BANK LIMITED,TMBL0000268,OTHAKUTHURAI,"240, GOBI-ERODE MAIN ROAD, OTHAKUTHIRAI-638455. ERODE DISTRICT.",ERODE,GOBICHETTIPALAYAM,TAMIL NADU,265880
267,TAMILNAD MERCANTILE BANK LIMITED,TMBL0000269,THEREKALPUTHUR,"K 1BLOCK, 11 AND 12, APDA VANIKA VALAKAM,APDANAGAR NELLAI ROAD,THEREKALPUTHUR-629002.",KANYAKUMARI,NAGERCOIL,TAMIL NADU,272102
268,TAMILNAD MERCANTILE BANK LIMITED,TMBL0000270,KANYAKULAM,"GROUND FLOOR,DOOR NO:5 10,LAKSHMI NAGAR,PARVATHIPURAM,KANYAKULAM PANCHAYAT,VETTURNIMADAM-629003.",KANYAKUMARI,NAGERCOIL,TAMIL NADU,220295
269,TAMILNAD MERCANTILE BANK LIMITED,TMBL0000271,ODDANCHATRAM,"GOTHANDARAMA REDDIAR COMPLEX, DHARAPURAM MAIN ROAD, ODDANCHATRAM-624619.",DINDIGUL,ODDANCHATRAM,TAMIL NADU,242234
270,TAMILNAD MERCANTILE BANK LIMITED,TMBL0000272,KALLAKURICHI,"DOOR NO:40,F 10,RAJAMBAL NAGAR,SALEM MAIN ROAD,SRI BALAJI LODGE BUILDING, VILLUPURAM DISTRICT,KALLAKURICHI-606202.",VILLUPURAM,KALLAKURICHI,TAMIL NADU,227038
271,TAMILNAD MERCANTILE BANK LIMITED,TMBL0000273,CHEBROLU,"D.NO.6-30, BLOCK NO.6, MAIN ROAD,  CHEBROLU- 522 212, GUNTUR DIST.",WEST GODAVARI,CHEBROLU,ANDHRA PRADESH,253150
272,TAMILNAD MERCANTILE BANK LIMITED,TMBL0000274,KARIAPATTI,"DOOR NO : 13 1 180, I ST FLOOR, MADURAI MAIN ROAD,KARIAPATTI-626106,VIRUDHUNAGAR DISTRICT.",VIRUDHUNAGAR,KARIAPATTI,TAMIL NADU,255445
273,TAMILNAD MERCANTILE BANK LIMITED,TMBL0000275,KULATHUR,"DOOR NO : 3/ 607/ 1, MAIN ROAD, NEAR BUS STAND,KULATHUR-628903,TUTICORIN DIST.",DINDIGUL,KULATHUR,TAMIL NADU,227388
274,TAMILNAD MERCANTILE BANK LIMITED,TMBL0000276,THIRU NAGAR,"SEETHALAKSHMI VILAGAM, I ST FLOOR, THIRUNAGAR 3 RD BUS STOP,THIRUNAGAR-624006,MADURAI DIST.",MADURAI,TIRUNAGAR,TAMIL NADU,2484182
275,TAMILNAD MERCANTILE BANK LIMITED,TMBL0000277,HEBBAGODI,"NO:55, R.S.TOWER, HOSUR MAIN ROAD, HEBBAGODI, BENGALURU - 560 099.",KARNATAKA,BOMMASANDRA,TAMIL NADU,27831268
276,TAMILNAD MERCANTILE BANK LIMITED,TMBL0000278,ASESHAM,"5 108,ANNAI MATHA COMPLEX,MAIN ROAD,ASESHAM-614001,THIRUVARUR DIST",THIRUVARUR,MANNARGUDI,TAMIL NADU,220100
277,TAMILNAD MERCANTILE BANK LIMITED,TMBL0000279,KALAKKAD,"K.M.COMPLEX,I ST FLOOR,CHERANMAHADEVI ROAD,KALAKKAD-627501,TIRUNELVELI DIST.",TIRUNELVALI,KALAKAD,TAMIL NADU,260298
278,TAMILNAD MERCANTILE BANK LIMITED,TMBL0000280,CHEKKADU,"NO:3,T.XAVIER AND SONS COMPLEX,ANNANAGAR MAIN ROAD,RAJIV GANDHI NAGAR,CHEKKADU-600072,THIRUVALLUR DIST.",THIRUVALLUR,AVADI,TAMIL NADU,26850335
279,TAMILNAD MERCANTILE BANK LIMITED,TMBL0000281,PERAMBALUR,"D.NO:2,I ST FLOOR,VENKATESAPURAM, PERAMBALUR-621212.",PERAMBALUR,PERAMBALUR,TAMIL NADU,277018
280,TAMILNAD MERCANTILE BANK LIMITED,TMBL0000282,ADAYALAMPATTU,"PLOT NO:6,SCHOOL ROAD, MILLENIUM TOWNSHIP II, NEAR VANAGARAM, ADAYALAMPATTU-600095,THIRUVALLUR DIST.",THIRUVALLUR,MADURAVAYAL,TAMIL NADU,26534588
281,TAMILNAD MERCANTILE BANK LIMITED,TMBL0000283,CHINNALAPATTI,"D.NO 2 6 1H3,I ST FLOOR,BHARATHI NAGAR,POONCHOLAI, CHINNALAPATTU",DINDIGUL,CHINNALAPATTI,TAMIL NADU,2451880
282,TAMILNAD MERCANTILE BANK LIMITED,TMBL0000284,PEDANANDIPADU,"D.NO:9 66,GROUND FLOOR, P.A.S.COLLEGE ROAD, ANDHRA PRADESH-522235.",GUNTUR,PEDANANDIPADU,ANDHRA PRADESH,277244
283,TAMILNAD MERCANTILE BANK LIMITED,TMBL0000285,PALLIPALAYAM,"NO:13 W 1, TIRUCHENGODU ROAD, LAKSHMIPURAM, PALLIPALAYAM - 638008.",ERODE,PALLIPALAYAM,TAMIL NADU,241241
284,TAMILNAD MERCANTILE BANK LIMITED,TMBL0000286,DASANAICKENPATTI,"D.NO.1/323-3, AMMAN COMPLEX, AMMAN COMPLEX,I ST FLOOR, PERIANNA THOTTAM,DASANAICKENPATTI-636201.",SALEM,SALEM,TAMIL NADU,2281288
285,TAMILNAD MERCANTILE BANK LIMITED,TMBL0000287,PACHANAMPATTI,"PLOT NO:8,TVC NAGAR,THARAMANGALAM MAIN ROAD, NEAR MECHERI PIRIVU,PACHANAMPATTI-636455.",SALEM,OMALUR,TAMIL NADU,221088
286,TAMILNAD MERCANTILE BANK LIMITED,TMBL0000288,UCHIPULI,"D.NO.3/756-6, SETHUPATHI SALAI, NEAR BUS STAND, UCHIPULI- 623 534, RAMANATHAPURAM DISTRICT",RAMANATHAPURAM,UCHIPULI,TAMIL NADU,259925
287,TAMILNAD MERCANTILE BANK LIMITED,TMBL0000289,CHEKKANURANI,"NO.7/427A, THIRUMANGALAM PKN URAVINMURAI VANIGA VALAGAM,MADURAI TO THENI ROAD,CHECKANURANI-624301.",MADURAI,MADURAI,TAMIL NADU,287043
288,TAMILNAD MERCANTILE BANK LIMITED,TMBL0000290,BIKSHANDARKOIL,"2206,OM SAKTHI NAGAR, THIRUVALLUR AVENUE,NO:1 TOLL GATE,THIRUCHIRAPALLI-621216.",TIRUCHIRAPALLI,BIKSHANDARKOIL,TAMIL NADU,2591065
289,TAMILNAD MERCANTILE BANK LIMITED,TMBL0000291,DEVAKOTTAI,"D.NO.3A,SILAMBANI SOUTH STREET,DEVAKOTTAI-630302,SIVAGANGAI DIST.",SIVAGANGA,DEVAKOTTAI,TAMIL NADU,273888
290,TAMILNAD MERCANTILE BANK LIMITED,TMBL0000292,THARAMANGALAM,"D.NO 1/1-18D; DEVI COMPLEX, OMALUR MAIN ROAD, GROUND FLOOR, N R PERIYANDICHI TEMPLE, THARAMANGALAM- 636502, SALEM DISTRICT",SALEM,TARAMANGALAM,TAMIL NADU,250009
291,TAMILNAD MERCANTILE BANK LIMITED,TMBL0000293,SUKAPUR,"GROUND FLOOR, SHAKTHI VEG OILS LTD PREMISES, PANVEL MATHERAN ROAD, SUKAPUR- 410 206, RAIGAD DISTRICT",RAIGAD,PANVEL,MAHARASHTRA,43232050
292,TAMILNAD MERCANTILE BANK LIMITED,TMBL0000294,VITA,"F-3, VITA PLAZA, FIRST FLOOR, OPP.SANGLI DCC BANK, GANDHI CHOWK, KARAD ROAD, VITA- 415 311, MAHARASHTRA",SANGLI,VITA,MAHARASHTRA,273116
293,TAMILNAD MERCANTILE BANK LIMITED,TMBL0000295,KILAMBI,"NO.109, GROUND FLOOR, MAIN ROAD, KRISHNAPURAM POST, KILAMBI- 631 551, KANCHEEPURAM, TAMILNADU",KANCHEEPURAM,KANCHIPURAM,TAMIL NADU,9524660888
294,TAMILNAD MERCANTILE BANK LIMITED,TMBL0000296,MADHAVNAGAR,"F-1FIRST FLOOR RAJARAM PLAZA,BUDHWARPETH CORNER , MAIN ROAD,SANGLI DISTRICT,MADHAVNAGAR,MAHARASHTRA-416406.",SANGLI,MADHAVNAGAR,MAHARASHTRA,2312323
295,TAMILNAD MERCANTILE BANK LIMITED,TMBL0000297,DHARAPURAM,"D.NO. 66-67, CHURCH ROAD, BIG BAZAR STREET, DHARAPURAM- 638656, TIRUPUR DISTRICT, TAMILNADU",ERODE,DHARAPURAM,TAMIL NADU,221121
296,TAMILNAD MERCANTILE BANK LIMITED,TMBL0000298,HARUR,"10/26-1, THIRU V.K.NAGAR, HARUR- 636 906, DHARMAPURI DIST, TAMILNADU",DHARMAPURI,HARUR,TAMIL NADU,222088
297,TAMILNAD MERCANTILE BANK LIMITED,TMBL0000299,TANUKU,"D.NO.25-4-7, GROUND FLOOR, BACKSIDE OF MASSJID, SREE PLAZA, VELPUR ROAD, TANUKU-534211, ANDHRAPRADESH",WEST GODAVARI,TANUKU,ANDHRA PRADESH,226556
298,TAMILNAD MERCANTILE BANK LIMITED,TMBL0000300,SEVAGAMPATTI,"171, MADURAI ROAD, ANNA NAGAR, OPP TO BATLAGUDU CSI CHURCH,SEVAGAMPATTI- 624 202, DINDIGUL DIST, TAMILNADU",DINDIGUL,BATLAGUNDU,TAMIL NADU,262838
299,TAMILNAD MERCANTILE BANK LIMITED,TMBL0000301,CHIKKANDARCHAVADI,"2-4, LUCKY NAGAR, ATHALAI ROAD, KOILPAPPAKUDI VILLAGE, CHIKKANDARCHAVADI-625018, MADURAI DIST, TAMILNADU",MADURAI,MADURAI,TAMIL NADU,2662550
300,TAMILNAD MERCANTILE BANK LIMITED,TMBL0000302,T.SAVERIYARPURAM,"11/6, MUNDAGASAMY KOVIL STREET, T.SAVERIYARPURAM, THOOTHUKUDI- 628 002, TAMILNADU",TOOTHUKUDI,TUTICORIN,TAMIL NADU,2360223
301,TAMILNAD MERCANTILE BANK LIMITED,TMBL0000303,CHINNAPPAMPATTI,"4/392, SABI COMPLEX BUILDING,SANTHAI RAOD, OMALUR TALUK, CHINNAPPAMPATTI- 636 306",DINDIGUL,CHINNAPPAMPATTI,TAMIL NADU,257325
302,TAMILNAD MERCANTILE BANK LIMITED,TMBL0000304,SOOLAKKARAI,"4/829A, SULAKKARAI MEDU, SOOLAKKARAI- 626 003",VIRUDHUNAGAR,SOOLAKKARAI,TAMIL NADU,252237
303,TAMILNAD MERCANTILE BANK LIMITED,TMBL0000305,COONOOR,"278,FIRST FLOOR, MOUNT ROAD,YMCA CORNER,MOUNT ROAD, COONOOR - 643 102",NILGIRIS,COONOOR,TAMIL NADU,2237888
304,TAMILNAD MERCANTILE BANK LIMITED,TMBL0000306,KALAMASSERY,"XXXIII/14(A), GROUND FLR, CHEMMENKUZHA BLDG,AKG ROAD,EDAPALLY TOLLGATE, KALAMASSERY- 683 104",ERNAKULAM,KALAMASSERY,KERALA,2544233
305,TAMILNAD MERCANTILE BANK LIMITED,TMBL0000307,PATTUKOTTAI,"72, SUNDARARAJ CHETTIAR COMPLEX, SOUTH KALIAMMAN KOVIL STREET, PATTUKOTTAI- 614601, THANJAVUR DIST, TAMILNADU",THANJAVUR,PATTUKOTTAI,TAMIL NADU,255299
306,TAMILNAD MERCANTILE BANK LIMITED,TMBL0000308,VINUKONDA,"FIRST FLOOR, D.NO.23-194, PALNADU ROAD, VINUKONDA - 522 647, GUNTUR DST, ANDHRAPRADESH",GUNTUR,VINUKONDA,ANDHRA PRADESH,273063
307,TAMILNAD MERCANTILE BANK LIMITED,TMBL0000309,ARNI,"D.NO.53/1 IST FLOOR M.C.LODGING COMPLEX,THATCHUR ROAD, ARNI- 632 301, TAMILNADU",THIRUVANAMALAI,ARNI,TAMIL NADU,226233
308,TAMILNAD MERCANTILE BANK LIMITED,TMBL0000310,ARUMUGANERI,"D.NO.150, THIRUCHENDUR ROAD, ARUMUGANERI- 628 202, THOOTHUKUDI DISTRICT, TAMILNADU",THOOTHUKUDI,ARUMUGANERI,TAMIL NADU,284411
309,TAMILNAD MERCANTILE BANK LIMITED,TMBL0000311,VEMBAR,"THEVANESAM ERUDHAYA AMMAL SHOPPING COMPLEX, GROUND FLOOR, D.NO.1/385, EAST COAST ROAD, VEMBAR, THOORHUKUDI DIST, TAMILNADU",TOOTHUKUDI,VEMBAR,TAMIL NADU,262322
310,TAMILNAD MERCANTILE BANK LIMITED,TMBL0000312,CHIDAMBARAM,"D.NO.88/43, SOUTH CAR STREET, CHIDAMBRAM - 608 001, CUDDALORE DISTRICT, TAMILNADU",CUDDALORE,CHIDAMBARAM,TAMIL NADU,225142
311,TAMILNAD MERCANTILE BANK LIMITED,TMBL0000313,SENAPATHIPALAYAM,"S.F.NO.1195/A, GROUND FLOOR, MUTHUR ROAD, KINGU NAGAR, SENAPATHIPALAYAM - 638 111, TAMILNADU",ERODE,ERODE,TAMIL NADU,260245
312,TAMILNAD MERCANTILE BANK LIMITED,TMBL0000314,RATNAGIRI,"GALA NO.104, FIRST FLOOR, AMBASSADOR PLAZA, MAL NAKA, NEAR ADVAIT PETROL PUMP, RATNAGIRI- 415 612, MAHARASHTRA",RATNAGIRI,RATNAGIRI,MAHARASHTRA,222961
313,TAMILNAD MERCANTILE BANK LIMITED,TMBL0000315,JAYSINGPUR,"NO.675/9, 676/10, FIRST FLOOR, OPP.CENTRAL EXCISE QUARTERS, KODHAPUR ROAD, JAYSINGPUR- 416 101, MAHARASHTRA",KOLHAPUR,JAYSINGPUR,MAHARASHTRA,226650
314,TAMILNAD MERCANTILE BANK LIMITED,TMBL0000316,ARALVAIMOZHI,"D.NO.19/115, GROUND FLOOR, PERUMALPURAM STREET, ARALVAIMOZHI- 629 301, TAMILNADU",KANYAKUMARI,NAGERCOIL,TAMIL NADU,262301
315,TAMILNAD MERCANTILE BANK LIMITED,TMBL0000317,ATTUR,"D.NO.86/37, GANDHI NAGAR, ATTUR- 636 102, SALEM DISTRICT, TAMILNADU",SALEM,ATTUR,TAMIL NADU,250366
316,TAMILNAD MERCANTILE BANK LIMITED,TMBL0000318,KADAYANALLUR,"D.NO.37 F, FIRST FLOOR, THILAGAR STREET, KRISHNAPURAM, KADAYANALLUR- 627 751, TIRUNELVELI DISTRICT, TAMILNADU",TIRUNELVALI,KADAYANALLUR,TAMIL NADU,240088
317,TAMILNAD MERCANTILE BANK LIMITED,TMBL0000319,PASUVANTHANAI,"D.NO.244, GROUND FLOOR, KOVILPATTI MAIN ROAD, PASUVANTHANAI- 628 718, THOOTHUKUDI DISTRICT, TAMILNADU",TOOTHUKUDI,PASUVANTHANAI,TAMIL NADU,221115
318,TAMILNAD MERCANTILE BANK LIMITED,TMBL0000320,JAGGAYYAPET,"D.NO.7-40, GROUND FLOOR, OLD SBI ROAD, JAGGAYYAPET- 521 175, KRISHNA DISTRICT, ANDHRAPRADESH",KRISHNA,JAGGAYYAPET,ANDHRA PRADESH,223336
319,TAMILNAD MERCANTILE BANK LIMITED,TMBL0000321,KOMARAPALAYAM,"262, SALEM MAIN ROAD, KOMARAPALAYAM- 638 183, NAMAKKAL DISTRICT, TAMILNADU",NAMAKKAL,KOMARAPALAYAM,TAMIL NADU,265600
320,TAMILNAD MERCANTILE BANK LIMITED,TMBL0000322,PITHAMPUR,"SHOP NO.4, UPPER GROUND FLOOR, NEXT TO MALWA HOSPITAL, SUDHARSHAN COMPLEX, MHOW-NEEMUCH ROAD, SECTOR 1, PITHAMPUR- 454 775",DHAR,PITHAMPUR,MADHYA PRADESH,252121
321,TAMILNAD MERCANTILE BANK LIMITED,TMBL0000323,PORT BLAIR,"FIRST FLOOR, KALAIGNAR ARIVALAYAM, OPP TO DR.B.R.AMBEDKAR AUDITORIUM, MOHANPURA, PORT BLAIR- 744 101, ANDAMAN",ANDAMAN,PORT BLAIR,ANDAMAN AND NICOBAR ISLAND,239444
322,TAMILNAD MERCANTILE BANK LIMITED,TMBL0000324,THIRUVENGADAM,"D.NO.320, KALUGUMALAI ROAD, THIRUVENGADAM- 627 719, TIRUNELVELI DIST, TAMILNADU",TIRUNELVALI,THIRUVENGADAM,TAMIL NADU,264563
323,TAMILNAD MERCANTILE BANK LIMITED,TMBL0000325,PALLAGOUNDENPALAYAM,"D.NO.5/154, MAIN ROAD, T.T.C.COMPLEX, PALLAGOUNDENPALAYAM - 638 056, TIRUPUR, TAMILNADU",COIMBATORE,TIRUPUR,TAMIL NADU,242388
324,TAMILNAD MERCANTILE BANK LIMITED,TMBL0000326,MADAMPALAYAM,"D.NO.2/58-13, MAIN ROAD, MADAMPALAYAM- 638 459, ERODE DISTRICT, TAMILNADU",ERODE,ERODE,TAMIL NADU,269838
325,TAMILNAD MERCANTILE BANK LIMITED,TMBL0000327,VILLAPURAM,"D.NO.87/1, ARUPPUKOTTAI MAIN ROAD, VILLAPURAM, MADURAI- 625 012",MADURAI,MADURAI,TAMIL NADU,2670115
326,TAMILNAD MERCANTILE BANK LIMITED,TMBL0000328,SRIVILLIPUTHUR,"D.NO.105C1, RAJAJI ROAD, SATTUR MAIN ROAD, SRIVILLIPUTHUR- 626 125, VIRUDHUNAGAR DISTRICT, TAMILNADU",VIRUDHUNAGAR,SRIVILLIPUTTUR,TAMIL NADU,264888
327,TAMILNAD MERCANTILE BANK LIMITED,TMBL0000329,MADURANTAKAM,"D.NO.95, G.S.T.ROAD, MADURANTAKAM- 603 306, KANCHEEPURAM DISTRICT",KANCHEEPURAM,MADURANTAKAM,TAMIL NADU,27553050
328,TAMILNAD MERCANTILE BANK LIMITED,TMBL0000330,MANDAPETA,"SURVEY NO.457/1, BESIDE SRI KANYA LODGE, CINEMA ROAD, MANDAPETA- 533 308, EAST GODAVARI DISTRICT, ANDHRA PRADESH",EAST GODAVARI,MANDAPETA,ANDHRA PRADESH,231911
329,TAMILNAD MERCANTILE BANK LIMITED,TMBL0000331,KALANGANI,"4/3, VALLUVAR STREET, THIRUMALAIPATTI MAIN ROAD, NEAR E.B. OFFICE,  KALANGANI- 637 014, NAMAKKAL DISTRICT",NAMAKKAL,PUDHANCHANTHAI,TAMIL NADU,245141
330,TAMILNAD MERCANTILE BANK LIMITED,TMBL0000332,SIDHPUR,"DOOR.NO.2 TO 6, FIRST FLOOR, VIJAY SHOPPING CENTER, DETHALI CIRCLE, OPP.TO CIRCUIT HOUSE, SIDHPUR- 384151, PATAN DISTRICT, GUJARAT",PATAN,SIDHPUR,GUJARAT,225522
331,TAMILNAD MERCANTILE BANK LIMITED,TMBL0000333,ATHIPATTI,"283, ATHIPATTI ROAD, ATHIPATTI, ARUPPUKOTTAI- 626 101, VIRUDHUNAGAR DISTRICT, TAMILNADU",VIRUDHUNAGAR,ARUPPUKOTTAI,TAMIL NADU,240888
332,TAMILNAD MERCANTILE BANK LIMITED,TMBL0000334,NANDED,"SURVEY NO.23, SINHGAD ROAD, NANDED CITY, PUNE- 411 041, MAHARASHTRA",PUNE,PUNE,MAHARASHTRA,7798795599
333,TAMILNAD MERCANTILE BANK LIMITED,TMBL0000335,MATHVARAYAPURAM,"3/57-1, SIRUVANI ROAD, FIRST FLOOR, MATHVARAYAPURAM- 641 101, COIMBARATORE DISTRICT, TAMILNADU",COIMBATORE,ALANDURAI,TAMIL NADU,2651888
334,TAMILNAD MERCANTILE BANK LIMITED,TMBL0000336,KANAKAPURA,"619/579/581, FIRST FLOOR, KODIHALLI ROAD, NEAR K.N.S.CIRCLE, KANAKAPURA- 562 117, KARNATAKA",BANGALORE RURAL,KANAKAPURA,KARNATAKA,27522250
335,TAMILNAD MERCANTILE BANK LIMITED,TMBL0000337,TIRUPATHUR,"D.NO.4A, SIVANAAR STREET, TIRUPATHUR- 635 601, VELLORE DISTRICT, TAMILNADU",VELLORE,TIRUPATTUR,TAMIL NADU,224985
336,TAMILNAD MERCANTILE BANK LIMITED,TMBL0000338,REDDIARPATTI,"D.NO.1/78, EAST STREET, REDDIARPATTI- 627 007, TIRUNELVELI DISTRICT, TAMILNADU",TIRUNELVALI,TIRUNELVELI,TAMIL NADU,2555388
337,TAMILNAD MERCANTILE BANK LIMITED,TMBL0000339,PAPPAKUDI,"D.NO.14/42C, 39-5, SIVAKAMIPURAM, ALANGULAM MAIN ROAD, MUKKUDAL- 627 601, TIRUNELVELI DISTRICT, TAMILNADU",TIRUNELVALI,PAPPAKUDI,TAMIL NADU,274777
338,TAMILNAD MERCANTILE BANK LIMITED,TMBL0000340,VENKATESWARAPURAM,"7/310, MAIN ROAD, VENKATESWARAPURAM, ALANGULAM TALUK, TIRUNELVELI DIST- 627 854",TIRUNELVALI,VENKATESWARAPURAM,TAMIL NADU,288288
339,TAMILNAD MERCANTILE BANK LIMITED,TMBL0000341,VILAMPATTI,"D.NO.1/7 & 1/8, ALANGULAM MAIN ROAD, VILAMPATTI- 626 124, VIRUDHUNAGAR DISTRICT",VIRUDHUNAGAR,VILLAMPATTI,TAMIL NADU,9715010888
340,TAMILNAD MERCANTILE BANK LIMITED,TMBL0000342,AMBUR,"D.NO.4, PAVENTHAR STREET, OPP TO D.S.P.OFFICE, AMBUR- 635 802, VELLORE DISTRICT",VELLORE,AMBUR,TAMIL NADU,249888
341,TAMILNAD MERCANTILE BANK LIMITED,TMBL0000343,IRAVATHANALLUR,"D.NO.15/4, MAIN ROAD, TRINITY SQUARE, IRAVATHANALLUR- 625 009, MADURAI DISTRICT",MADURAI,MADURAI,TAMIL NADU,2312126
342,TAMILNAD MERCANTILE BANK LIMITED,TMBL0000344,THIPPANAMPATTI,"D.NO.4/33A, POOVARASAN KOVIL STREET, THIPPANAMPATTI- 627 808, TIRUNELVELI DISTRICT",TIRUNELVALI,AVUDAYANOOR,TAMIL NADU,510808
343,TAMILNAD MERCANTILE BANK LIMITED,TMBL0000345,EDAPPADI,"NO.39B, SALEM MAIN ROAD, EDAPPADI- 637 105, SALEM DISTRICT",SALEM,IDAPPADI,TAMIL NADU,223331
344,TAMILNAD MERCANTILE BANK LIMITED,TMBL0000346,SENNEERKUPPAM,"2/52, AVADI HIGH ROAD, SEENEERKUPPAM- 600 056, THIRUVALLUR DISTRICT",THIRUVALLUR,AVADI,TAMIL NADU,26800462
345,TAMILNAD MERCANTILE BANK LIMITED,TMBL0000347,SULUR,"NO.11D, TRICHY MAIN ROAD, SULUR- 641 402, COIMBATORE DISTRICT, TAMILNADU",COIMBATORE,SULUR,TAMIL NADU,2687041
346,TAMILNAD MERCANTILE BANK LIMITED,TMBL0000348,BARDOLI,"LAXMI HOUSE, M.G.ROAD, BARDOLI- 394 601, SURAT DISTRICT, GUJARAT",SURAT,BARDOLI,GUJARAT,226679
347,TAMILNAD MERCANTILE BANK LIMITED,TMBL0000349,KANNICHERIPUTHUR,"D.NO.2/59, NADAR STREET, MAIN ROAD, KANNICHERIPUTHUR- 626 204, R.R.NAGAR(VIA), VIRUDHUNAGAR DIST,TAMILNADU",VIRUDHUNAGAR,VIRUDHUNAGAR,TAMIL NADU,9715110888
348,TAMILNAD MERCANTILE BANK LIMITED,TMBL0000350,SIVATHAIYAPURAM,"37, SOUTH STREET, SIVATHAIYAPURAM- 628251, THOOTHUKUDI DISTRICT",TOOTHUKUDI,TUTICORIN,TAMIL NADU,9788710888
349,TAMILNAD MERCANTILE BANK LIMITED,TMBL0000351,PUTHAGARAM,"D.NO.4/144/1, MAIN ROAD, MATHIRIMANGALAM, PUTHAGARAM-609701, ENANGUDI POST, TAMILNADU",NAGAPATTINAM,ENANGUDI,TAMIL NADU,236124
350,TAMILNAD MERCANTILE BANK LIMITED,TMBL0000352,KULAYANKARISAL,"K.P.S.ILLAM, 8/133, MAIN ROAD, KULAYANKARISAL- 628 103, THOOTHUKUDI DISTRICT, TAMILNADU",TOOTHUKUDI,TUTICORIN,TAMIL NADU,9750010888
351,TAMILNAD MERCANTILE BANK LIMITED,TMBL0000353,PERAIYUR,"DOOR NO.1-1-87/B, USILAMPATTI ROAD, PERAIYUR- 625 703, MADURAI DISTRICT",MADURAI,PERAIYUR,TAMIL NADU,9715810888
352,TAMILNAD MERCANTILE BANK LIMITED,TMBL0000354,VANDIYUR,"DOOR NO 4/806, VANDIYUR MAIN ROAD, MADURAI DISTRICT - 625 020",MADURAI,MADURAI,TAMIL NADU,9976910888
353,TAMILNAD MERCANTILE BANK LIMITED,TMBL0000355,KURUVIKULAM,"5/26, SOUTH CAR STREET, NEAR MEENAKSHI AMMAN KOIL, KURUVIKULAM- 627 754, TIRUNELVELI DISTRICT",TIRUNELVALI,KURUVIKULAM,TAMIL NADU,252288
354,TAMILNAD MERCANTILE BANK LIMITED,TMBL0000356,VAZHKKAI,"4/100, MAIN ROAD, VAZHKKAI - 610 105, NANNILAM THALUK, THIRUVARUR DISTRICT",THIRUVARUR,NANNILAM,TAMIL NADU,9659310888
355,TAMILNAD MERCANTILE BANK LIMITED,TMBL0000357,PORAVACHERY,"2 BY 63,MIDDLE STREET,PORAVACHERY 611 108,NAGAPATTINAM DISTRICT",NAGAPATTINAM,NAGAPATTINAM,TAMIL NADU,245045
356,TAMILNAD MERCANTILE BANK LIMITED,TMBL0000358,MIRYALGUDA,"GROUND FLOOR, D.NO.19-82, REDDY COLONY, 1 PHASE SAGAR ROAD, MIRYALGUDA- 508 207, NALGONDA DIST",NALGONDA,MIRYALGUDA,ANDHRA PRADESH,231366
357,TAMILNAD MERCANTILE BANK LIMITED,TMBL0000359,LALGUDI,S.F.NO.104 BY 2 MRV NAGAR POOVALUR ROAD LALGUDI621601,TIRUCHIRAPALLI,LALGUDI,TAMIL NADU,0
358,TAMILNAD MERCANTILE BANK LIMITED,TMBL0000360,CHIRALA,"D.NO.15 22 39 BY 1,KOTLABAZAR,CHIRALA 523 155",PRAKASAM,CHIRALA,ANDHRA PRADESH,232152
359,TAMILNAD MERCANTILE BANK LIMITED,TMBL0000361,KANAKKAN KADU,"NO3 INGUR ROAD KANAKKAN KADU,CHENNIMALAI 638051",ERODE,CHENNIMALAI,TAMIL NADU,252911
360,TAMILNAD MERCANTILE BANK LIMITED,TMBL0000362,CHILAKALURIPET,"DNO28 200,K.B.ROAD,CHILAKALURIPET 522 616",GUNTUR,CHILAKALURIPET,ANDHRA PRADESH,251065
361,TAMILNAD MERCANTILE BANK LIMITED,TMBL0000363,METTUR,"SVT COMPLEX,1 FLOOR,24 BY 31 SQUARE MARKET,METTUR",SALEM,METTUR,TAMIL NADU,4298242488
362,TAMILNAD MERCANTILE BANK LIMITED,TMBL0000364,SOMAYAMPALAYAM,"5 BY 448A,THADAGAMROAD,KANUVAI,SOMAYAMPALAYAM 641108",COIMBATORE,SOMAYAMPALAYAM,TAMIL NADU,2406864
363,TAMILNAD MERCANTILE BANK LIMITED,TMBL0000365,SERVAIKARANPATTI,"1 BY 55,TPT COMPOUND,SERVAIKARANPATTI,KADAYAM 627415",TIRUNELVALI,KADAYAM,TAMIL NADU,0
364,TAMILNAD MERCANTILE BANK LIMITED,TMBL0000366,GOUNDAMPALAYAM,"196 BY 1NADAR ST,VENNILAKUDIL,GOUNDAMPALAYAM637205",NAMAKKAL,TIRUCHENGODU,TAMIL NADU,0
365,TAMILNAD MERCANTILE BANK LIMITED,TMBL0000367,SIKKARAYAPURAM,PLOTNO178 LEELAVATHINAGAREXT KUNDRATHUR MAIN ROAD,KANCHEEPURAM,MANGADU,TAMIL NADU,0
366,TAMILNAD MERCANTILE BANK LIMITED,TMBL0000368,TIRUCHENDUR,"53 BY 6,VEERAPANDIAPATTANAM MAIN ROAD,TIRUCHENDUR",TOOTHUKUDI,TIRUCHENDUR,TAMIL NADU,242388
367,TAMILNAD MERCANTILE BANK LIMITED,TMBL0000369,ALLAMPATTI,"3 BY 123,KULLURCHANDAI ROAD,ALLAMPATTI 626002",VIRUDHUNAGAR,VIRUDHUNAGAR,TAMIL NADU,9578010888
368,TAMILNAD MERCANTILE BANK LIMITED,TMBL0000370,AYAPAKKAM,"D.NO.45 AYAPAKKAM ROAD,K K NAGAR 600053",THIRUVALLUR,AMBATTUR,TAMIL NADU,26821001
369,TAMILNAD MERCANTILE BANK LIMITED,TMBL0000371,RAMESWARAM,"D.NO.30 N,MARKET STREET,RAMESWARAM 623526",RAMANATHAPURAM,RAMESWARAM,TAMIL NADU,222488
370,TAMILNAD MERCANTILE BANK LIMITED,TMBL0000372,POONJERI,D.NO.CEN61 BY 2 ECR ROAD POONJERIVILLAGE 603104,KANCHEEPURAM,MAHABALIPURAM,TAMIL NADU,9524210888
371,TAMILNAD MERCANTILE BANK LIMITED,TMBL0000373,SURYAPET,GROUND FLOOR D NO 1 5 136 TO 139 POOLA CENTRE ALANKAR ROAD SURYAPET 5082013,NALGONDA,SURYAPET,ANDHRA PRADESH,7032712334
372,TAMILNAD MERCANTILE BANK LIMITED,TMBL0000374,MALAYANDIPATTINAM,"236B MAIN ROAD, KOTTUR, MALAYANDIPATTINAM 642114, POLLACHI TALUK, COIMBATORE DISTRICT",COIMBATORE,POLLACHI,TAMIL NADU,287274
373,TAMILNAD MERCANTILE BANK LIMITED,TMBL0000375,SIRUVALUR,"ALAGAPPA MILL CAMPUS, NO.91 GOBI ROAD, SIRUVALUR 638 054",ERODE,GOBICHETTIPALAY,TAMIL NADU,257333
374,TAMILNAD MERCANTILE BANK LIMITED,TMBL0000376,SARAVANAMPATTI,"312BY4, SATHY ROAD, SARAVANAMPATTI 641035, COIMBATORE DISTRICT",COIMBATORE,COIMBATORE,TAMIL NADU,9865110888
375,TAMILNAD MERCANTILE BANK LIMITED,TMBL0000377,THOOTHUKUDI PORT TRUST,"A3, WILSON PLAZA, WORLD TRADE AVENUE, THOOTHUKUDI PORT TRUST 628 004, THOOTHUKUDI DISTRICT",THOOTHUKUDI,TUTICORIN,TAMIL NADU,9750210888
376,TAMILNAD MERCANTILE BANK LIMITED,TMBL0000378,AVADI,"PLOT NO.7, G.D.NADAR COMPLEX, 60FEET ROAD, TNHB, AVADI, CHENNAI 600 054",THIRUVALLUR DISTRICT,AVADI,TAMIL NADU,9659410888
377,TAMILNAD MERCANTILE BANK LIMITED,TMBL0000379,TIRUCHIRAPALLI THILLAI NAGAR,"C87, KOTTAI STATION STREET, THILLAI NAGAR, TIRUCHIRAPALLI 620 018",TIRUCHIRAPALLI,TIRUCHIRAPALLI,TAMIL NADU,9659810888
378,TAMILNAD MERCANTILE BANK LIMITED,TMBL0000380,THIRUVANANTHAPURAM PAPPANAMCODE,"FIRST FLOOR, KURAISHA PLAZA, TC54BY2, PAPPANAMCODE, THIRUVANANATHAPURAM 695 018",THIRUVANANTHAPURAM,THIRUVANANTHAPU,KERALA,9447124904
379,TAMILNAD MERCANTILE BANK LIMITED,TMBL0000381,MADURAI S S COLONY,"1ABY1, NAVALAR NAGAR, S.S.COLONY, BYE PASS ROAD, NEAR CHOCKKALINGA NAGAR BUS STOP, MADURAI 625010",MADURAI,MADURAI,TAMIL NADU,2600844
380,TAMILNAD MERCANTILE BANK LIMITED,TMBL0000382,KARUNGAL,"DOOR NO.5 208BY4AND5, GRACE PLAZA, NEAR BUS STAND, MARTHANDAM HIGHWAYS, KARUNGAL 629157",KANYAKUMARI,KARUNGAL,TAMIL NADU,267737
381,TAMILNAD MERCANTILE BANK LIMITED,TMBL0000383,KULITHALAI,"D.NO25BY1, MBS AGRAHARAM,TRICHY KARUR MAIN ROAD, KULITHALAI 639 104",KARUR,KULITHALAI,TAMIL NADU,9688510888
382,TAMILNAD MERCANTILE BANK LIMITED,TMBL0000384,AMMAPALAYAM,"2BY298, RADHAKRISHNAN STREET, AMMAPALAYAM 641652 TIRUPUR DISTRICT",COIMBATORE,TIRUPUR,TAMIL NADU,9688310888
383,TAMILNAD MERCANTILE BANK LIMITED,TMBL0000385,PATHANAMTHITTA,FIRST FLOOR DNO XX1 381 TRINITY COMPLEX TK ROAD PATHANAMTHITTA PATHANAMTHITTA DIST,PATHANAMTHITTA,PATHANAMTHITTA,KERALA,2221232
384,TAMILNAD MERCANTILE BANK LIMITED,TMBL0000386,NARSARAOPET,"D.NO.9-7-40, 9-7-40A AND 9-7-41, ARUNDALPETA, NARASARAOPET",GUNTUR,NARSARAOPET,ANDHRA PRADESH,7032720506
385,TAMILNAD MERCANTILE BANK LIMITED,TMBL0000387,KAVALI,"GROUND FLOOR, D.NO.11-1-29,BIT-II,2ND WARD,RAMAMURTHYPET, G.N.T.ROAD,KAVALI-524 201.",NELLORE,KAVALI,ANDHRA PRADESH,7032720507
386,TAMILNAD MERCANTILE BANK LIMITED,TMBL0000388,NEELANKARI,"NO.4/314,GROUND FLOOR, CLRI NAGAR ROAD, BEHIND BHARATH PETROL BUNK, NEELANKARAI, CHENNAI-600 115.",CHENNAI,CHENNAI,TAMIL NADU,9688410888
387,TAMILNAD MERCANTILE BANK LIMITED,TMBL0000389,PUDUGUMMIDIPOONDI,"NO.11/ 20, BALAKRISHNAPURAM, PALEESWARAN KANDIGAI, PUDUGUMMIDIPOONDI, CHENNAI 601 201",THIRUVALLUR,GUMMIDIPUNDI,TAMIL NADU,9965410888
388,TAMILNAD MERCANTILE BANK LIMITED,TMBL0000390,HIMATNAGAR,"C.S.2846, TOWER ROAD, VASANT BHUVAN, HIMATNAGAR-383 001.SABARKANTHA DISTRICT,GUJARAT",SABARKANTHA,HIMATNAGAR,GUJARAT,9909020780
389,TAMILNAD MERCANTILE BANK LIMITED,TMBL0000391,VAPI,"AAMIR COMPLEX, GIDC CHAR RASTA, VAPI-SILVASSA ROAD, VAPI - 396 191, VALSAD DISTRICT, GUJARAT.",VALSAD,VAPI,GUJARAT,9974559233
390,TAMILNAD MERCANTILE BANK LIMITED,TMBL0000392,SACHIN,"NO.2,SHREE COMPLEX, PLOT-D,BLOCK NO.180,SURAT-NAVSARI ROAD, SACHIN G.I.D.C NAKA, SACHIN- 394230",SURAT,SACHIN,GUJARAT,9879517027
391,TAMILNAD MERCANTILE BANK LIMITED,TMBL0000393,KAZHUGUMALAI,"89-K,KOVILPATTI-SANKARANKOIL MAIN ROAD, KAZHYGUMALAI-628552",TOOTHUKUDI,KOVILPATTI,TAMIL NADU,251188
392,TAMILNAD MERCANTILE BANK LIMITED,TMBL0000394,VEERASIGAMANI,"5/49, BAJANAI KOVIL STREET, VEERASIGAMANI VILLAGE, SANKARANKOVIL TK 627862, TIRUNELVELI DISTRICT,TAMILNADU",TIRUNELVALI,VEERASIGAMANI,TAMIL NADU,7502810888
393,TAMILNAD MERCANTILE BANK LIMITED,TMBL0000395,VEDARANYAM,"D.NO.11, FIRST FLOOR, NORTH MAIN ROAD, VEDARANYAM-614810, NAGAPATTINAM DISTRICT, TAMILNADU",NAGAPATTINAM,VEDARANYAM,TAMIL NADU,7502510888
394,TAMILNAD MERCANTILE BANK LIMITED,TMBL0000396,PALLIKARANAI,"NO.218, FIRST FLOOR, VELACHERY MAIN ROAD, PALLIKARANAI, CHENNAI -600100",CHENNAI,CHENNAI,TAMIL NADU,9865510888
395,TAMILNAD MERCANTILE BANK LIMITED,TMBL0000397,GUDALUR,"GROUND FLOOR, S.NO.11/369, D2E, 11/369, D2F, CALICUT ROAD, GUDALUR-643212, NILGRIS DISTRICT, TAMILNADU",COIMBATORE,GUDALUR,TAMIL NADU,7502910888
396,TAMILNAD MERCANTILE BANK LIMITED,TMBL0000398,AYYAMPALAYAM,"D.NO.5/168, FIRST FLOOR, TRICHY-SALEM MAIN ROAD, AYYAMPALAYAM-621202, TIRUCHIRAPALLI DISTRICT, TAMILNADU",TIRUCHIRAPALLI,MANACHANALLUR,TAMIL NADU,7502310888
397,TAMILNAD MERCANTILE BANK LIMITED,TMBL0000399,PONNERI,"NO.56, GROUND FLOOR, NEW THERADI STREET, PONNERI-601204",THIRUVALLUR,PONNERI,TAMIL NADU,9965310888
398,TAMILNAD MERCANTILE BANK LIMITED,TMBL0000400,DHARMAAPURI,"OLD NO.S.F.277,NEW NO.S.F.522BY47, BHAVANI MAIN ROAD, DHARMAAPURI-638455, ERODE DISTRICT,TAMILNADU",ERODE,KAVINDAPADY,TAMIL NADU,7502610888
399,TAMILNAD MERCANTILE BANK LIMITED,TMBL0000401,YELAHANKA,"NO.2019, 3RD CROSS, H.I.G - B SECTOR, YELAHANKA NEW TOWN, BANGALORE-560064",BANGALORE URBAN,YELAHANKA,KARNATAKA,9487182081
400,TAMILNAD MERCANTILE BANK LIMITED,TMBL0000402,ARIYAKULAM,"KURINJI MAHAL, PLOT NO.204, DOOR NO.6BY103, TIRUNELVELI-THOOTHUKUDI NH ROAD, TEACHERS COLONY, ARIYAKULAM -627011, TIRUNELVELI",TIRUNELVELI,TIRUNELVELI,TAMIL NADU,7373410888
401,TAMILNAD MERCANTILE BANK LIMITED,TMBL0000403,SITHURAJAPURAM,"D.NO.2BY1423-F, TIRUPATHI NAGAR, SITHURAJAPURAM, SIVAKASI-626123",VIRUDHUNAGAR,SIVAKASI,TAMIL NADU,7373910888
402,TAMILNAD MERCANTILE BANK LIMITED,TMBL0000404,KEELA ERAL,"311/1, KAMATCHI BAZZAR MAIN ROAD, KEELA ERAL -628908, THOOTHUKUDI DISTRICT",TOOTHUKUDI,ERAL,TAMIL NADU,7502210888
403,TAMILNAD MERCANTILE BANK LIMITED,TMBL0000405,ROORKEE,"176, NEHRU NAGAR, DEHRADUN ROAD, ROORKEE-247667, UTTARAKHAND",HARIDWAR,ROORKEE,UTTARAKHAND,8006716256
404,TAMILNAD MERCANTILE BANK LIMITED,TMBL0000406,KALLIKUDI,"6/656, A AND B,T.KALLUPATTI ROAD, KALLIKUDI 625701",MADURAI,KALLIGUDICHATRAM,TAMIL NADU,9842932190
405,TAMILNAD MERCANTILE BANK LIMITED,TMBL0000407,KANGEYAM,"LAKSHMI TOWERS, GROUND FLOOR, NO.127, KARUR ROAD, KANGEYAM 638701",ERODE,KANGEYAM,TAMIL NADU,9524310888
406,TAMILNAD MERCANTILE BANK LIMITED,TMBL0000408,PALLADAM,"IST FLOOR, NO.321, THIRUNAGAR COLONY, PALLADAM 641664, TIRUPUR DISTRICT",COIMBATORE,PALLADAM,TAMIL NADU,9715410888
407,TAMILNAD MERCANTILE BANK LIMITED,TMBL0000409,VICKRAMASINGAPURAM,"738, MAIN ROAD, AVSR CAMPUS, VICKRAMASINGAPURAM 627425",TIRUNELVELI,VIKRAMASINGAPURAM,TAMIL NADU,9698910888
408,TAMILNAD MERCANTILE BANK LIMITED,TMBL0000410,NERKUNDRAM,"NO 29 GROUND FLOOR KAMARAJ HIGH ROAD DEVI KARUMARIAMMAN NAGAR, METTUKUPPAM, NERKUNDRAM, CHENNAI 600 107",THIRUVALLUR,NERKUNDRAM,TAMIL NADU,9750510888
409,TAMILNAD MERCANTILE BANK LIMITED,TMBL0000411,DEESA,"PUSHPANJALI HEIGHTS NEAR JALARAM MANDIR, HIGHWAY ROAD, DEESA 385 535 GUJARAT",BANAS KANTHA,DEESA,GUJARAT,9825112150
410,TAMILNAD MERCANTILE BANK LIMITED,TMBL0000412,KAYANKULAM,"GROUND FLOOR, PARAYIL BUILDING, NEAR RAILWAY STATION, K P ROAD, KAYANKULAM 690 502",ALAPUZHA,KAYANKULAM,KERALA,8547288028
411,TAMILNAD MERCANTILE BANK LIMITED,TMBL0000413,CHAVAKKAD,"GROUND FLOOR, CEE CEE TOWER, RICE BAZAAR, CHAVAKKAD 680 506 THRISSUR DISTRICT, KERALA",THRISSUR,CHAVAKKAD,KERALA,8547232347
412,TAMILNAD MERCANTILE BANK LIMITED,TMBL0000414,KANHANGAD,"CITY CENTRE, BLOCK 1, FIRST FLOOR, KOTTACHERY POST, KANHANGAD 671 315,KASARGOD DISTRICT, KERALA",KASARAGOD,KANHANGAD,KERALA,8547199188
413,TAMILNAD MERCANTILE BANK LIMITED,TMBL0000415,VENGATADAMPATTI,"D NO 237, FIRST FLOOR, PALANIVEL NAGAR, OPPOSITE TO BDO OFFICE, VENGATADAMPATTI 635 207, KRISHNAGIRI DISTRICT",KRISHNAGIRI,VENGATADAMPATTI,TAMIL NADU,9788410888
414,TAMILNAD MERCANTILE BANK LIMITED,TMBL0000416,YADGIRI,"S.NO.395BYPART, PLOT NO 47, GROUND FLOOR, CHITTAPUR ROAD, YADGIRI 585202, YADGIRI DISTRICT, KARNATAKA",GULBARGA,YADGIRI,KARNATAKA,8050939510
415,TAMILNAD MERCANTILE BANK LIMITED,TMBL0000417,KILAKARAI,"DOOR NO 7BY8, VALLAL SEEDHAKADHI ROAD, KILAKARAI 623517, RAMANATHAPURAM DISTRICT",RAMANATHAPURAM,KILAKARAI,TAMIL NADU,9788610888
416,TAMILNAD MERCANTILE BANK LIMITED,TMBL0000418,NGO COLONY TIRUNELVELI,"GROUND FLOOR, B 276BY1, 60 FEET ROAD, NGO B COLONY, TIRUNELVELI 627007",TIRUNELVALI,TIRUNELVELI,TAMIL NADU,9750110888
417,TAMILNAD MERCANTILE BANK LIMITED,TMBL0000419,GANAPATHY COIMBATORE,"FIRST FLOOR, NO.1295, SATHYAMANGALAM MAIN ROAD, GANAPATHY, COIMBATORE 641006",COIMBATORE,COIMBATORE,TAMIL NADU,9659110888
418,TAMILNAD MERCANTILE BANK LIMITED,TMBL0000420,SINGANALLUR COIMBATORE,"NO.327 TO 329, TRICHY ROAD, SRI RAM HOSPITAL OPPOSITE, SINGANALLUR 641 005, COIMBATORE DISTRICT",COIMBATORE,COIMBATORE,TAMIL NADU,9865955770
419,TAMILNAD MERCANTILE BANK LIMITED,TMBL0000421,MANMAD,"D NO 4 SB CLASSIC, 368 12 MALEGAON ROAD, MANMAD 423 104, NASHIK DISTRICT, MAHARASHTRA STATE",NASIK,MANMAD,MAHARASHTRA,7057746141
420,TAMILNAD MERCANTILE BANK LIMITED,TMBL0000422,REGUNATHAPURAM,"ANNA NAGAR, REGUNATHAPURAM 623 523, RAMANATHAPURAM DISTRICT, TAMILNADU STATE",RAMANATHAPURAM,REGUNATHAPURAM,TAMIL NADU,9750710888
421,TAMILNAD MERCANTILE BANK LIMITED,TMBL0000423,AMBASAMUDRAM,"GROUND FLOOR, DOOR NO.95 TO 98, AMBAI ALANGULAM MAIN ROAD, AMBASAMUDRAM 627401, TIRUNELVELI DISTRICT",TIRUNELVALI,AMBASAMUDRAM,TAMIL NADU,9715910888
422,TAMILNAD MERCANTILE BANK LIMITED,TMBL0000424,KELAMBAKKAM,"NO.3BY45, FIRST FLOOR, RAJIVGANDHI ROAD, OMR, KELAMBAKKAM, CHENNAI 603103",KANCHEEPURAM,KELAMBAKKAM,TAMIL NADU,9750910888
423,TAMILNAD MERCANTILE BANK LIMITED,TMBL0000425,TENKASI,"FIRST FLOOR,OLD NO.99, NEW NO.269, SWAMY SANNADHI STREET, TENKASI 627811, TIRUNELVELI DISTRICT",TIRUNELVALI,TENKASI,TAMIL NADU,8012010888
424,TAMILNAD MERCANTILE BANK LIMITED,TMBL0000426,SIRKALI,"NO.32BY47, FIRST FLOOR, SOUTH CAR STREET, SIRKALI 609110, NAGAPATTINAM DISTRICT",NAGAPATTINAM,SIRKALI,TAMIL NADU,9942110888
425,TAMILNAD MERCANTILE BANK LIMITED,TMBL0000427,RAMANAGARA,"SADVI COMPLEX, NO.1105BY624BY1, VIVEKANANDANAGAR, B.M.ROAD, RAMANAGARA 562159",RAMANAGARA,RAMANAGARA,KARNATAKA,7022981475
426,TAMILNAD MERCANTILE BANK LIMITED,TMBL0000428,CHANNAPATNA,"SRI RAMA NILAYA, D.NO.2167BY2,3,4, FIRST FLOOR, B.M.ROAD, KUVEMPU NAGAR, CHANNAPATNA 562160",BANGALORE RURAL,CHANNAPATNA,KARNATAKA,7022981476
427,TAMILNAD MERCANTILE BANK LIMITED,TMBL0000429,CHAMARAJANAGARA,"GROUND FLOOR, ZUMER COMPLEX, GUNDLEPER CIRCLE, NEAR FOREST OFFICE, CHAMARAJANAGARA 571313",CHAMARAJANAGAR,GUNDLUPET,KARNATAKA,7022981477
428,TAMILNAD MERCANTILE BANK LIMITED,TMBL0000430,SME BRANCH THOOTHUKUDI,"54D,BRIYANT NAGAR 1ST STREET,THOOTHUKUDI 628003",THOOTHUKUDI,TUTICORIN,TAMIL NADU,8012410888
429,TAMILNAD MERCANTILE BANK LIMITED,TMBL0000431,DHAR,"D.NO.5 A/3, RATAN VILLA, BHOJ KANY MARG, RAJWADA, DHAR 454001",DHAR,DHAR,MADHYA PRADESH,7506006092
430,TAMILNAD MERCANTILE BANK LIMITED,TMBL0000432,CHIPLUN,"D.NO.145A, SHIVAJI CHOWK, CHINCH NAKA, CHIPLUN 415605, RATNAGIRI DISTRICT, MAHARASHTRA",RATNAGIRI,CHIPLUN,MAHARASHTRA,7769808555
431,TAMILNAD MERCANTILE BANK LIMITED,TMBL0000433,VISNAGAR,"PLOT NO 4/3 KANSHA CROSS ROAD, NEAR GIDC,       VISNAGAR 384 315 MEHSANA DISTRICT, GUJARAT STATE",MAHESANA,VISNAGAR,GUJARAT,9909002049
432,TAMILNAD MERCANTILE BANK LIMITED,TMBL0000434,MATTAKADAI,"76 2J IC MUTHUKRISHNAPURAM MAIN ROAD,                 POOBALARAYAPURAM, THOOTHUKUDI 628 001                   THOOTHUKUDI DISTRICT",TOOTHUKUDI,TOOTHUKUDI,TAMIL NADU,8973110888
433,TAMILNAD MERCANTILE BANK LIMITED,TMBL0000435,SIVAKASI PALANIANDAVARPURAM COLONY,"102 GNANAGIRI ROAD, NEAR PALANIANDAVAR THEATRE, SIVAKASI 626123 VIRUDHUNAGAR DISTRICT TAMILNADU",VIRUDHUNAGAR,SIVAKASI,TAMIL NADU,8973710888
434,TAMILNAD MERCANTILE BANK LIMITED,TMBL0000436,CHENNAI ADYAR,"NO 35BY17, FIRST FLOOR, FIRST MAIN ROAD, GANDHINAGAR, ADYAR, CHENNAI 600020",CHENNAI,CHENNAI,TAMIL NADU,8973610888
435,TAMILNAD MERCANTILE BANK LIMITED,TMBL0000437,SRIKALAHASTI,"D NO 2BY85, FIRST FLOOR, BIG MOSQUE STREET, SRIKALAHASTI 517644, CHITTOOR DISTRICT",CHITTOOR,SRIKALAHASTI,ANDHRA PRADESH,9550205599
436,TAMILNAD MERCANTILE BANK LIMITED,TMBL0000438,KENGERI,"NO 1103, K S TOWN, FIRST MAIN ROAD, 4TH CROSS, KENGERI 560060, BENGALURU DISTRICT, KARNATAKA STATE",BANGALORE URBAN,KENGERI,KARNATAKA,7022981474
437,TAMILNAD MERCANTILE BANK LIMITED,TMBL0000439,CHAPPADI,"NO 133BY1B, BENGALURU CHENNAI HIGHWAYS, CHAPPADI 635117, KRISHNAGIRI DISTRICT",KRISHNAGIRI,SHOOLAGIRI,TAMIL NADU,8012310888
438,TAMILNAD MERCANTILE BANK LIMITED,TMBL0000440,GANDHINAGAR,"D NO 22 SECTOR 24 KOLVADA ROAD                 NEAR GOPAL DAIRY, GANDHINAGAR 382 014         GUJARAT STATE",GANDHINAGAR,GANDHINAGAR,GUJARAT,9987270175
439,TAMILNAD MERCANTILE BANK LIMITED,TMBL0000441,KHOPOLI,"CTS NO 3550, GROUND FLOOR,AT VIRAJ BHOOMI, BAZARPETH,KHOPOLI,MAHARASHTRA 410 203",RAIGAD,KHOPOLI,MAHARASHTRA,7718083980
440,TAMILNAD MERCANTILE BANK LIMITED,TMBL0000442,VASAI,"NO4,GIMAR MAHAL, PANCHAVATI, AMBADI ROAD, VASAI 401202, PALGHAR DISTRICT, MAHARASHTRA STATE",THANE,VASAI,MAHARASHTRA,8308840667
441,TAMILNAD MERCANTILE BANK LIMITED,TMBL0000443,BAPATLA,"GROUND FLOOR, DOOR NO 12 4 11, GUPTA AVENUE, SRI ANJANEYA SWAMY TEMPLE STREET, BAPATLA 522 101, GUNTUR DISTRICT, ANDHRA PRADESH STATE",GUNTUR,BAPATLA,ANDHRA PRADESH,9177766044
442,TAMILNAD MERCANTILE BANK LIMITED,TMBL0000444,INDORE,"SOUTH TUKOGANJ, STREET NO.3,MANAV TRADE CENTRE,INDORE 452 001,MADHYA PRADESH STATE",INDORE,INDORE,MADHYA PRADESH,8889911251
443,TAMILNAD MERCANTILE BANK LIMITED,TMBL0000445,MADAMBAKKAM,"NO 81, FIRST FLOOR, DEVARAJ NAGAR MAIN ROAD, NEAR BHARATH UNIVERSITY, MADAMBAKKAM, CHENNAI 600 126",KANCHEEPURAM,SELAIYUR,TAMIL NADU,8012610888
444,TAMILNAD MERCANTILE BANK LIMITED,TMBL0000446,BHIMAVARAM,"GROUND FLOOR, SREE LAKSHMI PLAZA, TOWN HALL ROAD, OPPOSITE TO MANDAL DEVELOPMENT OFFICE, BHIMAVARAM 534 201,WEST GODAVARI DISTRICT, ANDHRA PRADESH",WEST GODAVARI,BHIMAVARAM,ANDHRA PRADESH,0
445,TAMILNAD MERCANTILE BANK LIMITED,TMBL0000447,PALAKKAD,"11 197 2, GROUND FLOOR, COURT ROAD, PALAKKAD PALAKKAD DISTRICT, KERALA 678 001",PALAKKAD,PALAKKAD,KERALA,9497123567
446,TAMILNAD MERCANTILE BANK LIMITED,TMBL0000448,COIMBATORE OPPANAKARA STREET,"NO 8 TO 12, OPPANAKARA STREET, OPP SRI ATHI VINAYAGAR TEMPLE, COIMBATORE 641 001",COIMBATORE,COIMBATORE,TAMIL NADU,8012810888
447,TAMILNAD MERCANTILE BANK LIMITED,TMBL0000449,NALUMAVADI,"10 122 MAIN ROAD, NALUMAVADI 628 211, TIRUCHENDUR TALUK",TOOTHUKUDI,NALUMAVADI,TAMIL NADU,8012710888
448,TAMILNAD MERCANTILE BANK LIMITED,TMBL0000450,MYLAPORE CHENNAI,"NO 83 41, KOTAPATI ENCLAVE, KUTCHERY ROAD, MYLAPORE 600 004, CHENNAI DISTRICT, TAMILNADU STATE",CHENNAI,CHENNAI,TAMIL NADU,8973910888
449,TAMILNAD MERCANTILE BANK LIMITED,TMBL0000451,K K NAGAR MADURAI,"K K NAGAR, 80 FEET ROAD, NEAR HONDA SHOWROOM, MADURAI 625 020. MADURAI DISTRICT, TAMILNADU STATE",MADURAI,MADURAI,TAMIL NADU,8973510888
450,TAMILNAD MERCANTILE BANK LIMITED,TMBL0000452,SRIVAIKUNDAM,"24 1, SETCHATH STREET, NEAR BUS STAND, SRIVAIKUNDAM 628 601, THOOTHUKUDI DISTRICT, TAMILNADU STATE",TOOTHUKUDI,SRIVAIKUNTAM,TAMIL NADU,8973410888
451,TAMILNAD MERCANTILE BANK LIMITED,TMBL0000453,SALEM RAMAKRISHNA ROAD,"NO 69 1 RAMAKRISHNA ROAD, GROUND FLOOR, RAJESWARI TOWER, CLUNY MATRIC SCHOOL BACKSIDE, SALEM 636 007",SALEM,SALEM,TAMIL NADU,8012910888
452,TAMILNAD MERCANTILE BANK LIMITED,TMBL0000454,VELACHERY CHENNAI,"NO 35 1A, FIRST FLOOR, SRS ARCADE, VELACHERY MAIN ROAD, VELACHERY, CHENNAI 600 042",CHENNAI,CHENNAI,TAMIL NADU,8973810888
453,TAMILNAD MERCANTILE BANK LIMITED,TMBL0000455,MIDALAM,"10 17A MIDALAM, UDHAYA MARTHANDAM POST, KANYAKUMARI DISTRICT 629 178",KANYAKUMARI,MIDALAM,TAMIL NADU,8883510888
454,TAMILNAD MERCANTILE BANK LIMITED,TMBL0000456,ERICHANATHAM,"IST FLOOR D NO 2 117, MAIN ROAD, ERICHANATHAM 626103, SIVAKASI TALUK, VIRUDHUNAGAR DISTRICT",VIRUDHUNAGAR,VIRUDHUNAGAR,TAMIL NADU,7502010888
455,TAMILNAD MERCANTILE BANK LIMITED,TMBL0000457,BENZ CIRCLE VIJAYAWADA,"GROUND FLOOR DNO 64 9 1 M G ROAD, BEHIND EENADU OFFICE, BENZ CIRCLE, VIJAYAWADA 520 010, KRISHNA DISTRICT, ANDRA PRADESH",KRISHNA,VIJAYAWADA,ANDHRA PRADESH,9100046082
456,TAMILNAD MERCANTILE BANK LIMITED,TMBL0000458,FARIDABAD,"W G TOWER PLOT NO 37, NEELAM BATA ROAD, NIT FARIDABAD 121 001, HARYANA STATE",FARIDABAD,FARIDABAD,HARYANA,9205137300
457,TAMILNAD MERCANTILE BANK LIMITED,TMBL0000459,PERIYANAICKENPALAYAM,"GROUND FLOOR NO 270 1, METTUPALAYAM ROAD, VANNAN KOVIL DIVISION, NEAR JOTHIPURAM BUS STAND, PERIYANAIKENPALAYAM 641 020",COIMBATORE,PERIYANAICKANPALAYAM,TAMIL NADU,8973220888
458,TAMILNAD MERCANTILE BANK LIMITED,TMBL0000460,KUNIAMUTHUR,"GROUND FLOOR, NO 456 1 PALAKKAD MAIN ROAD, KUNIAMUTHUR, COIMBATORE 641 008",COIMBATORE,KUNIAMUTHUR,TAMIL NADU,7402710888
459,TAMILNAD MERCANTILE BANK LIMITED,TMBL0000461,BILIMORA,"SHOP NO 6 AND 7 , KADAMB ENCLAVE, NURSERY ROAD, BILIMORA 396 321, GUJARAT",NAVSARI,BILIMORA,GUJARAT,9443526624
460,TAMILNAD MERCANTILE BANK LIMITED,TMBL0000462,ANTHIYUR,"FIRST FLOOR K S COMPLEX, BHAVANI ROAD, ANTHIYUR 638 501",ERODE,ANTHIYUR,TAMIL NADU,9965910888
461,TAMILNAD MERCANTILE BANK LIMITED,TMBL0000463,MEHDIPATNAM,"DOOR NO 13 6 436 A 33, LAKSHMI APARTMENTS, LAKSHMI NAGAR, MEHDIPATNAM 67TH PILLAR, HYDERABAD 500 028 TELANGANA STATE",HYDERABAD,HYDERABAD,TELANGANA,9100046074
462,TAMILNAD MERCANTILE BANK LIMITED,TMBL0000464,MANNARGUDI,"OLD NO 17, NEW NO 45, FIRST FLOOR, MAHA MARIAMMAN TEMPLE STREET,MANNARGUDI 614 001, THIRUVARUR DISTRICT",THIRUVARUR,MANNARGUDI,TAMIL NADU,8012210888
463,TAMILNAD MERCANTILE BANK LIMITED,TMBL0000465,NUNGAMBAKKAM,"NO 81, FIRST FLOOR, VALLUVAR KOTTAM HIGHWAY, NUNGAMBAKKAM, CHENNAI 600 034",CHENNAI,CHENNAI,TAMIL NADU,9659720888
464,TAMILNAD MERCANTILE BANK LIMITED,TMBL0000466,KURINJIPADI,"D NO 110 FIRST FLOOR, PERUMAL TEMPLE STREET, KURINJIPADI 607 302, CUDDALORE DISTRICT",CUDDALORE,KURINJIPADI,TAMIL NADU,9942910888
465,TAMILNAD MERCANTILE BANK LIMITED,TMBL0000467,MANAMADURAI,"G.R.322 BY 431,432, MAIN ROAD, MANAMADURAI-630606, SIVAGANGAI DISTRICT",SIVAGANGA,MANAMADURAI,TAMIL NADU,9698820888
466,TAMILNAD MERCANTILE BANK LIMITED,TMBL0000468,THANE,"SHOP NO.4-6, LAND MARK ARCADE, EASTERN EXPRESS HIGHWAY SERVICE ROAD, NEAR NITIN JUNCTION, LOUIS WADI, THANE (WEST)-400602",THANE,THANE,MAHARASHTRA,9833524178
467,TAMILNAD MERCANTILE BANK LIMITED,TMBL0000469,BORSAD,"SHAAN AROMA COMPLEX, SHOP NO.11-12, VASAD HIGHWAY, OPP TO SUN TEMPLE, BORSAD-388540, GUJARAT",ANAND,BORSAD,GUJARAT,9712977195
468,TAMILNAD MERCANTILE BANK LIMITED,TMBL0000470,MALAPPURAM,"FIRST FLOOR DOOR NO 23 378 Z3, C H PLAZA,TIRUR ROAD, DOWN HILL, MALAPPURAM 676519,MALAPPURAM DISTRICT, KERALA STATE",MALAPPURAM,MALAPPURAM,KERALA,9446445423
469,TAMILNAD MERCANTILE BANK LIMITED,TMBL0000471,HYDERABAD MANIKONDA,"SHOP NO 3,4,5 PLOT NO 116, SRIRAM NAGAR COLONY, NEAR GOLDEN TEMPLE, PAPPALAGUDA, MANIKONDA, HYDERABAD 500 089, TELANGANA STATE",HYDERABAD,HYDERABAD,TELANGANA,9100046076
470,TAMILNAD MERCANTILE BANK LIMITED,TMBL0000472,RAJKOT,"SHP NO 3,4 SURYA ARCADE, MAHATMA GANDHI ROAD, JUBILEE CHOWK, RAJKOT 360 001, GUJARAT",RAJKOT,RAJKOT,GUJARAT,9979890019
471,TAMILNAD MERCANTILE BANK LIMITED,TMBL0000473,PERIYAKULAM,"SNO 100 1,101, VARADHARAJAN NAGAR, THENKARAI, PERIYAKULAM 625 601, THEN DISTRICT",THENI,PERIYAKULAM,TAMIL NADU,9698110888
472,TAMILNAD MERCANTILE BANK LIMITED,TMBL0000474,PAYYANUR,"FIRST FLOOR D NO 33, OASIS PLAZA, NEAR OLD BUS STATND, RAILWAY STATION ROAD, PAYYANUR 670 307, KANNUR DISTRICT, KERALA STATE",CANNUR,PAYYANNUR,KERALA,8547722088
473,TAMILNAD MERCANTILE BANK LIMITED,TMBL0000475,JAIPUR,"SHOP NO 91, FIRST FLOOR, JOHARI BAZAR, JAIPUR 302 003 RAJASTHAN STATE",JAIPUR,JAIPUR,RAJASTHAN,9983933455
474,TAMILNAD MERCANTILE BANK LIMITED,TMBL0000476,KASARAGOD,"FIRST FLOOR, FATHIMA ARCADE, KMC SECOND WARD, DNO 435 34, SURVEY NO 129, M.G.ROAD, KASARAGOD 671 121 KERALA STATE",KASARAGOD,KASARAGOD,KERALA,8547237288
475,TAMILNAD MERCANTILE BANK LIMITED,TMBL0000477,KODUNGALLUR,"FIRST FLOOR, CHANDRIKA BUILDING, BUILDING NO317 E AND E, KAVIL KADAV, THRISSUR ROAD, EAST NADA, KODUNGALLUR 680 664 THRISSUR DISTRICT, KERALA STATE",THRISSUR,KODUNGALLUR,KERALA,8547242347
476,TAMILNAD MERCANTILE BANK LIMITED,TMBL0000478,VASUDEVANALLUR,"SNO 87 1A, 1C GROUND FLOOR, MAIN ROAD, VASUDEVANALLUR 627 758, TIRUNELVELI DISTRICT",TIRUNELVALI,VASUDEVANALLUR,TAMIL NADU,8012420888
477,TAMILNAD MERCANTILE BANK LIMITED,TMBL0000479,AMRELI,"GROUND FLOOR, SILVAR PLACE, STATION ROAD, OPPOSITE TO SARDAR PATEL PATHI, AMRELI 365001, GUJARAT STATE",AMRELI,AMRELI,GUJARAT,9677994355
478,TAMILNAD MERCANTILE BANK LIMITED,TMBL0000480,GONDAL,"NO 5,6 GROUND FLOOR, BACHUBHAI BAVABHAI CHAMBERS, GUNDALA ROAD, GONDAL 360 311, RAJKOT DISTRICT, GUJARAT STATE",RAJKOT,GONDAL,GUJARAT,9099942823
479,TAMILNAD MERCANTILE BANK LIMITED,TMBL0000481,CHENNAI KODAMBAKKAM,"34 17, FIRST FLOOR, DR AMBEDKAR ROAD, KODAMBAKKAM, CHENNAI 600 024",CHENNAI,CHENNAI,TAMIL NADU,9659820888
480,TAMILNAD MERCANTILE BANK LIMITED,TMBL0000482,RAIPUR,"GROUND FLOOR KRISHNA KRIPA TOWER, SHRI DURGA MANDIR CHOWK, MAIN ROAD, KATORA TALAB, RAIPUR 492 001, CHATTISGARH STATE",RAIPUR,RAIPUR,CHHATTISGARH,7225038883
481,TAMILNAD MERCANTILE BANK LIMITED,TMBL0000483,ANJAR,"MADHAVBAG, OPPOSITE TO VARSHAMEDI NAKA, ANJAR 370 110, GUJARAT STATE",KACHCHH,ANJAR,GUJARAT,9913190505
482,TAMILNAD MERCANTILE BANK LIMITED,TMBL0000484,MUMBAI MULUND,"PLOT NO 2A, LAXMI MAHADEV NIWAS, SEVARAM LALWANI ROAD, MULUND WEST, MUMBAI 400 080, MAHARASHTRA STATE",GREATER BOMBAY,MUMBAI,MAHARASHTRA,9167955706
483,TAMILNAD MERCANTILE BANK LIMITED,TMBL0000485,TALIPARAMBA,"UPPER GROUND FLOOR, BELL SQUARE, TALIPARAMBA 670 141, KANNUR DISTRICT, KERALA STATE",CANNUR,TALIPARAMBA,KERALA,8547722024
484,TAMILNAD MERCANTILE BANK LIMITED,TMBL0000486,RANEBENNUR,"UPPER GROUND FLOOR,SURAJ LODGE BUILDING, P B ROAD, RANEBENNUR, HAVERI DISTRICT, KARNATAKA STATE",HAVERI,RANEBENNUR,KARNATAKA,7022234120
485,TAMILNAD MERCANTILE BANK LIMITED,TMBL0000487,BAGALKOT,"FIRST FLOOR, TP NO 39 A ,WARD NO 10, BUS STAND ROAD, BAGALKOT 587 101",BAGALKOTE,BAGALKOT,KARNATAKA,7022234193
486,TAMILNAD MERCANTILE BANK LIMITED,TMBL0000488,ERUVADI,"NO 81 3, SOUTH MAIN ROAD, NEAR KAIKATTI, ERUVADI 627 103, TIRUNELVELI DISTRICT",TIRUNELVALI,ERUVADI,TAMIL NADU,9698620888
487,TAMILNAD MERCANTILE BANK LIMITED,TMBL0000489,AMBATTUR,"8 7, RED HILLS ROAD, AMBATTUR, CHENNAI 600 053",THIRUVALLUR,AMBATTUR,TAMIL NADU,9659920888
488,TAMILNAD MERCANTILE BANK LIMITED,TMBL0000490,CHERANMAHADEVI,"52 1 PUTHARAK SHOP STREET, CHERANMAHADEVI 627 414, TIRUNELVELI DISTRICT, TAMILNADU",TIRUNELVALI,CHERANMAHADEVI,TAMIL NADU,8012520888
489,TAMILNAD MERCANTILE BANK LIMITED,TMBL0000491,SILVARPATTI,"155 NORTH STREET, SILVARPATTI 625 602,THENI DISTRICT",THENI,THENI,TAMIL NADU,9715220888
490,TAMILNAD MERCANTILE BANK LIMITED,TMBL0000492,THERKU KALLIDAIKURICHI,"D NO 89 11 RAILWAY LINE STREET, LAKSHMIPURAM, THERKU KALLIDAIKURICHI 627416, TIRUNELVELI DISTRICT",TIRUNELVALI,KALLIDAIKURICHI,TAMIL NADU,9698320888
491,TAMILNAD MERCANTILE BANK LIMITED,TMBL0000493,JAMNAGAR,"SHRI KRISHNA AVENUE, GROUND FLOOR, OPP TOWN HALL, JAMNAGAR 361 001, GUJARAT STATE",JAMNAGAR,JAMNAGAR,GUJARAT,7373741557
492,TAMILNAD MERCANTILE BANK LIMITED,TMBL0000494,IDUMBAVANAM,"198 15, SOUTH STREET, IDUMBAVANAM 614 703, THIRUVARUR DISTRICT",THIRUVARUR,TIRUVARUR,TAMIL NADU,9698220888
493,TAMILNAD MERCANTILE BANK LIMITED,TMBL0000495,GUDUR,"DNO 13 186 GROUND FLOOR, THYAGARAJA STREET, GUDUR 524 101, SPSR NELLORE DISTRICT, ANDHRA PRADESH STATE",NELLORE,GUDUR,ANDHRA PRADESH,7702275143
494,TAMILNAD MERCANTILE BANK LIMITED,TMBL0000496,VENKARAI,"NO 77 60,NORTH STREET, GANDHI NAGAR, KOLAKATTUPUDUR, VENKARAI, PARAMATHIVELUR TK, NAMAKKAL DISTRICT 637 208",NAMAKKAL,PARAMATHI,TAMIL NADU,9698720888
495,TAMILNAD MERCANTILE BANK LIMITED,TMBL0000497,TIRUPATTUR,"134, MAIN ROAD, TIRUPATTUR 630211, SIVAGANGAI DISTRICT",SIVAGANGA,TIRUPATHUR,TAMIL NADU,9750220888
496,TAMILNAD MERCANTILE BANK LIMITED,TMBL0000498,ADIYAMANKOTTAI,"FIRST FLOOR, NO 15 61, 74 TATA NAGAR, SALEM MAIN ROAD, ADIYAMANKOTTAI 636 807, DHARMAPURI DISTRICT.",DHARMAPURI,DHARMAPURI,TAMIL NADU,9698920888
497,TAMILNAD MERCANTILE BANK LIMITED,TMBL0000499,DOD BALLAPUR,"WARD NO 22, MUKTHAMBIKA ROAD, NEAR KALAMMA TEMPLE, DOD BALLAPUR 561 203",BANGALORE RURAL,DODDABALLAPUR,KARNATAKA,9148977305
498,TAMILNAD MERCANTILE BANK LIMITED,TMBL0000500,HYDERABAD MALAKPET,"GROUND FLOOR NO 16 10 1 S 21, SKAM COMPLEX, MALAKPET, HYDERABAD 500 036, TELANGANA STATE",HYDERABAD,HYDERABAD,TELANGANA,7702277143
499,TAMILNAD MERCANTILE BANK LIMITED,TMBL0000501,CHENNAI GUINDY,"5 34, DHANAKOTTI RAJA STREET, SUNDAR NAGAR, EKKATTUTHANGAL, GUINDY, CHENNAI 600 032",CHENNAI,CHENNAI,TAMIL NADU,9698020888
500,TAMILNAD MERCANTILE BANK LIMITED,TMBL0000502,TIRUNELVELI  VANNARAPETTAI,"D NO 10A 10H, FIRST FLOOR, THIRUVANANTHAPURAM ROAD, VANNARAPETTAI, TIRUNELVELI 627 002",TIRUNELVALI,TIRUNELVELI,TAMIL NADU,9698420888
501,TAMILNAD MERCANTILE BANK LIMITED,TMBL0000503,THRISSUR,"GROUND FLOOR, PANDARIL TOWER, RICE BAZAR ROAD, OPP ADAM BAZAR, THRISSUR 680 001",THRISSUR,THRISSUR,KERALA,9400220929
502,TAMILNAD MERCANTILE BANK LIMITED,TMBL0000504,HUBLI,"UPPER GROUND FLOOR, SHOP NO 3 AND 4, SUTARIA COMPLEX, PHASE 2, OPP SATELLITE COMPLEX, KOPPIKKAR ROAD, HUBLI 580 020",DHARWAD,HUBLI-DHARWAD,KARNATAKA,9148977306
503,TAMILNAD MERCANTILE BANK LIMITED,TMBL0000505,MYSURU,"DOOR NO 331, N.S.ROAD, DEVARAJA MOHALLA, MYSURU 570 001",MYSORE,MYSORE,KARNATAKA,9148977304
504,TAMILNAD MERCANTILE BANK LIMITED,TMBL0000506,COIMBATORE PEELAMEDU,"NO 77 TO 83, PUDUR MAIN ROAD, NEAR RTO OFFICE, PEELAMEDU, COIMBATORE 641 004",COIMBATORE,COIMBATORE,TAMIL NADU,9688120888
505,TAMILNAD MERCANTILE BANK LIMITED,TMBL0000507,GURUGRAM,"517 7, JAWAHAR NAGAR, NEW RAILWAY ROAD, NEAR MODERN DIAGNOSTIC CENTRE, GURUGRAM 122 001, GURUGRAM DISTRICT, HARYANA STATE",GURGAON,GURGAON,HARYANA,9958920030
506,TAMILNAD MERCANTILE BANK LIMITED,TMBL0000508,MADURAI PALANGANATHAM,"61B, TPK ROAD, NEAR KUMARAGAM, PALANGANATHAM,   MADURAI 625 003",MADURAI,MADURAI,TAMIL NADU,9688620888
507,TAMILNAD MERCANTILE BANK LIMITED,TMBL0000509,MADURAI PUDUR,"296, AZHAGAR KOVIL MAIN ROAD, KARPAGA VINAYAGAR 11TH STREET, PUDUR, MADURAI 625007",MADURAI,MADURAI,TAMIL NADU,9688920888
508,TAMILNAD MERCANTILE BANK LIMITED,TMBL0000510,TRICHIRAPALLI SRINIVASA NAGAR,"PLOT NO 30 D NO 12 24A, THAMARAA TOWERS, SRINIVASA NAGAR, VAYALUR ROAD, TIRUCHIRAPALLI 620017",TIRUCHIRAPALLI,TIRUCHIRAPPALLI,TAMIL NADU,9715427956
509,TAMILNAD MERCANTILE BANK LIMITED,TMBL0000511,DHRANGADHRA,"20A, 20B, 22A, BUSINESS PARK, OPP SARDAR BAUGH, PGVCL OFFICE, DHRANGADHRA 363 310",SURENDRANAGAR,DHRANGADHRA,GUJARAT,9978146699
510,TAMILNAD MERCANTILE BANK LIMITED,TMBL0000900,ATM CELL,"INFORMATION TECHNOLOGY DEPARTMENT, 196 A B ,ETTAYAPUYRAM ROAD, THOOTHUKUDI 628 002",TOOTHUKUDI,TUTICORIN,TAMIL NADU,9965504055
511,TAMILNAD MERCANTILE BANK LIMITED,TMBL0000951,CPCTOOTHUKUDI,"56 AND 57 BEACH ROAD,TUTICORIN628001",TUTICORIN,TUTICORIN,TAMIL NADU,2338737
512,TAMILNAD MERCANTILE BANK LIMITED,TMBL0000952,CPCNAGERCOIL,"229A,CHARLES MILLER STREET,COLLEGE ROAD,NAGERCOIL629001 TAMILNADU",NAGERCOIL,NAGERCOIL,TAMIL NADU,0
513,TAMILNAD MERCANTILE BANK LIMITED,TMBL0000953,CPCCOIMBATORE,"364DRNANJAPPA ROAD,COIMBATORE641018",COIMBATORE,COIMBATORE,TAMIL NADU,2231925
514,TAMILNAD MERCANTILE BANK LIMITED,TMBL0000954,CPCMADURAI,"28,NAICKER NEW STREET,SIMMAKKAL,MADURAI625001",MADURAI,MADURAI,TAMIL NADU,2630700
515,TAMILNAD MERCANTILE BANK LIMITED,TMBL0000955,CPCMUMBAI,"3A, GANGA VIHAR BUILDING, III FLOOR, 94, LAZI SYED STREET, MANDVI, MUMBAI- 400 003, MAHARASHTRA",GREATER BOMBAY,MUMBAI,MAHARASHTRA,23413141
516,TAMILNAD MERCANTILE BANK LIMITED,TMBL0000956,CPCCHENNAI,"NO.20, GOLLAWAR AGRAHARAM ROAD, FIRST FLOOR, OLD WASHERMANPET, CHENNAI600001",CHENNAI,CHENNAI,TAMIL NADU,25981163
517,TAMILNAD MERCANTILE BANK LIMITED,TMBL0000978,INTEGRATED TREASURY,"269/2-4,AVVAI SHANMUGAM SALAI, ROYAPETTAH, CHENNAI-600014 TAMILNADU",CHENNAI,CHENNAI,TAMIL NADU,28131022
518,TAMILNAD MERCANTILE BANK LIMITED,TMBL0000984,CURRENCY CHEST,"PLOT NO.4923, AC 16 GROUND FLOOR, II ND AVENUE, ANNA NGR WEST, CHENNAI",CHENNAI,CHENNAI,TAMIL NADU,0
519,TAMILNAD MERCANTILE BANK LIMITED,TMBL0000989,CURRENCY CHEST,"222 BY 2, SOUTH VELI STREET, MADURAI",MADURAI,MADURAI,TAMIL NADU,0
520,TAMILNAD MERCANTILE BANK LIMITED,TMBL0000990,INTERNATIONAL BANKING DIVISION,"D.NO.269-2-4, IIND FLOOR, AVVAI SHANMUGHAM ROAD, ROYAPETTAH, CHENNAI - 600 014",CHENNAI,CHENNAI,TAMIL NADU,28131023
521,TAMILNAD MERCANTILE BANK LIMITED,TMBL0000991,RTGS CELL,"A-269/2-4, AVVAI SHANMUGAM SALAI, ROYAPETTAH, CHENNAI-600014 TAMIL NADU",CHENNAI,CHENNAI,TAMIL NADU,28131091
522,TAMILNAD MERCANTILE BANK LIMITED,TMBL0000999,ACCOUNTS DEPARTMENT,"ACCOUNTS DEPARTMENT, HEAD OFFICE, 57, V.E.ROAD, THOOTHUKUDI- 628 002",TOOTHUKUDI,TUTICORIN,TAMIL NADU,2330080
523,TAMILNAD MERCANTILE BANK LIMITED,TMBL0009999,RTGS CELL,"A-269/2-4, AVVAI SHANMUGAM SALAI, ROYAPETTAH, CHENNAI-600014 TAMIL NADU",CHENNAI,CHENNAI,TAMIL NADU,28131091
