,BANK NAME,IFSC,OFFICE,ADDRESS,DISTRICT,CITY,STATE,PHONE
0,JANA SMALL FINANCE BANK LTD,JSFB0004501,"G.S. Road, Dispur","Arunudai Path, Chistian Basti, G.S.Road, Guwahati-781007",Kamrup Metropolitan,Guwahati,ASSAM,0
1,JANA SMALL FINANCE BANK LTD,JSFB0004502,Fancy Bazar,"Dugar Building, 1st Floor, TR Phookan Road, P.O. Fancy Bazar, P. S. Pan Bazar Guwahati, PIN - 781001",Kamrup Metropolitan,Guwahati,ASSAM,0
2,JANA SMALL FINANCE BANK LTD,JSFB0004503,Bhagalpur,"SumanPlaza,Tilkamanjhi,JailRoad,NH80,AnandgarhColony,Bhagalpur,Bihar812001",Bhagalpur,Bhagalpur,BIHAR,0
3,JANA SMALL FINANCE BANK LTD,JSFB0004504,Kankarbagh,"150/B and 151, Block A, Type B, Arya Kumar Road,Rajendra  Nagar,Patna-800016",Patna,Patna,BIHAR,0
4,JANA SMALL FINANCE BANK LTD,JSFB0004505,Muzaffarpur,"YAMUNA Complex, Ground Floor, Mithanpura Chowk Muzaffarpur, Pin- 842002",Muzaffarpur,Muzaffarpur,BIHAR,0
5,JANA SMALL FINANCE BANK LTD,JSFB0004506,Begusarai,"Sushila Complex, Kachahari Road, Begusarai, Bihar- 851101",Begusarai,Begusarai,BIHAR,0
6,JANA SMALL FINANCE BANK LTD,JSFB0004507,Hariharchamber,"Harihar Chamber, Upper Ground Floor, Near Boring road chauraha, Boring Road, Sri Krishna Puri, Patna- 800001",Patna,Patna,BIHAR,0
7,JANA SMALL FINANCE BANK LTD,JSFB0004508,Bhilai,"Ground Floor, Plot no. 28, Shivnath Complex, Beside Bhilai Nagar Nigam, GE Road, Supela, Bhilai, Dist. Durg, Chhattisgarh- 490023",Durg,Bhilai,CHHATTISGARH,0
8,JANA SMALL FINANCE BANK LTD,JSFB0004509,Bilaspur,"Ground Floor Situated at Taramani Parisar, Viyapar vihar Road, Bilaspur- 495001",Bilaspur,Bilaspur,CHHATTISGARH,0
9,JANA SMALL FINANCE BANK LTD,JSFB0004510,Raigarh,"Indian School Building, Opp Camel Girls High School, Near IDBI Bank,  Jagatpura Road, Raigarh-496110",Raigarh,RAIGARH,CHHATTISGARH,0
10,JANA SMALL FINANCE BANK LTD,JSFB0004511,Raipur,"Jana Small Finance Bank,Krishna Complex, Main Road, Sadar Bazar,Opp. Arbindo Netralaya, Raipur Chhattisgarh ┬û 492001,Jana Small Finance Bank",Raipur,Raipur,CHHATTISGARH,0
11,JANA SMALL FINANCE BANK LTD,JSFB0004512,Karol Bagh,"1st floor, 16/12, Aryasamaj Road, Karolbagh, New Delhi - 110005",Delhi,Delhi,DELHI,0
12,JANA SMALL FINANCE BANK LTD,JSFB0004513,Meerabagh,"Ground Floor, Building No.333, Block A, The Janta Co-operative house building society Ltd. Meera Bagh, Pashim Vihar, New Delhi-110087",Delhi,Delhi,DELHI,0
13,JANA SMALL FINANCE BANK LTD,JSFB0004514,Gurgaon,"Shop No. GF-03, Upper ground floor, MGF Megacity Mall, MG Road, Gurgaon, Haryana 122002",Gurgaon,Gurgaon,HARYANA,0
14,JANA SMALL FINANCE BANK LTD,JSFB0004515,South Extension,"Ground Floor, 12, Block-N, South Extensions Part-I, New Delhi -110049",Delhi,Delhi,DELHI,0
15,JANA SMALL FINANCE BANK LTD,JSFB0004516,CHANDKHEDA,"ROOM NO 101 1ST FLOOR SIGMA ARCADE,SERVEY NO 224A-B T P NO 21,FINAL PLOT NO 141/04,BODAKDEV",CHANDKHEDA,AMEDABAD,GUJARAT,0
16,JANA SMALL FINANCE BANK LTD,JSFB0004517,Mithakali,"GF, Auram Avenue (Sun City House), Opp. Kotak Mahindra Bank, Near Gruh Finance,Mithakhali, Ahmedabad - 380006",Ahmedabad,Ahmedabad,GUJARAT,0
17,JANA SMALL FINANCE BANK LTD,JSFB0004518,Alkapuri,"Jana Small Finance Bank Ltd,02 Ground floor, Pancham high street, Opp: Bankers heart institute, Old padra road, Vadodara-390024,ana Small Finance Bank Ltd",Vadodara,Vadodara,GUJARAT,0
18,JANA SMALL FINANCE BANK LTD,JSFB0004519,Bhavnagar,"GF Shop No. 4 and FF - Shop No. 113 and 114,┬á Sapphire Elegance, Sant Kanwar Ram Chowk, Waghawadi Raod, Bhavnagar, Pin 364 002",Bhavnagar,Bhavnagar,GUJARAT,0
19,JANA SMALL FINANCE BANK LTD,JSFB0004520,NAGAON,"1ST FLOOR,NO.176(F),NAGAON MUNICIPALITY,WARD NO.11,ADP ROAD,NEAR RELAX HOTEL,OPP.UTI OFFICE,NAGAON,ASSAM 782001",NAGAON,NAGAON,ASSAM,0
20,JANA SMALL FINANCE BANK LTD,JSFB0004521,CHAPRA,"RAMLILA MATHIA,PARAGANA - MAJHI,P.S-BHAGWAN BAZAR,CHAPRA PO,SARAN DISTRICT,CHAPRA,841301,INDIA",CHAPRA,CHAPRA,BIHAR,0
21,JANA SMALL FINANCE BANK LTD,JSFB0004522,Rajkot,"First Floor,Business Avenue, Near K.K.V Circle, Kalawad Road, Rajkot  360 005",Rajkot,Rajkot,GUJARAT,0
22,JANA SMALL FINANCE BANK LTD,JSFB0004523,REWARI,"GROUND AND 1ST FLOOR NO 3123/C AND PART OF PROPERTY NO 3089,MOHALLA RAMBAS REWARI,REWARI123401",REWARI,REWARI,HARYANA,0
23,JANA SMALL FINANCE BANK LTD,JSFB0004524,Udhna Darwaja,"Shop No 1 and 2, Ground and 1st floor, Shhlok Business Centre, Ring Road, Udhana Darwaja, Surat PIN -┬á 395 002, Gujarat",Surat,Surat,GUJARAT,0
24,JANA SMALL FINANCE BANK LTD,JSFB0004525,Adajan,"Unit No. G-3, Proton Plus, Nr. Croma Store, L P Savani Road, Adajan Surat-395009",Surat,Surat,GUJARAT,0
25,JANA SMALL FINANCE BANK LTD,JSFB0004526,Faridabad,"GroundFloor,SCONo-97,Sector-16,Faridabad-121002,Haryana",Faridabad,Faridabad,HARYANA,0
26,JANA SMALL FINANCE BANK LTD,JSFB0004527,Chandigarh,"Ground Floor, bearing No. SCO Site No- 172-173, Sector-9C, Chandigarh ┬û 160017",Chandigarh,Chandigarh,PUNJAB,0
27,JANA SMALL FINANCE BANK LTD,JSFB0004528,Panipat,"Ground floor, building: Hotel Green INN, Plot no 2and3, Lajpat Nagar, On main G.T Road, Near UCO Bank, Panipat, Haryana-132103",Panipat,Panipat,HARYANA,0
28,JANA SMALL FINANCE BANK LTD,JSFB0004529,Dhanbad,"Savitri Appartment, First Floor, Shastri Nagar, Bank More, Jharia Road, Dhanbad, Pin- 826001",Dhanbad,Dhanbad,JHARKHAND,0
29,JANA SMALL FINANCE BANK LTD,JSFB0004530,Hazaribagh,"M. R. Complex, Office No-1, 1St Floor, Near Indrapuri Chowk, Opp. Paper House, Hazaribagh, Pin- 825301, Jharkhand",Hazaribagh,Hazaribagh,JHARKHAND,0
30,JANA SMALL FINANCE BANK LTD,JSFB0004531,Jamshedpur,"SWAMY Building, Ground Floor, Bistupur Main Road,Opposite Ram Mandir Jamshedpur, PIN- 831001",Purbi Singhbum,Jamshedpur,JHARKHAND,0
31,JANA SMALL FINANCE BANK LTD,JSFB0004532,Ranchi,"Gallaxia Mall, Ratu Road, Ranchi, PIN- 834005. Jharkhand",Ranchi,Ranchi,HARKHAND,0
32,JANA SMALL FINANCE BANK LTD,JSFB0004533,MEENAKSHI SHOPPING MALL,"SHOP NO F016,FIRST FLOOR,NEXT TO METRO SHOES MUFTI CLOTH SHOPS,BANNERGHATTA ROAD,MEENAKSHI MALL,OPPOSITE TO MEENAKSHI TEMPLE,HULIMAVU,BANGALORE 560076",BANGALORE,BANGALORE,KARNATAKA,0
33,JANA SMALL FINANCE BANK LTD,JSFB0004534,Jayanagar,"Nandini Complex, Ground Floor, No. 300/A-70, 10th Main, 36th Cross,5th Block,┬áJayanagara, Bangalore 560041, Karnataka",Bangalore,Bangalore,KARNATAKA,0
34,JANA SMALL FINANCE BANK LTD,JSFB0004535,Kengeri,"558,BDA,1StMainRoad,KengeriUpanagara/Satellite,OppTyoVidyaGanapathiTemple,NextToJanalakshmi,Pincode-560060",Bangalore,Bangalore,KARNATAKA,0
35,JANA SMALL FINANCE BANK LTD,JSFB0004536,Koramangala,"001, 80 Feet Road, Koramangala, 4 Th block, Bangalore-560034.",Bangalore,Bangalore,KARNATAKA,0
36,JANA SMALL FINANCE BANK LTD,JSFB0004537,Jeevanbhema Nagar,"Gr Meznine, SECTOR XI, M-25, 10TH MAIN ROAD, HAL 3RD STAGE, JEEVANBHIMA NAGAR, BANGALORE 560075",Bangalore,Bangalore,KARNATAKA,0
37,JANA SMALL FINANCE BANK LTD,JSFB0004538,Malleshwaram,"Dharma Vijeth.N;Ground Floor, #231; 2nd Main Road (Sampige Main Road); 15th Cross; Malleshwaram; BLR-560003",Bangalore,Bangalore,KARNATAKA,0
38,JANA SMALL FINANCE BANK LTD,JSFB0004539,Belgaum,"2714/1 ,Ground Floor, Unique Tower, Next To Big Bazar; Opposite to Axis bank,Khanapur Road;Angol Extension;┬á Belgaum-590003",Belgaum,Belgaum,KARNATAKA,0
39,JANA SMALL FINANCE BANK LTD,JSFB0004541,MOTIHARI,"1ST FLOOR BUILDING NAME PRIYA COMPLEX,RAJA BAZAR KHAYHA NO 2 KHESARA NO 241,MOTIHARI,845401,INDIA",MOTIHARI,MOTIHARI,BIHAR,0
40,JANA SMALL FINANCE BANK LTD,JSFB0004542,Bijapur,"9, MIG, KHB Colony;Sholapur Road;Bijapur,pin: 586103",Bijapur,Bijapur,KARNATAKA,0
41,JANA SMALL FINANCE BANK LTD,JSFB0004543,Davangere,"#3365/5B, Near to Lakshmi floor mill, Shamanur road, Davanagere",Davangere,Davanagere,KARNATAKA,0
42,JANA SMALL FINANCE BANK LTD,JSFB0004544,Hubli,"Upper Ground Floor, Vidya Nagar,unkal village, Opp BVB Engg College, Hubli taluk,Dharwad -580021, Karnataka",Dharwad,Hubli,KARNATAKA,0
43,JANA SMALL FINANCE BANK LTD,JSFB0004545,GULBARGA,"1ST FLOOR GROUND FLOOR,H NO 2-907/23/2DR SAVITA COMMERCIAL COMPLEX OPP BASAWESHWARA HOSPITAL SEDAM ROAD,GULBARGA-585105",GULBARGA,GULBARGA,KARNATAKA,0
44,JANA SMALL FINANCE BANK LTD,JSFB0004546,Tumkur,"No.27, Ground Floor,Hajee Basha Sab Arcade-I, Gangothri Road, Tumkur ┬û 572101",Tumkur,Tumkur,KARNATAKA,0
45,JANA SMALL FINANCE BANK LTD,JSFB0004547,Mysore,"No.1, Sathvik Splendor building OR HSBC building, Ground Floor, Kalidasa Road, 3rd Block, Jayalakshmipuram, VV Mohalla,Mysore -570012, Karnataka",Mysore,Mysore,KARNATAKA,0
46,JANA SMALL FINANCE BANK LTD,JSFB0004548,Raichur,"#1-4-380(old),1-4-154/35(New),H.K Dumba nursing Home,Orthopedic Centre,I.B.road,Near Railway station,Raichur-584101.",Raichur,Raichur,KARNATAKA,0
47,JANA SMALL FINANCE BANK LTD,JSFB0004549,M P Nagar Zone 2,"Plot no. 131/01 MP Nagar, Zone-2 ,Ground Floor, Near Vodafone, Bhopal, Pin 462011",Bhopal,Bhopal,MADHYA PRADESH,0
48,JANA SMALL FINANCE BANK LTD,JSFB0004550,HAMIDIA ROAD,"SECOND FLOOR,S-1& 5-2,PLOT NO.8/1,SURBHI RAGHU PLAZA,HAMIDIYA ROAD BHOPAL-462001",BHOPAL,BHOPAL,MADHYA PRADESH,0
49,JANA SMALL FINANCE BANK LTD,JSFB0004551,Gwalior,House No. 35/305 Falke Ki Ganth Rammandir Gali Iashkar Gwalior -474001,Gwalior,Gwalior,MADHYA PRADESH,0
50,JANA SMALL FINANCE BANK LTD,JSFB0004552,Vijaynagar,"Plot No. 306A, Scheme No. 54, PU-4, Near Country Inn Hotel, Main AB Road,Vijaynagar, Indore-452001",Indore,Indore,MADHYA PRADESH,0
51,JANA SMALL FINANCE BANK LTD,JSFB0004553,Bhavarkuan,"VedaShopNo5AND6SurveyNo.1619/3,1619/4AND1619/5,KasbaIndore,DistIndore",Indore,Indore,MADHYAPRADESH,0
52,JANA SMALL FINANCE BANK LTD,JSFB0004554,MADAN MAHAL-JABALPUR,"GROUND FLOOR,SHIVAHRE,COMPLEX,NEAR GULZAR HOTEL,NURINGH WARD,MADAN MAHAL,NAGPUR ROAD,JABALPUR MP-482002",JABALPUR,JABALPUR,MADHYA PRADESH,0
53,JANA SMALL FINANCE BANK LTD,JSFB0004555,ARRAH,"APPORVA TOWER,MAHAJAN TOLI,NEAR SADAR HOSPITAL ROAD,ARRAH,802301,INDIA",ARRAH,ARRAH,BIHAR,0
54,JANA SMALL FINANCE BANK LTD,JSFB0004556,BIHAR SHARIF,"1ST FLOOR CITY CENTRE MOH BHAROPAR,PATNA - RANCHI ROAD ANCHAL BIHARSARIF,NALANDA,803101,INDIA",BIHAR SHARIF,BIHAR SHARIF,BIHAR,0
55,JANA SMALL FINANCE BANK LTD,JSFB0004557,Ujjain,"Plot No. A Vishala Kshetra Commercial Cum Residential Youja Ujjain,Divine Vally, b block Ujjian MP, 456010",Ujjain,Ujjain,MADHYA PRADESH,0
56,JANA SMALL FINANCE BANK LTD,JSFB0004558,Ratlam,"Upper Ground Floor, Ratlam Plaza, Shop No. 16/45, Situated New Road, Jawhar Marg, Ratlam, MP. Pin- 457001",Ratlam,Ratlam,MADHYA PRADESH,0
57,JANA SMALL FINANCE BANK LTD,JSFB0004560,Aurangabad,"5 and 16, Ground Floor,┬á Sai Business Park, 7 Hills, Surana Nagar, Jalna Road, Aurangabad, Pin 431 003",Aurangabad,Aurangabad,MAHARASHTRA,0
58,JANA SMALL FINANCE BANK LTD,JSFB0004562,BALASORE,"GROUND& 1ST FLOOR,PADMALAYAM COMPLEX,NO.476/1722,PLOT NO.566,OPP.BUS STOP,SHAHADEV KHUNTABALASORE756001",BALASORE,BALASORE,ODISHA,0
59,JANA SMALL FINANCE BANK LTD,JSFB0004563,Jalgaon,"Unit No. 175, Ground and Mezzanine Floor, Situated at Jilhapeth,Visanji Nagar,Jalgaon 425001",Jalgaon,Jalgaon,MAHARASHTRA,0
60,JANA SMALL FINANCE BANK LTD,JSFB0004564,Sambhaji Nagar,"Unit No. 324,┬á Upper Ground Floor,┬á Revolution, C.S.No.324, E Ward, Station Road,┬á Kolhapur ┬û 416 003",Kolhapur,Kolhapur,MAHARASHTRA,0
61,JANA SMALL FINANCE BANK LTD,JSFB0004565,Mormugao,"UNIT NO. 12 13, GROUND AND MEZZANINE FLOOR, KURTARKAR PLAZA, KURTARKAR LANDMARK, MARGOA, GOA- 403601",South Goa,Margao,GOA,0
62,JANA SMALL FINANCE BANK LTD,JSFB0004566,Latur,"Ground Floor,  Bhima Bhanu Bhavan, Patanjali Aarogya Kendra, Rushikesh Agency, Near Vishwa Super Market, Barshi Road, Latur ┬û 413 531",Latur,Latur,MAHARASHTRA,0
63,JANA SMALL FINANCE BANK LTD,JSFB0004567,Thane,"Shop NO. 4 and 5, ground floor, India bulls mint Near Hiranandani Meadows, Gladys road, Pokhran road no. Thane west Mumbai-400610",Thane,Navi Mumbai,MAHARASHTRA,0
64,JANA SMALL FINANCE BANK LTD,JSFB0004568,Nashik,"Plot No. 3 to 10, Room No. 4, Mezzanine and Ground Floor, Nexus Point, Near Bhosale Military School Gate, Mahatma Nagar, Nashik 422007",Nasik,Nasik,MAHARASHTRA,0
65,JANA SMALL FINANCE BANK LTD,JSFB0004569,Pune,"S.No.32/1,Basement Ground Floor 1,2,3┬á Floors,┬á Unecha House, Opp.Raja Mantri Udyan, Karve Road, Pune-411004",Pune,Pune,MAHARASHTRA,0
66,JANA SMALL FINANCE BANK LTD,JSFB0004570,Chinchwad,"Unit No. 2,┬á Ground Floor, Situated at The Hub, Dange Chowk, Thergaon, Pune-411033",Pune,Pune,MAHARASHTRA,0
67,JANA SMALL FINANCE BANK LTD,JSFB0004571,BORIVALI JPC,"GROUND FLOOR SHOP NO 1,2,&3,SHREE GOVIND APARTMENTS DATTAPADA SCHOOL ROAD BORIVALI,MUMBAI,400066,INDIA",MUMBAI SUBURBAN,GREATER MUMBAI,MAHARASHTRA,0
68,JANA SMALL FINANCE BANK LTD,JSFB0004572,PURI,"1ST FLOOR,VIP PLAZA,PLOT NO.19,MOUZA -PURI,SAMANTA CHANDRASEKHAR NAGAR,VIP ROADPURI752001",PURI,PURI,ODISHA,0
69,JANA SMALL FINANCE BANK LTD,JSFB0004573,Worli Naka,"87, Atur House, Shop No. 6, ""G"" ward of MCGM Annie Besant Road, Worli Naka, Mumbai ┬û400018",Mumbai,Mumbai,MAHARASHTRA,0
70,JANA SMALL FINANCE BANK LTD,JSFB0004574,Lakshminagar,"Ground Floor, Plot No.08, House No.245, 8 Rasta Sqare, Lakshmi Nagar, Mouza-Ajni, Tahsil and Dist Nagpur, Maharashtra - Pin - 440022",Nagpur,Nagpur,MAHARASHTRA,0
71,JANA SMALL FINANCE BANK LTD,JSFB0004575,Wardhamanagar,"Poonam Mall shop no. 8 ,beside Dominos pizza, wardhman nager Nagpur - 440008",Nagpur,Nagpur,MAHARASHTRA,0
72,JANA SMALL FINANCE BANK LTD,JSFB0004576,Vashi,"Unit No. 17 (A), Ground Floor, Ganesh Tower, Sector ┬û 1, Plot No.9, Vashi (W), Mumbai ┬û 400 703",Thane,Navi Mumbai,MAHARASHTRA,0
73,JANA SMALL FINANCE BANK LTD,JSFB0004577,Ghatkopar,"Shop  No. 17,18,19 and 20,  Ground Floor,  Neelkant Regent,  R N Narkar Road, Ghatkopar-77",Mumbai,Mumbai,MAHARASHTRA,0
74,JANA SMALL FINANCE BANK LTD,JSFB0004578,Nanded,"Ground Floor, Situated at Sahakar Sanjavani, Near Buldhan Urban Socity Vip Road Nanded ┬û 431 602",Nanded,Nanded,MAHARASHTRA,0
75,JANA SMALL FINANCE BANK LTD,JSFB0004579,Solapur,"Unit No. 114/12, Ground Floor, Parth Chowk, opposite to Shubhray Art Gallary,  Near to Dhanraj Girji Hospital ,Radhakrishna Colony, Muraji Peth Solapur 413 001",Solapur,Solapur,MAHARASHTRA,0
76,JANA SMALL FINANCE BANK LTD,JSFB0004580,Bapujinagar,"Plot No: 3-Bapuji Nagar, Janpath, Bhubaneswar, Pin- 751009",Khurda,Bhubaneshwar,ODISHA,0
77,JANA SMALL FINANCE BANK LTD,JSFB0004581,Raurkela,"H-1, Civil Township,Panposh,  Rourkela, Pin- 769004",Sundargarh,Raurkela,ODISHA,0
78,JANA SMALL FINANCE BANK LTD,JSFB0004582,Sambalpur,"Unit # 14, Danipali, Budharaja, Sambalpur, Odisha - 768004",Sambalpur,Sambalpur,ODISHA,0
79,JANA SMALL FINANCE BANK LTD,JSFB0004583,Jalandhar,"Ground Floor and┬á First Floor, property No. 258-L, Model Town, Jalandhar -144003",Jalandhar,Jalandhar,PUNJAB,0
80,JANA SMALL FINANCE BANK LTD,JSFB0004584,Bathinda,"G.F, 2907/A/1, Swadesh Complex, G. T. Road, Bathinda,┬á Near Zila Parishad, Bathinda Punjab┬á - 151005",Bhatinda,Bathinda,PUNJAB,0
81,JANA SMALL FINANCE BANK LTD,JSFB0004585,Ludhiana,"Ground Floor, Shanghai Tower, Shop cum Flat No. 13, Feroz Gandhi Market, Municipal Council no. B-26, Ludhiana (Punjab),Pin: 141001",Ludhiana,Ludhiana,PUNJAB,0
82,JANA SMALL FINANCE BANK LTD,JSFB0004586,Patiala,"Ground Floor, SCO ┬û 6, Leela Bhawan Chowk, Patiala ┬û 147001",Patiala,Patiala,PUNJAB,0
83,JANA SMALL FINANCE BANK LTD,JSFB0004587,Bikaner,"Ground Floor and First Floor, ┬áPlot no. 18┬á and Plot no. 19, ┬áOld Industrial Area, Rani Bazar, Bikaner, Rajasthan - 334001",Bikaner,Bikaner,RAJASTHAN,0
84,JANA SMALL FINANCE BANK LTD,JSFB0004588,Bhilwara,"Gopal Plaza, Ajmer Road, Opp. BioScope Theatre, Bhilwara,Raj-311001",Bhilwara,Bhilwara,RAJASTHAN,0
85,JANA SMALL FINANCE BANK LTD,JSFB0004589,Alwar,"Ground┬á Floor, Jayanti Mall, Near Ashok Circle, Alwar, Rajasthan - 301001",Alwar,Alwar,RAJASTHAN,0
86,JANA SMALL FINANCE BANK LTD,JSFB0004590,Jaipur,"G-2, Ground floor, Green House, plot no. O-15, Ashok Marg, Jaipur-302001",Jaipur,Jaipur,RAJASTHAN,0
87,JANA SMALL FINANCE BANK LTD,JSFB0004591,JODHPUR,"GROUND FLOOR PLOT NO.87-B/4,BACHHRAJ JI KA BHAGH,SARDARPURA,CHOPASANI ROAD,JODHPUR,RAJASTHAN -342001",JODHPUR,JODHPUR,RAJASTHAN,0
88,JANA SMALL FINANCE BANK LTD,JSFB0004592,Kota,"Ground floor, Plot No. 389,Shopping Centre, Near Ghore wala Baba Circle, Kota-324007",Kota,Kota,RAJASTHAN,0
89,JANA SMALL FINANCE BANK LTD,JSFB0004593,Udaipur,"Ground Floor, Ridhi Sidhi complex, Panchsil Market, Sector-5, Hiran Magri,Main Road, Udaipur, Rajasthan-313001",Udaipur,Udaipur,RAJASTHAN,0
90,JANA SMALL FINANCE BANK LTD,JSFB0004594,Velachery,"Plot No.354,Plot No.355 and Plot No.356 Gothavari Street, 100 feet road, Bharathi Nagar, Chennai-600113",Chennai,Chennai,TAMIL NADU,0
91,JANA SMALL FINANCE BANK LTD,JSFB0004595,Mandavali,"Door No.38,Sri ram niwas, Venkatakrishna Iyer Road, Mandaveli,Chennai-600028",Chennai,Chennai,TAMIL NADU,0
92,JANA SMALL FINANCE BANK LTD,JSFB0004596,Kilpauk,"Windsor Palace Door No.34,Balfour road,Kilpauk,Chennai-10",Chennai,Chennai,TAMIL NADU,0
93,JANA SMALL FINANCE BANK LTD,JSFB0004597,Mogappair,"Plot No 12/559, SVK plaza, MIG type,Thiruvallur Street, JJ Nagar, 12th Block, East Mogappair Chennai 600037",Chennai,Chennai,TAMIL NADU,0
94,JANA SMALL FINANCE BANK LTD,JSFB0004598,Coimbatore,"272B, VKS complex, NSR Road, Saibaba Colony, Coimbatore - 641011, Tamilnadu",Coimbatore,Coimbatore,TAMIL NADU,0
95,JANA SMALL FINANCE BANK LTD,JSFB0004599,Kodambakkam,"Old No. 38, New no. 165, Arcot Road, Kodambakkam, Chennai - 600024",Chennai,Chennai,TAMIL NADU,0
96,JANA SMALL FINANCE BANK LTD,JSFB0004600,Puducherry,"GKM┬áArcade, No. 2 AND 4, West cross, 100 feet ECR road, Anna nagar, Pondicherry - 605005",Puducherry,Puducherry,PUDUCHERRY,0
97,JANA SMALL FINANCE BANK LTD,JSFB0004601,Madurai,"No.10KrishnapuramColonyMainRoad,MahatmaGandhiNagar,Madurai-625014",Madurai,Madurai,TAMILNADU,0
98,JANA SMALL FINANCE BANK LTD,JSFB0004602,Tirunelveli,"No.13,South Bye Pass Road, Vannarapettai, Tirunelveli - 627003",Tirunelveli,Tirunelveli,TAMIL NADU,0
99,JANA SMALL FINANCE BANK LTD,JSFB0004603,Salem,"D.No.259/4/129, Saradha College Road, Opp To Anna Salai, Alagapuram, Salem -636007",Salem,Salem,TAMIL NADU,0
100,JANA SMALL FINANCE BANK LTD,JSFB0004604,Tiruchirappalli,"74ASaliRoad,ThillaiNagar,Trichy-620018",Tiruchirappalli,Tiruchirappalli,TAMILNADU,0
101,JANA SMALL FINANCE BANK LTD,JSFB0004605,"SANJAY PLACE, AGRA","B-7,B-8& G-7,G-8,BASEMENT& GROUND FLOOR OF UP TOWER,SANJAY PLACE,AGRA,UTTAR PRADESH -121001,INDIA",AGRA,AGRA,UTTAR PRADESH,0
102,JANA SMALL FINANCE BANK LTD,JSFB0004606,Kanpur,"Ground Floor, First Floor, Second Floor, Property no. 14/121-A, Parade, Kanpur, UP-208001",Kanpur Nagar,Kanpur,UTTAR PRADESH,0
103,JANA SMALL FINANCE BANK LTD,JSFB0004607,Allahabad,"ground floor, part of office premises no. 66/2B/2A, Lal bahadur shashtri Marg, civil station Allahabad-211002",Allahabad,Allahabad,UTTAR PRADESH,0
104,JANA SMALL FINANCE BANK LTD,JSFB0004608,KURUKSHETRA,"GROUND FLOOR,KHASRA NO.-150-151,PIPLI ROAD,OPP.CANARA BANK,NR.SYNDICATE BANK,KURUKSHETRA132118",KURUKSHETRA,KURUKSHETRA,HARYANA,0
105,JANA SMALL FINANCE BANK LTD,JSFB0004609,Ghaziabad,"GroundFloor,D-45,PocketD,RajnagarDistrictCentre,Ghaziabad┬û201001,UP",Ghaziabad,Ghaziabad,UTTARPRADESH,0
106,JANA SMALL FINANCE BANK LTD,JSFB0004610,Lucknow,"Ground Floor, Cyber Heights Building, Shop No. G-01, municipal number TC/G-2/2 and TC/G-5/5, Vibhuti Khand, Gomti Nagar, Lucknow (U.P.) - 226010",Lucknow,Lucknow,UTTAR PRADESH,0
107,JANA SMALL FINANCE BANK LTD,JSFB0004612,Meerut,"shop No. GF 39A, GF 40, PVS Mall, Shashtri Nagar, Meerut, UP-250004",Meerut,Meerut,UTTAR PRADESH,0
108,JANA SMALL FINANCE BANK LTD,JSFB0004613,KK NAGAR,"1ST FLOOR,DOOR NO.110,PLOT NO.369,VASANTHAM ARCADERAJARAM SALAI,K K NAGAR,TRICHY-620021",TRICHY,TRICHY,TAMIL NADU,0
109,JANA SMALL FINANCE BANK LTD,JSFB0004614,"SIGRA, VARANASI","D64/98-A1,NEAR BSNL OFFICE,MADHOPUR SIGRA,VARANASI -221002",VARANASI,VARANASI,UTTAR PRADESH,0
110,JANA SMALL FINANCE BANK LTD,JSFB0004615,AYOTHIPATTINAM,"1ST FLOOR,MASINAICKNAPATTI VILLAGE,AYOTHIPATTINAM,VALAPADDY,SALEM-636103",SALEM,SALEM,TAMIL NADU,0
111,JANA SMALL FINANCE BANK LTD,JSFB0004616,RAJPUR ROAD DEHRADUN,"GROUND FLOOR,NO.74,RAJPUR ROAD,SHRI RAM ARCADE,DEHRADUN,248001,INDIA",DEHRADUN,DEHRADUN,UTTARAKHAND,0
112,JANA SMALL FINANCE BANK LTD,JSFB0004617,THAKURPUKUR,"RIDDHI-SIDDHI SREE,GROUND& FIRST FLOOR,203,M.G.ROAD,KOLKATA,PIN - 700063",KOLKATA,THAKURPUKUR,WEST BENGAL,0
113,JANA SMALL FINANCE BANK LTD,JSFB0004618,Asansole,"85 G T Road,Murgashol, Asansol- 713303",Asansole,Asansole,WEST BENGAL,0
114,JANA SMALL FINANCE BANK LTD,JSFB0004619,New Alipore,"Gajraj Pearls,First Floor, 26, Bankim Mukherjee Sarani, Ward No. 81, PS. New Alipore, Kolkata - 700053",Kolkata,Kolkata,WEST BENGAL,0
115,JANA SMALL FINANCE BANK LTD,JSFB0004620,"Diamond Heritage, Strand Road","Diamond Heritage, 16 Strand Road Kolkata- 700001",Kolkata,Kolkata,WEST BENGAL,0
116,JANA SMALL FINANCE BANK LTD,JSFB0004621,VIP ROAD,"UNIT NO.6 ( PART )& UNIT NO.7/ ( FULL),GROUND FLOOR,SITUATED AT ALCOVE GLORIA MALL,VIP ROAD,KOLKATA,PIN - 700048",KOLKATA,KOLKATA,WEST BENGAL,0
117,JANA SMALL FINANCE BANK LTD,JSFB0004622,SALT LAKE,"ANDROMEDA,FIRST FLOOR,DD-30,SECTOR -L,SALT LAKE,KOLKATA - 700 064",KOLKATA,KOLKATA,WEST BENGAL,0
118,JANA SMALL FINANCE BANK LTD,JSFB0004623,Garia,"Rajat Windsor, 362/1A, N.S.C. Bose Rd, Kol-700047",Kolkata,Kolkata,WEST BENGAL,0
119,JANA SMALL FINANCE BANK LTD,JSFB0004624,Howrah Maidan,"GROUND FLOOR, 23/2, MAULANA ABUL KALAM AZAD ROAD,P.S. GOLABARI HOWRAH - 711101, WEST BENGAL",Howrah┬á,KOLKATA,WEST BENGAL,0
120,JANA SMALL FINANCE BANK LTD,JSFB0004625,Siliguri,"M-Square, Lower Ground Floor, Opp Sachitra Hotel, Sevoke Road, Siliguri, PIN-734003",Darjiling,Siliguri,WEST BENGAL,0
121,JANA SMALL FINANCE BANK LTD,JSFB0004627,Bongaigaon Municipality,"SANGRAM NILOY, MAIN ROAD, BORPARA, BONGAINGAON, PIN- 783380",Bongaigaon,Bongaigaon,ASSAM,0
122,JANA SMALL FINANCE BANK LTD,JSFB0004628,Sivasagar,"Lohit Tower, Kanak Nagar A.T. Road, Sibsagar, PIN-785640",Sibsagar,Sivasagar,ASSAM,0
123,JANA SMALL FINANCE BANK LTD,JSFB0004629,Golaghat Municipal Board,"OM Arav, Thana Road, Ward No. 7, Golaghat, PIN- 785621, Assam",Golaghat,Golaghat,ASSAM,0
124,JANA SMALL FINANCE BANK LTD,JSFB0004630,Bhatapara,"Ground Floor ,City Center Main Road Bhatapara- 493118",Raipur,Bhatapara,CHHATTISGARH,0
125,JANA SMALL FINANCE BANK LTD,JSFB0004631,Mahasamund Municipality,Opposite Railway Station Beside Vijaya Bank Mahasumund 493445,Mahasamund,MAHASAMUND,CHHATTISGARH,0
126,JANA SMALL FINANCE BANK LTD,JSFB0004632,Dhamtari Muncipality,"Devendra Mishra┬Æs House, Beside Gali No. 2, Daak Bangla Ward, Gunder Devi Road, Vivekanand Nagar, Dhamtari, Chhattisgarh, Pin- 493773",Dhamtari,Dhamtari,CHHATTISGARH,0
127,JANA SMALL FINANCE BANK LTD,JSFB0004633,Champa Muncipality,"Ground Floor, Didwania Complex, Sadar Bazar Road, Beside Bank of Baroda, Champa, Chhattisgarh. Pin- 495671",Janjgir Champa,JANJGIR CHAMPA,CHHATTISGARH,0
128,JANA SMALL FINANCE BANK LTD,JSFB0004634,Dongargarh,"Gandhi Ward no 18, Near Goal Bazar, Dongargarh , Pin ┬û 491445.",Rajnandgaon,Rajnandgaon,CHHATTISGARH,0
129,JANA SMALL FINANCE BANK LTD,JSFB0004636,Bardoli muncipality,"UG1,2,3 and LG 1,2,3, Ground  First Floor, Shreeji Complex, National Highway No. 6, Surat - Dhulla Road, Opp. Manik Moti Complex, Bardoli ┬û 394601",Surat,Bardoli,GUJARAT,0
130,JANA SMALL FINANCE BANK LTD,JSFB0004638,Palghar,"Shop No. 3, Ground Floor, opp. Anand Ashram, Mahim Road, Palghar - 401404",Palghar,Palghar,MAHARASHTRA,0
131,JANA SMALL FINANCE BANK LTD,JSFB0004641,SUNDER NAGAR-RAIPUR,"1ST FLOOR,MALAY HEIGHT,FRONT OF RESERVE BANK OF INDIA,MAHADEO GHAT ROAD,SUNDER NAGAR,RAIPUR ( CG ) -492001",RAIPUR,RAIPUR,CHHATTISGARH,0
132,JANA SMALL FINANCE BANK LTD,JSFB0004643,MALDA,"GROUND FLOOR,PLOT NO.831,R.S.NO.665,663&664,SUBHASH PALLY,JHALIJHALIA,MALDA-732102",MALDA,MALDA,WEST BENGAL,0
133,JANA SMALL FINANCE BANK LTD,JSFB0004644,Chamarajanagar,"No:1809/1810;First floor , Rama samudra, Town ""F"" division, BR Hills Road, , Chamarajanagara;Pin:571313",Chamarajanagar,Chamarajanagar,KARNATAKA,0
134,JANA SMALL FINANCE BANK LTD,JSFB0004645,Hosakote,"# 2, Haneshumari No. 2434/2, S.A Complex,Ramakrishna Road,,M.v Extension,Hoskote: 562114",Bangalore Rural,Hosakote,KARNATAKA,0
135,JANA SMALL FINANCE BANK LTD,JSFB0004646,ATTUR,"1ST FLOOR SURVEY NO 472/2 OLD WARD NO 20 NEW WARD NO 24,PLOT NO A/1 GANDHI ROAD 1ST STREET,ATTUR-636112",SALEM,SALEM,TAMIL NADU,0
136,JANA SMALL FINANCE BANK LTD,JSFB0004648,Mandideep,"Plot No. 23 A, Ward no. 12,Indira Nagar,  Dist-Raisen Mandideep - 462046",Raisen,Raisen,MADHYA PRADESH,0
137,JANA SMALL FINANCE BANK LTD,JSFB0004649,RAJPURA,"GROUND FLOOR,SHOP NO.4&5,A BLOCK,CALIBRE MARKET,RAJPURA,PUNJAB - 140401",RAJPURA,RAJPURA,PUNJAB,0
138,JANA SMALL FINANCE BANK LTD,JSFB0004650,Ashta,"Shri Krishna Agro Industries Astha Kannod Road, Talkies Chowraha, Astha, 466116",Sehore,Sehore,MADHYA PRADESH,0
139,JANA SMALL FINANCE BANK LTD,JSFB0004651,Pipariya,Plot No. 172/14 and 172/13 Village HathvasTehsil Pipariya Distt Hoshangabad MP-461775,Hoshangabad,Hoshangabad,MADHYA PRADESH,0
140,JANA SMALL FINANCE BANK LTD,JSFB0004652,Bargarh,"Plot No-789/1704 and 789/1705,First Floor,C/O Jyoti Eyecare,Khajuritikra,Bargarh,Odisha,Pin-768028",Bargarh,Bargarh,ODISHA,0
141,JANA SMALL FINANCE BANK LTD,JSFB0004653,Khordha,"Laxmi Narayan Kalayn Mandap, Plot No: 997/4237 and 34/4363, Uparsahi, 1st Floor, Khordha, Pin-752055, Odisha",Khurda,Khordha,ODISHA,0
142,JANA SMALL FINANCE BANK LTD,JSFB0004654,Balangir,"Plot No- 926 and 926/1054, Near Idbi Bank, K.Mart, Bolangir, Odisha-767001",Balangir,Balangir,ODISHA,0
143,JANA SMALL FINANCE BANK LTD,JSFB0004655,Pollachi,"7/1, Venkatramana Round Road, Mahalingapuram, Pollachi - 642 001",Coimbatore,Coimbatore,TAMIL NADU,0
144,JANA SMALL FINANCE BANK LTD,JSFB0004656,Chengalpattu,"Plot No -23, Ward no. 3, GST Road, Alagesan nagar Extention,Chengalpattu, Kancheepuram District ,Pin : 603001.",Kancheepuram,Chengalpattu,TAMIL NADU,0
145,JANA SMALL FINANCE BANK LTD,JSFB0004657,Omalur,"482/5, Shrishanmuga Arcade ,Dharmapuri Main Road, Omalur(Taluk) - Salem -636455",Salem,Salem,TAMIL NADU,0
146,JANA SMALL FINANCE BANK LTD,JSFB0004658,THENI,"2ND FLOOR,WARD NO.16,NEHRUJI ROAD,SALESOCIETY STREET,ALLINAGARAM VILLAGE,SRO THENITHENI625531",THENI ALLINAGARAM,THENI ALLINAGARAM,TAMIL NADU,0
147,JANA SMALL FINANCE BANK LTD,JSFB0004659,Tiruchengode,"No: 29, Sankagiri Main Road, Selvam Sadan, Opp To Government Higher Secondary Girls School,Thiruchengode,Namakkal Dist, Tamilnadu-637211.",Namakkal,Tiruchengode,TAMIL NADU,0
148,JANA SMALL FINANCE BANK LTD,JSFB0004660,Gobichettipalayam,"No. 235, Door no. 47 D5, Jawaharlal Nehru Street, Veerapandi Village, Muthuvelappan Street,Gobichettipalayam-638452",Erode,Gobichettipalayam,TAMIL NADU,0
149,JANA SMALL FINANCE BANK LTD,JSFB0004661,Punjaipuliampatti,"#607,Jawahar Main road,Opposite Vishnu Tvs, Punjaipuliampatti-638459.",Erode,ERODE,TAMIL NADU,0
150,JANA SMALL FINANCE BANK LTD,JSFB0004662,PADRAUNA,"GROUND FLOOR,LARI MANZIL,CHHAWANI KASIA ROAD,PANDRAUNA,274304,INDIA",PADRAUNA,PADRAUNA,UTTAR PRADESH,0
151,JANA SMALL FINANCE BANK LTD,JSFB0004665,DEVANAHALLI,"GROUND FLOOR,NO.5 NEW KHATA NO.839/3735/3735/5,OLD KHATA NO.3735/3735/5,S.NARASIMHAIAH LAYOUT,BOODIGERE ROAD DEVANAHALLI TOWN-BANGALORE-562110",BANGALORE,BANGALORE,KARNATAKA,0
152,JANA SMALL FINANCE BANK LTD,JSFB0004667,Rampurhat,"Plot No. 314, Lotus Press More, Ward No. 9, opp. Relax Hotel, Rampurhat, PIN- 731224.",Birbhum,Rampurhat,WEST BENGAL,0
153,JANA SMALL FINANCE BANK LTD,JSFB0004668,Baduria muncipality,"Baduria Chowmatha, Near SBI, P.O. Baduria, First Floor, Dist. 24 Parganas (N), West Bengal, PIN- 743437",North 24 Parganas,Baduria muncipality,WEST BENGAL,0
154,JANA SMALL FINANCE BANK LTD,JSFB0004670,Katwa,"Mira Plaza, Nazrul Sarani, Circus Maidan, Katwa, Pin- 713130",Barddhaman,Katwa,WEST BENGAL,0
155,JANA SMALL FINANCE BANK LTD,JSFB0004671,Memari,"Nabapally More, Opposite PWD Office, Near New Bus Stand, Memari, Pin - 713146",Barddhaman,Memari,WEST BENGAL,0
156,JANA SMALL FINANCE BANK LTD,JSFB0004672,Diamond Harbour,Abirami Plot No ┬û 225/422 Vill- Madhabpur PO- Diamond Harbour. Dist- South 24 Pgs . WB ┬û 743331,South 24 Parganas,Diamond Harbour,WEST BENGAL,0
157,JANA SMALL FINANCE BANK LTD,JSFB0004673,THIRUVERUMBUR,"GROUND FLOOR,RE-SURVEY NO.45/5APRAKASH NAGAR LAYOUT,AGARAM VILLAGE,THIRUVERUMBUR TALUK,TRICHY-620013",TRICHY,TRICHY,TAMIL NADU,0
158,JANA SMALL FINANCE BANK LTD,JSFB0004675,Kotputli,"Ground Floor, Building no. 17,20, Bachari, Krishna Talkies Road,Bank Gali, Kotputli, Ra jasthan-303108",Jaipur,Jaipur,RAJASTHAN,0
159,JANA SMALL FINANCE BANK LTD,JSFB0004676,Bagru,"Ground floor, Plot No. 17, Shree Balaji Plaza, Baba Market, Bagru Dak Bell, Bagru, Rajasthan ┬û 303007",Jaipur,Jaipur,RAJASTHAN,0
160,JANA SMALL FINANCE BANK LTD,JSFB0004678,Chomu,"Ground Floor, Rawat Complex, Near Ravan Gate Circle, chomu, Rajasthan-303702",Jaipur,Jaipur,RAJASTHAN,0
161,JANA SMALL FINANCE BANK LTD,JSFB0004679,Kuchaman city,"Ground Floor Ward No. 2, Deedwana Road, Near Karni Petrol Pump, Kuchaman , Nagour,(Rajasthan) Pin 341508",Nagaur,Nagaur,RAJASTHAN,0
162,JANA SMALL FINANCE BANK LTD,JSFB0004680,Adhiyamankotai,"Door # 7/216, A. Jettihalli Village, Dharamapuri taluk, Dharmapuri, -636705",Dharmapuri,Dharmapuri,TAMIL NADU,0
163,JANA SMALL FINANCE BANK LTD,JSFB0004681,Somenahalli,"1/350,SNC complex, Papparapatti pirivu,Somenahalli, Pappinaikenahalli (po), Palacode Tk, Dharmapuri-636808",Dharmapuri,Dharmapuri,TAMIL NADU,0
164,JANA SMALL FINANCE BANK LTD,JSFB0004682,Adagapadi,"Door # 2/359, Seliamman kovil near,Adagapadi bus stop, Adagapadi,Dharmapuri-636803",Dharmapuri,Dharmapuri,TAMIL NADU,0
165,JANA SMALL FINANCE BANK LTD,JSFB0004684,Pagalahalli,"Door # 1/364, Kengalapuram, Pagalahalli ( PO), Dharmapuri, TamilNadu-636807",Dharmapuri,Dharmapuri,TAMIL NADU,0
166,JANA SMALL FINANCE BANK LTD,JSFB0004685,H. Pudupatti,"H.NO: 3/156, first floor, Papireddy patti (taluk), near Sivalakshmi electricals, H. Pudupatti (post), , Dharmapuri (Dist).",Dharmapuri,Dharmapuri,TAMIL NADU,0
167,JANA SMALL FINANCE BANK LTD,JSFB0004686,Jittandahalli,"Door # 202 ,RajaComplex,Jittandhalli(po),Palacode TK,Dharmapuri-636805",Dharmapuri,Dharmapuri,TAMIL NADU,0
168,JANA SMALL FINANCE BANK LTD,JSFB0004687,Periyakrishnapuram,"Door # 95, Periyakrishnapuram panchayat, Pethanayakanpalayak, Periyakrishnapuram (po),636115",Salem,Salem,TAMIL NADU,0
169,JANA SMALL FINANCE BANK LTD,JSFB0004688,Chinnakavundapuram,"AVR Complex, Chinnakavundapuram Road, Ramalingapuram (Post), Karipatti via Salem - 636106.┬á Land Mark - Opp- Mahindra College of Engineering.",Salem,Salem,TAMIL NADU,0
170,JANA SMALL FINANCE BANK LTD,JSFB0004689,Ammampalayam,"185/2, Cuddalore Mani Road, Ammampalayam(Po), Amman Nagar, Attur(Tk), Salem - 636141.",Salem,Salem,TAMIL NADU,0
171,JANA SMALL FINANCE BANK LTD,JSFB0004690,Parapatti,"Door # 1st Floor, Parapatti bus stop,Parapatti(po),Salem-636203. Opp Govt school",Salem,Salem,TAMIL NADU,0
172,JANA SMALL FINANCE BANK LTD,JSFB0004691,Nirmullikuttai,"Ground Floor #20, Neermullaikuttai,Koottathupatti via,Valapadi (Tk), Salem- Land mark-Nrrrmullikuttai ellai near Water tank",Salem,Salem,TAMIL NADU,0
173,JANA SMALL FINANCE BANK LTD,JSFB0004692,Sukkampatti,"Door # 4/59 Harur main road,Sukampatti, Salem-636122",Salem,Salem,TAMIL NADU,0
174,JANA SMALL FINANCE BANK LTD,JSFB0004693,Panjakalipatti,"Dr-8/131, Panjakalipatti, Nachuvayanur, Mettur Main Road, Panakattur (Post), Omalur (Tk), Salem - 636455.",Salem,Salem,TAMIL NADU,0
175,JANA SMALL FINANCE BANK LTD,JSFB0004694,Bandarapalli,"Bandarapalli, 11/2;Billanakuppm Po; Krishnagiri Dt-635115",Krishnagiri,Bandarapalli,TAMIL NADU,0
176,JANA SMALL FINANCE BANK LTD,JSFB0004695,Addakurakki,"#2/89/2,AVK Complex,Addakurrakki,Main village,Krishnagiri dist.",Krishnagiri,Addakurakki,TAMIL NADU,0
177,JANA SMALL FINANCE BANK LTD,JSFB0004696,Ghodari,"Nadi Mod, Main Sq, Ghodari, Dist - Mahasamund, Ghodari- 493445",Mahasamund,Ghodari,CHHATTISGARH,0
178,JANA SMALL FINANCE BANK LTD,JSFB0004697,Guddapatti,"Panchayath Office,Guddapatti, Krishnagiri",Krishnagiri,Guddapatti,TAMIL NADU,0
179,JANA SMALL FINANCE BANK LTD,JSFB0004698,Dod Ballapur,"#66, Khatha No :865/66, Rojipura Village, Kasaba Hobli, Doddaballapura Taluk, Bangalore -561203",Bangalore Rural,Dod Ballapur,KARNATAKA,0
180,JANA SMALL FINANCE BANK LTD,JSFB0004699,Thalikothanur,"88/2, Nagarathnamma; W/O Lingappa; Thali Kothanooru; Denkanikottai Tq;Krishnagiri Dt.",Krishnagiri,Thalikothanur,TAMIL NADU,0
181,JANA SMALL FINANCE BANK LTD,JSFB0004700,Arasakuppam,"Reddy Building 2/3A; , Kalligopasandra Village; Kelamangala Main Road; Opp To Govt High School, NGR building, Dankanikottai Taluk, Krishnagiri Dt; Pin: 635107",Krishnagiri,Arasakuppam,TAMIL NADU,0
182,JANA SMALL FINANCE BANK LTD,JSFB0004701,K. Sathyavara,"Survey no.58/51,Site No.49, K Sathyvara, Nandagudi Hobli Hoskote Talluk, Bangalore Rural District. Pin-562122",Bangalore Rural,K. Sathyavara,KARNATAKA,0
183,JANA SMALL FINANCE BANK LTD,JSFB0004703,Maralakunte,"No.116, Ground Floor, Maralakunte Village, Somapura Hobli, Nelamangala Taluk, Bengaluru Rural - 562111, Karnataka",Bangalore Rural,Maralakunte,KARNATAKA,0
184,JANA SMALL FINANCE BANK LTD,JSFB0004704,Marala Bekuppe,"GF 227/205 RCC building, Shivarudrappa Building; Maral Bykuppe;Gram panchayat, Kanak Pura Taluk ; Ramanagara Dt.-562117",Ramnagar,Ramnagar,KARNATAKA,0
185,JANA SMALL FINANCE BANK LTD,JSFB0004705,Cheeluru,"Ground Floor Kumar; 95/145 Cheeluru Vilage, Hosahalli, S/O Late Basawe Gowda,Mandala Maralavadi Hobli; Kanak pura Taluk; Ramanagara - 562112, Karnataka",Ramnagar,Ramnagar,KARNATAKA,0
186,JANA SMALL FINANCE BANK LTD,JSFB0004706,Gujra,"Gram Panchayat Bhawan, Old Dhamtari Road, Gujra Village, Dist. Dhamtari, Chhattisgarh, Pin- 493773",Dhamtari,DHAMTARI,CHHATTISGARH,0
187,JANA SMALL FINANCE BANK LTD,JSFB0004707,Mangala,"Khata No:423,First Floor,Kollegala-Mangala Main Road,Near Mangala Grampanchayat Office,Mangala Village, Kollegala Talluk.Dist; Chamaraj Nagara.- 571126",Chamarajanagar,Mangala,KARNATAKA,0
188,JANA SMALL FINANCE BANK LTD,JSFB0004709,Bisalavadi┬á,"GF- 282/282. Shanthamallappa, S/O. Late R Basappa,Grampanchayath, Heradan Halli Hobli,Bisalvadi Main Road, Bisalvadi Village. Chamarajnagar Dist -571127",Chamarajanagar,Chamarajanagar,KARNATAKA,0
189,JANA SMALL FINANCE BANK LTD,JSFB0004715,Sundargarh,"Upper Ground floor, Mishra complex Mission Chowk,Hospital Road,Sundergarh,Odisha",Sundargarh,Sundargarh,ODISHA,0
190,JANA SMALL FINANCE BANK LTD,JSFB0004717,Rupakhedi,"Chandrapal Singh Chauhan, S/O Sardar Singh Chauhan, 243/1, Ground Floor, Rupakhedi, Post- Rupakhedi, pin- 456663, Tehsil- Tarana, Dist- Ujjain MP",Ujjain,Ujjain,MADHYA PRADESH,0
191,JANA SMALL FINANCE BANK LTD,JSFB0004722,Gujarwada,"Survey No. 641/1,2,3 Village Gujarwada Tehsil:Babai Distt. Hoshangabad-461661",Hoshangabad,Hoshangabad,MADHYA PRADESH,0
192,JANA SMALL FINANCE BANK LTD,JSFB0004723,Hoshangabad,"Khasra No. 381/4, Village Raipur, Tehsil- Hoshangabad, MP, Pin- 461001",Hoshangabad,Hoshangabad,MADHYA PRADESH,0
193,JANA SMALL FINANCE BANK LTD,JSFB0004725,Puni,"Ground  Floor,  At Post Village Puni, Taluka-Palsana, Dist:- Surat, Pin:-394352",Surat,Surat,GUJARAT,0
194,JANA SMALL FINANCE BANK LTD,JSFB0004726,Orma,"Ground Floor, Near Gram Panchayat Office, Village : Orma, Taluka : Olpad, Dist : Surat 394540",Surat,Surat,GUJARAT,0
195,JANA SMALL FINANCE BANK LTD,JSFB0004727,Narthan,"First Floor, At-Post- Patel Mohallo Narthan, Tal - Olpad dandi road, Dist : Surat -395005",Surat,Surat,GUJARAT,0
196,JANA SMALL FINANCE BANK LTD,JSFB0004728,Vadi,"Ground Floor (C/O Indiraben J Vasava) Village,  Vadi, Taluka : Umarpada, Dist : Surat - 394440",Surat,Surat,GUJARAT,0
197,JANA SMALL FINANCE BANK LTD,JSFB0004729,Vadoli,"Ground Floor,┬á Dairy Faliyu, Village Vadoli TAL ┬û Mangrol, Dist ┬û Surat ┬û 394 110",Surat,Surat,GUJARAT,0
198,JANA SMALL FINANCE BANK LTD,JSFB0004730,Nogama,"Ground Floor, 315 Mota Nogama, Tal - Mandvi, Dist - Surat - 394 170",Surat,Surat,GUJARAT,0
199,JANA SMALL FINANCE BANK LTD,JSFB0004731,Udan,"Unit No. 393, Ground Floor, Nr.Primary School, At Post:- Udan, Taluka- Dahegam, Pin:- 382315",Gandhinagar,Udan,GUJARAT,0
200,JANA SMALL FINANCE BANK LTD,JSFB0004733,Sarandi,"Ground Floor, Post Sarandi, Taluka-Dholka, Dist:-Ahmedabad-378810",Ahmedabad,Ahmedabad,GUJARAT,0
201,JANA SMALL FINANCE BANK LTD,JSFB0004734,Borisana,"Ground Floor, Opp. Gram Panchayat, At. Post : Borisana, Village Borisana, Tal-Kadi, Dist ┬û Mehsana-382715",Mehsana,Mehsana,GUJARAT,0
202,JANA SMALL FINANCE BANK LTD,JSFB0004735,Jaspura,"Ground Floor, Opp. Gram Panchayat, At. Post : Jaspura, Situated at Village-Jaspura, Taluka-Detroj, Rampura, Dist:- Ahmedabad, Pin-382120",Ahmedabad,Ahmedabad,GUJARAT,0
203,JANA SMALL FINANCE BANK LTD,JSFB0004736,Sonarda,"Ground Floor,┬á Patelvas┬á village Sonarda, Tal and Dist: Gandhinagar ┬û 382 355",Gandhinagar,Gandhinagar,GUJARAT,0
204,JANA SMALL FINANCE BANK LTD,JSFB0004739,Karawara Manakpur,"Mr. Raghubir Singh, S/o Sh. Ramdhan, H. No. 333, Karawara Manakpur,(253), Palhawas,District: Rewari, Rewari, Haryana- 123035",Rewari,Rewari,HARYANA,0
205,JANA SMALL FINANCE BANK LTD,JSFB0004741,Kabulpur,"Mrs. Rajwanti, Khewat No. 15, Khatauni No. 22, Dagar Beej Bhandar VPO kabulpur district Rohtak Haryana-124201",Rohtak,Rohtak,HARYANA,0
206,JANA SMALL FINANCE BANK LTD,JSFB0004742,Bahali Anandpur,"MR. SATWEER SINGH, No. 146, VPO Bahali┬á Anandpur┬á District , Rohtak Haryana 124001",Rohtak,Rohtak,HARYANA,0
207,JANA SMALL FINANCE BANK LTD,JSFB0004746,Kamanahalli,"Ground Floor of the premises, on land bearing No.7M-414,PID NO :88-250-7M-414, Situated at HRBR 1ST Block Extension, Bangalore 560043",Bangalore,Bangalore,KARNATAKA,0
208,JANA SMALL FINANCE BANK LTD,JSFB0004747,Shyambazar,"121A, 1st Floor, Bidhan Sarani, Kolkata - 700004",Kolkata,Kolkata,WEST BENGAL,0
209,JANA SMALL FINANCE BANK LTD,JSFB0004748,Hyderabad,"H.No 6-3-200/B/6, Banjara Hills Road No.1, Hyderabad - 500034",Hyderabad,Hyderabad,TELANGANA,0
210,JANA SMALL FINANCE BANK LTD,JSFB0004750,FRAZER TOWN,"DOOR NO.22/1,GROUND& FIRST FLOOR,MSR BUILDING,22/1 WHEELER ROAD,FRAZER TOWN,BANGALORE-560005",BANGALORE,BANGALORE,KARNATAKA,0
211,JANA SMALL FINANCE BANK LTD,JSFB0004751,HSR layout,"#140L,HSR Layout ,5th Main, 6th Sector, Bangalore -560034",Bangalore,Bangalore,KARNATAKA,0
212,JANA SMALL FINANCE BANK LTD,JSFB0004752,Malad,"Ground and First Floor, Ninnad, Link Road, Malad West, Mumbai - 400 064",Mumbai,Mumbai,MAHARASHTRA,0
213,JANA SMALL FINANCE BANK LTD,JSFB0004753,RAJOURI GARDEN,"PROPERTY BEARING NO.A-61,GROUND FLOOR,SITUATED AT RAJOURI GARDEN NEW DELHI-110027",DELHI,NEW DELHI,DELHI,0
214,JANA SMALL FINANCE BANK LTD,JSFB0004754,Sohna Road,"Shop no. 11 AND 12 AND 12 A , Park View Business Towers, Sohna Road, Gurgaon ,Haryana ┬û 122001",Gurgaon,Gurgaon,HARYANA,0
215,JANA SMALL FINANCE BANK LTD,JSFB0004755,BehramjiTown,"SKTower,GroundFloor,NexttoAxisBank,ByramjiTown,Nagpur-440013",Nagpur,Nagpur,MAHARASHTRA,0
216,JANA SMALL FINANCE BANK LTD,JSFB0004757,Lokhandwala,"Unit No. 1, 2 AND 104 , Ground AND First Floor, Raj Griha Co-Op Hsg Society, Lokhandwala, Andheri, Mumbai ┬û 400 053",Mumbai,Mumbai,MAHARASHTRA,0
217,JANA SMALL FINANCE BANK LTD,JSFB0004759,Andheri East,"Shop No. 6, Ground Floor, Hubtown Sunmist, N. S. Phadake Marg, Opp Telli Gali, Andheri East, Mumbai ┬û 400 069",Mumbai,Mumbai,MAHARASHTRA,0
218,JANA SMALL FINANCE BANK LTD,JSFB0004760,Chembur,"Ground and First Floor, Parijat Building, Atur Park, Sion Trombay Road, Chembur East ┬û 400 071",Mumbai,Mumbai,MAHARASHTRA,0
219,JANA SMALL FINANCE BANK LTD,JSFB0004761,Kalyan,"ShopNo.A-1B,GroundANDMezzanineFloor,Charm┬áStar,BailBazaar,NearForties,Kalyan(W)-421301",Mumbai,Mumbai,MAHARASHTRA,0
220,JANA SMALL FINANCE BANK LTD,JSFB0004762,GANGTOK,"GROUND& 1ST FLOOR,CENTRAL HOTEL,N.H.WAY,GANGTOK-737101",GANGTOK,GANGTOK,SIKKIM,0
221,JANA SMALL FINANCE BANK LTD,JSFB0004763,Powai,"G001, A-104, 105 AND 106, Cypress CHS. LTD, Centeral Avenue Road, Powai, Hiranandani Gardens, Mumbai - 400 076",Mumbai,Mumbai,MAHARASHTRA,0
222,JANA SMALL FINANCE BANK LTD,JSFB0004764,UDUMALAPATTAI,"1ST FLOOR,NO 30C PESENT MUNICIPAL NO.10C,RAVI TOWERS DHARAPURAM ROAD,UDUMELPET-642126",COIMBATORE,COIMBATORE,TAMIL NADU,0
223,JANA SMALL FINANCE BANK LTD,JSFB0004772,Kendujhar,"Ground Floor, Market Place, NH-49,Near Bank of Baroda,Sirajudin Chowk,Keonjhar,Odisha",Keonjhar,Keonjhar,ODISHA,0
224,JANA SMALL FINANCE BANK LTD,JSFB0004775,Labhara Kalan,"House of Digendra Kumar Giri, Labhra Kala, P.O. Tusada, Dist. Mahasamund, Chhattisgarh, Pin- 493445",Mahasamund,DHAMTARI,CHHATTISGARH,0
225,JANA SMALL FINANCE BANK LTD,JSFB0004779,AMBATTUR,"1ST FLOOR,NO 594/3,OLD SL.NO.3/202,DOOR NO.9/5,PLOT NO.43/1,NO.89,AMBATTUR VILLAGE,SAIDAPET TALUKCHENNAI600053",CHENNAI,CHENNAI,TAMIL NADU,0
226,JANA SMALL FINANCE BANK LTD,JSFB0004780,Anna Nagar,"Priyox Apts,Q block  plot no. 104,3rd Avenue, Anna Nagar, Opp to HDFC Bank Chennai-600040",Chennai,Chennai,TAMIL NADU,0
227,JANA SMALL FINANCE BANK LTD,JSFB0004781,Bagnan,"COSMO BAZAR, Bagnan Station Road, Bagnan, West Bengal, PIN- 711303",Haora,Howrah,WEST BENGAL,0
228,JANA SMALL FINANCE BANK LTD,JSFB0004782,Tamluk,"Holding No. 474, Vill. Salgechia, P.O. and P.S. Tamluk, Dist. Purba Midnapore, West Bengal, PIN- 721636",Purba Medinipur,Tamluk,WEST BENGAL,0
229,JANA SMALL FINANCE BANK LTD,JSFB0004783,Jaynagar Mazilpur,"Jaynagar Mazilpur Municipality, Jaynagar Mazilpur, West Bengal, PIN- 743337",South 24 Parganas,Joynagar,WEST BENGAL,0
230,JANA SMALL FINANCE BANK LTD,JSFB0004784,JORHAT,"CRYSTAL S.R.PLAZA,1ST FLOOR,NEAR ELEYE CINEMA HALL,GAR-ALI ROAD,JORHAT,ASSAM,PIN - 785001",JORHAT,JORHAT,ASSAM,0
231,JANA SMALL FINANCE BANK LTD,JSFB0004785,RANCHI,TDGSFVASMSGDKDC-3(JD),ACI,RANCHI,JHARKHAND,0
232,JANA SMALL FINANCE BANK LTD,JSFB0004786,Gaya,"Gayatri┬á Complex, Laheria Tola, Laheria┬á Tola Road,P.S :- Kotwali Thana, Distt. Gaya -823001( Bihar)",Gaya,Gaya,BIHAR,0
233,JANA SMALL FINANCE BANK LTD,JSFB0004787,DANAPUR,"1ST FLOOR,MOTHERS BUILDING,OPP.UNION BANK,MACHUATOLI,PATNA - 800004,INDIA",PATNA,DANAPUR,BIHAR,0
234,JANA SMALL FINANCE BANK LTD,JSFB0004789,MAJITHA ROAD,"GROUND FLOOR PROPERTY NO 1 SSSS CHOWK,MAJITHA ROAD,AMRITSAR,143001",AMRITSAR,AMRITSAR,PUNJAB,0
235,JANA SMALL FINANCE BANK LTD,JSFB0004791,YAMUNANAGAR,"GROUND FLOOR,SCO 188-189,SECTOR - 17,HUDA,TEHSIL -JAGADHRI,YAMUNA NAGAR,HARYANA135003",YAMUNANAGAR,YAMUNANAGAR,HARYANA,0
236,JANA SMALL FINANCE BANK LTD,JSFB0004792,BHADRAK,"GROUND& 1ST FLOOR,BISWAL SALES CORPORATION,BEARING PLOT NO.1221,1222,3057,1232,2592,CHAPULIA BYPASS,OPP.FEDERAL BANK,TAHSIL,BHADRAK756101",BHADRAK,BHADRAK,ODISHA,0
237,JANA SMALL FINANCE BANK LTD,JSFB0004793,UTTAM NAGAR,"FIRST FLOOR,PROPERTY NO.C-3,HASTSAL VILLAGE,MILAP NAGAR COLONY,NEW DELHI,110059,INDIA",DELHI,NEW DELHI,DELHI,0
238,JANA SMALL FINANCE BANK LTD,JSFB0004794,Baliar Kalan,"House No. 21, Village: Baliyar Kalan, PO. Sheoraj Majra, Tehsil and District: Rewari, Haryana. 123401",Rewari,Rewari,HARYANA,0
239,JANA SMALL FINANCE BANK LTD,JSFB0004795,Gothara Tappa Khori,"MR. RAMCHANDRA, No. 127,  VPO Village Gothra Tappakhori,Rewari Haryana, 123101",Rewari,Rewari,HARYANA,0
240,JANA SMALL FINANCE BANK LTD,JSFB0004796,Kamalpur,"House No. 56, Village: Kamalpur, PO. Mundanwas, Tehsil: Bawal and District: Rewari, Haryana. 123501",Rewari,Rohtak,HARYANA,0
241,JANA SMALL FINANCE BANK LTD,JSFB0004797,Humayunpur,"House No. 351, Village Humayunpur, Tehsil and District: Rohtak,Haryana, 124406",Rohtak,Rohtak,HARYANA,0
242,JANA SMALL FINANCE BANK LTD,JSFB0004798,Shimli,"H.NO.117, VILLAGE SHIMLI, TEHSIL ROHTAK, DISTRICT ROHTAK, HARYANA, 124001",Rohtak,Rohtak,HARYANA,0
243,JANA SMALL FINANCE BANK LTD,JSFB0004800,Banashankari,"#571,sy.no.17,situated at katriguppe layout,30th main road,Near devegowda petrol bunk,Banshankari 3rd stage,Next to south indian bank,Banashankari,Bangalore-560085",Bangalore,Bangalore,KARNATAKA,0
244,JANA SMALL FINANCE BANK LTD,JSFB0004802,HOSUR,"PROPERTY NO.17/19,SAI VASAVI ENCLAVE,1ST FLOOR,NEAR TO BSNL OFFICE,NEAR TO BSNL OFFICE,OPP.HOSUR BUS STAND,HOSUR TALUKKRISHNAGIRI635109",HOSUR,HOSUR,TAMIL NADU,0
245,JANA SMALL FINANCE BANK LTD,JSFB0004804,T Nagar,"No.28/36,South West Boag road,T.Nagar,Chennai-600017",Chennai,Chennai,TAMIL NADU,0
246,JANA SMALL FINANCE BANK LTD,JSFB0004805,Ramnagar,"No.19 34, No.117┬á Shasthri Road, Ram Nagar, Coimbatore,Tamilnadu - 641009",Coimbatore,Coimbatore,TAMIL NADU,0
247,JANA SMALL FINANCE BANK LTD,JSFB0004806,PALLIKARANAI,"NO.36,KOMAKODI NAGAR MAIN ROAD,THAMBARAM TK,KANCHIPURAM DISTRICT,PALLIKARANAI,CHENNAI600100",CHENNAI,CHENNAI,TAMIL NADU,0
248,JANA SMALL FINANCE BANK LTD,JSFB0004807,SHAHIBAUG,"1ST FLOOR SHOP NO 115&116,NEAR NAMASKAR CIRCLE OPP SWAMI NARAYAN TEMPLE,SHAHIBAUG",SHAHIBAUG,AHMADABAD,GUJARAT,0
249,JANA SMALL FINANCE BANK LTD,JSFB0004808,MANJALPUR,"1ST FLOOR NO 101,102,103 SHIV SUNDRAM COMPLEX,OPP AXIS BANK,DEEP CHAMBERS CROSS ROAD MANJALPUR",MANJALPUR,VADODARA,GUJARAT,0
250,JANA SMALL FINANCE BANK LTD,JSFB0004810,RAMPURA PHUL,"GROUND FLOOR,KHASRA NO.591/2,592/2 AND 592/1/1,FARID NAGAR,BATHINDA ROAD,RAMOURA PHUL,RAMPURAPHUL-BATHINDA-2,151103",RAMPURA PHUL,BATHINDA,PUNJAB,0
251,JANA SMALL FINANCE BANK LTD,JSFB0004811,PERUNDORAI,"1ST FLOOR,NEW S.F.NO.823/11OLD S.F.NO.86,PERUNDURAI VILLAGE,PERUNDURAI,ERODE,PIN-638052",SALEM,SALEM,TAMIL NADU,0
252,JANA SMALL FINANCE BANK LTD,JSFB0004812,PALLADAM,"GROUND FLOOR PALLADAM VILLAGE WARD NO 13,DOOR NO 10B3 B-NEW EXTENSION STREET,PALLADAM,COIMBATORE - 641664",COIMBATORE,COIMBATORE,TAMIL NADU,0
253,JANA SMALL FINANCE BANK LTD,JSFB0004815,RAU,"GROUND FLOOR,BALAJI TRADE CENTER,WARD NO.6,NEAR KOTAK MAHINDRA BANK,AB ROAD RAU,INDORE,MP-453331",INDORE,INDORE,MADHYA PRADESH,0
254,JANA SMALL FINANCE BANK LTD,JSFB0004816,AMBEDKAR CHOWK-RAJNANDANGAON,"FIRST FLOOR,RISHABH HEIGHTS,KH.NO.74/107 AND 74/149,WARD NO.19,SANDEV NAGAR,KOURIN BHATA,AMBEDKAR CHOWK,RAJNANDGAON ( C.G. ) 491441",RAJNANDGAON,RAJNANDGAON,CHHATTISGARH,0
255,JANA SMALL FINANCE BANK LTD,JSFB0004823,NATUGAON,"GRAMAPANCHAYAT OFFICE,NATUGAON,PO-CHAMPATIPUR,DIST-NAYAGARH-752068",NAYAGARH,NAYAGARH,ODISHA,0
256,JANA SMALL FINANCE BANK LTD,JSFB0004824,SRIPURUSOTTAMPUR,"RAJIV GANDHI SEVA SADAN,SRIPURSHOTTAMPUR,DELANGA,PURI-752016",PURI,PURI,ODISHA,0
257,JANA SMALL FINANCE BANK LTD,JSFB0004825,GADABANDHOGODA,"GRAMAPANCHAYAT OFFICE,GODABANDHAGODA,THANA-RAMACHANDRAPUR,PO-GODABANDHAGODA,DIST-KEONJHAR-758043",KEONJHAR,KEONJHAR,ODISHA,0
258,JANA SMALL FINANCE BANK LTD,JSFB0004826,ORABARSINGH,"RAJIV GANDHI SEVA SADAN,ORABARASINGH,AT/PO-RAYPUR,JANKIA,DIST-KHORDA-752020",KHURDA,KHURDA,ODISHA,0
259,JANA SMALL FINANCE BANK LTD,JSFB0004827,BORABHATTA,"GRAMAPANCHAYAT OFFICE,BORABHATA,DIST-KALAHANDI-766036",BHAWANIPATNA,BHAWANIPATNA,ODISHA,0
260,JANA SMALL FINANCE BANK LTD,JSFB0005001,BAHALPADAR,"BANDHANBAHALI THELKOMUNDA,BOLANGIR DISTRICT,ODHISA-767016",PUITALA,PUITALA,ODISHA,0
261,JANA SMALL FINANCE BANK LTD,JSFB0005002,ANKRIAPADAR,"PO BUBEL,BOLANGIR,ODISHA-767002",BOLANGIR,BOLANGIR,ODISHA,0
262,JANA SMALL FINANCE BANK LTD,JSFB0005003,NANDOLI,"205,PANCHMUKHI ELIGANCE,KAMLAPARK SOCIETY,AUDA LAKE,BOPAL,DPS SCHOOL,BOPAL,AHMEDABAD",GANDHINAGAR,GANDHINAGAR,GUJARAT,0
263,JANA SMALL FINANCE BANK LTD,JSFB0005004,SHELA,"BELIM VAS,SHELA,AHMEDABAD,GUJARAT-380058",SANAND,SANAND,GUJARAT,0
264,JANA SMALL FINANCE BANK LTD,JSFB0005005,CHADASNA,"37-B,MAHAMMADI PARK SOCIETY,OPP.C.N.ARTS COLLEGE,KADI,MAHESANA,GUJARAT-382715",KADI,KADI,GUJARAT,0
265,JANA SMALL FINANCE BANK LTD,JSFB0005006,CHANDRASAN,"VANKARVAS,PO VIROCHAN NAGAR,KADI,CHANDRASAN,GUJARAT-382170",KADI,KADI,GUJARAT,0
266,JANA SMALL FINANCE BANK LTD,JSFB0005007,BAKRI,"H-NO 419,KAZITOLA,CHOWK ARA POST,BHOJPUR DISTRICT,BIHAR-802301",BHOJPUR,BHOJPUR,BIHAR,0
267,JANA SMALL FINANCE BANK LTD,JSFB0005008,BIRAMSAR,BIKANER,BIKANER,BIKANER,RAJASTHAN,0
268,JANA SMALL FINANCE BANK LTD,JSFB0005009,PEMASAR,"NARSING SAGAR ROAD,SARVODAY BASTI,VISHAL NAGAR,BIKANER,RAJASTHAN-334004",BIKANER,BIKANER,RAJASTHAN,0
269,JANA SMALL FINANCE BANK LTD,JSFB0005010,DIBYASINGHPUR,"ABHAYAPUR,BIRAKESHARPUR,PURI,ODISHA-752020",PURI,KANAS,ODISHA,0
270,JANA SMALL FINANCE BANK LTD,JSFB0005011,JAMUNA,"SUNDARGARH,JAMUNA,ODHISA-770014",SUBDEGA,SUBDEGA,ODISHA,0
271,JANA SMALL FINANCE BANK LTD,JSFB0005012,SABNIYAN,"WARD NO-02,LUNKARANASAR,JAITPURA,BIKANER,RAJASTHAN",BIKANER,BIKANER,RAJASTHAN,0
272,JANA SMALL FINANCE BANK LTD,JSFB0005013,KUTUBPUR,"S/O BRAJ BHUSAN SINGH,MIRPURJUARA,MIRPUR JUARA,SARAN-841216",SARAN,SARAN,BIHAR,0
273,JANA SMALL FINANCE BANK LTD,JSFB0005014,DADUPUR,"S/O RAMCHANDRA CHAUDHARY,O150,WARD NO 09,BACHHWARA,DADUPUR,BHAGWANPUR,BEGUSARAI-851111",BEGUSARAI,BEGUSARAI,BIHAR,0
274,JANA SMALL FINANCE BANK LTD,JSFB0005015,DAULATPUR,"S/O SURESH SHARMA,UPHRAUL,VAISALI-844504",VAISHALI,VAISHALI,BIHAR,0
275,JANA SMALL FINANCE BANK LTD,JSFB00TR001,TREASURY,"5TH FLOOR, CEEJAY HOUSE, DR.ANNIE BESANT ROAD,MARKANDESHWAR NAGAR,SHIV SAGAR ESTATE,WORLI, MUMBAI-400018",UBI,MUMBAI,MAHARASHTRA,0
276,JANA SMALL FINANCE BANK LTD,JSFB0CPC002,CPC,"DIVYASREE CHAMBERS 11,OSHAUGHNESSY ROAD,5TH FLOOR,A WING OFF LANGFORD ROAD, BENGALURU - 560 025",BANGALORE,BANGALORE,KARNATAKA,0
