,BANK NAME,IFSC,OFFICE,ADDRESS,DISTRICT,CITY,STATE,PHONE
0,THE SINDHUDURG DISTRICT CENTRAL COOP BANK LTD,SIDC0001001,DEOGAD,TANDPOSTANDTLDEOGD,SINDHUDURG,DEOGAD,MAHARASHTRA,262218
1,THE SINDHUDURG DISTRICT CENTRAL COOP BANK LTD,SIDC0001002,VIJAYDURG,TANDPOSTVIJYDURGTLDEOGD,SINDHUDURG,VIJAYDURG,MAHARASHTRA,245249
2,THE SINDHUDURG DISTRICT CENTRAL COOP BANK LTD,SIDC0001003,HINDALE,TANDPOSTHINDLETLDEOGD,SINDHUDURG,HINDALE,MAHARASHTRA,238246
3,THE SINDHUDURG DISTRICT CENTRAL COOP BANK LTD,SIDC0001004,KANKAVLI,TANDPOSTANDTLKNKVLI,SINDHUDURG,KANKAVLI,MAHARASHTRA,232036
4,THE SINDHUDURG DISTRICT CENTRAL COOP BANK LTD,SIDC0001005,KHAREPATAN,AT AND POST KHAREPATAN TAL KANKAVALI,SINDHUDURG,KHAREPATAN,MAHARASHTRA,242230
5,THE SINDHUDURG DISTRICT CENTRAL COOP BANK LTD,SIDC0001006,PHONDAGHAT,AT AND POST PHONDAGHAT TAL KANKAVALI,SINDHUDURG,PHONDAGHAT,MAHARASHTRA,245253
6,THE SINDHUDURG DISTRICT CENTRAL COOP BANK LTD,SIDC0001007,SANGAVE,AT AND POST SANGAVE TAL KANKAVALI,SINDHUDURG,SANGAVE,MAHARASHTRA,246240
7,THE SINDHUDURG DISTRICT CENTRAL COOP BANK LTD,SIDC0001008,KASARDE,AT AND POST KASARDE TAL KANKAVALI,SINDHUDURG,KASARDE,MAHARASHTRA,240229
8,THE SINDHUDURG DISTRICT CENTRAL COOP BANK LTD,SIDC0001009,MALVAN,AT AND POST AND TAL MALVAN,SINDHUDURG,MALVAN,MAHARASHTRA,252074
9,THE SINDHUDURG DISTRICT CENTRAL COOP BANK LTD,SIDC0001010,ACHARA,AT AND POST ACHARA TAL MALVAN,SINDHUDURG,ACHARA,MAHARASHTRA,246226
10,THE SINDHUDURG DISTRICT CENTRAL COOP BANK LTD,SIDC0001011,KATTA,AT AND POST KATTA TAL MALVAN,SINDHUDURG,KATTA,MAHARASHTRA,225220
11,THE SINDHUDURG DISTRICT CENTRAL COOP BANK LTD,SIDC0001012,VIRAN,AT AND POST VIRAN TAL MALVAN,SINDHUDURG,VIRAN,MAHARASHTRA,227605
12,THE SINDHUDURG DISTRICT CENTRAL COOP BANK LTD,SIDC0001013,KUDAL,AT AND POST AND TAL KUDAL,SINDHUDURG,KUDAL,MAHARASHTRA,222250
13,THE SINDHUDURG DISTRICT CENTRAL COOP BANK LTD,SIDC0001014,KADAWAL,AT AND POST KADAWAL TAL KUDAL,SINDHUDURG,KADAWAL,MAHARASHTRA,230029
14,THE SINDHUDURG DISTRICT CENTRAL COOP BANK LTD,SIDC0001015,MANGAON,AT AND POST MANGAON TAL KUDAL,SINDHUDURG,MANGAON,MAHARASHTRA,236230
15,THE SINDHUDURG DISTRICT CENTRAL COOP BANK LTD,SIDC0001016,KASAL,AT AND POST KASAL TAL KUDAL,SINDHUDURG,KASAL,MAHARASHTRA,234224
16,THE SINDHUDURG DISTRICT CENTRAL COOP BANK LTD,SIDC0001017,GHOTAGE,AT AND POST GHOTAGE TAL KUDAL,SINDHUDURG,GHOTAGE,MAHARASHTRA,231007
17,THE SINDHUDURG DISTRICT CENTRAL COOP BANK LTD,SIDC0001018,VENGURLA,AT AND POST AND TAL VENGURLA,SINDHUDURG,VENGURLA,MAHARASHTRA,262029
18,THE SINDHUDURG DISTRICT CENTRAL COOP BANK LTD,SIDC0001019,MHAPAN,AT AND POST MHAPAN TAL VENGURLA,SINDHUDURG,MHAPAN,MAHARASHTRA,228025
19,THE SINDHUDURG DISTRICT CENTRAL COOP BANK LTD,SIDC0001020,SHIRODA,AT AND POST SHIRODA TAL VENGURLA,SINDHUDURG,SHIRODA,MAHARASHTRA,227253
20,THE SINDHUDURG DISTRICT CENTRAL COOP BANK LTD,SIDC0001021,HODAWADA,AT AND POST HODAWADA TAL VENGURLA,SINDHUDURG,HODAWADA,MAHARASHTRA,225244
21,THE SINDHUDURG DISTRICT CENTRAL COOP BANK LTD,SIDC0001022,SAWANTWADI,AT AND POST AND TAL SAWANTWADI,SINDHUDURG,SAWANTWADI,MAHARASHTRA,271882
22,THE SINDHUDURG DISTRICT CENTRAL COOP BANK LTD,SIDC0001023,BANDA,AT AND POST BANDA TAL SAWANTWADI,SINDHUDURG,BANDA,MAHARASHTRA,27035
23,THE SINDHUDURG DISTRICT CENTRAL COOP BANK LTD,SIDC0001024,DODAMARG,AT AND POST AND TAL DODAMARG,SINDHUDURG,DODAMARG,MAHARASHTRA,256632
24,THE SINDHUDURG DISTRICT CENTRAL COOP BANK LTD,SIDC0001025,SATELI BHEDSHI,AT AND POST SATELI BHEDSHI TAL DODAMARG,SINDHUDURG,SATELI BHEDSHI,MAHARASHTRA,250033
25,THE SINDHUDURG DISTRICT CENTRAL COOP BANK LTD,SIDC0001026,SANGELI,AT AND POST SANGELI TAL SAWANTWADI,SINDHUDURG,SANGELI,MAHARASHTRA,242721
26,THE SINDHUDURG DISTRICT CENTRAL COOP BANK LTD,SIDC0001027,ARONDA,AT AND POST ARONDA TAL SAWANTWADI,SINDHUDURG,ARONDA,MAHARASHTRA,262237
27,THE SINDHUDURG DISTRICT CENTRAL COOP BANK LTD,SIDC0001028,PADEL,AT AND POST PADEL TAL DEVGAD,SINDHUDURG,PADEL,MAHARASHTRA,225047
28,THE SINDHUDURG DISTRICT CENTRAL COOP BANK LTD,SIDC0001029,BHUIABAWADA,AT AND POST BHUIBAWADA TAL VAIBHAVWADI,SINDHUDURG,BHUIABAWADA,MAHARASHTRA,254804
29,THE SINDHUDURG DISTRICT CENTRAL COOP BANK LTD,SIDC0001030,KAMALEVEER,AT AND POST KAMALEVEER TAL KUDAL,SINDHUDURG,KAMALEVEER,MAHARASHTRA,245024
30,THE SINDHUDURG DISTRICT CENTRAL COOP BANK LTD,SIDC0001031,KOLZAR,AT AND POST KOLZAR TAL DODAMARG,SINDHUDURG,KOLZAR,MAHARASHTRA,257359
31,THE SINDHUDURG DISTRICT CENTRAL COOP BANK LTD,SIDC0001032,TALEBAZAR,TANDPOSTTLEBZRTLDEOGD,SINDHUDURG,TALEBAZAR,MAHARASHTRA,231432
32,THE SINDHUDURG DISTRICT CENTRAL COOP BANK LTD,SIDC0001033,SHIRGAON,TANDPOSTSHIRGONTLDEOGD,SINDHUDURG,SHIRGAON,MAHARASHTRA,236237
33,THE SINDHUDURG DISTRICT CENTRAL COOP BANK LTD,SIDC0001034,VAIBHAVWADI,AT AND POST AND TAL VAIBHAVWADI,SINDHUDURG,VAIBHAVWADI,MAHARASHTRA,237227
34,THE SINDHUDURG DISTRICT CENTRAL COOP BANK LTD,SIDC0001035,MALEWAD,AT AND POST MALEWAD TAL SAWANTWADI,SINDHUDURG,MALEWAD,MAHARASHTRA,261020
35,THE SINDHUDURG DISTRICT CENTRAL COOP BANK LTD,SIDC0001036,PANDUR,AT AND POST PANDUR TAL KUDAL,SINDHUDURG,PANDUR,MAHARASHTRA,248067
36,THE SINDHUDURG DISTRICT CENTRAL COOP BANK LTD,SIDC0001037,VETORE,AT AND POST VETORE TAL VENGURLA,SINDHUDURG,VETORE,MAHARASHTRA,266207
37,THE SINDHUDURG DISTRICT CENTRAL COOP BANK LTD,SIDC0001038,CHOUKUL,AT AND POST CHOWKUL TAL SAWANTWADI,SINDHUDURG,CHOUKUL,MAHARASHTRA,241117
38,THE SINDHUDURG DISTRICT CENTRAL COOP BANK LTD,SIDC0001039,CHOWKE,AT AND POST CHOWKE TAL MALVAN,SINDHUDURG,CHOWKE,MAHARASHTRA,258214
39,THE SINDHUDURG DISTRICT CENTRAL COOP BANK LTD,SIDC0001040,NANDGAON,AT AND POST NANDGAON TAL KANKAVALI,SINDHUDURG,NANDGAON,MAHARASHTRA,248545
40,THE SINDHUDURG DISTRICT CENTRAL COOP BANK LTD,SIDC0001041,MASURE,AT AND POST MASURE TAL MALVAN,SINDHUDURG,MASURE,MAHARASHTRA,257233
41,THE SINDHUDURG DISTRICT CENTRAL COOP BANK LTD,SIDC0001042,NARDAVE,AT AND POST NARDAVE TAL KANKAVALI,SINDHUDURG,NARDAVE,MAHARASHTRA,241017
42,THE SINDHUDURG DISTRICT CENTRAL COOP BANK LTD,SIDC0001043,TALAMBA,AT AND POST TALAMBA TAL KUDAL,SINDHUDURG,TALAMBA,MAHARASHTRA,239051
43,THE SINDHUDURG DISTRICT CENTRAL COOP BANK LTD,SIDC0001044,ACHIRNE,AT AND POST ACHIRNE TAL VAIBHAVWADI,SINDHUDURG,ACHIRNE,MAHARASHTRA,259036
44,THE SINDHUDURG DISTRICT CENTRAL COOP BANK LTD,SIDC0001045,KARUL,AT AND POST KARUL TAL VAIBHAVWADI,SINDHUDURG,KARUL,MAHARASHTRA,205395
45,THE SINDHUDURG DISTRICT CENTRAL COOP BANK LTD,SIDC0001046,H.O. COUNTER,AT AND POST SINDHUDURGNAGARI TAL KUDAL,SINDHUDURG,H.O. COUNTER,MAHARASHTRA,229005
46,THE SINDHUDURG DISTRICT CENTRAL COOP BANK LTD,SIDC0001047,PHANASGAON,TANDPOSTPHNSGONTLDEOGD,SINDHUDURG,PHANASGAON,MAHARASHTRA,244433
47,THE SINDHUDURG DISTRICT CENTRAL COOP BANK LTD,SIDC0001048,AMBRAD,AT AND POST AMBRAD TAL KUDAL,SINDHUDURG,AMBRAD,MAHARASHTRA,235016
48,THE SINDHUDURG DISTRICT CENTRAL COOP BANK LTD,SIDC0001049,KANKAVLI CITY,AT AND POST AND TAL KANKAVALI,SINDHUDURG,KANKAVLI CITY,MAHARASHTRA,232159
49,THE SINDHUDURG DISTRICT CENTRAL COOP BANK LTD,SIDC0001050,SAWANTWADI CITY,AT AND POST AND TAL SAWANTWADI,SINDHUDURG,SAWANTWADI CITY,MAHARASHTRA,272316
50,THE SINDHUDURG DISTRICT CENTRAL COOP BANK LTD,SIDC0001051,AMBOLI,AT AND POST AMBOLI TAL SAWANTWADI,SINDHUDURG,AMBOLI,MAHARASHTRA,240206
51,THE SINDHUDURG DISTRICT CENTRAL COOP BANK LTD,SIDC0001052,ASRAONDI,AT AND POST ASARONDI TAL MALVAN,SINDHUDURG,ASRAONDI,MAHARASHTRA,249018
52,THE SINDHUDURG DISTRICT CENTRAL COOP BANK LTD,SIDC0001053,OROS,AT AND POST OROS TAL KUDAL,SINDHUDURG,OROS,MAHARASHTRA,228867
53,THE SINDHUDURG DISTRICT CENTRAL COOP BANK LTD,SIDC0001054,MOND,TANDPOSTMONDTLDEOGD,SINDHUDURG,MOND,MAHARASHTRA,246980
54,THE SINDHUDURG DISTRICT CENTRAL COOP BANK LTD,SIDC0001055,JAMSANDE,TANDPOSTJMSNDETLDEOGD,SINDHUDURG,JAMSANDE,MAHARASHTRA,280470
55,THE SINDHUDURG DISTRICT CENTRAL COOP BANK LTD,SIDC0001056,MITHBAV,TANDPOSTMITHBVTLDEOGD,SINDHUDURG,MITHBAV,MAHARASHTRA,238061
56,THE SINDHUDURG DISTRICT CENTRAL COOP BANK LTD,SIDC0001057,DAHIBAV,TANDPOSTDHIBVTLDEOGD,SINDHUDURG,DAHIBAV,MAHARASHTRA,238146
57,THE SINDHUDURG DISTRICT CENTRAL COOP BANK LTD,SIDC0001058,MUNGE,TANDPOSTMUNGETLDEOGD,SINDHUDURG,MUNGE,MAHARASHTRA,280679
58,THE SINDHUDURG DISTRICT CENTRAL COOP BANK LTD,SIDC0001059,KALSULI,AT AND POST KALSULI TAL KANKAVALI,SINDHUDURG,KALSULI,MAHARASHTRA,252833
59,THE SINDHUDURG DISTRICT CENTRAL COOP BANK LTD,SIDC0001060,NATAL,AT AND POST NATAL TAL KANKAVALI,SINDHUDURG,NATAL,MAHARASHTRA,246053
60,THE SINDHUDURG DISTRICT CENTRAL COOP BANK LTD,SIDC0001061,TARKARLI,AT AND POST TARKARLI TAL MALVAN,SINDHUDURG,TARKARLI,MAHARASHTRA,248523
61,THE SINDHUDURG DISTRICT CENTRAL COOP BANK LTD,SIDC0001062,SHRAVAN,AT AND POST SHRAVAN TAL MALVAN,SINDHUDURG,SHRAVAN,MAHARASHTRA,259647
62,THE SINDHUDURG DISTRICT CENTRAL COOP BANK LTD,SIDC0001063,SUKLWAD,AT AND POST SUKALWAD TAL MALVAN,SINDHUDURG,SUKLWAD,MAHARASHTRA,225686
63,THE SINDHUDURG DISTRICT CENTRAL COOP BANK LTD,SIDC0001064,KALSE,AT AND POST KALSE TAL MALVAN,SINDHUDURG,KALSE,MAHARASHTRA,255716
64,THE SINDHUDURG DISTRICT CENTRAL COOP BANK LTD,SIDC0001065,MAALGAON,AT AND POST MALGAON TAL MALVAN,SINDHUDURG,MAALGAON,MAHARASHTRA,227847
65,THE SINDHUDURG DISTRICT CENTRAL COOP BANK LTD,SIDC0001066,HUMARMALA,AT AND POST WALAWAL HUMARMALA TAL KUDAL,SINDHUDURG,HUMARMALA,MAHARASHTRA,233208
66,THE SINDHUDURG DISTRICT CENTRAL COOP BANK LTD,SIDC0001067,TULSULI,AT AND POST TULSULI TAL KUDAL,SINDHUDURG,TULSULI,MAHARASHTRA,244326
67,THE SINDHUDURG DISTRICT CENTRAL COOP BANK LTD,SIDC0001068,TENDOLI,AT AND POST TENDOLI TAL KUDAL,SINDHUDURG,TENDOLI,MAHARASHTRA,233460
68,THE SINDHUDURG DISTRICT CENTRAL COOP BANK LTD,SIDC0001069,HIRLOK,AT AND POST HIRLOK TAL KUDAL,SINDHUDURG,HIRLOK,MAHARASHTRA,245006
69,THE SINDHUDURG DISTRICT CENTRAL COOP BANK LTD,SIDC0001070,REDI,AT AND POST REDI TAL VENGURLA,SINDHUDURG,REDI,MAHARASHTRA,268323
70,THE SINDHUDURG DISTRICT CENTRAL COOP BANK LTD,SIDC0001071,ARAVALI TAK,AT AND POST ARAVALI TAK TAL VENGURLA,SINDHUDURG,ARAVALI TAK,MAHARASHTRA,227245
71,THE SINDHUDURG DISTRICT CENTRAL COOP BANK LTD,SIDC0001072,SATARDA,AT AND POST SATARDA TAL SAWANTWADI,SINDHUDURG,SATARDA,MAHARASHTRA,268806
72,THE SINDHUDURG DISTRICT CENTRAL COOP BANK LTD,SIDC0001073,MADURA,AT AND POST MADURA TAL SAWANTWADI,SINDHUDURG,MADURA,MAHARASHTRA,281155
73,THE SINDHUDURG DISTRICT CENTRAL COOP BANK LTD,SIDC0001074,MANCH,TANDPOSTMNCHETLDEOGD,SINDHUDURG,MANCH,MAHARASHTRA,247628
74,THE SINDHUDURG DISTRICT CENTRAL COOP BANK LTD,SIDC0001075,TIRWADE,AT AND POST TIRAWADE TAL VAIBHAVWADI,SINDHUDURG,TIRWADE,MAHARASHTRA,260024
75,THE SINDHUDURG DISTRICT CENTRAL COOP BANK LTD,SIDC0001076,KINJAWADE,TANDPOSTKINJVDETLDEOGD,SINDHUDURG,KINJAWADE,MAHARASHTRA,227015
76,THE SINDHUDURG DISTRICT CENTRAL COOP BANK LTD,SIDC0001077,TITHAWALI,AT AND POST TITHAVALI TAL VAIBHAVWADI,SINDHUDURG,TITHAWALI,MAHARASHTRA,205571
77,THE SINDHUDURG DISTRICT CENTRAL COOP BANK LTD,SIDC0001078,BAPARDE,TANDPOSTBPRDETLDEOGD,SINDHUDURG,BAPARDE,MAHARASHTRA,246989
78,THE SINDHUDURG DISTRICT CENTRAL COOP BANK LTD,SIDC0001079,MALGAON,AT AND POST MALGAON TAL SAWANTWADI,SINDHUDURG,MALGAON,MAHARASHTRA,258301
79,THE SINDHUDURG DISTRICT CENTRAL COOP BANK LTD,SIDC0001080,MAJGAON,AT AND POST MAJGAON TAL SAWANTWADI,SINDHUDURG,MAJGAON,MAHARASHTRA,273845
80,THE SINDHUDURG DISTRICT CENTRAL COOP BANK LTD,SIDC0001096,KUDAL CITY,AT AND POST AND TAL KUDAL,SINDHUDURG,KUDAL CITY,MAHARASHTRA,221237
81,THE SINDHUDURG DISTRICT CENTRAL COOP BANK LTD,SIDC0001097,KALNE,AT AND POST KALANE TAL DODAMARG,SINDHUDURG,KALNE,MAHARASHTRA,255033
82,THE SINDHUDURG DISTRICT CENTRAL COOP BANK LTD,SIDC0001098,TALAWADE,AT AND POST TALAWADE TAL SAWANTWADI,SINDHUDURG,TALAWADE,MAHARASHTRA,266121
83,THE SINDHUDURG DISTRICT CENTRAL COOP BANK LTD,SIDC0001099,KUWALE,TANDPOSTKUWLETLDEOGD,SINDHUDURG,KUWALE,MAHARASHTRA,202085
84,THE SINDHUDURG DISTRICT CENTRAL COOP BANK LTD,SIDC0001100,DANOLI,AT AND POST DANOLI TAL SAWANTWADI,SINDHUDURG,DANOLI,MAHARASHTRA,246536
85,THE SINDHUDURG DISTRICT CENTRAL COOP BANK LTD,SIDC0001101,ZARAP,AT AND POST ZARAP TAL KUDAL,SINDHUDURG,ZARAP,MAHARASHTRA,232318
86,THE SINDHUDURG DISTRICT CENTRAL COOP BANK LTD,SIDC0001102,NERUR,AT AND POST NERUR TAL KUDAL,SINDHUDURG,NERUR,MAHARASHTRA,202159
87,THE SINDHUDURG DISTRICT CENTRAL COOP BANK LTD,SIDC0001103,HIWALE,AT AND POST HIWALE TAL MALVAN,SINDHUDURG,HIWALE,MAHARASHTRA,202300
88,THE SINDHUDURG DISTRICT CENTRAL COOP BANK LTD,SIDC0001104,PARULE,AT AND POST PARULE TAL KUDAL,SINDHUDURG,PARULE,MAHARASHTRA,269788
89,THE SINDHUDURG DISTRICT CENTRAL COOP BANK LTD,SIDC0001105,MATH,AT AND POST MATH TAL VENGURLA,SINDHUDURG,MATH,MAHARASHTRA,264404
90,THE SINDHUDURG DISTRICT CENTRAL COOP BANK LTD,SIDC0001106,NADHAVDE,AT AND POST NADHAVADE TAL VAIBHAVWADI,SINDHUDURG,NADHAVDE,MAHARASHTRA,255730
91,THE SINDHUDURG DISTRICT CENTRAL COOP BANK LTD,SIDC0001107,UMBARDE,AT AND POST UMBARDE TAL VAIBHAVWADI,SINDHUDURG,UMBARDE,MAHARASHTRA,253727
92,THE SINDHUDURG DISTRICT CENTRAL COOP BANK LTD,SIDC0001108,KUNKESHWAR,TANDPOSTKUNKESHWRTLDEOGD,SINDHUDURG,KUNKESHWAR,MAHARASHTRA,248964
93,THE SINDHUDURG DISTRICT CENTRAL COOP BANK LTD,SIDC0001109,AROS DANDELI,AT AND POST AROS DANDELI TAL SAWANTWADI,SINDHUDURG,AROS DANDELI,MAHARASHTRA,260090
94,THE SINDHUDURG DISTRICT CENTRAL COOP BANK LTD,SIDC0001110,PINGULI,AT AND POST PINGULI TAL KUDAL,SINDHUDURG,PINGULI,MAHARASHTRA,221090
95,THE SINDHUDURG DISTRICT CENTRAL COOP BANK LTD,SIDC0001111,OSARGAON,AT AND POST OSARGAON TAL KANKAVALI,SINDHUDURG,OSARGAON,MAHARASHTRA,251028
96,THE SINDHUDURG DISTRICT CENTRAL COOP BANK LTD,SIDC0001112,MALVAN CITY,AT AND POST AND TAL MALVAN,SINDHUDURG,MALVAN CITY,MAHARASHTRA,251159
97,THE SINDHUDURG DISTRICT CENTRAL COOP BANK LTD,SIDC0001113,HET SHEVRI,AT AND POST HET SHEWARI TAL VAIBHAVWADI,SINDHUDURG,HET SHEVRI,MAHARASHTRA,0
