,BANK NAME,IFSC,OFFICE,ADDRESS,DISTRICT,CITY,STATE,PHONE
0,THE SHAMRAO VITHAL COOPERATIVE BANK,SVCB0000001,RTGS-HO,"S V C TOWER, NEHRU ROAD, SANTACRUZ MUMBAI 400055",GREATER BOMBAY,MUMBAI,MAHARASHTRA,71991201
1,THE SHAMRAO VITHAL COOPERATIVE BANK,SVCB0000002,CUFFE PARADE,"MAKER TOWERS'E',CUFFEPARADE,MUMBAI-400 005",GREATER BOMBAY,MUMBAI,MAHARASHTRA,67444545
2,THE SHAMRAO VITHAL COOPERATIVE BANK,SVCB0000003,BANDRA,"C,CHITRAPUR CHS,27TH RD TPS III,BANDRA(W), MUMBAI 400 050",GREATER BOMBAY,MUMBAI,MAHARASHTRA,26426280
3,THE SHAMRAO VITHAL COOPERATIVE BANK,SVCB0000004,BORIVALI,"BAL VATSALAYA BLDG,KASTURBA CROSS RD NO-1,BORIVALI,MUMBAI-400 066",GREATER BOMBAY,MUMBAI,MAHARASHTRA,28058425
4,THE SHAMRAO VITHAL COOPERATIVE BANK,SVCB0000005,MATUNGA,"5,KANARA HOUSE,MOGAL LANE,MAHIM,MUMBAI-400 016",GREATER BOMBAY,MUMBAI,MAHARASHTRA,24379927
5,THE SHAMRAO VITHAL COOPERATIVE BANK,SVCB0000006,S V MARG,"H/2, ANANDASHRAM,SHAMRAO VITHAL MARG,MUMBAI-400 007",GREATER BOMBAY,MUMBAI,MAHARASHTRA,23867924
6,THE SHAMRAO VITHAL COOPERATIVE BANK,SVCB0000007,SAKINAKA,"SHOP NO. 11, 12, 30, 31, GROUND FLOOR, SAGAR TECH PLAZA ┬û A PREMISES CHS LTD., VILLAGE MOHILI, ANDHERI ┬û KURLA ROAD, SAKINAKA, MUMBAI - 400072",GREATER BOMBAY,MUMBAI,MAHARASHTRA,28522508
7,THE SHAMRAO VITHAL COOPERATIVE BANK,SVCB0000008,SANTACRUZ,"8/1,SARASWAT COLONY,SANTACRUZ(W),MUMBAI-400 054",GREATER BOMBAY,MUMBAI,MAHARASHTRA,26600584
8,THE SHAMRAO VITHAL COOPERATIVE BANK,SVCB0000009,SLEATER ROAD,"A/3-4,GANESH PRASAD,NAUSHIR BHARUCHA MARG,MUMBAI-400 007",GREATER BOMBAY,MUMBAI,MAHARASHTRA,23812092
9,THE SHAMRAO VITHAL COOPERATIVE BANK,SVCB0000010,VILE PARLE,"GEETANJALI,NEHRU ROAD,VILEPARLE(E),MUMBAI-400 057",GREATER BOMBAY,MUMBAI,MAHARASHTRA,26133210
10,THE SHAMRAO VITHAL COOPERATIVE BANK,SVCB0000011,GOREGAON,"12,UDYOG NAGAR,TIME STAR BLDG,S V RD,GOREGAON,MUMBAI-400 062",GREATER BOMBAY,MUMBAI,MAHARASHTRA,28740578
11,THE SHAMRAO VITHAL COOPERATIVE BANK,SVCB0000012,MANDVI,"82/84,ANAND BLDG,KAZI SYED STREET,MANDVI,MUMBAI-400 003",GREATER BOMBAY,MUMBAI,MAHARASHTRA,23446206
12,THE SHAMRAO VITHAL COOPERATIVE BANK,SVCB0000013,VERSOVA,"7,SARKAR CORNER,J P RD,ANDHERI(W),MUMBAI-400 058",GREATER BOMBAY,MUMBAI,MAHARASHTRA,26770151
13,THE SHAMRAO VITHAL COOPERATIVE BANK,SVCB0000015,KALYAN,"SAI VIHAR,CHHATRAPATI SHIVAJI PATH,SHIVAJI CHAWK,KALYAN-421 301",THANE,KALYAN,MAHARASHTRA,2313479
14,THE SHAMRAO VITHAL COOPERATIVE BANK,SVCB0000016,MULUND,"SABNIS NIWAS,RHB RD,MULUND(W),MUMBAI-400 080",GREATER BOMBAY,MUMBAI,MAHARASHTRA,25605735
15,THE SHAMRAO VITHAL COOPERATIVE BANK,SVCB0000017,MAHAKALI CAVES RD,"SANSKRITI PARK,OPP. CANOSSA HIGH SCHOOL,ANDHERI(E), MUMBAI-400 093",GREATER BOMBAY,MUMBAI,MAHARASHTRA,28370781
16,THE SHAMRAO VITHAL COOPERATIVE BANK,SVCB0000018,GHATKOPAR,"JAYANT ARCADE,RAJAWADI NAKA,GHATKOPAR(E),MUMBAI-400 077",GREATER BOMBAY,MUMBAI,MAHARASHTRA,21027308
17,THE SHAMRAO VITHAL COOPERATIVE BANK,SVCB0000019,KANDIVALI,"6 MANEK NAGAR,M G RD,KANDIVALI (W),MUMBAI-400 067",GREATER BOMBAY,MUMBAI,MAHARASHTRA,28634490
18,THE SHAMRAO VITHAL COOPERATIVE BANK,SVCB0000020,CHEMBUR,"913,NATASHA PLAZZA,D K SANDHU MARG,CHEMBUR,MUMBAI-400 071",GREATER BOMBAY,MUMBAI,MAHARASHTRA,25235389
19,THE SHAMRAO VITHAL COOPERATIVE BANK,SVCB0000021,MALAD,"47/A,S M HOUSE LOURDES COLONY,ORLEM,MALAD,MUMBAI-400 064",GREATER BOMBAY,MUMBAI,MAHARASHTRA,28069163
20,THE SHAMRAO VITHAL COOPERATIVE BANK,SVCB0000022,MIRA ROAD,"ROYAL CHALLENGE BLDG,MIRA-BHAYENDER RD,DIST- THANE 401 107",THANE,THANE,MAHARASHTRA,28122372
21,THE SHAMRAO VITHAL COOPERATIVE BANK,SVCB0000023,THANE,"SHOP NO.11 & 12, SITA VIHAR, DAMANI ESTATE, L. B. S. MARG, NAUPADA, THANE(W)-400 602.",THANE,THANE,MAHARASHTRA,25338715
22,THE SHAMRAO VITHAL COOPERATIVE BANK,SVCB0000024,VASHI,"BANKING COMPLEX-II, UNIT NO.3, GROUND FLOOR, COMMERCIAL CO-OP. PREMISES SOCIETY LTD., PLOT NO.9&10, SECTOR ┬û 19A,VASHI, NAVI MUMBAI ┬û 400 703",GREATER BOMBAY,MUMBAI,MAHARASHTRA,27847651
23,THE SHAMRAO VITHAL COOPERATIVE BANK,SVCB0000025,KHAR,"VANVARIA APPT,2ND ROAD CORNER,S V RD,KHAR(W),MUMBAI-400 052",GREATER BOMBAY,MUMBAI,MAHARASHTRA,26465991
24,THE SHAMRAO VITHAL COOPERATIVE BANK,SVCB0000026,VAKOLA,"SVC TOWER,JAWAHARLAL NEHRU ROAD,VAKOLA MARKET, SANTACRUZ (E),MUMBAI  -400 055",GREATER BOMBAY,MUMBAI,MAHARASHTRA,66999701
25,THE SHAMRAO VITHAL COOPERATIVE BANK,SVCB0000027,GAMDEVI,"SARASWAT COLONY,DR.K.N.MARG,GRANT ROAD,MUMBAI-400 007",GREATER BOMBAY,MUMBAI,MAHARASHTRA,23885013
26,THE SHAMRAO VITHAL COOPERATIVE BANK,SVCB0000030,KANDIVILI(E),"NIRMALA MEMORIAL FOUNDATION'S COLLEGE OF COMMERCE & SCIENCE,ASHA NAGAR,KANDIVILI(E),MUMBAI-400 101.",GREATER BOMBAY,MUMBAI,MAHARASHTRA,67256531
27,THE SHAMRAO VITHAL COOPERATIVE BANK,SVCB0000031,DADAR,"GROUND FLOOR,LAXMI NARAYAN NIVAS (KANE BLDG),RANADE ROAD,DADAR,MUMBAI-400028 MAHARASHTRA.",GREATER BOMBAY,MUMBAI,MAHARASHTRA,24320791
28,THE SHAMRAO VITHAL COOPERATIVE BANK,SVCB0000032,DAHISAR(EAST),"GROUND FLOOR,SHIVANI SANKUL VIDYABHUSHAN SHIKSHAN SANSTHA,SHIV VALLABH CROSS ROAD,ASHOK VAN,DAHISAR(E),MUMBAI-400 068",GREATER BOMBAY,MUMBAI,MAHARASHTRA,28965761
29,THE SHAMRAO VITHAL COOPERATIVE BANK,SVCB0000033,BANGUR NAGAR - GOREGAON W,"SHOPS NO 31-34,34A & 34 B,HEERAMANI RATAN CHS,BANGUR NAGAR,GOREGAON(W),MUMBAI - 400090",GREATER BOMBAY,MUMBAI,MAHARASHTRA,28712690
30,THE SHAMRAO VITHAL COOPERATIVE BANK,SVCB0000034,SANPADA EAST,"BHUMIRAJ MANOR CHS LTD, SECTOR 14,SANPADA (EAST),NAVI MUMBAI 400705",GREATER BOMBAY,MUMBAI,MAHARASHTRA,27811791
31,THE SHAMRAO VITHAL COOPERATIVE BANK,SVCB0000035,"SAIBABA NAGAR,BORIVILI(W)","Ground Floor,Veena Signature,CTS No.128/77A,Village Kandivali,Mahavir Nagar, Kandivali (West), Mumbai-400092",GREATER BOMBAY,MUMBAI,MAHARASHTRA,28620999
32,THE SHAMRAO VITHAL COOPERATIVE BANK,SVCB0000036,KAMOTHE,"SHOP NO.15,16, & 17,GROUND FLOOR,BLUE HEAVEN,PLOT NO 8-A,SECTOR NO 35, KAMOTHE,NAVI MUMBAI -410 206",GREATER BOMBAY,MUMBAI,MAHARASHTRA,64562200
33,THE SHAMRAO VITHAL COOPERATIVE BANK,SVCB0000037,BHANDUP,"WING""A"" GROUND FLOOR,VAKRATUNDA PALACE, OFF L.B.S.MARG, TANK ROAD,MUMBAI 400078",GREATER BOMBAY,MUMBAI,MAHARASHTRA,25962444
34,THE SHAMRAO VITHAL COOPERATIVE BANK,SVCB0000038,KOPARKHAIRANE,"GROUND FLOOR, FAM COOP. HOUSING SOCIETY LTD., SHOP NO.5A TO 9A, PLOT NO.19 & 19A, SECTOR -11, KOPARKHAIRANE, NAVI MUMBAI ┬û 400 709",GREATER BOMBAY,MUMBAI,MAHARASHTRA,27550151
35,THE SHAMRAO VITHAL COOPERATIVE BANK,SVCB0000039,BHAYANDER WEST,"GOVIND BLDG,SALASAR BRIJ BHOOMI,150FT ROAD,NEXT TO RELIANCE FRESH,NEAR FLYOVER, BHAYANDER WEST -401 101",GREATER BOMBAY,MUMBAI,MAHARASHTRA,28193055
36,THE SHAMRAO VITHAL COOPERATIVE BANK,SVCB0000040,MULUND (EAST),"SHAGUN SADHANA,GV SCHEME,ROAD NO 2,NEAR B.M.C.SCHOOL,MULUND(E),MUMBAI-400 081",GREATER BOMBAY,MUMBAI,MAHARASHTRA,25636778
37,THE SHAMRAO VITHAL COOPERATIVE BANK,SVCB0000041,VASAI WEST,"GURUKRIPA BUILDING,STATION ROAD,NEAR VASAI ROAD POST OFFICE,OPP.MANIKPUR CRICKET GROUND,VASAI WEST - 401 202",THANE,VASAI,MAHARASHTRA,2333012
38,THE SHAMRAO VITHAL COOPERATIVE BANK,SVCB0000042,VIRAR,"BUILDING NO. 10, M BARIA UNIQUE,TIRUPATI NAGAR , PHASE 2, UNITECH WESTEND ROAD,VIRAR (WEST) 401 303",THANE,VIRAR,MAHARASHTRA,2512696
39,THE SHAMRAO VITHAL COOPERATIVE BANK,SVCB0000043,MALAD (EAST),"KARISHMA PLAZA,PUSHPA PARK ,ROAD NO.1,NEAR ASHA HOSPITAL,MALAD EAST,MUMBAI -400097",GREATER BOMBAY,MUMBAI,MAHARASHTRA,28441603
40,THE SHAMRAO VITHAL COOPERATIVE BANK,SVCB0000044,"KHOPAT,THANE","SHOP NO 3,4,5 &101,BEAUTY ARCADE,KOLBAD CROSS ROAD,KHOPAT,THANE WEST- 400 602",THANE,THANE,MAHARASHTRA,25472587
41,THE SHAMRAO VITHAL COOPERATIVE BANK,SVCB0000045,KURLA EAST,"GALA NO.G-6,BUILDING NO.42, KRANTI CHS,NEHRU NAGAR,KURLA(EAST),MUMBAI-400 024",GREATER BOMBAY,MUMBAI,MAHARASHTRA,25275007
42,THE SHAMRAO VITHAL COOPERATIVE BANK,SVCB0000046,WADALA WEST,"VIJAY NIWAS,PLOT NO 193 STATION ROAD,WADALA WEST MUMBAI 400031",GREATER BOMBAY,MUMBAI,MAHARASHTRA,24160412
43,THE SHAMRAO VITHAL COOPERATIVE BANK,SVCB0000047,LALBAUG,"SHOP NO.09,10,11 GROUND FLOOR, HILLA TOWER CHS LTD. DR. S S ROAD MUMBAI 400 012.",GREATER BOMBAY,MUMBAI,MAHARASHTRA,24700800
44,THE SHAMRAO VITHAL COOPERATIVE BANK,SVCB0000048,DOMBIVALI,"SHOP NOS.4A-C, GAJANAN KRUPA, SANT NAMDEV PATH, OFF. MANPADA ROAD, DOMBIVALI(E) 421201.",THANE,DOMBIVLI,MAHARASHTRA,2426578
45,THE SHAMRAO VITHAL COOPERATIVE BANK,SVCB0000049,ANAND NAGAR DAHISAR EAST,"Shop No.17A,17B,17C,Krishna Towers, Junction of Link Road ,C S Road No.2,Jayanagar,Dahisar (East),Mumbai - 400 068. Tel No. : 022-28969001/28972002 Fax:28963001",GREATER BOMBAY,MUMBAI,MAHARASHTRA,28969001
46,THE SHAMRAO VITHAL COOPERATIVE BANK,SVCB0000050,PUNE D G,"NANDITA,JUNGLI MAHARAJ RD,DECCAN GYMKHANA,PUNE-411 004",PUNE,PUNE,MAHARASHTRA,25538371
47,THE SHAMRAO VITHAL COOPERATIVE BANK,SVCB0000051,PUNE SATARA ROAD,"SHOP NO-9-14,CHAPHALKAR CENTRE,NEAR HOTEL UTSAV,PUNE-411 037",PUNE,PUNE,MAHARASHTRA,24215075
48,THE SHAMRAO VITHAL COOPERATIVE BANK,SVCB0000052,PIMPARI CHINCHWAD,"63,SECTOR 27A,VILLAGE AKURDI,PCNT,NIGDI,PUNE-411 044",PUNE,PUNE,MAHARASHTRA,27659285
49,THE SHAMRAO VITHAL COOPERATIVE BANK,SVCB0000053,GHATKOPAR(WEST),"SHOP NO.1-3, GROUND FLOOR, DELITE PALACE CHS LTD., PLOT NO.71/7, M G ROAD, GHATKOPAR(W), MUMBAI-400086.",GREATER BOMBAY,MUMBAI,MAHARASHTRA,25103366
50,THE SHAMRAO VITHAL COOPERATIVE BANK,SVCB0000054,KHADAKPADA,"GROUND FLOOR, SHOP NO.3B, NIRAJ PARK, KHADAKPADA, KALYAN (W) THANE 421301.",THANE,KALYAN,MAHARASHTRA,2305544
51,THE SHAMRAO VITHAL COOPERATIVE BANK,SVCB0000055,CHARKOP,"KESAR RESIDENCY, SECTOR-3, NEXT TO BHAGWATI RESTAURANT, CHARKOP, KANDIVALI(W), MUMBAI- 400 067.",GREATER BOMBAY,MUMBAI,MAHARASHTRA,28682570
52,THE SHAMRAO VITHAL COOPERATIVE BANK,SVCB0000056,BADLAPUR,"GROUND & FIRST FLOOR, AAI BUILDING, VYANKATESH PARK, SANEWADI, KULGAON, BADLAPUR (W) 421 053.",THANE,THANE,MAHARASHTRA,6483116
53,THE SHAMRAO VITHAL COOPERATIVE BANK,SVCB0000057,VIRAR-EAST,"GROUND FLOOR, SHOP NOS. 1-7, VARU ENCLAVE BUILDING, HARI GOVIND NAGAR, PHULPADA ROAD, VIRAR (EAST), THANE-401 303",THANE,VIRAR,MAHARASHTRA,2520298
54,THE SHAMRAO VITHAL COOPERATIVE BANK,SVCB0000058,LOUISWADI,"UNIT NO.05,SUN MAGNETICA, LOUISWADI, NEAR LIC OFFICE, SERVICE ROAD, THANE (W), THANE 400 604.",THANE,THANE,MAHARASHTRA,25800051
55,THE SHAMRAO VITHAL COOPERATIVE BANK,SVCB0000059,VILE PARLE WEST,"SHOP NO.01, SAROJ BUILDING, 10, VALLABHAAI PATEL ROAD, VILE PARLE (W), MUMBAI 400 056.",GREATER BOMBAY,MUMBAI,MAHARASHTRA,26124028
56,THE SHAMRAO VITHAL COOPERATIVE BANK,SVCB0000060,MALESHWARAM,"49/1,5TH CROSS RD,MALLESHWARAM,BANGALORE-560 003",BANGALORE URBAN,BANGALORE,KARNATAKA,23441629
57,THE SHAMRAO VITHAL COOPERATIVE BANK,SVCB0000061,PEENYA,"KSSIDC MULTISTOREYED BLDG,PEENYA IND. EST.BANGALORE-560 058",BANGALORE URBAN,BANGALORE,KARNATAKA,28399355
58,THE SHAMRAO VITHAL COOPERATIVE BANK,SVCB0000062,RAJAJI NAGAR,"815/23,17TH'E',MAIN RD,5TH BLOCK,RAJAJI NAGAR,BANGALORE-560 010,",BANGALORE URBAN,BANGALORE,KARNATAKA,23403271
59,THE SHAMRAO VITHAL COOPERATIVE BANK,SVCB0000063,KORAMANGALA,"780,ESSZED MERIDIAN,80 FT.RD,BLOCK-4,KORAMANGALA,BANGALORE, 560 034",BANGALORE URBAN,BANGALORE,KARNATAKA,25503861
60,THE SHAMRAO VITHAL COOPERATIVE BANK,SVCB0000064,SION,"UNIT NO. G-02, GROUND FLOOR, VALUE ENCLAVE, AMBEDKAR ROAD, SION, MUMBAI-400022.",GREATER BOMBAY,MUMBAI,MAHARASHTRA,24078010
61,THE SHAMRAO VITHAL COOPERATIVE BANK,SVCB0000065,ANDHERI EAST,"SHOP NOS.2, BLDG. NO.F-2, VIJAYNAGARNITYANAND MARG,VIJAYNAGAR CHS LTD., ANDHERI (EAST), MUMBAI-400069.",GREATER BOMBAY,MUMBAI,MAHARASHTRA,26832611
62,THE SHAMRAO VITHAL COOPERATIVE BANK,SVCB0000066,VIKROLI(W),"SHOP NO.1-3,KAILASH COMMERCIAL COMPLEX,NEAR EVEREST FACTORY, LBS MARG, VIKROLI (WEST) MUMBAI-400083.",GREATER BOMBAY,MUMBAI,MAHARASHTRA,25778022
63,THE SHAMRAO VITHAL COOPERATIVE BANK,SVCB0000067,FOUR BANGALOWS,"SHOP NOS.3-5,SHREE SAGVAN CHS LTD., RTO LANE, FOUR BANGALOWS, ANDHERI (WEST), MUMBAI-400053.",GREATER BOMBAY,MUMBAI,MAHARASHTRA,26311037
64,THE SHAMRAO VITHAL COOPERATIVE BANK,SVCB0000068,TILAKNAGAR,"SHOP NO.10,BHAKTI HEIGHTS, CHEMBUR SANDESH CHS LTD., BLDG. NO.122, TILAKNAGAR CHEMBUR, MUMBAI-400089.",GREATER BOMBAY,MUMBAI,MAHARASHTRA,25272218
65,THE SHAMRAO VITHAL COOPERATIVE BANK,SVCB0000069,KHARGHAR,"SHOP NOS.5-8, SHUBHARAMBH COMPLEX, PLOT NO.19,SECTOR 20, KHARGHAR, NAVI MUMBAI 410210",THANE,NEW BOMBAY,MAHARASHTRA,65307070
66,THE SHAMRAO VITHAL COOPERATIVE BANK,SVCB0000070,MANGALORE,"G-7,CRYSTAL ARC,BALMATTA RD,MANGALORE-575 001,",DAKSHIN KANNAD,MANGALORE,KARNATAKA,2441263
67,THE SHAMRAO VITHAL COOPERATIVE BANK,SVCB0000071,SHIRALI,"OLD VANITA SAMAJ BUILDING, HOUSE NO.IX/25, SURVEY NO.815/A1, CHITRAPUR MAIN RD. SHIRALI -581354",UTTAR KANNAD,BHATKAL,KARNATAKA,258570
68,THE SHAMRAO VITHAL COOPERATIVE BANK,SVCB0000072,NERUL EAST,"GROUND FLOOR,SHOP NO. G-9 H, HAVARE CENTURION, PLOT NO. 88 TO 91, SECTOR 19, NERUL EAST, NAVI MUMBAI 400 706.",RAIGAD,KAMOTHE,MAHARASHTRA,27725040
69,THE SHAMRAO VITHAL COOPERATIVE BANK,SVCB0000073,KALWA,"GROUND FLOOR,KISHORE PLAZA,OLD MUMBAI ┬û PUNE ROAD, KALWA,THANE ┬û 400 605",THANE,THANE,MAHARASHTRA,25362870
70,THE SHAMRAO VITHAL COOPERATIVE BANK,SVCB0000074,KASARVADAVLI BRANCH,"Shop No. 7, Ground Floor, Puranik Capital, Ghodbunder Road, Opp. Hyper City Mall, Kasarvadavali, Thane West, Maharastra: 400615 Tel No. : 022-25973722/ 4311",THANE,THANE,MAHARASHTRA,25973722
71,THE SHAMRAO VITHAL COOPERATIVE BANK,SVCB0000075,NALLASOPARA,"GROUND FLOOR, KRISHNA RETAIL SPACE, OPP. KMPD SCHOOL, TULINJ ROAD,  NALLASOPARA (EAST), TALUKA VASAI, DIST THANE-401 209",THANE,NALLASOPARA,MAHARASHTRA,2435722
72,THE SHAMRAO VITHAL COOPERATIVE BANK,SVCB0000076,GIRGAON,"GROUND FLOOR, SUNRISE VENETIA, J .S .S. ROAD , BELOW AMBEWADI POST OFFICE, GIRGAON,MUMBAI-400004.",GREATER BOMBAY,MUMBAI,MAHARASHTRA,23811125
73,THE SHAMRAO VITHAL COOPERATIVE BANK,SVCB0000077,FILMCITY ROAD,"SHOP NO.1,2&3 , GROUND FLOOR , SATELLITE GARDEN D-2 , FILM CITY ROAD, GOREGAON- EAST, MUMBAI -400063.",GREATER BOMBAY,MUMBAI,MAHARASHTRA,28404800
74,THE SHAMRAO VITHAL COOPERATIVE BANK,SVCB0000078,AIROLI,"GROUND FLOOR, SUTAR TOWER, PLOT NO.D4, SECTOR 20, AIROLI, NAVI MUMBAI 400 708.",THANE,NEW BOMBAY,MAHARASHTRA,27792433
75,THE SHAMRAO VITHAL COOPERATIVE BANK,SVCB0000079,VASHI SECTOR 15,"SHOP NOS.1-3, LAND VIEW CO-OPERATIVE HOUSING SOCIETY LTD., OPP. MARATHA BHAVAN, SECTOR 15 VASHI, NAVI MUMBAI-400 705.",THANE,NEW BOMBAY,MAHARASHTRA,27880561
76,THE SHAMRAO VITHAL COOPERATIVE BANK,SVCB0000080,PANJIM,"GROUND FLOOR, PRIMAVERA BLDG, NEXT TO EDC, DR.ATMARAM BORKAR ROAD, PANJIM, GOA- 403001.",NORTH GOA,PANAJI,GOA,2432552
77,THE SHAMRAO VITHAL COOPERATIVE BANK,SVCB0000081,PHADKE ROAD,"GROUND FLOOR,  PITRE BUILDING, PHADKE ROAD, DOMBIVALI (EAST), THANE ┬û 421 201",THANE,DOMBIVLI,MAHARASHTRA,6064100
78,THE SHAMRAO VITHAL COOPERATIVE BANK,SVCB0000082,"PANDURANGWADI, GOREGAON (E)","GROUND FLOOR, MURARRAO RANE HIGH SCHOOL BLDG., ROAD NO.3, PANDURANGWADI, GOREGAON (E), MUMBAI ┬û 400063.",GREATER BOMBAY,MUMBAI,MAHARASHTRA,28712145
79,THE SHAMRAO VITHAL COOPERATIVE BANK,SVCB0000083,DADAR EAST,"UNIT NO. 1 & 2, GR. FLOOR, AALAP CHS LTD, PLOT NO. 173,SIR BHALCHANDRA ROAD, DADAR (EAST), MUMBAI ┬û 400 014",GREATER BOMBAY,MUMBAI,MAHARASHTRA,24144086
80,THE SHAMRAO VITHAL COOPERATIVE BANK,SVCB0000084,VAZIRA NAKA,"SHOP NO.2 AND 3,CREST AVENUE CHS,AT L.T.ROAD,VAZIRA NAKA,BORIVALI WEST,MUMBAI 400092",GREATER BOMBAY,MUMBAI,MAHARASHTRA,71999999
81,THE SHAMRAO VITHAL COOPERATIVE BANK,SVCB0000085,KURLAWEST,"GROUND FLOOR,KOHINOOR CITY GANDHI BAL MANDIR,KURLA WEST MUMBAI 400070",MUMBAI,MUMBAI,MAHARASHTRA,0
82,THE SHAMRAO VITHAL COOPERATIVE BANK,SVCB0000086,CG ROAD CHEMBUR,"GROUND FLOOR,SHOP NO 1,2 AND 2A,VIKAS COMMERCIAL CENTRE,DR.C G ROAD,CHEMBUR,MUMBAI 400074",GREATER BOMBAY,MUMBAI,MAHARASHTRA,71999999
83,THE SHAMRAO VITHAL COOPERATIVE BANK,SVCB0000087,MYSORE,"2924, Basava Arcade, Ground Floor, 1st main, 5th Cross, Saraswathipuram, Chamraja Mohalla, Mysore, State : Karnataka, City : Bengaluru Pin No. : 570009 Tel No. : 0821-2341299 / 23416",MYSORE,MYSORE,KARNATAKA,2341299
84,THE SHAMRAO VITHAL COOPERATIVE BANK,SVCB0000088,DHARWAD,"GROUND FLOOR,THEJA MAHAL, CTS NO.150/A, MARKET FORT, OPP. REGAL TALKIES, VIJAYARD,NEAR CBT, DHARWAD -580 001.",DHARWAD,HUBLI-DHARWAD,KARNATAKA,2447373
85,THE SHAMRAO VITHAL COOPERATIVE BANK,SVCB0000089,WORLI,"SHOP NO 8-10, GROUND FLOOR, RAMODIYA MANSION NO 1, 257, OFF DR ANNIE BESANT ROAD, WORLI, MUMBAI- 400025",GREATER BOMBAY,MUMBAI,MAHARASHTRA,24365468
86,THE SHAMRAO VITHAL COOPERATIVE BANK,SVCB0000090,HUBLI,"GND FLR,SATELLITE SPACE AGE COMPLEX,KOPPIKAR RD,HUBLI-580 020,",DHARWAD,HUBLI-DHARWAD,KARNATAKA,2366973
87,THE SHAMRAO VITHAL COOPERATIVE BANK,SVCB0000091,BELGAUM,"AASHRAYA EMPIRE, JUNCTION OF KHANAPUR ROAD & DESHMUKH ROAD (RPD CORNER),TILAKWADI, BELGAUM-590006",BELGAUM,BELGAUM,KARNATAKA,2461448
88,THE SHAMRAO VITHAL COOPERATIVE BANK,SVCB0000092,WANWORIE,"SHOP NO. 1-7, KONDAI MARUTI BLDG., SALUNKHE VIHAR ROAD,┬á WANWORIE, PUNE 411 048",PUNE,PUNE,MAHARASHTRA,26833949
89,THE SHAMRAO VITHAL COOPERATIVE BANK,SVCB0000093,VIJAYNAGAR,"KVV ENGLISH NURSERY, PRIMARY & HIGH SCHOOL, 3 & 3/1, SUBBANNA GARDENS, BEHIND BTS GARAGE, VIJAY NAGAR, BENGALURU - 560 040.",BANGALORE URBAN,BANGALORE,KARNATAKA,23218189
90,THE SHAMRAO VITHAL COOPERATIVE BANK,SVCB0000094,NASHIK ROAD,"JDC BYTCO (ENGLISH MEDIUM) HIGH SCHOOL,NASHIK ROAD,NASHIK-422101",NASIK,NASHIK,MAHARASHTRA,2461168
91,THE SHAMRAO VITHAL COOPERATIVE BANK,SVCB0000095,BANDRA EAST,"IES NEW ENGLISH HIGH SCHOOL,GOVT. COLONY, BANDRA (E),MUMBAI-400 051.",GREATER BOMBAY,MUMBAI,MAHARASHTRA,26571951
92,THE SHAMRAO VITHAL COOPERATIVE BANK,SVCB0000096,GANAPATHY HIGH SCHOOL ROAD,"GROUND FLOOR, MOHINI VILAS COMMERCIAL COMPLEX, CASABA BAZAR VILLAGE, 13TH MARKET YARD OF MANGALORE CITY, GANAPATHY HIGH SCHOOL ROAD, HAMPANKATTA, MANGALORE ┬û 575 001",DAKSHIN KANNAD,MANGALORE,KARNATAKA,2420382
93,THE SHAMRAO VITHAL COOPERATIVE BANK,SVCB0000097,HESSARGHATTA ROAD,"TRIVENI MEMORIAL EDUCATIONAL TRUST,28/29,HESSARGATTA MAIN RD,MALLA SANDRA,PEENYA,BANGALORE-560057",BANGALORE URBAN,BANGALORE,KARNATAKA,28393699
94,THE SHAMRAO VITHAL COOPERATIVE BANK,SVCB0000098,11TH CROSS MALLESHWARAM,"8TH MAIN,14TH CROSS,NEXT TO CANARA UNION, MALLESHWARAM",BANGALORE URBAN,BANGALORE,KARNATAKA,23316709
95,THE SHAMRAO VITHAL COOPERATIVE BANK,SVCB0000099,EKSAR ROAD,"The Corner,Junction of Link Road AND Devidas Lane,Opp Eskay Resort, Eksar Road, Borivali West, Mumbai 400103",GREATER BOMBAY,MUMBAI,MAHARASHTRA,28943626
96,THE SHAMRAO VITHAL COOPERATIVE BANK,SVCB0000100,NASHIK,"L-15 &G-16,UTILITY CENTRE,N M C SHARANPUR RD,NASHIK-422 001,",NASIK,NASHIK,MAHARASHTRA,2311618
97,THE SHAMRAO VITHAL COOPERATIVE BANK,SVCB0000101,CAMP,"H.NO-620, S.NO-390/391, SACHAPIR STREET, SHARBHATWALA CHOWK, NEAR UNION BANK OF INDIA-IFB, CAMP, PUNE-411001",PUNE,PUNE,MAHARASHTRA,26052659
98,THE SHAMRAO VITHAL COOPERATIVE BANK,SVCB0000102,VIMAN NAGAR,"UNIT NO.- 5,6,7,8,19 AND 20- PREMLAND, KONARK INDUSTRIAL ESTATE, PLOT NO.- 11, LOHEGAON, VIMAN NAGAR, PUNE- 411014.",PUNE,PUNE,MAHARASHTRA,26630855
99,THE SHAMRAO VITHAL COOPERATIVE BANK,SVCB0000103,AUNDH - PUNE,"Ground Floor, Shop No. 2, Future One, Survey No. 245/4/2 and 245/5/1 in Village Baner, Taluka : Haveli, District : Pune ┬û 411 067, Tel No. : 020 27299110/27299120.",PUNE,PUNE,MAHARASHTRA,27299110
100,THE SHAMRAO VITHAL COOPERATIVE BANK,SVCB0000104,KOTHRUD,"SURVEY NO 61,NARMADA HEIGHTS,D.P. ROAD,SHOP NO 2/3/4,KOTHRUD- 411 038",PUNE,PUNE,MAHARASHTRA,25386889
101,THE SHAMRAO VITHAL COOPERATIVE BANK,SVCB0000105,BHOSARI,"SNEH VISHWA PALACE,SECTOR NO 1, NEAR HOTEL HAVELI, NASHIK- PUNE HIGHWAY, INDRAYANI NAGAR, BHOSARI,PUNE 411 026",PUNE,PUNE,MAHARASHTRA,27230222
102,THE SHAMRAO VITHAL COOPERATIVE BANK,SVCB0000106,BIBWEWADI,"635/1B,NEW GAJRA SOCIETY, BIBWEWADI, PUNE-411037.",PUNE,PUNE,MAHARASHTRA,24410992
103,THE SHAMRAO VITHAL COOPERATIVE BANK,SVCB0000107,CHINCHWAD GAON,"INDRASHEEL APARTMENTS,SHOP 1 AND 2,PLOT 5,TANAJI NAGAR,CHINCHWAD,PUNE 411033",PUNE,PUNE,MAHARASHTRA,27615454
104,THE SHAMRAO VITHAL COOPERATIVE BANK,SVCB0000108,SINHAGAD ROAD,"35/2/1/1, VADGAON BUDRUK, MANIK BAUG, SINHAGAD ROAD,PUNE-411041.",PUNE,PUNE,MAHARASHTRA,24355004
105,THE SHAMRAO VITHAL COOPERATIVE BANK,SVCB0000109,HADAPSAR,"GROUND FLOOR, TUPE COMPLEX, SR. NO. 84, HISA NO.04&05,VILLAGE HADAPSAR, TALUKA HAVELI,PUNE-411028.",PUNE,HADAPSAR,MAHARASHTRA,26811401
106,THE SHAMRAO VITHAL COOPERATIVE BANK,SVCB0000110,AURANGABAD,"RAJENDRA BHAVAN,1,OPP. HOTEL ASHOKA,ADALAT RD,AURANGABAD-431 001,",AURANGABAD,AURANGABAD,MAHARASHTRA,2324929
107,THE SHAMRAO VITHAL COOPERATIVE BANK,SVCB0000111,AHMADNAGAR,"MARC HOUSE, PLOT NO.95/1, TOWN PLANNING SCHEME NO.IV, OPP. DATTA MANDIR, NAGAR MANMAD ROAD, SAVEDI, AHMEDNAGAR-414002.",AHMADNAGAR,AHMADNAGAR,MAHARASHTRA,2430422
108,THE SHAMRAO VITHAL COOPERATIVE BANK,SVCB0000112,LATUR,"24/3-28,UKKA MARG, CHANDRA NAGAR, OPP. BASAVESHWAR MANGAL KARYALAYA, LATUR 413512.",LATUR,LATUR,MAHARASHTRA,250257
109,THE SHAMRAO VITHAL COOPERATIVE BANK,SVCB0000113,JALNA,"GROUND FLOOR, PLOT NO.27, BHOKARDAN ROAD, JALNA, 431203.",JALNA,JALNA,MAHARASHTRA,242011
110,THE SHAMRAO VITHAL COOPERATIVE BANK,SVCB0000114,INDORE,"GROUND FLOOR, ADITYA ENCLAVE, HIG COLONY, HIG MAIN ROAD, KHAJARANI, INDORE MADHYA PRADESH 452 008.",INDORE,INDORE,MADHYA PRADESH,2539222
111,THE SHAMRAO VITHAL COOPERATIVE BANK,SVCB0000115,WALUJ,"PLOT NO.P-102,MEENATAI THAKRE MARKET, BAJAJ NAGAR, MAHARANAPRATAP CHOWK, WALUJ AURANGABAD 431136.",AURANGABAD,WALUJ,MAHARASHTRA,2554928
112,THE SHAMRAO VITHAL COOPERATIVE BANK,SVCB0000116,SOLAPUR,"SHOP NO.5 AND 6,SUN PLAZA,CITY SURVEY NO.8516 BY 11,MURARJI PETH,SOLAPUR 413002",SOLAPUR,SOLAPUR,MAHARASHTRA,2724263
113,THE SHAMRAO VITHAL COOPERATIVE BANK,SVCB0000117,RATNAGIRI,"PANCHASHEEL SANKUL, NEAR MARUTI MANDIR, RATNAGIRI, MAHARASHTRA 415 612.",RATNAGIRI,RATNAGIRI,MAHARASHTRA,234050
114,THE SHAMRAO VITHAL COOPERATIVE BANK,SVCB0000118,NANDED,"SHOP NO 6,7,22 & 23 SANMAN PRESTIGE, STATION ROAD,NEAR ZILLA PARISHAD OFFICE, NANDED 431601.",JALGAON,NANDED,MAHARASHTRA,239144
115,THE SHAMRAO VITHAL COOPERATIVE BANK,SVCB0000119,AMRAVATI,"GROUND FLOOR, LATHIYAS COMPLEX, AUTO LANE, AMBE PETH, AMRAVATI 444601",AMRAVATI,AMRAVATI,MAHARASHTRA,8605505894
116,THE SHAMRAO VITHAL COOPERATIVE BANK,SVCB0000120,NAGPUR,"39, VRINDA KUNJ,MATAMANDIR ROAD,DHARAMPETH,NAGPUR -440 010",NAGPUR,NAGPUR,MAHARASHTRA,2542195
117,THE SHAMRAO VITHAL COOPERATIVE BANK,SVCB0000121,GANDHIBAGH NAGPUR (E),"SURAJ SADAN, PLOT NO.10,C.A. ROAD, OPP. SOUTH GATE, GANDHIBAGH, NAGPUR (EAST) 440008.",NAGPUR,NAGPUR,MAHARASHTRA,2734077
118,THE SHAMRAO VITHAL COOPERATIVE BANK,SVCB0000122,BHANWAR KUWA-  INDORE,"7, GROUND FLOOR, MALWA TOWER, ASHOK NAGAR,BHANWAR KUWA MAIN ROAD, INDORE- 452001",INDORE,INDORE,MADHYA PRADESH,9300010012
119,THE SHAMRAO VITHAL COOPERATIVE BANK,SVCB0000123,MARGAO,"GROUND FLOOR, SHOP NO 1& 2, VASANT ARCADE,COMBA, MARGAO, GOA- 403601",SOUTH GOA,MARGAO,GOA,9158332310
120,THE SHAMRAO VITHAL COOPERATIVE BANK,SVCB0000124,SAHAKAR NAGAR II,"GROUND FLOOR, GHORPADE CHAMBERS, CTS NO 1893, S.NO. 84/4/3, PARVATI DARSHAN, SAHAKAR NAGAR 2, PUNE- 411009",PUNE,PUNE,MAHARASHTRA,24213311
121,THE SHAMRAO VITHAL COOPERATIVE BANK,SVCB0000125,PAUD ROAD,"GROUND FLOOR, SHOP NO 1 & 2, VASANT PUSHP, RAJPATH HOUSING SOCIETY, PLOT NO 22, OFF PAUD ROAD, PUNE- 411038",PUNE,PUNE,MAHARASHTRA,25390023
122,THE SHAMRAO VITHAL COOPERATIVE BANK,SVCB0000126,PIMPLE SAUDAGAR,"SHOP NO 3,4 AND 5,PAARVASAAKSHI BUILDING A,SHIV SAI ROAD,PIMPLE SAUDAGAR,PUNE 411027",PUNE,PUNE,MAHARASHTRA,0
123,THE SHAMRAO VITHAL COOPERATIVE BANK,SVCB0000127,WARJE BRANCH,"GROUND FLOOR, SHOP.NO.9, SPANDAN, WARJE MALWADI, PUNE -411058",PUNE,WARJE,MAHARASHTRA,25236222
124,THE SHAMRAO VITHAL COOPERATIVE BANK,SVCB0000128,"BALEWADI, PUNE","Shop No : 1,2,3 S.No. 131, Sundarban Complex, Ground Floor, Baner Balewadi Road, Balewadi Phata, Pune ┬û 411 045, Tel No:020 65240001",PUNE,BALEWADI,MAHARASHTRA,65240002
125,THE SHAMRAO VITHAL COOPERATIVE BANK,SVCB0000129,SAHAKAR NAGAR,"GROUND & FIRST FLOOR, RAMCHANDRA APPARTMENTS, TAWRE COLONY,47/31 C, ARANYESHWAR, SAHAKAR NAGAR, PUNE 411009.",PUNE,PUNE,MAHARASHTRA,24222552
126,THE SHAMRAO VITHAL COOPERATIVE BANK,SVCB0000130,SADASHIV PETH,"LAXMAN HEIGHTS, CTS NO. 833, SADASHIV PETH,,PUNE-411030.",PUNE,PUNE,MAHARASHTRA,24440002
127,THE SHAMRAO VITHAL COOPERATIVE BANK,SVCB0000131,KARVE NAGAR,"GROUND FLOOR, SHWETA APARTMENTS, BLDG, NO.2, HINGNE, KARVE NAGAR, PUNE 411052.",PUNE,PUNE,MAHARASHTRA,65004020
128,THE SHAMRAO VITHAL COOPERATIVE BANK,SVCB0000132,PODDAR ROAD,"SHOP NO 1 & 2, GROUND FLOOR, GANGA VIHAR B, PODDAR ROAD, SANTACRUZ WEST, MUMBAI- 400054",GREATER BOMBAY,MUMBAI,MAHARASHTRA,26194572
129,THE SHAMRAO VITHAL COOPERATIVE BANK,SVCB0000133,DOMBIVALI WEST,"CTS NO 9/5,SURVEY NO 215, GROUND FLOOR, GURU DILASA, GUPTE ROAD, JAIHIND COLONY,DOMBIVLI WEST, THANE- 421202",THANE,DOMBIVLI,MAHARASHTRA,8097093910
130,THE SHAMRAO VITHAL COOPERATIVE BANK,SVCB0000134,"SHANTI GARDEN, MIRA ROAD","SHOP NO 8 TO 12, FLAT NO 001, BUILDING NO 2, SHANTI GARDEN, SECTOR 2, MIRA ROAD EAST, DISTRICT THANE- 401107",THANE,MIRA-BHAYANDAR,MAHARASHTRA,29451552
131,THE SHAMRAO VITHAL COOPERATIVE BANK,SVCB0000135,VASAI EAST,"GROUND FLOOR, A1,A2,A4, NEW MANISH C.H.S, EVERSHINE CITY, VASAI EAST, THANE 401208",THANE,VASAI,MAHARASHTRA,9820485436
132,THE SHAMRAO VITHAL COOPERATIVE BANK,SVCB0000136,BHANDUP EAST,"AJINKYA APARTMENTS, DATAR COLONY ROAD, BHANDUP EAST, MUMBAI - 400 042.",GREATER BOMBAY,MUMBAI,MAHARASHTRA,25662535
133,THE SHAMRAO VITHAL COOPERATIVE BANK,SVCB0000137,SANDHURST ROAD,"SHOP NO 6 TO 9, PODDAR BUILDING NO 1,DR MAHESHWARI ROAD, DONGRI, SANDHURST ROAD, MUMBAI 400009",GREATER BOMBAY,MUMBAI,MAHARASHTRA,71999999
134,THE SHAMRAO VITHAL COOPERATIVE BANK,SVCB0000138,PANVEL,"SHOP NO.1 TO 4, SNEH BUILDING, NITYANAND MARG, PANVEL DIST. RAIGAD 410206.",RAIGAD,PANVEL,MAHARASHTRA,9833692396
135,THE SHAMRAO VITHAL COOPERATIVE BANK,SVCB0000139,OSHIWARA,"HVPS INTERNATIONAL SCHOOL ,NEAR INCOME TAX QUARTERS OSHIWARA MUMBAI 400053",GREATER MUMBAI,MUMBAI,MAHARASHTRA,9987772887
136,THE SHAMRAO VITHAL COOPERATIVE BANK,SVCB0000140,JAWAHAR NAGAR- GOREGAON,"CITY SURVEY NO 598, PLOT NO 193,GROUND FLOOR, SURAG RESIDENCY, JAWAHAR NAGAR, ROAD NO 3, GOREGAON WEST, MUMBAI- 400062",GREATER BOMBAY,MUMBAI,MAHARASHTRA,8655199954
137,THE SHAMRAO VITHAL COOPERATIVE BANK,SVCB0000141,KALYAN EAST,GAGANGIRI OPPOSITE HOTEL PRASAD TISGAON NAKA POONA LINK ROAD KALYAN EAST 421306,THANE,KALYAN,MAHARASHTRA,2358973
138,THE SHAMRAO VITHAL COOPERATIVE BANK,SVCB0000142,KOPARI-THANE EAST,"SHREE DATTA SAI TOWER, VIJAY NAGAR, OPP. THANEKAR WADI, HARIOM NAGAR ROAD, THANE (E) 400603.",THANE,THANE,MAHARASHTRA,25324011
139,THE SHAMRAO VITHAL COOPERATIVE BANK,SVCB0000143,SATELLITE ROAD,"UNIT NO 18, PRIMATE COMPLEX, NEAR JUDGES BUNGALOW CROSS ROAD,SATELLITE, AHMEDABAD 380015",AHMEDABAD,AHMEDABAD,GUJARAT,9978584222
140,THE SHAMRAO VITHAL COOPERATIVE BANK,SVCB0000144,BHARUCH,"SHOP NO.12,SILVER SQUARE,LINK ROAD,BHARUCH 392001",BHARUCH,BHARUCH,GUJARAT,71999999
141,THE SHAMRAO VITHAL COOPERATIVE BANK,SVCB0000145,KARELIBAUG,"GROUND & 1ST FLOOR, KAPADIA HOUSE, 1- DEEPAVALI SOCIETY, WATER TANK MAIN ROAD, KARELIBAUG, VADODARA 390018",VADODARA,VADODARA,GUJARAT,2490911
142,THE SHAMRAO VITHAL COOPERATIVE BANK,SVCB0000146,RAJKOT,"GROUND FLOOR, MANGALTIRTH,YOGINIKETAN PLOT, NIRMALA CONVENT ROAD, RAJKOT-360007",RAJKOT,RAJKOT,GUJARAT,6554141
143,THE SHAMRAO VITHAL COOPERATIVE BANK,SVCB0000147,VAPI,"GROUND FLOOR, SHANTI COMPLEX,SHOP NO.7&8, PLOT NO.P-50/1,GUNJAN MAIN ROAD, GIDC, VAPI ┬û 396 195",VALSAD,VAPI,GUJARAT,2400810
144,THE SHAMRAO VITHAL COOPERATIVE BANK,SVCB0000148,AHMEDABAD,"SHOP NO. 1&2,ASHOKA COMPLEX, SARDAR PATEL STADIUM ROAD, NEAR SARDAR PATEL STATUE, NAVJEEVAN PO, NAVRANGPURA,AHMEDABAD 380014.",AHMADABAD,AHMEDABAD,GUJARAT,26460614
145,THE SHAMRAO VITHAL COOPERATIVE BANK,SVCB0000149,SURAT,"40/41,HIGHER GROUND FLOOR,RAGHUNANDAN TEXTILE MARKET,RING ROAD,SALABATPURA,SURAT-395 002",SURAT,SURAT,GUJARAT,2363633
146,THE SHAMRAO VITHAL COOPERATIVE BANK,SVCB0000150,VADODARA,"SHREE COMPLEX, SHRENIK PARK CROSS ROAD,PRODUCTIVITY ROAD,AKOTA,VADODRA-390020",VADODARA,VADODARA,GUJARAT,2351370
147,THE SHAMRAO VITHAL COOPERATIVE BANK,SVCB0000151,CHAMRAJPET,"1,CENTRAL BANK ROAD,CHAMRAJPET, BANGALORE-560 018",BANGALORE URBAN,BANGALORE,KARNATAKA,26678718
148,THE SHAMRAO VITHAL COOPERATIVE BANK,SVCB0000152,HANUMANTH NGR,"27,MOUNT JOY ROAD,HANUMANTH NAGAR, BANGALORE-560 019",BANGALORE URBAN,BANGALORE,KARNATAKA,26603990
149,THE SHAMRAO VITHAL COOPERATIVE BANK,SVCB0000153,JAYANAGAR,"921/66,28TH MAIN ROAD,9TH BLOCK, BANGALORE - 560 069",BANGALORE URBAN,BANGALORE,KARNATAKA,26542043
150,THE SHAMRAO VITHAL COOPERATIVE BANK,SVCB0000154,BANASHANKARI,"292,7TH BLOCK,4TH STAGE,3RD PHASE,100 FEET ROAD, BANASHANKARI, BANGALORE-560 085",BANGALORE URBAN,BANGALORE,KARNATAKA,26791859
151,THE SHAMRAO VITHAL COOPERATIVE BANK,SVCB0000155,NAGARBHAVI,"1210/C, 80 FEET ROAD, NEAR HOTEL DEEWAR, 1ST PHASE, 2ND STAGE, CHANDRA LAYOUT, BENGLURU- 560 040",BANGALORE URBAN,NAGARABAVI,KARNATAKA,23397210
152,THE SHAMRAO VITHAL COOPERATIVE BANK,SVCB0000156,MYSORE ROAD,"342/18,BYTARAYANAPURA,MYSORE ROAD BANGALORE-560 026,",BANGALORE URBAN,BANGALORE,KARNATAKA,26753482
153,THE SHAMRAO VITHAL COOPERATIVE BANK,SVCB0000157,"R.T.NAGAR,","GROUND FLOOR, NO 207/34, VENKATESHWARA NILAYA, NEXT TO ADISHWARA SHOWROOM; 4TH MAIN ROAD, GANGANAGAR, BANGALORE- 560032",BANGALORE URBAN,BANGALORE,KARNATAKA,23639789
154,THE SHAMRAO VITHAL COOPERATIVE BANK,SVCB0000158,INDIRA NAGAR,"853-B, 4TH CROSS, 10TH MAIN, INDIRANAGAR 2ND STAGE, BENGALURU - 560 038",BANGALORE URBAN,BANGALORE,KARNATAKA,25251853
155,THE SHAMRAO VITHAL COOPERATIVE BANK,SVCB0000159,YESHWANTHAPUR,"MAYUR COMPLEX,NO:36, 1ST MAIN, 4TH CROSS, 1ST STAGE, YESHWANTHAPUR,BENGALURU ┬û 560022",BANGALORE URBAN,BANGALORE,KARNATAKA,23571244
156,THE SHAMRAO VITHAL COOPERATIVE BANK,SVCB0000160,BASAVESHWARA NGR,"38/F.V GIRIYAPPA COMPLEX, 80FT ROAD,BASAVESHWARANAGER, BANGALORE-560 079",BANGALORE URBAN,BANGALORE,KARNATAKA,23287380
157,THE SHAMRAO VITHAL COOPERATIVE BANK,SVCB0000162,GANGAPUR ROAD,"SHOP NO 1,2 RUSHIRAJ HIGH RISE GANGAPUR ROAD NASHIK 42205",NASIK,NASHIK,MAHARASHTRA,2314277
158,THE SHAMRAO VITHAL COOPERATIVE BANK,SVCB0000163,PANCHAVATI,"Shop No.3,4,21 Bodke Plaza, Dwarka, Nashik-Pune Road, Nashik-422 011. Tel No:0253 2506619/620",NASIK,NASHIK,MAHARASHTRA,2510619
159,THE SHAMRAO VITHAL COOPERATIVE BANK,SVCB0000164,AMBAD,"PARSHWANATH CHS LTD,NEAR SYMBIOSIS COLLEGE,PLOT NO 29,SECTOR S.S.A.1N.H.SHRAWAN SECTOR,AMBAD CIDCO,NASHIK-422 009",NASIK,NASHIK,MAHARASHTRA,6611691
160,THE SHAMRAO VITHAL COOPERATIVE BANK,SVCB0000165,JALGAON,"GROUND FLOOR, F.P.43/1 OF T.P.II, VISANJI NAGAR, OFF BANK STREET, JALGAON, 425001.",JALGAON,JALGAON,MAHARASHTRA,2236540
161,THE SHAMRAO VITHAL COOPERATIVE BANK,SVCB0000166,AKOLA,"SHOP NO.4, NAZUL PLOT NO.5, NAKSHATRA SANKUL, UMRI ROAD, JATHARPETH, AKOLA 444005.",AKOLA,AKOLA,MAHARASHTRA,2490348
162,THE SHAMRAO VITHAL COOPERATIVE BANK,SVCB0000167,DHULE,HOUSE NO 1411 MATRU SADAN LANE NO 4 DHULE 424001,DHULE,DHULE,MAHARASHTRA,238700
163,THE SHAMRAO VITHAL COOPERATIVE BANK,SVCB0000168,BHOPAL,"SURYA TOWER, E/5/7, BITTEN MARKET, ARERA COLONY, BHOPAL MADHY PRADESH 462016.",BHOPAL,BHOPAL,MADHYA PRADESH,2441444
164,THE SHAMRAO VITHAL COOPERATIVE BANK,SVCB0000169,CIDCO AURANGABAD,"SHOP NO 4-8, PLOT NO 1, TOWN CENTRE, DISHA SHILP, MUKUNDWADI, CIDCO, AURANGABAD- 431001",AURANGABAD,AURANGABAD,MAHARASHTRA,2473031
165,THE SHAMRAO VITHAL COOPERATIVE BANK,SVCB0000170,UDUPI,10/3/1 C GURIKRIPA MOSQUE ROAD UDUPI 576101,UDUPI,UDUPI,KARNATAKA,2521900
166,THE SHAMRAO VITHAL COOPERATIVE BANK,SVCB0000171,"J. P. NAGAR, BENGALURU","43 WILSON GARDEN HOUSING SOCIETY, OPP. RBI COLONY, J.P.NAGAR, 7TH PHASE, BANGALORE 560078.",BANGALORE,BANGALORE,KARNATAKA,23852343
167,THE SHAMRAO VITHAL COOPERATIVE BANK,SVCB0000172,NAGANATHAPURA,"GROUND FLOOR, SITE NO 1,2,3,4, SY. NO. 47/1, RAYASANDRA MAIN ROAD,HOSA ROAD, NAGANATHAPURA, ELECTRONIC CITY POST,BANGALORE- 560100",BANGALORE URBAN,BANGALORE,KARNATAKA,9448546373
168,THE SHAMRAO VITHAL COOPERATIVE BANK,SVCB0000173,TUMKUR,"SILVER LAND MARK, THE HUT HOTEL BUILDING, 2ND CROSS, M.G. ROAD, TUMKUR- 572101",TUMKUR,TUMKUR,KARNATAKA,2270612
169,THE SHAMRAO VITHAL COOPERATIVE BANK,SVCB0000174,"BANASWADI, BANGALORE","GROUND FLOOR, NO 2C, 742 HRBR LAYOUT, 1ST BLOCK, BANASWADI, BANGALORE- 560043",BANGALORE URBAN,BANGALORE,KARNATAKA,25456917
170,THE SHAMRAO VITHAL COOPERATIVE BANK,SVCB0000175,ANNANAGAR(E),"15,C BLOCK,6TH STREET,NEAR CHINTAMANI SIGNAL,ANNANAGAR(E),CHENNAI - 600 102",CHENNAI,CHENNAI,TAMIL NADU,26208998
171,THE SHAMRAO VITHAL COOPERATIVE BANK,SVCB0000176,NUNGAMBAKKAM,"MOOTHA CENTRE, KADAMBAKKAM HIGH ROAD, NUNGAMBAKKAM, CHENNAI 600034.",CHENNAI,CHENNAI,TAMIL NADU,28218899
172,THE SHAMRAO VITHAL COOPERATIVE BANK,SVCB0000177,COIMBATORE,"GR. FLOOR, PLOT NO.1176, TRICHY ROAD, SUNGAM CIRCLE, RAMNATHPURAM, COIMBATORE, TAMIL NADU-641045.",COIMBATORE,COIMBATORE,TAMIL NADU,2322217
173,THE SHAMRAO VITHAL COOPERATIVE BANK,SVCB0000178,SALEM,"130/1, LIONS ARCADE, SARADA COLLEGE ROAD, ALAGAPURAM, SALEM- 636016",SALEM,ALAGAPURAM,TAMIL NADU,2332166
174,THE SHAMRAO VITHAL COOPERATIVE BANK,SVCB0000181,THAKUR VILLAGE,"SHOP NO 12-14, FLAT NO C-2, GOKUL RESIDENCY, THAKUR VILLAGE, KANDIVALI EAST, MUMBAI- 400101",GREATER BOMBAY,MUMBAI,MAHARASHTRA,28872171
175,THE SHAMRAO VITHAL COOPERATIVE BANK,SVCB0000182,"RAJAJI PATH, DOMBIVALI","SITA NIWAS, PLOT NO 2, CTS NO 8707 TO 8711, TIKKA NO 38, RAJAJI ROAD, RAMNAGAR, VILLAGE AYARE, TALUKA KALYAN, DISTRICT THANE, DOMBIVALI EAST- 421201",THANE,DOMBIVLI,MAHARASHTRA,6520777
176,THE SHAMRAO VITHAL COOPERATIVE BANK,SVCB0000183,NALLASOPARA WEST,"SHOP NO 1A,2,3,4& 5, GROUND FLOOR, MIRAJ- FUN FIESTA, SRI PRASTHA COMPLEX, VILLAGE NILEMORE, NALLASOPARA WEST, TALUKA VASAI, THANE- 401203",THANE,NALLASOPARA,MAHARASHTRA,7028017114
177,THE SHAMRAO VITHAL COOPERATIVE BANK,SVCB0000184,CURREY ROAD,"SHOP NO.3, GROUND FLOOR, GOVARDHAN BUILDING, 275-A, N.M.JOSHI MARG, CURREY ROAD, MUMBAI- 400013",GREATER BOMBAY,MUMBAI,MAHARASHTRA,23099101
178,THE SHAMRAO VITHAL COOPERATIVE BANK,SVCB0000185,"HANUMAN ROAD, VILE PARLE EAST","ASHOK GURUPRASAD CHS LTD, BLDG. NO. 04, SHOP- 1, HANUMAN ROAD,VILE PARLE EAST, MUMBAI- 400057",GREATER BOMBAY,MUMBAI,MAHARASHTRA,26189001
179,THE SHAMRAO VITHAL COOPERATIVE BANK,SVCB0000186,BOISAR,"SHOP NO. 1-3, GROUND FLOOR, SURVEY NO.121, KALPAVRUKSHA C.H.S.LTD., OSTWAL EMPIRE, VILLAGE, SARAVALI, BOISAR, PALGHAR- 401404",PALGHAR,BOISAR,MAHARASHTRA,6051004
180,THE SHAMRAO VITHAL COOPERATIVE BANK,SVCB0000187,SHYAM NAGAR- MAJASWADI,"SHOP NO 1 & 2, BLUE MEADOWS, A WING, SHYAM NAGAR, JVLR, JOGESHWARI EAST, MUMBAI- 400060",GREATER BOMBAY,MUMBAI,MAHARASHTRA,28200283
181,THE SHAMRAO VITHAL COOPERATIVE BANK,SVCB0000191,"LAW COLLEGE ROAD, PUNE","GROUND FLOOR, PLOT NO 70, SUB PLOT NO 23 AND 17, CHILPLUNKAR ROAD, ERANDWANE, TALUKA HAVELI, PUNE- 411004",PUNE,PUNE,MAHARASHTRA,25463761
182,THE SHAMRAO VITHAL COOPERATIVE BANK,SVCB0000192,"RAVIWARPETH, PUNE","SHOP NO 2, ASHA APARTMENT, CTS NO 450, BAGADE ROAD, RAVIVAR PETH, PUNE- 411002",PUNE,PUNE,MAHARASHTRA,24461133
183,THE SHAMRAO VITHAL COOPERATIVE BANK,SVCB0000196,KHAMGAON,"UPPER GROUND FLOOR, SHOP NO 2, SHRI CHAMUNDA COMPLEX, PLOT NO 17, SHEET NO 33/D, COTTON MARKET ROAD, KHAMGAON 444303",BULDHANA,KHAMGAON,MAHARASHTRA,8805417818
184,THE SHAMRAO VITHAL COOPERATIVE BANK,SVCB0000199,SATARA,"GROUND FLOOR, SHOP NO.G-3&4,CTS NO.501/4,RAJE BHOSALE HEIGHTS APARTMENT, SADAR BAZAR, BEHIND ST STAND, SATARA 415001.",SATARA,SATARA,MAHARASHTRA,226868
185,THE SHAMRAO VITHAL COOPERATIVE BANK,SVCB0000200,KARAD,"PLOT NO. 118, STATION ROAD, BUDHVAR PETH, KARAD, DIST. SATARA ┬û 415 110.",SATARA,KARAD,MAHARASHTRA,226623
186,THE SHAMRAO VITHAL COOPERATIVE BANK,SVCB0000201,ICHALKARANJI,"DAIMA BHUVAN, ICHALKARANJI, TALUKA HATKANANGALE, DIST.KOLHAPUR -416 115",KOLHAPUR,ICHALKARNJI,MAHARASHTRA,2424126
187,THE SHAMRAO VITHAL COOPERATIVE BANK,SVCB0000202,LAXMIPURI,"EAGLES PRIDE, B - WARD, MIRAJKAR TIKTI, MANGALWAR PETH, KOLHAPUR ┬û 416 012.",KOLHAPUR,KOLHAPUR,MAHARASHTRA,2642195
188,THE SHAMRAO VITHAL COOPERATIVE BANK,SVCB0000203,SHAHUPURI,"CS NO. 681A, MAHAVEER BHAVAN, E WARD, 2ND LANE, SHAHUPURI, KOLHAPUR ┬û 416 001.",KOLHAPUR,KOLHAPUR,MAHARASHTRA,3209803
189,THE SHAMRAO VITHAL COOPERATIVE BANK,SVCB0000204,JAISINGHPUR,"GANDHI CHOWK, STATION ROAD, JAYSINGPUR, TALUKA SHIROL, DIST. KOLHAPUR - 416 101.",KOLHAPUR,KOLHAPUR,MAHARASHTRA,225245
190,THE SHAMRAO VITHAL COOPERATIVE BANK,SVCB0000205,SANGLI,"G-3, BALAJI CELEBRATIONS, NEMINATH NAGAR, VISHRAM BAUG, SANGLI ┬û 416 415",KOLHAPUR,KOLHAPUR,MAHARASHTRA,2304449
191,THE SHAMRAO VITHAL COOPERATIVE BANK,SVCB0000248,JODHPUR,"GROUND FLOOR, SHREE PRATAP TOWER, 654/A/B, JALJOG CIRCLE, JODHPUR- 342001, RAJASTHAN",JODHPUR,JODHPUR,RAJASTHAN,5104569
192,THE SHAMRAO VITHAL COOPERATIVE BANK,SVCB0000249,JAIPUR,"GROUND FLOOR,PLOT NO.K 11 B,ASHOK MARG,C SCHEME,JAIPUR 302001",JAIPUR,JAIPUR,RAJASTHAN,9829244220
193,THE SHAMRAO VITHAL COOPERATIVE BANK,SVCB0000250,NEHRU PLACE NEW DELHI,"56 ┬û Eros Apartment, Nehru Place, State : New Delhi, City : New Delhi. Pin No. : 110019 Tel No :011-26411127",DELHI,DELHI,DELHI,26411127
194,THE SHAMRAO VITHAL COOPERATIVE BANK,SVCB0000251,EAST PATEL NAGAR,"25/36 EAST PATEL NAGAR, NEW DELHI 110008.",DELHI,DELHI,DELHI,25753864
195,THE SHAMRAO VITHAL COOPERATIVE BANK,SVCB0000252,FARIDABAD,"PLOT NO 1A/260, NEELAM BATA ROAD, NIT, NEAR KOTWALI (POLICE STATION, FARIDABAD- 121001",FARIDABAD,FARIDABAD,HARYANA,2423322
196,THE SHAMRAO VITHAL COOPERATIVE BANK,SVCB0000301,HYDERABAD,"AMRUTHA ESTATES SOMAJIGUDA, NEAR ERRAMANZIL BUS STOP, HYDERABAD, ANDHRA PRADESH 500 082",HYDERABAD,HYDERABAD,ANDHRA PRADESH,23352057
197,THE SHAMRAO VITHAL COOPERATIVE BANK,SVCB0000302,SECUNDERABAD,"GOLECHHA ARCADE,1,2,61&62,PARK LANE, OPP. BRAND FACTORY SHOPPING MALL, SECUNDERABAD-500 003",HYDERABAD,SECUNDERABAD,ANDHRA PRADESH,27843314
198,THE SHAMRAO VITHAL COOPERATIVE BANK,SVCB0000303,VIJAYAWADA,"K.S.N. COMPLEX, NO. 74-1-8, M.G.ROAD, KRISHNANAGAR, OPP. AUTONAGAR BUS STAND, VJAYAWADA, ANDHRA PRADESH",KRISHNA,VIJAYAWADA,ANDHRA PRADESH,2550078
199,THE SHAMRAO VITHAL COOPERATIVE BANK,SVCB0001002,HINDUSTAN COOP BK-LOKHAND BAZAR┬á,"205, SANT TUKARAM ROAD,┬á LOKHAND BAZAR, MASJID (EAST), MUMBAI-400 009.",GREATER BOMBAY,MUMBAI,MAHARASHTRA,23480131
200,THE SHAMRAO VITHAL COOPERATIVE BANK,SVCB0001003,HINDUSTAN COOPBK-SHIVAJI NAGAR,"PITCH NO.3068 TO 3069 A, GAJANAN COLONY, SHIVAJI NAGAR, GOVANDI, MUMBAI-400 043.",GREATER BOMBAY,MUMBAI,MAHARASHTRA,32191650
201,THE SHAMRAO VITHAL COOPERATIVE BANK,SVCB0001004,HINDUSTAN COOP BK-DHARAVI┬á,"LOKSEVA CO-OP. HOUSING SOCIETY, FIRST FLOOR, GARIB NAGAR, 90 FEET ROAD, DHARAVI, MUMBAI-400 017.",GREATER BOMBAY,MUMBAI,MAHARASHTRA,24078040
202,THE SHAMRAO VITHAL COOPERATIVE BANK,SVCB0001005,"HINDUSTAN COOPBK-PRATAPNGR,BHANDUP","JIJAMATA VIDYALAYA BUILDING, PRATAP NAGAR ROAD NAKA, BHANDUP (W), MUMBAI 400 078.",GREATER BOMBAY,MUMBAI,MAHARASHTRA,25944662
203,THE SHAMRAO VITHAL COOPERATIVE BANK,SVCB0001006,HINDUSTAN COOP BK-KALAMBOLI┬á,"HINDUSTHAN BANK BHAVAN, SECTOR NO.8, PLOT NO.11, OPP. M.G.M. HOSPITAL, KALAMBOLI, NAVI MUMBAI 410 218.",RAIGAD,KALAMBOLI,MAHARASHTRA,27420003
204,THE SHAMRAO VITHAL COOPERATIVE BANK,SVCB0001007,"HINDUSTAN COOP BK-KOLSEWADI,KLY(E)","DEVI DAYAL TOWER, OPP. KOLSEWADI POLICE STATION, KOLSEWADI, KALYAN (E), DIST. THANE.",THANE,KALYAN,MAHARASHTRA,2363354
205,THE SHAMRAO VITHAL COOPERATIVE BANK,SVCB0001008,"HINDUSTAN COOPBK-NEHRU NGR,KURLA-E","BABA VIHAR, ANGULIMAL CO-OP. HSG. SOCIETY, IST FLOOR, B/101, S.G. BARVE MARG, NEHRU NAGAR, KURLA (E), MUMBAI 400 024.",GREATER BOMBAY,MUMBAI,MAHARASHTRA,25260809
206,THE SHAMRAO VITHAL COOPERATIVE BANK,SVCB0001009,HINDUSTAN COOP BK-TROMBAY┬á,"AMAR NAGAR CO-OP. HOUSING SOCIETY, DHOBIGHAT, CHEETA CAMP, TROMBAY, MUMBAI-400 088.",GREATER BOMBAY,MUMBAI,MAHARASHTRA,25511090
207,THE SHAMRAO VITHAL COOPERATIVE BANK,SVCB0001010,HINDUSTAN COOP BK-DOMBIVALI (W),"MAHALAXMI VIHAR, MAHATMA PHULE ROAD, DOMBIVALI (W), DIST. THANE.",THANE,DOMBIVLI,MAHARASHTRA,2495573
208,THE SHAMRAO VITHAL COOPERATIVE BANK,SVCB0001011,"HINDUSTAN COOP BK-MHADA CLY, MULUND┬á","MULUND MUKTI TOWER, MHADA COLONY, MULUND (E), MUMBAI 400 081.",GREATER BOMBAY,MUMBAI,MAHARASHTRA,25634002
209,THE SHAMRAO VITHAL COOPERATIVE BANK,SVCB0001012,"HINDUSTAN COOPBK-PMGP CLY,MANKHURD","SHOP NO.392, MOHITE PATIL NAGAR, J.B. BHOSALE ROAD, MANKHURD PANVEL LINK ROAD, MANKHURD, MUMBAI 400 043.",GREATER BOMBAY,MUMBAI,MAHARASHTRA,25481159
210,THE SHAMRAO VITHAL COOPERATIVE BANK,SVCB0001013,"HINDUSTAN COOPBK-LOKMANYANGR,THANE","AMIT CO-OP. HOUSING SOCIETY LTD., LOKMANYA NAGAR, NEAR YASHODHAN BUS STOP, THANE 410 606.",THANE,THANE,MAHARASHTRA,25881535
211,THE SHAMRAO VITHAL COOPERATIVE BANK,SVCB0001014,"HINDUSTAN COOPBK-KHADAKPADA,KLY(W)","PUSHPAKDHAM, NEAR SWAMI SAMARTH MANDIR, KHADAKPADA, BARAVE ROAD, KALYAN (W) 421 301.",THANE,KALYAN,MAHARASHTRA,2301208
212,THE SHAMRAO VITHAL COOPERATIVE BANK,SVCB0001015,HINDUSTAN COOP BK-KAMOTHE,"SHRI YOGESHWAR COMPLEX, VIMUM TOWER, BUILDING NO.1, FIRST FLOOR, SECTOR 12, PLOT NO.1, KAMOTHE, NAVI MUMBAI",RAIGAD,KAMOTHE,MAHARASHTRA,22943264
213,THE SHAMRAO VITHAL COOPERATIVE BANK,SVCB0001016,HINDUSTAN COOP BK-SEAWOOD DARAVE,"HOUSE NO 2361, DALIT VIKAS SEVA SANGH, TURBHE STORE, TURBHE NAVI MUMBAI 400703",RAIGAD,KAMOTHE,MAHARASHTRA,27720003
214,THE SHAMRAO VITHAL COOPERATIVE BANK,SVCB0001017,HINDUSTAN COOP BK VIKROLI EAST,"236/2343 GROUND FLOOR, TAGORE NAGAR, OPP B M C S SCHOOL, VIKROLI EAST, MUMBAI 400083.",GREATER BOMBAY,MUMBAI,MAHARASHTRA,23483780
215,THE SHAMRAO VITHAL COOPERATIVE BANK,SVCB0001018,HINDUSTAN COOP BK-WADALA EAST,"FNG 55/116, GROUND FLOOR, SHIVSHANKAR NAGAR, WADALA (E), MUMBAI-400037",GREATER BOMBAY,MUMBAI,MAHARASHTRA,8652252013
216,THE SHAMRAO VITHAL COOPERATIVE BANK,SVCB0001019,HINDUSTAN COOP BK- MALAD EAST,"SHOP NO 3, RIDDHI-SIDDHI APARTMENT, DAFTARY ROAD, OPP SAIBABA TEMPLE, KURAR VILLAGE, MALAD EAST, MUMBAI- 400097",GREATER BOMBAY,MUMBAI,MAHARASHTRA,8652252025
217,THE SHAMRAO VITHAL COOPERATIVE BANK,SVCB0001020,HINDUSTAN COOP BK- DIVA EAST,"SIDDHIVINAYAK GARDEN, A-1 WING, SHOP NO 1,2, SURVEY NO 8,HISSA NO 1/B, DIVA EAST, THANE- 400612",THANE,THANE,MAHARASHTRA,8652252020
218,THE SHAMRAO VITHAL COOPERATIVE BANK,SVCB0001023,HINDUSTAN COOP BK- BHOIWADA PAREL,"SHOP NO.1, B- WING, GROUND FLOOR, SUDARSHAN CO-OP. HOUSING SOCIETY LTD., ACHARYA DONDE MARG, PAREL VILLAGE, BHOIWADA, PAREL (E), MUMBAI- 400012",GREATER BOMBAY,MUMBAI,MAHARASHTRA,8291295665
219,THE SHAMRAO VITHAL COOPERATIVE BANK,SVCB0001024,HINDUSTAN COOP BK- MUMBRA,"SHOP NO. 4 AND 5, A- WING, MATEEN APARTMENT, SANJAY NAGAR, MUMBAI PUNE ROAD, MUMBRA, DISTRICT THANE- 400612",THANE,THANE,MAHARASHTRA,8291295661
220,THE SHAMRAO VITHAL COOPERATIVE BANK,SVCB0001025,HINDUSTAN COOP BK- MIRA ROAD,"SHOP NO. 6 TO 9, 1ST FLOOR, NARMADA HERITAGE, RAMEO PARK ROAD JUNCTION, RAMDEO PARK, MIRA ROAD, THANE- 401107",THANE,MIRA-BHAYANDAR,MAHARASHTRA,8291295664
221,THE SHAMRAO VITHAL COOPERATIVE BANK,SVCB0001026,HINDUSTAN COOP BK- KHAR EAST,"SHOP NO.2, HUSAIN JAMAL PATEL CHAWL, 7TH ROAD, GOLIBAR, NEAR KHAR SUBWAY, KHAR EAST, SANTACRUZ, MUMBAI- 400055",GREATER BOMBAY,MUMBAI,MAHARASHTRA,8291295666
222,THE SHAMRAO VITHAL COOPERATIVE BANK,SVCB0001027,HINDUSTAN COOP BK- KANDIVALI EAST,"SHOP NO 282, BARKYA RAMA HABALE COMPOUND, DAMUNAGAR, AKURLI ROAD, KANDIVALI EAST, MUMBAI- 400101",GREATER BOMBAY,MUMBAI,MAHARASHTRA,8291295663
223,THE SHAMRAO VITHAL COOPERATIVE BANK,SVCB0001028,HINDUSTAN COOP BK- CHEMBUR EAST,"SHOP NO 3, 4 & 5, MUKTI NAGAR, KHARDEO NAGAR, N. G. ACHARYA ROAD, CHEMBUR EAST, MUMBAI- 400071",GREATER BOMBAY,MUMBAI,MAHARASHTRA,8291295662
224,THE SHAMRAO VITHAL COOPERATIVE BANK,SVCB0001029,HINDUSTAN COOP BK- AMBERNATH EAST,"SHOP NO. 2, 3 & 4, GROUND FLOOR, DHAWALGIRI APRT, 43A, SURVEY NO 8776, VADAVALI SECTION, AMBERNATH EAST, THANE- 421501",THANE,THANE,MAHARASHTRA,8291295667
225,THE SHAMRAO VITHAL COOPERATIVE BANK,SVCB0002001,GUARDIAN BANK -INFANTRY ROAD,"NO.139, INFANTRY ROAD, BANGALORE -560 001",BANGALORE URBAN,BANGALORE,KARNATAKA,25582341
226,THE SHAMRAO VITHAL COOPERATIVE BANK,SVCB0002002,GUARDIAN BANK -BEGUR BRANCH,"NO.1625,  AMALODBAVA NAGAR,OPP-ST.FRANCIS SCHOOL, BEGUR MAIN ROAD,BEGUR,BANGALORE-560068",BANGALORE URBAN,BEGUR,KARNATAKA,25742233
227,THE SHAMRAO VITHAL COOPERATIVE BANK,SVCB0002003,GUARDIAN BANK -GEDDALAHALLI BRANCH,"NO.38, BIRDS CAMPUS,GEDDALAHALLI, KOTHANUR POST,BANGALORE -560077",BANGALORE URBAN,KOTHANUR,KARNATAKA,28443982
228,THE SHAMRAO VITHAL COOPERATIVE BANK,SVCB0002004,GUARDIAN BANK- SINGASANDRA,"NO 500, 1ST FLOOR, HOSA ROAD, C K NAGAR, SINGASANDRA, ELECTRONIC CITY POST, BANGALORE- 560100",BANGALORE URBAN,BANGALORE,KARNATAKA,28528496
229,THE SHAMRAO VITHAL COOPERATIVE BANK,SVCB0002005,GUARDIAN BANK- THUMBUCHETTY PALYA,"NO.163, FIRST FLOOR, ANTHONAMMA & RATHNAPPA NILAYA, THUMBUCHETTY PALYA MAIN ROAD, BOSCO NAGAR",BANGALORE URBAN,BANGALORE,KARNATAKA,32525722
230,THE SHAMRAO VITHAL COOPERATIVE BANK,SVCB0002007,GUARDIAN BANK- JALAHALLI,"1, SRS BUS STOP, NEAR GOVT. SCHOOL, ABBIGRE MAIN ROAD, KAMMAGUNDANAHALLI, JALAHALLI, BANGALORE- 560015",BANGALORE URBAN,JALAHALLI,KARNATAKA,28386269
231,THE SHAMRAO VITHAL COOPERATIVE BANK,SVCB0003002,VIDYA BANK-LAXMI ROAD,"561, SADASHIV PETH, SARASWATI GANESH BUILDING, LAXMI ROAD, PUNE - 411 030",PUNE,PUNE,MAHARASHTRA,24454936
232,THE SHAMRAO VITHAL COOPERATIVE BANK,SVCB0003003,VIDYA BANK-SAHAKAR NAGAR,"MUKTANGAN, SARANG SOCIETY, SAHAKAR NAGAR, PUNE - 411 009",PUNE,PUNE,MAHARASHTRA,24222294
233,THE SHAMRAO VITHAL COOPERATIVE BANK,SVCB0003004,VIDYA BANK-SENAPATI BAPAT ROAD,"S NO 968, PLOT NO 1, SENAPATI BAPAT ROAD, PUNE - 411 016",PUNE,PUNE,MAHARASHTRA,25656311
234,THE SHAMRAO VITHAL COOPERATIVE BANK,SVCB0003005,VIDYA BANK-KOTHRUD,"ANUPAM TERRECE, NEAR KARVE PUTALA, KOTHRUD, PUNE - 411 029",PUNE,PUNE,MAHARASHTRA,25435836
235,THE SHAMRAO VITHAL COOPERATIVE BANK,SVCB0003006,VIDYA BANK-BIBWEWADI,"S NO 682/A, PLOT NO 53, CHHATRAPATI RAJARAM HSG SOC, BIBWEWADI, PUNE - 411 037",PUNE,PUNE,MAHARASHTRA,24219108
236,THE SHAMRAO VITHAL COOPERATIVE BANK,SVCB0003007,VIDYA BANK-PIRANGUT,"GAT NO 78, MOUJE PIRANGUT, TAL MULASHI, DIST PUNE",PUNE,MULSI,MAHARASHTRA,20291265
237,THE SHAMRAO VITHAL COOPERATIVE BANK,SVCB0003008,VIDYA BANK-PAUD ROAD,"PLOT NO 3, PRASHANT HSG SOC. NEAR KRISHNA HOSPITAL, PAUD ROAD,KOTHRUD, PUNE - 411 029",PUNE,PUNE,MAHARASHTRA,25432234
238,THE SHAMRAO VITHAL COOPERATIVE BANK,SVCB0003009,VIDYA BANK-BANER ROAD,"S NO 127, HISSA NO 2, PLOT NO 2 NEAR HOTEL SARJA, AUNDH, PUNE - 411 007",PUNE,PUNE,MAHARASHTRA,25887299
239,THE SHAMRAO VITHAL COOPERATIVE BANK,SVCB0003010,VIDYA BANK-BHOSARI,"S NO 681, HISSA NO 1/16 CITY, S NO 3403, SHOP NO 1, SAIDHAM BUILDING, BHOSARI,PUNE - 411 026",PUNE,PUNE,MAHARASHTRA,27111749
240,THE SHAMRAO VITHAL COOPERATIVE BANK,SVCB0003011,VIDYA BANK-GULTEKDI,"ALANKAR, PLOT NO 25, MUKUNDNAGAR, GULTEKDI, PUNE - 411 037",PUNE,PUNE,MAHARASHTRA,24273658
241,THE SHAMRAO VITHAL COOPERATIVE BANK,SVCB0003012,VIDYA BANK-BHAVANI PETH,"S NO 1234, SUMATI BUILDING,PALAKHI CHOWK, BHAWANI PETH, PUNE - 411 042",PUNE,PUNE,MAHARASHTRA,26384791
242,THE SHAMRAO VITHAL COOPERATIVE BANK,SVCB0003013,VIDYA BANK-NAVI PETH,"722, CHINTAMANI, LAXMI PARK, LBS ROAD, NAVI PETH, PUNE - 411 030",PUNE,PUNE,MAHARASHTRA,24534530
243,THE SHAMRAO VITHAL COOPERATIVE BANK,SVCB0003014,VIDYA BANK - SINHGAD ROAD,"S.NO. 29, HISSA NO 1A 2,VADGAON BUDRUK PHATA, SINHGAD ROAD,PUNE, PIN CODE 411041",PUNE,PUNE,MAHARASHTRA,24350733
244,THE SHAMRAO VITHAL COOPERATIVE BANK,SVCB0003999,VIDYA BANK -HEAD OFFICE,"SR NO. 1355, PLOT NO 72,NEAR BHARAT BHAVAN, NATU BAUG, SHUKRAWAR PETH, PUNE 411002",PUNE,PUNE,MAHARASHTRA,24477748
245,THE SHAMRAO VITHAL COOPERATIVE BANK,SVCB0004002,DHARMAVIR SAMBHAJI BK-KASARWADI,"251, VISHWAKIRAN BUILDING, MUMBAI-PUNE ROAD, KASARWADI, PUNE - 411 034",PUNE,PUNE,MAHARASHTRA,27119500
246,THE SHAMRAO VITHAL COOPERATIVE BANK,SVCB0004003,DHARMAVIR SAMBHAJI BK-SANGVI,"38, SHIVDARSHAN, VINAYAK NAGAR, NEW SANGVI, PUNE - 411 061",PUNE,PUNE,MAHARASHTRA,27280389
247,THE SHAMRAO VITHAL COOPERATIVE BANK,SVCB0004004,DHARMAVIR SAMBHAJI BK-HINJEWADI,"SURYANARAYAN, S. NO. 39/3, WAKAD-HINJEWADI ROAD, HINJEWADI, PUNE - 411 057",PUNE,PUNE,MAHARASHTRA,22932500
248,THE SHAMRAO VITHAL COOPERATIVE BANK,SVCB0004005,DHARMAVIR SAMBHAJI BK-VISHRANTWADI,"DEEP APPARTMENT, KASTURBA HSC. SOC., OPP. SHOPPER'S ORBIT, VISHRANTWADI, PUNE - 411 015",PUNE,PUNE,MAHARASHTRA,26615440
249,THE SHAMRAO VITHAL COOPERATIVE BANK,SVCB0004006,DHARMAVIR SAMBHAJI BK-PIRANGUT,"SAI SHRADHA, 1258/4,5,6 1ST FLOOR, S NO. 1149, PIRANGUT, TAL MULSHI, DIST. PUNE - 412 115",PUNE,PIRANGUT,MAHARASHTRA,22923030
250,THE SHAMRAO VITHAL COOPERATIVE BANK,SVCB0004007,DHARMAVIR SAMBHAJI BK- WAGHOLI,"KRUSHNAI GATE NO 112,KESNAND ROAD,WAGHOLI, PUNE 412207",PUNE,WAGHOLI,MAHARASHTRA,9922887696
251,THE SHAMRAO VITHAL COOPERATIVE BANK,SVCB0004008,DHARMAVIR SAMBHAJI BK- AMBEGAON,"VITTHAL HERITAGE, S.NO 43/1/1/2, AMBEGAON BK, TALUKA HAVELI,DISTRICT PUNE",PUNE,PUNE,MAHARASHTRA,9226785052
252,THE SHAMRAO VITHAL COOPERATIVE BANK,SVCB0004009,DHARMAVIR SAMBHAJI BK- DEHU ROAD,"RAILWAY STATION ROAD, MAIN BAZAR, DEHU ROAD, TALUKA HAVELI, PUNE- 412101",PUNE,DEHU ROAD,MAHARASHTRA,9850832776
253,THE SHAMRAO VITHAL COOPERATIVE BANK,SVCB0004010,DHARAMVIR SAMBHAJI BK- NAGAPUR BRANCH,"UNIT NO.1, 2 & 3, PLOT NO 25 TO 28, SURVEY NO. 629, DHONDE PATIL COMPLEX, WADGAON GUPTA, NAGAPUR MIDC, TAL & DIST AHMEDNAGAR- 414111",AHMADNAGAR,AHMADNAGAR,MAHARASHTRA,9881477433
254,THE SHAMRAO VITHAL COOPERATIVE BANK,SVCB0004011,DHARMAVIR SAMBHAJI BK- SHIKRAPUR,"GATE NO 2033, CHAVAN COMPLEX, GROUND FLOOR, SHIKRAPUR, TALUKA SHIRUR, DISTRICT PUNE- 412208",PUNE,SHIKRAPUR,MAHARASHTRA,7887882877
255,THE SHAMRAO VITHAL COOPERATIVE BANK,SVCB0005002,PUNE URBAN BANK-PHULE MARKET,25 SHUKRAWAR PETH PUNE 411002,PUNE,PUNE,MAHARASHTRA,24453741
256,THE SHAMRAO VITHAL COOPERATIVE BANK,SVCB0005003,PUNE URBAN BANK-UTTAM NAGAR,KRUSHI UTPANNA BAJAR SANKUL UTTAMNAGAR┬á PUNE 411023,PUNE,PUNE,MAHARASHTRA,25290685
257,THE SHAMRAO VITHAL COOPERATIVE BANK,SVCB0005004,PUNE URBAN BANK-YERAWADA,J J CHAMBERS YERAWADA PUNE 411006,PUNE,PUNE,MAHARASHTRA,26695691
258,THE SHAMRAO VITHAL COOPERATIVE BANK,SVCB0005005,PUNE URBAN BANK-WANAWADI,MIHIR APPT. SHOLAPUR ROAD WANAWADI PUNE 411040,PUNE,PUNE,MAHARASHTRA,26872110
259,THE SHAMRAO VITHAL COOPERATIVE BANK,SVCB0005006,PUNE URBAN BANK-PHADKE HAUD,24 KASBA PETH LOMBAR BLD PUNE 411011,PUNE,PUNE,MAHARASHTRA,24574088
260,THE SHAMRAO VITHAL COOPERATIVE BANK,SVCB0005007,PUNE URBAN BANK-GANESHNAGAR,KEDAR EMPIRE 42 ERANDAWANA KARVE RD PUNE 411004,PUNE,PUNE,MAHARASHTRA,25463649
261,THE SHAMRAO VITHAL COOPERATIVE BANK,SVCB0005008,PUNE URBAN BANK-MARKET YARD,PLOT NO BC 2 MARKET YARD GULTEKDI PUNE 411037,PUNE,PUNE,MAHARASHTRA,24262031
262,THE SHAMRAO VITHAL COOPERATIVE BANK,SVCB0005009,PUNE URBAN BANK-KATRAJ DHANKAWADI,DATTANAGAR AMBEGAON PUNE 411046,PUNE,PUNE,MAHARASHTRA,24319693
263,THE SHAMRAO VITHAL COOPERATIVE BANK,SVCB0005010,PUNE URBAN BANK-MANJARI PHATA,MANJARI PHATA SHOLAPUR ROAD PUNE 411028,PUNE,PUNE,MAHARASHTRA,26990297
264,THE SHAMRAO VITHAL COOPERATIVE BANK,SVCB0005012,PUNE URBAN BANK-NANDED PHATA,NANDED PHATA SINHAGAD RD PUNE 411041,PUNE,PUNE,MAHARASHTRA,24391610
265,THE SHAMRAO VITHAL COOPERATIVE BANK,SVCB0005013,PUNE URBAN BANK-SANGVI THERGAON,S NO 47/1/2 RAHATANI KALEWADI RD PUNE 411033,PUNE,PUNE,MAHARASHTRA,27271737
266,THE SHAMRAO VITHAL COOPERATIVE BANK,SVCB0005014,PUNE URBAN BANK- KHED SHIVAPUR BRANCH,"SHOP NO 5 & 6, UPPER GROUND FLOOR, ELEGANCE BUILDING, GATE NO. 780/1 (PART) & GATE NO. 780/2 (PART), NEAR TOLL PLAZA, KHED SHIVAPUR, TALUKA HAVELI, DISTRICT- PUNE 412205",PUNE,PUNE,MAHARASHTRA,8669919312
267,THE SHAMRAO VITHAL COOPERATIVE BANK,SVCB0005015,PUNE URBAN BANK- SHIVAJINAGAR BRANCH,"SR. NO. 101, 58 JANWADI, PURGRAST WASAHAT, MAFCO CORNER, SHIVAJINAGAR, PUNE- 411016",PUNE,PUNE,MAHARASHTRA,8669919317
268,THE SHAMRAO VITHAL COOPERATIVE BANK,SVCB0005016,PUNE URBAN BANK- NARHE BRANCH,"SHOP NO 12 & 13, SR. NO 50/7 A, RUTUJA PALACE, NARHE TALUKA, HAVELI, DISTRICT PUNE- 411041",PUNE,PUNE,MAHARASHTRA,8669919315
269,THE SHAMRAO VITHAL COOPERATIVE BANK,SVCB0005017,PUNE URBAN BANK- VADGAON SHERI BRANCH,"SR. NO. 5235 TO 5241 (OLD SR. NO. 44), GROUND FLOOR, SHOP NO 2 & 3, VADGAON SHERI, PUNE - 411014",PUNE,PUNE,MAHARASHTRA,8669919313
270,THE SHAMRAO VITHAL COOPERATIVE BANK,SVCB0005018,PUNE URBAN BANK- DHANKAWADI BRANCH,"ATHARVA PURAM, GROUND FLOOR, SHOP NO. 20, SAMBHAJINAGAR, DHANKAWADI, PUNE 411043",PUNE,PUNE,MAHARASHTRA,8669919313
271,THE SHAMRAO VITHAL COOPERATIVE BANK,SVCB0005019,PUNE URBAN BANK- LAXMI ROAD BRANCH,"SR. NO 460A, 462 & 461, NARAYAN PETH, KEDAR HEIGHTS, GROUND FLOOR, PUNE 411030",PUNE,PUNE,MAHARASHTRA,8669919314
272,THE SHAMRAO VITHAL COOPERATIVE BANK,SVCB0005020,PUNE URBAN BANK- AMBEGAON BANK,"SR. NO. 56/8A/25A/9A, SHOP NO 5, GAGAN UNNATI SCHEME WING A, AMBEGAON-KONDHWA ROAD, KONDHWA ROAD, KONDHWA BK, PUNE 411048",PUNE,PUNE,MAHARASHTRA,8669919314
273,THE SHAMRAO VITHAL COOPERATIVE BANK,SVCB0005021,PUNE URBAN BANK- VISHRANTWADI BRANCH,"SR. NO. 287, URBAN HOMES BUILDING, SHOP NO. 16 AND 17, VISHRANTWADI- LOHGAON ROAD, LOHGAON, PUNE- 411015",PUNE,PUNE,MAHARASHTRA,8669919318
274,THE SHAMRAO VITHAL COOPERATIVE BANK,SVCB0005022,PUNE URBAN BANK- KESNAND PHATA BRANCH,"SHOP NO 3 & 4, SHREE SAMARTH COMPLEX, MILKAT NO 6/ 0965, GATE NO 669, KESNAND PHATA, WAGHOLI, TALUKA HAVELI, DISTRICT PUNE- 412207",PUNE,PUNE,MAHARASHTRA,8669919320
275,THE SHAMRAO VITHAL COOPERATIVE BANK,SVCB0005023,PUNE URBAN BANK- NEW NANA PETH BRANCH,"SR. NO. 398/ A, SHOP NO. 7 PLUS 19, GROUND FLOOR, MARUTI COMPLEX, NEAR DULYA MARUTI, NEW NANA PETH (GANESH PETH), PUNE- 411002",PUNE,PUNE,MAHARASHTRA,8669919321
276,THE SHAMRAO VITHAL COOPERATIVE BANK,SVCB0006002,CHIPLUN URBAN BANK-MAIN BR.CHIPLUN,"BAZARPETH, MAIN ROAD, CHIPLUN,PIN CODE-415605",RATNAGIRI,CHIPLUN,MAHARASHTRA,261273
277,THE SHAMRAO VITHAL COOPERATIVE BANK,SVCB0006003,CHIPLUN URBAN BANK-GUHAGAR,"NEAR GUHAGAR PANCHAYAT SAMITI,┬á GUHAGAR PIN CODE NO.415703",RATNAGIRI,GUHAGAR,MAHARASHTRA,240222
278,THE SHAMRAO VITHAL COOPERATIVE BANK,SVCB0006004,CHIPLUN URBAN BANK-SHRUNGARTALI,"BAZARPETH, SHRUNGARTALI, PIN CODE NO.415724",RATNAGIRI,GUHAGAR,MAHARASHTRA,244531
279,THE SHAMRAO VITHAL COOPERATIVE BANK,SVCB0006005,CHIPLUN URBAN BANK-SHRIGAON,"KUTAREKAR BUILDING,A/P.SHRIGAON PIN CODE NO.415602",RATNAGIRI,CHIPLUN,MAHARASHTRA,230118
280,THE SHAMRAO VITHAL COOPERATIVE BANK,SVCB0006006,CHIPLUN URBAN BANK-UPNAGAR KHERDI,"SHUBHAM APR. KARAD ROAD, A/P KHERDI PIN CODE-415604",RATNAGIRI,KHERDI,MAHARASHTRA,256837
281,THE SHAMRAO VITHAL COOPERATIVE BANK,SVCB0006007,CHIPLUN URBAN BANK-SAWARDE,"JAYASHRI PLAZA,1ST FLOOR,ABC MUMBAI-GOA HIGHWAY,OPP. SAWARDE BUS STOP,SAWARDE PIN CODE NO.415606",RATNAGIRI,CHIPLUN,MAHARASHTRA,264294
282,THE SHAMRAO VITHAL COOPERATIVE BANK,SVCB0006008,CHIPLUN URBAN BANK-DEORUKH,"VANKAR BUILDING,BAZARPETH,A/P.DEVRUKH PIN CODE NO. 415804",RATNAGIRI,DEVRUKH,MAHARASHTRA,240892
283,THE SHAMRAO VITHAL COOPERATIVE BANK,SVCB0006009,CHIPLUN URBAN BANK-LOTE,"DR.AMBRE BUILDING, NEAR HOTEL PAIGODA,MUMBAI-GOA HIGHWAY A/P.LOTE, PIN CODE NO. 415722",RATNAGIRI,KHED,MAHARASHTRA,272943
284,THE SHAMRAO VITHAL COOPERATIVE BANK,SVCB0006010,CHIPLUN URBAN BANK-ABLOLI,"BAIT COMPLEX,BAZARPETH, A/P.ABLOLI, PIN CODE NO.415726",RATNAGIRI,ABLOLI,MAHARASHTRA,245092
285,THE SHAMRAO VITHAL COOPERATIVE BANK,SVCB0006011,CHIPLUN URBAN BANK-SANGMESHWAR,"BHINGARDE COMPLEX, BAZARPETH, A/P/TAL.SANGMESHWAR PIN CODE NO. 415611",RATNAGIRI,SANGAMESHWAR,MAHARASHTRA,253229
286,THE SHAMRAO VITHAL COOPERATIVE BANK,SVCB0006012,CHIPLUN URBAN BANK-PANVEL,"YASHASHRI┬á BUILIDNG,CSPNO.1553 SHIVAJI CHOWK,PANVEL - 410 206",RAIGAD,PANVEL,MAHARASHTRA,27450617
287,THE SHAMRAO VITHAL COOPERATIVE BANK,SVCB0006013,CHIPLUN URBAN BANK-RATNAGIRI,"JAVKAR PLAZA, BLOCK NO.12&13,NEAR JAYSTAMBH, RATNAGIRI - 415 612",RATNAGIRI,RATNAGIRI,MAHARASHTRA,220633
288,THE SHAMRAO VITHAL COOPERATIVE BANK,SVCB0006014,CHIPLUN URBAN BANK-MARGTAMHANE,"SALVI HOUSE NO.61, NEAR DR.NATU HOSPITAL,A/P.MARGTAMHANE- 415 702",RATNAGIRI,CHIPLUN,MAHARASHTRA,261273
289,THE SHAMRAO VITHAL COOPERATIVE BANK,SVCB0006015,CHIPLUN URBAN BANK - LANJA,"SURVEY NO 3357,B, HOUSE NO 2244, AT AND POST TALUKA LANJA, DISTRICT RATNAGIRI, PIN 416701",RATNAGIRI,LANJA,MAHARASHTRA,8411959950
290,THE SHAMRAO VITHAL COOPERATIVE BANK,SVCB0006016,"CHIPLUN URBAN BANK- AKURDI, PIMPRI CHINCHWAD","MAYUR SAMRUDDHI II, D WING, GROUND FLOOR, SHOP NO 66 & 67, PIMPRI CHINCHWAD MUNICIPAL CORPORATION, SR. NO 180/1, PLOT NO A & B, AKURDI, TALUKA HAVELI, PUNE- 411035",PUNE,PUNE,MAHARASHTRA,27242824
291,THE SHAMRAO VITHAL COOPERATIVE BANK,SVCB0006017,CHIPLUN URBAN BANK- KUWARBHAV,"POLICE SANKUL KARWANCHIWADI, SURVEY NO 14-B, GROUND FLOOR, GALA NO.5 TO 8, NEAR GRAMIN POLICE STATION, A/P KUWARBAV, TALUKA AND DISTRICT RATNAGIRI",RATNAGIRI,RATNAGIRI,MAHARASHTRA,231025
292,THE SHAMRAO VITHAL COOPERATIVE BANK,SVCB0006018,CHIPLUN URBAN BANK- KANKAVLI,"SHREE BHALCHANDRA KRUPA APARTMENT, FIRST FLOOR, HOUSE NO 331, C(2), ACHARYA ROAD, A/P KANKAVLI, DISTRICT SINDHUDURG 416602",SINDHUDURG,KANKAVLI,MAHARASHTRA,233955
293,THE SHAMRAO VITHAL COOPERATIVE BANK,SVCB0006019,CHIPLUN URBAN BANK- D.B.J. COLLEGE CAMPUS,"CHIPLUN NAGAR PARISHAD, HOUSE NO. UPNAGAR 103 J, GROUND FLOOR, GALA NO. 2, MUMBAI GOA HIGHWAY, CHIPLUN, DIST. RATNAGIRI- 415605.",RATNAGIRI,CHIPLUN,MAHARASHTRA,254387
294,THE SHAMRAO VITHAL COOPERATIVE BANK,SVCB0006020,CHIPLUN URBAN BANK- KHED,"GROUND FLOOR GALA, SHIV GANESH BUILDING, KHED- DAPOLI ROAD, KHED, RATNAGIRI- 415709",RATNAGIRI,KHED,MAHARASHTRA,264567
295,THE SHAMRAO VITHAL COOPERATIVE BANK,SVCB0006021,CHIPLUN URBAN CO-OP BANK LTD- MAHAD,"NEW PROPERTY NO. W3Z2000751, GROUND FLOOR, MAHAMUNKAR BUILDING, MAHAD, RAIGAD- 402301",RAIGAD,MAHAD,MAHARASHTRA,226200
296,THE SHAMRAO VITHAL COOPERATIVE BANK,SVCB0006022,CHIPLUN URBAN BANK- ARAWALI,"SHRI PATANKAR HOUSE, HOUSE NO. 290 (B), FIRST FLOOR, ARAWALI BAZARPETH, TAL- SANGMESHWAR, DIST- RATNAGIRI- 415608",RATNAGAIRI,ARAWALI,MAHARASHTRA,284890
297,THE SHAMRAO VITHAL COOPERATIVE BANK,SVCB0007002,ABHINAV SAHKARI BK-DOMBIVALI WEST,"MAITRI KESHAV RAM STY,1ST FLOOR,SUBHASH ROAD,DOMBIVALI WEST-421202",THANE,DOMBIVLI,MAHARASHTRA,2482918
298,THE SHAMRAO VITHAL COOPERATIVE BANK,SVCB0007003,ABHINAV SAHKARI BK-DOMBIVALI EAST,"ANUPAM APTS, N.C.KELKAR ROAD, DOMBIVALI EAST -421201",THANE,DOMBIVLI,MAHARASHTRA,2861648
299,THE SHAMRAO VITHAL COOPERATIVE BANK,SVCB0007004,ABHINAV SAHKARI BK-DOMBIVALI MIDC,"P-48, NEAR USMA PETROL PUMP, MIDC RESIDENTIAL ZONE, MIDC DOMBIVALI EAST-421203",THANE,DOMBIVLI,MAHARASHTRA,2432810
300,THE SHAMRAO VITHAL COOPERATIVE BANK,SVCB0007005,ABHINAV SAHKARI BK-ULHASNAGAR W,"GREEN LAND APTS, 1ST FLOOR, NEAR SADHU WASWANI GARDEN, GOL MAIDAN,ULHASNAGAR WEST-421002",THANE,ULHASNAGAR,MAHARASHTRA,2734365
301,THE SHAMRAO VITHAL COOPERATIVE BANK,SVCB0007006,ABHINAV SAHKARI BK-MUMBRA,"NEW SULTAN MANZIL , MARKET ROAD, MUMBRA EAST-400612",THANE,THANE,MAHARASHTRA,25465507
302,THE SHAMRAO VITHAL COOPERATIVE BANK,SVCB0007007,ABHINAV SAHKARI BK-BADLAPUR E,"SHREE APTS, GANDHI CHOWK, KULGAON, BADLAPUR EAST-421503",THANE,ULHASNAGAR,MAHARASHTRA,2690245
303,THE SHAMRAO VITHAL COOPERATIVE BANK,SVCB0007008,ABHINAV SAHKARI BK-KALYAN EAST,"KAMLAKAR BLDG, MARATHA KOLSEWADI, KALYAN EAST-421306",THANE,KALYAN,MAHARASHTRA,2361359
304,THE SHAMRAO VITHAL COOPERATIVE BANK,SVCB0007009,ABHINAV SAHKARI BK-KALYAN WEST,"BHAGWANDAS MENSION, SHIVAJI CHOWK, KALYAN WEST-421301",THANE,KALYAN,MAHARASHTRA,2304258
305,THE SHAMRAO VITHAL COOPERATIVE BANK,SVCB0007010,ABHINAV SAHKARI BK-AYRE EXTN,"B R MADHAV HIGHSCHOOL, AYRE ROAD, DOMBIVALI EAST-421201",THANE,DOMBIVLI,MAHARASHTRA,2454299
306,THE SHAMRAO VITHAL COOPERATIVE BANK,SVCB0007011,ABHINAV SAHKARI BK-NILJE,"CHANDRESH AVENUE,1ST FLOOR, LODHA HEAVEN, NILJE , TAL KALYAN-421204",THANE,KALYAN,MAHARASHTRA,2831989
307,THE SHAMRAO VITHAL COOPERATIVE BANK,SVCB0007012,ABHINAV SAHKARI BK-THANE W,"PRANAV BLDG, 1ST FLOOR, GAODEVI CROSS MAIDAN, SHIVAJI PATH, THANE WEST-400601",THANE,THANE,MAHARASHTRA,25403648
308,THE SHAMRAO VITHAL COOPERATIVE BANK,SVCB0007013,ABHINAV SAHKARI BK-AMBARNATH,"115, SWANAND SHOPPING CENTRE, 1ST FLOOR, B-CABIN ROAD, AMBARNATH EAST-421501",THANE,ULHASNAGAR,MAHARASHTRA,2609699
309,THE SHAMRAO VITHAL COOPERATIVE BANK,SVCB0007014,ABHINAV SAHKARI BK-KHARGHAR,"SHOP NO 50/51 KESAR GARDEN CO-OP HSG STY LTD, PLOT NO 53, SECTOR 20, KHARGHAR-410210",THANE,NEW BOMBAY,MAHARASHTRA,9619744669
310,THE SHAMRAO VITHAL COOPERATIVE BANK,SVCB0007015,ABHINAV SAHKARI BK-TITWALA,"SHREE SADGURU KRUPA LAXMI NARAYAN NIWAS, GANPATI MANDIR ROAD, TITWALA EAST-421605",THANE,THANE,MAHARASHTRA,2381920
311,THE SHAMRAO VITHAL COOPERATIVE BANK,SVCB0007016,ABHINAV SAHKARI BK SHAHAPUR,"SHOP NO.14 TO 18,PANDURANG KRUPA APARTMENT,NEAR S.T STAND,GOTHEGHAR,SHAHAPUR 421601",THANE,SHAHAPUR,MAHARASHTRA,9930515999
312,THE SHAMRAO VITHAL COOPERATIVE BANK,SVCB0007017,ABHINAV SAHKARI BK- NANDIVLI,"GROUND FLOOR, SHRI SWAMI APARTMENT, OPP. SARVODAY PARK COMPLEX, SAMARTH NAGAR, NANDIVLI PANCHANAND, DOMBIVALI EAST",THANE,DOMBIVLI,MAHARASHTRA,9819973399
313,THE SHAMRAO VITHAL COOPERATIVE BANK,SVCB0007018,ABHINAV SAHKARI BK- TALOJA,"SHOP NO 7& 8, DREAM CITY, PLOT NO 41, SECTOR 11, PHASE I, TALOJA PANCHANAND, NAVI MUMBAI",RAIGAD,TALOJA,MAHARASHTRA,9867194060
314,THE SHAMRAO VITHAL COOPERATIVE BANK,SVCB0008002,AHMEDNAGAR SHAHAR S BK-SAVEDI,"┬ôKRUTARTH┬ö, NEAR HOTEL PREMDAN, SAVEDI ROAD, SERVE NO. 176/1, PLOT NO. 43, AHMEDNAGAR 414003.",AHMADNAGAR,AHMADNAGAR,MAHARASHTRA,2430502
315,THE SHAMRAO VITHAL COOPERATIVE BANK,SVCB0008003,AHMEDNAGAR SHAHAR S BK-MALIWADA,"┬ôKRUPARTH┬ö, MALIWADA WES CHOWK, WADIA PARK ROAD, AHMEDNAGAR- 414001.",AHMADNAGAR,AHMADNAGAR,MAHARASHTRA,2343439
316,THE SHAMRAO VITHAL COOPERATIVE BANK,SVCB0008004,AHMEDNAGAR SHAHAR S BK-ZENDIGATE,"2177-A, BANSI MAHARAJ MITHAIWALA BUILDING, ADATE BAZAR CORNER, TAPKIR LANE, RAMCHANDRA KHUNT, AHMEDNAGAR- 414001.",AHMADNAGAR,AHMADNAGAR,MAHARASHTRA,2341849
317,THE SHAMRAO VITHAL COOPERATIVE BANK,SVCB0008005,AHMEDNAGAR SHAHAR S BK-MARKET YARD,"┬ôSHUBHARTH┬ö, KORPE BUILDING, MAHATMA FULE CHOWK, AHMEDNAGAR- 414001.",AHMADNAGAR,AHMADNAGAR,MAHARASHTRA,2452268
318,THE SHAMRAO VITHAL COOPERATIVE BANK,SVCB0008006,AHMEDNAGAR SHAHAR S BK-GULMOHAR RD,"GULMOHAR ROAD, PARIJAT CORNER, AHMEDNAGAR- 414003.",AHMADNAGAR,AHMADNAGAR,MAHARASHTRA,2424061
319,THE SHAMRAO VITHAL COOPERATIVE BANK,SVCB0008007,AHMEDNAGAR SHAHAR S BK-M.I.D.C.,"┬ôARTHKAM┬ö, THE PLACE SHOP NO. 1 TO 7, OPP. NAGAPUR PETROL PUMP, NAGAR-MANMAD ROAD, NAGAPUR, AHMEDNAGAR- 414027.",AHMADNAGAR,NAGAPUR,MAHARASHTRA,2778280
320,THE SHAMRAO VITHAL COOPERATIVE BANK,SVCB0008008,AHMEDNAGAR SHAHAR S BK-MANMAD RD,"┬ôSAPTSHRUNG┬ö, NEAR SHUBHAM MANGAL KARYALAYA, SVEDI ROAD, AHMEDNAGAR- 414003.",AHMADNAGAR,AHMADNAGAR,MAHARASHTRA,2426174
321,THE SHAMRAO VITHAL COOPERATIVE BANK,SVCB0008009,AHMEDNAGAR SHAHAR S BK-SUPA MIDC,"┬ôUDYAM┬ö, YENARE COMPLEX, WALWANE ROAD, SUPA, TAL-PARNER, DIST. AHMEDNAGAR.",AHMADNAGAR,SUPA,MAHARASHTRA,243683
322,THE SHAMRAO VITHAL COOPERATIVE BANK,SVCB0008010,AHMEDNAGAR SHAHAR S BK-SUKKAR CHWK,"LUNIYA-MUNOT COMPLEX, ANANDHRUSHIJI MARG, STATION ROAD, AHMEDNAGAR- 414001.",AHMADNAGAR,AHMADNAGAR,MAHARASHTRA,2321188
323,THE SHAMRAO VITHAL COOPERATIVE BANK,SVCB0008011,AHMEDNAGAR SHAHAR S BK-NAVIPETH,"┬ôSARVARTH┬ö, NAVIPETH, AHMEDNAGAR- 414001.",AHMADNAGAR,AHMADNAGAR,MAHARASHTRA,2346217
324,THE SHAMRAO VITHAL COOPERATIVE BANK,SVCB0008012,AHMEDNAGAR SHAHAR S BK-KOTHRUD,"┬ôVIJAYSHRI┬ö, ANUSAGAR BUILDING, SERVE NO. 52/40, OPP. SHRUSHTI COMPLEX, 100 D.P. ROAD, KOTHRUD, PUNE- 38.",PUNE,PUNE,MAHARASHTRA,25386394
325,THE SHAMRAO VITHAL COOPERATIVE BANK,SVCB0008013,AHMEDNAGAR SHAHAR S BK-PIMPRI,"┬ôSATSANG┬ö, SERVE NO. 103(P) TO 108(P), NEAR AJAMERA, UDYAM NAGAR, NEHARU NAGAR ROAD, PIMPRI, PUNE- 18.",PUNE,PIMPRI CHINCHWAD,MAHARASHTRA,27432744
326,THE SHAMRAO VITHAL COOPERATIVE BANK,SVCB0008014,AHMEDNAGAR SHAHAR S BK-SINHGAD RD,"┬ôYASHWANTI┬ö, SUN PARADISE, SHOP NO. 1,2,3 SUN CITY ROAD, ANANDNAGAR, SINHGAD ROAD, PUNE- 51.",PUNE,PUNE,MAHARASHTRA,24354041
327,THE SHAMRAO VITHAL COOPERATIVE BANK,SVCB0008015,AHMEDNAGAR SHAHAR S BK-NEPTI APMC,"KRUSHI UTPANNA BAZAR SAMITI, NEPTI UPBAZAR AWAR, SHOP NO. 317,318,319 NEPTI, TAL & DIST AHMEDNAGAR.",AHMADNAGAR,AHMADNAGAR,MAHARASHTRA,9850047957
328,THE SHAMRAO VITHAL COOPERATIVE BANK,SVCB0008016,AHMEDNAGAR SHAHAR S BK-TARAKPUR,"SHOP NO. 7 TO 14, PRERANA ARKED, WINGS 'C', TARAKPUR, AHMEDNAGAR.",AHMADNAGAR,AHMADNAGAR,MAHARASHTRA,2320553
329,THE SHAMRAO VITHAL COOPERATIVE BANK,SVCB0008017,AHMEDNAGAR SHAHAR S BK-NARAYANPETH,"┬ôNARAYANI┬ö, SAVITRI SADAN, OPP. NARAYANPETH  POLICE STATION, NARAYANPETH, PUNE.",PUNE,PUNE,MAHARASHTRA,24443232
330,THE SHAMRAO VITHAL COOPERATIVE BANK,SVCB0008018,AHMEDNAGAR SAHAR S BK- GARKHEDA,"PLOT NO.8, SHIVNERI NAGAR, OPP. JAWAHARNAGAR POLICE STATION, GARKHEDA PARISAR, AURANGABAD 431005",AURANGABAD,AURANGABAD,MAHARASHTRA,2344636
331,THE SHAMRAO VITHAL COOPERATIVE BANK,SVCB0008019,AHMEDNAGAR SHAHAR SAH BK- RAHURI,"WARD NO 30,HOUSE NO 284/A, SHIVAJI CHOWK, TALUKA RAHURI, DISTRICT AHMEDNAGAR,MAHARASHTRA, PIN 413705",AHMADNAGAR,RAHURI,MAHARASHTRA,232232
332,THE SHAMRAO VITHAL COOPERATIVE BANK,SVCB0008020,AHMEDNAGAR SHAHAR S BK- SANGAMNER,"SURVEY NO 150, A/4/1 OF 2A17, NEW NAGAR ROAD, SANGAMNER BK, SANGAMNER, DISTRICT AHMEDNAGAR- 422605",AHMADNAGAR,SANGAMNER,MAHARASHTRA,221222
333,THE SHAMRAO VITHAL COOPERATIVE BANK,SVCB0008021,AHMEDNAGAR SHAHAR S BK- NASHIK,"SHOP NO. 2,3 & 4, SHRIJI KUNJ APARTMENT,PATAHRDI ROAD, INDIRA NAGAR, NASHIK- 422009",NASIK,NASHIK,MAHARASHTRA,9689631516
334,THE SHAMRAO VITHAL COOPERATIVE BANK,SVCB0008022,AHMEDNAGAR SHAHAR S BK- WALUJ,"PLOT NO X 369, MIDC AREA, AURANGABAD- 431136",AURANGABAD,AURANGABAD,MAHARASHTRA,9527820022
335,THE SHAMRAO VITHAL COOPERATIVE BANK,SVCB0009002,OMPRAKASH DEORA PEOPLES COOP BK HINGOLI-HINGOLI,"MAIN ROAD, HINGOLI - 431513.",HINGOLI,HINGOLI,MAHARASHTRA,220518
336,THE SHAMRAO VITHAL COOPERATIVE BANK,SVCB0009003,OMPRAKASH DEORA PEOPLES COOP BK HINGOLI-AKHADABALAPUR,"MAIN ROAD, AKHADA BALUPER -431707 DISTHINGOLI",HINGOLI,AKHADA BALAPUR,MAHARASHTRA,242408
337,THE SHAMRAO VITHAL COOPERATIVE BANK,SVCB0009004,OMPRAKASH DEORA PEOPLES COOP BK HINGOLI-PARBHANI,"KACCHI BAZAR, PARBHANI-431401 DIST PARBHANI",PARBHANI,PARBHANI,MAHARASHTRA,222767
338,THE SHAMRAO VITHAL COOPERATIVE BANK,SVCB0009005,OMPRAKASH DEORA PEOPLES COOP BK HINGOLI-SENGAON,"AT POST TALUKA SENGAON, SENGAON-431542,  DIST HINGOLI",HINGOLI,SENGAON,MAHARASHTRA,250261
339,THE SHAMRAO VITHAL COOPERATIVE BANK,SVCB0009006,OMPRAKASH DEORA PEOPLES COOP BK HINGOLI-JAWALA BAZAR,"AT POST JAWALA BAZAR-431705  TALUKAAUNDHA NAGNATH, DIST HINGOLI",HINGOLI,AUNDHA NAGNATH,MAHARASHTRA,240049
340,THE SHAMRAO VITHAL COOPERATIVE BANK,SVCB0009007,OMPRAKASH DEORA PEOPLES COOP BK HINGOLI-JINTUR,"AT POST JINTUR-431609, TALUKA  JINTUR, DIST  PARBHANI",PARBHANI,JINTUR,MAHARASHTRA,220249
341,THE SHAMRAO VITHAL COOPERATIVE BANK,SVCB0009008,OMPRAKASH DEORA PEOPLES COOP BK HINGOLI-DEAULGOAN RAJA,"TAMBATKAR GALLI,  AT POST TALUKA DEAULGOAN RAJA-443204  DIST BULDHANA",BULDHANA,DEULGAON RAJA,MAHARASHTRA,232403
342,THE SHAMRAO VITHAL COOPERATIVE BANK,SVCB0009009,OMPRAKASH DEORA PEOPLES COOP BK HINGOLI-MANTHA,"AT POST TALUKA MANTHA-431504, MAIN ROAD DIST  JALNA",JALNA,MANTHA,MAHARASHTRA,270106
343,THE SHAMRAO VITHAL COOPERATIVE BANK,SVCB0009010,OMPRAKASH DEORA PEOPLES COOP BK HINGOLI-JALNA,"CHATRAPATI SHIVAJI MAHARAJ VYAPARI SANKUL, JALNA, DIST JALNA -431023",JALNA,JALNA,MAHARASHTRA,238535
344,THE SHAMRAO VITHAL COOPERATIVE BANK,SVCB0009011,OMPRAKASH DEORA PEOPLES COOP BK HINGOLI-NANDED,"JETEWAD COMPLEX, VIP ROAD, NEW MONDHA - NANDED",NANDED,NANDED,MAHARASHTRA,236069
345,THE SHAMRAO VITHAL COOPERATIVE BANK,SVCB0009012,OMPRAKASH DEORA PEOPLES COOP BK HINGOLI-AKOLA,"JUNA KAPDA BAZAR,AKOLA-444001  DIST AKOLA",AKOLA,AKOLA,MAHARASHTRA,2439782
346,THE SHAMRAO VITHAL COOPERATIVE BANK,SVCB0009013,OMPRAKASH DEORA PEOPLES COOP BK HINGOLI-AURANGABAD,"DEVPRIYA APPT.BANSILAL NAGAR,RAILWAY STATION ROAD, AURANGABAD DIST. - AURANGABAD - 431001",AURANGABAD,AURANGABAD,MAHARASHTRA,2347531
347,THE SHAMRAO VITHAL COOPERATIVE BANK,SVCB0009014,OMPRAKASH DEORA PEOPLES COOP BK HINGOLI-PANDHARKAWADA,"SURANA COMPLEX, MAIN ROAD  PANDHARKAWADA TQ.KELAPUR PANDHARKAWADA-445302  DISTYAVATMAL",YAVATMAL,PANDHARKAODA,MAHARASHTRA,227817
348,THE SHAMRAO VITHAL COOPERATIVE BANK,SVCB0009015,OMPRAKASH DEORA PEOPLES COOP BK HINGOLI-YAVATMAL,"VASUNDHARA CHAMBERS, NEAR SHAM TAIKES TAL & DIST YAVATMAL, YAVATMAL-445001",YAVATMAL,YAVATMAL,MAHARASHTRA,241451
349,THE SHAMRAO VITHAL COOPERATIVE BANK,SVCB0009016,OMPRAKASH DEORA PEOPLES COOP BK HINGOLI-DHARMABAD,"MARKET YARD MONDHA, TAL DHARMABAD, DIST NANDED, DHARMABAD-431809",NANDED,DHARMABAD,MAHARASHTRA,244559
350,THE SHAMRAO VITHAL COOPERATIVE BANK,SVCB0009017,OMPRAKASH DEORA PEOPLES COOP BK HINGOLI-SELU,"KRANTI CHOWK,NEAR NITIN TALKIES TAL SELU, DIST PARBHANI, SELU-431503",PARBHANI,SAILU,MAHARASHTRA,223147
351,THE SHAMRAO VITHAL COOPERATIVE BANK,SVCB0009018,OMPRAKASH DEORA PEOPLES COOP BK HINGOLI-BORI,"BORI-431508 ,TAL JINTUR,DISTPARBHANI",PARBHANI,JINTUR,MAHARASHTRA,242691
352,THE SHAMRAO VITHAL COOPERATIVE BANK,SVCB0009019,OMPRAKASH DEORA PEOPLES COOP BK HINGOLI-DEGLUR,"NEW MONDHA,DEGLOOR-431717 TAL DEGLOOR, DIST NANDED",NANDED,DEGLUR,MAHARASHTRA,256741
353,THE SHAMRAO VITHAL COOPERATIVE BANK,SVCB0009020,OMPRAKASH DEORA PEOPLES COOP BK HINGOLI-HADGOAN,"MAIN ROAD,HADGOAN-431712,TAL HADGOAN, DISTNANDED",NANDED,HADGAON,MAHARASHTRA,222719
354,THE SHAMRAO VITHAL COOPERATIVE BANK,SVCB0009021,OMPRAKASH DEORA PEOPLES COOP BK HINGOLI-ADILABAD,"NATIONAL HIGHWAY ROAD NO.7,NEAR PETROL PUMP,DHANLAXMI COMPLEX,ADILABAD-504001,ANDHRA PRADESH.",ADILABAD,ADILABAD,ANDHRA PRADESH,232455
355,THE SHAMRAO VITHAL COOPERATIVE BANK,SVCB0009022,OMPRAKASH DEORA PEOPLES COOP BK HINGOLI-BHAISA,"MARKET YARD, GANDHI GANJ, BHAISA DIST. ADILABAD - 504103,ANDHRA PRADESH.",ADILABAD,BHAINSA,ANDHRA PRADESH,231651
356,THE SHAMRAO VITHAL COOPERATIVE BANK,SVCB0009023,OMPRAKASH DEORA PEOPLES COOP BK HINGOLI-NAGPUR,"CHAPUR NAGAR CHOWK, 13,GANDHI GRAIN MARKET, NAGPUR TALUKA & DIST  NAGPUR",NAGPUR,NAGPUR,MAHARASHTRA,2733661
357,THE SHAMRAO VITHAL COOPERATIVE BANK,SVCB0009024,OMPRAKASH DEORA PEOPLES COOP BK HINGOLI-WARDHA,"NEAR HOTEL RAMKRISHNA,WARDHA, DIST  WARDHA",WARDHA,WARDHA,MAHARASHTRA,231003
358,THE SHAMRAO VITHAL COOPERATIVE BANK,SVCB0009025,OMPRAKASH DEORA PEOPLES COOP BK HINGOLI-CHOPDA,"KAMAL HOSPITAL BUILDING, GROUND FLOOR, NARAYANWADI ROAD, CHOPDA TQ. CHOPDA DIST. JALGAON",JALGAON,CHOPDA,MAHARASHTRA,221021
359,THE SHAMRAO VITHAL COOPERATIVE BANK,SVCB0009026,OMPRAKASH DEORA PEOPLES COOP BK HINGOLI-PUNE,"M.G.ROAD 5,TEZ HOUSE, CAMP, PUNE",PUNE,PUNE,MAHARASHTRA,9423142654
360,THE SHAMRAO VITHAL COOPERATIVE BANK,SVCB0009027,OMPRAKASH DEORA PEOPLES COOP BK HINGOLI-BHOKAR,"NEW MONDHA,BHOKAR- TAL BHOKAR, DIST NANDED",NANDED,BHOKAR,MAHARASHTRA,222210
361,THE SHAMRAO VITHAL COOPERATIVE BANK,SVCB0009028,OMPRAKASH DEORA PEOPLES COOP BK HINGOLI- MALAD EAST,"DEORA ESTATE, RANI SATI MARG, MALAD EAST",GREATER BOMBAY,MUMBAI,MAHARASHTRA,28735406
362,THE SHAMRAO VITHAL COOPERATIVE BANK,SVCB0009029,"OMPRAKASH DEORA PEOPLES COOP BK HINGOLI- MARKET YARD, PUNE","SHOP NO. 396, LANE NO.4, MARKET YARD, GULTEKDI, PUNE",PUNE,PUNE,MAHARASHTRA,9423142654
363,THE SHAMRAO VITHAL COOPERATIVE BANK,SVCB0010002,BHARATI SAHAKARI BANK-BHAVAN,"BHARATI VIDYAPEETH BHAVAN, GROUND FLOOR, SHASTRI ROAD, PUNE ┬û 411 030.",PUNE,PUNE,MAHARASHTRA,24333423
364,THE SHAMRAO VITHAL COOPERATIVE BANK,SVCB0010003,BHARATI SAHAKARI BANK-AKURDI,"SECTOR NO.28, PLOT NO.93, AKURDI PRADHIKARAN, PUNE ┬û 411 044",PUNE,PUNE,MAHARASHTRA,27657844
365,THE SHAMRAO VITHAL COOPERATIVE BANK,SVCB0010004,BHARATI SAHAKARI BK-VADGAON,"SINHGAD ROAD, VADGAON-DHAIRY, PUNE ┬û 411 041.",PUNE,PUNE,MAHARASHTRA,24392190
366,THE SHAMRAO VITHAL COOPERATIVE BANK,SVCB0010005,BHARATI SAHAKARI BANK-DHANKWADI,"BHARATI VIDYAPEETH EDUCATIONAL COMPLEX, PUNE ┬û 411 043.",PUNE,PUNE,MAHARASHTRA,24372875
367,THE SHAMRAO VITHAL COOPERATIVE BANK,SVCB0010006,BHARATI SAHAKARI BANK-SANGLI,"BHARATI VIDYAPEETH BHAVAN, RAJWADA CHOWK, SANGLI ┬û 416 416.",SANGLI,KADEGAON,MAHARASHTRA,2323750
368,THE SHAMRAO VITHAL COOPERATIVE BANK,SVCB0010007,BHARATI SAHAKARI BANK-KADEGAON,"KADEGAON, TAL. KADEGAON, DIST. SANGLI, PIN - 415 304.",SANGLI,KADEGAON,MAHARASHTRA,242109
369,THE SHAMRAO VITHAL COOPERATIVE BANK,SVCB0010008,BHARATI SAHAKARI BANK-NAVI MUMBAI,"BHARATI VIDYAPEETH EDUCATIONAL COMPLEX, SECTOR NO.8, C.B.D., BELAPUR, NAVI MUMBAI ┬û 400 614.",THANE,NEW BOMBAY,MAHARASHTRA,27577286
370,THE SHAMRAO VITHAL COOPERATIVE BANK,SVCB0010009,BHARATI SAHAKARI BANK-SOLAPUR,"BHARATI VIDYAPEETH EDUCATIONAL COMPLEX, VIJAPUR ROAD, SOLAPUR - 413 001.",SOLAPUR,SOLAPUR,MAHARASHTRA,2343420
371,THE SHAMRAO VITHAL COOPERATIVE BANK,SVCB0010010,BHARATI SAHAKARI BANK-KOLHAPUR,"BHARATI VIDYAPEETH BHAVAN KADAMWADI, KOLHAPUR - 416 001.",KOLHAPUR,KOLHAPUR,MAHARASHTRA,2666759
372,THE SHAMRAO VITHAL COOPERATIVE BANK,SVCB0010011,BHARATI SAHAKARI BANK-VITA,"BABAJI COMPLEX, OPP. S. T. STAND, VITA, TAL. KHANAPUR, DIST. SANGLI, PIN - 415 311.",SANGLI,VITA,MAHARASHTRA,272079
373,THE SHAMRAO VITHAL COOPERATIVE BANK,SVCB0010012,BHARATI SAHAKARI BANK-PANCHGANI,"SOMNATH COMPLEX, HANUMAN MANDIR ROAD, PANCHGANI, DIST. SATARA, PIN - 412 805.",SATARA,PANCHGANI,MAHARASHTRA,240601
374,THE SHAMRAO VITHAL COOPERATIVE BANK,SVCB0010013,BHARATI SAHAKARI BANK-AMBAK,"SONHIRA SAHAKARI SAKHAR KARKHANA COMPLEX, AMBAK, TAL. KADEGAON, DIST.SANGLI, PIN - 415 303.",SANGLI,KADEGAON,MAHARASHTRA,235672
375,THE SHAMRAO VITHAL COOPERATIVE BANK,SVCB0010014,BHARATI SAHAKARI BK-MALKAPUR,"240 A, JAIHIND PRIDE, NEAR SUYASH MANGAL KARYALAYA, SHASTRINAGAR, MALKAPUR, KARAD, TAL. KARAD, DIST. SARATA, PIN - 415 539.",SATARA,KARAD,MAHARASHTRA,228885
376,THE SHAMRAO VITHAL COOPERATIVE BANK,SVCB0010015,BHARATI SAHAKARI BANK-NEW DELHI,"A-4, ROHTAK ROAD, HIGH-WAY 10, PASCHIM VIHAR, NEW DELHI - 110 063.",DELHI,DELHI,DELHI,25257230
377,THE SHAMRAO VITHAL COOPERATIVE BANK,SVCB0010016,BHARATI SAHAKARI BANK-PALUS,"HIRA COMPLEX, KARAD ROAD, NEAR PAWAR HOSPITAL, A/P PALUS, TAL. PALUS, DIST. SANGLI",SANGLI,PALUS,MAHARASHTRA,223235
378,THE SHAMRAO VITHAL COOPERATIVE BANK,SVCB0010017,BHARATI SAHAKARI BANK-BHILWADI,"AGRAWAL COMPLEX, A/P BHILWADI, TAL. PALUS, DIST. SANGLI - 416 303.",SANGLI,PALUS,MAHARASHTRA,238099
379,THE SHAMRAO VITHAL COOPERATIVE BANK,SVCB0010018,BHARATI SAHAKARI BANK-ISLAMPUR,"S. NO.39/88 B, SHRI. KARANDE BLDG. ISLAMPUR, TAL. WALWA, DIST. SANGLI - 415 409",SANGLI,ISLAMPUR,MAHARASHTRA,222555
380,THE SHAMRAO VITHAL COOPERATIVE BANK,SVCB0010019,BHARATI SAHAKARI BANK-TASGAON,"LAXMI-KRISHNA BLDG., JOSHI LANE, HOUSE NO.1376, TASGAON, DIST. SANGLI - 416 312",SANGLI,TASGAON,MAHARASHTRA,240230
381,THE SHAMRAO VITHAL COOPERATIVE BANK,SVCB0010020,BHARATI SHKRI BK-ERANDWANE,"BHARATI VIDYAPEETH EDUCATIONAL COMPLEX, ERANDWANE, PUNE ┬û 411 038",PUNE,PUNE,MAHARASHTRA,25448502
382,THE SHAMRAO VITHAL COOPERATIVE BANK,SVCB0010021,BHARATI SAHAKARI BANK- WORLI,"SUKHADA CO-OP HOUSING SOCIETY, SHOP NO.6, SIR POCHKHANWALA RD, OPP. RTO OFFICE, WORLI, MUMBAI- 400030",GREATER BOMBAY,MUMBAI,MAHARASHTRA,7208269947
383,THE SHAMRAO VITHAL COOPERATIVE BANK,SVCB0010022,BHARATI SAHAKARI BANK- SATARA,"SR. NO. 530 B, SARVODAY COMPLEX, SHOP NO.9, 10, 11 SADAR BAZAR, OPP. SCIENCE COLLEGE, SATARA 415001",SATARA,SATARA,MAHARASHTRA,9881077575
384,THE SHAMRAO VITHAL COOPERATIVE BANK,SVCB0010023,BHARATI SAHAKARI BANK- BANER,"SR. NO. 63/2/4 BHAGVATI SUVARNA BUILDING, SHOP NO. 2C, OPP. RACHANA BEVERLY HILLS, PUNE 411045",PUNE,PUNE,MAHARASHTRA,8482818187
385,THE SHAMRAO VITHAL COOPERATIVE BANK,SVCB0010024,BHARATI SAHAKARI BANK- HADAPSAR,"SR. NO.221, RAVI DARSHAN BUILDING, SHOP NO 4,5, NEAR AKASHWANI, HADAPSAR, PUNE 411028",PUNE,HADAPSAR,MAHARASHTRA,9822503879
386,THE SHAMRAO VITHAL COOPERATIVE BANK,SVCB0010999,BHARATI SAHAKARI BANK- HEAD OFFICE,"1ST FLOOR, BHARATI VIDYAPEETH BHAVAN, SADASHIV PETH, SHASTRI ROAD, PUNE 411030",PUNE,PUNE,MAHARASHTRA,24332907
387,THE SHAMRAO VITHAL COOPERATIVE BANK,SVCB0011002,JAIHIND COOPBKWAKAD-PMPRI CHINCHWD,"KUNAL MARKET, 1ST FLOOR, CHAPEKAR CHOWK, CHINCHWAD PUNE 411033",PUNE,PUNE,MAHARASHTRA,27614522
388,THE SHAMRAO VITHAL COOPERATIVE BANK,SVCB0012002,SHREE MAHALAXMI COOP CRD BK-GOKAK,"CTS NO.3838A,GURUWARPETH GOKAK, DIST BELGAUM, KARNATAKA 591307",BELGAUM,GOKAK,KARNATAKA,226530
389,THE SHAMRAO VITHAL COOPERATIVE BANK,SVCB0012003,SHREE MAHALAXMI COOP CRD BK- BELGAUM,"CTS NO 3935/51, CLUB ROAD, NEAR CIVIL HOSPITAL, BELGAUM- 590002",BELGAUM,BELGAUM,KARNATAKA,9611350555
390,THE SHAMRAO VITHAL COOPERATIVE BANK,SVCB0012004,SHREE MAHALAXMI COOP CRD BK- GHATAPRABHA,"TPC NO 377/2, STATION ROAD, GHATAPRABHA",BELGAUM,GHATAPRABHA,KARNATAKA,9916763387
391,THE SHAMRAO VITHAL COOPERATIVE BANK,SVCB0012005,SHREE MAHALAXMI COOP CRD BK- GOKAK EXTENSION,"PLOT NO 14, RS NO. 201, GOKAK EXTENSION AREA, PIN- 591307",BELGAUM,GOKAK,KARNATAKA,229530
392,THE SHAMRAO VITHAL COOPERATIVE BANK,SVCB0012006,SHREE MAHALAXMI COOP CRD BK- NIPPANI,"PMC NO 690A, PROPERTY ID NO 11-3-501-7, ASHIRWAD BUILDING, ASHOK NAGAR NIPPANI- 591237, TQ- CHIKKODI, DISTRICT BELGAVI, KARNATAKA",BELGAUM,NIPANI,KARNATAKA,226530
393,THE SHAMRAO VITHAL COOPERATIVE BANK,SVCB0012007,SHREE MAHALAXMI COOP CRD BK- CHIKKODI,"CTS NO. 3760, 3761 & 3763/ 1, TMC NO. 4807/ 2547 & 4808/ 2547/ A K C ROAD, PRABHUWADI ROAD, CHIKKODI 591201",BELAGAVI,CHIKODI,KARNATAKA,9611350555
394,THE SHAMRAO VITHAL COOPERATIVE BANK,SVCB0013002,SAHYADRI SAHAKARI BANK-CHIRA BAZAR,"5/7, VIJAY WADI, DR. N. N. SHAHA MARG, CHIRA BAZAR, MUMBAI -400 002",GREATER BOMBAY,MUMBAI,MAHARASHTRA,22054671
395,THE SHAMRAO VITHAL COOPERATIVE BANK,SVCB0013003,SAHYADRI SAHAKARI BANK-VITHALWADI,"94/96, BHAGWAN KALACHI WADI, BHULESHWAR MAR, MUMBAI -400 002",GREATER BOMBAY,MUMBAI,MAHARASHTRA,22425589
396,THE SHAMRAO VITHAL COOPERATIVE BANK,SVCB0013004,SAHYADRI SAHAKARI BANK-LALBAUG,"PHANSE BUILDING, DR. B.A. ROAD, OPP. DIGVIJAY MILL, LALBAUG, MUMBAI -400 012",GREATER BOMBAY,MUMBAI,MAHARASHTRA,24703583
397,THE SHAMRAO VITHAL COOPERATIVE BANK,SVCB0013005,SAHYADRI SAHAKARI BANK-KANDIVLI(W),"SAHYADRI NAGAR, CHARKHOP, KANDIVLI (W), MUMBAI -400 067",GREATER BOMBAY,MUMBAI,MAHARASHTRA,28692529
398,THE SHAMRAO VITHAL COOPERATIVE BANK,SVCB0013006,SAHYADRI SAHAKARI BANK-SATARA CITY,"CITY POINT, POWAI NAKA, SATARA-415001",SATARA,SATARA,MAHARASHTRA,232105
399,THE SHAMRAO VITHAL COOPERATIVE BANK,SVCB0013007,SAHYADRI SAHAKARI BANK-KAMOTHE,"SURAJ COMPLEX, SHOP NO 2 & 3,PLOT NO. 2 &21, SECTOR NO. 36, KAMOTHE NAVI MUMBAI -410209",RAIGAD,KAMOTHE,MAHARASHTRA,32194229
400,THE SHAMRAO VITHAL COOPERATIVE BANK,SVCB0013008,SAHYADRI SAHAKARI BANK-BHIWANDI,"SHOP NO, 1,2, & 2-A, ARJUN SAGAR APARTMENT, ANJUR NAKA, AGRA ROAD, BHIWANDI, DIST- THANE PIN- 421 302",THANE,BHIWANDI,MAHARASHTRA,278833
401,THE SHAMRAO VITHAL COOPERATIVE BANK,SVCB0013009,SAHYADRI SAHAKARI BANK-DOMBIVLI,"SHOP NO. 11 TO 14 CHIRAG CHS.LTD, FADKE ROAD, DOMBIVLI (E)",THANE,DOMBIVLI,MAHARASHTRA,2439896
402,THE SHAMRAO VITHAL COOPERATIVE BANK,SVCB0013999,SAHYADRI  SAHAKARI BANK- HEAD OFFICE,"446, J.S.S ROAD, CHIRABAZAR, MUMBAI- 400002",GREATER BOMBAY,MUMBAI,MAHARASHTRA,22017477
403,THE SHAMRAO VITHAL COOPERATIVE BANK,SVCB0014002,DEFENCE ACCOUNTS COOPBKLTD-TILAKRD,"2013, SADASHIV PETH, TILAK ROAD, PUNE - 411030",PUNE,PUNE,MAHARASHTRA,24472214
404,THE SHAMRAO VITHAL COOPERATIVE BANK,SVCB0014003,DEFENCE ACCOUNTS COOPBKLTD-CDA(O),"GOLIBAR MAIDAN, PUNE - 411001",PUNE,PUNE,MAHARASHTRA,26445519
405,THE SHAMRAO VITHAL COOPERATIVE BANK,SVCB0014004,DEFENCE ACCOUNTS COOPBKLTD-CDA(SC),"NO.1 FINANCE ROAD, PUNE-411001",PUNE,PUNE,MAHARASHTRA,26134716
406,THE SHAMRAO VITHAL COOPERATIVE BANK,SVCB0015002,"ARVIND SAHKRI BK LTD-DIGDOH,HINGNA","RADAKE LAYOUT, HINGNA ROAD, DIGDOH , ┬áNAGPUR  440016",NAGPUR,HINGNA,MAHARASHTRA,235830
407,THE SHAMRAO VITHAL COOPERATIVE BANK,SVCB0015003,ARVIND SAHAKARI BANK LTD- KATOL,"MAIN ROAD, KATOL TAH, DISTRICT NAGPUR",NAGPUR,NAGPUR,MAHARASHTRA,222710
408,THE SHAMRAO VITHAL COOPERATIVE BANK,SVCB0015004,ARVIND SAHAKARI BANK LTD- SAONER,"HOUSE NO 42, AWADHUT WADI,CIVIL LINES, SAONER-441107",NAGPUR,SAONER,MAHARASHTRA,234451
409,THE SHAMRAO VITHAL COOPERATIVE BANK,SVCB0015005,ARVIND SAHAKARI BANK LTD- GANDHIBAG,"NEAR ADARSHA VIDYAMANDIR, GANDHIBAG, C.A. ROAD, NAGPUR 440018",NAGPUR,NAGPUR,MAHARASHTRA,2733314
410,THE SHAMRAO VITHAL COOPERATIVE BANK,SVCB0015006,ARVIND SAHAKARI BANK LTD- WARUD,"APPROACH ROAD, BEHIND KATHIWALE COMPLEX,WARUD- 444906",AMRAVATI,WARUD,MAHARASHTRA,234142
411,THE SHAMRAO VITHAL COOPERATIVE BANK,SVCB0015007,ARVIND SAHAKARI BANK LTD- AMRAVATI,"RAJAPETH, OPP. POLICE STATION, AMRAVATI",AMRAVATI,AMRAVATI,MAHARASHTRA,2567656
412,THE SHAMRAO VITHAL COOPERATIVE BANK,SVCB0016002,WAI URBAN COOP BK LTD-PANCHGANI,OPP. S.T STAND PANCHGANI TAL. MAHABALESHWAR DIST. SATARA-412805,SATARA,PANCHGANI,MAHARASHTRA,240220
413,THE SHAMRAO VITHAL COOPERATIVE BANK,SVCB0016003,WAI URBAN COOP BK LTD-LONAND,"SHASTRI CHOWK, SATARA PUNE ROAD, AT POST. LONAND, TAL. KHANDALA; DIST.- SATARA-415521",SATARA,LONAND,MAHARASHTRA,225156
414,THE SHAMRAO VITHAL COOPERATIVE BANK,SVCB0016004,WAI URBAN COOP BK LTD-SHIRWAL,"JIWALA, NEAR S. T. STAND, SHIRWAL, TAL.- KHANDALA; DIST- SATARA-415003",SATARA,SHIRWAL,MAHARASHTRA,244203
415,THE SHAMRAO VITHAL COOPERATIVE BANK,SVCB0016005,WAI URBAN COOP BK LTD-KRISHNANAGAR,"NEAR NAIK VEET BHATTI, KRISHNANAGAR, SATARA, TAL & DIST. SATARA-415003",SATARA,SATARA,MAHARASHTRA,244119
416,THE SHAMRAO VITHAL COOPERATIVE BANK,SVCB0016006,WAI URBAN COOP BK LTD-UMBRAJ,"NEAR ZILLA PARISHAD PRATHMIK SHALA, GAJALAXMI COMPLEX, 1ST FLOOR, UMBRAJ, TAL: KARAD, DIST- SATARA-415109",SATARA,UMBRAJ,MAHARASHTRA,264368
417,THE SHAMRAO VITHAL COOPERATIVE BANK,SVCB0016007,WAI URBAN COOP BK LTD-MEDHA,"MARDHEKR BUILDING, MEDHA, TAL: JAWALI, DIST: SATARA-412012",SATARA,MEDHA,MAHARASHTRA,285377
418,THE SHAMRAO VITHAL COOPERATIVE BANK,SVCB0016008,WAI URBAN COOP BK LTD-MALKAPUR,"┬á299/2, KALASH PRIDE, PUNE BANGLORE HIGHWAY, NEAR HOTEL SANGAM, MALKAPUR, KARAD, DIST: SATARA -415101",SATARA,KARAD,MAHARASHTRA,223319
419,THE SHAMRAO VITHAL COOPERATIVE BANK,SVCB0016009,WAI URBAN COOP BK LTD-SONGIRWADI,"DHUMAL BUILDING, NEAR MAIN POST OFFICE, SONGIRWADI, WAI-421803",SATARA,WAI,MAHARASHTRA,227177
420,THE SHAMRAO VITHAL COOPERATIVE BANK,SVCB0016010,WAI URBAN COOP BK LTD-SATARA CITY,"TULJABHAVANI COMPLEX, YADOGOPAL PETH, SATARA-415001",SATARA,SATARA,MAHARASHTRA,280677
421,THE SHAMRAO VITHAL COOPERATIVE BANK,SVCB0016011,WAI URBAN COOP BK LTD-ARPHAL,"AT ARPHAL, POST: VADUTH; TAL: SATARA; DIST: SATARA-415011",SATARA,VADUTH,MAHARASHTRA,264208
422,THE SHAMRAO VITHAL COOPERATIVE BANK,SVCB0016012,WAI URBAN COOP BK LTD-PHALTAN,"KRISHNA HIGHTS, RAVIWAR PETH, SHIVAJI CHOWK, NEAR DHUMAL HOSPITAL, PHALTAN-115523",SATARA,PHALTAN,MAHARASHTRA,220077
423,THE SHAMRAO VITHAL COOPERATIVE BANK,SVCB0016013,WAI URBAN COOP BK LTD-SADASHIVPETH,"1999, SADASHIV PETH OPP ABHINAV KALA MAHAVIDYALAYA TILAK ROAD, PUNE-411030",PUNE,PUNE,MAHARASHTRA,24477377
424,THE SHAMRAO VITHAL COOPERATIVE BANK,SVCB0016014,WAI URBAN COOP BK LTD-SANGLI,"25, KORE TERRACE, NEMINATH NAGAR, NEAR GANPATI MANDIR, VISHRAMBAG, SANGLI-416415",SANGLI,SANGLI-MIRAJ-KUPWAD,MAHARASHTRA,2303877
425,THE SHAMRAO VITHAL COOPERATIVE BANK,SVCB0016015,WAI URBAN COOP BK LTD-SINHAGAD RD,"545/14, AJYANKATARA, SINHAGAD ROAD, OPP P.L. DESHPANDE GARDEN, PUNE, 411030",PUNE,PUNE,MAHARASHTRA,24252777
426,THE SHAMRAO VITHAL COOPERATIVE BANK,SVCB0016016,WAI URBAN COOP BK LTD-BIBVEWADI,"635/2, 642,643, PLOT NO. 1, MAHESH CO-OP HOUSING SOCIETY, BIBVEWADI, PUNE- 411037",PUNE,PUNE,MAHARASHTRA,24223777
427,THE SHAMRAO VITHAL COOPERATIVE BANK,SVCB0016017,WAI URBAN COOP BK LTD-HADAPSAR,"SHOP NO 25/26, GROUND FLOOR, FORTUNE ESTATES, PLOT NO 58, PUNE-SOLAPUR ROAD, HADAPSAR- 411028",PUNE,HADAPSAR,MAHARASHTRA,24411977
428,THE SHAMRAO VITHAL COOPERATIVE BANK,SVCB0016018,WAI URBAN COOP BK LTD-CHAKAN,"NANA SMRUTI, NEAR VEGETABLE MARKET, PROPERTY NO. 515/1, 515/2, 515/3, 514, CHAKAN, TAL:KHED; DIST: PUNE, 410501",PUNE,CHAKAN,MAHARASHTRA,249277
429,THE SHAMRAO VITHAL COOPERATIVE BANK,SVCB0016019,WAI URBAN COOP BK LTD - THERGAON,"SURVEY NO 21/1A, DANGE CHOWK, THERGAON,PIMPRI-CHINCHWAD, PUNE 411033",PUNE,PIMPRI CHINCHWAD,MAHARASHTRA,9922419649
430,THE SHAMRAO VITHAL COOPERATIVE BANK,SVCB0016020,WAI URBAN COOP BK LTD- KOTHRUD,"ANAND NILAY CO-OP HOUSING SOCIETY, SHOP NO 7 & 8, SURVEY NO 1, KOTHRUD, PUNE -411038",PUNE,PUNE,MAHARASHTRA,8380012179
431,THE SHAMRAO VITHAL COOPERATIVE BANK,SVCB0016021,WAI URBAN COOP BK LTD- AMBEGAON,"SURVEY NO 34, HISSA NO 12/1, SHOP NO S1/S2/S3/S4, BELDARE PRESTIGE, KATRAJ AMBEGAON ROAD, AMBEGAON, PUNE - 411046",PUNE,PUNE,MAHARASHTRA,9922901643
432,THE SHAMRAO VITHAL COOPERATIVE BANK,SVCB0016022,WAI URBAN COOP BK LTD- UTTAMNAGAR,"PANDHARINATH NAGAR HOUSING SOCIETY, GROUND FLOOR, SHOP NO 11,12,13 NDA ROAD, SR NO 84/1, AT POST- SHIVANE UTTAMNAGAR, TALUKA HAVELI, PUNE- 411023",PUNE,SHIVANE,MAHARASHTRA,9922419649
433,THE SHAMRAO VITHAL COOPERATIVE BANK,SVCB0016023,WAI URBAN COOP BK LTD- NASRAPUR,"SHOP NO 3 & 4, HARIOM BUILDING, PLOT NO 1& 6, GRAMPANCHAYAT MILKAT NO 620, NASARAPUR, TALUKA BHOR, PUNE- 412213",PUNE,NASARAPUR,MAHARASHTRA,9011024778
434,THE SHAMRAO VITHAL COOPERATIVE BANK,SVCB0016024,WAI URBAN COOP BK LTD- SANGALI CITY,"CTS NO1058/ A1 TO A5, GROUND FLOOR, NEAR MODERN BAKERY, ST STAND ROAD, GAONBHAG, SANGLI- 416416",SANGLI,SANGLI-MIRAJ-KUPWAD,MAHARASHTRA,8380012179
435,THE SHAMRAO VITHAL COOPERATIVE BANK,SVCB0016025,WAI URBAN COOP BK LTD- VASHI,"APMC MARKET, SECTOR 19, CENTRAL BUILDING, GROUND FLOOR, DEVELOPMENT PHASE II, MARKET- 1, VASHI, NAVI MUMBAI- 400705",THANE,NEW BOMBAY,MAHARASHTRA,27830177
436,THE SHAMRAO VITHAL COOPERATIVE BANK,SVCB0016026,WAI URBAN COOP BK LTD- PACHVAD,"KUDAL ROAD, A/ P- PACHVAD, TALUKA WAI, DISTRICT SATARA - 415513",SATARA,WAI,MAHARASHTRA,7507626477
437,THE SHAMRAO VITHAL COOPERATIVE BANK,SVCB0016027,"THE WAI URBAN CO-OP BANK LTD., WAI- JAISINGPUR","CTS NO 943, LANE NO 8, AAZAD ROAD, JAISINGPUR, TALUKA- SHIROL, DISTRICT- KOLHAPUR 416101",KOLHAPUR,JAISINGPUR,MAHARASHTRA,227422
438,THE SHAMRAO VITHAL COOPERATIVE BANK,SVCB0016028,WAI URBAN COOP BK LTD- MANGAON,"NEAR DR. VYAS HOSPITAL, KHODAD RAOD, A/P- MANGAON, TALUKA- MANGAON, DISTRICT- RAIGAD (402104)",RAIGAD,MANGAON,MAHARASHTRA,263277
439,THE SHAMRAO VITHAL COOPERATIVE BANK,SVCB0016029,WAI URBAN COOP BK LTD- GOREGAON,"NEAR DATTA MANDIR, A/P- GOREGAON, TALUKA- MANGAON, DISTRICT- RAIGAD (402102)",RAIGAD,GOREGAON,MAHARASHTRA,251777
440,THE SHAMRAO VITHAL COOPERATIVE BANK,SVCB0016030,WAI URBAN COOP BK LTD- MAHAD,"CTS NO 157/1/ A. PRABHAT COLONY, A/P- MAHAD, TALUKA- MAHAD, DISTRICT- RAIGAD (402301)",RAIGAD,MAHAD,MAHARASHTRA,8380012179
441,THE SHAMRAO VITHAL COOPERATIVE BANK,SVCB0016101,WAI URBAN COOP BK LTD-WAI,"591, GANPATI ALI, WAI TAL. WAI, DIST SATARA-412803",SATARA,WAI,MAHARASHTRA,220007
442,THE SHAMRAO VITHAL COOPERATIVE BANK,SVCB0017002,SRI BHARATHI COOP BK-HIMAYATHNGR,"SUNDARA SADAN,3-4-462/5,ST. NO. 5,HIMAYATNAGAR, HYDERABAD 500 026",HYDERABAD,HYDERABAD,ANDHRA PRADESH,27634914
443,THE SHAMRAO VITHAL COOPERATIVE BANK,SVCB0018002,RAJAJINAGAR,NO.1703 2ND BLOCK RAJAJINAGAR BANGALORE 560 010,BANGALORE URBAN,BANGALORE,KARNATAKA,0
444,THE SHAMRAO VITHAL COOPERATIVE BANK,SVCB0018003,KAMALANAGAR,"NO.55,8TH MAIN B.E.M.L.LAYOUT,KAMALANAGAR BANGALORE 560 079",BANGALORE URBAN,BANGALORE,KARNATAKA,0
445,THE SHAMRAO VITHAL COOPERATIVE BANK,SVCB0018004,MAHALAKSHMIPURAM,NO.1 JYOTHI COMPLEX NANDINI LAYOUT MAIN ROAD MAHALAKSHMIPURAM BANGALORE 560 096,BANGALORE URBAN,BANGALORE,KARNATAKA,0
446,THE SHAMRAO VITHAL COOPERATIVE BANK,SVCB0018005,VIJAYANAGAR,"NO.326 BY 327,WIDIA LAYOUT,CHANDRALAYOUT MAIN ROAD,BANGALORE 560 040",BANGALORE URBAN,BANGALORE,KARNATAKA,0
447,THE SHAMRAO VITHAL COOPERATIVE BANK,SVCB0018006,VIDYARANYAPURA,"NO 703,3RD BLOCK,B E L LAYOUT,VIDYARANYAPURA,BANGALORE 560 097",BANGALORE URBAN,BANGALORE,KARNATAKA,0
448,THE SHAMRAO VITHAL COOPERATIVE BANK,SVCB0018007,SRIRAMPURAM,"NO.29 BY 1,3RD CROSS,7TH MAIN,SRIRAMPURAM,BANGALORE 560 021",BANGALORE URBAN,BANGALORE,KARNATAKA,0
449,THE SHAMRAO VITHAL COOPERATIVE BANK,SVCB0019002,SHRI GANESH SAHAKARI BK-SANGAVI,"SR NO 53/1B 2 & 14, PIMPLE GURAV, NEW SANGAVI, PUNE 411061",PUNE,SANGAVI,MAHARASHTRA,27286314
450,THE SHAMRAO VITHAL COOPERATIVE BANK,SVCB0019003,SHRI GANESH SAHAKARI BK-RAHATANI,"PARL PALLADIUM, RAHATANI CHOWK, RAHATANI, PUNE 411017",PUNE,PUNE,MAHARASHTRA,9552566018
451,THE SHAMRAO VITHAL COOPERATIVE BANK,SVCB0019004,SHRI GANESH SAH BANK- WALHEKARWADI,"SR NO 133/1, GURUDWARA CHOWK, WALHEKARWADI, CHINCHWAD, PUNE 411033",PUNE,PUNE,MAHARASHTRA,9011907868
452,THE SHAMRAO VITHAL COOPERATIVE BANK,SVCB0019005,SHRI GANESH SAHAKARI BK- BANER BALEWADI,"S.NO. 9/16, PLOT NO.1 &2, NEAR LAXMI MATA MANDIR CHOWK, BALEWADI, PUNE 411045",PUNE,BALEWADI,MAHARASHTRA,9011907868
453,THE SHAMRAO VITHAL COOPERATIVE BANK,SVCB0020002,SREE NARAYAN GURU COOP BK-CHEMBUR,"SREE NARAYAN NAGAR, P.L. LOKHANDE MARG, CHEMBUR (W), MUMBAI- 400089",GREATER BOMBAY,MUMBAI,MAHARASHTRA,25251740
454,THE SHAMRAO VITHAL COOPERATIVE BANK,SVCB0020003,SREE NARAYAN GURU COOP BK-BHANDUP,"28/29; ANIRAJ TOWER, JANATA MARKET, L.B.S. MARG, BHANDUP (W); MUMBAI- 400078",GREATER BOMBAY,MUMBAI,MAHARASHTRA,25961530
455,THE SHAMRAO VITHAL COOPERATIVE BANK,SVCB0020004,SREE NARAYAN GURU COOP BK-MULUND,"5, HANSA┬á VILLA, J.J. ROAD, MULUND (W), MUMBAI - 400080",GREATER BOMBAY,MUMBAI,MAHARASHTRA,25617575
456,THE SHAMRAO VITHAL COOPERATIVE BANK,SVCB0020005,SREE NARAYAN GURU COOP BK-NERUL,"6 & 7, BALSHET APARTMENT, PLOT NO. B / 104, SECTOR 23/B, DARAVE, NERUL - 400706",RAIGAD,KAMOTHE,MAHARASHTRA,27710055
457,THE SHAMRAO VITHAL COOPERATIVE BANK,SVCB0020006,SREE NARAYAN GURU COOP BK- KOPARKHAIRANE,"GIRIRAJ DARSHAN CHS LTD., SHOP NO 3&4, PLOT NO 6,SECTOR 9, KOPARKHAIRANE,NAVI MUMBAI- 400709",THANE,NEW BOMBAY,MAHARASHTRA,27545444
458,THE SHAMRAO VITHAL COOPERATIVE BANK,SVCB0020007,SREE NARAYAN GURU COOP BK- CBD BELAPUR,"SHOP NO 2, KUKREJA PLAZA, D WING, GROUND FLOOR, PLOT NO 47, SECTOR 11, CBD BELAPUR, NAVI MUMBAI- 400614",THANE,NEW BOMBAY,MAHARASHTRA,27564757
459,THE SHAMRAO VITHAL COOPERATIVE BANK,SVCB0021002,SHREERAM SAHAKARI BK LTD-FERBUNDER,"SHOP NO 8 BY 9,NEW BAWAN CHWAL NO.42,R.B.MARG,FERBUNDER,MUMBAI 400033",FERBUNDER,FERBUNDER,MAHARASHTRA,0
460,THE SHAMRAO VITHAL COOPERATIVE BANK,SVCB0022002,ASHOK NAGARI SAHKARI BK LTD-PIMPRI,"2/9, LIG SANT TUKARAM NAGAR-PIMPRI - PUNE 411018",PUNE,PIMPRI CHINCHWAD,MAHARASHTRA,27423880
461,THE SHAMRAO VITHAL COOPERATIVE BANK,SVCB0023002,SHANKAR NAGARI SAHKARI BK-NANDED,"POKARN COMPLEX, NEW MONDHA, NANDED",NANDED,NEW MONDHA,MAHARASHTRA,285566
462,THE SHAMRAO VITHAL COOPERATIVE BANK,SVCB0023003,SHANKAR NAGARI SAHKARI BK-ARDHAPUR,"MAIN ROAD, ARDHAPUR, TAL: ARDHAPUR; DIST:NANDED",NANDED,ARDHAPUR,MAHARASHTRA,272697
463,THE SHAMRAO VITHAL COOPERATIVE BANK,SVCB0023004,SHANKAR NAGARI SAHKARI BK-BHOKAR,"MONDHA, BHOKAR, TAL: BHOKAR; DIST: NANDED",NANDED,BHOKAR,MAHARASHTRA,222995
464,THE SHAMRAO VITHAL COOPERATIVE BANK,SVCB0023005,SHANKAR NAGARI SAHKARI BK-LOHA,"MARKET YARD, LOHA, TAL: LOHA; DIST: NANDED",NANDED,LOHA,MAHARASHTRA,242208
465,THE SHAMRAO VITHAL COOPERATIVE BANK,SVCB0023006,"SHANKAR NAGARI SAHKARI BK- KABRA NAGAR, NANDED","SHOP NO 3 & 4, NEAR AMBIKA MANGAL KARYALAYA, KABRA NAGAR, NANDED",NANDED,NANDED,MAHARASHTRA,266388
466,THE SHAMRAO VITHAL COOPERATIVE BANK,SVCB0023007,SHANKAR NAGARI SAHKARI BK- PURNA,"SHASTRI NAGAR, MAIN ROAD, PURNA, TQ. PURNA, DISTRICT PARBHANI",PARBHANI,PURNA,MAHARASHTRA,255292
467,THE SHAMRAO VITHAL COOPERATIVE BANK,SVCB0023008,SHANKAR NAGARI SAHKARI BK- MUDKHED,"MONDHA MARKET, MUDKHED, TQ. MUDKHED , DISTRICT. NANDED",NANDED,NANDED,MAHARASHTRA,275544
468,THE SHAMRAO VITHAL COOPERATIVE BANK,SVCB0023009,SHANKAR NAGARI SAHKARI BK- NARSI,"NARSI CHOWK, NARSI, TQ. NAIGAON, DIST. NANDED.",NANDED,NAIGAON,MAHARASHTRA,266444
469,THE SHAMRAO VITHAL COOPERATIVE BANK,SVCB0023010,SHANKAR NAGARI SAHKARI BK- CIDCO AURANGABAD,"SAGAR PLAZA, NEAR HIGH COURT, AURANGABAD",AURANGABAD,AURANGABAD,MAHARASHTRA,2472444
470,THE SHAMRAO VITHAL COOPERATIVE BANK,SVCB0023011,SHANKAR NAGARI SAHKARI BK- HADGAON,"NEAR SHRI MAHADEV MANDIR, MAIN ROAD, HADGAON- 431712",NANDED,HADGAON,MAHARASHTRA,222840
471,THE SHAMRAO VITHAL COOPERATIVE BANK,SVCB0024002,MAH. NAGARI SAH.BK-MARKET YARD,"MARKET YARD, KAVHA ROAD, LATUR -413512",LATUR,LATUR,MAHARASHTRA,249745
472,THE SHAMRAO VITHAL COOPERATIVE BANK,SVCB0024003,MAH. NAGARI SAH.BK-VIVEKANAND CHWK,"VIVEKANAND CHOWK, LATUR -413512",LATUR,LATUR,MAHARASHTRA,250726
473,THE SHAMRAO VITHAL COOPERATIVE BANK,SVCB0024004,MAH. NAGARI SAH.BK-AHMEDPUR,"NANDED ┬ûLATUR ROAD, MAIN ROAD, AHMEDPUR -413515, DIST. LATUR",LATUR,AHMEDPUR,MAHARASHTRA,264686
474,THE SHAMRAO VITHAL COOPERATIVE BANK,SVCB0024005,MAH. NAGARI SAH.BK-SHIRUR ANANTPAL,"MAIN ROAD, SHIRUR ANANTPAL; DIST. LATUR-413544",LATUR,SHIRUR ANANTPAL,MAHARASHTRA,250726
475,THE SHAMRAO VITHAL COOPERATIVE BANK,SVCB0025002,SIRCILLA URBAN BK SIRCILLA,"H NO 6 6 95,THSIL ROAD,POST SIRCILLA,DIST KARIMNAGAR,505301",KARIMNAGAR,SIRCILLA,ANDHRA PRADESH,232241
476,THE SHAMRAO VITHAL COOPERATIVE BANK,SVCB0025003,SIRCILLA URBAN BK YELLAREDDY PET,"H NO 10 252 BY 1 YELLAREDDYPET,505 303",KARIMNAGAR,YELLAREDDIPET,ANDHRA PRADESH,244112
477,THE SHAMRAO VITHAL COOPERATIVE BANK,SVCB0026002,KOILKUNTLA COOP BK LTD KOILKUNTLA,"D NO.8 13,MAIN ROAD,KOILKUNTLA 518 134",KURNOOL,KOILKUNTLA,ANDHRA PRADESH,225043
478,THE SHAMRAO VITHAL COOPERATIVE BANK,SVCB0026003,KOILKUNTLA COOP BK LTD NANDYAL,"D NO.3 90,BYRMAL STREET,NANDYAL 518 501",KURNOOL,NANDYAL,ANDHRA PRADESH,220717
479,THE SHAMRAO VITHAL COOPERATIVE BANK,SVCB0026004,KOILKUNTLA COOP BK LTD- BALAJI COMPLEX,"2/ 428/ 129, BALAJI COMPLEX, NANDYAL- 518501",KURNOOL,NANDYAL,ANDHRA PRADESH,242333
480,THE SHAMRAO VITHAL COOPERATIVE BANK,SVCB0027002,MYSORE MERCH COOP BANK,"JAGANMOHAN PALACE ROAD,MYSORE 570 024",MYSORE,MYSORE,KARNATAKA,2432938
481,THE SHAMRAO VITHAL COOPERATIVE BANK,SVCB0027003,MYSORE MERCH COOP BANK,"BANDIPALYA BRANCH,B BLOCK,APMC YARD,MYSORE 570 025",MYSORE,MYSORE,KARNATAKA,2489564
482,THE SHAMRAO VITHAL COOPERATIVE BANK,SVCB0027004,MYSORE MERCHANT COOP BK- HEBBAL,"GROUND FLOOR, BUILDING NO. 412, HEBBAL MAIN ROAD, 1ST STAGE, HEBBAL, MYSORE",MYSORE,HEBBAL,KARNATAKA,2515077
483,THE SHAMRAO VITHAL COOPERATIVE BANK,SVCB0028002,TIRUMALA COOP URB BK - MALAKPET HYD,"H.NO 16,10,27,105,7,5, TIRUMALAPRIDE,1 FLOOR, MALAKPET MAIN ROAD, HYDERABAD 500036",HYDERABAD,HYDERABAD,ANDHRA PRADESH,24544457
484,THE SHAMRAO VITHAL COOPERATIVE BANK,SVCB0029002,SECUNDERABAD UCB - MUSHEERABAD,"1 4 908,7,2,B,1 TO 4, MUSHEERABAD, HYDERABAD, 500020",HYDERABAD,HYDERABAD,ANDHRA PRADESH,27673537
485,THE SHAMRAO VITHAL COOPERATIVE BANK,SVCB0030002,SARJERAO D NAIK SHIRALA BK- SHIRALA,"SOMWAR PETH, JADHAV BUILDING, SHIRALA",SANGLI,SHIRALA,MAHARASHTRA,272194
486,THE SHAMRAO VITHAL COOPERATIVE BANK,SVCB0030003,SARJERAO D NAIK SHIRALA BK- MANGLE,"PETH LINE, MANGLE",SANGLI,MANGLE,MAHARASHTRA,220176
487,THE SHAMRAO VITHAL COOPERATIVE BANK,SVCB0030004,SARJERAO D NAIK SHIRALA BK- SAGAON,"NEAR S.T. STAND, SAGAON",SANGLI,SAGAON,MAHARASHTRA,225035
488,THE SHAMRAO VITHAL COOPERATIVE BANK,SVCB0030005,SARJERAO D NAIK SHIRALA BK- KOKRUD,"NEAR S.T. STAND, KOKRUD",SANGLI,KOKRUD,MAHARASHTRA,224002
489,THE SHAMRAO VITHAL COOPERATIVE BANK,SVCB0030006,SARJERAO D NAIK SHIRALA BK -CHIKALI,"VISHWASRAO S NAIK KHARKHANA, CHIKALI",SANGLI,CHIKALI,MAHARASHTRA,272138
490,THE SHAMRAO VITHAL COOPERATIVE BANK,SVCB0030007,SARJERAO D NAIK SHIRALA BK- SANGLI,"JUNA STATION ROAD, SAMANTH MANSION,SANGLI",SANGLI,SANGLI,MAHARASHTRA,2373577
491,THE SHAMRAO VITHAL COOPERATIVE BANK,SVCB0030008,SARJERAO D NAIK SHIRALA BK- KAMERI,"BAZAR PETH, KAMERI",SANGLI,KAMERI,MAHARASHTRA,271871
492,THE SHAMRAO VITHAL COOPERATIVE BANK,SVCB0030009,SARJERAO D NAIK SHIRALA BK-KOLHAPUR,"DABHOLKAR CORNER, ROYAL PLAZA, KOLHAPUR",KOLHAPUR,KOLHAPUR,MAHARASHTRA,2653902
493,THE SHAMRAO VITHAL COOPERATIVE BANK,SVCB0030010,SARJERAO D NAIK SHIRALA BK- SARUD,"GRAM SACHIVALYA BUILDING, SARUD",KOLHAPUR,SARUD,MAHARASHTRA,244900
494,THE SHAMRAO VITHAL COOPERATIVE BANK,SVCB0030011,SARJERAO D NAIK SHIR BK-BAHADURWADI,"NEAR S.T. STAND, ZILLA PARISHAD SCHOOL, BAHADURWADI",SANGLI,BAHADURWADI,MAHARASHTRA,273455
495,THE SHAMRAO VITHAL COOPERATIVE BANK,SVCB0030012,SARJERAO D NAIK SHIRALA BK - WATEGAON,"NEAR S.T. STAND, WATEGAON, TAL. WALVA DISTRICT, SANGLI",SANGLI,WATEGAON,MAHARASHTRA,5272194
496,THE SHAMRAO VITHAL COOPERATIVE BANK,SVCB0030013,SARJERAO D NAIK SHIRALA BK- NERLE,"GRAMPANCHAYAT MILKAT NO 1056, CITY SURVEY NO 307, NERLE, TAL WALWA, DISTRICT SANGLI 415406",SANGLI,NERLE,MAHARASHTRA,278577
497,THE SHAMRAO VITHAL COOPERATIVE BANK,SVCB0030014,SARJERAO D NAIK SHIRALA BK- MALKAPUR,"AKAR PRIDE, NEAR DATTA MANDIR, AGASHIVNAGAR, MALKAPUR, KARAD, DISTRICT SATARA 415110",SATARA,KARAD,MAHARASHTRA,242811
498,THE SHAMRAO VITHAL COOPERATIVE BANK,SVCB0033002,THE HUBLI URBAN COOP BANK HUBLI,"SIR SIDDAPPA KAMBLI RD, OPP MUNICIPAL CORPORATION",DHARWAD,HUBLI,KARNATAKA,2228249
499,THE SHAMRAO VITHAL COOPERATIVE BANK,SVCB0033003,THE HUBLI URBAN COOP BANK OLD HUBLI,"HUBLIKAR BLDG, LATTI PETH ROAD, OLD HUBLI, DURGAD BAIL",DHARWAD,HUBLI,KARNATAKA,2228339
500,THE SHAMRAO VITHAL COOPERATIVE BANK,SVCB0033004,THE HUBLI URBAN COOP BANK SIRUR PRK,"PREETI AASHIYANA, SIRUR PARK, VIDYA NAGAR",DHARWAD,HUBLI,KARNATAKA,2228279
501,THE SHAMRAO VITHAL COOPERATIVE BANK,SVCB0033005,THE HUBLI URBAN COOP BANK KESHWAPUR,"DESHPANDE BUILDING, BESIDE PETROL BUNK, BENGERI PARASWADI ROAD",DHARWAD,HUBLI,KARNATAKA,2228239
502,THE SHAMRAO VITHAL COOPERATIVE BANK,SVCB0033006,THE HUBLI URBAN COOP BANK GOKUL RD,"AIYENGAR BAKERY BLDG, APOORVA NAGAR CROSS, GOKUL ROAD",DHARWAD,HUBLI,KARNATAKA,2228329
503,THE SHAMRAO VITHAL COOPERATIVE BANK,SVCB0033007,THE HUBLI URBAN COOP BANK DHARAWAD,"MUDHOLKAR BLDG, VIJAYA ROAD, BEHIND CBT",DHARWAD,DHARWAD,KARNATAKA,2228379
504,THE SHAMRAO VITHAL COOPERATIVE BANK,SVCB0033008,THE HUBLI URBAN COOP BANK  HIREPETH,"JABIN BLDG, AKKI HONDA, HIREPETH",DHARWAD,HUBLI,KARNATAKA,2228229
505,THE SHAMRAO VITHAL COOPERATIVE BANK,SVCB0034002,THE ANANTHPUR COOP TOWN BANK LTD - SUBHASH ROAD,"SUBHASH ROAD, ANANTAPUR 515001",ANANTAPUR,ANANTAPUR,ANDHRA PRADESH,275475
506,THE SHAMRAO VITHAL COOPERATIVE BANK,SVCB0034003,THE ANANTHPUR COOP TOWN BANK LTD- GANDHI BAZAR,"SAIFULLA COMPLEX, GANDHI BAZAR 515001",ANANTAPUR,ANANTAPUR,ANDHRA PRADESH,231127
507,THE SHAMRAO VITHAL COOPERATIVE BANK,SVCB0034004,THE ANANTHPUR COOP TOWN BANK LTD - RAM NAGAR,"NEAR CRESENT SCHOOL ROAD, RAM NAGAR 515001",ANANTAPUR,ANANTAPUR,ANDHRA PRADESH,238899
508,THE SHAMRAO VITHAL COOPERATIVE BANK,SVCB0034005,THE ANANTHPUR COOP TOWN BANK  LTD - HINDUPUR,"R.P.G.T ROAD, HINDUPUR",ANANTAPUR,HINDUPUR,ANDHRA PRADESH,227766
509,THE SHAMRAO VITHAL COOPERATIVE BANK,SVCB0035002,THE KOPARGAON PEOPLES COOP BANK LTD-KOPARGAON,"M.PHULE MARG, BANK ROAD , KOPARGAON",AHMADNAGAR,KOPARGAON,MAHARASHTRA,226785
510,THE SHAMRAO VITHAL COOPERATIVE BANK,SVCB0035003,THE KOPARGAON PEOPLES COOP BANK LTD- SHIRDI,"SUTAR GALLI, SHIRDI",AHMADNAGAR,SHIRDI,MAHARASHTRA,255482
511,THE SHAMRAO VITHAL COOPERATIVE BANK,SVCB0035004,THE KOPARGAON PEOPLES COOP BANK LTD- RAHATA,"DR. LODHAS HOSPITAL, KHANDOBA GALLI",AHMADNAGAR,RAHATA,MAHARASHTRA,242032
512,THE SHAMRAO VITHAL COOPERATIVE BANK,SVCB0035005,THE KOPARGAON PEOPLES COOP BANK LTD- PUNTAMBA,"MAIN BAZAR PETH, TAL RAHATA",AHMADNAGAR,PUNTAMBA,MAHARASHTRA,274267
513,THE SHAMRAO VITHAL COOPERATIVE BANK,SVCB0035006,THE KOPARGAON PEOPLES COOP BANK LTD - YEOLA,"BALAJI GALLI, YEOLA",NASIK,YEOLA,MAHARASHTRA,267260
514,THE SHAMRAO VITHAL COOPERATIVE BANK,SVCB0035007,THE KOPARGAON PEOPLES COOP BANK LTD- LASUR STATION,NEAR LASUR STATION,AURANGABAD,LASUR,MAHARASHTRA,242200
515,THE SHAMRAO VITHAL COOPERATIVE BANK,SVCB0035008,THE KOPARGAON PEOPLES COOP BANK LTD- AURANGABAD,"NARHAR COMPLEX, NEAR PAITHAN GATE, GULMANDI",AURANGABAD,AURANGABAD,MAHARASHTRA,2349544
516,THE SHAMRAO VITHAL COOPERATIVE BANK,SVCB0035009,THE KOPARGAON PEOPLES COOP BANK LTD- AHMEDNAGAR,"GANZ BAZAR, SARAF GALLI, MATHURA LAND BLDG",AHMADNAGAR,AHMADNAGAR,MAHARASHTRA,2345939
517,THE SHAMRAO VITHAL COOPERATIVE BANK,SVCB0036002,THE LASALGAON MERCHANTS CO-OP BANK LTD-MAIN LASALGAON,"APEKSHAPURTI, 79, M G ROAD - TAL NIPHAD - 422 306",NASHIK,LASALGAON,MAHARASHTRA,266058
518,THE SHAMRAO VITHAL COOPERATIVE BANK,SVCB0036003,THE LASALGAON MERCHANTS CO-OP BANK LTD-VADALI BHOI,"BAZARPETH, VADALI BHOI",NASHIK,VADALI BHOI,MAHARASHTRA,270559
519,THE SHAMRAO VITHAL COOPERATIVE BANK,SVCB0036004,THE LASALGAON MERCHANTS CO-OP BANK LTD-UGAON,"UGAON, TAL NIPHAD",NASHIK,UGAON,MAHARASHTRA,244415
520,THE SHAMRAO VITHAL COOPERATIVE BANK,SVCB0037002,SHRI KRISHNA CO OP BANK LTD- UMRER,"NEHRU VYAYAM MANDAL BLDG, MAIN ROAD, ITWARI, UMRER- 441203",NAGPUR,UMRER,MAHARASHTRA,8600002118
521,THE SHAMRAO VITHAL COOPERATIVE BANK,SVCB0037003,SHRIKRISHNA CO OP BANK LTD-NARSALA,"SWASTIK SANKUL, HUDKESHWAR ROAD, NARSALA, MHALGINAGAR, NAGPUR",NAGPUR,NARSALA,MAHARASHTRA,8600733312
522,THE SHAMRAO VITHAL COOPERATIVE BANK,SVCB0037004,SHRI KRISHNA CO OP BANK LTD- BHIWAPUR,"GAWARISHANKAR GUPTA COMPLEX, MAIN ROAD, BHIWAPUR- 441201",NAGPUR,BHIWAPUR,MAHARASHTRA,8600002119
523,THE SHAMRAO VITHAL COOPERATIVE BANK,SVCB0038002,THE KALWAN MERCHANTS COOP BANK LTD-KALWAN,"SAPTASHRUNGI, G.T.KOTHAWADE PATH, SHIVAJI NAGAR, KALWAN, NASHIK - 423 501",NASHIK,KALWAN,MAHARASHTRA,221223
524,THE SHAMRAO VITHAL COOPERATIVE BANK,SVCB0038003,THE KALWAN MERCHANTS COOP BANK LTD-ABHONA┬á,"MAIN ROAD, ABHONA AT/POST-ABHONA,TAL-KALWAN, DIST-NASHIK - 423 502",NASHIK,ABHONA,MAHARASHTRA,240417
525,THE SHAMRAO VITHAL COOPERATIVE BANK,SVCB0039002,"THE CITIZEN CO OP BANK LTD - RAJAJINAGAR, DR. RAJKUMAR ROAD","651/A, D BLOCK, 2ND STAGE, FIRST MAIN ROAD, DR. RAJKUMAR ROAD, RAJAJINAGAR, BANGALORE - 560010",BANGALORE URBAN,BANGALORE,KARNATAKA,23321923
526,THE SHAMRAO VITHAL COOPERATIVE BANK,SVCB0040002,PADMASHREE DR. VITTHALRAO VIKHE PATIL CO-OP BANK LTD - NASHIK,"G-3/4, SUYOJIT AVADHOOT TOWER,OLD GANGAPUR NAKA, GANGAPUR ROAD,NASHIK",NASIK,NASHIK,MAHARASHTRA,2314756
527,THE SHAMRAO VITHAL COOPERATIVE BANK,SVCB0041268,THE HOTEL INDUSTRIALISTS CO-OP BANK LTD- CHAMRAJPET,"SAHAKARA SOURABHA, NO 234, 2ND CROSS, 4TH MAIN ROAD,CHAMRAJPET, BANGALORE- 560018",BANGALORE URBAN,BANGALORE,KARNATAKA,26678329
528,THE SHAMRAO VITHAL COOPERATIVE BANK,SVCB0041269,THE HOTEL INDUSTRIALISTS CO-OP BANK LTD- BALAPET,"NO 553,1ST FLOOR, O.T.C ROAD,BALAPET, BANGALORE- 560053",BANGALORE URBAN,BANGALORE,KARNATAKA,22207204
529,THE SHAMRAO VITHAL COOPERATIVE BANK,SVCB0041315,THE HOTEL INDUSTRIALISTS CO-OP BANK LTD- JAYANAGAR,"SAHAKARA KUSUSMA, NO 1350,SOUTH END MAIN ROAD,9TH BLOCK, JAYANAGAR, BANGALORE- 560069",BANGALORE URBAN,BANGALORE,KARNATAKA,26589888
530,THE SHAMRAO VITHAL COOPERATIVE BANK,SVCB0041319,THE HOTEL INDUSTRIALISTS CO-OP BANK LTD- RAJAJINAGAR,"SAHAKARA VIKASA, NO 377, 8TH CROSS,1ST MAIN, 1ST STAGE,6TH BLOCK,INDUSTRIAL TOWN, RAJAJINAGAR, BANGALORE - 560044",BANGALORE URBAN,BANGALORE,KARNATAKA,23153555
531,THE SHAMRAO VITHAL COOPERATIVE BANK,SVCB0041341,THE HOTEL INDUSTRIALISTS CO-OP BANK LTD- HALASURU,"NO 38, PANNA CHAMBERS, PALANI MODALIAR ROAD,HALASOORU, BANGALORE- 560008",BANGALORE URBAN,BANGALORE,KARNATAKA,25566859
532,THE SHAMRAO VITHAL COOPERATIVE BANK,SVCB0041350,THE HOTEL INDUSTRIALISTS CO-OP BANK LTD- UTTARAHALLI,"NO. 8, CHOWDESHWARI COMPLEX, 1ST FLOOR, UTTARAHALLI CIRCLE,SUBRAMANYAPURA POST,BANGALORE-560061",BANGALORE URBAN,SUBRAMANYAPURA,KARNATAKA,26396465
533,THE SHAMRAO VITHAL COOPERATIVE BANK,SVCB0041385,THE HOTEL INDUSTRIALISTS CO-OP BANK LTD- GANGANAGAR,"NO. 18/3,1ST MAIN, OPP. 108/B BUS TERMINUS,GANGANAGAR, BANGALORE- 560032",BANGALORE URBAN,BANGALORE,KARNATAKA,22429754
534,THE SHAMRAO VITHAL COOPERATIVE BANK,SVCB0041392,THE HOTEL INDUSTRIALISTS COOP BANK LTD- MATHIKERE,"NO.63, SAHAKARA SUVARNA, TRIVENI ROAD, 4TH MAIN, GOKUL, 1ST STAGE, 2ND PHASE, MATHIKERE, BANGALORE",BANGALORE URBAN,BANGALORE,KARNATAKA,8041077282
535,THE SHAMRAO VITHAL COOPERATIVE BANK,SVCB0042002,THE REVDANDA CO-OP URBAN BANK LTD- REVDANDA,"AT POST- REVDANDA, TALUKA ALIBAG, DISTRICT RAIGAD,PIN NO 402201",RAIGAD,Revdanda,MAHARASHTRA,8407966777
536,THE SHAMRAO VITHAL COOPERATIVE BANK,SVCB0042003,THE REVDANDA CO-OP URBAN BANK LTD- ALIBAG,"SHRIBA NO 03, RADIKA APPARTMENT, ALIBAG, TALUKA ALIBAG, DISTRICT RAIGAD, PIN NO- 402201",RAIGAD,ALIBAG,MAHARASHTRA,9545069988
537,THE SHAMRAO VITHAL COOPERATIVE BANK,SVCB0042004,THE REVDANDA CO-OP URBAN BANK LTD- ROHA,"L.G.SHOPPING CENTRE, MEENA BAZAR, AT POST -ROHA, TALUKA ALIBAG, DISTRICT RAIGAD, PIN NO 402109",RAIGAD,ROHA,MAHARASHTRA,9545059988
538,THE SHAMRAO VITHAL COOPERATIVE BANK,SVCB0042005,THE REVDANDA CO-OP URBAN BANK LTD- POYNAD,"AT POST- POYNAD, RADA HARI SANKUL, TALUKA ALIBAG, DISTRICT RAIGAD, PIN NO 402108",RAIGAD,POYNAD,MAHARASHTRA,8407988777
539,THE SHAMRAO VITHAL COOPERATIVE BANK,SVCB0043002,JANATA SAHAKARI BANK LTD AMRAVATI- AMRAVATI,"PANCHSHEEL CINEMA MARG, AMRAVATI",AMRAVATI,AMRAVATI,MAHARASHTRA,2676457
540,THE SHAMRAO VITHAL COOPERATIVE BANK,SVCB0043003,JANATA SAHAKARI BANK LTD AMRAVATI- RAJAPETH,"NEAR GADRE MOTERS, RAJAPETH SQUARE, AMRAVATI",AMRAVATI,AMRAVATI,MAHARASHTRA,2674297
541,THE SHAMRAO VITHAL COOPERATIVE BANK,SVCB0043004,JANATA SAHAKAR BANK LTD AMRAVATI- SHIRAGAON KASBA,"GAJARI BAZAR, SHIRASGAON KASABA, TQ CHANDUR BAZAR, DIST AMRAVATI",AMRAVATI,CHANDUR BAZAR,MAHARASHTRA,226465
542,THE SHAMRAO VITHAL COOPERATIVE BANK,SVCB0043005,JANATA SAHAKARI BANK LTD AMRAVATI- RATHI NAGAR,"NEAR RATHI HOSTEL, V.M.V. ROAD, AMRAVATI",AMRAVATI,AMRAVATI,MAHARASHTRA,2550430
543,THE SHAMRAO VITHAL COOPERATIVE BANK,SVCB0043006,JANATA SAHAKARI BANK LTD AMRAVATI- ANJANGAON SURJI,"PAN ATAI, NEAR VITHAL MANDIR, ANJANGAON SURJI, TQ- ANJANGAON SURJI, DISTRICT AMRAVATI",AMRAVATI,ANJANGAON SURJI,MAHARASHTRA,242099
544,THE SHAMRAO VITHAL COOPERATIVE BANK,SVCB0045002,SRI GANAPATHI URBAN CO-OP BANK LTD- SAGAR,"CHAMRAJPET, SAGAR",SHIMOGA,SAGAR,KARNATAKA,8183226114
545,THE SHAMRAO VITHAL COOPERATIVE BANK,SVCB0045003,SRI GANAPATHI URBAN CO-OP BANK LT- SHIMOGA,"SANTOSH BUILDING, JAIL ROAD, SHIMOGA",SHIMOGA,SHIMOGA,KARNATAKA,8182274529
546,THE SHAMRAO VITHAL COOPERATIVE BANK,SVCB0045004,SRI GANAPATHI URBAN CO-OP BANK LTD- HOSANAGAR,"CHOWDAMMA BEEDI, HOSANAGAR",SHIMOGA,HOSANAGARA,KARNATAKA,8185221032
547,THE SHAMRAO VITHAL COOPERATIVE BANK,SVCB0046002,THE SHALINI SAHAKARI BANK LTD- N.M. JOSHI MARG,"395, N.M.JOSHI MARG, OPP. APOLLO MILL, MUMBAI- 400011",GREATER BOMBAY,MUMBAI,MAHARASHTRA,23093179
548,THE SHAMRAO VITHAL COOPERATIVE BANK,SVCB0047002,GAUTAM SAHAKARI BANK LTD- GAUTAMNAGAR,"A/P- KOLPEWADI, TALUKA KOPARGAON, DISTRICT AHMEDNAGAR, PIN- 423602",AHMADNAGAR,KOPARGAON,MAHARASHTRA,261266
549,THE SHAMRAO VITHAL COOPERATIVE BANK,SVCB0047003,GAUTAM SAHAKARI BANK- KOPARGAON,"A/P- KOPARGAON, DISTRICT- AHMEDNAGAR, PIN- 423601",AHMADNAGAR,KOPARGAON,MAHARASHTRA,222790
550,THE SHAMRAO VITHAL COOPERATIVE BANK,SVCB0047004,GAUTAM SAHAKARI BANK LTD- SANVATSAR,"A/P- SHINGNAPUR, TALUKA- KOPARGAON, DISTRICT- AHMEDNAGAR, PIN- 423603",AHMADNAGAR,KOPARGAON,MAHARASHTRA,222466
551,THE SHAMRAO VITHAL COOPERATIVE BANK,SVCB0047005,GAUTAM SAHAKARI BANK LTD- WAVI,"A/P- WAVI, TALUKA SINNAR, DISTRICT NASHIK, PIN CODE 422104",NASIK,SINNAR,MAHARASHTRA,283511
552,THE SHAMRAO VITHAL COOPERATIVE BANK,SVCB0047006,GAUTAM SAHAKARI BANK- SAKURI,"A/P- SAKURI, TALUKA RAHATA, DISTRICT AHMEDNAGAR, PIN- 423607",AHMADNAGAR,RAHATA,MAHARASHTRA,242521
553,THE SHAMRAO VITHAL COOPERATIVE BANK,SVCB0047007,GAUTAM SAHAKARI BANK- POHEGAON,"A/P- POHEGAON,TALUKA- KOPARGAON, DISTRICT- AHMEDNAGAR, PIN- 423605",AHMADNAGAR,POHEGAON,MAHARASHTRA,275366
554,THE SHAMRAO VITHAL COOPERATIVE BANK,SVCB0047008,GAUTAM SAHAKARI BANK LTD- RAHURI,"OPPOSITE BUS STAND,A/P- RAHURI, TALUKA RAHURI, AHMEDNAGAR PIN- 413705",AHMADNAGAR,RAHURI,MAHARASHTRA,232866
555,THE SHAMRAO VITHAL COOPERATIVE BANK,SVCB0048003,SREE MAHAYOGI LAKSHAMMA CO-OP BANK LTD- MARKET YARD,"AGRICULTURE MARKET COMMITTEE, PIN CODE- 518301",KURNOOL,ADONI,ANDHRA PRADESH,251868
556,THE SHAMRAO VITHAL COOPERATIVE BANK,SVCB0049002,THE INNESPETA CO-OPERATIVE URBAN BANK LTD- RAJAHMUNDRY,"FIRST FLOOR, D.NO. 36-26-2/ 1&2, BALLAWARI STREET,BEHIND KOTIPALLI BUS STAND- 533101",EAST GODAVARI,RAJAHMUNDRY,ANDHRA PRADESH,9866551347
557,THE SHAMRAO VITHAL COOPERATIVE BANK,SVCB0049003,THE INNESPETA CO-OPERATIVE URBAN BANK LTD- SYAMALA NAGAR,"86-8-8, V.L.PURAM, TILAK ROAD- 533103",EAST GODAVARI,RAJAHMUNDRY,ANDHRA PRADESH,9440646898
558,THE SHAMRAO VITHAL COOPERATIVE BANK,SVCB0049004,THE INNESPETA  CO-OPERATIVE URBAN BANK LTD- HOUSING BOARD,"D.NO.-2-289, LALACHERUVU, SPINNING MILL COLONY, RAJAHMAHENDRAVARAM, PIN- 533106",EAST GODAVARI,RAJAHMUNDRY,ANDHRA PRADESH,2432689
559,THE SHAMRAO VITHAL COOPERATIVE BANK,SVCB0051002,SRI SATYA SAI NAGARIK SAHAKARI BANK MARYADIT- BHOPAL,"134 ZONE -1, M. P. NAGAR, BHOPAL- 462011",BHOPAL,BHOPAL,MADHYA PRADESH,2559651
560,THE SHAMRAO VITHAL COOPERATIVE BANK,SVCB0052002,THE ARYA VAISHYA COOP BANK LTD- HOSUR,"P. B. ROAD, NEAR KARNATAKA STATE WAREHOUSE, HOSUR, HUBLI- 580021",DHARWAD,HUBLI-DHARWAD,KARNATAKA,7411477994
561,THE SHAMRAO VITHAL COOPERATIVE BANK,SVCB0052003,THE ARYA VAISHYA COOP BANK LTD- GADAG,"MAKAN GALLI, BASVESHWAR ROAD, NEAR MERCHANTS LIBERAL COOP BANK, GADAG- 582101",GADAG,GADAG,KARNATAKA,9620198925
562,THE SHAMRAO VITHAL COOPERATIVE BANK,SVCB0052004,THE ARYA VAISHYA COOP BANK LTD- NARGUND,"NARGUND BRANCH, TMC ROAD, NARGUND- 582207",GADAG,NARGUND,KARNATAKA,9739550176
563,THE SHAMRAO VITHAL COOPERATIVE BANK,SVCB0052005,THE ARYA VAISHYA COOP BANK LTD- DHARWAD,"AGADI COMPLEX, OLD DALAL MARKET, DHARWAD- 580001",DHARWAD,HUBLI-DHARWAD,KARNATAKA,9620001019
564,THE SHAMRAO VITHAL COOPERATIVE BANK,SVCB0052006,THE ARYA VAISHYA COOP BANK LTD- KERUR,"B. N. TOTGERI BUILDING, TMC NO 1806, MARKET POST, KERUR- 587206",BAGALKOTE,KERUR,KARNATAKA,9164890700
565,THE SHAMRAO VITHAL COOPERATIVE BANK,SVCB0053002,THE GOOTY CO-OP TOWN BANK LTD- GOOTY,"7- 650/B, MAIN ROAD, NEAR RTC BUS STAND- 515401",ANANTAPUR,GOOTY,ANDHRA PRADESH,252346
566,THE SHAMRAO VITHAL COOPERATIVE BANK,SVCB0053003,THE GOOTY CO-OP TOWN BANK LTD- RAILWAY STATION ROAD,"9- 828, RAILWAY STATION ROAD- 515402",ANANTAPUR,GOOTY,ANDHRA PRADESH,252345
567,THE SHAMRAO VITHAL COOPERATIVE BANK,SVCB0054002,THE AMBIKA MAHILA SAHAKARI BANK LTD- MALIWADA,"H. NO. 4638, PANCHPIR CHAVDI MALIWADA, AHMEDNAGAR 414001",AHMADNAGAR,AHMADNAGAR,MAHARASHTRA,2359855
568,THE SHAMRAO VITHAL COOPERATIVE BANK,SVCB0054003,THE AMBIKA MAHILA SAHAKARI BANK LTD- BALIKASHRAM ROAD,"SURVEY NO 145/2/3, IN FRONT OF POLICE COLONY, BALIKASHRAM ROAD, AHMEDNAGAR- 414003",AHMADNAGAR,AHMADNAGAR,MAHARASHTRA,2323696
569,THE SHAMRAO VITHAL COOPERATIVE BANK,SVCB0054004,THE AMBIKA MAHILA SAHAKARI BANK LTD- PIPELINE ROAD,"KRUSHNA JAGDAMBA APARTMENT, SHOP NO. 8 & 9, BHISTBAG CHAUK, PIPELINE ROAD, AHMEDNAGAR 414003",AHMADNAGAR,AHMADNAGAR,MAHARASHTRA,2425794
570,THE SHAMRAO VITHAL COOPERATIVE BANK,SVCB0054005,THE AMBIKA MAHILA SAHAKARI BANK LTD- SARASNAGAR,"PLOT NO. 93, BEHIND MARKET YARD, NEAR OLD BRIDGE, SARASNAGAR 414001",AHMADNAGAR,AHMADNAGAR,MAHARASHTRA,2450026
571,THE SHAMRAO VITHAL COOPERATIVE BANK,SVCB0055002,APPASAHEB BIRNALE SAHAKARI BANK LTD- DHUDGAON,"AP DUDHGAON, TAL- MIRAJ, DIST- SANGLI 416315",SANGLI,DUDHAGAON,MAHARASHTRA,2486134
572,THE SHAMRAO VITHAL COOPERATIVE BANK,SVCB0055003,APPASAHEB BIRNALE SAHAKARI BANK LTD- MARKET YARD- SANGLI,"CHAMBER OF COMMERCE, MARKET YARD, SANGLI 416416",SANGLI,SANGLI,MAHARASHTRA,2671801
573,THE SHAMRAO VITHAL COOPERATIVE BANK,SVCB0055004,APPASAHEB BIRNALE SAHAKARI BANK LTD- VISHRAM BAG- SANGLI,"NEAR GANAPATI TEMPLE, VISHRAMBAG, SANGLI- 416416",SANGLI,SANGLI,MAHARASHTRA,2305750
574,THE SHAMRAO VITHAL COOPERATIVE BANK,SVCB0056002,THE KOVVUR CO-OP URBAN BANK LTD- KOVVUR,"NO. 3423, D NO- 15-4-3, BAPUJI NAGAR, KOVVUR, WEST GODAVARI, ANDHRA PRADESH 534350",WEST GODAVARI,KOVVUR,ANDHRA PRADESH,232280
575,THE SHAMRAO VITHAL COOPERATIVE BANK,SVCB0057002,BHINGAR URBAN COOP BANK LTD- PIPELINE,"PIPELINE ROAD, NEAR EKVIRA CHOWK, AHMEDNAGAR- 414003",AHMADNAGAR,AHMADNAGAR,MAHARASHTRA,2422003
576,THE SHAMRAO VITHAL COOPERATIVE BANK,SVCB0057003,BHINGAR URBAN COOP BANK LTD- MALIWADA,"WAD NO- 17, MALIWADA WES, AHMEDNAGAR, NEAR SHANI GANPATI MANDIR- 414001",AHMADNAGAR,AHMADNAGAR,MAHARASHTRA,2327376
577,THE SHAMRAO VITHAL COOPERATIVE BANK,SVCB0057004,BHINGAR URBAN COOP BANK LTD- ZOPADI,"NAGAR MANMAD ROAD, NEAR DIPAK HOSPITAL, ZOPADI CANTING- 414003",AHMADNAGAR,AHMADNAGAR,MAHARASHTRA,2329611
578,THE SHAMRAO VITHAL COOPERATIVE BANK,SVCB0057005,BHINGAR URBAN COOP BANK LTD- BHINGAR,"NAGAR PATHARDI ROAD, BHINGAR 414002",AHMADNAGAR,AHMADNAGAR,MAHARASHTRA,2442098
579,THE SHAMRAO VITHAL COOPERATIVE BANK,SVCB0057006,BHINGAR URBAN COOP BANK LTD- SHRIGONDA,"OPPOSITE OF PANCHAYAT SAMITI, LAXMINAGAR SHRIGONDA- 413701",AHMADNAGAR,SHRIGONDA,MAHARASHTRA,7222150
580,THE SHAMRAO VITHAL COOPERATIVE BANK,SVCB0057007,BHINGAR URBAN COOP BANK LTD- BOLHEGAON,"SHOP NO- 4, KRUSHRAJ RESIDENCY, NEAR HOTEL NAMRATA, BOLHEGAON ROAD, MIDC AHMEDNAGAR, PIN CODE- 414111",AHMADNAGAR,AHMADNAGAR,MAHARASHTRA,2779777
581,THE SHAMRAO VITHAL COOPERATIVE BANK,SVCB0057008,BHINGAR URBAN COOP BANK LTD- TISGAON,"HO. NO. 1385, PLOT NO.1, AT POST TISGAON, TALUKA- PATHARDI, DISTRICT- AHMEDNAGAR- 414106",AHMADNAGAR,TISGAON,MAHARASHTRA,8241241
582,THE SHAMRAO VITHAL COOPERATIVE BANK,SVCB0057009,BHINGAR URBAN COOP BANK LTD- SHIRUR,"SR. NO. 1149/ 1 PLUS 2, PLOT NO. 35, SHOP NO. 9,10 & 11, SHIRUR BYPASS ROAD, SHIRUR, TALUKA- SHIRUR, DISTRICT PUNE, PIN CODE- 412210",PUNE,SHIRUR,MAHARASHTRA,8087960046
583,THE SHAMRAO VITHAL COOPERATIVE BANK,SVCB0058002,KRISHNA PATTANA SAHAKAR BANK NIYAMITHA- SHAHAPUR,"APMC YARD, YADGIR ROAD, SHAHAPUR, DISTRICT YADGIR- 585223",YADGIR,SHAHAPUR,KARNATAKA,243019
584,THE SHAMRAO VITHAL COOPERATIVE BANK,SVCB0060002,SRI SIDDARAMESHWARA SAHAKARA BANK NIYAMITHA- TUMKURU,"OPP. ZILLA PANCHAYATH OFFICE, B H ROAD, 572102",TUMKUR,TUMKUR,KARNATAKA,8162273195
585,THE SHAMRAO VITHAL COOPERATIVE BANK,SVCB0060003,SRI SIDDARAMESHWARA SAHAKARA BANK NIYAMITHA- NITTUR,"N M S COMPEX, N H 206, NITTUR, 572223",TUMKUR,NITTUR,KARNATAKA,8131230024
586,THE SHAMRAO VITHAL COOPERATIVE BANK,SVCB0061002,THE CUMBUM COOP TOWN BANK LTD- CUMBUM,"D. NO. 16-149, MAIN BAZAR, NEAR ANJANEYA SWAMY TEMPLE,CUMBUM- 523333",PRAKASAM,CUMBUM,ANDHRA PRADESH,9866362998
587,THE SHAMRAO VITHAL COOPERATIVE BANK,SVCB0062002,THE HOSPET COOP CITY BANK LTD- HOSPET,"Y.NO. 1583, PATEL NAGAR, 3RD WARD, HOSPET- 583201",BELLARY,HOSPET,KARNATAKA,8394228426
588,THE SHAMRAO VITHAL COOPERATIVE BANK,SVCB0062003,THE HOSPET CO-OP CITY BANK LTD.- KAMPLI,"HNF Plaza, Kottal Road, Kampli-583132",BELLARY,KAMPLI,KARNATAKA,8394250500
