,BANK NAME,IFSC,OFFICE,ADDRESS,DISTRICT,CITY,STATE,PHONE
0,KERALA GRAMIN BANK,KLGB0040101,HEAD OFFICE,"KGB TOWERS,A K ROAD,P.O.MALAPPURAM,PIN-676505",MALAPPURAM,MALAPPURAM,KERALA,2101253
1,KERALA GRAMIN BANK,KLGB0040102,AMBALAVAYAL,"AMBALAVAYAL,P.O.AMBALAVAYAL,WYNAD DT,PIN-673593",WAYANAD,WAYANAD,KERALA,260479
2,KERALA GRAMIN BANK,KLGB0040103,ATHOLI,"ATHOLI P.O.ATHOLI,KOZHIKODE, DT,PIN-673315",KOZHIKODE,KOZHIKODE,KERALA,2672299
3,KERALA GRAMIN BANK,KLGB0040104,KARUVARAKUNDU,"KARUVARAKUNDU P.O.THARIS,MALAPPURAM DT,PIN-676573",MALAPPURAM,MALAPPURAM,KERALA,280251
4,KERALA GRAMIN BANK,KLGB0040105,THIRUNAVAYA,"THIRUNAVAYA FAMACOMPLEX,KUTTIPPURAMROAD,P.O.THIRUNAVAYA MALAPPURAM DT,PIN-676301",MALAPPURAM,MALAPPURAM,KERALA,2602058
5,KERALA GRAMIN BANK,KLGB0040106,PULAMANTHOLE,"PULAMANTHOLE BUS STAND BUILDINGP.O.PULAMANTHOLE MALAPPURAM DT,PIN-679323",MALAPPURAM,MALAPPURAM,KERALA,267458
6,KERALA GRAMIN BANK,KLGB0040107,EDAVANNA,"EDAVANNA P.O.EDAVANNA MALAPPURAM DT,PIN-676541",MALAPPURAM,MALAPPURAM,KERALA,2700464
7,KERALA GRAMIN BANK,KLGB0040108,KOORACHUND,"KOORACHUNDU P.O.KOORACHUNDU KOZHIKODE DT,PIN-673527",KOZHIKODE,KOZHIKODE,KERALA,2660221
8,KERALA GRAMIN BANK,KLGB0040109,PERUVAYAL,"PERUVAYAL P.O.POOVATTUPARAMBA KOZHIKODE DT,PIN-673008",KOZHIKODE,KOZHIKODE,KERALA,2490234
9,KERALA GRAMIN BANK,KLGB0040110,VENGARA,"VENGARA P.O.VENGARA MALAPPURAM DT,PIN-676304",MALAPPURAM,MALAPPURAM,KERALA,2450323
10,KERALA GRAMIN BANK,KLGB0040111,NARIKKUNI,"NARIKKUNI P.O.NARIKKUNI KOZHIKODE DT,PIN-673585",KOZHIKODE,KOZHIKODE,KERALA,2246150
11,KERALA GRAMIN BANK,KLGB0040112,MALAPPURAM,"MALAPPURAM P.O.DOWNHILL MALAPPURAM DT,PIN-676519",MALAPPURAM,MALAPPURAM,KERALA,2735106
12,KERALA GRAMIN BANK,KLGB0040113,KIZHISSERY,"KIZHISSERY P.O.KUZHIMANNA MALAPPURAM DT,PIN-673641",MALAPPURAM,MALAPPURAM,KERALA,2756325
13,KERALA GRAMIN BANK,KLGB0040114,MELADY,"MELADY P.O.PAYYOLI KOZHIKODE DT,PIN-673522",KOZHIKODE,KOZHIKODE,KERALA,2602016
14,KERALA GRAMIN BANK,KLGB0040115,AYANCHERY,"AYANCHERY P.O.AYANCHERY KOZHIKODE DT,PIN-673 541",KOZHIKODE,KOZHIKODE,KERALA,2592120
15,KERALA GRAMIN BANK,KLGB0040116,MULLANKOLLY,"MULLANKOLLY P.O.MULLANKOLLY WYNAD DT,PIN-673579",WAYANAD,WAYANAD,KERALA,240351
16,KERALA GRAMIN BANK,KLGB0040117,THODANNUR,"THODANNUR P.O.THODANNUR KOZHIKODE DT,PIN-673104",KOZHIKODE,KOZHIKODE,KERALA,2592052
17,KERALA GRAMIN BANK,KLGB0040118,TANUR,"TANUR P.O.TANURMALAPPURAM DT,PIN-676302",MALAPPURAM,MALAPPURAM,KERALA,2440219
18,KERALA GRAMIN BANK,KLGB0040119,ARIYALLUR,"ARIYALLUR,P.O.ARIYALLUR,MALAPPURAM DT,PIN-676312",MALAPPURAM,MALAPPURAM,KERALA,2470259
19,KERALA GRAMIN BANK,KLGB0040120,CALICUT CITY,"CALICUTCITY LAKSHMIBUILDING,KANNURROAD,KOZHIKODE DT,PIN-673001",KOZHIKODE,KOZHIKODE,KERALA,2361474
20,KERALA GRAMIN BANK,KLGB0040121,KENICHIRA,"KENICHIRA P.O.KENICHIRA,WYNAD DT,PIN-673596",WAYANAD,WAYANAD,KERALA,211536
21,KERALA GRAMIN BANK,KLGB0040122,PERUMPADAPPA,"PERUMPADAPPU P.O.PERUMPADAPPUMALAPPURAM DT,PIN-679590",MALAPPURAM,MALAPPURAM,KERALA,2672220
22,KERALA GRAMIN BANK,KLGB0040123,KAVUMANNAM,"KAVUMANNAM P.O.KAVUMANNAMWYNAD DT,PIN-673121",WAYANAD,WAYANAD,KERALA,250457
23,KERALA GRAMIN BANK,KLGB0040124,PANDEERKARA,"PANDEERKKARA P.O.AVADUKKA,VIA.PERUVANNAMUZHI KOZHIKODE DT,PIN-673528",KOZHIKODE,KOZHIKODE,KERALA,2668151
24,KERALA GRAMIN BANK,KLGB0040125,VALAYAM,"VALAYAM P.O.VALAYAM,VIA.KALLACHIKOZHIKODE DT,PIN-673517",KOZHIKODE,KOZHIKODE,KERALA,2460011
25,KERALA GRAMIN BANK,KLGB0040127,VAZHIKKADAVU,"VAZHIKKADAVU P.O.VAZHIKKADAVU MALAPPURAM DT,PIN-679333",MALAPPURAM,MALAPPURAM,KERALA,276074
26,KERALA GRAMIN BANK,KLGB0040128,MANIYUR,"MANIYUR P.O.PALAYADNADA KOZHIKODE DT,PIN-673530",KOZHIKODE,KOZHIKODE,KERALA,2536222
27,KERALA GRAMIN BANK,KLGB0040129,ANAMANGAD,"ANAMANGAD,P.O.ANAMANGAD,MALAPPURAM DT,PIN-679357",MALAPPURAM,MALAPPURAM,KERALA,205219
28,KERALA GRAMIN BANK,KLGB0040130,VYTHIRI,"VYTHIRI P.O.VYTHIRIWYNAD DT,PIN-673576",WAYANAD,WAYANAD,KERALA,255280
29,KERALA GRAMIN BANK,KLGB0040131,MORAYUR,"MORAYUR P.O.MORAYUR MALAPPURAM DT,PIN-673642",MALAPPURAM,MALAPPURAM,KERALA,2772799
30,KERALA GRAMIN BANK,KLGB0040132,POOKKOTTUMPADAM,"POOKKOTTUMPADAM P.O.POOKKOOTTUMPADAM MALAPPURAM DT,PIN-679332",MALAPPURAM,MALAPPURAM,KERALA,260113
31,KERALA GRAMIN BANK,KLGB0040133,PULIKKAL,"PULIKKAL P.O.PULIKKAL MALAPPURAM DT,PIN-673637",MALAPPURAM,MALAPPURAM,KERALA,2790125
32,KERALA GRAMIN BANK,KLGB0040134,TUNERI,"TUNERI P.O.TUNERI,VIA.NADAPURAM KOZHIKODE DT,673504",KOZHIKODE,KOZHIKODE,KERALA,2550298
33,KERALA GRAMIN BANK,KLGB0040135,VETTATHUR,"VETTATHUR P.O.THELAKKAD,VIA.PATTIKKAD MALAPPURAM DT,PIN-679325",MALAPPURAM,MALAPPURAM,KERALA,245410
34,KERALA GRAMIN BANK,KLGB0040136,NADAPURAM ROAD,"NADAPURAMROAD P.O.MADAPPALLY COLLEGE KOZHIKODE DT,PIN-673102",KOZHIKODE,KOZHIKODE,KERALA,2513030
35,KERALA GRAMIN BANK,KLGB0040137,MANIPURAM,"MANIPURAM MANIPURAM ARCADE,P.O.MANIPURAM,KODUVALLY VIA,KOZHIKODE DT,PIN-673 572",KOZHIKODE,KOZHIKODE,KERALA,2211165
36,KERALA GRAMIN BANK,KLGB0040138,VAZHAVATTA,"VAZHAVATTA P.O.VAZHAVATTA WYNAD DT,PIN-673122",WAYANAD,WAYANAD,KERALA,247317
37,KERALA GRAMIN BANK,KLGB0040139,KUNIYIL,"KUNIYIL P.O.KEEZHUPARAMBA MALAPPURAM DT,PIN-673639",MALAPPURAM,MALAPPURAM,KERALA,2858735
38,KERALA GRAMIN BANK,KLGB0040140,IRUMBUZHI,"IRUMBUZHI P.O.IRUMBUZHI MALAPPURAM DT,PIN-676513",MALAPPURAM,MALAPPURAM,KERALA,2739002
39,KERALA GRAMIN BANK,KLGB0040141,PINANGODE,"PINANGODE P.O.PIN-ANGODE WYNAD DT,PIN-673121",WAYANAD,WAYANAD,KERALA,204221
40,KERALA GRAMIN BANK,KLGB0040142,PONNANI,"PONNANI CENTRALPLAZA,CHAMRAVATTOMJN.P.O.PONNANI MALAPPURAM DT,PIN-679577",MALAPPURAM,MALAPPURAM,KERALA,2666817
41,KERALA GRAMIN BANK,KLGB0040143,VELLILA,"VELLILA KOZHIKKOTTUPARAMBA,VELLILA.P.O.MALAPPURAM DT,PIN-679324",MALAPPURAM,MALAPPURAM,KERALA,239264
42,KERALA GRAMIN BANK,KLGB0040144,KOOTTALIDA,"KOOTTALIDA P.O.AVITANELLUR KOZHIKODE DT,PIN-673618",KOZHIKODE,KOZHIKODE,KERALA,2657233
43,KERALA GRAMIN BANK,KLGB0040145,KANNOTH,"KANNOTH P.O.KANNOTH,VIA,KODENCHERY KOZHIKODE DT,PIN-673580",KOZHIKODE,KOZHIKODE,KERALA,2236295
44,KERALA GRAMIN BANK,KLGB0040146,POOKKOTTOOR,"POOKKOTTOOR K.I.BUILDING,POOKKOTTOOR.P.O.MALAPPURAM DT,PIN-676517",MALAPPURAM,MALAPPURAM,KERALA,2772070
45,KERALA GRAMIN BANK,KLGB0040147,CHAMRAVATTOM,"CHAMRAVATTOM P.O.CHAMRAVATTOM MALAPPURAM DT,PIN-676110",MALAPPURAM,MALAPPURAM,KERALA,2562534
46,KERALA GRAMIN BANK,KLGB0040148,KANIYAMBETTA,"KANIYAMBETTA P.O.KANIYAMBETTA WYNAD DT,PIN-673124",WAYANAD,WAYANAD,KERALA,286606
47,KERALA GRAMIN BANK,KLGB0040149,OTHUKKUNGAL,"OTHUKKUNGAL P.O.OTHUKKUNGAL MALAPPURAM DT,PIN-676528",MALAPPURAM,MALAPPURAM,KERALA,2838168
48,KERALA GRAMIN BANK,KLGB0040150,PANDALLUR,"PANDALLUR P.O.KADAMBODE MALAPPURAM DT,PIN-676121",MALAPPURAM,MALAPPURAM,KERALA,2782520
49,KERALA GRAMIN BANK,KLGB0040151,KAVANOOR,"KAVANOOR P.O.KAVANOOR MALAPPURAM DT,PIN-673644",MALAPPURAM,MALAPPURAM,KERALA,2862813
50,KERALA GRAMIN BANK,KLGB0040152,MARUTHOMKARA,"MARUTHOMKARA P.O.KAVILUMPARA,MARUTHOMKARA KOZHIKODE DT,PIN-673513",KOZHIKODE,KOZHIKODE,KERALA,2666878
51,KERALA GRAMIN BANK,KLGB0040153,OMANOOR,"OMANOOR P.O.OMANOOR MALAPPURAM DT,PIN-673645",MALAPPURAM,MALAPPURAM,KERALA,2725325
52,KERALA GRAMIN BANK,KLGB0040154,AZHINHILAM,"AZHINHILAM P.O.AZHINHILAM,VIA.FEROKE COLLEGE MALAPPURAM DT,PIN-673632",MALAPPURAM,MALAPPURAM,KERALA,2830539
53,KERALA GRAMIN BANK,KLGB0040155,UNNIKULAM,"UNNIKULAM P.O.EKAROOL KOZHIKODE DT,PIN-673574",KOZHIKODE,KOZHIKODE,KERALA,2647236
54,KERALA GRAMIN BANK,KLGB0040156,CHELEMBRA,"CHELEMBRA P.O.CHELEMBRA MALAPPURAM DT,PIN-673634",MALAPPURAM,MALAPPURAM,KERALA,2891153
55,KERALA GRAMIN BANK,KLGB0040157,KOOTTAYI,"KOOTTAYI TIPPUSULTHANROAD,KODAPPARAMBA P.O,KOOTTAYI,MALAPPURAM DT,PIN-676562",MALAPPURAM,MALAPPURAM,KERALA,2631787
56,KERALA GRAMIN BANK,KLGB0040158,NETTIKULAM BAZAR,"NETTIKKULAMBAZAR P.O.UPPADA MALAPPURAM DT,PIN-679354",MALAPPURAM,MALAPPURAM,KERALA,243424
57,KERALA GRAMIN BANK,KLGB0040159,ABDURAHIMAN NAGAR,"ABDULRAHIMANNAGAR,P.O.ABDULRAHIMANNAGAR,MALAPPURAM DT,PIN-676305",MALAPPURAM,MALAPPURAM,KERALA,2490645
58,KERALA GRAMIN BANK,KLGB0040160,KARULAI,"KARULAI P.O.KARULAI MALPPURAM DT,PIN-679344",MALAPPURAM,MALAPPURAM,KERALA,270227
59,KERALA GRAMIN BANK,KLGB0040161,THIRUVANGOOR,"THIRUVANGOOR P.O.THIRUVANGOOR KOZHIKODE DT,PIN-673318",KOZHIKODE,KOZHIKODE,KERALA,2633898
60,KERALA GRAMIN BANK,KLGB0040162,ULLERY,"ULLIYERI P.O.ULLIYERI KOZHIKODE DT,PIN-673323",KOZHIKODE,KOZHIKODE,KERALA,2654286
61,KERALA GRAMIN BANK,KLGB0040163,MAMPAD,"MAMPAD K.P.S.COMPLEX,MAMPAD.P.O MALAPPURAM DT,PIN-676542",MALAPPURAM,MALAPPURAM,KERALA,200271
62,KERALA GRAMIN BANK,KLGB0040164,KAYAKODY,"KAYAKKODY VIA.KUTTIADY,P.O.KAYAKKODY KOZHIKODE DT,PIN-673508",KOZHIKODE,KOZHIKODE,KERALA,2587341
63,KERALA GRAMIN BANK,KLGB0040165,KODUR,"KODUR P.O.KODUR,THANIKKALMALAPPURAM DT,PIN-676504",MALAPPURAM,MALAPPURAM,KERALA,2868535
64,KERALA GRAMIN BANK,KLGB0040166,THAZHEKODE,"THAZHEKODE P.O.THAZHEKODE WEST,MALAPPURAM DT,PIN-679322",MALAPPURAM,MALAPPURAM,KERALA,251440
65,KERALA GRAMIN BANK,KLGB0040167,KADAMPUZHA,"KADAMPUZHA P.O.KADAMPUZHA MALAPPURAM DT,PIN-676553",MALAPPURAM,MALAPPURAM,KERALA,2615688
66,KERALA GRAMIN BANK,KLGB0040168,VANIYAMBALAM,"VANIYAMBALAM P.O.VANIYAMBALAM MALAPPURAM DT,PIN-679339",MALAPPURAM,MALAPPURAM,KERALA,236213
67,KERALA GRAMIN BANK,KLGB0040169,CHANGARAMKULAM,"CHANGARAMKULAM P.O.NANNAMUKKU MALAPPURAM DT,PIN-679575",MALAPPURAM,MALAPPURAM,KERALA,2654888
68,KERALA GRAMIN BANK,KLGB0040170,CHEERAL,"CHEERAL P.O.CHEERAL WYNAD DT,PIN-673595",WAYANAD,WAYANAD,KERALA,262234
69,KERALA GRAMIN BANK,KLGB0040171,ERANHIMANGAD,"ERANHIMANGAD P.O.ERANHIMANGAD MALAPPURAM DT,PIN-679343",MALAPPURAM,MALAPPURAM,KERALA,206472
70,KERALA GRAMIN BANK,KLGB0040172,KODIYATHUR,"KODIYATHUR P.O.KODIYATHUR,VIA.MUKKOM KOZHIKODE DT,PIN-673602",KOZHIKODE,KOZHIKODE,KERALA,2209388
71,KERALA GRAMIN BANK,KLGB0040173,CHALIKKARA,"CHALIKKARA VELLIYOORP.O.NOCHAD KOZHIKODE DT,PIN-673614",KOZHIKODE,KOZHIKODE,KERALA,2610369
72,KERALA GRAMIN BANK,KLGB0040174,EDARIKODE,"EDARIKODE P.O.EDARIKODE MALAPPURAM DT,PIN-676501",MALAPPURAM,MALAPPURAM,KERALA,2644719
73,KERALA GRAMIN BANK,KLGB0040175,PALLIKKAL BAZAR,"PALLIKKALBAZAR P.O.PALLIKKAL MALAPPURA DT,PIN-673653",MALAPPURAM,MALAPPURAM,KERALA,2790479
74,KERALA GRAMIN BANK,KLGB0040176,PUDUPPADY,"PUDUPPADY P.O.PUDUPPADY KOZHIKODE DT,PIN-673586",KOZHIKODE,KOZHIKODE,KERALA,2235282
75,KERALA GRAMIN BANK,KLGB0040177,MANKAVU,"MANKAVE P.O.MANKAVE KOZHIKODE DT,PIN-673007",KOZHIKODE,KOZHIKODE,KERALA,2331514
76,KERALA GRAMIN BANK,KLGB0040178,KAKKUR,"KAKKOOR P.O.KAKKOOR,KOZHIKODE DT,PIN-673613",KOZHIKODE,KOZHIKODE,KERALA,2260066
77,KERALA GRAMIN BANK,KLGB0040179,KALLOOR,"KALLOOR P.O.NOOLPUZHA,WYNAD DT,PIN-673592",WAYANAD,WAYANAD,KERALA,270760
78,KERALA GRAMIN BANK,KLGB0040180,KOODARANHI,"KOODARANHI P.O.KOODARANHI KOZHIKODE DT,PIN-673604",KOZHIKODE,KOZHIKODE,KERALA,2252087
79,KERALA GRAMIN BANK,KLGB0040181,TRIPPANACHI,"TRIPPANACHI P.O.TRIPPANACHI MALAPPURAM DT,PIN-673641",MALAPPURAM,MALAPPURAM,KERALA,2820950
80,KERALA GRAMIN BANK,KLGB0040182,ARIKKULAM,"ARIKKULAM,P.O.ARIKKULAM,KOZHIKODE DT,PIN-673620",KOZHIKODE,KOZHIKODE,KERALA,2695021
81,KERALA GRAMIN BANK,KLGB0040183,MARANCHATTY,"MARANCHATTY P.O.KOOMPARA KOZHIKODE DT,PIN-673604",KOZHIKODE,KOZHIKODE,KERALA,2277370
82,KERALA GRAMIN BANK,KLGB0040184,ANAKKAMPOYIL,"ANAKKAMPOYIL,ANAKKAMPOYIL.P.O.VIA.THIRUVAMBADY,KOZHIKODE DT,PIN-673603",KOZHIKODE,KOZHIKODE,KERALA,2276560
83,KERALA GRAMIN BANK,KLGB0040185,VELOM,"VELOM P.O.POOLAKKOOL,KOZHIKODE DT,PIN-673507",KOZHIKODE,KOZHIKODE,KERALA,2770165
84,KERALA GRAMIN BANK,KLGB0040186,TANALUR,"TANALUR P.O.TANALUR MALAPPURAM DT,PIN-676307",MALAPPURAM,MALAPPURAM,KERALA,2582060
85,KERALA GRAMIN BANK,KLGB0040187,NANDI BAZAR,"NANDIBAZAR P.O.KATALOOR KOZHIKODE DT,PIN-673531",KOZHIKODE,KOZHIKODE,KERALA,2691241
86,KERALA GRAMIN BANK,KLGB0040188,PANDIKKAD,"PANDIKKAD P.O.PANDIKKAD MALAPPURAM DT,PIN-676521",MALAPPURAM,MALAPPURAM,KERALA,2783246
87,KERALA GRAMIN BANK,KLGB0040189,KURUVATTUR,"KURUVATTUR P.O.KURUVATTUR KOZHIKODE DT,PIN-673611",KOZHIKODE,KOZHIKODE,KERALA,2810951
88,KERALA GRAMIN BANK,KLGB0040190,PADICHIRA,"PADICHIRA P.O.PADICHIRA,VIA.PULPALLY WYNAD DT,PIN-673579",WAYANAD,WAYANAD,KERALA,234330
89,KERALA GRAMIN BANK,KLGB0040191,CHERUCODE,"CHERUCODE P.O.CHATHANGOTTUPURAM MALAPPURAM DT,PIN-679328",MALAPPURAM,MALAPPURAM,KERALA,248336
90,KERALA GRAMIN BANK,KLGB0040192,THAVANUR,"THAVANNUR MARAVANCHERY,KADANCHERI.P.O.MALAPPURAM DT,PIN-679582",MALAPPURAM,MALAPPURAM,KERALA,2686350
91,KERALA GRAMIN BANK,KLGB0040193,ELANKUR,"ELANKUR P.O.MANHAPPATTA MALAPPURAM DT,PIN-676123",MALAPPURAM,MALAPPURAM,KERALA,2707736
92,KERALA GRAMIN BANK,KLGB0040194,KARAPARAMBA,"KARAPARAMBA BUTANARCADE,KARAPARAMBA.P.OKOZHIKODE DT,PIN-673010",KOZHIKODE,KOZHIKODE,KERALA,2374277
93,KERALA GRAMIN BANK,KLGB0040195,MANNUR,"MANNUR P.O.MANNUR,VIA.KADALUNDI KOZHIKODE DT,PIN-673328",KOZHIKODE,KOZHIKODE,KERALA,2470458
94,KERALA GRAMIN BANK,KLGB0040196,VENGAD,"VENGAD P.O.VENGAD MALAPPURAM DT,PIN-679338",MALAPPURAM,MALAPPURAM,KERALA,264340
95,KERALA GRAMIN BANK,KLGB0040197,KEEZHATTUR,"KEEZHATTUR AKKAPPARAMBA,CHOLAKKALBUILDING,P.O.POONTHAVANAM,VIA.PATTIKKAD,MALAPPURAM DT,PIN-679325",MALAPPURAM,MALAPPURAM,KERALA,270711
96,KERALA GRAMIN BANK,KLGB0040198,VENNIYUR,"VENNIYUR P.O.VENNIYUR MALAPPURAM DT,PIN-676508",MALAPPURAM,MALAPPURAM,KERALA,2480718
97,KERALA GRAMIN BANK,KLGB0040199,NILAMBUR,"NILMBUR P.O.NILAMBUR MALAPPURAM DT,PIN-679329",MALAPPURAM,MALAPPURAM,KERALA,221123
98,KERALA GRAMIN BANK,KLGB0040200,QUILANDY,"QUILANDY P.O.QUILANDY KOZHIKODE DT,PIN-673305",KOZHIKODE,KOZHIKODE,KERALA,2620445
99,KERALA GRAMIN BANK,KLGB0040201,NEDIYIRUPPU,"NEDIYIRUPPU COLONYROADJN.KONDOTTY.P.O MALAPPURAM DT,PIN-673638",MALAPPURAM,MALAPPURAM,KERALA,2710344
100,KERALA GRAMIN BANK,KLGB0040202,PUTHANATHANI,"PUTHANATHANI P.O.PUNNATHALA MALAPPURAM DT,PIN-676552",MALAPPURAM,MALAPPURAM,KERALA,2547175
101,KERALA GRAMIN BANK,KLGB0040203,PERAMBRA,"PERAMBRA T.B.ROAD,PERAMBRAP.O.KOZHIKODE DT,PIN-673525",KOZHIKODE,KOZHIKODE,KERALA,2610509
102,KERALA GRAMIN BANK,KLGB0040204,TUVVUR,"TUVVUR P.O.TUVVUR MALAPPURAM DT,PIN-679327",MALAPPURAM,MALAPPURAM,KERALA,284113
103,KERALA GRAMIN BANK,KLGB0040205,KALPETTA,"KALPETTA P.O.KALPETTA,VYPANASHOPPING COMPLEX,MAINROAD,WYNAD DT,PIN-673121",WAYANAD,WAYANAD,KERALA,202509
104,KERALA GRAMIN BANK,KLGB0040206,PURATHUR,"PURATHUR P.O.PURATHUR MALAPPURAM DT,PIN-676102",MALAPPURAM,MALAPPURAM,KERALA,2563432
105,KERALA GRAMIN BANK,KLGB0040207,THIRURKKAD,"TIRURKKAD P.O.TIRURKKAD,VIA.ANGADIPPURAM MALAPPURAM DT,PIN-679321",MALAPPURAM,MALAPPURAM,KERALA,239307
106,KERALA GRAMIN BANK,KLGB0040208,MANJERI,"MANJERI C.K.M.COMPLEX,PO.MANJERI COLLEGE MALAPPURAM DT,PIN-676122",MALAPPURAM,MALAPPURAM,KERALA,2763388
107,KERALA GRAMIN BANK,KLGB0040209,PAYYOLI BAZAR,"PAYYOLIBAZAR P.O.PAYYOLIANGADI KOZHIKODE DT,PIN-673523",KOZHIKODE,KOZHIKODE,KERALA,2470114
108,KERALA GRAMIN BANK,KLGB0040210,VILANGAD,"VILANGAD P.O.VILANGAD,VIAKALLACHI KOZHIKODE DT,PIN-673506",KOZHIKODE,KOZHIKODE,KERALA,2467624
109,KERALA GRAMIN BANK,KLGB0040211,VAKERY,"VAKERY P.O.VAKERY WYNAD DT,PIN-673592",WAYANAD,WAYANAD,KERALA,229018
110,KERALA GRAMIN BANK,KLGB0040212,EDACHERY,"EDACHERY P.O.EDACHERY KOZHIKODE DT,PIN-673502",KOZHIKODE,KOZHIKODE,KERALA,2547333
111,KERALA GRAMIN BANK,KLGB0040213,PERINTHALMANNA,"PERINTHALMANNA NEAR MOULANA HOSPITAL,OOTTY ROADP.O.PERINTHALMANNA,MALAPPURAM DT,PIN-679322",MALAPPURAM,MALAPPURAM,KERALA,227535
112,KERALA GRAMIN BANK,KLGB0040214,CHAMAL,"CHAMAL P.O.CHAMAL KOZHIKODE DT,PIN-673573",KOZHIKODE,KOZHIKODE,KERALA,2270106
113,KERALA GRAMIN BANK,KLGB0040215,KAKKATTIL,"KAKKATTIL P.O.KAKKATTIL KOZHIKODE DT,PIN-673507",KOZHIKODE,KOZHIKODE,KERALA,2445109
114,KERALA GRAMIN BANK,KLGB0040216,CHELARI,"CHELARI P.O.VELIMUKKU MALAPPURAM DT,PIN-676317",MALAPPURAM,MALAPPURAM,KERALA,240084
115,KERALA GRAMIN BANK,KLGB0040217,THIRUVALI,"THIRUVALI P.O.THIRUVALI MALAPPURAM DT,PIN-679348",MALAPPURAM,MALAPPURAM,KERALA,2721177
116,KERALA GRAMIN BANK,KLGB0040218,ELAMKULAM,"ELAMKULAM P.O.KUNNAKKAVU,VIA.CHERUKARA MALAPPURAM DT,PIN-679340",MALAPPURAM,MALAPPURAM,KERALA,230230
117,KERALA GRAMIN BANK,KLGB0040219,KOLATHUR,"KOLATHUR P.O.KOLATHUR MALAPPURAM DT,PIN-679338",MALAPPURAM,MALAPPURAM,KERALA,203264
118,KERALA GRAMIN BANK,KLGB0040220,PARAPPANANGADI,"PARAPPANANGADI CPARCADE,TANURROADP.O.PARAPPANANGADI MALAPPURAM DT,PIN-676303",MALAPPURAM,MALAPPURAM,KERALA,2410316
119,KERALA GRAMIN BANK,KLGB0040221,POOKAD,"POOKKAD AISWARYABUILDING,CHEMANCHERY.P.O KOZHIKODE DT,PIN-673304",KOZHIKODE,KOZHIKODE,KERALA,2687163
120,KERALA GRAMIN BANK,KLGB0040222,MOODADI,"MOODADI P.O.MOODADINORTH KOZHIKODE DT,PIN-673325",KOZHIKODE,KOZHIKODE,KERALA,2690122
121,KERALA GRAMIN BANK,KLGB0040223,KEEZHARIYOOR,"KEEZHARIYOOR VIA.QUILANDY,P.O.KEEZHARIYOOR KOZHIKODE DT,PIN-673324",KOZHIKODE,KOZHIKODE,KERALA,2676841
122,KERALA GRAMIN BANK,KLGB0040224,PURAKKATTIRI,"PURAKKATTIRI PARAMBATH,THALAKKULATHUR.P.O.KOZHIKODE DT,PIN-673317",KOZHIKODE,KOZHIKODE,KERALA,2852263
123,KERALA GRAMIN BANK,KLGB0040225,VATTAMKULAM,"VATTAMKULAM P.O.VATTAMKULAM MALAPPURAM DT,PIN-679578",MALAPPURAM,MALAPPURAM,KERALA,2680941
124,KERALA GRAMIN BANK,KLGB0040226,THALAYAD,"THALAYAD P.O.THALAYAD KOZHIKODE DT,PIN-673574",KOZHIKODE,KOZHIKODE,KERALA,2270263
125,KERALA GRAMIN BANK,KLGB0040227,VANIMEL,"VANIMEL P.O.KODIYURA,VIA.KALLACHI KOZHIKODE DT,PIN-673515",KOZHIKODE,KOZHIKODE,KERALA,2560355
126,KERALA GRAMIN BANK,KLGB0040228,AREACODE,"AREACODE,MAINROAD,AREACODE.P.O MALAPPURAM DT,PIN-673639",MALAPPURAM,MALAPPURAM,KERALA,2850616
127,KERALA GRAMIN BANK,KLGB0040229,POZHUTHANA,"POZHUTHANA P.O.POZHUTHANA WYNAD DT,PIN-673575",WAYANAD,WAYANAD,KERALA,255380
128,KERALA GRAMIN BANK,KLGB0040230,NADAVAYAL,"NADAVAYAL P.O.NADAVAYAL,VIA.PANAMARAM WYNAD DT,PIN-670721",WAYANAD,WAYANAD,KERALA,211145
129,KERALA GRAMIN BANK,KLGB0040231,VADUVANCHAL,"VADUVANCHAL P.O.VADUVANCHAL WYNAD DT,PIN-673581",WAYANAD,WAYANAD,KERALA,217454
130,KERALA GRAMIN BANK,KLGB0040232,NARIPPATTA,"NARIPPATTA P.O.CHEEKKONNUWEST,VIA.KAKKATTIL KOZHIKODE DT,PIN-673507",KOZHIKODE,KOZHIKODE,KERALA,2445711
131,KERALA GRAMIN BANK,KLGB0040233,KUTTIPPURAM,"KUTTIPURAM ARAFACOMPLEX,P.O.KUTTIPPURAM MALAPPURAM DT,PIN-679571",MALAPPURAM,MALAPPURAM,KERALA,2608465
132,KERALA GRAMIN BANK,KLGB0040234,OMASSERI,"OMASSERY P.O.OMASSERY,VIA.KODUVALLY KOZHIKODE DT,PIN-673572",KOZHIKODE,KOZHIKODE,KERALA,2811310
133,KERALA GRAMIN BANK,KLGB0040235,CHENGOTTUKAVU,"CHENGOTTUKAVU P.O.EDAKKULAM KOZHIKODE DT,PIN-673306",KOZHIKODE,KOZHIKODE,KERALA,2630108
134,KERALA GRAMIN BANK,KLGB0040236,SULTHAN BATHERY,"SULTHANBATHERY VANITHAGOLDENTOWERP.O.SULTHAN BATHERY WYNAD DT,PIN-673592",WAYANAD,WAYANAD,KERALA,220482
135,KERALA GRAMIN BANK,KLGB0040237,KUNINGAD,"KUNINGAD P.O.KUNINGAD KOHIKODE DT,PIN-673503",KOZHIKODE,KOZHIKODE,KERALA,2551350
136,KERALA GRAMIN BANK,KLGB0040238,CHOKKAD,"CHOKKAD P.O.CHOKKAD MALAPPURAM DT,PIN-679355",MALAPPURAM,MALAPPURAM,KERALA,260383
137,KERALA GRAMIN BANK,KLGB0040239,ONCHIYAM,"ONCHIYAM P.O.ORKKATTERI,VIA.VADAKARA KOZHIKODE DT,PIN-673501",KOZHIKODE,KOZHIKODE,KERALA,2521017
138,KERALA GRAMIN BANK,KLGB0040241,MUCHUKUNNU,"MUCHUKUNNU P.O.MUCHUKUNNU,VIA.QUILANDY KOZHIKODE DT,PIN-673307",KOZHIKODE,KOZHIKODE,KERALA,2690771
139,KERALA GRAMIN BANK,KLGB0040242,BALUSSERY,"BALUSSERY SREEDHAR ARCADE,BALUSSERY.P.O,KOZHIKODE DT,PIN-673612",KOZHIKODE,KOZHIKODE,KERALA,2640090
140,KERALA GRAMIN BANK,KLGB0040243,CHAKKITTAPARA,"CHAKKITTAPARA P.O.CHAKKITTAPARA KOZHIKODE DT,PIN-673526",KOZHIKODE,KOZHIKODE,KERALA,2662341
141,KERALA GRAMIN BANK,KLGB0040244,VALIYAKUNNU,"VALIYAKUNNU P.O.VALIYAKUNNU EAST MALAPPURAM DT,PIN-676552",MALAPPURAM,MALAPPURAM,KERALA,2620003
142,KERALA GRAMIN BANK,KLGB0040245,PUZHAKKATTIRI,"PUZHAKKATTIRI VIA.ANGADIPPURAM.PUZHAKKATTIRI.P.O.MALAPPURAM DT,PIN-679321",MALAPPURAM,MALAPPURAM,KERALA,254360
143,KERALA GRAMIN BANK,KLGB0040246,IRULAM,"IRULAM P.O.MANALVAYAL,VIA.PULPALLY,WYNAD DT,PIN-673579",WAYANAD,WAYANAD,KERALA,238951
144,KERALA GRAMIN BANK,KLGB0040247,VALIYORA,"VALIYORA P.O.VALIYORA MALAPPURAM DT,PIN-676308",MALAPPURAM,MALAPPURAM,KERALA,2452314
145,KERALA GRAMIN BANK,KLGB0040248,ACHANAMBALAM,"ACHANAMBALAM,P.O.KANNAMANGALAM,MALAPPURAM DT,PIN-676318",MALAPPURAM,MALAPPURAM,KERALA,2490772
146,KERALA GRAMIN BANK,KLGB0040249,VADAKARA,"VATAKARA HIGHWAY TRADE CENTRE,NH BYE-PASS ROAD,VATAKARA.P.O,KOZHIKODE DT,PIN-673101",KOZHIKODE,KOZHIKODE,KERALA,2526622
147,KERALA GRAMIN BANK,KLGB0040250,KALLACHI,"KALLACHI CITYTOWER,COURTROAD,KALLACHI.P.O.KOZHIKODE DT,PIN-673506",KOZHIKODE,KOZHIKODE,KERALA,2552920
148,KERALA GRAMIN BANK,KLGB0040251,KUTTIADY,"KUTTIADY SWADESHIBUILDING,WYNADROAD,P.O.KUTTIADY KOZHIKODE DT,PIN-673508",KOZHIKODE,KOZHIKODE,KERALA,2596571
149,KERALA GRAMIN BANK,KLGB0040252,KONDOTTY,"KONDOTTY P.O.KONDOTTY MALAPPURAM DT,PIN-673638",MALAPPURAM,MALAPPURAM,KERALA,2715474
150,KERALA GRAMIN BANK,KLGB0040253,TIRUR,"TIRUR TOWNHALLRAOD.TIRUR.P.O MALAPPURAM DT,PIN-676101",MALAPPURAM,MALAPPURAM,KERALA,2421141
151,KERALA GRAMIN BANK,KLGB0040254,VALANCHERY,"VALANCHERY P.O.VALANCHERY MALAPPURAM DT,PIN-676552",MALAPPURAM,MALAPPURAM,KERALA,2642442
152,KERALA GRAMIN BANK,KLGB0040255,KOTTAKKAL,"KOTTAKKAL SMART TRADE CITY,1ST FLOOR,NEAR BUS STAND P.O,KOTTAKKAL,MALAPPURAM DT,PIN-676503",MALAPPURAM,MALAPPURAM,KERALA,2745037
153,KERALA GRAMIN BANK,KLGB0040256,MAVOOR ROAD,"MAVOORROAD INDIRA GANDHI ROAD P.O,HEAD POST OFFICE,KOZHIKODE DT,PIN-673001",KOZHIKODE,KOZHIKODE,KERALA,2727909
154,KERALA GRAMIN BANK,KLGB0040257,MALAPARAMBA,"MALAPARAMBA SOUPARNIKA COMPLEX,FLORICANHILL ROAD,P.O.MALAPPARAMABA KOZHIKODE DT,PIN-673009",KOZHIKODE,KOZHIKODE,KERALA,2374677
155,KERALA GRAMIN BANK,KLGB0040258,MEDICAL COLLEGE,"MEDICALCOLLEGE KOVOOR,CHEVAYOOR.P.O.KOZHIKODE DT,PIN-673017",KOZHIKODE,KOZHIKODE,KERALA,2353365
156,KERALA GRAMIN BANK,KLGB0040259,NADAKKAVU,"NADAKKAVU JASLUCENTRE,WESTHILL.P.O KOZHIKODE DT,PIN-673005",KOZHIKODE,KOZHIKODE,KERALA,2383300
157,KERALA GRAMIN BANK,KLGB0040260,KALLAI,"KALLAI PARCOCOMPLEX,KANDAMKULAMCROSSROADP.O.CHALAPPURAM,KOZHIKODE-PIN-673002",KOZHIKODE,KOZHIKODE,KERALA,2702020
158,KERALA GRAMIN BANK,KLGB0040261,THRISSUR,"THRISSURMAIN SREEKRISHNANTOWERS,NADUVILALMGROAD,THRISSUR DT,PIN-680001",THRISSUR,THRISSUR,KERALA,2334053
159,KERALA GRAMIN BANK,KLGB0040262,IRINJALAKUDA,"IRINJALAKUDA BUSSTANDSHOPPING COMPLEX,P.O.IRINJALAKKUDA,THRISSUR DT PIN-.680121",THRISSUR,THRISSUR,KERALA,2820603
160,KERALA GRAMIN BANK,KLGB0040263,PALAKKAD MAIN,"PALAKKAD MAINSUNSHINESHOPPING COMPLEX,T.B.ROAD,PALAKKADP.O,PALAKKAD DT,PIN-678014",PALAKKAD,PALAKKAD,KERALA,2535811
161,KERALA GRAMIN BANK,KLGB0040264,KODUNGALLUR,"KODUNGALLUR KUNNILATH SHOPPING COMPLEX,NORTH NADAP.O,KODUNGALLUR,THRISSUR DT,PIN-680664",THRISSUR,THRISSUR,KERALA,2810460
162,KERALA GRAMIN BANK,KLGB0040265,CHALAKKUDY,"CHALAKKUDY KSRTCROAD,K.K.TOWERS,PO.CHALAKKUDY THRISSUR DT,PIN-680307",THRISSUR,THRISSUR,KERALA,2709594
163,KERALA GRAMIN BANK,KLGB0040266,PUTHUR PALAKKAD,"PUTHUR PALAKKA DTHRIVENIBUILDING,PALAKKAD.P.O.PALAKKAD DT,PIN-678001",PALAKKAD,PALAKKAD,KERALA,2547482
164,KERALA GRAMIN BANK,KLGB0040267,MANNARKKAD,"MANNARKKAD KAUNDATHCITYCENTRE,PALLIPPADYP.O.MANNARKKAD PALAKKAD DT,PIN-678582",PALAKKAD,PALAKKAD,KERALA,224178
165,KERALA GRAMIN BANK,KLGB0040268,OTTAPPALAM,"OTTAPPALAM KVMPLAZA,MAIN ROAD OTTAPPALAM P.O . PALAKKAD DT,PIN-679101",PALAKKAD,PALAKKAD,KERALA,2247647
166,KERALA GRAMIN BANK,KLGB0040269,THAMARASSERY,"THAMARASSERY K.C.TOWERS,THAMARASSERY.P.O KOZHIKODE DT,PIN-673573",KOZHIKODE,KOZHIKODE,KERALA,2225340
167,KERALA GRAMIN BANK,KLGB0040270,MEENANGADI,"MEENANGADI NEERAMPUZHA SHOPPING COMPLEXP.O.MEENANGADI WYNAD DT,PIN-673592",WAYANAD,WAYANAD,KERALA,248310
168,KERALA GRAMIN BANK,KLGB0040271,KUNNAMKULAM,"KUNNAMKULAM MODERN TOWERS,WADAKKENCHERY ROADP.O. KUNNAMKULAM.THRISSUR DT,PIN-680503",THRISSUR,THRISSUR,KERALA,228654
169,KERALA GRAMIN BANK,KLGB0040272,PATTAMBI,"PATTAMBI SREEVILASBUILDING,P.O.MELEPATTAMBI PALAKKAD DT,PIN-679306",PALAKKAD,PALAKKAD,KERALA,2214613
170,KERALA GRAMIN BANK,KLGB0040273,THRISSUR EAST FORT,"THRISSUR-EASTFORT SUNTOWERS,EAST FORT.P.O.THRISSUR DT,PIN-680005",THRISSUR,THRISSUR,KERALA,2443365
171,KERALA GRAMIN BANK,KLGB0040274,RAMANATTUKARA,"RAMANATTUKARA RAHMATHBUILDING,RAMANATTUKARA.P.O KOZHIKODE DT,PIN-673633",KOZHIKODE,KOZHIKODE,KERALA,2442285
172,KERALA GRAMIN BANK,KLGB0040275,CHEMMAD,"CHEMMAD CITY TOWER BUILDING,THIRURANGADI.PO MALAPPURAM DT,PIN-676306",MALAPPURAM,MALAPPURAM,KERALA,2464550
173,KERALA GRAMIN BANK,KLGB0040276,VADAKKENCHERY,"VADAKKANCHERY(PALAKKAD ) SHA TOWERS,VADAKKANCHERY.P.O.PALAKKAD DT,PIN-678683",PALAKKAD,PALAKKAD,KERALA,256575
174,KERALA GRAMIN BANK,KLGB0040277,OLARIKKARA,"OLARIKKARA EASYTOWER,KANJANI ROAD,P.O.PULLAZHI,OLARIKKARA,THRISSUR DT,PIN-680012",THRISSUR,THRISSUR,KERALA,2360456
175,KERALA GRAMIN BANK,KLGB0040278,CHELAKKARA,"CHELAKKARA MUSCATSHOPPIN-GCOMPLEX,PO.CHELAKKARA THRISSUR DT,PIN-680586",THRISSUR,THRISSUR,KERALA,250373
176,KERALA GRAMIN BANK,KLGB0040279,CHERPULASSERY,"CHERPULASSERY PATTAMBIROAD,CHERPULASSERY.P.O.PALAKKAD DT,PIN-679503",PALAKKAD,PALAKKAD,KERALA,2281932
177,KERALA GRAMIN BANK,KLGB0040280,KOOTTANAD,"KOOTTANAD ISTFLOOR,RAMACHANDRA BUILDINGP.O.KOOTTANAD,PALAKKAD DT,PIN-679533",PALAKKAD,PALAKKAD,KERALA,2370634
178,KERALA GRAMIN BANK,KLGB0040281,VADANAPPILLY,"VADANAPPILLY OMANSHOPPING COMPLEX,P.O.VADANAPPILLY.THRISSUR DT,PIN-680614",THRISSUR,THRISSUR,KERALA,2605857
179,KERALA GRAMIN BANK,KLGB0040282,THRIPRAYAR,"THRIPRAYAR NIDHUNSHOPPING COMPLEX,NATTIKA.P.OTHRISSUR DT,PIN-680566",THRISSUR,THRISSUR,KERALA,2397006
180,KERALA GRAMIN BANK,KLGB0040283,KORATTY,"KORATTY A.V.M.COMPLEX,CHIRANGARA,PO.KORATTYSOUTH,THRISSUR DT,PIN-680308",THRISSUR,THRISSUR,KERALA,2731116
181,KERALA GRAMIN BANK,KLGB0040284,SHORNUR,"SHORNUR THADATHIL BUILDING,MAIN ROAD P.O.SHORNUR PALAKKAD DT,679121",PALAKKAD,PALAKKAD,KERALA,2224884
182,KERALA GRAMIN BANK,KLGB0040285,CHUNGATHARA,"CHUNGATHARA P.O.CHUNGATHARA MALAPPURAM DT,PIN-679334",MALAPPURAM,MALAPPURAM,KERALA,231760
183,KERALA GRAMIN BANK,KLGB0040286,WADKKANCHERY TSR,"WADAKKANCHERY(THRISSUR),TAZ COMPLEX,OTTUPARA P.O,WADAKKANCHERY,THRISSUR DT,PIN-680582",THRISSUR,THRISSUR,KERALA,231918
184,KERALA GRAMIN BANK,KLGB0040287,EDAPPAL,"EDAPPAL AMANAMALL,THRISSUR ROAD,P.O.EDAPPAL MALAPPURAM DT,PIN-679576",MALAPPURAM,MALAPPURAM,KERALA,2684303
185,KERALA GRAMIN BANK,KLGB0040288,KAIPAMANGALAM,"KAIPAMANGALAM ALJADIRBUILDING,MOONNUPEEDIKABEACH ROAD,KAIPAMANGALAM.P.O.THRISSUR DT,PIN-680681",THRISSUR,THRISSUR,KERALA,2841212
186,KERALA GRAMIN BANK,KLGB0040289,MALA,"MALA ANUGRAHAMCOMPLEX,MALA.P.O THIRSSUR DT,PIN-680732",THRISSUR,THRISSUR,KERALA,2894362
187,KERALA GRAMIN BANK,KLGB0040290,PATTIKKAD,"PATTIKKAD MUTHUVANCHIRA TOWERS,NH ROAD P.O.PATTIKKAD THRISSUR DT,PIN-680652",THRISSUR,THRISSUR,KERALA,2283526
188,KERALA GRAMIN BANK,KLGB0040291,KUNNAMANGALAM,"KUNNAMANGALAM NEAR NEW BUS STAND,MM SHOPPING COMPLEX,OPP.KUNNAMANGALAM U.P.SCHOOL,P.O.KUNNAMANGALAM,KOZHIKODE DT PIN-673571",KOZHIKODE,KOZHIKODE,KERALA,2802090
189,KERALA GRAMIN BANK,KLGB0040292,AMBALLUR,"AMBALLUR,SREEKRISHNABUILDING,AMBALLURJUNCTION,PUDUKKAD.P.O,THRISSUR DT,PIN-680301",THRISSUR,THRISSUR,KERALA,2755002
190,KERALA GRAMIN BANK,KLGB0040293,ALUR,"ALUR,KAINADATHUPARAMBILBUILDING,ALURJUNCTION,ALUR.P.O,THRISSUR DT,PIN-680683",THRISSUR,THRISSUR,KERALA,2724090
191,KERALA GRAMIN BANK,KLGB0040294,KOYALMANNAM,"COYALMANNAM N.R.COMPLEX,CHANDAPPURA P.O.COYALMANNAM PALAKKAD DT,PIN-678702",PALAKKAD,PALAKKAD,KERALA,273932
192,KERALA GRAMIN BANK,KLGB0040295,KODUVAYUR,"KODUVAYUR SIVASAKTHI COMPLEX,KOTTAPPADI P.O.KODUVAYOOR PALAKKAD DT,PIN-678501",PALAKKAD,PALAKKAD,KERALA,252645
193,KERALA GRAMIN BANK,KLGB0040296,VADAKKEKAD,"VADAKKEKKAD MAS SHOPPING COMPLEX,PONNANIROAD.P.O.VADAKKEKKAD,THRISSUR DT,PIN-679562",THRISSUR,THRISSUR,KERALA,2541093
194,KERALA GRAMIN BANK,KLGB0040297,PATHIRIPALA,"PATHIRIPPALA NARIKOT BUILDING,NAGARIPURAM.P.O PALAKKAD DT,PIN-678642",PALAKKAD,PALAKKAD,KERALA,2874392
195,KERALA GRAMIN BANK,KLGB0040298,THATHAMANGALAM,"THATHAMANGALAM SAFNA COMPLEX,CHENTHAMARA NAGAR,PALLIMUKKU,THATHMANGALAM.P.O,PALAKKAD DT,PIN-678102",PALAKKAD,PALAKKAD,KERALA,228105
196,KERALA GRAMIN BANK,KLGB0040299,MAKKARAPARAMBA,"MAKKARAPPARAMBA PERINCHEERIBUILDING,MAINROADP.O.MAKKARAPPARAMABA MALAPPURAM DT,PIN-676507",MALAPPURAM,MALAPPURAM,KERALA,281992
197,KERALA GRAMIN BANK,KLGB0040300,KALLADIKODE,"KALLADIKODE BHADRABUILDINIGS,MAIN ROAD,PO.KALLADIKODE PALAKKAD- DT,PIN-678596",PALAKKAD,PALAKKAD,KERALA,247066
198,KERALA GRAMIN BANK,KLGB0040301,CHOONDAL,"CHOONDAL CHITTILAPPILLY SHOPPING COMPLEX,P.O.CHOONDAL,THRISSUR DT,PIN-680502",THRISSUR,THRISSUR,KERALA,221815
199,KERALA GRAMIN BANK,KLGB0040302,PERUMPILLISSERY,"PERUMPILLISSERY P.O.CHERPU THRISSUR DT,PIN-680561",THRISSUR,THRISSUR,KERALA,2342874
200,KERALA GRAMIN BANK,KLGB0040303,KURIACHIRA,"KURIACHIRA K.P.KCENTRE P.O.KURIACHIRA.THRISSUR DT,PIN-680006",THRISSUR,THRISSUR,KERALA,2254126
201,KERALA GRAMIN BANK,KLGB0040304,GURUVAYUR,"GURUVAYOOR CITY PLAZA,WEST NADA,GURUVAYOOR.P.O.THRISSUR DT PIN-.680101",THRISSUR,THRISSUR,KERALA,2553857
202,KERALA GRAMIN BANK,KLGB0040305,THIRUVALLA,"THIRUVALLA PULIMUTTATHU BUILDING,RAMANCHIRA P.O.MUTHUR. PATHANAMTHITTA DT,PIN-689107",PATHANAMTHITTA,PATHANAMTHITTA,KERALA,2602485
203,KERALA GRAMIN BANK,KLGB0040306,PAZHAVANGADI RANNI,"RANNI(PAZHAVANGADI ) P.O.PAZHAVANGADI,RANNI PATHANAMTHITTA DT,PIN-689673",PATHANAMTHITTA,PATHANAMTHITTA,KERALA,229450
204,KERALA GRAMIN BANK,KLGB0040307,PATHANAMTHITTA,"PATHANAMTHITTA SHAJITOWERS,OPP.KSRTC BUS STAND P.O.PATHANAMTHITTA PATHANAMTHITTA DT,PIN-689645",PATHANAMTHITTA,PATHANAMTHITTA,KERALA,2322575
205,KERALA GRAMIN BANK,KLGB0040308,KONNI,"KONNI CHINAJUNCTION,MAINROAD,KONNI.P.O PATHANAMTHITTA DT,PIN-689691",PATHANAMTHITTA,PATHANAMTHITTA,KERALA,2340740
206,KERALA GRAMIN BANK,KLGB0040309,KOYIPURAM PULLAD,"KOIPPURAM(PULLAD ) PAZHAMPALLIL BUILDING,PULLAD.P.O PATHANAMTHITTA DT,PIN-689548",PATHANAMTHITTA,PATHANAMTHITTA,KERALA,2661533
207,KERALA GRAMIN BANK,KLGB0040310,ENATHU,"ENATHU KUNJUMONBUILDING,MANNADY ROAD,P.O.ENATHU,PATHANAMTHITTA DT,PIN-671526",PATHANAMTHITTA,PATHANAMTHITTA,KERALA,211246
208,KERALA GRAMIN BANK,KLGB0040311,KALANJOOR,"KALANJOOR P.O.KALNJOOR PATHANAMTHITTA DT,PIN-689694",PATHANAMTHITTA,PATHANAMTHITTA,KERALA,272336
209,KERALA GRAMIN BANK,KLGB0040312,AYIROOR,"AYIROOR,NSS PRADESHIKA UNION BUILDING,P.O.AYROORSOUTH,CHERUKOLPUZHA PATHANAMTHITTA DT,PIN-689611",PATHANAMTHITTA,PATHANAMTHITTA,KERALA,230190
210,KERALA GRAMIN BANK,KLGB0040313,VADASSERIKKARA,"VADASSERIKKARA THAZHATHILLATHUBUILDING,CHITTARROADP.O.VADASSERIKKARA PATHANAMTHITTA DT,PIN-689662",PATHANAMTHITTA,PATHANAMTHITTA,KERALA,252330
211,KERALA GRAMIN BANK,KLGB0040314,KADAMBANAD,"KADAMBANAD MALANKARA CATHOLIC CHURCH SHOPPING COMPLEX,KADAMBANAD SOUTH.P.O.PATHANAMTHITTA DT,PIN-691553",PATHANAMTHITTA,PATHANAMTHITTA,KERALA,281900
212,KERALA GRAMIN BANK,KLGB0040315,CHANDANAPALLY,"CHANDANAPPALLY P.O.CHANDANAPPALLY PATHANAMTHITTA DT,PIN-689648",PATHANAMTHITTA,PATHANAMTHITTA,KERALA,2255990
213,KERALA GRAMIN BANK,KLGB0040316,PANDALAM,"PANDALAM RUBBER MARKETING SOCIETY BUILDINGMC ROAD,PANDALAM.P.O. PATHANAMTHITTA DT,689501",PATHANAMTHITTA,PATHANAMTHITTA,KERALA,256440
214,KERALA GRAMIN BANK,KLGB0040317,KUNNAMTHANAM,"KUNNAMTHANAM MULLAPPALLY BUILDING,P.O.KUNNAMTHANAM. PATHANAMTHITTA DT,PIN-689581",PATHANAMTHITTA,PATHANAMTHITTA,KERALA,2690400
215,KERALA GRAMIN BANK,KLGB0040318,CHITTAR,"CHITTAR,MEMANABUILDING,CHITTAR.P.OPATHANAMTHITTA DT,PIN-689663",PATHANAMTHITTA,PATHANAMTHITTA,KERALA,256800
216,KERALA GRAMIN BANK,KLGB0040319,VALLAMKULAM,"VALLAMKULAM OORAYIL BUILDING,VENNIKULAM P.O.VALLAMKULAM PATHANAMTHITTA DT,PIN-689514",PATHANAMTHITTA,PATHANAMTHITTA,KERALA,2609599
217,KERALA GRAMIN BANK,KLGB0040320,KANJANI,"KANHANI ANTHIKKAD ROAD,P.O.KANHANI.THRISSUR DT,PIN-682612",THRISSUR,THRISSUR,KERALA,2631666
218,KERALA GRAMIN BANK,KLGB0040321,KUTTANELLUR,"KUTTANALLURT HAIVALAPPILBUILDING,THOTTAPPADY,P.O.KUTTANALLUR THRISSUR DT,PIN-680014",THRISSUR,THRISSUR,KERALA,2354050
219,KERALA GRAMIN BANK,KLGB0040322,MANACAUD,"MANACAUD NEHMATHPLAZA,P.O.MANACAUD TRIVANDRUM DT,PIN-695009",TRIVANDRUM,TRIVANDRUM,KERALA,2465699
220,KERALA GRAMIN BANK,KLGB0040323,PEROORKADA,"PEROORKKADA SANGEETH P.O.PEROORKKADA TRIVANDRUM DT,PIN-695005",TRIVANDRUM,TRIVANDRUM,KERALA,2437322
221,KERALA GRAMIN BANK,KLGB0040324,ATTINGAL,"ATTINGAL SHINECOMPLEX,NEARKSRTCSTAND,THIRUVANANTHAPURAN DT,PIN-695101",TRIVANDRUM,TRIVANDRUM,KERALA,2623930
222,KERALA GRAMIN BANK,KLGB0040325,BALARAMAPURAM,"BALARAMAPURAM SREEKRISHNA COMPLEXMAIN ROAD,BALARAMAPURAM.P.O.TRIVANDRUM DT,PIN-695501",TRIVANDRUM,TRIVANDRUM,KERALA,2399155
223,KERALA GRAMIN BANK,KLGB0040326,NEDUMANGAD,"NEDUMANGAD P.O.PAZHAKUTTY.NEDUMANGA D TRIVANDRUM DT,PIN-695561",TRIVANDRUM,TRIVANDRUM,KERALA,2804646
224,KERALA GRAMIN BANK,KLGB0040328,THODUPUZHA,"THODUPUZHA KALARIKKAL BUILDING,NEAR PRIVATEBUS STAND,P.O.THODUPUZHA IDUKKI DT,PIN-685584",IDUKKI,IDUKKI,KERALA,2224050
225,KERALA GRAMIN BANK,KLGB0040329,THIRUVAMBADY,"THIRUVAMBADY RAFI COMPLEX,THIRUVAMBADI.P.OIST FLOOR,KOZHIKODE DT,PIN-673603",KOZHIKODE,KOZHIKODE,KERALA,2255725
226,KERALA GRAMIN BANK,KLGB0040330,SERVICE BRANCH KOZHIKODE,"LAKSHMI BUILDING,KANNUR ROAD,KOZHIKODE DISTRICT -6731001",KOZHIKODE,KOZHIKODE,KERALA,2768003
227,KERALA GRAMIN BANK,KLGB0040331,KARIMKUNNAM,"KARIMKUNNAM MUGALELBUILDING,P.O.KARIMKUNNAM IDUKKI DT,PIN-685586",IDUKKI,IDUKKI,KERALA,243888
228,KERALA GRAMIN BANK,KLGB0040332,PONNANI SOUTH,"PONNANISOUTH NEARPONNANIMUNCIPALOFFICEP.O.PONNANI SOUTH MALAPPURAM DT,PIN-679586",MALAPPURAM,MALAPPURAM,KERALA,2667512
229,KERALA GRAMIN BANK,KLGB0040333,MUTTOM,"MUTTOM P.O.MUTTOMIDUKKI DT,PIN-685587",IDUKKI,IDUKKI,KERALA,255888
230,KERALA GRAMIN BANK,KLGB0040334,SREEKARIYAM,"SREEKARYAM SREEVIJAYAM COMPLEX,PONGUMOODU,P.O.MEDICALCOLLEGE,TRIVANDRUM DT,PIN-695011",TRIVANDRUM,TRIVANDRUM,KERALA,2558767
231,KERALA GRAMIN BANK,KLGB0040335,SERVICE BRANCH THRISSUR,"SUN TOWER,EAST FORT PO,THRISSUR -680005",THRISSUR,THRISSUR,KERALA,2427750
232,KERALA GRAMIN BANK,KLGB0040336,ADOOR,"ADOOR,NADACKAVILGALAXY,OPP.GOVT.HOSPITAL,ADOOR.P.O,PATHANAMTHITTA DT,PIN-691523",PATHANAMTHITTA,PATHANAMTHITTA,KERALA,223393
233,KERALA GRAMIN BANK,KLGB0040337,KATTAKADA,"KATTAKADA WILLSBUILDING,COLLEGEROADP.O.KATTAKADA TRIVANDRUM DT,PIN-695572",TRIVANDRUM,TRIVANDRUM,KERALA,2294080
234,KERALA GRAMIN BANK,KLGB0040338,VENJARAMOODU,"VENJARAMOOD S.N.COMPLEX,ATTINGALROAD,P.O.VENJARAMOODU,TRIVANDRUM DT,PIN-695607",TRIVANDRUM,TRIVANDRUM,KERALA,2875455
235,KERALA GRAMIN BANK,KLGB0040339,KARIMANNUR,"KARIMANNUR PARAYANILAMSHOPPIN-GCOMPLEXP.O.KARIMANNUR IDUKKI DT,PIN-685581",IDUKKI,IDUKKI,KERALA,262020
236,KERALA GRAMIN BANK,KLGB0040340,PALODE BRANCH,"PALODE ABHI PLAZA,KARIMANKODE POST THIRUVANANDAPURAM PIN 695562",TRIVANDRUM,TRIVANDRUM,KERALA,2840184
237,KERALA GRAMIN BANK,KLGB0040341,PANAVILA BRANCH,"PANAVILA TC 26/859(14),FIRST FLOOR,TWINKLE PLAZA,PANAVILA JUNCTION P.O,THYCAUD,TRIVANDRUM -695014",TRIVANDRUM,TRIVANDRUM,KERALA,2320199
238,KERALA GRAMIN BANK,KLGB0040342,TB CELL,"KGB TOWERS,PALLIKUNNU,KANNUR DISTRICT -670004",KANNUR,KANNUR,KERALA,2704810
239,KERALA GRAMIN BANK,KLGB0040343,KARETTE,"KARETTE PPK BUILDING,MC ROAD,KARETTE,PULIMATH,P.O.VAMANAPURAM,TRIVANDRUM DT,PIN - 695606",TRIVANDRUM,TRIVANDRUM,KERALA,2836095
240,KERALA GRAMIN BANK,KLGB0040344,PANAVOOR,"PANAVUR BRANCH ARS BUILDING,P.O.PANAVOOR,TRIVANDRUM DISTRICT,PIN - 695568",TRIVANDRUM,TRIVANDRUM,KERALA,2867260
241,KERALA GRAMIN BANK,KLGB0040345,KADAKKAVUR,"KADAKKAYUR BRANCH ACHUTHAM,CHEKKALA VILAKAM,P.O.KADAKKAVUR,TRIVANDRUM DISTRICT,PIN -695306",TRIVANDRUM,TRIVANDRUM,KERALA,2656020
242,KERALA GRAMIN BANK,KLGB0040346,POTHENKODE,"POTHENCODE BRANCH CHANTHAYIL KADAYIL BUILDING,NEAR TOWN MASJID,MELEMUKKU,P.O.POTHENCODE,TRIVANDRUM DT,PIN - 695584",TRIVANDRUM,TRIVANDRUM,KERALA,2410144
243,KERALA GRAMIN BANK,KLGB0040347,KANIYAPURAM,"KANIYAPURAM BRANCH SHIBI NIVAS,P.O.KANIYAPURAM,TRIVANDRUM DISTRICT,PIN -695301",TRIVANDRUM,TRIVANDRUM,KERALA,2757875
244,KERALA GRAMIN BANK,KLGB0040348,UDIYANKULANGARA,"UDIYANKULANGARA BRANCH MORIAH BUILDING,UDIYANKULANGARA,P.O.AMARAVILA,TRIVANDRUM DISTRICT,PIN -695122",TRIVANDRUM,TRIVANDRUM,KERALA,2230433
245,KERALA GRAMIN BANK,KLGB0040349,ARYANADU,"ARYANAD ULHAS PLAZA,ARYANAD ( PO),TRIVANDRUM 695542",TRIVANDRUM,TRIVANDRUM,KERALA,2851700
246,KERALA GRAMIN BANK,KLGB0040350,VITHURA,"VITHURA BRANCH SAFA BUILDING,VITHURA ( PO),TRIVANDRUM 695551",TRIVANDRUM,TRIVANDRUM,KERALA,2857575
247,KERALA GRAMIN BANK,KLGB0040351,NADAYARA,"NADAYARA BRANCH KALLUVILAKAM BUILDING,P.O.NADAYARA,TRIVANDRUM DISTRICT,PIN -695141",TRIVANDRUM,TRIVANDRUM,KERALA,2610111
248,KERALA GRAMIN BANK,KLGB0040352,KALLAMBALAM,"KALLAMBALAM BRANCH KALATHOOR BUILDINGS,P.O.KALLAMBALAM,TRIVANDRUM DISTRICT,PIN - 695605",TRIVANDRUM,TRIVANDRUM,KERALA,2690007
249,KERALA GRAMIN BANK,KLGB0040353,KALLARA,"KALLARA BRANCH LOVELY BUILDING,P.O.KALLARA,TRIVANDRUM DISTRICT,PIN -695608",TRIVANDRUM,TRIVANDRUM,KERALA,2863022
250,KERALA GRAMIN BANK,KLGB0040354,VELLANAD,"VELLANAD BRANCH MANNUVEETTIL SHOPPING COMPLEX,P.O.VELLANAD,TRIVANDRUM DISTRICT,PIN -695543",TRIVANDRUM,TRIVANDRUM,KERALA,2883400
251,KERALA GRAMIN BANK,KLGB0040355,VANNAPURAM,"VANNAPURAM BRANCH PULICKIYIL SHOPPING COMPLEX,P.O.VANNAPURAM,IDUKKI DISTRICT,PIN -685607",IDUKKI,IDUKKI,KERALA,245656
252,KERALA GRAMIN BANK,KLGB0040356,UDUMBANNOOR,"UDUMBANNOOR BRANCH NADUKKUDIYIL BUILDING,P.O.UDUMBANNOOR,IDUKKI DISTRICT,PIN -685595",IDUKKI,IDUKKI,KERALA,272555
253,KERALA GRAMIN BANK,KLGB0040357,VAZHITHALA,"VAZHITHALA BRANCH KURIANAL BUILDING,P.O.VAZHITHALA,IDUKKI DISTRICT,PIN -685583",IDUKKI,IDUKKI,KERALA,274500
254,KERALA GRAMIN BANK,KLGB0040358,KIDANGANNUR,"KIDANGANNUR BRANCH KUMBAZHETHU BUILDING,P.O.KIDANGANNUR,PATHANAMTHITTA DISTRICT,PIN -689514",PATHANAMTHITTA,PATHANAMTHITTA,KERALA,286269
255,KERALA GRAMIN BANK,KLGB0040359,OMALLOOR,"OMALLOOR BRANCH OPP.VEDA HOSPITAL,P.O.OMALLOOR,PATHANAMTHITTA DISTRICT,PIN -689647",PATHANAMTHITTA,PATHANAMTHITTA,KERALA,2350532
256,KERALA GRAMIN BANK,KLGB0040360,VENNIKULAM,"VENNIKULAM BRANCH CHANDRAVILASAM BUILDING,P.O.VENNIKULAM,PATHANAMTHITTA DISTRICT -689544",PATHANAMTHITTA,PATHANAMTHITTA,KERALA,2650087
257,KERALA GRAMIN BANK,KLGB0040361,MANGALAPURAM,"MANGALAPURAM BRANCH KOORAVEETTIL BUILDING,MANGALAPURAM,P.O.THONNACKAL,TRIVANDRUM DISTRICT -695317",TRIVANDRUM,TRIVANDRUM,KERALA,2617875
258,KERALA GRAMIN BANK,KLGB0040362,KALAYANTHANI,"KALAYANTHANI BAANCH KAITHAPARAMBIL BUILDING.P.O.KALAYANTHANI,IDUKKI DISTRICT -685588",IDUKKI,IDUKKI,KERALA,276433
259,KERALA GRAMIN BANK,KLGB0040363,KANJAR,"KANJAR BRANCH VYAPARA BHAVAN P.O,KANJAR,IDUKKI DISTRICT -685592",IDUKKI,IDUKKI,KERALA,252580
260,KERALA GRAMIN BANK,KLGB0040364,NAGAROOR,"NAGAROOR BRANCH NEAR KSEB OFFICE,P.O.ALTHARAMOOO,VIA ALAMCODE,TRIVANDRUM DISTRICT -695102",TRIVANDRUM,TRIVANDRUM,KERALA,2678454
261,KERALA GRAMIN BANK,KLGB0040365,EZHAMKULAM,"EZHAMKULAM BRANCH CHENNIKKARETH COMPLEX,P.O.PARAKKODE,PATHANAMTHITTA DISTRICT -691554",PATHANAMTHITTA,PATHANAMTHITTA,KERALA,240688
262,KERALA GRAMIN BANK,KLGB0040366,MUTHUVARA,"MUTHUVARA ALAPPAT BUILDINGS,NO.VII/27,MUTHUVARA,PUZHAKKAL ( PO),THRISSUR DIST,PIN 680553",THRISSUR,THRISSUR,KERALA,2309833
263,KERALA GRAMIN BANK,KLGB0040367,KOLAZHI,"KOLAZHI RASVI PLAZA,SHORNUR ROAD,(PO ) KOLAZHI,THRISSUR DIST,PIN-680010",THRISSUR,THRISSUR,KERALA,2204033
264,KERALA GRAMIN BANK,KLGB0040368,ANNAMANADA,"ANNAMANADA ROYAL PLAZA,OPP GOVT U.P.SCHOOL,(PO ) ANNAMANADA,THRISSUR DIST,PIN 680741",THRISSUR,THRISSUR,KERALA,2771433
265,KERALA GRAMIN BANK,KLGB0040369,CHUNGAPARA,"CHUNGAPPARA THADATHIL BUILDINGS,PO.CHUNGAPPARA,PATHANAMTHITTA DT,PIN -686547",PATHANAMTHITTA,PATHANAMTHITTA,KERALA,2696131
266,KERALA GRAMIN BANK,KLGB0040370,THUMPAMON,"THUMBAMON PARUMALA MAR GREGORIOS DEATH CENTENARY MEMORIAL BUILDING,PO.THUMBAMON,PATHANAMTHITTA DT,PIN - 689502",PATHANAMTHITTA,PATHANAMTHITTA,KERALA,266678
267,KERALA GRAMIN BANK,KLGB0040371,CHALAPALLY,"CHALAPPALLY VALAVUMGAL BUILDING,PO.CHALAPPALLY,PATHANAMTHITTA DT,PIN 689586",PATHANAMTHITTA,PATHANAMTHITTA,KERALA,2794142
268,KERALA GRAMIN BANK,KLGB0040372,MALAYANKEEZHU,"AAIKZUKRISAGIRIBUIDIGS,AAIKZU(PO),TRIVADRU695571",TRIVANDRUM,TRIVANDRUM,KERALA,2280009
269,KERALA GRAMIN BANK,KLGB0040373,MALAYALAPPUZHA,"MALAYALAPUZHA ARATTUKARA BUILDING,MANNARAKULANHI ROAD,THAZHAM(PO),PATHANAMTHITTA DISTRICT 689666",PATHANAMTHITTA,PATHANAMTHITTA,KERALA,2300155
270,KERALA GRAMIN BANK,KLGB0040374,KOPPAM,"KOPPAM ATHIRA COMPLEX,MULAYANKAVU ROAD,PULASSERI ( PO),KOPPAM,PALAKKAD DISTRICT 679307",PALAKKAD,PALAKKAD,KERALA,2262071
271,KERALA GRAMIN BANK,KLGB0040375,ERUMAPETTY,"ERUMAPETTY MUSCAT SHOPPING COMPLEX,KADANGODE ROAD JN,ERUMAPETTY(PO),THRISSUR DISTRICT 680584",THRISSUR,THRISSUR,KERALA,262563
272,KERALA GRAMIN BANK,KLGB0040376,THACHAMPARA,"THACHAMPARA MS PLAZA,THACHAMPARA ( PO),PALAKKAD DISTRICT 678593",PALAKKAD,PALAKKAD,KERALA,243121
273,KERALA GRAMIN BANK,KLGB0040377,MARANELLUR,"MARANALLOOR MAHADEVA SHOPPING COMPLEX,KUVALASSERY ( PO),TRIVANDRUM DISTRICT 695512",TRIVANDRUM,TRIVANDRUM,KERALA,2297311
274,KERALA GRAMIN BANK,KLGB0040378,MATTATHUR,"MATTATHUR CC TOWER,KODALY JN,PADY ( PO),THRISSUR DISTRICT 680699",THRISSUR,THRISSUR,KERALA,2742121
275,KERALA GRAMIN BANK,KLGB0040379,VELLAR,"VELLAR NS BUILDING,KOVALAM ( PO),TRIVANDRUM DISTRICT 695527",TRIVANDRUM,TRIVANDRUM,KERALA,2488379
276,KERALA GRAMIN BANK,KLGB0040380,VELLARADA,"VELLARADA MIHAS BUILDING,ANAPPARA ROAD,VELLARADA ( PO),TRIVANDRUM DISTRICT 695505",TRIVANDRUM,TRIVANDRUM,KERALA,2241067
277,KERALA GRAMIN BANK,KLGB0040381,PRAVACHAMBALAM,"PRAVACHAMBALAM THEKKINAKATH BUILDING,NEMOM ( PO),TRIVANDRUM DISTRICT 695020",TRIVANDRUM,TRIVANDRUM,KERALA,2390992
278,KERALA GRAMIN BANK,KLGB0040382,KALIKAVU,"KALIKAVU VAYALIL POINT,KALIKAVU ( PO),MALAPPURAM DISTRICT 676525",MALAPPURAM,MALAPPURAM,KERALA,258781
279,KERALA GRAMIN BANK,KLGB0040383,ARANGOTTUKARA,"ARANGOTTUKARA EZHUMANGAD,PALLATH BUILDING,ARANGOTTUKARA ( PO),PALAKKAD DISTRICT 679532",PALAKKAD,PALAKKAD,KERALA,2258130
280,KERALA GRAMIN BANK,KLGB0040384,ANGADIPPURAM,"ANGADIPPURAM ROYAL COMPLEX,ANGADIPPURAM ( PO),MALAPPURAM DISTRICT 679321",MALAPPURAM,MALAPPURAM,KERALA,253284
281,KERALA GRAMIN BANK,KLGB0040385,ELAPPARA,"ELAPPARA MATHA BUILDINGS,NEAR BUS STAND,ELAPPARA ( PO),IDUKKI DISTRICT 685501",IDUKKI,IDUKKI,KERALA,242055
282,KERALA GRAMIN BANK,KLGB0040386,ELAVUMTHITTA,"ELAVUMTHITTA KAMAL TOWER,ELAVUMTHITTA ( PO),PATHANAMTHITTA DISTRICT 689625",PATHANAMTHITTA,PATHANAMTHITTA,KERALA,2257307
283,KERALA GRAMIN BANK,KLGB0040387,KATTANGAL,"KATTANGAL OP BUILDING,NIT CAMPUS ( PO),KOZHIKODE DISTRICT 673601",KOZHIKODE,KOZHIKODE,KERALA,2287188
284,KERALA GRAMIN BANK,KLGB0040388,KULANADA,"KULANADA SAJ COMPLEX,M C ROAD,KULANADA ( PO),PATHANAMTHITTA DISTRICT 689503",PATHANAMTHITTA,PATHANAMTHITTA,KERALA,4208400
285,KERALA GRAMIN BANK,KLGB0040389,KUMILI,"KUMILI PARUNTHRICKAL BUILDING,KUMILI(PO),IDUKKY DISTRICT 685509",IDUKKI,IDUKKI,KERALA,9222490
286,KERALA GRAMIN BANK,KLGB0040390,PERUMKUZHI,"PERUNGUZHI USHA BUILDINGS,PERUNGUZHI ( PO),TRIVANDRUM DISTRICT 695305",TRIVANDRUM,TRIVANDRUM,KERALA,2634066
287,KERALA GRAMIN BANK,KLGB0040391,UPPUTHARA,"UPPUTHARA METHRAN PARAMBIL BUILDING,UPPUTHARA ( PO),IDUKKI DISTRICT 685505",IDUKKI,IDUKKI,KERALA,9244940
288,KERALA GRAMIN BANK,KLGB0040392,ERNAKULAM RO,"48/24A-3,DANFOSS ARCADE,PERANDOOR ROAD,POTTAKUZHI JN,KALOOR,COCHIN,ERNAKULAM -682026",ERNAKULAM,ERNAKULAM,KERALA,2536302
289,KERALA GRAMIN BANK,KLGB0040393,KALPETTA RO,"AMMOOS COMPLEX,KALPETTA -673 121",WAYANAD,WAYANAD,KERALA,204309
290,KERALA GRAMIN BANK,KLGB0040394,KANNUR RO,"KGB TOWERS,PALLIKUNNU,KANNUR DISTRICT -670004",KANNUR,KANNUR,KERALA,2712377
291,KERALA GRAMIN BANK,KLGB0040395,KASARAGOD RO,"TIGER HILLS,VII/3K/C,KASARGOAD -671121",KASARAGOD,KASARAGOD,KERALA,222053
292,KERALA GRAMIN BANK,KLGB0040396,KOZHIKODE RO,"CYMA BUILDING,KANNUR ROAD,KOZHIKODE -673101",KOZHIKODE,KOZHIKODE,KERALA,2761540
293,KERALA GRAMIN BANK,KLGB0040397,PERINTHALMANNA RO,"THARAYIL TRADE CENTRE,BYE PASS BUS STAND,PERINTHALMANNA -679332",MALAPPURAM,MALAPPURAM,KERALA,229660
294,KERALA GRAMIN BANK,KLGB0040398,THALASSERY RO,"44/331,SUDAYA COMPLEX,MM ROAD,THALASSERY,KANNUR DISTRICT -670101",KANNUR,KANNUR,KERALA,2341303
295,KERALA GRAMIN BANK,KLGB0040399,THIRUVANANTHAPURAM RO,"TC 5/1089/3,RJ TOWERS,PEROORKADA,TRIVANDRUM -695005",TRIVANDRUM,TRIVANDRUM,KERALA,2434303
296,KERALA GRAMIN BANK,KLGB0040400,THRISSUR RO,"SUN TOWER,EAST FORT PO,THRISSUR -680005",THRISSUR,THRISSUR,KERALA,2446826
297,KERALA GRAMIN BANK,KLGB0040401,EDAYANNUR,"CHALOD,P.O.EDAYANNUR,KANNUR,KERALA,PIN -670595",KANNUR,KANNUR,KERALA,2484241
298,KERALA GRAMIN BANK,KLGB0040402,CHALA,"CHALA,P.O.CHALA EAST,KANNUR,KERALA,PIN -670621",KANNUR,KANNUR,KERALA,2820733
299,KERALA GRAMIN BANK,KLGB0040403,KOLASSERY,"KAMBIL,P.O.KOLASSERY,KANNUR,KERALA,PIN -670601",KANNUR,KANNUR,KERALA,240550
300,KERALA GRAMIN BANK,KLGB0040404,KARTIKULAM,"KARTIKULAM,P.O.KARTIKULAM,WYNAD,KERALA,PIN -670646",WAYANAD,WAYANAD,KERALA,250441
301,KERALA GRAMIN BANK,KLGB0040405,PERIYA,"PERIYA,P.O.PERIYA,WYNAD,KERALA,PIN -670644",WAYANAD,WAYANAD,KERALA,260070
302,KERALA GRAMIN BANK,KLGB0040406,NARKILAKKAD,"NARKILAKAD,P.O.KOTTAMALA,KASARAGOD,KERALA,PIN -671314",KASARAGOD,KASARAGOD,KERALA,2241348
303,KERALA GRAMIN BANK,KLGB0040407,VENGAD,"VENGAD,P.O.VENGAD,KANNUR,KERALA,PIN -670612",KANNUR,KANNUR,KERALA,2308572
304,KERALA GRAMIN BANK,KLGB0040408,RAMANTHALI,"RAMANTHALI,P.O.RAMANTHALI,KANNUR,KERALA,PIN -670308",KANNUR,KANNUR,KERALA,222548
305,KERALA GRAMIN BANK,KLGB0040409,MATHIL,"MATHIL,P.O.MATHIL,KANNUR,KERALA,PIN -670343",KANNUR,KANNUR,KERALA,280520
306,KERALA GRAMIN BANK,KLGB0040410,KUDIYANMALA,"KUDIYANMALA,P.O.KUDIYANMALA,KANNUR,KERALA,PIN -670582",KANNUR,KANNUR,KERALA,2218666
307,KERALA GRAMIN BANK,KLGB0040411,VELLAMUNDA,"VELLAMUNDA,P.O.KATTAYAD,WYNAD,KERALA,PIN -670731",WAYANAD,WAYANAD,KERALA,230331
308,KERALA GRAMIN BANK,KLGB0040412,MOGRAL PUTHUR,"MOGRALPUTHUR,P.O.MOGRAL PUTHUR,KASARAGOD,KERALA,PIN -671124",KASARAGOD,KASARAGOD,KERALA,233457
309,KERALA GRAMIN BANK,KLGB0040413,JAYANAGARA,"JAYANAGARA,P.O.KUMBDAJE,KASARAGOD,KERALA,PIN -671551",KASARAGOD,KASARAGOD,KERALA,260206
310,KERALA GRAMIN BANK,KLGB0040414,UDINUR,"UDINUR,P.O.EDACHAKAI,KASARAGOD,KERALA,PIN -671310",KASARAGOD,KASARAGOD,KERALA,2211250
311,KERALA GRAMIN BANK,KLGB0040415,PERMUDE,"PERMUDE,P.O.PERMUDE,KASARAGOD,KERALA,PIN -671324",KASARAGOD,KASARAGOD,KERALA,245205
312,KERALA GRAMIN BANK,KLGB0040416,PANATHADY,"PANATHADY,P.O.KOLICHAL,KASARAGOD,KERALA,PIN -671532",KASARAGOD,KASARAGOD,KERALA,2228370
313,KERALA GRAMIN BANK,KLGB0040417,PUTHIGE,"SEETHANGOLI,P.O.EDANAD,KASARAGOD,KERALA,PIN -671321",KASARAGOD,KASARAGOD,KERALA,245224
314,KERALA GRAMIN BANK,KLGB0040418,PAYYAVOOR,"PAYYAVOOR,P.O.PAYYAVOOR,KANNUR,KERALA,PIN -670633",KANNUR,KANNUR,KERALA,2210143
315,KERALA GRAMIN BANK,KLGB0040419,PALAVAYAL,"PALAVAYAL,P.O.PALAVAYAL,KASARAGOD,KERALA,PIN -670511",KASARAGOD,KASARAGOD,KERALA,212225
316,KERALA GRAMIN BANK,KLGB0040420,BANDADKA,"BANDADKA,P.O.BANDADKA,KASARAGOD,KERALA,PIN -671541",KASARAGOD,KASARAGOD,KERALA,200210
317,KERALA GRAMIN BANK,KLGB0040421,MATTOOL,"MATTOOL,P.O.MATTOOL,KANNUR,KERALA,PIN -670302",KANNUR,KANNUR,KERALA,2842087
318,KERALA GRAMIN BANK,KLGB0040422,THANA,"THANA,P.O.THANA,KANNUR,KERALA,PIN -670012",KANNUR,KANNUR,KERALA,2704341
319,KERALA GRAMIN BANK,KLGB0040423,CHERUTHAZHAM,"PILATHARA,P.O.PILATHARA,KANNUR,KERALA,PIN -670501",KANNUR,KANNUR,KERALA,2800210
320,KERALA GRAMIN BANK,KLGB0040424,KUDUKKIMOTTA,"KUDUKKIMOTTA,P.O.KOODALI,KANNUR,KERALA,PIN -670592",KANNUR,KANNUR,KERALA,2857949
321,KERALA GRAMIN BANK,KLGB0040425,KAKKENGAD,"KAKKENGAD,P.O.KAKKENGAD,KANNUR,KERALA,PIN -670673",KANNUR,KANNUR,KERALA,2457930
322,KERALA GRAMIN BANK,KLGB0040426,KARIKOTTAKARI,"KARIKKOTTAKARI,P.O.KOOMANTHODE,KANNUR,KERALA,PIN -670704",KANNUR,KANNUR,KERALA,2454566
323,KERALA GRAMIN BANK,KLGB0040427,CHEEMENI,"CHEEMENI,P.O.CHEEMENI,KASARAGOD,KERALA,PIN -671313",KASARAGOD,KASARAGOD,KERALA,2250345
324,KERALA GRAMIN BANK,KLGB0040428,PERINGATHUR,"PERINGATHUR,P.O.PERINGATHUR,KANNUR,KERALA,PIN -670675",KANNUR,KANNUR,KERALA,2393055
325,KERALA GRAMIN BANK,KLGB0040429,CHENGALA,"CHERKALA,P.O.CHENGALA,KASARAGOD,KERALA,PIN -671541",KASARAGOD,KASARAGOD,KERALA,280283
326,KERALA GRAMIN BANK,KLGB0040430,VATTIANTHODU,"VATTIAMTHODU,P.O.VATTIAMTHODU,KANNUR,KERALA,PIN -670705",KANNUR,KANNUR,KERALA,2216029
327,KERALA GRAMIN BANK,KLGB0040431,THAYYIL,"THAYYIL,P.O.THAYYIL,KANNUR,KERALA,PIN -670003",KANNUR,KANNUR,KERALA,2731456
328,KERALA GRAMIN BANK,KLGB0040432,KALCHANADKA,"KALCHANADKA,(VIA ) NILESWAR,P.O.KALCHANADKA,KASARAGOD,KERALA,PIN -671314",KASARAGOD,KASARAGOD,KERALA,2256110
329,KERALA GRAMIN BANK,KLGB0040433,VALIYAPARAMBA,"VALIYAPARAMBA,P.O.VALIYAPARAMBA,KASARAGOD,KERALA,PIN -671312",KASARAGOD,KASARAGOD,KERALA,2258358
330,KERALA GRAMIN BANK,KLGB0040434,KOLAYAD,"KOLAYAD,P.O.KOLAYAD,KANNUR,KERALA,PIN -670643",KANNUR,KANNUR,KERALA,2302412
331,KERALA GRAMIN BANK,KLGB0040435,VALLIKADAVU,"VALLIKADAVU,VETTIKALOLIKAL BUILDING,PARAPPA ( VIA),P.O.VALLIKKADAVU,KASARAGOD,KERALA,PIN -671533",KASARAGOD,KASARAGOD,KERALA,2247470
332,KERALA GRAMIN BANK,KLGB0040436,CHERUVATHUR,"CHERUVATHUR,P.O.CHERUVATHUR,KASARAGOD,KERALA,PIN -671313",KASARAGOD,KASARAGOD,KERALA,2260260
333,KERALA GRAMIN BANK,KLGB0040437,AMBALATHARA,"AMBALATHARA,(VIA ) ANANDASHRAM,P.O.PULLUR,KASARAGOD,KERALA,PIN -671531",KASARAGOD,KASARAGOD,KERALA,2243680
334,KERALA GRAMIN BANK,KLGB0040438,PARAPPA,"PARAPPA,P.O.PARAPPA,KASARAGOD,KERALA,PIN -671533",KASARAGOD,KASARAGOD,KERALA,2254202
335,KERALA GRAMIN BANK,KLGB0040439,PINARAYI,"PINARAYI,P.O.PINARAYI,KANNUR,KERALA,PIN -670741",KANNUR,KANNUR,KERALA,2382739
336,KERALA GRAMIN BANK,KLGB0040440,CHERUVANCHERRY,"CHERUVANCHERY,P.O.CHERUVANCHERRY,KANNUR,KERALA,PIN -670650",KANNUR,KANNUR,KERALA,2304403
337,KERALA GRAMIN BANK,KLGB0040441,KELAKAM,"KELAKAM,P.O.KELAKAM,KANNUR,KERALA,PIN -670674",KANNUR,KANNUR,KERALA,2412047
338,KERALA GRAMIN BANK,KLGB0040442,PERIYA BAZAR,"PERIYABAZAR,P.O.PERIYA,KASARAGOD,KERALA,PIN -671316",KASARAGOD,KASARAGOD,KERALA,2234050
339,KERALA GRAMIN BANK,KLGB0040443,PERATTA,"PERATTA,P.O.KOOTUPUZHA,KANNUR,KERALA,PIN -670706",KANNUR,KANNUR,KERALA,2420757
340,KERALA GRAMIN BANK,KLGB0040444,KARETTA,"URUVACHAL,P.O.URUVACHAL,KANNUR,KERALA,PIN -670702",KANNUR,KANNUR,KERALA,2477727
341,KERALA GRAMIN BANK,KLGB0040445,KUNHIPPALLY,"KUNHIPPALLY,P.O.KOTTALI,KANNUR,KERALA,PIN -670005",KANNUR,KANNUR,KERALA,2707544
342,KERALA GRAMIN BANK,KLGB0040446,KALLIKANDY,"KALLIKANDY,P.O.KALLIKANDY,KANNUR,KERALA,PIN -670693",KANNUR,KANNUR,KERALA,2462095
343,KERALA GRAMIN BANK,KLGB0040447,CHAPPARAPADAVU,"CHAPPARAPADAVU,P.O.CHAPPARAPADAVU,KANNUR,KERALA,PIN -670581",KANNUR,KANNUR,KERALA,2270244
344,KERALA GRAMIN BANK,KLGB0040448,MANAKKADAVU,"MANAKKADAVU,P.O.MANAKKADAVU,KANNUR,KERALA,PIN -670571",KANNUR,KANNUR,KERALA,2286721
345,KERALA GRAMIN BANK,KLGB0040449,MEEYAPADAVU,"MEEYAPADAVU,P.O.MEEYAPADAVU,KASARAGOD,KERALA,PIN -671323",KASARAGOD,KASARAGOD,KERALA,252122
346,KERALA GRAMIN BANK,KLGB0040450,KEEZHPALLY,"KEEZHPALLY,P.O.KEEZHPALLY,KANNUR,KERALA,PIN -670704",KANNUR,KANNUR,KERALA,2454503
347,KERALA GRAMIN BANK,KLGB0040451,ADOOR KASARGODE,"ADOOR,P.O.URDOOR,KASARAGOD,KERALA,PIN -671543",KASARAGOD,KASARAGOD,KERALA,270156
348,KERALA GRAMIN BANK,KLGB0040452,TALIPARAMBA,"TALIPARAMBA,P.O.TALIPARAMBA,KANNUR,KERALA,PIN -670141",KANNUR,KANNUR,KERALA,2203375
349,KERALA GRAMIN BANK,KLGB0040453,OLAYAMPADY,"OLAYAMPADY,P.O.OLAYAMPADY,KANNUR,KERALA,PIN -670306",KANNUR,KANNUR,KERALA,251110
350,KERALA GRAMIN BANK,KLGB0040454,MELPARAMBA,"MELPARAMBA,P.O.KALNAD,KASARAGOD,KERALA,PIN -671317",KASARAGOD,KASARAGOD,KERALA,237305
351,KERALA GRAMIN BANK,KLGB0040455,PARAL,"PARAL,P.O.PARAL,KANNUR,KERALA,PIN -670671",KANNUR,KANNUR,KERALA,2356131
352,KERALA GRAMIN BANK,KLGB0040456,EZHOME,"EZHOME,P.O.EZHOME,KANNUR,KERALA,PIN -670334",KANNUR,KANNUR,KERALA,2816395
353,KERALA GRAMIN BANK,KLGB0040457,MADIYAN,"MADIYAN,P.O.MANIKOTH,KASARAGOD,KERALA,PIN -671329",KASARAGOD,KASARAGOD,KERALA,2267557
354,KERALA GRAMIN BANK,KLGB0040458,MUNNAD,"MUNNAD,P.O.MUNNAD,KASARAGOD,KERALA,PIN -671541",KASARAGOD,KASARAGOD,KERALA,205448
355,KERALA GRAMIN BANK,KLGB0040459,KUNJATHUR,"UDYAVAR,P.O.KUNJATHUR,KASARAGOD,KERALA,PIN -671323",KASARAGOD,KASARAGOD,KERALA,278871
356,KERALA GRAMIN BANK,KLGB0040460,WEST PONNIAM,"WESTPONNIAM,P.O.WEST PONNIAM,KANNUR,KERALA,PIN -670641",KANNUR,KANNUR,KERALA,2306141
357,KERALA GRAMIN BANK,KLGB0040461,KARUVANCHAL,"KARUVANCHAL,P.O.KARUVANCHAL,KANNUR,KERALA,PIN -670571",KANNUR,KANNUR,KERALA,2245579
358,KERALA GRAMIN BANK,KLGB0040462,PADIYOTCHAL,"PADIYOTCHAL,P.O.PADIYOTCHAL,KANNUR,KERALA,PIN -670307",KANNUR,KANNUR,KERALA,240073
359,KERALA GRAMIN BANK,KLGB0040463,THONDIYIL,"THONDIYIL,P.O.THONDIYIL,KANNUR,KERALA,PIN -670673",KANNUR,KANNUR,KERALA,2444773
360,KERALA GRAMIN BANK,KLGB0040464,KANHANGAD,"KOTTACHERY,P.O.KANHANGAD,KASARAGOD,KERALA,PIN -671315",KASARAGOD,KASARAGOD,KERALA,209804
361,KERALA GRAMIN BANK,KLGB0040465,CHUZHALI,"CHUZHALI,P.O.CHUZHALI,KANNUR,KERALA,PIN -670631",KANNUR,KANNUR,KERALA,2268434
362,KERALA GRAMIN BANK,KLGB0040466,CHEMPANTHOTTY,"CHEMPANTHOTTY,P.O.CHEMPANTHOTTY,KANNUR,KERALA,PIN -670631",KANNUR,KANNUR,KERALA,2267273
363,KERALA GRAMIN BANK,KLGB0040467,POOKODE,"POOKODE,P.O.POOKODE,KANNUR,KERALA,PIN -670691",KANNUR,KANNUR,KERALA,2362011
364,KERALA GRAMIN BANK,KLGB0040468,CHAVASSERY,"CHAVASSERY,P.O.CHAVASSERY,KANNUR,KERALA,PIN -670702",KANNUR,KANNUR,KERALA,2433842
365,KERALA GRAMIN BANK,KLGB0040469,TRIKKANAD,"TRIKKANNAD,P.O.UDUMA,KASARAGOD,KERALA,PIN -671319",KASARAGOD,KASARAGOD,KERALA,2236618
366,KERALA GRAMIN BANK,KLGB0040470,JODUKKALLU,"JODUKKALLU,P.O.KAYYAR,KASARAGOD,KERALA,PIN -671322",KASARAGOD,KASARAGOD,KERALA,205110
367,KERALA GRAMIN BANK,KLGB0040471,KASARAGOD,"TIGER HILLS,MUNICIPAL OFFICE ROAD,P.O.KASARAGOD,KASARAGOD,KERALA,PIN -671121",KASARAGOD,KASARAGOD,KERALA,231941
368,KERALA GRAMIN BANK,KLGB0040472,THALASSERY,"THALASSERY,P.O.THALASSERY,KANNUR,KERALA,PIN -670101",KANNUR,KANNUR,KERALA,2322790
369,KERALA GRAMIN BANK,KLGB0040473,BOVIKANAM,"BOVIKANAM,P.O.MULIYAR,KASARAGOD,KERALA,PIN -671542",KASARAGOD,KASARAGOD,KERALA,250104
370,KERALA GRAMIN BANK,KLGB0040474,PAYANGADI,"PAYANGADI,P.O.PAYANGADI R.S,KANNUR,KERALA,PIN -670358",KANNUR,KANNUR,KERALA,2870660
371,KERALA GRAMIN BANK,KLGB0040475,MADHUR,"MADHUR,P.O.MADHUR,KASARAGOD,KERALA,PIN -671124",KASARAGOD,KASARAGOD,KERALA,240456
372,KERALA GRAMIN BANK,KLGB0040476,MANANTHAVADY,"MANANTHAVADY,P.O.MANANTHAVADY,WYNAD,KERALA,PIN -670645",WAYANAD,WAYANAD,KERALA,246547
373,KERALA GRAMIN BANK,KLGB0040477,CHAKKARAKKAL,"CHAKKARAKKAL,P.O.MOWANCHERRY,KANNUR,KERALA,PIN -670613",KANNUR,KANNUR,KERALA,2851733
374,KERALA GRAMIN BANK,KLGB0040478,THAVINHAL,"THAVINHAL,P.O.THALAPPUZHA,WYNAD,KERALA,PIN -670644",WAYANAD,WAYANAD,KERALA,256306
375,KERALA GRAMIN BANK,KLGB0040479,KANNADIPPARAMBA,"KANNADIPPARAMBA,P.O.KANNADIPARAMABA,KANNUR,KERALA,PIN -670604",KANNUR,KANNUR,KERALA,2796750
376,KERALA GRAMIN BANK,KLGB0040480,CHITTARIPARAMBA,"CHITTARIPARAMBA,P.O.CHITTARIPPARAMBA,KANNUR,KERALA,PIN -670650",KANNUR,KANNUR,KERALA,2300530
377,KERALA GRAMIN BANK,KLGB0040481,KALLODI,"KALLODI,P.O.EDAVAKA,WYNAD,KERALA,PIN -670645",WAYANAD,WAYANAD,KERALA,241781
378,KERALA GRAMIN BANK,KLGB0040482,PATHIRIYAD,"PATHIRIYAD PALA,P.O.SHANKARANELLUR,KANNUR,KERALA,PIN -670643",KANNUR,KANNUR,KERALA,2362461
379,KERALA GRAMIN BANK,KLGB0040483,KODLAMOGARU,"VIA.MANJESWAR,P.O.KODLAMOGARU,KASARAGOD,KERALA,PIN -671323",KASARAGOD,KASARAGOD,KERALA,202180
380,KERALA GRAMIN BANK,KLGB0040484,PADIYUR KALLIAD,"PADIYUR,P.O.PADIYUR,KANNUR,KERALA,PIN -670703",KANNUR,KANNUR,KERALA,2273011
381,KERALA GRAMIN BANK,KLGB0040485,SAJANKILA,"SAJANKILA,P.O.BAYAR,KASARAGOD,KERALA,PIN -671322",KASARAGOD,KASARAGOD,KERALA,205738
382,KERALA GRAMIN BANK,KLGB0040486,THERTHALLY,"THERTHALLY,P.O.THERTHALLY,KANNUR,KERALA,PIN -670571",KANNUR,KANNUR,KERALA,2285292
383,KERALA GRAMIN BANK,KLGB0040487,IRITTY,"IRITTY,P.O.IRITTY,KANNUR,KERALA,PIN -670703",KANNUR,KANNUR,KERALA,2491469
384,KERALA GRAMIN BANK,KLGB0040488,KELLUR,"MANANTHAVADY,P.O.NALLOORNADU,WYNAD,KERALA,PIN -670645",WAYANAD,WAYANAD,KERALA,244151
385,KERALA GRAMIN BANK,KLGB0040489,NEENDUNOKKI,"NEENDUNOKKI,P.O.KOTTIYOOR,KANNUR,KERALA,PIN -670674",KANNUR,KANNUR,KERALA,2430860
386,KERALA GRAMIN BANK,KLGB0040490,PAYYANNUR,"PAYYANNUR,P.O.PAYYANNUR,KANNUR,KERALA,PIN -670307",KANNUR,KANNUR,KERALA,229101
387,KERALA GRAMIN BANK,KLGB0040491,ANGADIKADAVU,"ANGADIKADAVU,P.O.ANGADIKADAVU,KANNUR,KERALA,PIN -670706",KANNUR,KANNUR,KERALA,2426160
388,KERALA GRAMIN BANK,KLGB0040492,PANATHUR,"PANATHUR,P.O.PANATHUR,KASARAGOD,KERALA,PIN -671532",KASARAGOD,KASARAGOD,KERALA,2227360
389,KERALA GRAMIN BANK,KLGB0040493,KARIMBAM,"KARIMBAM,P.O.KARIMBAM,KANNUR,KERALA,PIN -670142",KANNUR,KANNUR,KERALA,2203254
390,KERALA GRAMIN BANK,KLGB0040494,KUNHIMANGALAM,"EDAT,P.O.EDAT,KANNUR,KERALA,PIN -670327",KANNUR,KANNUR,KERALA,2805676
391,KERALA GRAMIN BANK,KLGB0040495,ERUVESSY,"ERUVASSY,P.O.CHEMPERI,KANNUR,KERALA,PIN -670632",KANNUR,KANNUR,KERALA,2212397
392,KERALA GRAMIN BANK,KLGB0040496,CHAMPAD,"CHAMPAD,P.O.CHAMPAD,KANNUR,KERALA,PIN -670694",KANNUR,KANNUR,KERALA,2311010
393,KERALA GRAMIN BANK,KLGB0040497,MOKERI,"MOKERI,P.O.MOKERI,KANNUR,KERALA,PIN -670692",KANNUR,KANNUR,KERALA,2311940
394,KERALA GRAMIN BANK,KLGB0040498,TRIKADARIPOYIL,"TRIKADARIPOIL,P.O.THOLAMBRA,KANNUR,KERALA,PIN -670673",KANNUR,KANNUR,KERALA,2400530
395,KERALA GRAMIN BANK,KLGB0040499,VELLACHAL,"VELLACHAL,P.O.MAKRERI,KANNUR,KERALA,PIN -670622",KANNUR,KANNUR,KERALA,2827328
396,KERALA GRAMIN BANK,KLGB0040500,BANDIYODE,"BANDIYODU,P.O.MANGALPADY,KASARAGOD,KERALA,PIN -671324",KASARAGOD,KASARAGOD,KERALA,240984
397,KERALA GRAMIN BANK,KLGB0040501,THAZHE CHOVVA,"THAZHECHOVVA,P.O.THAZHE CHOVVA,KANNUR,KERALA,PIN -670006",KANNUR,KANNUR,KERALA,2727905
398,KERALA GRAMIN BANK,KLGB0040502,EDAKKAD,"EDAKKAD,P.O.EDAKKAD,KANNUR,KERALA,PIN -670663",KANNUR,KANNUR,KERALA,2832921
399,KERALA GRAMIN BANK,KLGB0040503,PALLIKUNNU,"OPP.KOYILI HOSPITAL,P.O.PALLIKUNNU,KANNUR,KERALA,PIN -670004",KANNUR,KANNUR,KERALA,2707604
400,KERALA GRAMIN BANK,KLGB0040504,RAMNAGAR,"MAVUNKAL,P.O.ANANDASHRAM,KASARAGOD,KERALA,PIN -671531",KASARAGOD,KASARAGOD,KERALA,2203065
401,KERALA GRAMIN BANK,KLGB0040505,KANNUR MAIN,"HAJEE BUILDING,FORT ROAD,P B NO.83,P.O.KANNUR,KANNUR,KERALA,PIN -670001",KANNUR,KANNUR,KERALA,2712377
402,KERALA GRAMIN BANK,KLGB0040506,BELLUR,"KINNINGAR,P.O.KINNINGAR,KASARAGOD,KERALA,PIN -671543",KASARAGOD,KASARAGOD,KERALA,266120
403,KERALA GRAMIN BANK,KLGB0040507,UDAYAGIRI,"UDAYAGIRI,P.O.UDAYAGIRI,KANNUR,KERALA,PIN -670571",KANNUR,KANNUR,KERALA,2286380
404,KERALA GRAMIN BANK,KLGB0040508,CHORKALA,"POKKUNDU,P.O.KURUMATHUR,KANNUR,KERALA,PIN -670142",KANNUR,KANNUR,KERALA,2224674
405,KERALA GRAMIN BANK,KLGB0040509,DELAMPADY,"DELAMPADY PARAPPA,P.O.PARAPPA,KASARAGOD,KERALA,PIN -671543",KASARAGOD,KASARAGOD,KERALA,270303
406,KERALA GRAMIN BANK,KLGB0040510,VANINAGAR,"VANINAGAR,P.O.VANINAGAR,KASARAGOD,KERALA,PIN -671552",KASARAGOD,KASARAGOD,KERALA,266110
407,KERALA GRAMIN BANK,KLGB0040511,VELLARIKUNDU,"VELLARIKKUNDU,P.O.VELLARIKKUNDU,KASARAGOD,KERALA,PIN -671533",KASARAGOD,KASARAGOD,KERALA,2242270
408,KERALA GRAMIN BANK,KLGB0040512,PERALAM,"PERALAM,P.O.KOZHUMMAL,KANNUR,KERALA,PIN -670522",KANNUR,KANNUR,KERALA,260469
409,KERALA GRAMIN BANK,KLGB0040513,PUTHIYATHERU,"PUTHIYATHERU,P.O.CHIRAKKAL,KANNUR,KERALA,PIN -670011",KANNUR,KANNUR,KERALA,2776264
410,KERALA GRAMIN BANK,KLGB0040514,THILLANKERI,"THILLANKERI,P.O.THILLANKERI-,KANNUR,KERALA,PIN -670702",KANNUR,KANNUR,KERALA,2405362
411,KERALA GRAMIN BANK,KLGB0040515,EDNEER,"EDNEER,P.O.EDNEER,KASARAGOD,KERALA,PIN -671541",KASARAGOD,KASARAGOD,KERALA,280932
412,KERALA GRAMIN BANK,KLGB0040516,PADNEKAT,"OPP.NEHRU COLLEGE,P.O.PADNEKAT,KASARAGOD,KERALA,PIN -671328",KASARAGOD,KASARAGOD,KERALA,2281370
413,KERALA GRAMIN BANK,KLGB0040517,KUMBALA,"GOKUL BUILDING,MAIN JUNCTION,P.O.KUMBALA,KASARAGOD,KERALA,PIN -671321",KASARAGOD,KASARAGOD,KERALA,213272
414,KERALA GRAMIN BANK,KLGB0040518,NILESHWAR,"NILESHWAR,P.O.NILESHWAR,KASARAGOD,KERALA,PIN -671314",KASARAGOD,KASARAGOD,KERALA,2280905
415,KERALA GRAMIN BANK,KLGB0040519,PERALADKAM,"PERALADKAM,P.O.KOLATHUR,KASARAGOD,KERALA,PIN -671541",KASARAGOD,KASARAGOD,KERALA,210303
416,KERALA GRAMIN BANK,KLGB0040520,KOZHICHAL,"KOZHICHAL,P.O.KOZHICHAL,KANNUR,KERALA,PIN -670511",KANNUR,KANNUR,KERALA,212215
417,KERALA GRAMIN BANK,KLGB0040521,KOYYAM,"KOYYAM,P.O.CHENGALAYI,KANNUR,KERALA,PIN -670631",KANNUR,KANNUR,KERALA,2231268
418,KERALA GRAMIN BANK,KLGB0040522,KATTIMOOLA,"KATTIMOOLA,P.O.VALAD,WYNAD,KERALA,PIN -670644",WAYANAD,WAYANAD,KERALA,266047
419,KERALA GRAMIN BANK,KLGB0040523,MATTANNOOR,"MATTANNUR,P.O.MATTANNUR,KANNUR,KERALA,PIN -670702",KANNUR,KANNUR,KERALA,2472125
420,KERALA GRAMIN BANK,KLGB0040524,HOSANGADI,"HOSANGADI,P.O.MANJESWAR,KASARAGOD,KERALA,PIN -671323",KASARAGOD,KASARAGOD,KERALA,273050
421,KERALA GRAMIN BANK,KLGB0040525,ULIKKAL,"ULIKKAL,P.O.ULIKKAL,KANNUR,KERALA,PIN -670705",KANNUR,KANNUR,KERALA,2228560
422,KERALA GRAMIN BANK,KLGB0040526,VIDYANAGAR,"VIDYANAGAR,P.O.VIDYANAGAR,KASARAGOD,KERALA,PIN -671123",KASARAGOD,KASARAGOD,KERALA,255152
423,KERALA GRAMIN BANK,KLGB0040527,PANAMARAM,"PANAMARAM,P.O.PANAMARAM,WYNAD,KERALA,PIN -670721",WAYANAD,WAYANAD,KERALA,220975
424,KERALA GRAMIN BANK,KLGB0040528,NEWMAHE,"AMJAD COMPLEX,P.O.NEW MAHE,KANNUR,KERALA,PIN -673311",KANNUR,KANNUR,KERALA,2337494
425,KERALA GRAMIN BANK,KLGB0040529,UPPALA,"OPP.BUS STAND,P.O.UPPALA,KASARAGOD,KERALA,PIN -671322",KASARAGOD,KASARAGOD,KERALA,241975
426,KERALA GRAMIN BANK,KLGB0040530,PAPPINISSERY,"NEAR RAILWAY GATE,P.O.PAPPINISSERY,KANNUR,KERALA,PIN -670561",KANNUR,KANNUR,KERALA,2787320
427,KERALA GRAMIN BANK,KLGB0040531,TRIKARIPUR,"TRIKARIPUR,P.O.TRIKARIPUR,KASARAGOD,KERALA,PIN -671310",KASARAGOD,KASARAGOD,KERALA,2215190
428,KERALA GRAMIN BANK,KLGB0040532,ERNAKULAM MAIN,"ENSIGN ENCLAVE,M.G.ROAD,P.O.ERNAKULAM,ERNAKULAM,KERALA,PIN -682011",ERNAKULAM,ERNAKULAM,KERALA,2375217
429,KERALA GRAMIN BANK,KLGB0040533,MUVATTUPUZHA,"YAS BUILDING,NEAR NEHRU PARK,MARKET,P.O.MUVATTUPUZHA,ERNAKULAM,KERALA,PIN -686673",ERNAKULAM,ERNAKULAM,KERALA,2836777
430,KERALA GRAMIN BANK,KLGB0040534,PALAI,"AVANTHI COMPLEX,THODUPUZHA ROAD,P.O.PALAI,KOTTAYAM,KERALA,PIN -686575",KOTTAYAM,KOTTAYAM,KERALA,2200833
431,KERALA GRAMIN BANK,KLGB0040535,ETTUMANOOR,"EDENS SHOPPING CENTRE,CENTRAL JUNCTION,PALA ROAD,P.O.ETTUMANOOR,KOTTAYAM,KERALA,PIN -686631",KOTTAYAM,KOTTAYAM,KERALA,2530538
432,KERALA GRAMIN BANK,KLGB0040536,KOTTAYAM,"PULIMOOTTIL ARCADE,K.K.ROAD,P.O.MUTTAMBALAM,KOTTAYAM,KERALA,PIN -686004",KOTTAYAM,KOTTAYAM,KERALA,570194
433,KERALA GRAMIN BANK,KLGB0040537,KALOOR,"PUTHUSSERY BUILDINGS,P.O.KALOOR,ERNAKULAM,KERALA,PIN -682017",ERNAKULAM,ERNAKULAM,KERALA,539191
434,KERALA GRAMIN BANK,KLGB0040538,KUTHUPARAMBA,"PUTHANPURA BUILDING,KANNUR ROAD,P.O.KUTHUPARAMBA,KANNUR,KERALA,PIN -670643",KANNUR,KANNUR,KERALA,2365399
435,KERALA GRAMIN BANK,KLGB0040539,ANGAMALY,"KALLOOKKARAN TOWERS,P.O.ANGAMALY,ERNAKULAM,KERALA,PIN -683572",ERNAKULAM,ERNAKULAM,KERALA,2459610
436,KERALA GRAMIN BANK,KLGB0040540,ALUVA,"KAKKAT BUILDING,MARKET ROAD,OPP FIRE STATION,P.O.ALUVA,ERNAKULAM,KERALA,PIN -683101",ERNAKULAM,ERNAKULAM,KERALA,2620825
437,KERALA GRAMIN BANK,KLGB0040541,THALAYOLAPARAMBU,"ANAPPARAMBIL SHOPPING COMPLEX,NEAR BUS STAND,P.O.THALAYOLAPARAMBU,KOTTAYAM,KERALA,PIN -686605",KOTTAYAM,KOTTAYAM,KERALA,237766
438,KERALA GRAMIN BANK,KLGB0040542,PAMPADY,"VADAKARA BUILDING,K.K.ROAD,P.O.PAMPADY,KOTTAYAM,KERALA,PIN -686502",KOTTAYAM,KOTTAYAM,KERALA,2508966
439,KERALA GRAMIN BANK,KLGB0040543,KOOTHATTUKULAM,"PADINJARAYIL BUILDINGS,M.C.ROAD,P.O.KOOTHATTUKULAM,ERNAKULAM,KERALA,PIN -686662",ERNAKULAM,ERNAKULAM,KERALA,2253703
440,KERALA GRAMIN BANK,KLGB0040544,MUNDAKKAYAM,"CSI CHURCH BUILDINGS,K.K.ROAD,P.O.MUNDAKKAYAM,KOTTAYAM,KERALA,PIN -686513",KOTTAYAM,KOTTAYAM,KERALA,273264
441,KERALA GRAMIN BANK,KLGB0040545,ERATTUPETTA,"PULICKAL PALACE,P.O.ERATTUPETTA,KOTTAYAM,KERALA,PIN -686121",KOTTAYAM,KOTTAYAM,KERALA,277263
442,KERALA GRAMIN BANK,KLGB0040546,KANJIRAPPALLY,"KURISINKAL,P.O.KANJIRAPPALLY,KOTTAYAM,KERALA,PIN -686507",KOTTAYAM,KOTTAYAM,KERALA,203757
443,KERALA GRAMIN BANK,KLGB0040547,KOTHAMANGALAM,"26 820,MARKE ESTATES,P.O.KOTHAMANGALAM,ERNAKULAM,KERALA,PIN -686691",ERNAKULAM,ERNAKULAM,KERALA,2823430
444,KERALA GRAMIN BANK,KLGB0040548,NORTH PARAVOOR,"R.K.BUILDING,K.M.K.JUNCTION,P.O.NORTH PARAVOOR,ERNAKULAM,KERALA,PIN -683513",ERNAKULAM,ERNAKULAM,KERALA,2441410
445,KERALA GRAMIN BANK,KLGB0040549,MULAMTHURUTHY,"PALAL BUILDINGS,P.O.MULAMTHURUTHY,ERNAKULAM,KERALA,PIN -682314",ERNAKULAM,ERNAKULAM,KERALA,2743851
446,KERALA GRAMIN BANK,KLGB0040550,PIRAVAM,"MATHA COMPLEX,THREE ROAD,JUNCTION,P.O.PIRAVOM,ERNAKULAM,KERALA,PIN -686664",ERNAKULAM,ERNAKULAM,KERALA,2241880
447,KERALA GRAMIN BANK,KLGB0040551,TRIPUNITHURA,"STATUE JUNCTION,P.O.TRIPUNITHURA,ERNAKULAM,KERALA,PIN -682301",ERNAKULAM,ERNAKULAM,KERALA,2785547
448,KERALA GRAMIN BANK,KLGB0040552,PERUMBAVOOR,"COURT JUNCTION,M.C.ROAD,P.O.PERUMBAVOOR,ERNAKULAM,KERALA,PIN -683542",ERNAKULAM,ERNAKULAM,KERALA,2590828
449,KERALA GRAMIN BANK,KLGB0040553,ALAPPUZHA,"SREE PECHI ANKALAMMAN KOVIL TRUST,P.O.PAZHAVANGADI,ALAPUZHA,KERALA,PIN -688001",ALAPPUZHA,ALAPPUZHA,KERALA,237557
450,KERALA GRAMIN BANK,KLGB0040554,OCHIRA,"NEAR PREMIER THEATRE JUNCTION,OCHIRA,P.O.KRISHNAPURAM,ALAPUZHA,KERALA,PIN -690533",ALAPPUZHA,ALAPPUZHA,KERALA,2697372
451,KERALA GRAMIN BANK,KLGB0040555,KATTANAM,"PALAVILAYIL BUILDING,P.O.PALLIKKAL,ALAPUZHA,KERALA,PIN -690503",ALAPPUZHA,ALAPPUZHA,KERALA,2334010
452,KERALA GRAMIN BANK,KLGB0040556,MAVELIKKARA,"CORAL HOUSE,PUTHIYAKAVU,P.O.MAVELIKKARA,ALAPUZHA,KERALA,PIN -690101",ALAPPUZHA,ALAPPUZHA,KERALA,2340755
453,KERALA GRAMIN BANK,KLGB0040557,MANNAR,"PULIMOOTTIL BUILDING,KURATTIYIL TEMPLE JUNCTION N/R POST OFFICE,P.O.MANNAR,ALAPUZHA,KERALA,PIN -689622",ALAPPUZHA,ALAPPUZHA,KERALA,2313755
454,KERALA GRAMIN BANK,KLGB0040558,CHERTHALA,"S.K.M.COMPLEX,NADAKAV ROAD,P.O.CHERTHALA,ALAPUZHA,KERALA,PIN -688524",ALAPPUZHA,ALAPPUZHA,KERALA,2816254
455,KERALA GRAMIN BANK,KLGB0040559,THIRUVANVANDOOR,"VIA ) CHENGANNUR,P.O.KALLISSERY,ALAPUZHA,KERALA,PIN -689124",ALAPPUZHA,ALAPPUZHA,KERALA,2429400
456,KERALA GRAMIN BANK,KLGB0040560,PODIKUNDU,"PODIKKUNDU,P.O.PALLIKUNNU,KANNUR,KERALA,PIN -670004",KANNUR,KANNUR,KERALA,2748550
457,KERALA GRAMIN BANK,KLGB0040561,KAKKANAD,"111/291A,THAZHTHEDATH BUILDINGS,CHEMBUMUKKU,P.O.KAKKANAD,ERNAKULAM,KERALA,PIN -682030",ERNAKULAM,ERNAKULAM,KERALA,2425734
458,KERALA GRAMIN BANK,KLGB0040562,KURUPANTHARA,"KURUPANTHARA,P.O.MANJOOR,KOTTAYAM,KERALA,PIN -686603",KOTTAYAM,KOTTAYAM,KERALA,243170
459,KERALA GRAMIN BANK,KLGB0040563,KOLLAM,"SREE VIGNESWARA BHAVAN,KOLLAM CHENGOTTA ROAD,P.O.KADAPPAKADA,KOLLAM,KERALA,PIN -691008",KOLLAM,KOLLAM,KERALA,2764212
460,KERALA GRAMIN BANK,KLGB0040564,ANCHAL,"AL-AMEEN BUILDING,RANGE OFFICE JUNCTION,P.O.ANCHAL,KOLLAM,KERALA,PIN -691306",KOLLAM,KOLLAM,KERALA,2270445
461,KERALA GRAMIN BANK,KLGB0040565,KARUNAGAPALLY,"ZAINA BUILDINGS,H.S.JUNCTION,ALUMKADAVU ROAD,P.O.KARUNAGAPPALLY,KOLLAM,KERALA,PIN -690518",KOLLAM,KOLLAM,KERALA,2626252
462,KERALA GRAMIN BANK,KLGB0040566,KOLENCHERRY,"ELLORA TOWERS,ELAMKULAMKARA,P.O.KOLENCHERY,ERNAKULAM,KERALA,PIN -682311",ERNAKULAM,ERNAKULAM,KERALA,2765983
463,KERALA GRAMIN BANK,KLGB0040567,ELAMAKKARA,"PATHIYASSERIL BUILDINGS,NEAR PUNNAKKAL TEMPLE,P.O.ELAMAKKARA,ERNAKULAM,KERALA,PIN -682026",ERNAKULAM,ERNAKULAM,KERALA,2530701
464,KERALA GRAMIN BANK,KLGB0040568,CHANGANASSERY,"ASSISSI BUILDING,MARKET ROAD,CHANGANASSERY,KOTTAYAM,KERALA,PIN -686101",KOTTAYAM,KOTTAYAM,KERALA,2422798
465,KERALA GRAMIN BANK,KLGB0040569,RAMAPURAM,"NEW MICHAEL PLAZA,OPP.AUGUSTINE FORANE CHURCH,P.O.RAMAPURAM BAZAR,KOTTAYAM,KERALA,PIN -686576",KOTTAYAM,KOTTAYAM,KERALA,262727
466,KERALA GRAMIN BANK,KLGB0040570,KADAVATHUR,"KADAVATHUR,P.O.KADAVATHUR,KANNUR,KERALA,PIN -670676",KANNUR,KANNUR,KERALA,2392600
467,KERALA GRAMIN BANK,KLGB0040571,CHATHANNUR,"N.H.47,P.O.CHATHANNUR,KOLLAM,KERALA,PIN -691572",KOLLAM,KOLLAM,KERALA,2595222
468,KERALA GRAMIN BANK,KLGB0040572,KOTTARAKKARA,"A.U.TOWER,CHANDAMUKKU,P.O.KOTTARAKKARA,KOLLAM,KERALA,PIN -691506",KOLLAM,KOLLAM,KERALA,2453334
469,KERALA GRAMIN BANK,KLGB0040573,PARAVUR,"SAHIL COMPLEX,THEKKUMBHAGHAM ROAD,P.O.PARAVUR,KOLLAM,KERALA,PIN -691301",KOLLAM,KOLLAM,KERALA,2514605
470,KERALA GRAMIN BANK,KLGB0040574,KUNDARA,"CSI SHOPPING COMPLEX,P.O.KUNDARA,KOLLAM,KERALA,PIN -691501",KOLLAM,KOLLAM,KERALA,2581122
471,KERALA GRAMIN BANK,KLGB0040575,KADAVANTHRA,"MIRADOR,MUTTATHIL LANE,NEAR KADAVANTHRA JUNCTION,P.O.COCHIN,ERNAKULAM,KERALA,PIN -682020",ERNAKULAM,ERNAKULAM,KERALA,2205353
472,KERALA GRAMIN BANK,KLGB0040576,SREEPURAM,"SREEPURAM,P.O.PALLIKUNNU,KANNUR,KERALA,PIN -670004",KANNUR,KANNUR,KERALA,2708277
473,KERALA GRAMIN BANK,KLGB0040577,KOTTIYAM,"BLDG.NO.A.P.XVIII-359& 360,P.O.KOTTIYAM,KOLLAM,KERALA,PIN -691571",KOLLAM,KOLLAM,KERALA,2534500
474,KERALA GRAMIN BANK,KLGB0040578,PUNALUR,"CHAWKA ROAD,P.O.PUNALUR,KOLLAM,KERALA,PIN -691305",KOLLAM,KOLLAM,KERALA,2229760
475,KERALA GRAMIN BANK,KLGB0040579,PERAVOOR,"PERAVOOR COMPLEX,DOOR NO.PP-V-2 T11NEAR NEW BUS STAND,P.O.PERAVOOR,KANNUR,KERALA,PIN -670673",KANNUR,KANNUR,KERALA,2443228
476,KERALA GRAMIN BANK,KLGB0040580,MANIMALA,"NEAR POLICE STATION,DOOR NO.VP-1-576-CMOONGANI,P.O.MANIMALA,KOTTAYAM,KERALA,PIN -686543",KOTTAYAM,KOTTAYAM,KERALA,248751
477,KERALA GRAMIN BANK,KLGB0040581,PALLIKKATHODE,"PANICKER S ARCADE,DOOR NO.PPIV-70E(7),P.O.ANICKAD,KOTTAYAM,KERALA,PIN -686503",KOTTAYAM,KOTTAYAM,KERALA,2553051
478,KERALA GRAMIN BANK,KLGB0040582,KOLLAKKADAVU,"KAVALAKKAL PLAZA,DOOR NO.CP-VIII-393J,P.O.KOLLAKKADAVU,ALAPUZHA,KERALA,PIN -690509",ALAPPUZHA,ALAPPUZHA,KERALA,2353955
479,KERALA GRAMIN BANK,KLGB0040583,PERLA,"S.H.BUILDING,OPP.PERLA BUS STAND,P.O.PERLA,KASARAGOD,KERALA,PIN -671552",KASARAGOD,KASARAGOD,KERALA,225999
480,KERALA GRAMIN BANK,KLGB0040584,KARUKACHAL,"PALAKUNNEL BUILDING,MALLAPPALLY ROAD,P.O.KARUKACHAL,KOTTAYAM,KERALA,PIN -686540",KOTTAYAM,KOTTAYAM,KERALA,2488543
481,KERALA GRAMIN BANK,KLGB0040585,PATHANAPURAM,"PLAVILAYIL BUILDING,P.O.PATHANAPURAM,KOLLAM,KERALA,PIN -689695",KOLLAM,KOLLAM,KERALA,2352066
482,KERALA GRAMIN BANK,KLGB0040586,CHERUKUNNU,"NEAR CANOSSIAN CONVENT,(VIA ) KANNAPURAM,P.O.CHERUKUNNU,KANNUR,KERALA,PIN -670301",KANNUR,KANNUR,KERALA,2862862
483,KERALA GRAMIN BANK,KLGB0040587,ATHIKATTUKULANGARA,"SUBY PLAZA,NOORANAD,P.O.ATHIKKATTUKULANGARA,ALAPUZHA,KERALA,PIN -690504",ALAPPUZHA,ALAPPUZHA,KERALA,2388332
484,KERALA GRAMIN BANK,KLGB0040588,CHERUTHANA,"KOYPPALLIL BUILDING,AYAPARAMBA,KARUVATTA ( VIA),P.O.CHERUTHANA,ALAPUZHA,KERALA,PIN -690615",ALAPPUZHA,ALAPPUZHA,KERALA,2410561
485,KERALA GRAMIN BANK,KLGB0040589,AYOOR,"CHRISTURAJ SHOPPING COMPLEX,P.O.AYOOR,KOLLAM,KERALA,PIN -691533",KOLLAM,KOLLAM,KERALA,2292606
486,KERALA GRAMIN BANK,KLGB0040590,PERUVA,"PERUVA,P.O.PERUVA,KOTTAYAM,KERALA,PIN -686610",KOTTAYAM,KOTTAYAM,KERALA,252976
487,KERALA GRAMIN BANK,KLGB0040591,AYAMKUDY,"ST.THERESAS SHOPPING CENTRE,MUTTUCHIRA ( VIA),P.O.AYAMKUDY,KOTTAYAM,KERALA,PIN -686613",KOTTAYAM,KOTTAYAM,KERALA,288549
488,KERALA GRAMIN BANK,KLGB0040592,MANARCAD,"NO.642-NSS KARAYOGAM BUILDING,P.O.MANARCAD,KOTTAYAM,KERALA,PIN -686019",KOTTAYAM,KOTTAYAM,KERALA,2373192
489,KERALA GRAMIN BANK,KLGB0040593,KIDANGOOR,"THEKKUMKATTIL CITY PLAZA,P.O.KIDANGOOR,KOTTAYAM,KERALA,PIN -686572",KOTTAYAM,KOTTAYAM,KERALA,256725
490,KERALA GRAMIN BANK,KLGB0040594,VAZHAKULAM,"GREEN VILLA COMPLEX,CARMEL JUNCTIONMUVATTUPUZHA,P.O.VAZHAKULAM,ERNAKULAM,KERALA,PIN -686670",ERNAKULAM,ERNAKULAM,KERALA,2263128
491,KERALA GRAMIN BANK,KLGB0040595,CHITTARIKKAL,"VELLIAPPALLIL COMPLEX,P.O.CHITTARIKKAL,KASARAGOD,KERALA,PIN -671326",KASARAGOD,KASARAGOD,KERALA,2222300
492,KERALA GRAMIN BANK,KLGB0040596,MULLERIA,"ARAMANADKA COMPLEX,BADIYADKA ROAD,P.O.MULLERIA,KASARAGOD,KERALA,PIN -671543",KASARAGOD,KASARAGOD,KERALA,260009
493,KERALA GRAMIN BANK,KLGB0040597,CHOKLI,"KHADEEJA COMPLEX,PONDY BAZAR,P.O.CHOKLI,KANNUR,KERALA,PIN -670672",KANNUR,KANNUR,KERALA,2330422
494,KERALA GRAMIN BANK,KLGB0040598,KULATHUPPUZHA,"KUNNUMPURATH COMMERCIAL COMPLEX,P.O.KULATHUPUZHA,KOLLAM,KERALA,PIN -691310",KOLLAM,KOLLAM,KERALA,2317002
495,KERALA GRAMIN BANK,KLGB0040599,CHERUPUZHA,"PUNCHAKUNNEL BUILDINGS,MAIN ROAD,P.O.CHERUPUZHA,KANNUR,KERALA,PIN -670511",KANNUR,KANNUR,KERALA,240040
496,KERALA GRAMIN BANK,KLGB0040600,UZHAVOOR,"UZHAVOOR,P.O.UZHAVOOR,KOTTAYAM,KERALA,PIN -686634",KOTTAYAM,KOTTAYAM,KERALA,240210
497,KERALA GRAMIN BANK,KLGB0040601,ERUMELY,"KATTUPALAM BUILDING,P.O.ERUMELI,KOTTAYAM,KERALA,PIN -686509",KOTTAYAM,KOTTAYAM,KERALA,213201
498,KERALA GRAMIN BANK,KLGB0040602,PANOOR,"CHAMPAD ROAD,P.O.PANOOR,KANNUR,KERALA,PIN -670692",KANNUR,KANNUR,KERALA,2310065
499,KERALA GRAMIN BANK,KLGB0040603,PUKKATTUPADY,"IST FLOOR,MUDAVATHIL BUILDING,P.O.EDATHALA,ERNAKULAM,KERALA,PIN -683561",ERNAKULAM,ERNAKULAM,KERALA,2686203
500,KERALA GRAMIN BANK,KLGB0040604,THIRUVAMKULAM,"IST FLOOR,KARODAN CENTRE,P.O.THIRUVAMKULAM,ERNAKULAM,KERALA,PIN -682305",ERNAKULAM,ERNAKULAM,KERALA,2786209
501,KERALA GRAMIN BANK,KLGB0040605,MANJAPRA,"IST FLOOR,MANGALY TOWERS,P.O.MANJAPRA,ERNAKULAM,KERALA,PIN -683581",ERNAKULAM,ERNAKULAM,KERALA,2690790
502,KERALA GRAMIN BANK,KLGB0040606,PAVOOR,"PAVOOR,P.O.PAVOOR,KASARAGOD,KERALA,PIN -671323",KASARAGOD,KASARAGOD,KERALA,272322
503,KERALA GRAMIN BANK,KLGB0040607,KALADY,"SYAM TOWER,NEAR SREESANKARA BRIDGE,P.O.KALADY,ERNAKULAM,KERALA,PIN -683574",ERNAKULAM,ERNAKULAM,KERALA,2244099
504,KERALA GRAMIN BANK,KLGB0040608,ELANJI,"POONTHOTTAM BUILDINGS,P.O.ELANJI,ERNAKULAM,KERALA,PIN -686665",ERNAKULAM,ERNAKULAM,KERALA,2257322
505,KERALA GRAMIN BANK,KLGB0040609,PATTAZHI,"K.R.M.BUILDINGS,P.O.PATTAZHI,KOLLAM,KERALA,PIN -691522",KOLLAM,KOLLAM,KERALA,2398788
506,KERALA GRAMIN BANK,KLGB0040610,PAIKA,"KOCHUPARAMBIL BUILDINGS,PAIKA,P.O.POOVARANI,KOTTAYAM,KERALA,PIN -686577",KOTTAYAM,KOTTAYAM,KERALA,225080
507,KERALA GRAMIN BANK,KLGB0040611,ADIVAD,"MADINA TOWERS,(VIA ) KOTHAMANGALAM,P.O.PALLARIMANGALAM,ERNAKULAM,KERALA,PIN -686671",ERNAKULAM,ERNAKULAM,KERALA,2563555
508,KERALA GRAMIN BANK,KLGB0040612,PALLURUTHY,"V.T.CHAMBERS,P.O.PALLURUTHY,ERNAKULAM,KERALA,PIN -682006",ERNAKULAM,ERNAKULAM,KERALA,2236088
509,KERALA GRAMIN BANK,KLGB0040614,VAKATHANAM,"ONATT TRADE CENTRE,NJALIAKUZHI JUNCTION,P.O.VAKATHANAM,KOTTAYAM,KERALA,PIN -686538",KOTTAYAM,KOTTAYAM,KERALA,2460214
510,KERALA GRAMIN BANK,KLGB0040615,KUNNANALLOOR,"LEBBAS TOWER,P.O.KANNANALLOOR,KOLLAM,KERALA,PIN -691576",KOLLAM,KOLLAM,KERALA,2501735
511,KERALA GRAMIN BANK,KLGB0040616,KUNNIKODE,"ADV.P.RAVINDRAN PILLAI MEMORIAL BUILDING,P.O.KUNNIKODE,KOLLAM,KERALA,PIN -691508",KOLLAM,KOLLAM,KERALA,2325522
512,KERALA GRAMIN BANK,KLGB0040617,BADIYADKA,"SREE GURUVAYOORAPPAN SHOPPING COMPLEX,BADIADKA,P.O.PERDALA,KASARAGOD,KERALA,PIN -671551",KASARAGOD,KASARAGOD,KERALA,284217
513,KERALA GRAMIN BANK,KLGB0040618,KADANAD,"PEEDIKAMALAYIL BUILDINGS,P.O.KADANAD,KOTTAYAM,KERALA,PIN -686653",KOTTAYAM,KOTTAYAM,KERALA,246440
514,KERALA GRAMIN BANK,KLGB0040619,PUTHENVELIKARA,"1598 NO NSS KARAYOGAM BUILDING,P.O.PUTHENVELIKARA,ERNAKULAM,KERALA,PIN -683594",ERNAKULAM,ERNAKULAM,KERALA,2485234
515,KERALA GRAMIN BANK,KLGB0040620,PUTHOOR,"VALIYAKAMPIYIL PLAZA,BSNL JUNCTION,P.O.PUTHOOR,KOLLAM,KERALA,PIN -691507",KOLLAM,KOLLAM,KERALA,2416299
516,KERALA GRAMIN BANK,KLGB0040621,KADAKKAL,"PULIMATH BUILDINGS,P.O.KADAKKAL,KOLLAM,KERALA,PIN -691536",KOLLAM,KOLLAM,KERALA,2425221
517,KERALA GRAMIN BANK,KLGB0040622,ANCHALUMOODU,"MOTHAKADA BUILDING,VETTUVILA ROAD,P.O.PERINAD,KOLLAM,KERALA,PIN -691601",KOLLAM,KOLLAM,KERALA,2700268
518,KERALA GRAMIN BANK,KLGB0040623,KOOTTILANGADI,"KADAVATH COMPLEX,KOOTTILANGADI P.O,MALAPPURAM DISTRICT -676 506",MALAPPURAM,MALAPPURAM,KERALA,285000
519,KERALA GRAMIN BANK,KLGB0040624,VAZHAKKAD,"DOOR NO.16/269,REHMANIA TOWER,CHEENI BAZAR,VAZHAKKAD P.O,MALAPPURAM DISTRICT -673 640",MALAPPURAM,MALAPPURAM,KERALA,2727100
520,KERALA GRAMIN BANK,KLGB0040625,MELATTUR,"BUILDING NO X/15,SOORYA ARCADE,OPP.SHINEY THEATRE,MELATTUR P.O,MALAPPURAM DIST -679 326",MALAPPURAM,MALAPPURAM,KERALA,277265
521,KERALA GRAMIN BANK,KLGB0040626,MELUKAVU,"POOVELIL BUILDINGS,MELUKAVU MATTOM P.O,KOTTAYAM DIST,PIN -686 652",ERNAKULAM,ERNAKULAM,KERALA,219626
522,KERALA GRAMIN BANK,KLGB0040627,FEROKE CHUNGAM,"PALOT BUILDING,FAROOK COLLEGE ROAD,FEROKE CHUNGAM,FEROKE P.O,KOZHIKODE DIST,PIN -673 631",KOZHIKODE,KOZHIKODE,KERALA,2481884
523,KERALA GRAMIN BANK,KLGB0040628,KAIPARAMBA,"BRIGHT TRADE CENTRE,KAIPARAMBA P.O,THRISSUR,PIN -680 546",THRISSUR,THRISSUR,KERALA,2210230
524,KERALA GRAMIN BANK,KLGB0040629,PARAPPUR,"GOLDEN CASTLE,MAIN ROAD,PARAPPUR P.O,THRISSUR DIST,PIN -680 552",THRISSUR,THRISSUR,KERALA,2285230
525,KERALA GRAMIN BANK,KLGB0040630,KUNDAMKUZHI,"PERIYATH COMPLEX,P.O KUNDAMKUZHI,KASARAGOD DIST,PIN -671 541",KASARAGOD,KASARAGOD,KERALA,210050
526,KERALA GRAMIN BANK,KLGB0040631,PERUMANNA,"BHAGAVATHI PARAMBATH BUILDING,PERUMANNA P.O,KOZHIKODE DIST,PIN -673 019",KOZHIKODE,KOZHIKODE,KERALA,2430040
527,KERALA GRAMIN BANK,KLGB0040632,PAINGOTTOOR,"THEKKE THOTTIYIL BUILDING,PAINGOTTOOR P.O,ERNAKULAM DIST,PIN -686 671",KOTTAYAM,KOTTAYAM,KERALA,2562166
528,KERALA GRAMIN BANK,KLGB0040633,POOVATHUR,"RAIHANA COMPLEX,POOVATHUR P.O,THRISSUR DIST,PIN -680 508",THRISSUR,THRISSUR,KERALA,2640080
529,KERALA GRAMIN BANK,KLGB0040634,THRIKKAKARA,"TM -884 A/IV,JUDGEMUKKU,THRIKKAKKARA,ERNAKULAM DIST,PIN 682 021",ERNAKULAM,ERNAKULAM,KERALA,2575399
530,KERALA GRAMIN BANK,KLGB0040635,HARIPPAD,"KOTTINATT KG MADHAVAN PILLAI SMARAKA MANDIRAM,MADHAVA JUNCTION",ALAPPUZHA,ALAPPUZHA,KERALA,2418155
531,KERALA GRAMIN BANK,KLGB0040636,KAYAMKULAM,"SAYAFA COMPLEX,PRATHANGAMOOD JUNCTION,MARKET ROAD",ALAPPUZHA,ALAPPUZHA,KERALA,2444212
532,KERALA GRAMIN BANK,KLGB0040637,ATTIPRA,"THIRUVONAM COMPLEX,ARASUMMOODU,KULATHOOR P.O,TRIVANDRUM,PIN -695 583",TRIVANDRUM,TRIVANDRUM,KERALA,2599696
533,KERALA GRAMIN BANK,KLGB0040638,PERINGAMALA,"KKN BUILDING,PERINGAMMALA,KALLIYOOR P.O,TRIVANDRUM DIST,PIN -695 042",TRIVANDRUM,TRIVANDRUM,KERALA,2404480
534,KERALA GRAMIN BANK,KLGB0040639,BHARANIKKAVU,"TAJMAHAL SHOPPING COMPLEX,SASTHAMKOTTA PO, KOLLAM DT, PIN 690521",KOLLAM,KOLLAM,KERALA,2833552
535,KERALA GRAMIN BANK,KLGB0040640,KATTOOR,"VATHEDATH SHOPPING COMPLEX,NEAR BUS STAND,KATTOOR P.O,THRISSUR DIST,PIN 680 702",THRISSUR,THRISSUR,KERALA,2872434
536,KERALA GRAMIN BANK,KLGB0040641,MUKKOLAKKAL,"KP -6/286-A,MUKKOLA,KALLAYAM P.O,TRIVANDRUM DIST,PIN -695 043",TRIVANDRUM,TRIVANDRUM,KERALA,2534399
537,KERALA GRAMIN BANK,KLGB0040642,NANMINDA,"NP 9/454-A,NANMINDA P.O,KOZHIKODE DIST,PIN -673 613",KOZHIKODE,KOZHIKODE,KERALA,2855515
538,KERALA GRAMIN BANK,KLGB0040643,MUTHUKULAM,"THUSHARA ENCLAVE,MUTHUKULAM,CHEPPAD P.O,ALAPPUZHA DIST,PIN -690 507",ALAPPUZHA,ALAPPUZHA,KERALA,2472242
539,KERALA GRAMIN BANK,KLGB0040644,RAMANKARI,"SREE DEVI COMPLEX,MAMPUZHAKKARI,RAMANKARI P.O,ALAPPUZHA DIST,PIN 689 595",ALAPPUZHA,ALAPPUZHA,KERALA,2702524
540,KERALA GRAMIN BANK,KLGB0040645,PATTUVAM,"PP V/133-134,MURIYATHODU,ARIYIL P.O,KANNUR DIST,PIN 670 143",KANNUR,KANNUR,KERALA,2221230
541,KERALA GRAMIN BANK,KLGB0040646,MATTAM,"MALIYAMAVU, MATTAM ,THRISSUR DT,PIN 680602",THRISSUR,THRISSUR,KERALA,239239
542,KERALA GRAMIN BANK,KLGB0040647,EDAYUR,"MADATHIL COMPLEX,VAYANASALA,EDAYUR NORTH P.O,MALAPPURAM DISTRICT,PIN 676 552",MALAPPURAM,MALAPPURAM,KERALA,2648080
543,KERALA GRAMIN BANK,KLGB0040648,KALADY,"KP IX/187-F,KANDANAKAM,KALADY-MALAPPURAM P.O,MALAPPURAM DISTRICT,PIN -679582",MALAPPURAM,MALAPPURAM,KERALA,2699990
544,KERALA GRAMIN BANK,KLGB0040649,OZHUR,"K C BUILDING,OPP.PANCHAYAT OFFICE,PULPARAMBA,OZHUR P.O,MALAPPURAM DIST,PIN -676 307",MALAPPURAM,MALAPPURAM,KERALA,2581800
545,KERALA GRAMIN BANK,KLGB0040650,VETTOM,"AMBATT BUILDING,PARIYAPURAM,PACHATTIRI P.O,MALAPPURAM DIST,PIN 676 105",MALAPPURAM,MALAPPURAM,KERALA,2631188
546,KERALA GRAMIN BANK,KLGB0040651,KOTTAYAM MALABAR,"KMP 7/381 H,6TH MILE,KOTTAYAM POIL P.O,VIA PATHAYAKUNNU,KANNUR DIST 670 691",KANNUR,KANNUR,KERALA,2361455
547,KERALA GRAMIN BANK,KLGB0040652,THENNALA,"SALMA MANZIL,THENNALA PO,MALAPPURAM DT,PIN 676508",MALAPPURAM,MALAPPURAM,KERALA,2495959
548,KERALA GRAMIN BANK,KLGB0040653,CHENGOTTUKONAM,"NIKUNJAM,CHEMPAZHANTHY P.O,TRIVANDRUM,PIN -695 587",TRIVANDRUM,TRIVANDRUM,KERALA,2712250
549,KERALA GRAMIN BANK,KLGB0040654,MARUTHAMKUZHI,"T.C 7/925-11,SREEKRISHNA,KANJIRAMPARA P.O,TRIVANDRUM DIST,PIN -695 030",TRIVANDRUM,TRIVANDRUM,KERALA,2364199
550,KERALA GRAMIN BANK,KLGB0040655,VATTAPPARA,"D.S TOWERS,VATTAPPARA P.O,TRIVANDRUM,PIN -695 028",TRIVANDRUM,TRIVANDRUM,KERALA,2587899
551,KERALA GRAMIN BANK,KLGB0040656,MAKKIYAD,"MAKKIYAD P.O,WAYANAD DT,PIN-67073",WAYANAD,WAYANAD,KERALA,2598695
552,KERALA GRAMIN BANK,KLGB0040657,MANGATTIDAM,"MANGATT,NIRMALAGIRI COLLEGE PO,MANGATTIDAM KANNUR 67 01194",KANNUR,KANNUR,KERALA,2369966
553,KERALA GRAMIN BANK,KLGB0040658,MOOTHEDAM,"MOOTHEDAM,MOOTHEDAM PO,MALAPPURAM DT-PIN 679 331",MALAPPURAM,MOOTHEDAM,KERALA,276999
554,KERALA GRAMIN BANK,KLGB0040659,KUMARENALLOOR,"KUMARANALLOOR,KOTTAYAM DT-6806016",KOTTAYAM,KOTTAYAM,KERALA,2598695
555,KERALA GRAMIN BANK,KLGB0040660,KOTTAYAM RO,"KGB TOWERS,SAMKRANTHI JUNCTION,PERUMBAIKKAD,KOTTAYAM DT-6806016",KOTTAYAM,KOTTAYAM,KERALA,2598690
556,KERALA GRAMIN BANK,KLGB0040661,KALIKKADAVU,"KALIKADAVU,PP/II 800(H),FIVE STAR BUILDING,PILICODE,KASARGOD 67101551",KASARAGOD,KASARAGOD,KERALA,2262345
557,KERALA GRAMIN BANK,KLGB0040662,PALAZHY,"POYILIL BUILDING,GA COLLEGE POST,KOZHIKODE-673014",KOZHIKODE,KOZHIKODE,KERALA,2433533
558,KERALA GRAMIN BANK,KLGB0040663,RAJAPURAM,"ETTAKKAL BUILDERS, KP VIII/111 F, 111 G RAJAPURAM P.O. , KASARAGOD DIST",KASARGOD,KASARGOD,KERALA,704810
559,KERALA GRAMIN BANK,KLGB0040664,ALUNGAL,"PULIKKAL COMPLEX, VII/393 G, 394 H, ALUNGAL JUNCTION, KARKITAMKUNNU P.O. ,PALAKKAD DIST",PALAKKAD,PALAKKAD,KERALA,704810
560,KERALA GRAMIN BANK,KLGB0040665,MAYYIL,"KRIPA COMPLEX, MP VI/258 P, MAYYIL P.O. , KANNUR DIST",KANNUR,KANNUR,KERALA,704810
561,KERALA GRAMIN BANK,KLGB0040666,AGASTIANMOOZHY,"EM TOWER,AGASTIANMOOZHY,MUKKOM PO,KOZHIKODE DIST",KOZHIKODE,KOZHIKODE,KERALA,704810
562,KERALA GRAMIN BANK,KLGB0040667,KADAPPADY,"PAZHERI COMPLEX, KADAPPADY, PERUVALLUR PO, VIA KONDOTTY, MALAPPURAM - 673638",MALAPPURAM,MALAPPURAM,KERALA,704810
563,KERALA GRAMIN BANK,KLGB0040668,POONJAR,"VADAKARAYIL,NEAR PRIVATE BUS STAND,POONJAR THEKKEKARA PO,KOTTAYAM DT-686582",KOTTAYAM,ERATTUPETTA,KERALA,704810
564,KERALA GRAMIN BANK,KLGB0040669,MANHODI,"CPC COMPLEX,THIRUVANGAD PO,THALASSERY,KANNUR DT - 670103",KANNUR,THALASSERY,KERALA,704810
565,KERALA GRAMIN BANK,KLGB0040670,CHERANELLUR,"POST OFFICE BUILDING,PALLIKKAVALA,CHERANALLUR PO, ERNAKULAM DT.  682 034",ERNAKULAM,ERNAKULAM,KERALA,704810
566,KERALA GRAMIN BANK,KLGB0040671,PURAMERI,"AL. SANAFER COMPLEX,KUNINGAD ROAD,PURAMERI PO,KOZHIKODE DT.  673 503",KOZHIKODE,KOZHIKODE,KERALA,704810
567,KERALA GRAMIN BANK,KLGB0040672,NEDUMKANDAM,"ANJU KANDATHIL PLAZA,NEAR PRIVATE BUS STAND,NEDUMKANDAM PO,IDUKKI DT.  685 553",IDUKKI,IDUKKI,KERALA,704810
568,KERALA GRAMIN BANK,KLGB0040673,PATTOM,"K S N TOWERS,MURINJAPALAM,PATTOM, MEDICAL COLLEGE PO,THIRUVANANTHAPURAM DT.  695011",THIRUVANANTHAPURAM,THIRUVANANTHAPURAM,KERALA,704810
569,KERALA GRAMIN BANK,KLGB0040674,PATTIMATTAM,"THOMSON COMPLEX,PP ROAD, PATTIMATTAM PO,ERNAKULAM DT. - 683 562",ERNAKULAM,ERNAKULAM,KERALA,704810
570,KERALA GRAMIN BANK,KLGB0040675,ELANTHOR,"CHETTUKADAVIL BUILDINGS,PARIYARAM JUNCTION,NELLIKKALA PO,ELANTHOR,PATHANAMTHITTA DT-689643",PATHANAMTHITTA,PATHANAMTHITTA,KERALA,704810
571,KERALA GRAMIN BANK,KLGB0040676,KOTTOOR,"BAVA TOWER,KOTTOOR PO,THIRUVANANTHAPURAM DT.  695 574",THIRUVANANTHAPURAM,THIRUVANANTHAPURAM,KERALA,704810
572,KERALA GRAMIN BANK,KLGB0040677,MADATHARA,"KERALA TOWER,MADATHARA PO,KOLLAM DT.  691541",KOLLAM,KOLLAM,KERALA,704810
573,KERALA GRAMIN BANK,KLGB0040678,PATTIKKAD CHUNGAM,"YOUSAF HAJI BUILDING,CHUNGAM,PATTIKKAD PO,MALAPPURAM DT.  679 325",MALAPPURAM,MALAPPURAM,KERALA,704810
574,KERALA GRAMIN BANK,KLGB0040679,MEPPAYYUR,"T.K. COMPLEX,PAYYOLI ROAD,MEPPAYYUR PO,KOZHIKODE DT.  673524",KOZHIKODE,KOZHIKODE,KERALA,704810
575,KERALA GRAMIN BANK,KLGB0040680,MOOKKANNOOR,"KALAMPARAMBAN TOWERS,PALA JUNCTION,MOOKKANNOOR PO,ERNAKULAM DT.  683 577",ERNAKULAM,ERNAKULAM,KERALA,704810
576,KERALA GRAMIN BANK,KLGB0040681,POOCHAKKAL,"KAILAS HEIGHTS,LYCEUM JUNCTION,POOCHAKKAL PO,ALAPPUZHA DT.  688 526",ALAPPUZHA,ALAPPUZHA,KERALA,704810
577,KERALA GRAMIN BANK,KLGB0040682,NELLIMOODE,"NELLIMOODE SERVICE CO-OP. BANK SHOPPING COMPLEX,NELLIMOODE PO,THIRUVANANTHAPURAM DT.  695 524",THIRUVANANTHAPURAM,THIRUVANANTHAPURAM,KERALA,704810
578,KERALA GRAMIN BANK,KLGB0040683,AZHIYOOR,"JP COMPLEX,KOROTH ROAD PO,AZHIYOOR,KOZHIKODE DT-673309",KOZHIKODE,KOZHIKODE,KERALA,704810
579,KERALA GRAMIN BANK,KLGB0040684,AVINISSERY,"VICTORY COMPLEX, ANAKKALLU JN,AVINISSERY,THRISSUR",THRISSUR,THRISSUR,KERALA,704810
580,KERALA GRAMIN BANK,KLGB0040685,CHINGAVANAM,"OLD KELACHANDRA HOSPITAL BUILDING,CHINGAVANAM,KOTTAYAM,PIN 686531",KOTTAYAM,KOTTAYAM,KERALA,704810
581,KERALA GRAMIN BANK,KLGB0040686,KANAKKARY,"MINIS ARCADE, KANAKKARY, KOTTAYAM 686632",KOTTAYAM,KOTTAYAM,KERALA,2533555
582,KERALA GRAMIN BANK,KLGB0040687,ALATHIYUR,"DARUSSALAM COMPLEX TRIPRANGODE ROAD ALATHIYUR PO,PIN-676102",MALAPPURAM,MALAPPURAM,KERALA,2566767
583,KERALA GRAMIN BANK,KLGB0040688,PERINGOTTUKURISSI,"A M S COMPLEX, OPP. VICTORY THEATRE, NEAR PETROL PUMP, PERINGOTTUKURISSI,PIN - 678573",PALAKKAD,PALAKKAD,KERALA,704810
584,KERALA GRAMIN BANK,KLGB0040689,ALANALLUR,"P.K. COMPLEX,ALANALLUR,PO-ALANALLUR,DIST-PALAKKAD",PALAKKAD,PALAKKAD,KERALA,262689
585,KERALA GRAMIN BANK,KLGB0040690,KOOROPPADA,"LAKSHMI KESAV TOWER,KOOROPPADA PO,KOTTAYAM DT.",KOTTAYAM,KOTTAYAM,KERALA,703350
586,KERALA GRAMIN BANK,KLGB0040691,NEENDOOR,"MANAPPATTU PARAMBIL BUILDINGS,VADAKKENADA,PRAVATTOM,PO-NEENDOOR,DIST-KOTTAYAM, PINCODE -686601",KOTTAYAM,KOTTAYAM,KERALA,2704810
587,KERALA GRAMIN BANK,KLGB0040692,KODUNGOOR,"CITY BLDG,PALAI ROAD,KODUNGOOR PO,KOTTAYAM DT.",KOTTAYAM,KOTTAYAM,KERALA,455900
588,KERALA GRAMIN BANK,KLGB0040693,CHATTANCHAL,"CITY CENTRE BUILDING, CHATTANCHAL, PO-KASARAGOD DT-KASARAGOD",KASARAGOD,CHATTANCHAL,KERALA,4282053
589,KERALA GRAMIN BANK,KLGB0040694,NANTHANCODE,"ANANDA BHAVAN,CLIFF HOUSE ROAD KOWDIAR PO, TRIVANDRUM DT.",TRIVANDRUM,TRIVANDRUM,KERALA,727694
590,KERALA GRAMIN BANK,KLGB0040695,ARUVIKKARA,"A R BUILDING ARUVIKKARA, ARUVIKKARA PO, THIRUVANANTHAPURAM DT.",THIRUVANANTHAPURAM,THIRUVANANTHAPURAM,KERALA,2889900
591,KERALA GRAMIN BANK,KLGB0040696,KODUNTHIRAPULLY,"HARE KRISHNA COMPLEX,PUDUR-KOTTAYI ROAD,KODUNTHIRAPULLY,PALAKKAD DIST",PALAKKAD,KODUNTHIRAPULLY,KERALA,2508696
592,KERALA GRAMIN BANK,KLGB0040697,MAMBARAM,"M R COMPLEX,KANNUR ROAD,MAMBARAM PO,KANNUR DT,PIN-670741",KANNUR,KANNUR,KERALA,2384303
593,KERALA GRAMIN BANK,KLGB0040698,KALAVOOR,"PARATHARA TOWERS,KALAVOOR PO,MANNANCHERRY,ALAPPUZHA DT",ALAPPUZHA,ALAPPUZHA,KERALA,704810
594,KERALA GRAMIN BANK,KLGB0040699,VARAPPUZHA,"THOMAS ARCADE,CHELAKKADAN BUILDING,CHIRAKKAKOM PO,VARAPPUZHA,ERNAKULAM DT",ERNAKULAM,ERNAKULAM,KERALA,704810
595,KERALA GRAMIN BANK,KLGB0040700,PUTHENCHANTHAI,"AR PLAZA,PUTHENCHANTHAI,VARKALA PO,TRIVANDRUM DT.",TRIVANDRUM,TRIVANDRUM,KERALA,704810
596,KERALA GRAMIN BANK,KLGB0040701,PAPPANAMCODE,"ANUKUTTANMAVILA,PAPPANAMCODE PO,THIRUVANANTHPURAM DT",THIRUVANANTHPURAM,PAPPANAMCODE,KERALA,2495701
597,KERALA GRAMIN BANK,KLGB0040702,PATTARNADAKKAVU,"THOYALIL COMPLEX PATTARNADAKKAVU,ANANTHAVOOR PO,MALAPPURAM DT",MALAPPURAM,ANANTHAVOOR,KERALA,9446631968
598,KERALA GRAMIN BANK,KLGB0040703,MAVOOR,"PVM BUILDING,MAVOOR PO,KOZHIKODE DT,PIN-673661",KOZHIKODE,KOZHIKODE,KERALA,2884999
599,KERALA GRAMIN BANK,KLGB0040704,PERINGODE,"SRUTHI BUILDING,NEAR KSEB OFFICE,PERINGODE P.O, PALAKKAD DT. PIN-679535",PALAKKAD,PALAKKAD,KERALA,2370198
600,KERALA GRAMIN BANK,KLGB0040705,KADAMPAZHIPURAM,"AR COMPLEX,HOSPITAL JUNCTION,KADAMPAZHIPURAM PO,PALAKKAD DT PIN-678633",PALAKKAD,PALAKKAD,KERALA,2268705
601,KERALA GRAMIN BANK,KLGB0040706,THIRUVILWAMALA,"RENUKA COMPLEX,NEAR GRAMA  PANCHAYAT OFFICE ,THIRUVILWAMALA PO,THRISSUR DT. PIN-680588",THRISSUR,THRISSUR,KERALA,4281800
602,KERALA GRAMIN BANK,KLGB0040707,KAVUMBHAGAM,8/488/M VELANDY PLAZA KAVUMBHAGAM PO KANNUR DT PIN 670649,KANNUR,KANNUR,KERALA,2704810
603,KERALA GRAMIN BANK,KLGB0040708,CHERUVANNUR,"BAVUKKA SQUARE, KUNDAYITHODE,KOLATHARA PO,PIN-673655",KOZHIKODE,KOZHIKODE,KERALA,2485383
604,KERALA GRAMIN BANK,KLGB0040709,KILLIMANGALAM,"HARITHA TOWER,UDUVADY CENTRE,KILLIMANGALAM (PO),THRISSUR DIST",THRISSUR,KILLIMANGALAM,KERALA,252393
605,KERALA GRAMIN BANK,KLGB0040710,MANALITHARA,SHEETAL SHOAPING COMPLEX MALAKKA CENTRE MANALITHARA P.O.NEAR MALAKKA HOMEO DISPENSARY PIN 680589 THRISSUR DISTRICT,THRISSUR,MANALITHARA,KERALA,9946394889
606,KERALA GRAMIN BANK,KLGB0040711,PULAKODE,"MANGALATH BUILDING,NEAR ALP SCHOOL,PULAKODE PO,THRISSUR",THRISSUR,PULAKODE,KERALA,9947827950
607,KERALA GRAMIN BANK,KLGB0040712,AZHIKODE,"MARWA TOWERS,VANKULATHUVAYAL,AZHIKODE PO,KANNUR DIST",KANNUR,AZHIKODE,KERALA,9961114685
608,KERALA GRAMIN BANK,KLGB0040713,VALLIVATTOM,"VAZHAPPULLY BUILDING,BRALAM JUNCTION,VALLIVATTOM PO,THRISSUR DIST",THRISSUR,VALLIVATTOM,KERALA,9846692411
609,KERALA GRAMIN BANK,KLGB0040714,IRAVON,"KOTTOOR PATHALIL BUILDINGS,PAYYANAMON PO,KONNI,PATHANAMTHITTA",PATHANAMTHITTA,IRAVON,KERALA,2242829
610,KERALA GRAMIN BANK,KLGB0040715,KANNAVAM,"KOLLIYIL COMPLEX,KANNAVAM,PO KANNOTH,DIST KANNUR",KANNUR,KANNAVAM,KERALA,9496423953
611,KERALA GRAMIN BANK,KLGB0040716,SHENI,"MAIRE PO,(VIA) PERLA,KASARAGOD DT",KASARAGOD,MAIRE,KERALA,9496832378
612,KERALA GRAMIN BANK,KLGB0040717,KALLIKKAD,THOPPIL COMPLEX KALLIKKAD MAILAKKARA P.O.TRIVANDRUM,THIRUVANANTHAPURAM,KALLIKKAD,KERALA,704810
613,KERALA GRAMIN BANK,KLGB0040718,PALLUR,"VADAKKEKKARA BUILDING, KODAPARA KONDAYUR, PALLUR PO, DESAMANGALAM, PIN-679532",THRISSUR,THRISSUR,KERALA,704810
614,KERALA GRAMIN BANK,KLGB0040719,VELLARIMALA,"VELLARIMALA PO, MEPPADI, WAYANAD-673577",WAYANAD,KALPETTA,KERALA,2704810
615,KERALA GRAMIN BANK,KLGB0040720,KURUMASSERY,"MALIYAKKAL BUILDING, ALUVA ROAD, KURUMASSERY, PIN-683579",ERNAKULAM,ALUVA,KERALA,2704810
616,KERALA GRAMIN BANK,KLGB0040721,KATTIPPARA,"IC AGRI TRADE CENTRE, KATTIPPARA PO KOZHIKKODE DT PIN 673573",KOZHIKKODE,KOZHIKKODE,KERALA,2270777
617,KERALA GRAMIN BANK,KLGB0040722,VATTAVADA,"PANCHAYATH OFFICE COMPLEX, VATTAVADA,SANTHANPARA IDUKKI DT, KERALA PIN 685619",IDUKKI,IDUKKI,KERALA,2704810
618,KERALA GRAMIN BANK,KLGB0040723,KANICHAR,PADICKAL COMPLEX KANICHAR PO KANNUR-670674,KANNUR,THALASSERY,KERALA,416723
619,KERALA GRAMIN BANK,KLGB0040724,NADUVIL TOWN,"KERELA GRAMIN BANK,NADUVIL TOWN BRANCH,ANTONY COMPLEX KUDIYANMALA ROAD NADUVIL, KANNUR 670586",KANNUR,NADUVIL,KERALA,2704810
620,KERALA GRAMIN BANK,KLGB0040725,PERUVALATH PARAMBA,"KERELA GRAMIN BANK,PERUVALATHA PARAMBA,IP-II/245,IRIKKUR,KANNUR",KANNUR,IRIKKUR,KERALA,2704810
621,KERALA GRAMIN BANK,KLGB0040726,VADAKKETHARA,"KERELA GRAMIN BANK,VALSA SHOPPING COMPLEX,BLDNG NO 1/804,VADAKKETHARA ,PAZHAYANNUR(P)THRISSUR",THRISSUR,THALAPPALLY,KERALA,2704810
622,KERALA GRAMIN BANK,KLGB0040727,PRAVITHANAM,CHOORANOLICKAL ARCADE ANTHINAD PRAVITHANAM KOTTAYAM DT PIN 686651,KOTTAYAM,KOTTAYAM,KERALA,2704810
623,KERALA GRAMIN BANK,KLGB0040728,CHERUMKUZHI,ANIKKAT BUILDING ASARIKKAD THRISSUR 680751,THRISSUR,THRISSUR,KERALA,2704810
624,KERALA GRAMIN BANK,KLGB0040729,ERAMALLOOR,"KERALA GRAMIN BANK ERAMALLOOR BRANCH, ESS VEES SHOPPING COMPLEX, ALAPPUZHA DIST.",ALAPPUZHA,ALAPPUZHA,KERALA,2704810
625,KERALA GRAMIN BANK,KLGB0040730,DHARMASALA,"KERALA GRAMIN BANK,OPP.POLICE FOOTBALL STADIUM MANGATTUPARAMBA,KANNUR -670562",KANNUR,KANNUR,KERALA,2704810
626,KERALA GRAMIN BANK,KLGB0040732,THIRUNELLY,AMRUTHA BUILDING THIRUNELLY TEMPLE POST MANANTHAVADY WAYANAD-670646,WAYANAD,MANANTHAVADY,KERALA,242434
627,KERALA GRAMIN BANK,KLGB0040733,KOCHUPALLY,"KERALA GRAMIN BANK, KAVIL BUILDING, KOCHUPALLY,PULLUVILA P.O THIRUVANANTHAPURAM",THIRUVANANTHAPURAM,KOCHUPALLY,KERALA,2704810
628,KERALA GRAMIN BANK,KLGB0040734,THOTTATHINKADAVU,"PERINCHERIL BUILDING,KALLURUTTY,KOZHIKODE,PIN 673582",KOZHIKODE,KOZHIKODE,KERALA,2566767
629,KERALA GRAMIN BANK,KLGB0040735,MEVADA,KAMALALAYAM BUILDING MEVADA PO KOTTAYAM PIN 686573,KOTTAYAM,KOTTAYAM,KERALA,2704810
630,KERALA GRAMIN BANK,KLGB0040736,MALIPURAM,BUILDING NUMBER VIII/803A ADIMATHARA BUILDINGS VP ROAD MALIPURAM ERNAKULAM PIN 682511,ERNAKULAM,ERNAKULAM,KERALA,704810
631,KERALA GRAMIN BANK,KLGB0040737,EDAKKALATHUR,"SARADAMMA SHOPPING COMPLEX, EDAKKALATHUR, EDAKKALATHUR PO,THRISSUR DT",THRISSUR,THRISSUR,KERALA,2566767
632,KERALA GRAMIN BANK,KLGB0040739,MUNDATHIKODE,"VAZHAPPILLY TOWER, MUNDATHIKODE CENTRE, MUNDATHIKODE PO, THRISSUR PIN- 680601",THRISSUR,THRISSUR,KERALA,2566767
633,KERALA GRAMIN BANK,KLGB0040740,VARAVOOR,AGC TOWER-4 PALACKAL JUNCTION VARAVOOR VARAVOOR PO THRISSUR DT,THRISSUR,THRISSUR,KERALA,2704810
634,KERALA GRAMIN BANK,KLGB0040741,TRIPALUR,J B BUILDING TRIPALUR PUTHIYANKAMM P O PALAKKAD DT,PALAKKAD,PALAKKAD,KERALA,2566767
635,KERALA GRAMIN BANK,KLGB0040742,THANNITHODE,THOMAS VARGHESE MEMORIAL BUILDINGS TP 11-425 E THANNITHODE PO PATHANAMTHITTA PIN-689699,PATHANAMTHITTA,PATHANAMTHITTA,KERALA,2566767
636,KERALA GRAMIN BANK,KLGB0040743,MANNANAM,"MANNANAM BRANCH,KMJ ARCADE,GURUMANDIRAM, MANNANAM P.O, KOTTAYAM DIST. PIN-686561",KOTTAYAM,KOTTAYAM,KERALA,2566767
637,KERALA GRAMIN BANK,KLGB0040744,PLASSANAL,"PLASSANAL BRANCH, T P 245-D E, ADHIKARAM ARCADE, PLASSANAL, PLASSANAL P.O, KOTTAYAM DIST-686579",KOTTAYAM,KOTTAYAM,KERALA,2566767
638,KERALA GRAMIN BANK,KLGB0040745,VALLIKODE KOTTAYAM,VETTUVELIL BUILDING PGP XV/228A PATHANAMTHITTA DIST PIN 685696,PATHANAMTHITTA,PATHANAMTHITTA,KERALA,2306444
639,KERALA GRAMIN BANK,KLGB0040747,CHERUKOLE,LOYAL BUILDING CHERUKOLE PO KOLENCHERRY,PATHANAMTHITTA,PATHANAMTHITTA,KERALA,2566767
640,KERALA GRAMIN BANK,KLGB0040748,VALLICHIRA,VETTIKKATTU MATHEW AND ANNAMMA MEMORIAL BUILDING VAIKOM PALAI ROAD VALLICHIRA P OPALAI PIN 686574,KOTTAYAM,KOTTAYAM,KERALA,2566767
641,KERALA GRAMIN BANK,KLGB0040749,RODUVILA,CENTRE POINT BUILDING RODUVILA CHERIYAVELLINALLUR P O KOLLAM,KOLLAM,KOLLAM,KERALA,2566767
642,KERALA GRAMIN BANK,KLGB0040750,MUTHUVILA,"MUTHUVILA BRANCH, SN BUILDING, MUTHUVILA P.O,TRIVANDRUM PIN- 695610",THIRUVANANTHAPURAM,THIRUVANANTHAPURAM,KERALA,2566767
643,KERALA GRAMIN BANK,KLGB0040751,ANAYADI,VILAYIL KESAVA KURUP MEMORIAL BUILDING ANAYADI PO SOORANAD VIA KOLLAM,KOLLAM,KOLLAM,KERALA,2566767
644,KERALA GRAMIN BANK,KLGB0040752,PUNNALA,THUNDIL BUIDING PUNNALA PO KOLLAM,KOLLAM,KOLLAM,KERALA,2566767
645,KERALA GRAMIN BANK,KLGB0040753,KALLUVATHUKKAL,ADONAI BUILDING KALLUVATHUKKAL PO KOLLAM DT PIN 691578,KOLLAM,KOLLAM,KERALA,2566767
646,KERALA GRAMIN BANK,KLGB0040754,UMMANOOR,BUILDING NO- 634/15 UMMANOOR KOTTARAKARA,KOLLAM,KOTTARAKARA,KERALA,2704810
