,BANK NAME,IFSC,OFFICE,ADDRESS,DISTRICT,CITY,STATE,PHONE
0,ESAF SMALL FINANCE BANK LIMITED,ESMF0000001,RTGS-HO,"HEPZIBAH COMPLEX, SECOND FLOOR NO X/101/M4, MANNUTHY P.O, THRISSUR , KERALA 680651",THRISSUR,MANNUTHY,KERALA,8046443723
1,ESAF SMALL FINANCE BANK LIMITED,ESMF0001101,HO MIGRATION,"PMO OFFICE, SREE BHADRA COMPLEX, MANNUTHY P O, THRISSUR - 680651",THRISSUR,MANNUTHY,KERALA,8046443723
2,ESAF SMALL FINANCE BANK LIMITED,ESMF0001102,KALATHODE,"V/140/(2) GROUND FLOOR, JSR SQUARE BUILDING, KALATHODE, OLLUKKARA, THRISSUR DISTRICT. PIN 680655",THRISSUR,KALATHODE,KERALA,8046443723
3,ESAF SMALL FINANCE BANK LIMITED,ESMF0001103,EDAPALLY,"38/211 A, GRACE TOWER, NEAR EDAPPALLY BYE PASS JUNCTION, EDAPPALLY, ERNAKULAM DISTRICT. PIN 682204",ERNAKULAM,EDAPALLY,KERALA,8046443723
4,ESAF SMALL FINANCE BANK LIMITED,ESMF0001104,KOLLENGODE,"XIV/579, GROUND FLOOR, SAFA TOWER, NEAR SAI MEDICAL CENTRE, PAYYALORE, KOLLENGODE, PALAKKAD DITRICT PIN 678506",PALAKKAD,KOLLENGODE,KERALA,8046443723
5,ESAF SMALL FINANCE BANK LIMITED,ESMF0001105,PALA,"THE MELHOR BUILDING,GOUND FLOOR, ROOM NO 372, A1, NEAR RTO OFFICE ,CHETHIMATTOM, PALA, KOTTAYAM PIN 686575",KOTTAYAM,PALA,KERALA,8046443723
6,ESAF SMALL FINANCE BANK LIMITED,ESMF0001106,VALKULAMBU,"GROUND FLOOR,NEAR MMUP SCHOOL,VALKULAMBU,KORENCHIRA PO,KIZHEKKENCHERY,PALAKKAD PIN 678684",PALAKKAD,VALKULAMBU,KERALA,8046443723
7,ESAF SMALL FINANCE BANK LIMITED,ESMF0001107,KATTAPANA,"34KP1/1110 CSI SHOPPING COMPLEX,NEAR EMPLOYMENT EXCHANGE,PALLIKAVALA KATTAPANA,IDUKKI DISTRICT.PIN 685508",IDUKKI,KATTAPANA,KERALA,8046443723
8,ESAF SMALL FINANCE BANK LIMITED,ESMF0001108,KOZHIKODE,"6/140 A, GROUND FLOOR, GRAND ARCADE, NEAR CHRISTIAN COLLEGE, KANNUR ROAD, NADAKKUV, KOZHIKODE DISTRICT PIN 673011",KOZHIKODE,KOZHIKODE,KERALA,8046443723
9,ESAF SMALL FINANCE BANK LIMITED,ESMF0001109,PALAKKAD,"ROOM NO A3/3163/15,GROUND FLOOR , OPP VGUARD STOCKIST , NH CHANDRA NAGAR, PALAKKAD PIN 678007",PALAKKAD,PALAKKAD,KERALA,8046443723
10,ESAF SMALL FINANCE BANK LIMITED,ESMF0001110,PERINTHALMANNA,"14/32/6 METRO TOWER,GROUND FLOOR,JUBILEE JUNCTION,NEAR METRO,REGENCY,PATTAMBI ROAD,PERINTHALMANNA PIN 679322",IDUKKI,PERINTHALMANNA,KERALA,8046443723
11,ESAF SMALL FINANCE BANK LIMITED,ESMF0001111,PERUMBAVOOR,"20/1170 A, NEAR JACOBITE CHURCH, KOTTAYAM ROAD, PERUMBAVOOR, PIN 683542",ERNAKULAM,PERUMBAVOOR,KERALA,8046443723
12,ESAF SMALL FINANCE BANK LIMITED,ESMF0001112,ADIMALY,"1132, 1ST FLOOR, VALIYAPARAMBIL COMPLEX, NH-49, ADIMALY, IDUKKI DISTRICT, PIN 685561",IDUKKI,ADIMALY,KERALA,8046443723
13,ESAF SMALL FINANCE BANK LIMITED,ESMF0001113,ALATHUR,"XV/ 1053,XV/ 1054,GF,TRICHUR TOWER,NEAR ALATUR COURT,COURT ROAD,ALATHUR,PALAKKAD 678541",PALAKKAD,ALATHUR,KERALA,8046443723
14,ESAF SMALL FINANCE BANK LIMITED,ESMF0001114,MUVATTUPUZHA,"26/76,E,F GROUND FLOOR,PEARL TOWER,NEAR SIGNAL JUNCTION,VELLOORKUNNAM,MUVATTUPUZHA PIN 686661",ERNAKULAM,MUVATTUPUZHA,KERALA,8046443723
15,ESAF SMALL FINANCE BANK LIMITED,ESMF0001115,THIRUVALLA,"XXVI 185/1, PULIMATTATHU BUILDING, RAMANCHIRA, MUTHOOR P.O MC ROAD, THIRUVALLA, PIN 689107",PATHANAMTHITTA,THIRUVALLA,KERALA,8046443723
16,ESAF SMALL FINANCE BANK LIMITED,ESMF0001116,AVANAVANCHERY,"NO VIII/165/2 GROUND FLOOR, CHIRAYIL BUILDING, ATTINGAL - AVANVANCHERRY (PART), AVANAVANCHERRY P O ATTINGAL THIRUVANANTHAPURAM DISTRICT PIN 695101",THIRUVANANTHAPURAM,AVANAVANCHERY,KERALA,8046443723
17,ESAF SMALL FINANCE BANK LIMITED,ESMF0001117,EDAMUTTAM,"SY NO 583.NEAR IOC PETROL PUMP,NH 17,EDAMUTTOM,THRISSUR 680568",THRISSUR,EDAMUTTAM,KERALA,8046443723
18,ESAF SMALL FINANCE BANK LIMITED,ESMF0001118,KODUNGALLUR,"NO 197, 198, 199, 200, GROUND FLOOR, EDISON COMPEX, NORTH PARAVUR ROAD, KODUNGALLUR, THRISSUR DISTRICT PIN 680664",THRISSUR,KODUNGALLUR,KERALA,8046443723
19,ESAF SMALL FINANCE BANK LIMITED,ESMF0001119,KOLENCHERY,"IV/651, 652, 649, GROUND FLOOR, SANTHI PARK APPARTMENTS, MADURAI KOCHI ROAD, KOLENCHERRY JUNCTION, ERNAKULAM DISTRICT PIN 682311",ERNAKULAM,KOLENCHERY,KERALA,8046443723
20,ESAF SMALL FINANCE BANK LIMITED,ESMF0001120,VALANCHERY,"SURVEY NO 338/5/6,GF,RAHATH ANNEX,KUTTIPURAM ROAD,VALANCHERY,MALAPPURAM 676552",MALAPPURAM,VALANCHERY,KERALA,8046443723
21,ESAF SMALL FINANCE BANK LIMITED,ESMF0001121,CHALAKUDY,"GROUND FLOOR, MERCHERRY PLAZA, NEAR NORTH BUS STAND, CHALAKUDY, THRISSUR DISTRICT PIN 680307",THRISSUR,CHALAKUDY,KERALA,8046443723
22,ESAF SMALL FINANCE BANK LIMITED,ESMF0001122,IRINJALAKUDA,"NEW NO 20/237,GROUND FLOOR,TROJAN TOWERS,OPP ST THOMAS CATHEDRAL,CHANDAMUKHU JUNCTION,IRINJALAKUDA,THRISSUR DISTRICT.PIN 680121",THRISSUR,IRINJALAKUDA,KERALA,8046443723
23,ESAF SMALL FINANCE BANK LIMITED,ESMF0001123,MALAPPURAM,"10/89, 10/90, 10/91, GROUND FLOOR , U M K TOWER, JUBILEE ROAD, BYPASS-UPHILL, MALAPPURAM PIN- 676505",MALAPPURAM,MALAPPURAM,KERALA,8046443723
24,ESAF SMALL FINANCE BANK LIMITED,ESMF0001124,MARADU,"RAGAM,DOOR NO 10106,MARADU,ERNAKULAM 682304",ERNAKULAM,MARADU,KERALA,8046443723
25,ESAF SMALL FINANCE BANK LIMITED,ESMF0001125,POOPARA,"NO 4/313 GROUND FLOOR, KUMALI MUNNAR ROAD, SANTHANPARA, POOPARA, IDUKKI DTISTRICT 685619",IDUKKI,POOPARA,KERALA,8046443723
26,ESAF SMALL FINANCE BANK LIMITED,ESMF0001126,KOTHAMANGALAM,"WARD NO 2/368, MM TOWERS, ALUVA MUNNAR BYPASS, MALAYINKEEZHU JUNCTION, KOTHAMANGALAM, ERNAKULAM DISTRICT PIN 686691",ERNAKULAM,KOTHAMANGALAM,KERALA,8046443723
27,ESAF SMALL FINANCE BANK LIMITED,ESMF0001127,KOTTAKKAL,"13/832,SURVEY NO SV-104/1,MAS BUILDING,EDARIKODE,THIRURANGADI,MALAPPURAM 676501",MALAPPURAM,KOTTAKKAL,KERALA,8046443723
28,ESAF SMALL FINANCE BANK LIMITED,ESMF0001128,MUKKAM,"1/829 A/829/829C, GROUND FLOOR, K V COMPLEX, MUKKAM, KOZHIKODE DISTRIT PIN 673602",KOZHIKODE,MUKKAM,KERALA,8046443723
29,ESAF SMALL FINANCE BANK LIMITED,ESMF0001129,NORTH PARAVOOR,"VITHAYAHIL SQUARE,SY NO 245/2 B.NEAR KMK JUNCTION,PARAVUR-CHERAI ROAD,PARAVUR,ERNAKULAM 683513",ERNAKULAM,NORTH PARAVOOR,KERALA,8046443723
30,ESAF SMALL FINANCE BANK LIMITED,ESMF0001130,VENNIKULAM,"309/1-3-1, THADATHIL BUILDING, VENNIKULAM , PURAMATTOM,PATHANAMTHITTA DISTRICT PIN 689544",PATHANAMTHITTA,VENNIKULAM,KERALA,8046443723
31,ESAF SMALL FINANCE BANK LIMITED,ESMF0001131,KOLLAM,"RESURVEY NO 462/1/3/2,462/2/2/2,462/1/2/1,GF A AND S TOWERS,KALLUMTHAZHUM JN,KOLLAM -691 004",KOLLAM,KOLLAM,KERALA,8046443723
32,ESAF SMALL FINANCE BANK LIMITED,ESMF0001132,KOTTAYAM,"ADITHYA COMMERICAL ARCADE,GROUND AND FIRST FLOOR, NO XVI/118B, 118H, MC ROAD, KOTTAYAM KOTTAYAM DISTRICT PIN 686001",KOTTAYAM,KOTTAYAM,KERALA,8046443723
33,ESAF SMALL FINANCE BANK LIMITED,ESMF0001133,KOZHINJAMPARA,"VII/613-620, GROUND FLOOR, KAT SWAMY COMPLEX, NEAR AR KALYANAMANDAPAM , POLLACHI ROAD, KOZHINJAMPAR, PALAKKAD DISTRICT PIN 678555",PALAKKAD,KOZHINJAMPARA,KERALA,8046443723
34,ESAF SMALL FINANCE BANK LIMITED,ESMF0001134,OTTAPALAM,"XVII/434, GROUND FLOOR, ASCO TOWER, PALAKKAD ROAD, OTTAPALAM, PIN 679101",PALAKKAD,OTTAPALAM,KERALA,8046443723
35,ESAF SMALL FINANCE BANK LIMITED,ESMF0001135,PATTAMBI,"6/657, KOPAN COMMERCIAL CENTRE, PALAKKAD MAIN ROAD, PATTAMBI, PALAKKAD DISTRICT PIN 679306",PALAKKAD,PATTAMBI,KERALA,8046443723
36,ESAF SMALL FINANCE BANK LIMITED,ESMF0001136,KUZHALMANNAM,"NO XV 381 GROUND FLOOR,KANNANUR JUNCTION,KANNADI",PALAKKAD,PALAKKAD,KERALA,8046443723
37,ESAF SMALL FINANCE BANK LIMITED,ESMF0001137,CHANGARAMKULAM,"16 441,16 442 GROUND FLOOR,GLASCO TOWER,CHANGARAMKULAM MAIN ROAD,MALAPPURAM DISTRICT,PIN 679574",MALAPPURAM,PONNANI,KERALA,8046443723
38,ESAF SMALL FINANCE BANK LIMITED,ESMF0001138,CHENGALAM EAST,"ROOM NO 292,GROUND FLOOR,ST ANTONYS SHOPPING COMPLEX,CHENGALAM PAIGA ROAD,KOTTAYAM DISTRICT.PIN 686585",KOTTAYAM,CHENGALAM EAST,KERALA,8046443723
39,ESAF SMALL FINANCE BANK LIMITED,ESMF0001139,ELAYAMUTHUR,"101/2,GROUND FLOOR,NEAR MOSQUE,KALLAPURAM ROAD,ELAYAMUTHUR,TRIUPPUR DISTRICT,TAMILNADU.PIN 642154",TIRUPPUR,ELAYAMUTHUR,TAMIL NADU,8046443723
40,ESAF SMALL FINANCE BANK LIMITED,ESMF0001140,POOMALAIKUNDU,"NO.189/1B,GROUND FLOOR,DHARMAPURI KOTTUR MAIN ROAD,POOMALAIKUNDU,DHARMAPURI.THENI DISTRICT,TAMILNADU,PIN 625520",THENI,POOMALAIKUNDA,TAMIL NADU,8046443723
41,ESAF SMALL FINANCE BANK LIMITED,ESMF0001141,THALASSERY TCR,"SURVEY NO 24 P,NEAR GOVT SCHOOL,THALASSERY DESAMANGALAM ROAD,THALASSERY,THRISSUR DISTRICT,PIN 679532",THRISSUR,WADAKKANCHERY,KERALA,8046443723
42,ESAF SMALL FINANCE BANK LIMITED,ESMF0001142,THIRUVANANTHAPURAM BAKERY JN,"MARVALLIL,DRKOSHY BUILDING,TC 29 4013 1,GROUND FLOOR NEAR BAKERY FLYOVER,THYCAUD PO PANAVILA THIRUVANANTHAPURAM,PIN 695014",THIRUVANANTHAPURAM,THIRUVANANTHAPURAM,KERALA,8046443723
43,ESAF SMALL FINANCE BANK LIMITED,ESMF0001143,THODUPUZHA,"KURUTHUKULAM ARCADE,KANJIRAMATTAM BYPASS RD,OPP KSRTC BUS STAND,THODUPUZHA 685584",IDUKKI,THODUPUZHA,KERALA,8046443723
44,ESAF SMALL FINANCE BANK LIMITED,ESMF0001144,THUNERI,"NO 5/328 AND 328A,GROUND FLOOR,NEAR RATION SHOP,THUNERI,OOTY,NILGIRI DISTRICT,TAMIL NADU PIN 643002",NILGIRIS,THUNERI,TAMIL NADU,8046443723
45,ESAF SMALL FINANCE BANK LIMITED,ESMF0001145,UZHAVOOR,"222 5,PUTHIYAKUNNEL BUILDINGS,NEAR ST STEPHENS CHURCH,UZHAVOOR,KOTTAYAM DISTRICT,PIN 686634",KOTTAYAM,UZHAVOOR,KERALA,8046443723
46,ESAF SMALL FINANCE BANK LIMITED,ESMF0001146,VADAKKUMBHAGOM,"NO 466 A1,2,3SIVASAKTHI SHOPPING CENTRE,VADAKKUMBHAGOM VILLAGE,THRISSUR DISTRICT,PIN 680731",THRISSUR,MUKUNDAPURAM,KERALA,8046443723
47,ESAF SMALL FINANCE BANK LIMITED,ESMF0001147,VATTAVADA,"78 NEAR KOVILOOR POST OFFICE,KOVILOOR,KODEKANAL ROAD,VATTAVA,IDUKKI DISTRICT,PIN 685615",IDUKKI,DEVIKULAM,KERALA,8046443723
48,ESAF SMALL FINANCE BANK LIMITED,ESMF0001148,ANDHERI EAST,"UNIT NO15,OPTIONS PRIMO MAROL INDUSTRIAL AREA,MIDC CROSS ROAD,NUMBER 21,NEAR VIJAY NAGAR FLYOVER BRIDGE,ANDHERI EAST,MUMBAI,MAHARASHTRA 400093",MUMBAI,MUMBAI,MAHARASHTRA,8046443723
49,ESAF SMALL FINANCE BANK LIMITED,ESMF0001149,INCHAMUDI,"SURVEY NO239 1,CHERPU THRIPRAYAR ROAD,CHIRAKKAL JN,INCHAMUDI,THRISSUR 680564",THRISSUR,ANTHIKKAD,KERALA,8046443723
50,ESAF SMALL FINANCE BANK LIMITED,ESMF0001150,PALAVAYAL,"8 516 A,B,C,D,OPPST JOHNS HS SCHOOL PALAVAYAL PO,KASARGOD 670511",KASARGOD,PALAVAYAL,KERALA,8046443723
51,ESAF SMALL FINANCE BANK LIMITED,ESMF0001151,THAYYUR,"SARIGA COMPLEX,415 2P,THAYYUR,THRISSUR 680584",THRISSUR,TALAPILLY,KERALA,8046443723
52,ESAF SMALL FINANCE BANK LIMITED,ESMF0001152,KINALUR,"7 158 C KINALUR,NEAR EZHUKANDI JUNCTION,THAMARASSERY,KOZHIKODE 673612",KOZHIKODE,THAMARASSERY,KERALA,8046443723
53,ESAF SMALL FINANCE BANK LIMITED,ESMF0001153,THRIPUNITHURA,"SY NO 116 3,SRISHTI BUILDING NEAR POLICE STATION,VAIKOM ROAD,THRIPUNITHARA 682301",ERNAKULAM,THRIPUNITHURA,KERALA,8046443723
54,ESAF SMALL FINANCE BANK LIMITED,ESMF0001154,ADOOR,"SURVEY NO 153 16AND148 25 1,NEAR FIRE STATION,M C ROAD,ADOOR,PATHANAMTHITTA 689693",PATHANAMTHITTA,ADOOR,KERALA,8046443723
55,ESAF SMALL FINANCE BANK LIMITED,ESMF0001155,THRISSUR-PATTURAICKAL,"PRASAD ARCADE,GROUND FLOOR,SY NO 1610 3P,OPPOSITE CMI DEVAMATHA PROVINCIAL HOUSE,SHORNUR ROAD,PATTURAIKKAL,THRISSUR 680022",THRISSUR,THRISSUR,KERALA,8046443723
56,ESAF SMALL FINANCE BANK LIMITED,ESMF0001156,THRISSUR M G ROAD,"SY NO1422 1 ROOM NO25 469 6 13,POOMA COMPLEX,NEAR NADUVILAL JUNCTION,M G ROAD,THRISSUR 680 001",THRISSUR,THRISSUR,KERALA,8046443723
57,ESAF SMALL FINANCE BANK LIMITED,ESMF0001157,ANAVIRATTY,"GROUND FLOOR,DOOR NO 14 349 SURVEY NO 355 4,KAMBILINE JUNCTION,ANAVIRATTY P O,IDUKKI DITRICT PIN 628057",IDUKKI,ANAVIRATTY,KERALA,8046443723
58,ESAF SMALL FINANCE BANK LIMITED,ESMF0001158,KANJIRAPPALLY,"GROUND FLOOR,8 399 A2 A3,TRADE CENTRE,NEAR HP PETROL PUMP,MYCA JUNCTION,KANJIRAPALLY,KOTTAYAM DISTRICT PIN 686512",KOTTAYAM,KANJIRAPPALLY,KERALA,8046443723
59,ESAF SMALL FINANCE BANK LIMITED,ESMF0001159,KANNUR,"GROUND FLOOR,TTN 9,794,PRAKANS BUILDING,THAVAKARRA,KANNUR,KANNUR 670002",KANNUR,KANNUR,KERALA,8046443723
60,ESAF SMALL FINANCE BANK LIMITED,ESMF0001160,KIRALUR -TCR,"DOOR NO 8 553 E,SY NO 203 1P KIRALUR VILLIAGE,THALAPPILLY THALUK,THRISSUR DIST,PIN 680601",THRISSUR,THALAPILLY,KERALA,8046443723
61,ESAF SMALL FINANCE BANK LIMITED,ESMF0001161,KEEZHANTHUR MARAYUR,"DOOR NO 3 239,SV NO 449 9,KOCHUMALAYIL HOUSE,KEEZHANTHOOR,KANTHALOOR P O,IDUKKI DIST,PIN 685620",IDUKKI,KANTHALOOR,KERALA,8046443723
62,ESAF SMALL FINANCE BANK LIMITED,ESMF0001162,KOOTHATTUKULAM,"GROUND FLOOR,SY NO 605 3 1,604 2,JOHNS TOWER,NEAR BSNL OFFICE,JB JUNCTION,MC ROAD,KOOTHATTUKULAM,ERNAKULAM DIST,PIN 686662",ERNAKULAM,KOOTHATTUKULAM,KERALA,8046443723
63,ESAF SMALL FINANCE BANK LIMITED,ESMF0001163,MANANTHAVADI,"GROUND FLOOR,70 1,71,68 ZAIAIA3 AND 68 2 B,SQUARE MALL,MYSORE ROAD,MANANTHAVADY,WAYANAD DIST PIN 670645",WAYANAD,MANANTHAVADI,KERALA,8046443723
64,ESAF SMALL FINANCE BANK LIMITED,ESMF0001164,MANARCAD,"VETTIKUNNEL ARCADE,NEAR BEST BAKERY,MANARCAD PUTHUPALLY BYPASS ROAD,KOTTAYAM 686019",KOTTAYAM,MANARCAD,KERALA,8046443723
65,ESAF SMALL FINANCE BANK LIMITED,ESMF0001165,MANJERI,"GROUND FLOOR,16 811 822,V K BUILDING,MANJERI NILAMBUR ROAD,MANJERI,MALAPPURAM DISTRICT PIN 676121",MALAPPURAM,MANJERI,KERALA,8046443723
66,ESAF SMALL FINANCE BANK LIMITED,ESMF0001166,Kasaragod,"New Stylo Complex, Near Police Station, Kasaragod",Kasaragod,Kasaragod,KERALA,8046443723
67,ESAF SMALL FINANCE BANK LIMITED,ESMF0001167,NILAMBUR,"83 A,GROUND FLOOR,SK TOWER,NEAR MUNICIPAL BUS STAND,NILAMBUR,MALAPPURAM DISTRICT PIN 679329",MALAPPURAM,NILAMBUR,KERALA,8046443723
68,ESAF SMALL FINANCE BANK LIMITED,ESMF0001168,PALAKKAD - TOWN,"GROUND FLOOR,18 763 2,AHAMED SQUARE,NEAR KSRTC STAND,KSRTC LINK ROAD,DPO JUNCTION,PALAKKAD,PIN 678007",PALAKKAD,PALAKKAD,KERALA,8046443723
69,ESAF SMALL FINANCE BANK LIMITED,ESMF0001169,POZHUTHANA,"GROUND FLOOR,ROOM NO 10 330 C D E,KPM BUILDING,NEAR POZHUTHANA TOWN BUS STOP,VYTHIRI 6TH MILE ROAD,WAYANAD DIST PIN 673 575",WAYANAD,VYTHIRI,KERALA,8046443723
70,ESAF SMALL FINANCE BANK LIMITED,ESMF0001170,RAIPUR,"GROUND FLOOR,G 32,GASIDAS PLAZA,AMAPARA CHAWK,GE ROAD RAIPUR,CHHATTISGARH 492001",RAIPUR,RAIPUR,CHHATTISGARH,8046443723
71,ESAF SMALL FINANCE BANK LIMITED,ESMF0001171,THIRUVANATHAPURAM- VANCHIYOOR,"GROUND FLOOR,TC 82 1779,VIGNESH TOWER,OPP HOLY ANGELS SCHOOL,CONVENT ROAD,VANCHIYOOR,THIRUVANANTHAPURAM PIN 695035",THIRUVANANTHAPURAM,THIRUVANANTHAPURAM,KERALA,8046443723
72,ESAF SMALL FINANCE BANK LIMITED,ESMF0001172,KORAMANGALA,"GOLDEN HOUSE,820,8TH BLOCK,GANAPATI TEMPLE ROAD KORAMANGLA,BANGALORE",BANGALORE URBEN,BANGALORE,KARNATAKA,8046443723
73,ESAF SMALL FINANCE BANK LIMITED,ESMF0001173,KAROLBAGH,"HOUSE NO PLOT NO R 03 BLOCK C 5,GROUND FLOOR,KAROL BAGH,NEW ROHTAK ROAD,NORTH DELHI,DELHI",CENTRAL DELHI,DELHI,DELHI,8046443723
74,ESAF SMALL FINANCE BANK LIMITED,ESMF0001174,KURUVILANGAD,"GROUNDFLOOR,NIDHIRY BAZAR,NEAR PANCHAYATH OFFICE,KURUVILANGAD CENTRAL JN,MC ROAD,KURUVILANGADU,KOTTAYAM.",KOTTAYAM,KOTTAYAM,KERALA,8046443723
75,ESAF SMALL FINANCE BANK LIMITED,ESMF0001175,RANNI,"THANNIMOOTTIL BUILDING,GROUND FLOOR,NEAR SC UP SCHOOL,PAZHAVANGADI,PUNALUR MUVATTUPUZHA ROAD,RANNI,PATHANAMTHITTA",PATHANAMTHITTA,PATHANAMTHITTA,KERALA,8046443723
76,ESAF SMALL FINANCE BANK LIMITED,ESMF0001176,PASCHIM VIHAR,"14 474GROUND FLOOR,SUNDER VIHAR,PASCHIM VIHAR,NORTH DELHI",WEST DELHI,NORTH DELHI,DELHI,8046443723
77,ESAF SMALL FINANCE BANK LIMITED,ESMF0001177,DUMKA,"NO11 35,WARD NO 13,PLOT NO72 76,NEAR TEEN BAZAR CHOWK,BHAGALPUR ROAD,DUMKA,JHARKHAND",DUMKA,DUMKA,JHARKHAND,8046443723
78,ESAF SMALL FINANCE BANK LIMITED,ESMF0001178,COIMBATORE,"GROUND FLOOR,NADAR BUILDING NO 1371,TRICHY ROAD,COIMBATORE",COIMBATORE,COIMBATORE,TAMIL NADU,8046443723
79,ESAF SMALL FINANCE BANK LIMITED,ESMF0001179,NEW DELHI -ROHINI,"NO15,BLOCK AND POCKET F 26,SECTOR 7,ROHINI,DELHI",NORTH WEST DELHI,DELHI,DELHI,8046443723
80,ESAF SMALL FINANCE BANK LIMITED,ESMF0001180,LAJPAT NAGAR,"NO L110ANDL111,GROUND FLOOR,NEAR RING ROAD,LAJPAT NAGAR11,NEW DELHI",SOUTH DELHI,NEW DELHI,DELHI,8046443723
81,ESAF SMALL FINANCE BANK LIMITED,ESMF0001181,PALARIVATTOM,"GROUND FLOOR,POCUDYIL BUILDING,32 2496,A,BNEAR SL PLAZA,PALARIVATTOM,KOCHIN",ERNAKULAM,KOCHIN,KERALA,8046443723
82,ESAF SMALL FINANCE BANK LIMITED,ESMF0001182,ETTUMANOOR,"GROUND FLOOR,CHIRAYIL ARCADE,ETTUMANOOR,KOTTAYAM",KOTTAYAM,KOTTAYAM,KERALA,8046443723
83,ESAF SMALL FINANCE BANK LIMITED,ESMF0001183,ELAMKULAM,"GROUND FLOOR,ST MARYS TOWER,SA ROAD,ELAMKULAM,ERNAKULAM 682020",ERNAKULAM,ERNAKULAM,KERALA,8046443723
84,ESAF SMALL FINANCE BANK LIMITED,ESMF0001184,CHEMMANTHATTA,"GROUND FLOOR AND FIRST FLOOR,KIZHAKEETHIL BUILDING,NEAR GOVERMENT SCHOOL,PAZHU",THISSUR,THRISSUR,KARNATAKA,8046443723
85,ESAF SMALL FINANCE BANK LIMITED,ESMF0001185,PILAKKAD,"SVY NO. 54 12,54 13,RABEEH TOWER,PILAKKAD JN,THALI ROAD,THRISSUR 680585",THISSUR,THRISSUR,KERALA,8046443723
86,ESAF SMALL FINANCE BANK LIMITED,ESMF0001186,CHANGANASSERY,"15 139 A,SWEETY BUILDING,LAIKKAD BUS STOP,PERUNNA,CHANGANASSERY 686102",KOTTAYAM,KOTTAYAM,KERALA,8046443723
87,ESAF SMALL FINANCE BANK LIMITED,ESMF0001187,MALLAPALLY,"GROUND FLOOR,VATTASSERIL PLAZA,THEATRE JUNCTION,MALLAPPALLY-THIRUVALLA ROAD,PATHANAMTHITTA-689585",PATHANAMTHITTA,MALLAPALLY,KERALA,8046443723
88,ESAF SMALL FINANCE BANK LIMITED,ESMF0001188,PATHANAMTHITTA,"KUZHIYIL GEEVS ARCADE,SV NO P-168,12-3,POLICE STATION ROAD,OPPOSITE MARKET,PATHANAMTHITTA,PIN689645",PATHANAMTHITTA,PATHANAMTHITTA,KERALA,8046443723
89,ESAF SMALL FINANCE BANK LIMITED,ESMF0001189,CHERTHALA,"JT TRADE CENTRE,NEAR X RAY JUNCTION,TSC ROAD,ALLEPPY CHERTHALA ROAD,ALLEPPY688524",ALAPPUZHA,ALAPPUZHA,KERALA,8046443723
90,ESAF SMALL FINANCE BANK LIMITED,ESMF0001190,PERUMTHATTA,"PVP-13,144,145,147,SYNO-1,4,B,KOTTAYEN,ARAVANCHAL BUS STOP,PAYYANUR RAJAGIRI ROAD,PERINTHATTA,THALIPARAMBA,KANNUR-670353",KANNUR,THALIPARAMBA,KERALA,8046443723
91,ESAF SMALL FINANCE BANK LIMITED,ESMF0001191,THATHAMANGALAM,"KRISHAN,SY NO 494,48,1290 SQFT,NEAR BHAJANA MADAM,SH 27,CHITTUR-KOZHINJAMPARA ROAD.THATHAMANGALAM,PIN-678102",PALAKKAD,THATHAMANGALAM,KERALA,8046443723
92,ESAF SMALL FINANCE BANK LIMITED,ESMF0001192,KUPPADITHARA,"THOPPIL BUILDINGS, GROUND FLOOR, 6/160, CHERIANKOLLY KUPPADITHARA ROAD, CHERIANKOLLY, KUPPADITHARA, WAYANAD 670645",WAYANAD,KUPPADITHARA,KERALA,8046443723
93,ESAF SMALL FINANCE BANK LIMITED,ESMF0001193,VIRUPAKKA,"RABIYA TOWER,SURVEY NO 79,4,VIRUPAKKA,VAZHANI PO,THRISSUR-680589",THISSUR,VAZHANI,KERALA,8046443723
94,ESAF SMALL FINANCE BANK LIMITED,ESMF0001194,RANCHI,"DOOR NO-2,3,MANORANJAN APARTMENTS,KADRU MAIN ROAD,RANCHI,JHARKHAND-834002",RANCHI,RANCHI,JHARKHAND,8046443723
95,ESAF SMALL FINANCE BANK LIMITED,ESMF0001195,VIJAYAWADA,"GROUND FLOOR,40-9/1-24,119/1B,3B,OPPOSITE TO PARADISE HOTEL,BENZ CIRCLE,BENZ CIRCLE ROAD,VIJAYAWADA",KRISHAN,VIJAYAWADA,ANDHRA PRADESH,8046443723
96,ESAF SMALL FINANCE BANK LIMITED,ESMF0001196,BHUBANESHWAR,"GROUND FLOOR 123,3531,4999 JAYDEV VIHAR BANK LINE JAYDEV VIHAR JAYDEV VIHAR ROAD BHUBANESHWAR",KHURDA,BHUBANESHWAR,ODISHA,8046443723
97,ESAF SMALL FINANCE BANK LIMITED,ESMF0001197,ALAPUZHA,"KAINAKARI BUILDING GROUND FLOOR AND FIRST FLOOR,15,492D,BL 04,27 GF AND 1329 SQ FEET FIRST FLOOR,NEAR TO POWER HOUSE,SHAVAKOTTAPALAM,ERNAKULAM ALAPUZHA ROAD,ALAPUZHA PIN 688007",ALAPUZHA,ALAPUZHA,KERALA,8046443723
98,ESAF SMALL FINANCE BANK LIMITED,ESMF0001198,KANHANGAD,"BASKAR MEETHAL TOWER,OPP NEW BUS STAND,ALAMIPALLY,KANHANGAD,KASARAGOD 671315",KASARGODE,KANHANGAD,KERALA,8046443723
99,ESAF SMALL FINANCE BANK LIMITED,ESMF0001199,VADAKARA,"977,D,OPP YATHEEM KHANA,VALIAPALLY P O,VADAKARA,KOZHIKODE DIST 673542",KOZHIKODE,VADAKARA,KERALA,8046443723
100,ESAF SMALL FINANCE BANK LIMITED,ESMF0001200,KAYAMKULAM,"GREEN GARDEN BUILDINGS,PUTHIYIDAM,KAYAMKULAM 676505,ALAPUZHA DISTRICT",ALAPUZHA,KAYAMKULAM,KERALA,8046443723
101,ESAF SMALL FINANCE BANK LIMITED,ESMF0001201,TIRUR,"NEDIYODATH BUILDING,THRIKKANDIYOOR,NEAR GOVT HOSPITAL,TIRUR 676101,MALAPPURMA DISTRICT",MALAPPURMA,TIRUR,KERALA,8046443723
102,ESAF SMALL FINANCE BANK LIMITED,ESMF0001202,VATTIYOORKAVU,"10,111 BHASKARA TOWERS,NEAR SARASWATHY SCHOOL,ARAPPURA JN,VATTIYOORKAVU,TRIVANDRUM 695013",TRIVANDRM,VATTIYOORKAVU,KERALA,8046443723
103,ESAF SMALL FINANCE BANK LIMITED,ESMF0001203,CHAVAKKAD,"VISMA PALM,OVUNGAL PALLY,CHAVAKAD,THRISSUR DISTRICT PIN 680506",THRISSUR,CHAVAKKAD,KERALA,8046443723
104,ESAF SMALL FINANCE BANK LIMITED,ESMF0001204,MANNARKKAD,"PKH COMPLEX,HOSPITAL JN,MANARKKAD,PALAKKAD 678582",PALAKKAD,MANNARKKAD,KERALA,8046443723
105,ESAF SMALL FINANCE BANK LIMITED,ESMF0001205,ANGAMALY,"GROUND FLOOR BL 2,552 21T,B JUNCTION,MANJAPRA ROAD,ANGAMALY",ERNAKULAM,ANGAMALY,KERALA,8046443723
106,ESAF SMALL FINANCE BANK LIMITED,ESMF0001206,KOTTARAKKARA,"PADINJATTATHIL COMPLEX,GOVINTHA MANGALAM ROAD,PULAMON JN,KOTTARAKKARA 691531",KOLLAM,KOTTARAKKARA,KERALA,8046443723
107,ESAF SMALL FINANCE BANK LIMITED,ESMF0001207,KUMBANAD,"ACEL PARK JUNCTION GROUND FLOOR,15 1002,303 2 NEAR MUTTUMON BUS STOP,MUTTUMON JUNCTION T K ROAD THIRUVALLA",PATHANAMTHITTA,THIRUVALLA,KERALA,8046443723
108,ESAF SMALL FINANCE BANK LIMITED,ESMF0001208,MAVELIKARA,"GEO COMMERCIAL COMPLEX GROUND FLOOR,VI 62,63,BL 55 17 MITCHEL JUNCTION,HARIPAD CHENGANNUR ROAD,MAVELIKARA",ALAPPUZHA,MAVELIKARA,KERALA,8046443723
109,ESAF SMALL FINANCE BANK LIMITED,ESMF0001209,ALUVA,"DOOR NO 12,681,12,MANDRAMBILLY BUILDING,NEAR LAKSHMI HOSPITAL,SUB JAIL ROAD,ALUVA 683101 DIST ERNAKULAM",ERNAKULAM,ALUVA,KERALA,8046443723
110,ESAF SMALL FINANCE BANK LIMITED,ESMF0001210,VADAKKANCHERRY,"MANNARKUDY BUILDING,GROUND FLOOR,NEAR PRIVATE BUS STAND,VADAKKANCHERY 678683",PALAKKAD,VADAKKANCHERRY,KERALA,8046443723
111,ESAF SMALL FINANCE BANK LIMITED,ESMF0001211,PATTIKADU,"ESAF TOWER,PATTIKKAD,THRISSUR 680652",THRISSUR,PATTIKADU,KERALA,8046443723
112,ESAF SMALL FINANCE BANK LIMITED,ESMF0001212,WADAKKANCHERY,"UA TOWER,NEAR RAILWAY GATE,WADAKKANCHERY,PIN 680589",THRISSUR,THRISSUR,KERALA,8046443723
113,ESAF SMALL FINANCE BANK LIMITED,ESMF0001213,KANJAPPALLY,"MOHANA COMPLEX GROUND FLOOR,430 1B,OPPOSITE TO BHARAT PETROLIUM PUMP,ANNUR AVINASHI ROAD,KANJAPALLY",COIMBATORE,KANJAPPALLY,TAMIL NADU,8046443723
114,ESAF SMALL FINANCE BANK LIMITED,ESMF0001214,VADAPUDUR,"GROUND FLOOR,336 1D,OPPOSITE TO J V COMPLEX,POLLACHI KOVAI MAINROAD,KINATTUKADAVU",COIMBATORE,KINATTUKADAVU,TAMIL NADU,8046443723
115,ESAF SMALL FINANCE BANK LIMITED,ESMF0001215,MASAGOUNDEN CHETTIPALAYAM,"NO 6,266,OPP MARIAMMAN KOVIL,KARAVALUR ROAD,PONNAIGANDANPUDUR BUS STOP,MASAGOUNDANCHETTIPALAYAM VILLAGE,COIMBATORE DISTRICT,TAMILNADU PIN 641107",COIMBATORE,COIMBATORE,TAMIL NADU,8046443723
116,ESAF SMALL FINANCE BANK LIMITED,ESMF0001216,MANNUTHY,"GLOBAL CENTRE,MANNUTHY JN,MANNUTHY,THRISSUR 680651",THRISSUR,MANNUTHY,KERALA,8046443723
117,ESAF SMALL FINANCE BANK LIMITED,ESMF0001217,KAZHAKKOOTTAM- THIRUVANANTHAPURAM,"RAFA COMPLEX GROUND FLOOR KP,IV,199 C D E F OPPOSITE TO IOC OUTLET KAZHAKOOTTAM,PIN695582",THIRUVANATHAPURAM,KAZHAKKOOTTAM,KERALA,8046443723
118,ESAF SMALL FINANCE BANK LIMITED,ESMF0001218,CHENNAI-VELACHERY,"NO267,33,RITE CHOICE APARTMENTS,VELACHERY MAIN ROAD,VELACHERY,CHENNAI600042",CHENNAI,VELACHERY,TAMIL NADU,8046443723
119,ESAF SMALL FINANCE BANK LIMITED,ESMF0001219,CHENNAI-MOGAPPAIR EAST,"GROUND FLOOR SV NO273,RE SV NO273,6NAIDU HALL,NEAR DAV HIGH SCHOOL PANNEER NAGAR MOGAPPAIR EAST MOGAPPAIR VILLAGE,AMBATTUR TALUK,CHENNAI 600053",CHENNAI,MOGAPPAIR EAST,TAMIL NADU,8046443723
120,ESAF SMALL FINANCE BANK LIMITED,ESMF0001220,MYSORE,"GROUND FLOOR,484 ASHOKA ROAD,MYSORE,KARNATAKA",MYSORE,MYSORE,KARNATAKA,8046443723
121,ESAF SMALL FINANCE BANK LIMITED,ESMF0001221,R.S.PURAM,"SRIVARI KIKANI CENTER,GROUND FLOOR,WD22,2,4,CHINTHAMANI JN,KRISHNASWAMI ROAD,COIMBATORE641002",COIMBATORE,COIMBATORE,TAMIL NADU,8046443723
122,ESAF SMALL FINANCE BANK LIMITED,ESMF0001222,KOZHENCHERY,"SV NO372,7,2,THOTTAPPUZHASSERI VILLAGE,THIRUVALLA TALUK,PATHANAMTHITTA DIST,KERALA689549",PATHANAMTHITTA,THIRUVALLA,KERALA,8046443723
123,ESAF SMALL FINANCE BANK LIMITED,ESMF0001223,CHENNAI-PURASAWALKAM,"MJRK TOWER,GROUND FLOOR PREMICES NO 8,RE SURVEY NO740,1,OLD SV NO285 PART DOC NO2852 OF PURASAWALKAM SRO OPPOSITE GANGADESWARA KOIL PURASAWALKAM GANGADESWARA KOIL STREET CHENNAI CORPORATION600084",CHENNAI,PURASAIWALKAM,TAMIL NADU,8046443723
124,ESAF SMALL FINANCE BANK LIMITED,ESMF0001224,PIRAVOM,"PIRAVOM TOWER,GROUND FLOOR,5,212 E,NEAR OLD PETROL PUMP JN,PIRAVOM MUVATTUPUZHA ROAD,PIRAVOM ERNAKULAMDIST686664",ERNAKULAM,PIRAVOM,KERALA,8046443723
125,ESAF SMALL FINANCE BANK LIMITED,ESMF0001225,PARAVOOR PART,"GROUND FLOOR S 163,9,2 PUKKULAM BUS STOP JN PARAVUR PART PARAVUR CHATHANNUR ROAD PARAVUR PARTKOLLAM PIN691301",KOLLAM,PARAVOOR,KERALA,8046443723
126,ESAF SMALL FINANCE BANK LIMITED,ESMF0001226,MANNANTHALA- THIRUVANANTHAPURAM,"NO37,9,DANIEL TOWER,M C ROAD,MANNANTHALA,MANNANTHALA P O,THIRUVANATHAPURAM695015",THIRUVANANTHAPURAM,MANNANTHALA,KERALA,8046443723
127,ESAF SMALL FINANCE BANK LIMITED,ESMF0001227,NAGPUR,"PLOT NO43,MISAL LAYOUT,PATANKAR CHOWK,NAGPUR440017MAHARASHTRA",NAGPUR,NAGPUR,MAHARASHTRA,8046443723
128,ESAF SMALL FINANCE BANK LIMITED,ESMF0001228,BHOPAL,G9 TOWER GROUND FLOOR A4 A5 OPPOSITE TO AURA MALL GULMOHAR MAHAKALI GIRINIRMAD SEHKARI SAMITI MARYADIT BHOPAL PIN462001,BHOPAL,BHOPAL,MADHYA PRADESH,8046443723
129,ESAF SMALL FINANCE BANK LIMITED,ESMF0001229,IRIMBRANALLUR,"MOIDEEN BUILDINGS,NEAR SANTHI CLINIC,KETTUNGAL JUNCTION,IRIMBRANALLUR,POST KUNDALIYUR,THRISSUR 680616",THRISSUR,IRIMBRANALLUR,KERALA,8046443723
130,ESAF SMALL FINANCE BANK LIMITED,ESMF0001230,HARIPAD,"DOOR NO21 22,GLORIA ARCADE,NEAR R K JUNCTION,N H 66,HARIPAD,ALAPUZHA DISTRICT PINCODE 690514",Alapuzha,HARIPAD,KERALA,8046443723
131,ESAF SMALL FINANCE BANK LIMITED,ESMF0001231,UNJAMPATTY,"PPS COMPLEX,452,PERIYAKULAM ROAD,UNJAMPATTY VILLAGE,THENI DISTRICT,TAMILNADU,PIN 625531",THENI,UNJAMPATTY,TAMIL NADU,8046443723
132,ESAF SMALL FINANCE BANK LIMITED,ESMF0001232,KODOM,"MEMORIAL BUILDINGS,SY NO 1 42AIB,KODOM VILLAGE,VELLARIKUNDU TALUK,KASARGOD",KASARGOD,KASARGODE,KERALA,8046443723
133,ESAF SMALL FINANCE BANK LIMITED,ESMF0001233,CHALAKKAL,"DOOR NO 10 31C,D,CHITILAPPALLY TOWERS,OLD MARKET JUNCTION,CHALAKKAL",THRISSUR,THRISSUR,KERALA,8046443723
134,ESAF SMALL FINANCE BANK LIMITED,ESMF0001234,CHANGANASSERY,"MARATTE TOWER, NEAR PRIVATE BUS STAND,PLACE ROAD",KOTTAYAM,CHANGANASSERY,KERALA,8046443723
135,ESAF SMALL FINANCE BANK LIMITED,ESMF0001235,MOTTANUTHU,"DOOR NO2 104,NAGULAGOUNDANPATTY VILLAGE AND P O MOTTANUTHU,THENI DISCTRICT,TAMIL NADU,625512",THENI,THENI,TAMIL NADU,0
136,ESAF SMALL FINANCE BANK LIMITED,ESMF0001236,CHEEMENI II,"SY NO44 1,CHEEMENI VILLAGE,KALICHAMARAM JUNCTION,KASARGOD DISTRICT,670314",KASARGOD,KASARGODE,KERALA,0
137,ESAF SMALL FINANCE BANK LIMITED,ESMF0001237,INDORE,"EB 237,KACHAN PLACE,OPP BOMBAY HOSPITAL,94 SCHEME,BOMBAY HOSPITAL ROAD,INDORE,MADHYA PRADESH 452010",INDORE,INDORE,MADHYA PRADESH,0
138,ESAF SMALL FINANCE BANK LIMITED,ESMF0001238,PUNE,"NO 9,10,19,SAMRUDDHI CENTER,NEAR CHANDAN NAGAR SQUARE,KHARADI,PUNE NAGAR ROAD,PUNE,MAHARASHTRA,411014",PUNE,PUNE,MAHARASHTRA,8589026181
139,ESAF SMALL FINANCE BANK LIMITED,ESMF0001240,KOLKATA G C AVENUE,"NO 34,BAGATI HOUSE,GANESH CHANDRA AVENUE,KOLKATA,PIN700013",KOLKATA,KOLKATA,WEST BENGAL,8589026181
140,ESAF SMALL FINANCE BANK LIMITED,ESMF0001241,SALEM,"PREMA PERUMAL TRINITY COMMERCIAL COMPLEX,NEAR KEERTHANA THEATRE,SALEM JUNCTION,SALEM,TAMIL NADU 636005",SALEM,SALEM,TAMIL NADU,0
141,ESAF SMALL FINANCE BANK LIMITED,ESMF0001242,KOLKATA GARIA RATHTALLA,"NO 271A,ELITE MANOR BUILDING,NEAR GEETANJALI METRO STN,GARIA RATHTALA,N S ROAD,KOLKATA,PIN700047",KOLKATA,KOLKATA,WEST BENGAL,8589026181
142,ESAF SMALL FINANCE BANK LIMITED,ESMF0001244,ERODE,"GROUND FLOOR,VELMURUGAN COMPLEX,NEAR DINA THANTHI OFFICE,NACHIAPPA STREET,ERODE,TAMIL NADU 638001",ERODE,ERODE,TAMIL NADU,0
143,ESAF SMALL FINANCE BANK LIMITED,ESMF0001245,BHILAI,"GROUND FLOOR,SHANTI PALZA,NEAR MAA AMBEY HOSPITAL,POWER HOUSE,G E ROAD,BHILAI,DURG,CHHATTISGARH 490011","BHILAI,DURG",BHILAI,CHHATTISGARH,0
144,ESAF SMALL FINANCE BANK LIMITED,ESMF0001247,MUMBAI VASHI,"YOGITA SADAN,GROUND FLOOR,PLOT NO 3,SECTOR 26 A,TURBHE ROAD,VASHI,NAVI MUMBAI-400705",MUMBAI,MUMBAI VASHI,MAHARASHTRA,0
145,ESAF SMALL FINANCE BANK LIMITED,ESMF0001249,HOSUR,"643 1 D,RKG MANOR,OPP TRAFFIC POLICE STN,BANGALORE BYPASS ROAD,HOSUR,TAMIL NADU 635109",HOSUR,HOSUR,TAMIL NADU,0
146,ESAF SMALL FINANCE BANK LIMITED,ESMF0001251,CUTTACK,"S R CONCLAVE,NEAR SANGAM CINEMA HALL,MAHATAB ROAD,ARUNODAYA MARKET P.O,CUTTACK,ODISHA753012",CUTTACK,CUTTACK,ODISHA,8589026181
147,ESAF SMALL FINANCE BANK LIMITED,ESMF0001253,COLACHEL,"DOOR NO 419 A,GROUND FLOOR,4 20,NEAR ANNASILAI JN,ANNASILAI BEACH ROAD,COLACHEL,KANYAKUMARI,TAMIL NADU 629251",KANYAKUMARI,COLACHEL,TAMIL NADU,0
148,ESAF SMALL FINANCE BANK LIMITED,ESMF0001254,VIZHINJAM,"NO 354 5A,HENRY ARCADE,VIZHINJAM,THIRUVANANTHAPURAM 695521",THIRUVANANTHAPURAM,VIZHINJAM,KERALA,0
149,ESAF SMALL FINANCE BANK LIMITED,ESMF0001255,DHANBAD,"BHRAMDEO CHAMBERS,SARAIDHELA MAIN ROAD,NEAR OZONE GALLERIA MALL,SARAIDHELA,DHANBAD,JHARKHAND 828127",DHANBAD,DHANBAD,JHARKHAND,0
150,ESAF SMALL FINANCE BANK LIMITED,ESMF0001256,DHAMTARI,"BALAJI PLAZA,PLOT NO43 1,43 4,GROUND AND FIRST FLOOR,MOTOR STAND WARD,DHAMTARI,CHATTISGARH 493773",DHAMTARI,DHAMTARI,CHHATTISGARH,0
151,ESAF SMALL FINANCE BANK LIMITED,ESMF0001257,BALOD,"KRISHNA PLAZA,NEAR RAILWAY STATION,HALDI,BALOD RAJNANDGAON ROAD,BALOD,CHHATTISGARH 491226",BALOD,BALOD,CHHATTISGARH,0
152,ESAF SMALL FINANCE BANK LIMITED,ESMF0001258,WASHIM,"PATNI COMMERCIAL COMPLEX,WING B,NO 3,4,5,RISOD ROAD,WASHIM,MAHARASHTRA 444505",WASHIM,WASHIM,MAHARASHTRA,0
153,ESAF SMALL FINANCE BANK LIMITED,ESMF0001260,SIRONCHA,"DOOR NO 908,SURVEY NO 503 2,NEAR BUS STAND,SIRONCHA,GADCHIROLI,MAHARASHTRA 442504",GADCHIROLI,SIRONCHA,MAHARASHTRA,0
154,ESAF SMALL FINANCE BANK LIMITED,ESMF0001262,BUTIBORI,"METRO SQUARE,NO 28,29,30,PLOT NO X 1,NEAR POLICE STN,BUTIBORI INDUSTRIAL AREA,RENGAPAR,NAGPUR,MAHARASHTRA 441122",NAGPUR,BUTIBORI,MAHARASHTRA,0
155,ESAF SMALL FINANCE BANK LIMITED,ESMF0001263,WARDHA,"GIRIRAJ BHAVAN,PLOT NO 2,AARTI CHOWK,NEAR AARTI TAKIES,NAGPUR ROAD,WARDHA,MAHARASHTRA 442001",WARDHA,WARDHA,MAHARASHTRA,0
156,ESAF SMALL FINANCE BANK LIMITED,ESMF0001264,KOYTTAYI I,"MINI BHARAS COMPLEX,KOTTAYI I VILLAGE,PALAKKAD,678572",PALAKKAD,KOYTTAYI I,KERALA,0
157,ESAF SMALL FINANCE BANK LIMITED,ESMF0001266,POLLACHI,"58 3A,OPP ATSC THEATER,MUNCIPAL BOYS HSS STREET,POLLACHI,COIMBATORE,TAMIL NADU 642001",COIMBATORE,POLLACHI,TAMIL NADU,0
158,ESAF SMALL FINANCE BANK LIMITED,ESMF0001267,PUNALUR,"KANNAN ARCADE,13 872 C D,NEAR SREE KRISHNA SWAMI TEMPLE,ANJAL ROAD,PUNALUR,KOLLAM 691305",KOLLAM,PUNALUR,KERALA,0
159,ESAF SMALL FINANCE BANK LIMITED,ESMF0001269,ANAMALAI,"4 5,RAJAPPA MUTHALIYAR STREET,NEAR S R LODGE,ANAMALAI,COIMABTORE,TAMIL NADU 642104",COIMBATORE,ANAMALAI,TAMIL NADU,0
160,ESAF SMALL FINANCE BANK LIMITED,ESMF0001273,MUTHALAMADA,"IST FLOOR,P S S PLAZA,MUTHALAMADA ROAD,MUTHALAMADA,PALAKKAD 678507",PALAKKAD,MUTHALAMADA,KERALA,0
161,ESAF SMALL FINANCE BANK LIMITED,ESMF0001274,KORBA,"GURU SHRADDHA TOWER,KHASRA NO 192 17,193 11,NAHARIKA GANTAGARH ROAD,KORBA,CHHATTISGARH 495677",KORBA,KORBA,CHHATTISGARH,0
162,ESAF SMALL FINANCE BANK LIMITED,ESMF0001275,PITHORA,"NO 12,WARD NO 47,BUS STAND ROAD,PITHORA,MAHASAMUND,CHATTISGARH 493551",MAHASAMUND,PITHORA,CHHATTISGARH,0
163,ESAF SMALL FINANCE BANK LIMITED,ESMF0001276,MAHASAMUND,"RAJPUT TOWER,RAIPUR ROAD,MAHASAMUND,CHATTISGARH 493445",MAHASAMUND,MAHASAMUND,CHHATTISGARH,0
164,ESAF SMALL FINANCE BANK LIMITED,ESMF0001278,RAIGARH,"SHYAM TOWER,JAGATPUR VILLAGE,DHIMRAPUR,RAIGARH,CHHATTISGARH 496001",RAIGARH,RAIGARH,CHHATTISGARH,0
165,ESAF SMALL FINANCE BANK LIMITED,ESMF0001279,BHANDARA,"KHAN COMPLEX,PLOT NO 34,GROUND FLOOR,OPP JINDAL PETROL PUMP,SAINATH COLONY,NH 6 ROAD,BHANDARA,MAHARASHTRA 441904",BHANDARA,BHANDARA,MAHARASHTRA,0
166,ESAF SMALL FINANCE BANK LIMITED,ESMF0001280,GADCHANDUR,"SWAPNAPUTRI,PLOT NO 13,14,19,20,NEAR NAGAR PARISHADH,ADILABAD ROAD,GADCHANDUR,CHANDRAPUR DIST,MAHARASHTRA 442908",CHANDRAPUR,GADCHANDUR,MAHARASHTRA,0
167,ESAF SMALL FINANCE BANK LIMITED,ESMF0001281,NAGBHID,"NO 463 15,NEAR KALE HOSPITAL,NH 6 ROAD,NAGBHID,CHANDRAPUR DIST,MAHARASHTRA 442908",CHANDRAPUR,NAGBHID,MAHARASHTRA,0
168,ESAF SMALL FINANCE BANK LIMITED,ESMF0001282,WARORA,"NO 21,VINAYAK LAYOUT,TILAK WARD,NEAR RATNAMALA SQUARE,WARORA,CHANDRAPUR DIST,MAHARASHTRA 442907",CHANDRAPUR,WARORA,MAHARASHTRA,0
169,ESAF SMALL FINANCE BANK LIMITED,ESMF0001283,EDAKKARA,"MUSLIYARANGADI,EDAKKARA P O,MALAPPURAM,KERALA 679331",MALAPPURAM,EDAKKARA,KERALA,0
170,ESAF SMALL FINANCE BANK LIMITED,ESMF0001285,VARKALA,"GROUND FLOOR,SHAM COMPLEX,OPP RAILWAY STATION,VARKALA,THIRUVANANTHAPURAM 695141",THIRUVANANTHAPURAM,VARKALA,KERALA,0
171,ESAF SMALL FINANCE BANK LIMITED,ESMF0001286,RAJNANDGAON,"KANWAR HEIGHTS,KHASRA NI80 14,86 19,KOURIN BHATHA VILLAGE,RAJNANDGAON,CHATTISGARH 491441",RAJNANDGAON,RAJNANDGAON,CHHATTISGARH,0
172,ESAF SMALL FINANCE BANK LIMITED,ESMF0001287,KULASEKARAM,"DOOR NO 2 185 4,IST FLOOR,ARANIVILAI,NEAR JAYA HOSPITAL,KULASEKARAM,KANYAKUMARI,TAMIL NADU 629161",KANYAKUMARI,KULASEKARAM,TAMIL NADU,0
173,ESAF SMALL FINANCE BANK LIMITED,ESMF0001289,DONAGARGARH,"BLDNG NO 932 2 3,NEAR BHAGAT SINGH SQUARE,DONGARGARH,RAJNANDGAON,CHATTISGARH 491445",RAJNANDGAON,DONAGARGARH,CHHATTISGARH,0
174,ESAF SMALL FINANCE BANK LIMITED,ESMF0001290,BRAHMAPURI,"1ST FLOOR,SRI NANDKISHOR DEVAJI,PISE PLOT NO 50,SHESHNAGAR,BRAHMAPURI,CHANDRAPUR DIST,MAHARASHTRA 441206",BRAHMAPURI,BRAHMAPURI,MAHARASHTRA,0
175,ESAF SMALL FINANCE BANK LIMITED,ESMF0001291,VENNUR,"DOOR NO 31,32,9,SY NO 105 2,VENNUR VILLAGE,VENNUR P O,THRISSUR 680587",THRISSUR,THRISSUR,KERALA,8589041612
176,ESAF SMALL FINANCE BANK LIMITED,ESMF0001292,KAINAKARY NORTH,"NO.167 D,PAZHAYAMPALLIL BUILDING,KAINAKARY NORTH VILLAGE,KAINAKARY P.O,ALAPPUZHA DIST PIN688501",ALAPUZHA,ALAPUZHA,KERALA,8589944472
177,ESAF SMALL FINANCE BANK LIMITED,ESMF0001293,KARIMBAN,"NO4 1067 72,NELLAMKUZHIYIL BUILDING,NERIAMANGALAM MAIN ROAD,KARIMBAN,IDUKKI,KERALA 685602",IDUKKI,KARIMBAN,KERALA,0
178,ESAF SMALL FINANCE BANK LIMITED,ESMF0001294,WARASEONI,"UTKARSHA CITY,WARD NO8,WARASEONI,BALAGHAT,MADHYA PRADESH 481331",BALAGHAT,WARASEONI,MADHYA PRADESH,0
179,ESAF SMALL FINANCE BANK LIMITED,ESMF0001297,BAGBAHARA,"KRISHNA KUNJI,PLOT NO30 9,LALPUR,BAGBAHARA,MAHASAMUND,CHHATTISGARH 493449",MAHASAMUND,BAGBAHARA,CHHATTISGARH,0
180,ESAF SMALL FINANCE BANK LIMITED,ESMF0001298,RAMTEK,"CHANNA CLASSES,AMBEDKAR CHOWK,TEHSIL ROAD,RAMTEK,MAHARASHTRA 441106",RAMTEK,RAMTEK,MAHARASHTRA,0
181,ESAF SMALL FINANCE BANK LIMITED,ESMF0001299,WARUD,"NO 357,GROUND FLOOR,SHRIRAOWADI,APPROACH ROAD,WARUD,AMRAVATI 444906",WARUD,WARUD,MAHARASHTRA,0
182,ESAF SMALL FINANCE BANK LIMITED,ESMF0001300,PARASSALA,"MATHARAKAL COMPLEX,PARASUVAIKKAL,KALIAKKAVILAI THIRUVANANTHAPURAM ROAD,PARASSALA,THIRUVANANTHAPURAM 695508",THIRUVANANTHAPURAM,PARASSALA,KERALA,0
183,ESAF SMALL FINANCE BANK LIMITED,ESMF0001301,BALUSSERY,"GROUND FLOOR,DOWN TOWN COMPLEX,BALUSSERY KOILANDI S H ROAD,BALUSSERY,KOZHIKODE,KERALA 673612",KOZHIKODE,BALUSSERY,KERALA,0
184,ESAF SMALL FINANCE BANK LIMITED,ESMF0001308,METTUPALAYAM,"NO 70 22,70 21,VELAKANNI BUS STOP,OPP IYAPPAN KOVIL KARAMADAI ROAD,MATTUPALAYAM,COIMBATORE,TAMIL NADU 641601",COIMBATORE,METTUPALAYAM,TAMIL NADU,0
185,ESAF SMALL FINANCE BANK LIMITED,ESMF0001310,BATLAGUNDU,"NO 14 5,GANDHINAGAR,BATLAGUNDU,NILAKOTAI TK,DINDIGUL,TAMIL NADU 624202",DINDIGUL,BATLAGUNDU,TAMIL NADU,0
186,ESAF SMALL FINANCE BANK LIMITED,ESMF0001312,THINOOR,"SY NO 123 812,THINOOR VILLAGE,KUMBALALACHOLA JUNCTION,P O VILANGAD,KOZHIKODE 673506",KOZHIKODE,THINOOR,KERALA,0
187,ESAF SMALL FINANCE BANK LIMITED,ESMF0001313,ELAVAMALI,"SY NO 284 17,ELAVAMALAI VILLAGE,NEAR GRACE HSS,BHAWANI KAVUNDAPADI ROAD,ERODE,TAMIL NADU 638316",ERODE,ELAVAMALI,TAMIL NADU,0
188,ESAF SMALL FINANCE BANK LIMITED,ESMF0001321,AMBODI,"SYNO 229,NEAR SELLAP PANPALAYAM BUS STOP,COIMBATORE SATHYAMANGALAM ROAD,COIMBATORE,TAMIL NADU 638459",OMAOE,AMBODI,TAMIL NADU,0
189,ESAF SMALL FINANCE BANK LIMITED,ESMF0001323,VELLANAIPATTI,"NO3 2 1,2,R R COMPLEX,NEAR P A M SCHOOL,ARASUR ROAD,VELLANAIPATTI VILLAGE,COIMBATORE,TAMIL NADU 641048",OMAOE,VELLANAIPATTI,TAMIL NADU,0
190,ESAF SMALL FINANCE BANK LIMITED,ESMF0001343,BOUNSI,"MANORAMA COMPLEX,THANA ROAD,BOUNSI,BANKA,BIHAR 813104",BANKA,BOUNSI,BIHAR,0
191,ESAF SMALL FINANCE BANK LIMITED,ESMF0001344,PAKHANJORE,"P V116,COLLEGE ROAD,NEAR YAMAHA SHOWROOM,PAKHANJORE,KANKER,CHHATTISGARH 494776",KANKER,PAKHANJORE,CHHATTISGARH,0
192,ESAF SMALL FINANCE BANK LIMITED,ESMF0001345,BAGODAR,"SHRI KESHRI NANDAN COMPLEX,NEAR DURGA MANDIR,BAGODAR,GIRIDIH,JHARKHAND 825322",GIRIDIH,BAGODAR,JHARKHAND,0
193,ESAF SMALL FINANCE BANK LIMITED,ESMF0001346,PAKUR,"IIND FLOOR,APARNA MARKET COMPLEX,THANAPARA,HATPARA,PAKUR,JHARKHAND 816107",PAKUR,PAKUR,JHARKHAND,0
194,ESAF SMALL FINANCE BANK LIMITED,ESMF0001347,CHAMARAJANAGAR,"ASHA COMPLEX,BUJANGESHWARA EXTENSION SAMPIGE ROAD,NEAR AXIS BANK,CHAMARAJANAGAR,KARNATAKA 571313",KARNATAKA,CHAMARAJANAGAR,KARNATAKA,0
195,ESAF SMALL FINANCE BANK LIMITED,ESMF0001348,MANDYA,"NO11,1ST FLOOR SHIVAPRA,COMMERCIAL COMPLEX,M C ROAD,NEAR KALLAHALLI CIRCLE,MADYA,KARNATAKA 571401",MADYA,MANDYA,KARNATAKA,0
196,ESAF SMALL FINANCE BANK LIMITED,ESMF0001349,HASSAN,"KALABAIRAVESHWARA TOWER,WARD NO 34,H N PURA ROAD,CHANNAPATTANA,HASSAN DIST,KARNATAKA 573201",HASSAN,HASSAN,KARNATAKA,0
197,ESAF SMALL FINANCE BANK LIMITED,ESMF0001352,KALPETTA,"SR TOWER,NEAR LEO HOSPITAL,KALPETTA,WAYANAD DISTRICT,KERALA 673132",WAYANAD,KALPETTA,KERALA,0
198,ESAF SMALL FINANCE BANK LIMITED,ESMF0001353,POOVAR,"HS HAMEED COMPLEX,OPPOSITE KSRTC BUS STAND,POOVAR P O,THIRUVANATHAPURAM 695525",THIRUVANATHAPURAM,POOVAR,KERALA,0
199,ESAF SMALL FINANCE BANK LIMITED,ESMF0001354,VAIKOM,"ELAMABASSERIL BUILDING,IST FLOOR,VALIYAKAVALA,NORTH GATE,VAIKOM TOWN P O,KOTTAYAM 686141",KOTTAYAM,VAIKOM,KERALA,0
200,ESAF SMALL FINANCE BANK LIMITED,ESMF0001355,THRIKKUNNAPUZHA,"KOOTUNGAL BUILDING,KOTTEMURI,THRIKKUNNAPUZHA,ALAPUZHA,KERALA 688011",ALAPUZHA,THRIKKUNNAPUZHA,KERALA,0
201,ESAF SMALL FINANCE BANK LIMITED,ESMF0001356,AMBALLUR,"KOODLY ARCADE,ALAGAPPA NAGAR,AMBALLUR,THRISSUR 680302",THRISSUR,AMBALLUR,KERALA,0
202,ESAF SMALL FINANCE BANK LIMITED,ESMF0001357,AROOR,"2ND FLOOR,NELLIKKAVELIL BUILDING,OPP AROOR POST OFFICE,AROOR P O,ALAPUZHA 688534",ALAPUZHA,AROOR,KERALA,0
203,ESAF SMALL FINANCE BANK LIMITED,ESMF0001358,KATTAKKADA,"A A BUILDING,NEAR INDIAN OIL PETROL PUMP,TRIVANDRUM ROAD,KATTAKADA",TRIVANDRUM,KATTAKKADA,KERALA,0
204,ESAF SMALL FINANCE BANK LIMITED,ESMF0001359,KOYILANDI,"K SAROJ COMPLEX,RAILWAY STATION ROAD,KOYILANDY,KOZHIKODE,KERALA 673613",KOZHIKODE,KOYILANDI,KERALA,0
205,ESAF SMALL FINANCE BANK LIMITED,ESMF0001360,PAYYANNUR,"NEAR MALABAR TVS BIKE SHOWROOM,PERUMBA BYPASS ROAD,PAYYANNUR,KANNUR 670307",KANNUR,PAYYANNUR,KERALA,0
206,ESAF SMALL FINANCE BANK LIMITED,ESMF0001361,THRISSUR,"OPP TO CSI CHURCH,MISSION QUARTERS ROAD,THRISSUR 680001",THRISSUR,THRISSUR,KERALA,0
207,ESAF SMALL FINANCE BANK LIMITED,ESMF0001362,NAGOD,"IST FLOOR,OPP JILLA SAHAKARI BANK,SABJI MANDI ROAD,NAGOD,SATNA,MADHYA PRADESH 485446",SATNA,NAGOD,MADHYA PRADESH,0
208,ESAF SMALL FINANCE BANK LIMITED,ESMF0001363,SEONI,"IST FLOOR,RAMAYAN SADAN,JABALPUR ROAD,LUGHARWADA P O,BHINJHARWADA,SEONI,MADHYA PRADESH 480661",SEONI,SEONI,MADHYA PRADESH,0
209,ESAF SMALL FINANCE BANK LIMITED,ESMF0001364,SHAHDOL,"GROUND FLOOR,WARD NO 18,NEW BUS STAND ROAD,NEAR BADERIYA BHAVAN,SHAHDOL,MADHYA PRADESH 484001",SHAHDO,SHAHDOL,MADHYA PRADESH,0
210,ESAF SMALL FINANCE BANK LIMITED,ESMF0001365,KATNI,"IST FLOOR,UPSTAIRS OF BANK OF INDIA,JABALPUR ROAD,NH7,NEAR MADHAV NAGAR GATE,KATNI,MADHYA PRADESH 483501",KATNI,KATNI,MADHYA PRADESH,0
211,ESAF SMALL FINANCE BANK LIMITED,ESMF0001366,BETUL,"AWASTHI COMPLEX,1ST FLOOR,NEAR CANARA BANK& LIC OFFICE,JH COLLEGE ROAD,BETUL,MADHYA PRADESH 460001",BETUL,BETUL,MADHYA PRADESH,0
212,ESAF SMALL FINANCE BANK LIMITED,ESMF0001367,SAGAR,"H N 8 1ST FLOOR,NEAR DR KANIHYA LAL HOSPITAL,MAKRONIYA ROAD,SHANKARGHAR,SAGAR,MADHYA PRADESH,470001",SAGAR,SAGAR,MADHYA PRADESH,0
213,ESAF SMALL FINANCE BANK LIMITED,ESMF0001368,KURKHEDA,"MANUJA COMPLEX,NEAR OLD BUS STAND,MAIN ROAD KURKHEDA,GADCHIROL DIST,MAHARASHTRA 441209",GADCHIROL,KURKHEDA,MAHARASHTRA,0
214,ESAF SMALL FINANCE BANK LIMITED,ESMF0001369,KOVALAM,"5 290,DESAI CHETTY STREET,NEAR BSNL OFFICE,KOVALAM,KANCHIPURAM,TAMIL NADU 442603",KANCHIPURAM,KOVALAM,TAMIL NADU,0
215,ESAF SMALL FINANCE BANK LIMITED,ESMF0001370,CHAMORSHI,"GUMUEL COMPLEX,NEAR ZP SCHOOL,CHAMORSHI,GADCHIROLI DIST,MAHARASHTRA 442603",ACIOI,CHAMORSHI,MAHARASHTRA,0
216,ESAF SMALL FINANCE BANK LIMITED,ESMF0001371,ONDI PUTHUR,"NO 22,VASANTHNAGAR,DEEPAM COMPLEX,SINGANALLUR,COIMBATORE,TAMIL NADU 641005",COIMBATORE,ONDI PUTHUR,TAMIL NADU,0
217,ESAF SMALL FINANCE BANK LIMITED,ESMF0001372,ANDIPATTI,"SUGUNA COMPLEX,OPP TO POST OFFICE,CHETTIYARPEATTAI,ANDIPATI,THENI,TAMIL NADU 625512",THENI,ANDIPATTI,TAMIL NADU,0
218,ESAF SMALL FINANCE BANK LIMITED,ESMF0001373,KANYAKUMARI,"DOOR NO 13 28,IST FLOOR,ARUMUGANADAR COMPLEX,SALAIPUDUR,LEVINJIPURAM POST,TIRUNELVELI,TAMIL NADU 627114",TIRUNELVELI,KANYAKUMARI,TAMIL NADU,0
219,ESAF SMALL FINANCE BANK LIMITED,ESMF0001374,THOOTHUR,"DOOR NO 17 13 B,17 11D,SLAEM COMPLEX,OPPO NALAVAHVU CHURCH,NIHRAVILAI,KANYAKUMARI,TAMIL NADU 629176",KANYAKUMARI,THOOTHUR,TAMIL NADU,0
220,ESAF SMALL FINANCE BANK LIMITED,ESMF0001376,MINJUR,"NO 20 C,KATTUR ROAD,MINJUR,THIRUVALLUR,TAMIL NADU 601203",THIRUVALLUR,MINJUR,TAMIL NADU,0
221,ESAF SMALL FINANCE BANK LIMITED,ESMF0001377,KANGEYAM,"NO 46,2ND FLOOR,ASP COMPLEX,OPPOSITE TO BUS STAND,KANGEYAM,TIRUPPUR,TAMIL NADU 638701",TIRUPPUR,KANGEYAM,TAMIL NADU,0
222,ESAF SMALL FINANCE BANK LIMITED,ESMF0001378,THAKKALAI,"ANGEL COMPLEX,THAKKALAI,METTUKADAI ROAD,PADMANABAPURAM MUNCIPALITY,KALKULAM TALUK,KANYAKUMARI,TAMIL NADU 629175",KANYAKUMARI,THAKKALAI,TAMIL NADU,0
223,ESAF SMALL FINANCE BANK LIMITED,ESMF0001379,BODINAYAKANUR,"RAVI COMPLEX,JEEVA NAGAR,THEVARAM ROAD,BODINAYAKANUR,THENI,TAMIL NADU 625513",THENI,BODINAYAKANUR,TAMIL NADU,0
224,ESAF SMALL FINANCE BANK LIMITED,ESMF0001380,THIRUVANNAMALAI,"NO 330 A,POLUR ROAD SELVA NAGAR,VENGIKAL,THRIVANNAMALAI,TAMIL NADU 606604",THRIVANNAMALAI,THIRUVANNAMALAI,TAMIL NADU,0
225,ESAF SMALL FINANCE BANK LIMITED,ESMF0001381,KANCHIPURAM,"NO 15,PSK NAGAR,IST MAIN ROAD,IST FLOOR,SEVILIMEDU VILLAGE AND POST,KANCHIPURAM,TAMIL NADU 631501",KANCHIPURAM,KANCHIPURAM,TAMIL NADU,0
226,ESAF SMALL FINANCE BANK LIMITED,ESMF0001382,NAGERCOIL,"SUBRAMANIYAM COMPLEX 129,MS ROAD,VADASERY JUN,NAGERCOIL,KANYAKUMARI 629001",KANYAKUMARI,NAGERCOIL,TAMIL NADU,0
227,ESAF SMALL FINANCE BANK LIMITED,ESMF0001383,RAMPURHAT,"MOSKERA HOUSE,NATEJEE ROAD NALHATI,RAMPURHAT,BIRBHUM,WEST BENGAL 731220",BIRBHUM,RAMPURHAT,WEST BENGAL,0
